Station_ID|Station_name|Year|Month|Day|Hour|Minute|Latitude|Longitude|Elevation|temperature|temperature_Measurement_Code|temperature_Quality_Code|temperature_Report_Type|temperature_Source_Code|temperature_Source_Station_ID|dew_point_temperature|dew_point_temperature_Measurement_Code|dew_point_temperature_Quality_Code|dew_point_temperature_Report_Type|dew_point_temperature_Source_Code|dew_point_temperature_Source_Station_ID|station_level_pressure|station_level_pressure_Measurement_Code|station_level_pressure_Quality_Code|station_level_pressure_Report_Type|station_level_pressure_Source_Code|station_level_pressure_Source_Station_ID|sea_level_pressure|sea_level_pressure_Measurement_Code|sea_level_pressure_Quality_Code|sea_level_pressure_Report_Type|sea_level_pressure_Source_Code|sea_level_pressure_Source_Station_ID|wind_direction|wind_direction_Measurement_Code|wind_direction_Quality_Code|wind_direction_Report_Type|wind_direction_Source_Code|wind_direction_Source_Station_ID|wind_speed|wind_speed_Measurement_Code|wind_speed_Quality_Code|wind_speed_Report_Type|wind_speed_Source_Code|wind_speed_Source_Station_ID|wind_gust|wind_gust_Measurement_Code|wind_gust_Quality_Code|wind_gust_Report_Type|wind_gust_Source_Code|wind_gust_Source_Station_ID|precipitation|precipitation_Measurement_Code|precipitation_Quality_Code|precipitation_Report_Type|precipitation_Source_Code|precipitation_Source_Station_ID|relative_humidity|relative_humidity_Measurement_Code|relative_humidity_Quality_Code|relative_humidity_Report_Type|relative_humidity_Source_Code|relative_humidity_Source_Station_ID|wet_bulb_temperature|wet_bulb_temperature_Measurement_Code|wet_bulb_temperature_Quality_Code|wet_bulb_temperature_Report_Type|wet_bulb_temperature_Source_Code|wet_bulb_temperature_Source_Station_ID|pres_wx_MW1|pres_wx_MW1_Measurement_Code|pres_wx_MW1_Quality_Code|pres_wx_MW1_Report_Type|pres_wx_MW1_Source_Code|pres_wx_MW1_Source_Station_ID|pres_wx_MW2|pres_wx_MW2_Measurement_Code|pres_wx_MW2_Quality_Code|pres_wx_MW2_Report_Type|pres_wx_MW2_Source_Code|pres_wx_MW2_Source_Station_ID|pres_wx_MW3|pres_wx_MW3_Measurement_Code|pres_wx_MW3_Quality_Code|pres_wx_MW3_Report_Type|pres_wx_MW3_Source_Code|pres_wx_MW3_Source_Station_ID|pres_wx_AU1|pres_wx_AU1_Measurement_Code|pres_wx_AU1_Quality_Code|pres_wx_AU1_Report_Type|pres_wx_AU1_Source_Code|pres_wx_AU1_Source_Station_ID|pres_wx_AU2|pres_wx_AU2_Measurement_Code|pres_wx_AU2_Quality_Code|pres_wx_AU2_Report_Type|pres_wx_AU2_Source_Code|pres_wx_AU2_Source_Station_ID|pres_wx_AU3|pres_wx_AU3_Measurement_Code|pres_wx_AU3_Quality_Code|pres_wx_AU3_Report_Type|pres_wx_AU3_Source_Code|pres_wx_AU3_Source_Station_ID|pres_wx_AW1|pres_wx_AW1_Measurement_Code|pres_wx_AW1_Quality_Code|pres_wx_AW1_Report_Type|pres_wx_AW1_Source_Code|pres_wx_AW1_Source_Station_ID|pres_wx_AW2|pres_wx_AW2_Measurement_Code|pres_wx_AW2_Quality_Code|pres_wx_AW2_Report_Type|pres_wx_AW2_Source_Code|pres_wx_AW2_Source_Station_ID|pres_wx_AW3|pres_wx_AW3_Measurement_Code|pres_wx_AW3_Quality_Code|pres_wx_AW3_Report_Type|pres_wx_AW3_Source_Code|pres_wx_AW3_Source_Station_ID|snow_depth|snow_depth_Measurement_Code|snow_depth_Quality_Code|snow_depth_Report_Type|snow_depth_Source_Code|snow_depth_Source_Station_ID|visibility|visibility_Measurement_Code|visibility_Quality_Code|visibility_Report_Type|visibility_Source_Code|visibility_Source_Station_ID|altimeter|altimeter_Measurement_Code|altimeter_Quality_Code|altimeter_Report_Type|altimeter_Source_Code|altimeter_Source_Station_ID|pressure_3hr_change|pressure_3hr_change_Measurement_Code|pressure_3hr_change_Quality_Code|pressure_3hr_change_Report_Type|pressure_3hr_change_Source_Code|pressure_3hr_change_Source_Station_ID|sky_cover_1|sky_cover_1_Measurement_Code|sky_cover_1_Quality_Code|sky_cover_1_Report_Type|sky_cover_1_Source_Code|sky_cover_1_Source_Station_ID|sky_cover_baseht_1|sky_cover_baseht_1_Measurement_Code|sky_cover_baseht_1_Quality_Code|sky_cover_baseht_1_Report_Type|sky_cover_baseht_1_Source_Code|sky_cover_baseht_1_Source_Station_ID|sky_cover_2|sky_cover_2_Measurement_Code|sky_cover_2_Quality_Code|sky_cover_2_Report_Type|sky_cover_2_Source_Code|sky_cover_2_Source_Station_ID|sky_cover_baseht_2|sky_cover_baseht_2_Measurement_Code|sky_cover_baseht_2_Quality_Code|sky_cover_baseht_2_Report_Type|sky_cover_baseht_2_Source_Code|sky_cover_baseht_2_Source_Station_ID|sky_cover_3|sky_cover_3_Measurement_Code|sky_cover_3_Quality_Code|sky_cover_3_Report_Type|sky_cover_3_Source_Code|sky_cover_3_Source_Station_ID|sky_cover_baseht_3|sky_cover_baseht_3_Measurement_Code|sky_cover_baseht_3_Quality_Code|sky_cover_baseht_3_Report_Type|sky_cover_baseht_3_Source_Code|sky_cover_baseht_3_Source_Station_ID|remarks|remarks_Measurement_Code|remarks_Quality_Code|remarks_Report_Type|remarks_Source_Code|remarks_Source_Station_ID
USI0000KCCB|CABLE|2017|12|07|02|15|34.1115|-117.6876|438.6|19.0||1|FM15-METAR|223|ICAO-KCCB|-15.0||1|FM15-METAR|223|ICAO-KCCB|||||||||||||270|N-Normal|1|FM15-METAR|223|ICAO-KCCB|2.1|N-Normal|1|FM15-METAR|223|ICAO-KCCB|||||||||||||9|Derived||FM15-METAR|223|ICAO-KCCB|||||||||||||||||||||||||||||||||||||||||||||||||||||||||||||||||||||||||1021.7||1|FM15-METAR|223|ICAO-KCCB|||||||||||||||||||||||||||||||||||||||||||MET062METAR KCCB 070215Z AUTO 27004KT 10SM CLR 19/M15 A3017 RMK AO2=||F||223|ICAO-KCCB
USI0000KCCB|CABLE|2017|12|07|02|35|34.1115|-117.6876|438.6|18.0||1|FM15-METAR|223|ICAO-KCCB|-15.0||1|FM15-METAR|223|ICAO-KCCB|||||||||||||280|N-Normal|1|FM15-METAR|223|ICAO-KCCB|3.6|N-Normal|1|FM15-METAR|223|ICAO-KCCB|||||||||||||9|Derived||FM15-METAR|223|ICAO-KCCB|||||||||||||||||||||||||||||||||||||||||||||||||||||||||||||||||||||||||1021.7||1|FM15-METAR|223|ICAO-KCCB|||||||||||||||||||||||||||||||||||||||||||MET062METAR KCCB 070235Z AUTO 28007KT 10SM CLR 18/M15 A3017 RMK AO2=||F||223|ICAO-KCCB
USI0000KCCB|CABLE|2017|12|07|02|55|34.1115|-117.6876|438.6|18.0||1|FM15-METAR|223|ICAO-KCCB|-15.0||1|FM15-METAR|223|ICAO-KCCB|||||||||||||999|C-Calm|9|FM15-METAR|223|ICAO-KCCB|0.0|C-Calm|1|FM15-METAR|223|ICAO-KCCB|||||||||||||9|Derived||FM15-METAR|223|ICAO-KCCB|||||||||||||||||||||||||||||||||||||||||||||||||||||||||||||||||||||||||1022.0||1|FM15-METAR|223|ICAO-KCCB|||||||||||||||||||||||||||||||||||||||||||MET062METAR KCCB 070255Z AUTO 00000KT 10SM CLR 18/M15 A3018 RMK AO2=||F||223|ICAO-KCCB
USI0000KCCB|CABLE|2017|12|07|03|15|34.1115|-117.6876|438.6|17.0||1|FM15-METAR|223|ICAO-KCCB|-15.0||1|FM15-METAR|223|ICAO-KCCB|||||||||||||330|N-Normal|1|FM15-METAR|223|ICAO-KCCB|3.6|N-Normal|1|FM15-METAR|223|ICAO-KCCB|||||||||||||10|Derived||FM15-METAR|223|ICAO-KCCB|||||||||||||||||||||||||||||||||||||||||||||||||||||||||||||||||||||||||1022.0||1|FM15-METAR|223|ICAO-KCCB|||||||||||||||||||||||||||||||||||||||||||MET062METAR KCCB 070315Z AUTO 33007KT 10SM CLR 17/M15 A3018 RMK AO2=||F||223|ICAO-KCCB
USI0000KCCB|CABLE|2017|12|07|03|35|34.1115|-117.6876|438.6|17.0||1|FM15-METAR|223|ICAO-KCCB|-14.0||1|FM15-METAR|223|ICAO-KCCB|||||||||||||120|N-Normal|1|FM15-METAR|223|ICAO-KCCB|3.1|N-Normal|1|FM15-METAR|223|ICAO-KCCB|||||||||||||11|Derived||FM15-METAR|223|ICAO-KCCB|||||||||||||||||||||||||||||||||||||||||||||||||||||||||||||||||||||||||1022.3||1|FM15-METAR|223|ICAO-KCCB|||||||||||||||||||||||||||||||||||||||||||MET062METAR KCCB 070335Z AUTO 12006KT 10SM CLR 17/M14 A3019 RMK AO2=||F||223|ICAO-KCCB
USI0000KCCB|CABLE|2017|12|07|03|55|34.1115|-117.6876|438.6|18.0||1|FM15-METAR|223|ICAO-KCCB|-14.0||1|FM15-METAR|223|ICAO-KCCB|||||||||||||999|C-Calm|9|FM15-METAR|223|ICAO-KCCB|0.0|C-Calm|1|FM15-METAR|223|ICAO-KCCB|||||||||||||10|Derived||FM15-METAR|223|ICAO-KCCB|||||||||||||||||||||||||||||||||||||||||||||||||||||||||||||||||||||||||1022.3||1|FM15-METAR|223|ICAO-KCCB|||||||||||||||||||||||||||||||||||||||||||MET062METAR KCCB 070355Z AUTO 00000KT 10SM CLR 18/M14 A3019 RMK AO2=||F||223|ICAO-KCCB
USI0000KCCB|CABLE|2017|12|07|04|15|34.1115|-117.6876|438.6|19.0||1|FM15-METAR|223|ICAO-KCCB|-15.0||1|FM15-METAR|223|ICAO-KCCB|||||||||||||190|N-Normal|1|FM15-METAR|223|ICAO-KCCB|2.1|N-Normal|1|FM15-METAR|223|ICAO-KCCB|||||||||||||9|Derived||FM15-METAR|223|ICAO-KCCB|||||||||||||||||||||||||||||||||||||||||||||||||||||||||||||||||||||||||1022.0||1|FM15-METAR|223|ICAO-KCCB|||||||||||||||||||||||||||||||||||||||||||MET062METAR KCCB 070415Z AUTO 19004KT 10SM CLR 19/M15 A3018 RMK AO2=||F||223|ICAO-KCCB
USI0000KCCB|CABLE|2017|12|07|04|35|34.1115|-117.6876|438.6|18.0||1|FM15-METAR|223|ICAO-KCCB|-14.0||1|FM15-METAR|223|ICAO-KCCB|||||||||||||190|N-Normal|1|FM15-METAR|223|ICAO-KCCB|2.6|N-Normal|1|FM15-METAR|223|ICAO-KCCB|||||||||||||10|Derived||FM15-METAR|223|ICAO-KCCB|||||||||||||||||||||||||||||||||||||||||||||||||||||||||||||||||||||||||1022.0||1|FM15-METAR|223|ICAO-KCCB|||||||||||||||||||||||||||||||||||||||||||MET062METAR KCCB 070435Z AUTO 19005KT 10SM CLR 18/M14 A3018 RMK AO2=||F||223|ICAO-KCCB
USI0000KCCB|CABLE|2017|12|07|04|55|34.1115|-117.6876|438.6|18.0||1|FM15-METAR|223|ICAO-KCCB|-14.0||1|FM15-METAR|223|ICAO-KCCB|||||||||||||340|N-Normal|1|FM15-METAR|223|ICAO-KCCB|3.1|N-Normal|1|FM15-METAR|223|ICAO-KCCB|5.7||1|FM15-METAR|223|ICAO-KCCB|||||||10|Derived||FM15-METAR|223|ICAO-KCCB|||||||||||||||||||||||||||||||||||||||||||||||||||||||||||||||||||||||||1022.0||1|FM15-METAR|223|ICAO-KCCB|||||||||||||||||||||||||||||||||||||||||||MET065METAR KCCB 070455Z AUTO 34006G11KT 10SM CLR 18/M14 A3018 RMK AO2=||F||223|ICAO-KCCB
USI0000KCCB|CABLE|2017|12|07|05|15|34.1115|-117.6876|438.6|16.0||1|FM15-METAR|223|ICAO-KCCB|-13.0||1|FM15-METAR|223|ICAO-KCCB|||||||||||||999|V-Variable|9|FM15-METAR|223|ICAO-KCCB|2.1|V-Variable|1|FM15-METAR|223|ICAO-KCCB|||||||||||||12|Derived||FM15-METAR|223|ICAO-KCCB|||||||||||||||||||||||||||||||||||||||||||||||||||||||||||||||||||||||||1022.0||1|FM15-METAR|223|ICAO-KCCB|||||||||||||||||||||||||||||||||||||||||||MET062METAR KCCB 070515Z AUTO VRB04KT 10SM CLR 16/M13 A3018 RMK AO2=||F||223|ICAO-KCCB
USI0000KCCB|CABLE|2017|12|07|05|35|34.1115|-117.6876|438.6|16.0||1|FM15-METAR|223|ICAO-KCCB|-13.0||1|FM15-METAR|223|ICAO-KCCB|||||||||||||999|C-Calm|9|FM15-METAR|223|ICAO-KCCB|0.0|C-Calm|1|FM15-METAR|223|ICAO-KCCB|||||||||||||12|Derived||FM15-METAR|223|ICAO-KCCB|||||||||||||||||||||||||||||||||||||||||||||||||||||||||||||||||||||||||1022.0||1|FM15-METAR|223|ICAO-KCCB|||||||||||||||||||||||||||||||||||||||||||MET062METAR KCCB 070535Z AUTO 00000KT 10SM CLR 16/M13 A3018 RMK AO2=||F||223|ICAO-KCCB
USI0000KCCB|CABLE|2017|12|07|05|55|34.1115|-117.6876|438.6|16.0||1|FM15-METAR|223|ICAO-KCCB|-13.0||1|FM15-METAR|223|ICAO-KCCB|||||||||||||999|C-Calm|9|FM15-METAR|223|ICAO-KCCB|0.0|C-Calm|1|FM15-METAR|223|ICAO-KCCB|||||||||||||12|Derived||FM15-METAR|223|ICAO-KCCB|||||||||||||||||||||||||||||||||||||||||||||||||||||||||||||||||||||||||1022.0||1|FM15-METAR|223|ICAO-KCCB|||||||||||||||||||||||||||||||||||||||||||MET062METAR KCCB 070555Z AUTO 00000KT 10SM CLR 16/M13 A3018 RMK AO2=||F||223|ICAO-KCCB
USI0000KCCB|CABLE|2017|12|07|06|15|34.1115|-117.6876|438.6|16.0||1|FM15-METAR|223|ICAO-KCCB|-13.0||1|FM15-METAR|223|ICAO-KCCB|||||||||||||999|V-Variable|9|FM15-METAR|223|ICAO-KCCB|1.5|V-Variable|1|FM15-METAR|223|ICAO-KCCB|5.1||1|FM15-METAR|223|ICAO-KCCB|||||||12|Derived||FM15-METAR|223|ICAO-KCCB|||||||||||||||||||||||||||||||||||||||||||||||||||||||||||||||||||||||||1022.3||1|FM15-METAR|223|ICAO-KCCB|||||||||||||||||||||||||||||||||||||||||||MET065METAR KCCB 070615Z AUTO VRB03G10KT 10SM CLR 16/M13 A3019 RMK AO2=||F||223|ICAO-KCCB
USI0000KCCB|CABLE|2017|12|07|06|35|34.1115|-117.6876|438.6|16.0||1|FM15-METAR|223|ICAO-KCCB|-12.0||1|FM15-METAR|223|ICAO-KCCB|||||||||||||340|N-Normal|1|FM15-METAR|223|ICAO-KCCB|3.1|N-Normal|1|FM15-METAR|223|ICAO-KCCB|||||||||||||13|Derived||FM15-METAR|223|ICAO-KCCB|||||||||||||||||||||||||||||||||||||||||||||||||||||||||||||||||||||||||1022.7||1|FM15-METAR|223|ICAO-KCCB|||||||||||||||||||||||||||||||||||||||||||MET062METAR KCCB 070635Z AUTO 34006KT 10SM CLR 16/M12 A3020 RMK AO2=||F||223|ICAO-KCCB
USI0000KCCB|CABLE|2017|12|07|06|55|34.1115|-117.6876|438.6|15.0||1|FM15-METAR|223|ICAO-KCCB|-13.0||1|FM15-METAR|223|ICAO-KCCB|||||||||||||999|V-Variable|9|FM15-METAR|223|ICAO-KCCB|2.6|V-Variable|1|FM15-METAR|223|ICAO-KCCB|||||||||||||13|Derived||FM15-METAR|223|ICAO-KCCB|||||||||||||||||||||||||||||||||||||||||||||||||||||||||||||||||||||||||1023.0||1|FM15-METAR|223|ICAO-KCCB|||||||||||||||||||||||||||||||||||||||||||MET062METAR KCCB 070655Z AUTO VRB05KT 10SM CLR 15/M13 A3021 RMK AO2=||F||223|ICAO-KCCB
USI0000KCCB|CABLE|2017|12|07|07|15|34.1115|-117.6876|438.6|14.0||1|FM15-METAR|223|ICAO-KCCB|-12.0||1|FM15-METAR|223|ICAO-KCCB|||||||||||||120|N-Normal|1|FM15-METAR|223|ICAO-KCCB|1.5|N-Normal|1|FM15-METAR|223|ICAO-KCCB|||||||||||||15|Derived||FM15-METAR|223|ICAO-KCCB|||||||||||||||||||||||||||||||||||||||||||||||||||||||||||||||||||||||||1023.4||1|FM15-METAR|223|ICAO-KCCB|||||||||||||||||||||||||||||||||||||||||||MET062METAR KCCB 070715Z AUTO 12003KT 10SM CLR 14/M12 A3022 RMK AO2=||F||223|ICAO-KCCB
USI0000KCCB|CABLE|2017|12|07|07|35|34.1115|-117.6876|438.6|15.0||1|FM15-METAR|223|ICAO-KCCB|-13.0||1|FM15-METAR|223|ICAO-KCCB|||||||||||||999|V-Variable|9|FM15-METAR|223|ICAO-KCCB|3.1|V-Variable|1|FM15-METAR|223|ICAO-KCCB|||||||||||||13|Derived||FM15-METAR|223|ICAO-KCCB|||||||||||||||||||||||||||||||||||||||||||||||||||||||||||||||||||||||||1023.4||1|FM15-METAR|223|ICAO-KCCB|||||||||||||||||||||||||||||||||||||||||||MET062METAR KCCB 070735Z AUTO VRB06KT 10SM CLR 15/M13 A3022 RMK AO2=||F||223|ICAO-KCCB
USI0000KCCB|CABLE|2017|12|07|07|55|34.1115|-117.6876|438.6|15.0||1|FM15-METAR|223|ICAO-KCCB|-13.0||1|FM15-METAR|223|ICAO-KCCB|||||||||||||350|N-Normal|1|FM15-METAR|223|ICAO-KCCB|2.6|N-Normal|1|FM15-METAR|223|ICAO-KCCB|||||||||||||13|Derived||FM15-METAR|223|ICAO-KCCB|||||||||||||||||||||||||||||||||||||||||||||||||||||||||||||||||||||||||1023.4||1|FM15-METAR|223|ICAO-KCCB|||||||||||||||||||||||||||||||||||||||||||MET062METAR KCCB 070755Z AUTO 35005KT 10SM CLR 15/M13 A3022 RMK AO2=||F||223|ICAO-KCCB
USI0000KCCB|CABLE|2017|12|07|08|15|34.1115|-117.6876|438.6|15.0||1|FM15-METAR|223|ICAO-KCCB|-14.0||1|FM15-METAR|223|ICAO-KCCB|||||||||||||270|N-Normal|1|FM15-METAR|223|ICAO-KCCB|2.6|N-Normal|1|FM15-METAR|223|ICAO-KCCB|||||||||||||12|Derived||FM15-METAR|223|ICAO-KCCB|||||||||||||||||||||||||||||||||||||||||||||||||||||||||||||||||||||||||1023.7||1|FM15-METAR|223|ICAO-KCCB|||||||||||||||||||||||||||||||||||||||||||MET062METAR KCCB 070815Z AUTO 27005KT 10SM CLR 15/M14 A3023 RMK AO2=||F||223|ICAO-KCCB
USI0000KCCB|CABLE|2017|12|07|08|35|34.1115|-117.6876|438.6|18.0||1|FM15-METAR|223|ICAO-KCCB|-21.0||1|FM15-METAR|223|ICAO-KCCB|||||||||||||999|V-Variable|9|FM15-METAR|223|ICAO-KCCB|3.1|V-Variable|1|FM15-METAR|223|ICAO-KCCB|6.2||1|FM15-METAR|223|ICAO-KCCB|||||||5|Derived||FM15-METAR|223|ICAO-KCCB|||||||||||||||||||||||||||||||||||||||||||||||||||||||||||||||||||||||||1023.7||1|FM15-METAR|223|ICAO-KCCB|||||||||||||||||||||||||||||||||||||||||||MET065METAR KCCB 070835Z AUTO VRB06G12KT 10SM CLR 18/M21 A3023 RMK AO2=||F||223|ICAO-KCCB
USI0000KCCB|CABLE|2017|12|07|08|55|34.1115|-117.6876|438.6|19.0||1|FM15-METAR|223|ICAO-KCCB|-23.0||1|FM15-METAR|223|ICAO-KCCB|||||||||||||030|N-Normal|1|FM15-METAR|223|ICAO-KCCB|4.1|N-Normal|1|FM15-METAR|223|ICAO-KCCB|8.2||1|FM15-METAR|223|ICAO-KCCB|||||||4|Derived||FM15-METAR|223|ICAO-KCCB|||||||||||||||||||||||||||||||||||||||||||||||||||||||||||||||||||||||||1023.7||1|FM15-METAR|223|ICAO-KCCB|||||||||||||||||||||||||||||||||||||||||||MET065METAR KCCB 070855Z AUTO 03008G16KT 10SM CLR 19/M23 A3023 RMK AO2=||F||223|ICAO-KCCB
USI0000KCCB|CABLE|2017|12|07|09|15|34.1115|-117.6876|438.6|17.0||1|FM15-METAR|223|ICAO-KCCB|-18.0||1|FM15-METAR|223|ICAO-KCCB|||||||||||||999|V-Variable|9|FM15-METAR|223|ICAO-KCCB|2.1|V-Variable|1|FM15-METAR|223|ICAO-KCCB|||||||||||||8|Derived||FM15-METAR|223|ICAO-KCCB|||||||||||||||||||||||||||||||||||||||||||||||||||||||||||||||||||||||||1024.0||1|FM15-METAR|223|ICAO-KCCB|||||||||||||||||||||||||||||||||||||||||||MET062METAR KCCB 070915Z AUTO VRB04KT 10SM CLR 17/M18 A3024 RMK AO2=||F||223|ICAO-KCCB
USI0000KCCB|CABLE|2017|12|07|09|35|34.1115|-117.6876|438.6|17.0||1|FM15-METAR|223|ICAO-KCCB|-18.0||1|FM15-METAR|223|ICAO-KCCB|||||||||||||300|V-Variable|1|FM15-METAR|223|ICAO-KCCB|4.6|V-Variable|1|FM15-METAR|223|ICAO-KCCB|7.7||1|FM15-METAR|223|ICAO-KCCB|||||||8|Derived||FM15-METAR|223|ICAO-KCCB|||||||||||||||||||||||||||||||||||||||||||||||||||||||||||||||||||||||||1024.4||1|FM15-METAR|223|ICAO-KCCB|||||||||||||||||||||||||||||||||||||||||||MET073METAR KCCB 070935Z AUTO 30009G15KT 270V330 10SM CLR 17/M18 A3025 RMK AO2=||F||223|ICAO-KCCB
USI0000KCCB|CABLE|2017|12|07|09|55|34.1115|-117.6876|438.6|18.0||1|FM15-METAR|223|ICAO-KCCB|-20.0||1|FM15-METAR|223|ICAO-KCCB|||||||||||||999|V-Variable|9|FM15-METAR|223|ICAO-KCCB|2.6|V-Variable|1|FM15-METAR|223|ICAO-KCCB|7.7||1|FM15-METAR|223|ICAO-KCCB|||||||6|Derived||FM15-METAR|223|ICAO-KCCB|||||||||||||||||||||||||||||||||||||||||||||||||||||||||||||||||||||||||1024.0||1|FM15-METAR|223|ICAO-KCCB|||||||||||||||||||||||||||||||||||||||||||MET065METAR KCCB 070955Z AUTO VRB05G15KT 10SM CLR 18/M20 A3024 RMK AO2=||F||223|ICAO-KCCB
USI0000KCCB|CABLE|2017|12|07|10|15|34.1115|-117.6876|438.6|19.0||1|FM15-METAR|223|ICAO-KCCB|-22.0||1|FM15-METAR|223|ICAO-KCCB|||||||||||||999|C-Calm|9|FM15-METAR|223|ICAO-KCCB|0.0|C-Calm|1|FM15-METAR|223|ICAO-KCCB|||||||||||||5|Derived||FM15-METAR|223|ICAO-KCCB|||||||||||||||||||||||||||||||||||||||||||||||||||||||||||||||||||||||||1024.0||1|FM15-METAR|223|ICAO-KCCB|||||||||||||||||||||||||||||||||||||||||||MET062METAR KCCB 071015Z AUTO 00000KT 10SM CLR 19/M22 A3024 RMK AO2=||F||223|ICAO-KCCB
USI0000KCCB|CABLE|2017|12|07|10|35|34.1115|-117.6876|438.6|20.0||1|FM15-METAR|223|ICAO-KCCB|-26.0||1|FM15-METAR|223|ICAO-KCCB|||||||||||||070|N-Normal|1|FM15-METAR|223|ICAO-KCCB|5.1|N-Normal|1|FM15-METAR|223|ICAO-KCCB|8.8||1|FM15-METAR|223|ICAO-KCCB|||||||3|Derived||FM15-METAR|223|ICAO-KCCB|||||||||||||||||||||||||||||||||||||||||||||||||||||||||||||||||||||||||1023.7||1|FM15-METAR|223|ICAO-KCCB|||||||||||||||||||||||||||||||||||||||||||MET065METAR KCCB 071035Z AUTO 07010G17KT 10SM CLR 20/M26 A3023 RMK AO2=||F||223|ICAO-KCCB
USI0000KCCB|CABLE|2017|12|07|10|55|34.1115|-117.6876|438.6|20.0||1|FM15-METAR|223|ICAO-KCCB|-24.0||1|FM15-METAR|223|ICAO-KCCB|||||||||||||999|V-Variable|9|FM15-METAR|223|ICAO-KCCB|1.5|V-Variable|1|FM15-METAR|223|ICAO-KCCB|6.7||1|FM15-METAR|223|ICAO-KCCB|||||||4|Derived||FM15-METAR|223|ICAO-KCCB|||||||||||||||||||||||||||||||||||||||||||||||||||||||||||||||||||||||||1023.7||1|FM15-METAR|223|ICAO-KCCB|||||||||||||||||||||||||||||||||||||||||||MET065METAR KCCB 071055Z AUTO VRB03G13KT 10SM CLR 20/M24 A3023 RMK AO2=||F||223|ICAO-KCCB
USI0000KCCB|CABLE|2017|12|07|11|15|34.1115|-117.6876|438.6|17.0||1|FM15-METAR|223|ICAO-KCCB|-20.0||1|FM15-METAR|223|ICAO-KCCB|||||||||||||999|C-Calm|9|FM15-METAR|223|ICAO-KCCB|0.0|C-Calm|1|FM15-METAR|223|ICAO-KCCB|5.7||1|FM15-METAR|223|ICAO-KCCB|||||||6|Derived||FM15-METAR|223|ICAO-KCCB|||||||||||||||||||||||||||||||||||||||||||||||||||||||||||||||||||||||||1023.7||1|FM15-METAR|223|ICAO-KCCB|||||||||||||||||||||||||||||||||||||||||||MET065METAR KCCB 071115Z AUTO 00000G11KT 10SM CLR 17/M20 A3023 RMK AO2=||F||223|ICAO-KCCB
USI0000KCCB|CABLE|2017|12|07|11|35|34.1115|-117.6876|438.6|18.0||1|FM15-METAR|223|ICAO-KCCB|-21.0||1|FM15-METAR|223|ICAO-KCCB|||||||||||||999|C-Calm|9|FM15-METAR|223|ICAO-KCCB|0.0|C-Calm|1|FM15-METAR|223|ICAO-KCCB|12.4||1|FM15-METAR|223|ICAO-KCCB|||||||5|Derived||FM15-METAR|223|ICAO-KCCB|||||||||||||||||||||||||||||||||||||||||||||||||||||||||||||||||||||||||1024.0||1|FM15-METAR|223|ICAO-KCCB|||||||||||||||||||||||||||||||||||||||||||MET064METAR KCCB 071135Z AUTO 00000G24KT 9SM CLR 18/M21 A3024 RMK AO2=||F||223|ICAO-KCCB
USI0000KCCB|CABLE|2017|12|07|11|55|34.1115|-117.6876|438.6|16.0||1|FM15-METAR|223|ICAO-KCCB|-20.0||1|FM15-METAR|223|ICAO-KCCB|||||||||||||999|V-Variable|9|FM15-METAR|223|ICAO-KCCB|2.1|V-Variable|1|FM15-METAR|223|ICAO-KCCB|||||||||||||7|Derived||FM15-METAR|223|ICAO-KCCB|||||||||||||||||||||||||||||||||||||||||||||||||||||||||||||||||||||||||1023.7||1|FM15-METAR|223|ICAO-KCCB|||||||||||||||||||||||||||||||||||||||||||MET062METAR KCCB 071155Z AUTO VRB04KT 10SM CLR 16/M20 A3023 RMK AO2=||F||223|ICAO-KCCB
USI0000KCCB|CABLE|2017|12|07|12|15|34.1115|-117.6876|438.6|17.0||1|FM15-METAR|223|ICAO-KCCB|-21.0||1|FM15-METAR|223|ICAO-KCCB|||||||||||||999|C-Calm|9|FM15-METAR|223|ICAO-KCCB|0.0|C-Calm|1|FM15-METAR|223|ICAO-KCCB|||||||||||||6|Derived||FM15-METAR|223|ICAO-KCCB|||||||||||||||||||||||||||||||||||||||||||||||||||||||||||||||||||||||||1024.0||1|FM15-METAR|223|ICAO-KCCB|||||||||||||||||||||||||||||||||||||||||||MET062METAR KCCB 071215Z AUTO 00000KT 10SM CLR 17/M21 A3024 RMK AO2=||F||223|ICAO-KCCB
USI0000KCCB|CABLE|2017|12|07|12|35|34.1115|-117.6876|438.6|15.0||1|FM15-METAR|223|ICAO-KCCB|-18.0||1|FM15-METAR|223|ICAO-KCCB|||||||||||||999|C-Calm|9|FM15-METAR|223|ICAO-KCCB|0.0|C-Calm|1|FM15-METAR|223|ICAO-KCCB|||||||||||||9|Derived||FM15-METAR|223|ICAO-KCCB|||||||||||||||||||||||||||||||||||||||||||||||||||||||||||||||||||||||||1024.0||1|FM15-METAR|223|ICAO-KCCB|||||||||||||||||||||||||||||||||||||||||||MET062METAR KCCB 071235Z AUTO 00000KT 10SM CLR 15/M18 A3024 RMK AO2=||F||223|ICAO-KCCB
USI0000KCCB|CABLE|2017|12|07|12|55|34.1115|-117.6876|438.6|16.0||1|FM15-METAR|223|ICAO-KCCB|-19.0||1|FM15-METAR|223|ICAO-KCCB|||||||||||||999|C-Calm|9|FM15-METAR|223|ICAO-KCCB|0.0|C-Calm|1|FM15-METAR|223|ICAO-KCCB|||||||||||||7|Derived||FM15-METAR|223|ICAO-KCCB|||||||||||||||||||||||||||||||||||||||||||||||||||||||||||||||||||||||||1024.4||1|FM15-METAR|223|ICAO-KCCB|||||||||||||||||||||||||||||||||||||||||||MET062METAR KCCB 071255Z AUTO 00000KT 10SM CLR 16/M19 A3025 RMK AO2=||F||223|ICAO-KCCB
USI0000KCCB|CABLE|2017|12|07|13|15|34.1115|-117.6876|438.6|16.0||1|FM15-METAR|223|ICAO-KCCB|-19.0||1|FM15-METAR|223|ICAO-KCCB|||||||||||||170|N-Normal|1|FM15-METAR|223|ICAO-KCCB|2.1|N-Normal|1|FM15-METAR|223|ICAO-KCCB|6.7||1|FM15-METAR|223|ICAO-KCCB|||||||7|Derived||FM15-METAR|223|ICAO-KCCB|||||||||||||||||||||||||||||||||||||||||||||||||||||||||||||||||||||||||1024.4||1|FM15-METAR|223|ICAO-KCCB|||||||||||||||||||||||||||||||||||||||||||MET065METAR KCCB 071315Z AUTO 17004G13KT 10SM CLR 16/M19 A3025 RMK AO2=||F||223|ICAO-KCCB
USI0000KCCB|CABLE|2017|12|07|13|35|34.1115|-117.6876|438.6|16.0||1|FM15-METAR|223|ICAO-KCCB|-19.0||1|FM15-METAR|223|ICAO-KCCB|||||||||||||999|C-Calm|9|FM15-METAR|223|ICAO-KCCB|0.0|C-Calm|1|FM15-METAR|223|ICAO-KCCB|||||||||||||7|Derived||FM15-METAR|223|ICAO-KCCB|||||||||||||||||||||||||||||||||||||||||||||||||||||||||||||||||||||||||1024.4||1|FM15-METAR|223|ICAO-KCCB|||||||||||||||||||||||||||||||||||||||||||MET062METAR KCCB 071335Z AUTO 00000KT 10SM CLR 16/M19 A3025 RMK AO2=||F||223|ICAO-KCCB
USI0000KCCB|CABLE|2017|12|07|13|55|34.1115|-117.6876|438.6|15.0||1|FM15-METAR|223|ICAO-KCCB|-18.0||1|FM15-METAR|223|ICAO-KCCB|||||||||||||300|N-Normal|1|FM15-METAR|223|ICAO-KCCB|2.6|N-Normal|1|FM15-METAR|223|ICAO-KCCB|||||||||||||9|Derived||FM15-METAR|223|ICAO-KCCB|||||||||||||||||||||||||||||||||||||||||||||||||||||||||||||||||||||||||1025.1||1|FM15-METAR|223|ICAO-KCCB|||||||||||||||||||||||||||||||||||||||||||MET062METAR KCCB 071355Z AUTO 30005KT 10SM CLR 15/M18 A3027 RMK AO2=||F||223|ICAO-KCCB
USI0000KCCB|CABLE|2017|12|07|14|15|34.1115|-117.6876|438.6|15.0||1|FM15-METAR|223|ICAO-KCCB|-18.0||1|FM15-METAR|223|ICAO-KCCB|||||||||||||300|N-Normal|1|FM15-METAR|223|ICAO-KCCB|3.6|N-Normal|1|FM15-METAR|223|ICAO-KCCB|||||||||||||9|Derived||FM15-METAR|223|ICAO-KCCB|||||||||||||||||||||||||||||||||||||||||||||||||||||||||||||||||||||||||1025.1||1|FM15-METAR|223|ICAO-KCCB|||||||||||||||||||||||||||||||||||||||||||MET062METAR KCCB 071415Z AUTO 30007KT 10SM CLR 15/M18 A3027 RMK AO2=||F||223|ICAO-KCCB
USI0000KCCB|CABLE|2017|12|07|14|35|34.1115|-117.6876|438.6|15.0||1|FM15-METAR|223|ICAO-KCCB|-18.0||1|FM15-METAR|223|ICAO-KCCB|||||||||||||310|N-Normal|1|FM15-METAR|223|ICAO-KCCB|3.1|N-Normal|1|FM15-METAR|223|ICAO-KCCB|||||||||||||9|Derived||FM15-METAR|223|ICAO-KCCB|||||||||||||||||||||||||||||||||||||||||||||||||||||||||||||||||||||||||1025.4||1|FM15-METAR|223|ICAO-KCCB|||||||||||||||||||||||||||||||||||||||||||MET062METAR KCCB 071435Z AUTO 31006KT 10SM CLR 15/M18 A3028 RMK AO2=||F||223|ICAO-KCCB
USI0000KCCB|CABLE|2017|12|07|14|55|34.1115|-117.6876|438.6|17.0||1|FM15-METAR|223|ICAO-KCCB|-19.0||1|FM15-METAR|223|ICAO-KCCB|||||||||||||240|N-Normal|1|FM15-METAR|223|ICAO-KCCB|3.1|N-Normal|1|FM15-METAR|223|ICAO-KCCB|6.2||1|FM15-METAR|223|ICAO-KCCB|||||||7|Derived||FM15-METAR|223|ICAO-KCCB|||||||||||||||||||||||||||||||||||||||||||||||||||||||||||||||||||||||||1025.4||1|FM15-METAR|223|ICAO-KCCB|||||||||||||||||||||||||||||||||||||||||||MET065METAR KCCB 071455Z AUTO 24006G12KT 10SM CLR 17/M19 A3028 RMK AO2=||F||223|ICAO-KCCB
USI0000KCCB|CABLE|2017|12|07|15|15|34.1115|-117.6876|438.6|15.0||1|FM15-METAR|223|ICAO-KCCB|-17.0||1|FM15-METAR|223|ICAO-KCCB|||||||||||||220|N-Normal|1|FM15-METAR|223|ICAO-KCCB|2.1|N-Normal|1|FM15-METAR|223|ICAO-KCCB|||||||||||||9|Derived||FM15-METAR|223|ICAO-KCCB|||||||||||||||||||||||||||||||||||||||||||||||||||||||||||||||||||||||||1025.7||1|FM15-METAR|223|ICAO-KCCB|||||||||||||||||||||||||||||||||||||||||||MET062METAR KCCB 071515Z AUTO 22004KT 10SM CLR 15/M17 A3029 RMK AO2=||F||223|ICAO-KCCB
USI0000KCCB|CABLE|2017|12|07|15|35|34.1115|-117.6876|438.6|16.0||1|FM15-METAR|223|ICAO-KCCB|-16.0||1|FM15-METAR|223|ICAO-KCCB|||||||||||||280|N-Normal|1|FM15-METAR|223|ICAO-KCCB|2.6|N-Normal|1|FM15-METAR|223|ICAO-KCCB|||||||||||||10|Derived||FM15-METAR|223|ICAO-KCCB|||||||||||||||||||||||||||||||||||||||||||||||||||||||||||||||||||||||||1025.7||1|FM15-METAR|223|ICAO-KCCB|||||||||||||||||||||||||||||||||||||||||||MET062METAR KCCB 071535Z AUTO 28005KT 10SM CLR 16/M16 A3029 RMK AO2=||F||223|ICAO-KCCB
USI0000KCCB|CABLE|2017|12|07|15|55|34.1115|-117.6876|438.6|16.0||1|FM15-METAR|223|ICAO-KCCB|-16.0||1|FM15-METAR|223|ICAO-KCCB|||||||||||||220|N-Normal|1|FM15-METAR|223|ICAO-KCCB|2.1|N-Normal|1|FM15-METAR|223|ICAO-KCCB|||||||||||||10|Derived||FM15-METAR|223|ICAO-KCCB|||||||||||||||||||||||||||||||||||||||||||||||||||||||||||||||||||||||||1026.1||1|FM15-METAR|223|ICAO-KCCB|||||||||||||||||||||||||||||||||||||||||||MET062METAR KCCB 071555Z AUTO 22004KT 10SM CLR 16/M16 A3030 RMK AO2=||F||223|ICAO-KCCB
USI0000KCCB|CABLE|2017|12|07|16|15|34.1115|-117.6876|438.6|17.0||1|FM15-METAR|223|ICAO-KCCB|-16.0||1|FM15-METAR|223|ICAO-KCCB|||||||||||||999|C-Calm|9|FM15-METAR|223|ICAO-KCCB|0.0|C-Calm|1|FM15-METAR|223|ICAO-KCCB|||||||||||||9|Derived||FM15-METAR|223|ICAO-KCCB|||||||||||||||||||||||||||||||||||||||||||||||||||||||||||||||||||||||||1026.4||1|FM15-METAR|223|ICAO-KCCB|||||||||||||||||||||||||||||||||||||||||||MET062METAR KCCB 071615Z AUTO 00000KT 10SM CLR 17/M16 A3031 RMK AO2=||F||223|ICAO-KCCB
USI0000KCCB|CABLE|2017|12|07|16|35|34.1115|-117.6876|438.6|17.0||1|FM15-METAR|223|ICAO-KCCB|-17.0||1|FM15-METAR|223|ICAO-KCCB|||||||||||||999|C-Calm|9|FM15-METAR|223|ICAO-KCCB|0.0|C-Calm|1|FM15-METAR|223|ICAO-KCCB|||||||||||||8|Derived||FM15-METAR|223|ICAO-KCCB|||||||||||||||||||||||||||||||||||||||||||||||||||||||||||||||||||||||||1026.4||1|FM15-METAR|223|ICAO-KCCB|||||||||||||||||||||||||||||||||||||||||||MET062METAR KCCB 071635Z AUTO 00000KT 10SM CLR 17/M17 A3031 RMK AO2=||F||223|ICAO-KCCB
USI0000KCCB|CABLE|2017|12|07|16|55|34.1115|-117.6876|438.6|18.0||1|FM15-METAR|223|ICAO-KCCB|-16.0||1|FM15-METAR|223|ICAO-KCCB|||||||||||||999|C-Calm|9|FM15-METAR|223|ICAO-KCCB|0.0|C-Calm|1|FM15-METAR|223|ICAO-KCCB|||||||||||||8|Derived||FM15-METAR|223|ICAO-KCCB|||||||||||||||||||||||||||||||||||||||||||||||||||||||||||||||||||||||||1026.4||1|FM15-METAR|223|ICAO-KCCB|||||||||||||||||||||||||||||||||||||||||||MET062METAR KCCB 071655Z AUTO 00000KT 10SM CLR 18/M16 A3031 RMK AO2=||F||223|ICAO-KCCB
USI0000KCCB|CABLE|2017|12|07|17|15|34.1115|-117.6876|438.6|19.0||1|FM15-METAR|223|ICAO-KCCB|-17.0||1|FM15-METAR|223|ICAO-KCCB|||||||||||||999|C-Calm|9|FM15-METAR|223|ICAO-KCCB|0.0|C-Calm|1|FM15-METAR|223|ICAO-KCCB|||||||||||||7|Derived||FM15-METAR|223|ICAO-KCCB|||||||||||||||||||||||||||||||||||||||||||||||||||||||||||||||||||||||||1026.7||1|FM15-METAR|223|ICAO-KCCB|||||||||||||||||||||||||||||||||||||||||||MET062METAR KCCB 071715Z AUTO 00000KT 10SM CLR 19/M17 A3032 RMK AO2=||F||223|ICAO-KCCB
USI0000KCCB|CABLE|2017|12|07|17|35|34.1115|-117.6876|438.6|20.0||1|FM15-METAR|223|ICAO-KCCB|-18.0||1|FM15-METAR|223|ICAO-KCCB|||||||||||||999|C-Calm|9|FM15-METAR|223|ICAO-KCCB|0.0|C-Calm|1|FM15-METAR|223|ICAO-KCCB|||||||||||||6|Derived||FM15-METAR|223|ICAO-KCCB|||||||||||||||||||||||||||||||||||||||||||||||||||||||||||||||||||||||||1026.7||1|FM15-METAR|223|ICAO-KCCB|||||||||||||||||||||||||||||||||||||||||||MET062METAR KCCB 071735Z AUTO 00000KT 10SM CLR 20/M18 A3032 RMK AO2=||F||223|ICAO-KCCB
USI0000KCCB|CABLE|2017|12|07|17|55|34.1115|-117.6876|438.6|20.0||1|FM15-METAR|223|ICAO-KCCB|-15.0||1|FM15-METAR|223|ICAO-KCCB|||||||||||||230|N-Normal|1|FM15-METAR|223|ICAO-KCCB|2.1|N-Normal|1|FM15-METAR|223|ICAO-KCCB|||||||||||||8|Derived||FM15-METAR|223|ICAO-KCCB|||||||||||||||||||||||||||||||||||||||||||||||||||||||||||||||||||||||||1026.7||1|FM15-METAR|223|ICAO-KCCB|||||||||||||||||||||||||||||||||||||||||||MET062METAR KCCB 071755Z AUTO 23004KT 10SM CLR 20/M15 A3032 RMK AO2=||F||223|ICAO-KCCB
USI0000KCCB|CABLE|2017|12|07|18|15|34.1115|-117.6876|438.6|21.0||1|FM15-METAR|223|ICAO-KCCB|-20.0||1|FM15-METAR|223|ICAO-KCCB|||||||||||||190|N-Normal|1|FM15-METAR|223|ICAO-KCCB|2.6|N-Normal|1|FM15-METAR|223|ICAO-KCCB|||||||||||||5|Derived||FM15-METAR|223|ICAO-KCCB|||||||||||||||||||||||||||||||||||||||||||||||||||||||||||||||||||||||||1026.4||1|FM15-METAR|223|ICAO-KCCB|||||||||||||||||||||||||||||||||||||||||||MET062METAR KCCB 071815Z AUTO 19005KT 10SM CLR 21/M20 A3031 RMK AO2=||F||223|ICAO-KCCB
USI0000KCCB|CABLE|2017|12|07|18|35|34.1115|-117.6876|438.6|21.0||1|FM15-METAR|223|ICAO-KCCB|-21.0||1|FM15-METAR|223|ICAO-KCCB|||||||||||||999|C-Calm|9|FM15-METAR|223|ICAO-KCCB|0.0|C-Calm|1|FM15-METAR|223|ICAO-KCCB|||||||||||||5|Derived||FM15-METAR|223|ICAO-KCCB|||||||||||||||||||||||||||||||||||||||||||||||||||||||||||||||||||||||||1025.7||1|FM15-METAR|223|ICAO-KCCB|||||||||||||||||||||||||||||||||||||||||||MET062METAR KCCB 071835Z AUTO 00000KT 10SM CLR 21/M21 A3029 RMK AO2=||F||223|ICAO-KCCB
USI0000KCCB|CABLE|2017|12|07|18|55|34.1115|-117.6876|438.6|22.0||1|FM15-METAR|223|ICAO-KCCB|-21.0||1|FM15-METAR|223|ICAO-KCCB|||||||||||||999|V-Variable|9|FM15-METAR|223|ICAO-KCCB|2.6|V-Variable|1|FM15-METAR|223|ICAO-KCCB|||||||||||||4|Derived||FM15-METAR|223|ICAO-KCCB|||||||||||||||||||||||||||||||||||||||||||||||||||||||||||||||||||||||||1025.7||1|FM15-METAR|223|ICAO-KCCB|||||||||||||||||||||||||||||||||||||||||||MET062METAR KCCB 071855Z AUTO VRB05KT 10SM CLR 22/M21 A3029 RMK AO2=||F||223|ICAO-KCCB
USI0000KCCB|CABLE|2017|12|07|19|15|34.1115|-117.6876|438.6|22.0||1|FM15-METAR|223|ICAO-KCCB|-20.0||1|FM15-METAR|223|ICAO-KCCB|||||||||||||210|N-Normal|1|FM15-METAR|223|ICAO-KCCB|3.1|N-Normal|1|FM15-METAR|223|ICAO-KCCB|||||||||||||5|Derived||FM15-METAR|223|ICAO-KCCB|||||||||||||||||||||||||||||||||||||||||||||||||||||||||||||||||||||||||1025.7||1|FM15-METAR|223|ICAO-KCCB|||||||||||||||||||||||||||||||||||||||||||MET062METAR KCCB 071915Z AUTO 21006KT 10SM CLR 22/M20 A3029 RMK AO2=||F||223|ICAO-KCCB
USI0000KCCB|CABLE|2017|12|07|19|35|34.1115|-117.6876|438.6|22.0||1|FM15-METAR|223|ICAO-KCCB|-21.0||1|FM15-METAR|223|ICAO-KCCB|||||||||||||999|C-Calm|9|FM15-METAR|223|ICAO-KCCB|0.0|C-Calm|1|FM15-METAR|223|ICAO-KCCB|||||||||||||4|Derived||FM15-METAR|223|ICAO-KCCB|||||||||||||||||||||||||||||||||||||||||||||||||||||||||||||||||||||||||1025.4||1|FM15-METAR|223|ICAO-KCCB|||||||||||||||||||||||||||||||||||||||||||MET062METAR KCCB 071935Z AUTO 00000KT 10SM CLR 22/M21 A3028 RMK AO2=||F||223|ICAO-KCCB
USI0000KCCB|CABLE|2017|12|07|19|55|34.1115|-117.6876|438.6|23.0||1|FM15-METAR|223|ICAO-KCCB|-20.0||1|FM15-METAR|223|ICAO-KCCB|||||||||||||999|C-Calm|9|FM15-METAR|223|ICAO-KCCB|0.0|C-Calm|1|FM15-METAR|223|ICAO-KCCB|||||||||||||4|Derived||FM15-METAR|223|ICAO-KCCB|||||||||||||||||||||||||||||||||||||||||||||||||||||||||||||||||||||||||1025.1||1|FM15-METAR|223|ICAO-KCCB|||||||||||||||||||||||||||||||||||||||||||MET062METAR KCCB 071955Z AUTO 00000KT 10SM CLR 23/M20 A3027 RMK AO2=||F||223|ICAO-KCCB
USI0000KCCB|CABLE|2017|12|07|20|15|34.1115|-117.6876|438.6|22.0||1|FM15-METAR|223|ICAO-KCCB|-19.0||1|FM15-METAR|223|ICAO-KCCB|||||||||||||250|N-Normal|1|FM15-METAR|223|ICAO-KCCB|2.1|N-Normal|1|FM15-METAR|223|ICAO-KCCB|||||||||||||5|Derived||FM15-METAR|223|ICAO-KCCB|||||||||||||||||||||||||||||||||||||||||||||||||||||||||||||||||||||||||1025.1||1|FM15-METAR|223|ICAO-KCCB|||||||||||||||||||||||||||||||||||||||||||MET062METAR KCCB 072015Z AUTO 25004KT 10SM CLR 22/M19 A3027 RMK AO2=||F||223|ICAO-KCCB
USI0000KCCB|CABLE|2017|12|07|20|35|34.1115|-117.6876|438.6|23.0||1|FM15-METAR|223|ICAO-KCCB|-19.0||1|FM15-METAR|223|ICAO-KCCB|||||||||||||350|N-Normal|1|FM15-METAR|223|ICAO-KCCB|9.8|N-Normal|1|FM15-METAR|223|ICAO-KCCB|||||||||||||5|Derived||FM15-METAR|223|ICAO-KCCB|||||||||||||||||||||||||||||||||||||||||||||||||||||||||||||||||||||||||1024.7||1|FM15-METAR|223|ICAO-KCCB|||||||||||||||||||||||||||||||||||||||||||MET061METAR KCCB 072035Z AUTO 35019KT 8SM CLR 23/M19 A3026 RMK AO2=||F||223|ICAO-KCCB
USI0000KCCB|CABLE|2017|12|07|20|55|34.1115|-117.6876|438.6|22.0||1|FM15-METAR|223|ICAO-KCCB|-19.0||1|FM15-METAR|223|ICAO-KCCB|||||||||||||050|N-Normal|1|FM15-METAR|223|ICAO-KCCB|7.2|N-Normal|1|FM15-METAR|223|ICAO-KCCB|10.8||1|FM15-METAR|223|ICAO-KCCB|||||||5|Derived||FM15-METAR|223|ICAO-KCCB|||||||||||||||||||||||||||||||||||||||||||||||||||||||||||||||||||||||||1024.7||1|FM15-METAR|223|ICAO-KCCB|||||||||||||||||||||||||||||||||||||||||||MET065METAR KCCB 072055Z AUTO 05014G21KT 10SM CLR 22/M19 A3026 RMK AO2=||F||223|ICAO-KCCB
USI0000KCCB|CABLE|2017|12|07|21|15|34.1115|-117.6876|438.6|22.0||1|FM15-METAR|223|ICAO-KCCB|-20.0||1|FM15-METAR|223|ICAO-KCCB|||||||||||||060|N-Normal|1|FM15-METAR|223|ICAO-KCCB|10.3|N-Normal|1|FM15-METAR|223|ICAO-KCCB|14.4||1|FM15-METAR|223|ICAO-KCCB|||||||5|Derived||FM15-METAR|223|ICAO-KCCB|||||||||||||||||||||||||||||||||||||||||||||||||||||||||||||||||||||||||1024.4||1|FM15-METAR|223|ICAO-KCCB|||||||||||||||||||||||||||||||||||||||||||MET065METAR KCCB 072115Z AUTO 06020G28KT 10SM CLR 22/M20 A3025 RMK AO2=||F||223|ICAO-KCCB
USI0000KCCB|CABLE|2017|12|07|21|35|34.1115|-117.6876|438.6|22.0||1|FM15-METAR|223|ICAO-KCCB|-20.0||1|FM15-METAR|223|ICAO-KCCB|||||||||||||080|N-Normal|1|FM15-METAR|223|ICAO-KCCB|9.3|N-Normal|1|FM15-METAR|223|ICAO-KCCB|12.9||1|FM15-METAR|223|ICAO-KCCB|||||||5|Derived||FM15-METAR|223|ICAO-KCCB|||||||||||||||||||||||||||||||||||||||||||||||||||||||||||||||||||||||||1024.4||1|FM15-METAR|223|ICAO-KCCB|||||||||||||||||||||||||||||||||||||||||||MET065METAR KCCB 072135Z AUTO 08018G25KT 10SM CLR 22/M20 A3025 RMK AO2=||F||223|ICAO-KCCB
USI0000KCCB|CABLE|2017|12|07|21|55|34.1115|-117.6876|438.6|22.0||1|FM15-METAR|223|ICAO-KCCB|-20.0||1|FM15-METAR|223|ICAO-KCCB|||||||||||||070|N-Normal|1|FM15-METAR|223|ICAO-KCCB|7.7|N-Normal|1|FM15-METAR|223|ICAO-KCCB|12.9||1|FM15-METAR|223|ICAO-KCCB|||||||5|Derived||FM15-METAR|223|ICAO-KCCB|||||||||||||||||||||||||||||||||||||||||||||||||||||||||||||||||||||||||1024.4||1|FM15-METAR|223|ICAO-KCCB|||||||||||||||||||||||||||||||||||||||||||MET065METAR KCCB 072155Z AUTO 07015G25KT 10SM CLR 22/M20 A3025 RMK AO2=||F||223|ICAO-KCCB
USI0000KCCB|CABLE|2017|12|07|22|15|34.1115|-117.6876|438.6|22.0||1|FM15-METAR|223|ICAO-KCCB|-20.0||1|FM15-METAR|223|ICAO-KCCB|||||||||||||080|N-Normal|1|FM15-METAR|223|ICAO-KCCB|11.8|N-Normal|1|FM15-METAR|223|ICAO-KCCB|17.0||1|FM15-METAR|223|ICAO-KCCB|||||||5|Derived||FM15-METAR|223|ICAO-KCCB|||||||||||||||||||||||||||||||||||||||||||||||||||||||||||||||||||||||||1024.4||1|FM15-METAR|223|ICAO-KCCB|||||||||||||||||||||||||||||||||||||||||||MET064METAR KCCB 072215Z AUTO 08023G33KT 9SM CLR 22/M20 A3025 RMK AO2=||F||223|ICAO-KCCB
USI0000KCCB|CABLE|2017|12|07|22|35|34.1115|-117.6876|438.6|22.0||1|FM15-METAR|223|ICAO-KCCB|-19.0||1|FM15-METAR|223|ICAO-KCCB|||||||||||||080|N-Normal|1|FM15-METAR|223|ICAO-KCCB|7.2|N-Normal|1|FM15-METAR|223|ICAO-KCCB|13.4||1|FM15-METAR|223|ICAO-KCCB|||||||5|Derived||FM15-METAR|223|ICAO-KCCB|||||||||||||||||||||||||||||||||||||||||||||||||||||||||||||||||||||||||1025.1||1|FM15-METAR|223|ICAO-KCCB|||||||||||||||||||||||||||||||||||||||||||MET065METAR KCCB 072235Z AUTO 08014G26KT 10SM CLR 22/M19 A3027 RMK AO2=||F||223|ICAO-KCCB
USI0000KCCB|CABLE|2017|12|07|22|55|34.1115|-117.6876|438.6|22.0||1|FM15-METAR|223|ICAO-KCCB|-19.0||1|FM15-METAR|223|ICAO-KCCB|||||||||||||070|N-Normal|1|FM15-METAR|223|ICAO-KCCB|7.2|N-Normal|1|FM15-METAR|223|ICAO-KCCB|11.8||1|FM15-METAR|223|ICAO-KCCB|||||||5|Derived||FM15-METAR|223|ICAO-KCCB|||||||||||||||||||||||||||||||||||||||||||||||||||||||||||||||||||||||||1025.1||1|FM15-METAR|223|ICAO-KCCB|||||||||||||||||||||||||||||||||||||||||||MET065METAR KCCB 072255Z AUTO 07014G23KT 10SM CLR 22/M19 A3027 RMK AO2=||F||223|ICAO-KCCB
USI0000KCCB|CABLE|2017|12|07|23|15|34.1115|-117.6876|438.6|22.0||1|FM15-METAR|223|ICAO-KCCB|-18.0||1|FM15-METAR|223|ICAO-KCCB|||||||||||||060|N-Normal|1|FM15-METAR|223|ICAO-KCCB|8.2|N-Normal|1|FM15-METAR|223|ICAO-KCCB|12.9||1|FM15-METAR|223|ICAO-KCCB|||||||6|Derived||FM15-METAR|223|ICAO-KCCB|||||||||||||||||||||||||||||||||||||||||||||||||||||||||||||||||||||||||1024.4||1|FM15-METAR|223|ICAO-KCCB|||||||||||||||||||||||||||||||||||||||||||MET065METAR KCCB 072315Z AUTO 06016G25KT 10SM CLR 22/M18 A3025 RMK AO2=||F||223|ICAO-KCCB
USI0000KCCB|CABLE|2017|12|07|23|35|34.1115|-117.6876|438.6|21.0||1|FM15-METAR|223|ICAO-KCCB|-18.0||1|FM15-METAR|223|ICAO-KCCB|||||||||||||060|N-Normal|1|FM15-METAR|223|ICAO-KCCB|10.8|N-Normal|1|FM15-METAR|223|ICAO-KCCB|13.9||1|FM15-METAR|223|ICAO-KCCB|||||||6|Derived||FM15-METAR|223|ICAO-KCCB|||||||||||||||||||||||||||||||||||||||||||||||||||||||||||||||||||||||||1024.7||1|FM15-METAR|223|ICAO-KCCB|||||||||||||||||||||||||||||||||||||||||||MET065METAR KCCB 072335Z AUTO 06021G27KT 10SM CLR 21/M18 A3026 RMK AO2=||F||223|ICAO-KCCB
USI0000KCCB|CABLE|2017|12|07|23|55|34.1115|-117.6876|438.6|21.0||1|FM15-METAR|223|ICAO-KCCB|-18.0||1|FM15-METAR|223|ICAO-KCCB|||||||||||||070|N-Normal|1|FM15-METAR|223|ICAO-KCCB|9.8|N-Normal|1|FM15-METAR|223|ICAO-KCCB|12.9||1|FM15-METAR|223|ICAO-KCCB|||||||6|Derived||FM15-METAR|223|ICAO-KCCB|||||||||||||||||||||||||||||||||||||||||||||||||||||||||||||||||||||||||1025.1||1|FM15-METAR|223|ICAO-KCCB|||||||||||||||||||||||||||||||||||||||||||MET065METAR KCCB 072355Z AUTO 07019G25KT 10SM CLR 21/M18 A3027 RMK AO2=||F||223|ICAO-KCCB
USI0000KCCB|CABLE|2017|12|08|00|15|34.1115|-117.6876|438.6|21.0||1|FM15-METAR|223|ICAO-KCCB|-17.0||1|FM15-METAR|223|ICAO-KCCB|||||||||||||050|N-Normal|1|FM15-METAR|223|ICAO-KCCB|5.7|N-Normal|1|FM15-METAR|223|ICAO-KCCB|12.4||1|FM15-METAR|223|ICAO-KCCB|||||||6|Derived||FM15-METAR|223|ICAO-KCCB|||||||||||||||||||||||||||||||||||||||||||||||||||||||||||||||||||||||||1025.1||1|FM15-METAR|223|ICAO-KCCB|||||||||||||||||||||||||||||||||||||||||||MET065METAR KCCB 080015Z AUTO 05011G24KT 10SM CLR 21/M17 A3027 RMK AO2=||F||223|ICAO-KCCB
USI0000KCCB|CABLE|2017|12|08|00|35|34.1115|-117.6876|438.6|20.0||1|FM15-METAR|223|ICAO-KCCB|-19.0||1|FM15-METAR|223|ICAO-KCCB|||||||||||||080|N-Normal|1|FM15-METAR|223|ICAO-KCCB|9.3|N-Normal|1|FM15-METAR|223|ICAO-KCCB|13.9||1|FM15-METAR|223|ICAO-KCCB|||||||6|Derived||FM15-METAR|223|ICAO-KCCB|||||||||||||||||||||||||||||||||||||||||||||||||||||||||||||||||||||||||1025.4||1|FM15-METAR|223|ICAO-KCCB|||||||||||||||||||||||||||||||||||||||||||MET065METAR KCCB 080035Z AUTO 08018G27KT 10SM CLR 20/M19 A3028 RMK AO2=||F||223|ICAO-KCCB
USI0000KCCB|CABLE|2017|12|08|00|55|34.1115|-117.6876|438.6|20.0||1|FM15-METAR|223|ICAO-KCCB|-19.0||1|FM15-METAR|223|ICAO-KCCB|||||||||||||080|N-Normal|1|FM15-METAR|223|ICAO-KCCB|8.2|N-Normal|1|FM15-METAR|223|ICAO-KCCB|13.4||1|FM15-METAR|223|ICAO-KCCB|||||||6|Derived||FM15-METAR|223|ICAO-KCCB|||||||||||||||||||||||||||||||||||||||||||||||||||||||||||||||||||||||||1025.4||1|FM15-METAR|223|ICAO-KCCB|||||||||||||||||||||||||||||||||||||||||||MET065METAR KCCB 080055Z AUTO 08016G26KT 10SM CLR 20/M19 A3028 RMK AO2=||F||223|ICAO-KCCB
USI0000KCCB|CABLE|2017|12|08|01|15|34.1115|-117.6876|438.6|20.0||1|FM15-METAR|223|ICAO-KCCB|-18.0||1|FM15-METAR|223|ICAO-KCCB|||||||||||||999|V-Variable|9|FM15-METAR|223|ICAO-KCCB|2.1|V-Variable|1|FM15-METAR|223|ICAO-KCCB|7.2||1|FM15-METAR|223|ICAO-KCCB|||||||6|Derived||FM15-METAR|223|ICAO-KCCB|||||||||||||||||||||||||||||||||||||||||||||||||||||||||||||||||||||||||1025.7||1|FM15-METAR|223|ICAO-KCCB|||||||||||||||||||||||||||||||||||||||||||MET065METAR KCCB 080115Z AUTO VRB04G14KT 10SM CLR 20/M18 A3029 RMK AO2=||F||223|ICAO-KCCB
USI0000KCCB|CABLE|2017|12|08|01|35|34.1115|-117.6876|438.6|19.0||1|FM15-METAR|223|ICAO-KCCB|-18.0||1|FM15-METAR|223|ICAO-KCCB|||||||||||||060|V-Variable|1|FM15-METAR|223|ICAO-KCCB|5.7|V-Variable|1|FM15-METAR|223|ICAO-KCCB|8.8||1|FM15-METAR|223|ICAO-KCCB|||||||7|Derived||FM15-METAR|223|ICAO-KCCB|||||||||||||||||||||||||||||||||||||||||||||||||||||||||||||||||||||||||1025.7||1|FM15-METAR|223|ICAO-KCCB|||||||||||||||||||||||||||||||||||||||||||MET073METAR KCCB 080135Z AUTO 06011G17KT 040V100 10SM CLR 19/M18 A3029 RMK AO2=||F||223|ICAO-KCCB
USI0000KCCB|CABLE|2017|12|08|01|55|34.1115|-117.6876|438.6|19.0||1|FM15-METAR|223|ICAO-KCCB|-19.0||1|FM15-METAR|223|ICAO-KCCB|||||||||||||100|N-Normal|1|FM15-METAR|223|ICAO-KCCB|5.1|N-Normal|1|FM15-METAR|223|ICAO-KCCB|8.2||1|FM15-METAR|223|ICAO-KCCB|||||||6|Derived||FM15-METAR|223|ICAO-KCCB|||||||||||||||||||||||||||||||||||||||||||||||||||||||||||||||||||||||||1026.1||1|FM15-METAR|223|ICAO-KCCB|||||||||||||||||||||||||||||||||||||||||||MET065METAR KCCB 080155Z AUTO 10010G16KT 10SM CLR 19/M19 A3030 RMK AO2=||F||223|ICAO-KCCB
USI0000KCCB|CABLE|2017|12|08|02|15|34.1115|-117.6876|438.6|19.0||1|FM15-METAR|223|ICAO-KCCB|-19.0||1|FM15-METAR|223|ICAO-KCCB|||||||||||||040|V-Variable|1|FM15-METAR|223|ICAO-KCCB|3.6|V-Variable|1|FM15-METAR|223|ICAO-KCCB|6.7||1|FM15-METAR|223|ICAO-KCCB|||||||6|Derived||FM15-METAR|223|ICAO-KCCB|||||||||||||||||||||||||||||||||||||||||||||||||||||||||||||||||||||||||1026.7||1|FM15-METAR|223|ICAO-KCCB|||||||||||||||||||||||||||||||||||||||||||MET073METAR KCCB 080215Z AUTO 04007G13KT 320V130 10SM CLR 19/M19 A3032 RMK AO2=||F||223|ICAO-KCCB
USI0000KCCB|CABLE|2017|12|08|02|35|34.1115|-117.6876|438.6|19.0||1|FM15-METAR|223|ICAO-KCCB|-19.0||1|FM15-METAR|223|ICAO-KCCB|||||||||||||060|V-Variable|1|FM15-METAR|223|ICAO-KCCB|4.1|V-Variable|1|FM15-METAR|223|ICAO-KCCB|||||||||||||6|Derived||FM15-METAR|223|ICAO-KCCB|||||||||||||||||||||||||||||||||||||||||||||||||||||||||||||||||||||||||1026.7||1|FM15-METAR|223|ICAO-KCCB|||||||||||||||||||||||||||||||||||||||||||MET070METAR KCCB 080235Z AUTO 06008KT 020V110 10SM CLR 19/M19 A3032 RMK AO2=||F||223|ICAO-KCCB
USI0000KCCB|CABLE|2017|12|08|02|55|34.1115|-117.6876|438.6|19.0||1|FM15-METAR|223|ICAO-KCCB|-18.0||1|FM15-METAR|223|ICAO-KCCB|||||||||||||999|V-Variable|9|FM15-METAR|223|ICAO-KCCB|2.6|V-Variable|1|FM15-METAR|223|ICAO-KCCB|8.8||1|FM15-METAR|223|ICAO-KCCB|||||||7|Derived||FM15-METAR|223|ICAO-KCCB|||||||||||||||||||||||||||||||||||||||||||||||||||||||||||||||||||||||||1026.7||1|FM15-METAR|223|ICAO-KCCB|||||||||||||||||||||||||||||||||||||||||||MET065METAR KCCB 080255Z AUTO VRB05G17KT 10SM CLR 19/M18 A3032 RMK AO2=||F||223|ICAO-KCCB
USI0000KCCB|CABLE|2017|12|08|03|15|34.1115|-117.6876|438.6|20.0||1|FM15-METAR|223|ICAO-KCCB|-17.0||1|FM15-METAR|223|ICAO-KCCB|||||||||||||999|C-Calm|9|FM15-METAR|223|ICAO-KCCB|0.0|C-Calm|1|FM15-METAR|223|ICAO-KCCB|5.1||1|FM15-METAR|223|ICAO-KCCB|||||||7|Derived||FM15-METAR|223|ICAO-KCCB|||||||||||||||||||||||||||||||||||||||||||||||||||||||||||||||||||||||||1027.4||1|FM15-METAR|223|ICAO-KCCB|||||||||||||||||||||||||||||||||||||||||||MET065METAR KCCB 080315Z AUTO 00000G10KT 10SM CLR 20/M17 A3034 RMK AO2=||F||223|ICAO-KCCB
USI0000KCCB|CABLE|2017|12|08|03|55|34.1115|-117.6876|438.6|19.0||1|FM15-METAR|223|ICAO-KCCB|-18.0||1|FM15-METAR|223|ICAO-KCCB|||||||||||||230|N-Normal|1|FM15-METAR|223|ICAO-KCCB|3.6|N-Normal|1|FM15-METAR|223|ICAO-KCCB|6.7||1|FM15-METAR|223|ICAO-KCCB|||||||7|Derived||FM15-METAR|223|ICAO-KCCB|||||||||||||||||||||||||||||||||||||||||||||||||||||||||||||||||||||||||1027.4||1|FM15-METAR|223|ICAO-KCCB|||||||||||||||||||||||||||||||||||||||||||MET065METAR KCCB 080355Z AUTO 23007G13KT 10SM CLR 19/M18 A3034 RMK AO2=||F||223|ICAO-KCCB
USI0000KCCB|CABLE|2017|12|08|04|35|34.1115|-117.6876|438.6|19.0||1|FM15-METAR|223|ICAO-KCCB|-17.0||1|FM15-METAR|223|ICAO-KCCB|||||||||||||999|C-Calm|9|FM15-METAR|223|ICAO-KCCB|0.0|C-Calm|1|FM15-METAR|223|ICAO-KCCB|6.2||1|FM15-METAR|223|ICAO-KCCB|||||||7|Derived||FM15-METAR|223|ICAO-KCCB|||||||||||||||||||||||||||||||||||||||||||||||||||||||||||||||||||||||||1027.4||1|FM15-METAR|223|ICAO-KCCB|||||||||||||||||||||||||||||||||||||||||||MET065METAR KCCB 080435Z AUTO 00000G12KT 10SM CLR 19/M17 A3034 RMK AO2=||F||223|ICAO-KCCB
USI0000KCCB|CABLE|2017|12|08|04|55|34.1115|-117.6876|438.6|20.0||1|FM15-METAR|223|ICAO-KCCB|-17.0||1|FM15-METAR|223|ICAO-KCCB|||||||||||||999|V-Variable|9|FM15-METAR|223|ICAO-KCCB|2.6|V-Variable|1|FM15-METAR|223|ICAO-KCCB|5.7||1|FM15-METAR|223|ICAO-KCCB|||||||7|Derived||FM15-METAR|223|ICAO-KCCB|||||||||||||||||||||||||||||||||||||||||||||||||||||||||||||||||||||||||1027.4||1|FM15-METAR|223|ICAO-KCCB|||||||||||||||||||||||||||||||||||||||||||MET065METAR KCCB 080455Z AUTO VRB05G11KT 10SM CLR 20/M17 A3034 RMK AO2=||F||223|ICAO-KCCB
USI0000KCCB|CABLE|2017|12|08|05|15|34.1115|-117.6876|438.6|19.0||1|FM15-METAR|223|ICAO-KCCB|-16.0||1|FM15-METAR|223|ICAO-KCCB|||||||||||||280|N-Normal|1|FM15-METAR|223|ICAO-KCCB|4.1|N-Normal|1|FM15-METAR|223|ICAO-KCCB|||||||||||||8|Derived||FM15-METAR|223|ICAO-KCCB|||||||||||||||||||||||||||||||||||||||||||||||||||||||||||||||||||||||||1027.8||1|FM15-METAR|223|ICAO-KCCB|||||||||||||||||||||||||||||||||||||||||||MET062METAR KCCB 080515Z AUTO 28008KT 10SM CLR 19/M16 A3035 RMK AO2=||F||223|ICAO-KCCB
USI0000KCCB|CABLE|2017|12|08|05|35|34.1115|-117.6876|438.6|18.0||1|FM15-METAR|223|ICAO-KCCB|-15.0||1|FM15-METAR|223|ICAO-KCCB|||||||||||||270|N-Normal|1|FM15-METAR|223|ICAO-KCCB|3.6|N-Normal|1|FM15-METAR|223|ICAO-KCCB|||||||||||||9|Derived||FM15-METAR|223|ICAO-KCCB|||||||||||||||||||||||||||||||||||||||||||||||||||||||||||||||||||||||||1028.1||1|FM15-METAR|223|ICAO-KCCB|||||||||||||||||||||||||||||||||||||||||||MET062METAR KCCB 080535Z AUTO 27007KT 10SM CLR 18/M15 A3036 RMK AO2=||F||223|ICAO-KCCB
USI0000KCCB|CABLE|2017|12|08|05|55|34.1115|-117.6876|438.6|17.0||1|FM15-METAR|223|ICAO-KCCB|-15.0||1|FM15-METAR|223|ICAO-KCCB|||||||||||||999|C-Calm|9|FM15-METAR|223|ICAO-KCCB|0.0|C-Calm|1|FM15-METAR|223|ICAO-KCCB|||||||||||||10|Derived||FM15-METAR|223|ICAO-KCCB|||||||||||||||||||||||||||||||||||||||||||||||||||||||||||||||||||||||||1028.1||1|FM15-METAR|223|ICAO-KCCB|||||||||||||||||||||||||||||||||||||||||||MET062METAR KCCB 080555Z AUTO 00000KT 10SM CLR 17/M15 A3036 RMK AO2=||F||223|ICAO-KCCB
USI0000KCCB|CABLE|2017|12|08|06|35|34.1115|-117.6876|438.6|18.0||1|FM15-METAR|223|ICAO-KCCB|-16.0||1|FM15-METAR|223|ICAO-KCCB|||||||||||||280|N-Normal|1|FM15-METAR|223|ICAO-KCCB|3.6|N-Normal|1|FM15-METAR|223|ICAO-KCCB|||||||||||||8|Derived||FM15-METAR|223|ICAO-KCCB|||||||||||||||||||||||||||||||||||||||||||||||||||||||||||||||||||||||||1028.4||1|FM15-METAR|223|ICAO-KCCB|||||||||||||||||||||||||||||||||||||||||||MET062METAR KCCB 080635Z AUTO 28007KT 10SM CLR 18/M16 A3037 RMK AO2=||F||223|ICAO-KCCB
USI0000KCCB|CABLE|2017|12|08|06|55|34.1115|-117.6876|438.6|16.0||1|FM15-METAR|223|ICAO-KCCB|-15.0||1|FM15-METAR|223|ICAO-KCCB|||||||||||||999|C-Calm|9|FM15-METAR|223|ICAO-KCCB|0.0|C-Calm|1|FM15-METAR|223|ICAO-KCCB|||||||||||||11|Derived||FM15-METAR|223|ICAO-KCCB|||||||||||||||||||||||||||||||||||||||||||||||||||||||||||||||||||||||||1028.8||1|FM15-METAR|223|ICAO-KCCB|||||||||||||||||||||||||||||||||||||||||||MET062METAR KCCB 080655Z AUTO 00000KT 10SM CLR 16/M15 A3038 RMK AO2=||F||223|ICAO-KCCB
USI0000KCCB|CABLE|2017|12|08|07|15|34.1115|-117.6876|438.6|16.0||1|FM15-METAR|223|ICAO-KCCB|-15.0||1|FM15-METAR|223|ICAO-KCCB|||||||||||||999|V-Variable|9|FM15-METAR|223|ICAO-KCCB|2.6|V-Variable|1|FM15-METAR|223|ICAO-KCCB|||||||||||||11|Derived||FM15-METAR|223|ICAO-KCCB|||||||||||||||||||||||||||||||||||||||||||||||||||||||||||||||||||||||||1028.8||1|FM15-METAR|223|ICAO-KCCB|||||||||||||||||||||||||||||||||||||||||||MET062METAR KCCB 080715Z AUTO VRB05KT 10SM CLR 16/M15 A3038 RMK AO2=||F||223|ICAO-KCCB
USI0000KCCB|CABLE|2017|12|08|07|35|34.1115|-117.6876|438.6|16.0||1|FM15-METAR|223|ICAO-KCCB|-14.0||1|FM15-METAR|223|ICAO-KCCB|||||||||||||360|N-Normal|1|FM15-METAR|223|ICAO-KCCB|2.6|N-Normal|1|FM15-METAR|223|ICAO-KCCB|5.7||1|FM15-METAR|223|ICAO-KCCB|||||||11|Derived||FM15-METAR|223|ICAO-KCCB|||||||||||||||||||||||||||||||||||||||||||||||||||||||||||||||||||||||||1028.8||1|FM15-METAR|223|ICAO-KCCB|||||||||||||||||||||||||||||||||||||||||||MET065METAR KCCB 080735Z AUTO 36005G11KT 10SM CLR 16/M14 A3038 RMK AO2=||F||223|ICAO-KCCB
USI0000KCCB|CABLE|2017|12|08|07|55|34.1115|-117.6876|438.6|16.0||1|FM15-METAR|223|ICAO-KCCB|-15.0||1|FM15-METAR|223|ICAO-KCCB|||||||||||||999|C-Calm|9|FM15-METAR|223|ICAO-KCCB|0.0|C-Calm|1|FM15-METAR|223|ICAO-KCCB|||||||||||||11|Derived||FM15-METAR|223|ICAO-KCCB|||||||||||||||||||||||||||||||||||||||||||||||||||||||||||||||||||||||||1028.8||1|FM15-METAR|223|ICAO-KCCB|||||||||||||||||||||||||||||||||||||||||||MET062METAR KCCB 080755Z AUTO 00000KT 10SM CLR 16/M15 A3038 RMK AO2=||F||223|ICAO-KCCB
USI0000KCCB|CABLE|2017|12|08|08|15|34.1115|-117.6876|438.6|15.0||1|FM15-METAR|223|ICAO-KCCB|-14.0||1|FM15-METAR|223|ICAO-KCCB|||||||||||||360|N-Normal|1|FM15-METAR|223|ICAO-KCCB|3.6|N-Normal|1|FM15-METAR|223|ICAO-KCCB|||||||||||||12|Derived||FM15-METAR|223|ICAO-KCCB|||||||||||||||||||||||||||||||||||||||||||||||||||||||||||||||||||||||||1028.8||1|FM15-METAR|223|ICAO-KCCB|||||||||||||||||||||||||||||||||||||||||||MET062METAR KCCB 080815Z AUTO 36007KT 10SM CLR 15/M14 A3038 RMK AO2=||F||223|ICAO-KCCB
USI0000KCCB|CABLE|2017|12|08|08|35|34.1115|-117.6876|438.6|15.0||1|FM15-METAR|223|ICAO-KCCB|-14.0||1|FM15-METAR|223|ICAO-KCCB|||||||||||||999|V-Variable|9|FM15-METAR|223|ICAO-KCCB|2.6|V-Variable|1|FM15-METAR|223|ICAO-KCCB|||||||||||||12|Derived||FM15-METAR|223|ICAO-KCCB|||||||||||||||||||||||||||||||||||||||||||||||||||||||||||||||||||||||||1028.8||1|FM15-METAR|223|ICAO-KCCB|||||||||||||||||||||||||||||||||||||||||||MET062METAR KCCB 080835Z AUTO VRB05KT 10SM CLR 15/M14 A3038 RMK AO2=||F||223|ICAO-KCCB
USI0000KCCB|CABLE|2017|12|08|08|55|34.1115|-117.6876|438.6|15.0||1|FM15-METAR|223|ICAO-KCCB|-14.0||1|FM15-METAR|223|ICAO-KCCB|||||||||||||290|N-Normal|1|FM15-METAR|223|ICAO-KCCB|1.5|N-Normal|1|FM15-METAR|223|ICAO-KCCB|||||||||||||12|Derived||FM15-METAR|223|ICAO-KCCB|||||||||||||||||||||||||||||||||||||||||||||||||||||||||||||||||||||||||1028.8||1|FM15-METAR|223|ICAO-KCCB|||||||||||||||||||||||||||||||||||||||||||MET062METAR KCCB 080855Z AUTO 29003KT 10SM CLR 15/M14 A3038 RMK AO2=||F||223|ICAO-KCCB
USI0000KCCB|CABLE|2017|12|08|09|15|34.1115|-117.6876|438.6|15.0||1|FM15-METAR|223|ICAO-KCCB|-14.0||1|FM15-METAR|223|ICAO-KCCB|||||||||||||290|N-Normal|1|FM15-METAR|223|ICAO-KCCB|3.1|N-Normal|1|FM15-METAR|223|ICAO-KCCB|||||||||||||12|Derived||FM15-METAR|223|ICAO-KCCB|||||||||||||||||||||||||||||||||||||||||||||||||||||||||||||||||||||||||1028.4||1|FM15-METAR|223|ICAO-KCCB|||||||||||||||||||||||||||||||||||||||||||MET062METAR KCCB 080915Z AUTO 29006KT 10SM CLR 15/M14 A3037 RMK AO2=||F||223|ICAO-KCCB
USI0000KCCB|CABLE|2017|12|08|09|35|34.1115|-117.6876|438.6|15.0||1|FM15-METAR|223|ICAO-KCCB|-14.0||1|FM15-METAR|223|ICAO-KCCB|||||||||||||999|C-Calm|9|FM15-METAR|223|ICAO-KCCB|0.0|C-Calm|1|FM15-METAR|223|ICAO-KCCB|||||||||||||12|Derived||FM15-METAR|223|ICAO-KCCB|||||||||||||||||||||||||||||||||||||||||||||||||||||||||||||||||||||||||1028.8||1|FM15-METAR|223|ICAO-KCCB|||||||||||||||||||||||||||||||||||||||||||MET062METAR KCCB 080935Z AUTO 00000KT 10SM CLR 15/M14 A3038 RMK AO2=||F||223|ICAO-KCCB
USI0000KCCB|CABLE|2017|12|08|09|55|34.1115|-117.6876|438.6|15.0||1|FM15-METAR|223|ICAO-KCCB|-14.0||1|FM15-METAR|223|ICAO-KCCB|||||||||||||290|N-Normal|1|FM15-METAR|223|ICAO-KCCB|1.5|N-Normal|1|FM15-METAR|223|ICAO-KCCB|||||||||||||12|Derived||FM15-METAR|223|ICAO-KCCB|||||||||||||||||||||||||||||||||||||||||||||||||||||||||||||||||||||||||1028.8||1|FM15-METAR|223|ICAO-KCCB|||||||||||||||||||||||||||||||||||||||||||MET062METAR KCCB 080955Z AUTO 29003KT 10SM CLR 15/M14 A3038 RMK AO2=||F||223|ICAO-KCCB
USI0000KCCB|CABLE|2017|12|08|10|15|34.1115|-117.6876|438.6|14.0||1|FM15-METAR|223|ICAO-KCCB|-14.0||1|FM15-METAR|223|ICAO-KCCB|||||||||||||330|N-Normal|1|FM15-METAR|223|ICAO-KCCB|3.1|N-Normal|1|FM15-METAR|223|ICAO-KCCB|||||||||||||13|Derived||FM15-METAR|223|ICAO-KCCB|||||||||||||||||||||||||||||||||||||||||||||||||||||||||||||||||||||||||1028.4||1|FM15-METAR|223|ICAO-KCCB|||||||||||||||||||||||||||||||||||||||||||MET062METAR KCCB 081015Z AUTO 33006KT 10SM CLR 14/M14 A3037 RMK AO2=||F||223|ICAO-KCCB
USI0000KCCB|CABLE|2017|12|08|10|35|34.1115|-117.6876|438.6|15.0||1|FM15-METAR|223|ICAO-KCCB|-15.0||1|FM15-METAR|223|ICAO-KCCB|||||||||||||320|N-Normal|1|FM15-METAR|223|ICAO-KCCB|3.1|N-Normal|1|FM15-METAR|223|ICAO-KCCB|||||||||||||11|Derived||FM15-METAR|223|ICAO-KCCB|||||||||||||||||||||||||||||||||||||||||||||||||||||||||||||||||||||||||1028.4||1|FM15-METAR|223|ICAO-KCCB|||||||||||||||||||||||||||||||||||||||||||MET062METAR KCCB 081035Z AUTO 32006KT 10SM CLR 15/M15 A3037 RMK AO2=||F||223|ICAO-KCCB
USI0000KCCB|CABLE|2017|12|08|10|55|34.1115|-117.6876|438.6|13.0||1|FM15-METAR|223|ICAO-KCCB|-14.0||1|FM15-METAR|223|ICAO-KCCB|||||||||||||360|N-Normal|1|FM15-METAR|223|ICAO-KCCB|3.6|N-Normal|1|FM15-METAR|223|ICAO-KCCB|||||||||||||14|Derived||FM15-METAR|223|ICAO-KCCB|||||||||||||||||||||||||||||||||||||||||||||||||||||||||||||||||||||||||1028.4||1|FM15-METAR|223|ICAO-KCCB|||||||||||||||||||||||||||||||||||||||||||MET062METAR KCCB 081055Z AUTO 36007KT 10SM CLR 13/M14 A3037 RMK AO2=||F||223|ICAO-KCCB
USI0000KCCB|CABLE|2017|12|08|12|15|34.1115|-117.6876|438.6|13.0||1|FM15-METAR|223|ICAO-KCCB|-14.0||1|FM15-METAR|223|ICAO-KCCB|||||||||||||999|C-Calm|9|FM15-METAR|223|ICAO-KCCB|0.0|C-Calm|1|FM15-METAR|223|ICAO-KCCB|||||||||||||14|Derived||FM15-METAR|223|ICAO-KCCB|||||||||||||||||||||||||||||||||||||||||||||||||||||||||||||||||||||||||1028.1||1|FM15-METAR|223|ICAO-KCCB|||||||||||||||||||||||||||||||||||||||||||MET062METAR KCCB 081215Z AUTO 00000KT 10SM CLR 13/M14 A3036 RMK AO2=||F||223|ICAO-KCCB
USI0000KCCB|CABLE|2017|12|08|12|35|34.1115|-117.6876|438.6|12.0||1|FM15-METAR|223|ICAO-KCCB|-11.0||1|FM15-METAR|223|ICAO-KCCB|||||||||||||050|N-Normal|1|FM15-METAR|223|ICAO-KCCB|2.1|N-Normal|1|FM15-METAR|223|ICAO-KCCB|||||||||||||19|Derived||FM15-METAR|223|ICAO-KCCB|||||||||||||||||||||||||||||||||||||||||||||||||||||||||||||||||||||||||1028.1||1|FM15-METAR|223|ICAO-KCCB|||||||||||||||||||||||||||||||||||||||||||MET062METAR KCCB 081235Z AUTO 05004KT 10SM CLR 12/M11 A3036 RMK AO2=||F||223|ICAO-KCCB
USI0000KCCB|CABLE|2017|12|08|12|55|34.1115|-117.6876|438.6|12.0||1|FM15-METAR|223|ICAO-KCCB|-12.0||1|FM15-METAR|223|ICAO-KCCB|||||||||||||360|N-Normal|1|FM15-METAR|223|ICAO-KCCB|2.1|N-Normal|1|FM15-METAR|223|ICAO-KCCB|||||||||||||18|Derived||FM15-METAR|223|ICAO-KCCB|||||||||||||||||||||||||||||||||||||||||||||||||||||||||||||||||||||||||1028.1||1|FM15-METAR|223|ICAO-KCCB|||||||||||||||||||||||||||||||||||||||||||MET062METAR KCCB 081255Z AUTO 36004KT 10SM CLR 12/M12 A3036 RMK AO2=||F||223|ICAO-KCCB
USI0000KCCB|CABLE|2017|12|08|13|15|34.1115|-117.6876|438.6|12.0||1|FM15-METAR|223|ICAO-KCCB|-12.0||1|FM15-METAR|223|ICAO-KCCB|||||||||||||999|C-Calm|9|FM15-METAR|223|ICAO-KCCB|0.0|C-Calm|1|FM15-METAR|223|ICAO-KCCB|||||||||||||18|Derived||FM15-METAR|223|ICAO-KCCB|||||||||||||||||||||||||||||||||||||||||||||||||||||||||||||||||||||||||1027.8||1|FM15-METAR|223|ICAO-KCCB|||||||||||||||||||||||||||||||||||||||||||MET062METAR KCCB 081315Z AUTO 00000KT 10SM CLR 12/M12 A3035 RMK AO2=||F||223|ICAO-KCCB
USI0000KCCB|CABLE|2017|12|08|13|35|34.1115|-117.6876|438.6|11.0||1|FM15-METAR|223|ICAO-KCCB|-12.0||1|FM15-METAR|223|ICAO-KCCB|||||||||||||360|N-Normal|1|FM15-METAR|223|ICAO-KCCB|3.6|N-Normal|1|FM15-METAR|223|ICAO-KCCB|||||||||||||19|Derived||FM15-METAR|223|ICAO-KCCB|||||||||||||||||||||||||||||||||||||||||||||||||||||||||||||||||||||||||1027.8||1|FM15-METAR|223|ICAO-KCCB|||||||||||||||||||||||||||||||||||||||||||MET062METAR KCCB 081335Z AUTO 36007KT 10SM CLR 11/M12 A3035 RMK AO2=||F||223|ICAO-KCCB
USI0000KCCB|CABLE|2017|12|08|13|55|34.1115|-117.6876|438.6|13.0||1|FM15-METAR|223|ICAO-KCCB|-14.0||1|FM15-METAR|223|ICAO-KCCB|||||||||||||999|V-Variable|9|FM15-METAR|223|ICAO-KCCB|2.1|V-Variable|1|FM15-METAR|223|ICAO-KCCB|||||||||||||14|Derived||FM15-METAR|223|ICAO-KCCB|||||||||||||||||||||||||||||||||||||||||||||||||||||||||||||||||||||||||1027.8||1|FM15-METAR|223|ICAO-KCCB|||||||||||||||||||||||||||||||||||||||||||MET062METAR KCCB 081355Z AUTO VRB04KT 10SM CLR 13/M14 A3035 RMK AO2=||F||223|ICAO-KCCB
USI0000KCCB|CABLE|2017|12|08|14|15|34.1115|-117.6876|438.6|13.0||1|FM15-METAR|223|ICAO-KCCB|-13.0||1|FM15-METAR|223|ICAO-KCCB|||||||||||||320|N-Normal|1|FM15-METAR|223|ICAO-KCCB|2.6|N-Normal|1|FM15-METAR|223|ICAO-KCCB|||||||||||||15|Derived||FM15-METAR|223|ICAO-KCCB|||||||||||||||||||||||||||||||||||||||||||||||||||||||||||||||||||||||||1027.8||1|FM15-METAR|223|ICAO-KCCB|||||||||||||||||||||||||||||||||||||||||||MET062METAR KCCB 081415Z AUTO 32005KT 10SM CLR 13/M13 A3035 RMK AO2=||F||223|ICAO-KCCB
USI0000KCCB|CABLE|2017|12|08|14|35|34.1115|-117.6876|438.6|12.0||1|FM15-METAR|223|ICAO-KCCB|-12.0||1|FM15-METAR|223|ICAO-KCCB|||||||||||||999|V-Variable|9|FM15-METAR|223|ICAO-KCCB|2.1|V-Variable|1|FM15-METAR|223|ICAO-KCCB|||||||||||||18|Derived||FM15-METAR|223|ICAO-KCCB|||||||||||||||||||||||||||||||||||||||||||||||||||||||||||||||||||||||||1027.8||1|FM15-METAR|223|ICAO-KCCB|||||||||||||||||||||||||||||||||||||||||||MET062METAR KCCB 081435Z AUTO VRB04KT 10SM CLR 12/M12 A3035 RMK AO2=||F||223|ICAO-KCCB
USI0000KCCB|CABLE|2017|12|08|14|55|34.1115|-117.6876|438.6|12.0||1|FM15-METAR|223|ICAO-KCCB|-13.0||1|FM15-METAR|223|ICAO-KCCB|||||||||||||050|N-Normal|1|FM15-METAR|223|ICAO-KCCB|3.1|N-Normal|1|FM15-METAR|223|ICAO-KCCB|||||||||||||16|Derived||FM15-METAR|223|ICAO-KCCB|||||||||||||||||||||||||||||||||||||||||||||||||||||||||||||||||||||||||1028.1||1|FM15-METAR|223|ICAO-KCCB|||||||||||||||||||||||||||||||||||||||||||MET062METAR KCCB 081455Z AUTO 05006KT 10SM CLR 12/M13 A3036 RMK AO2=||F||223|ICAO-KCCB
USI0000KCCB|CABLE|2017|12|08|15|15|34.1115|-117.6876|438.6|13.0||1|FM15-METAR|223|ICAO-KCCB|-13.0||1|FM15-METAR|223|ICAO-KCCB|||||||||||||360|N-Normal|1|FM15-METAR|223|ICAO-KCCB|3.1|N-Normal|1|FM15-METAR|223|ICAO-KCCB|||||||||||||15|Derived||FM15-METAR|223|ICAO-KCCB|||||||||||||||||||||||||||||||||||||||||||||||||||||||||||||||||||||||||1027.8||1|FM15-METAR|223|ICAO-KCCB|||||||||||||||||||||||||||||||||||||||||||MET062METAR KCCB 081515Z AUTO 36006KT 10SM CLR 13/M13 A3035 RMK AO2=||F||223|ICAO-KCCB
USI0000KCCB|CABLE|2017|12|08|15|35|34.1115|-117.6876|438.6|15.0||1|FM15-METAR|223|ICAO-KCCB|-13.0||1|FM15-METAR|223|ICAO-KCCB|||||||||||||010|N-Normal|1|FM15-METAR|223|ICAO-KCCB|3.1|N-Normal|1|FM15-METAR|223|ICAO-KCCB|||||||||||||13|Derived||FM15-METAR|223|ICAO-KCCB|||||||||||||||||||||||||||||||||||||||||||||||||||||||||||||||||||||||||1028.1||1|FM15-METAR|223|ICAO-KCCB|||||||||||||||||||||||||||||||||||||||||||MET062METAR KCCB 081535Z AUTO 01006KT 10SM CLR 15/M13 A3036 RMK AO2=||F||223|ICAO-KCCB
USI0000KCCB|CABLE|2017|12|08|15|55|34.1115|-117.6876|438.6|16.0||1|FM15-METAR|223|ICAO-KCCB|-12.0||1|FM15-METAR|223|ICAO-KCCB|||||||||||||350|N-Normal|1|FM15-METAR|223|ICAO-KCCB|3.1|N-Normal|1|FM15-METAR|223|ICAO-KCCB|||||||||||||13|Derived||FM15-METAR|223|ICAO-KCCB|||||||||||||||||||||||||||||||||||||||||||||||||||||||||||||||||||||||||1028.1||1|FM15-METAR|223|ICAO-KCCB|||||||||||||||||||||||||||||||||||||||||||MET062METAR KCCB 081555Z AUTO 35006KT 10SM CLR 16/M12 A3036 RMK AO2=||F||223|ICAO-KCCB
USI0000KCCB|CABLE|2017|12|08|16|15|34.1115|-117.6876|438.6|18.0||1|FM15-METAR|223|ICAO-KCCB|-13.0||1|FM15-METAR|223|ICAO-KCCB|||||||||||||320|N-Normal|1|FM15-METAR|223|ICAO-KCCB|2.1|N-Normal|1|FM15-METAR|223|ICAO-KCCB|||||||||||||11|Derived||FM15-METAR|223|ICAO-KCCB|||||||||||||||||||||||||||||||||||||||||||||||||||||||||||||||||||||||||1028.1||1|FM15-METAR|223|ICAO-KCCB|||||||||||||||||||||||||||||||||||||||||||MET062METAR KCCB 081615Z AUTO 32004KT 10SM CLR 18/M13 A3036 RMK AO2=||F||223|ICAO-KCCB
USI0000KCCB|CABLE|2017|12|08|16|35|34.1115|-117.6876|438.6|19.0||1|FM15-METAR|223|ICAO-KCCB|-14.0||1|FM15-METAR|223|ICAO-KCCB|||||||||||||340|N-Normal|1|FM15-METAR|223|ICAO-KCCB|2.6|N-Normal|1|FM15-METAR|223|ICAO-KCCB|||||||||||||9|Derived||FM15-METAR|223|ICAO-KCCB|||||||||||||||||||||||||||||||||||||||||||||||||||||||||||||||||||||||||1028.1||1|FM15-METAR|223|ICAO-KCCB|||||||||||||||||||||||||||||||||||||||||||MET062METAR KCCB 081635Z AUTO 34005KT 10SM CLR 19/M14 A3036 RMK AO2=||F||223|ICAO-KCCB
USI0000KCCB|CABLE|2017|12|08|16|55|34.1115|-117.6876|438.6|20.0||1|FM15-METAR|223|ICAO-KCCB|-15.0||1|FM15-METAR|223|ICAO-KCCB|||||||||||||290|N-Normal|1|FM15-METAR|223|ICAO-KCCB|3.1|N-Normal|1|FM15-METAR|223|ICAO-KCCB|||||||||||||8|Derived||FM15-METAR|223|ICAO-KCCB|||||||||||||||||||||||||||||||||||||||||||||||||||||||||||||||||||||||||1028.1||1|FM15-METAR|223|ICAO-KCCB|||||||||||||||||||||||||||||||||||||||||||MET062METAR KCCB 081655Z AUTO 29006KT 10SM CLR 20/M15 A3036 RMK AO2=||F||223|ICAO-KCCB
USI0000KCCB|CABLE|2017|12|08|17|15|34.1115|-117.6876|438.6|20.0||1|FM15-METAR|223|ICAO-KCCB|-14.0||1|FM15-METAR|223|ICAO-KCCB|||||||||||||280|N-Normal|1|FM15-METAR|223|ICAO-KCCB|3.1|N-Normal|1|FM15-METAR|223|ICAO-KCCB|||||||||||||9|Derived||FM15-METAR|223|ICAO-KCCB|||||||||||||||||||||||||||||||||||||||||||||||||||||||||||||||||||||||||1028.1||1|FM15-METAR|223|ICAO-KCCB|||||||||||||||||||||||||||||||||||||||||||MET062METAR KCCB 081715Z AUTO 28006KT 10SM CLR 20/M14 A3036 RMK AO2=||F||223|ICAO-KCCB
USI0000KCCB|CABLE|2017|12|08|17|35|34.1115|-117.6876|438.6|21.0||1|FM15-METAR|223|ICAO-KCCB|-14.0||1|FM15-METAR|223|ICAO-KCCB|||||||||||||270|N-Normal|1|FM15-METAR|223|ICAO-KCCB|4.1|N-Normal|1|FM15-METAR|223|ICAO-KCCB|||||||||||||8|Derived||FM15-METAR|223|ICAO-KCCB|||||||||||||||||||||||||||||||||||||||||||||||||||||||||||||||||||||||||1028.1||1|FM15-METAR|223|ICAO-KCCB|||||||||||||||||||||||||||||||||||||||||||MET062METAR KCCB 081735Z AUTO 27008KT 10SM CLR 21/M14 A3036 RMK AO2=||F||223|ICAO-KCCB
USI0000KCCB|CABLE|2017|12|08|17|55|34.1115|-117.6876|438.6|21.0||1|FM15-METAR|223|ICAO-KCCB|-14.0||1|FM15-METAR|223|ICAO-KCCB|||||||||||||280|N-Normal|1|FM15-METAR|223|ICAO-KCCB|4.6|N-Normal|1|FM15-METAR|223|ICAO-KCCB|||||||||||||8|Derived||FM15-METAR|223|ICAO-KCCB|||||||||||||||||||||||||||||||||||||||||||||||||||||||||||||||||||||||||1028.1||1|FM15-METAR|223|ICAO-KCCB|||||||||||||||||||||||||||||||||||||||||||MET062METAR KCCB 081755Z AUTO 28009KT 10SM CLR 21/M14 A3036 RMK AO2=||F||223|ICAO-KCCB
USI0000KCCB|CABLE|2017|12|08|18|15|34.1115|-117.6876|438.6|21.0||1|FM15-METAR|223|ICAO-KCCB|-14.0||1|FM15-METAR|223|ICAO-KCCB|||||||||||||270|N-Normal|1|FM15-METAR|223|ICAO-KCCB|3.6|N-Normal|1|FM15-METAR|223|ICAO-KCCB|||||||||||||8|Derived||FM15-METAR|223|ICAO-KCCB|||||||||||||||||||||||||||||||||||||||||||||||||||||||||||||||||||||||||1027.8||1|FM15-METAR|223|ICAO-KCCB|||||||||||||||||||||||||||||||||||||||||||MET062METAR KCCB 081815Z AUTO 27007KT 10SM CLR 21/M14 A3035 RMK AO2=||F||223|ICAO-KCCB
USI0000KCCB|CABLE|2017|12|08|18|35|34.1115|-117.6876|438.6|21.0||1|FM15-METAR|223|ICAO-KCCB|-13.0||1|FM15-METAR|223|ICAO-KCCB|||||||||||||290|N-Normal|1|FM15-METAR|223|ICAO-KCCB|4.6|N-Normal|1|FM15-METAR|223|ICAO-KCCB|||||||||||||9|Derived||FM15-METAR|223|ICAO-KCCB|||||||||||||||||||||||||||||||||||||||||||||||||||||||||||||||||||||||||1027.8||1|FM15-METAR|223|ICAO-KCCB|||||||||||||||||||||||||||||||||||||||||||MET062METAR KCCB 081835Z AUTO 29009KT 10SM CLR 21/M13 A3035 RMK AO2=||F||223|ICAO-KCCB
USI0000KCCB|CABLE|2017|12|08|18|55|34.1115|-117.6876|438.6|22.0||1|FM15-METAR|223|ICAO-KCCB|-13.0||1|FM15-METAR|223|ICAO-KCCB|||||||||||||290|N-Normal|1|FM15-METAR|223|ICAO-KCCB|4.6|N-Normal|1|FM15-METAR|223|ICAO-KCCB|||||||||||||8|Derived||FM15-METAR|223|ICAO-KCCB|||||||||||||||||||||||||||||||||||||||||||||||||||||||||||||||||||||||||1027.4||1|FM15-METAR|223|ICAO-KCCB|||||||||||||||||||||||||||||||||||||||||||MET062METAR KCCB 081855Z AUTO 29009KT 10SM CLR 22/M13 A3034 RMK AO2=||F||223|ICAO-KCCB
USI0000KCCB|CABLE|2017|12|08|19|15|34.1115|-117.6876|438.6|22.0||1|FM15-METAR|223|ICAO-KCCB|-13.0||1|FM15-METAR|223|ICAO-KCCB|||||||||||||270|N-Normal|1|FM15-METAR|223|ICAO-KCCB|5.7|N-Normal|1|FM15-METAR|223|ICAO-KCCB|||||||||||||8|Derived||FM15-METAR|223|ICAO-KCCB|||||||||||||||||||||||||||||||||||||||||||||||||||||||||||||||||||||||||1027.1||1|FM15-METAR|223|ICAO-KCCB|||||||||||||||||||||||||||||||||||||||||||MET062METAR KCCB 081915Z AUTO 27011KT 10SM CLR 22/M13 A3033 RMK AO2=||F||223|ICAO-KCCB
USI0000KCCB|CABLE|2017|12|08|19|35|34.1115|-117.6876|438.6|22.0||1|FM15-METAR|223|ICAO-KCCB|-13.0||1|FM15-METAR|223|ICAO-KCCB|||||||||||||280|N-Normal|1|FM15-METAR|223|ICAO-KCCB|4.6|N-Normal|1|FM15-METAR|223|ICAO-KCCB|||||||||||||8|Derived||FM15-METAR|223|ICAO-KCCB|||||||||||||||||||||||||||||||||||||||||||||||||||||||||||||||||||||||||1026.7||1|FM15-METAR|223|ICAO-KCCB|||||||||||||||||||||||||||||||||||||||||||MET062METAR KCCB 081935Z AUTO 28009KT 10SM CLR 22/M13 A3032 RMK AO2=||F||223|ICAO-KCCB
USI0000KCCB|CABLE|2017|12|08|19|55|34.1115|-117.6876|438.6|22.0||1|FM15-METAR|223|ICAO-KCCB|-13.0||1|FM15-METAR|223|ICAO-KCCB|||||||||||||270|N-Normal|1|FM15-METAR|223|ICAO-KCCB|5.1|N-Normal|1|FM15-METAR|223|ICAO-KCCB|||||||||||||8|Derived||FM15-METAR|223|ICAO-KCCB|||||||||||||||||||||||||||||||||||||||||||||||||||||||||||||||||||||||||1026.4||1|FM15-METAR|223|ICAO-KCCB|||||||||||||||||||||||||||||||||||||||||||MET062METAR KCCB 081955Z AUTO 27010KT 10SM CLR 22/M13 A3031 RMK AO2=||F||223|ICAO-KCCB
USI0000KCCB|CABLE|2017|12|08|20|15|34.1115|-117.6876|438.6|23.0||1|FM15-METAR|223|ICAO-KCCB|-13.0||1|FM15-METAR|223|ICAO-KCCB|||||||||||||260|N-Normal|1|FM15-METAR|223|ICAO-KCCB|4.6|N-Normal|1|FM15-METAR|223|ICAO-KCCB|||||||||||||8|Derived||FM15-METAR|223|ICAO-KCCB|||||||||||||||||||||||||||||||||||||||||||||||||||||||||||||||||||||||||1026.1||1|FM15-METAR|223|ICAO-KCCB|||||||||||||||||||||||||||||||||||||||||||MET062METAR KCCB 082015Z AUTO 26009KT 10SM CLR 23/M13 A3030 RMK AO2=||F||223|ICAO-KCCB
USI0000KCCB|CABLE|2017|12|08|20|35|34.1115|-117.6876|438.6|24.0||1|FM15-METAR|223|ICAO-KCCB|-14.0||1|FM15-METAR|223|ICAO-KCCB|||||||||||||270|N-Normal|1|FM15-METAR|223|ICAO-KCCB|4.6|N-Normal|1|FM15-METAR|223|ICAO-KCCB|7.7||1|FM15-METAR|223|ICAO-KCCB|||||||7|Derived||FM15-METAR|223|ICAO-KCCB|||||||||||||||||||||||||||||||||||||||||||||||||||||||||||||||||||||||||1025.7||1|FM15-METAR|223|ICAO-KCCB|||||||||||||||||||||||||||||||||||||||||||MET064METAR KCCB 082035Z AUTO 27009G15KT 9SM CLR 24/M14 A3029 RMK AO2=||F||223|ICAO-KCCB
USI0000KCCB|CABLE|2017|12|08|20|55|34.1115|-117.6876|438.6|24.0||1|FM15-METAR|223|ICAO-KCCB|-13.0||1|FM15-METAR|223|ICAO-KCCB|||||||||||||250|N-Normal|1|FM15-METAR|223|ICAO-KCCB|5.1|N-Normal|1|FM15-METAR|223|ICAO-KCCB|||||||||||||7|Derived||FM15-METAR|223|ICAO-KCCB|||||||||||||||||||||||||||||||||||||||||||||||||||||||||||||||||||||||||1025.4||1|FM15-METAR|223|ICAO-KCCB|||||||||||||||||||||||||||||||||||||||||||MET062METAR KCCB 082055Z AUTO 25010KT 10SM CLR 24/M13 A3028 RMK AO2=||F||223|ICAO-KCCB
USI0000KCCB|CABLE|2017|12|08|21|15|34.1115|-117.6876|438.6|24.0||1|FM15-METAR|223|ICAO-KCCB|-13.0||1|FM15-METAR|223|ICAO-KCCB|||||||||||||260|N-Normal|1|FM15-METAR|223|ICAO-KCCB|4.6|N-Normal|1|FM15-METAR|223|ICAO-KCCB|||||||||||||7|Derived||FM15-METAR|223|ICAO-KCCB|||||||||||||||||||||||||||||||||||||||||||||||||||||||||||||||||||||||||1025.1||1|FM15-METAR|223|ICAO-KCCB|||||||||||||||||||||||||||||||||||||||||||MET062METAR KCCB 082115Z AUTO 26009KT 10SM CLR 24/M13 A3027 RMK AO2=||F||223|ICAO-KCCB
USI0000KCCB|CABLE|2017|12|08|21|35|34.1115|-117.6876|438.6|24.0||1|FM15-METAR|223|ICAO-KCCB|-14.0||1|FM15-METAR|223|ICAO-KCCB|||||||||||||260|N-Normal|1|FM15-METAR|223|ICAO-KCCB|5.1|N-Normal|1|FM15-METAR|223|ICAO-KCCB|||||||||||||7|Derived||FM15-METAR|223|ICAO-KCCB|||||||||||||||||||||||||||||||||||||||||||||||||||||||||||||||||||||||||1024.7||1|FM15-METAR|223|ICAO-KCCB|||||||||||||||||||||||||||||||||||||||||||MET062METAR KCCB 082135Z AUTO 26010KT 10SM CLR 24/M14 A3026 RMK AO2=||F||223|ICAO-KCCB
USI0000KCCB|CABLE|2017|12|08|21|55|34.1115|-117.6876|438.6|24.0||1|FM15-METAR|223|ICAO-KCCB|-13.0||1|FM15-METAR|223|ICAO-KCCB|||||||||||||260|N-Normal|1|FM15-METAR|223|ICAO-KCCB|5.7|N-Normal|1|FM15-METAR|223|ICAO-KCCB|||||||||||||7|Derived||FM15-METAR|223|ICAO-KCCB|||||||||||||||||||||||||||||||||||||||||||||||||||||||||||||||||||||||||1024.4||1|FM15-METAR|223|ICAO-KCCB|||||||||||||||||||||||||||||||||||||||||||MET062METAR KCCB 082155Z AUTO 26011KT 10SM CLR 24/M13 A3025 RMK AO2=||F||223|ICAO-KCCB
USI0000KCCB|CABLE|2017|12|08|22|15|34.1115|-117.6876|438.6|24.0||1|FM15-METAR|223|ICAO-KCCB|-13.0||1|FM15-METAR|223|ICAO-KCCB|||||||||||||260|N-Normal|1|FM15-METAR|223|ICAO-KCCB|5.1|N-Normal|1|FM15-METAR|223|ICAO-KCCB|||||||||||||7|Derived||FM15-METAR|223|ICAO-KCCB|||||||||||||||||||||||||||||||||||||||||||||||||||||||||||||||||||||||||1024.4||1|FM15-METAR|223|ICAO-KCCB|||||||||||||||||||||||||||||||||||||||||||MET062METAR KCCB 082215Z AUTO 26010KT 10SM CLR 24/M13 A3025 RMK AO2=||F||223|ICAO-KCCB
USI0000KCCB|CABLE|2017|12|08|22|35|34.1115|-117.6876|438.6|24.0||1|FM15-METAR|223|ICAO-KCCB|-12.0||1|FM15-METAR|223|ICAO-KCCB|||||||||||||280|N-Normal|1|FM15-METAR|223|ICAO-KCCB|5.1|N-Normal|1|FM15-METAR|223|ICAO-KCCB|||||||||||||8|Derived||FM15-METAR|223|ICAO-KCCB|||||||||||||||||||||||||||||||||||||||||||||||||||||||||||||||||||||||||1024.4||1|FM15-METAR|223|ICAO-KCCB|||||||||||||||||||||||||||||||||||||||||||MET062METAR KCCB 082235Z AUTO 28010KT 10SM CLR 24/M12 A3025 RMK AO2=||F||223|ICAO-KCCB
USI0000KCCB|CABLE|2017|12|08|22|55|34.1115|-117.6876|438.6|24.0||1|FM15-METAR|223|ICAO-KCCB|-12.0||1|FM15-METAR|223|ICAO-KCCB|||||||||||||290|N-Normal|1|FM15-METAR|223|ICAO-KCCB|4.1|N-Normal|1|FM15-METAR|223|ICAO-KCCB|||||||||||||8|Derived||FM15-METAR|223|ICAO-KCCB|||||||||||||||||||||||||||||||||||||||||||||||||||||||||||||||||||||||||1024.4||1|FM15-METAR|223|ICAO-KCCB|||||||||||||||||||||||||||||||||||||||||||MET062METAR KCCB 082255Z AUTO 29008KT 10SM CLR 24/M12 A3025 RMK AO2=||F||223|ICAO-KCCB
USI0000KCCB|CABLE|2017|12|08|23|55|34.1115|-117.6876|438.6|23.0||1|FM15-METAR|223|ICAO-KCCB|-12.0||1|FM15-METAR|223|ICAO-KCCB|||||||||||||250|N-Normal|1|FM15-METAR|223|ICAO-KCCB|2.1|N-Normal|1|FM15-METAR|223|ICAO-KCCB|||||||||||||9|Derived||FM15-METAR|223|ICAO-KCCB|||||||||||||||||||||||||||||||||||||||||||||||||||||||||||||||||||||||||1024.4||1|FM15-METAR|223|ICAO-KCCB|||||||||||||||||||||||||||||||||||||||||||MET062METAR KCCB 082355Z AUTO 25004KT 10SM CLR 23/M12 A3025 RMK AO2=||F||223|ICAO-KCCB
USI0000KCCB|CABLE|2017|12|09|00|15|34.1115|-117.6876|438.6|22.0||1|FM15-METAR|223|ICAO-KCCB|-12.0||1|FM15-METAR|223|ICAO-KCCB|||||||||||||290|N-Normal|1|FM15-METAR|223|ICAO-KCCB|3.1|N-Normal|1|FM15-METAR|223|ICAO-KCCB|||||||||||||9|Derived||FM15-METAR|223|ICAO-KCCB|||||||||||||||||||||||||||||||||||||||||||||||||||||||||||||||||||||||||1024.0||1|FM15-METAR|223|ICAO-KCCB|||||||||||||||||||||||||||||||||||||||||||MET062METAR KCCB 090015Z AUTO 29006KT 10SM CLR 22/M12 A3024 RMK AO2=||F||223|ICAO-KCCB
USI0000KCCB|CABLE|2017|12|09|00|35|34.1115|-117.6876|438.6|21.0||1|FM15-METAR|223|ICAO-KCCB|-11.0||1|FM15-METAR|223|ICAO-KCCB|||||||||||||300|N-Normal|1|FM15-METAR|223|ICAO-KCCB|2.6|N-Normal|1|FM15-METAR|223|ICAO-KCCB|||||||||||||11|Derived||FM15-METAR|223|ICAO-KCCB|||||||||||||||||||||||||||||||||||||||||||||||||||||||||||||||||||||||||1024.0||1|FM15-METAR|223|ICAO-KCCB|||||||||||||||||||||||||||||||||||||||||||MET062METAR KCCB 090035Z AUTO 30005KT 10SM CLR 21/M11 A3024 RMK AO2=||F||223|ICAO-KCCB
USI0000KCCB|CABLE|2017|12|09|00|55|34.1115|-117.6876|438.6|21.0||1|FM15-METAR|223|ICAO-KCCB|-11.0||1|FM15-METAR|223|ICAO-KCCB|||||||||||||310|N-Normal|1|FM15-METAR|223|ICAO-KCCB|2.6|N-Normal|1|FM15-METAR|223|ICAO-KCCB|||||||||||||11|Derived||FM15-METAR|223|ICAO-KCCB|||||||||||||||||||||||||||||||||||||||||||||||||||||||||||||||||||||||||1024.4||1|FM15-METAR|223|ICAO-KCCB|||||||||||||||||||||||||||||||||||||||||||MET062METAR KCCB 090055Z AUTO 31005KT 10SM CLR 21/M11 A3025 RMK AO2=||F||223|ICAO-KCCB
USI0000KCCB|CABLE|2017|12|09|01|15|34.1115|-117.6876|438.6|19.0||1|FM15-METAR|223|ICAO-KCCB|-11.0||1|FM15-METAR|223|ICAO-KCCB|||||||||||||320|N-Normal|1|FM15-METAR|223|ICAO-KCCB|2.6|N-Normal|1|FM15-METAR|223|ICAO-KCCB|||||||||||||12|Derived||FM15-METAR|223|ICAO-KCCB|||||||||||||||||||||||||||||||||||||||||||||||||||||||||||||||||||||||||1024.4||1|FM15-METAR|223|ICAO-KCCB|||||||||||||||||||||||||||||||||||||||||||MET062METAR KCCB 090115Z AUTO 32005KT 10SM CLR 19/M11 A3025 RMK AO2=||F||223|ICAO-KCCB
USI0000KCCB|CABLE|2017|12|09|01|35|34.1115|-117.6876|438.6|19.0||1|FM15-METAR|223|ICAO-KCCB|-10.0||1|FM15-METAR|223|ICAO-KCCB|||||||||||||240|N-Normal|1|FM15-METAR|223|ICAO-KCCB|2.1|N-Normal|1|FM15-METAR|223|ICAO-KCCB|||||||||||||13|Derived||FM15-METAR|223|ICAO-KCCB|||||||||||||||||||||||||||||||||||||||||||||||||||||||||||||||||||||||||1024.7||1|FM15-METAR|223|ICAO-KCCB|||||||||||||||||||||||||||||||||||||||||||MET062METAR KCCB 090135Z AUTO 24004KT 10SM CLR 19/M10 A3026 RMK AO2=||F||223|ICAO-KCCB
USI0000KCCB|CABLE|2017|12|09|01|55|34.1115|-117.6876|438.6|18.0||1|FM15-METAR|223|ICAO-KCCB|-9.0||1|FM15-METAR|223|ICAO-KCCB|||||||||||||350|N-Normal|1|FM15-METAR|223|ICAO-KCCB|2.6|N-Normal|1|FM15-METAR|223|ICAO-KCCB|||||||||||||15|Derived||FM15-METAR|223|ICAO-KCCB|||||||||||||||||||||||||||||||||||||||||||||||||||||||||||||||||||||||||1024.7||1|FM15-METAR|223|ICAO-KCCB|||||||||||||||||||||||||||||||||||||||||||MET062METAR KCCB 090155Z AUTO 35005KT 10SM CLR 18/M09 A3026 RMK AO2=||F||223|ICAO-KCCB
USI0000KCCB|CABLE|2017|12|09|02|15|34.1115|-117.6876|438.6|17.0||1|FM15-METAR|223|ICAO-KCCB|-10.0||1|FM15-METAR|223|ICAO-KCCB|||||||||||||999|C-Calm|9|FM15-METAR|223|ICAO-KCCB|0.0|C-Calm|1|FM15-METAR|223|ICAO-KCCB|||||||||||||15|Derived||FM15-METAR|223|ICAO-KCCB|||||||||||||||||||||||||||||||||||||||||||||||||||||||||||||||||||||||||1024.7||1|FM15-METAR|223|ICAO-KCCB|||||||||||||||||||||||||||||||||||||||||||MET062METAR KCCB 090215Z AUTO 00000KT 10SM CLR 17/M10 A3026 RMK AO2=||F||223|ICAO-KCCB
USI0000KCCB|CABLE|2017|12|09|02|35|34.1115|-117.6876|438.6|16.0||1|FM15-METAR|223|ICAO-KCCB|-10.0||1|FM15-METAR|223|ICAO-KCCB|||||||||||||999|C-Calm|9|FM15-METAR|223|ICAO-KCCB|0.0|C-Calm|1|FM15-METAR|223|ICAO-KCCB|||||||||||||16|Derived||FM15-METAR|223|ICAO-KCCB|||||||||||||||||||||||||||||||||||||||||||||||||||||||||||||||||||||||||1025.1||1|FM15-METAR|223|ICAO-KCCB|||||||||||||||||||||||||||||||||||||||||||MET062METAR KCCB 090235Z AUTO 00000KT 10SM CLR 16/M10 A3027 RMK AO2=||F||223|ICAO-KCCB
USI0000KCCB|CABLE|2017|12|09|02|55|34.1115|-117.6876|438.6|17.0||1|FM15-METAR|223|ICAO-KCCB|-11.0||1|FM15-METAR|223|ICAO-KCCB|||||||||||||999|C-Calm|9|FM15-METAR|223|ICAO-KCCB|0.0|C-Calm|1|FM15-METAR|223|ICAO-KCCB|||||||||||||14|Derived||FM15-METAR|223|ICAO-KCCB|||||||||||||||||||||||||||||||||||||||||||||||||||||||||||||||||||||||||1025.1||1|FM15-METAR|223|ICAO-KCCB|||||||||||||||||||||||||||||||||||||||||||MET062METAR KCCB 090255Z AUTO 00000KT 10SM CLR 17/M11 A3027 RMK AO2=||F||223|ICAO-KCCB
USI0000KCCB|CABLE|2017|12|09|03|15|34.1115|-117.6876|438.6|16.0||1|FM15-METAR|223|ICAO-KCCB|-11.0||1|FM15-METAR|223|ICAO-KCCB|||||||||||||020|N-Normal|1|FM15-METAR|223|ICAO-KCCB|1.5|N-Normal|1|FM15-METAR|223|ICAO-KCCB|||||||||||||15|Derived||FM15-METAR|223|ICAO-KCCB|||||||||||||||||||||||||||||||||||||||||||||||||||||||||||||||||||||||||1024.7||1|FM15-METAR|223|ICAO-KCCB|||||||||||||||||||||||||||||||||||||||||||MET062METAR KCCB 090315Z AUTO 02003KT 10SM CLR 16/M11 A3026 RMK AO2=||F||223|ICAO-KCCB
USI0000KCCB|CABLE|2017|12|09|03|35|34.1115|-117.6876|438.6|16.0||1|FM15-METAR|223|ICAO-KCCB|-11.0||1|FM15-METAR|223|ICAO-KCCB|||||||||||||360|N-Normal|1|FM15-METAR|223|ICAO-KCCB|1.5|N-Normal|1|FM15-METAR|223|ICAO-KCCB|||||||||||||15|Derived||FM15-METAR|223|ICAO-KCCB|||||||||||||||||||||||||||||||||||||||||||||||||||||||||||||||||||||||||1024.7||1|FM15-METAR|223|ICAO-KCCB|||||||||||||||||||||||||||||||||||||||||||MET062METAR KCCB 090335Z AUTO 36003KT 10SM CLR 16/M11 A3026 RMK AO2=||F||223|ICAO-KCCB
USI0000KCCB|CABLE|2017|12|09|03|55|34.1115|-117.6876|438.6|16.0||1|FM15-METAR|223|ICAO-KCCB|-11.0||1|FM15-METAR|223|ICAO-KCCB|||||||||||||010|N-Normal|1|FM15-METAR|223|ICAO-KCCB|2.6|N-Normal|1|FM15-METAR|223|ICAO-KCCB|||||||||||||15|Derived||FM15-METAR|223|ICAO-KCCB|||||||||||||||||||||||||||||||||||||||||||||||||||||||||||||||||||||||||1024.7||1|FM15-METAR|223|ICAO-KCCB|||||||||||||||||||||||||||||||||||||||||||MET062METAR KCCB 090355Z AUTO 01005KT 10SM CLR 16/M11 A3026 RMK AO2=||F||223|ICAO-KCCB
USI0000KCCB|CABLE|2017|12|09|04|15|34.1115|-117.6876|438.6|16.0||1|FM15-METAR|223|ICAO-KCCB|-12.0||1|FM15-METAR|223|ICAO-KCCB|||||||||||||999|C-Calm|9|FM15-METAR|223|ICAO-KCCB|0.0|C-Calm|1|FM15-METAR|223|ICAO-KCCB|||||||||||||13|Derived||FM15-METAR|223|ICAO-KCCB|||||||||||||||||||||||||||||||||||||||||||||||||||||||||||||||||||||||||1025.1||1|FM15-METAR|223|ICAO-KCCB|||||||||||||||||||||||||||||||||||||||||||MET062METAR KCCB 090415Z AUTO 00000KT 10SM CLR 16/M12 A3027 RMK AO2=||F||223|ICAO-KCCB
USI0000KCCB|CABLE|2017|12|09|04|35|34.1115|-117.6876|438.6|15.0||1|FM15-METAR|223|ICAO-KCCB|-12.0||1|FM15-METAR|223|ICAO-KCCB|||||||||||||999|V-Variable|9|FM15-METAR|223|ICAO-KCCB|1.5|V-Variable|1|FM15-METAR|223|ICAO-KCCB|||||||||||||14|Derived||FM15-METAR|223|ICAO-KCCB|||||||||||||||||||||||||||||||||||||||||||||||||||||||||||||||||||||||||1025.1||1|FM15-METAR|223|ICAO-KCCB|||||||||||||||||||||||||||||||||||||||||||MET062METAR KCCB 090435Z AUTO VRB03KT 10SM CLR 15/M12 A3027 RMK AO2=||F||223|ICAO-KCCB
USI0000KCCB|CABLE|2017|12|09|04|55|34.1115|-117.6876|438.6|15.0||1|FM15-METAR|223|ICAO-KCCB|-11.0||1|FM15-METAR|223|ICAO-KCCB|||||||||||||360|N-Normal|1|FM15-METAR|223|ICAO-KCCB|2.1|N-Normal|1|FM15-METAR|223|ICAO-KCCB|||||||||||||16|Derived||FM15-METAR|223|ICAO-KCCB|||||||||||||||||||||||||||||||||||||||||||||||||||||||||||||||||||||||||1025.1||1|FM15-METAR|223|ICAO-KCCB|||||||||||||||||||||||||||||||||||||||||||MET062METAR KCCB 090455Z AUTO 36004KT 10SM CLR 15/M11 A3027 RMK AO2=||F||223|ICAO-KCCB
USI0000KCCB|CABLE|2017|12|09|05|15|34.1115|-117.6876|438.6|16.0||1|FM15-METAR|223|ICAO-KCCB|-11.0||1|FM15-METAR|223|ICAO-KCCB|||||||||||||350|N-Normal|1|FM15-METAR|223|ICAO-KCCB|2.6|N-Normal|1|FM15-METAR|223|ICAO-KCCB|||||||||||||15|Derived||FM15-METAR|223|ICAO-KCCB|||||||||||||||||||||||||||||||||||||||||||||||||||||||||||||||||||||||||1025.1||1|FM15-METAR|223|ICAO-KCCB|||||||||||||||||||||||||||||||||||||||||||MET062METAR KCCB 090515Z AUTO 35005KT 10SM CLR 16/M11 A3027 RMK AO2=||F||223|ICAO-KCCB
USI0000KCCB|CABLE|2017|12|09|05|35|34.1115|-117.6876|438.6|16.0||1|FM15-METAR|223|ICAO-KCCB|-12.0||1|FM15-METAR|223|ICAO-KCCB|||||||||||||350|N-Normal|1|FM15-METAR|223|ICAO-KCCB|3.1|N-Normal|1|FM15-METAR|223|ICAO-KCCB|||||||||||||13|Derived||FM15-METAR|223|ICAO-KCCB|||||||||||||||||||||||||||||||||||||||||||||||||||||||||||||||||||||||||1025.1||1|FM15-METAR|223|ICAO-KCCB|||||||||||||||||||||||||||||||||||||||||||MET062METAR KCCB 090535Z AUTO 35006KT 10SM CLR 16/M12 A3027 RMK AO2=||F||223|ICAO-KCCB
USI0000KCCB|CABLE|2017|12|09|05|55|34.1115|-117.6876|438.6|15.0||1|FM15-METAR|223|ICAO-KCCB|-11.0||1|FM15-METAR|223|ICAO-KCCB|||||||||||||010|N-Normal|1|FM15-METAR|223|ICAO-KCCB|2.6|N-Normal|1|FM15-METAR|223|ICAO-KCCB|||||||||||||16|Derived||FM15-METAR|223|ICAO-KCCB|||||||||||||||||||||||||||||||||||||||||||||||||||||||||||||||||||||||||1025.1||1|FM15-METAR|223|ICAO-KCCB|||||||||||||||||||||||||||||||||||||||||||MET062METAR KCCB 090555Z AUTO 01005KT 10SM CLR 15/M11 A3027 RMK AO2=||F||223|ICAO-KCCB
USI0000KCCB|CABLE|2017|12|09|06|15|34.1115|-117.6876|438.6|16.0||1|FM15-METAR|223|ICAO-KCCB|-12.0||1|FM15-METAR|223|ICAO-KCCB|||||||||||||350|N-Normal|1|FM15-METAR|223|ICAO-KCCB|3.1|N-Normal|1|FM15-METAR|223|ICAO-KCCB|||||||||||||13|Derived||FM15-METAR|223|ICAO-KCCB|||||||||||||||||||||||||||||||||||||||||||||||||||||||||||||||||||||||||1025.1||1|FM15-METAR|223|ICAO-KCCB|||||||||||||||||||||||||||||||||||||||||||MET062METAR KCCB 090615Z AUTO 35006KT 10SM CLR 16/M12 A3027 RMK AO2=||F||223|ICAO-KCCB
USI0000KCCB|CABLE|2017|12|09|06|35|34.1115|-117.6876|438.6|17.0||1|FM15-METAR|223|ICAO-KCCB|-12.0||1|FM15-METAR|223|ICAO-KCCB|||||||||||||340|N-Normal|1|FM15-METAR|223|ICAO-KCCB|2.6|N-Normal|1|FM15-METAR|223|ICAO-KCCB|||||||||||||13|Derived||FM15-METAR|223|ICAO-KCCB|||||||||||||||||||||||||||||||||||||||||||||||||||||||||||||||||||||||||1024.7||1|FM15-METAR|223|ICAO-KCCB|||||||||||||||||||||||||||||||||||||||||||MET062METAR KCCB 090635Z AUTO 34005KT 10SM CLR 17/M12 A3026 RMK AO2=||F||223|ICAO-KCCB
USI0000KCCB|CABLE|2017|12|09|06|55|34.1115|-117.6876|438.6|16.0||1|FM15-METAR|223|ICAO-KCCB|-12.0||1|FM15-METAR|223|ICAO-KCCB|||||||||||||350|N-Normal|1|FM15-METAR|223|ICAO-KCCB|3.6|N-Normal|1|FM15-METAR|223|ICAO-KCCB|||||||||||||13|Derived||FM15-METAR|223|ICAO-KCCB|||||||||||||||||||||||||||||||||||||||||||||||||||||||||||||||||||||||||1024.7||1|FM15-METAR|223|ICAO-KCCB|||||||||||||||||||||||||||||||||||||||||||MET062METAR KCCB 090655Z AUTO 35007KT 10SM CLR 16/M12 A3026 RMK AO2=||F||223|ICAO-KCCB
USI0000KCCB|CABLE|2017|12|09|07|15|34.1115|-117.6876|438.6|17.0||1|FM15-METAR|223|ICAO-KCCB|-12.0||1|FM15-METAR|223|ICAO-KCCB|||||||||||||350|N-Normal|1|FM15-METAR|223|ICAO-KCCB|3.1|N-Normal|1|FM15-METAR|223|ICAO-KCCB|||||||||||||13|Derived||FM15-METAR|223|ICAO-KCCB|||||||||||||||||||||||||||||||||||||||||||||||||||||||||||||||||||||||||1024.7||1|FM15-METAR|223|ICAO-KCCB|||||||||||||||||||||||||||||||||||||||||||MET062METAR KCCB 090715Z AUTO 35006KT 10SM CLR 17/M12 A3026 RMK AO2=||F||223|ICAO-KCCB
USI0000KCCB|CABLE|2017|12|09|07|35|34.1115|-117.6876|438.6|16.0||1|FM15-METAR|223|ICAO-KCCB|-12.0||1|FM15-METAR|223|ICAO-KCCB|||||||||||||350|N-Normal|1|FM15-METAR|223|ICAO-KCCB|2.1|N-Normal|1|FM15-METAR|223|ICAO-KCCB|||||||||||||13|Derived||FM15-METAR|223|ICAO-KCCB|||||||||||||||||||||||||||||||||||||||||||||||||||||||||||||||||||||||||1024.7||1|FM15-METAR|223|ICAO-KCCB|||||||||||||||||||||||||||||||||||||||||||MET062METAR KCCB 090735Z AUTO 35004KT 10SM CLR 16/M12 A3026 RMK AO2=||F||223|ICAO-KCCB
USI0000KCCB|CABLE|2017|12|09|07|55|34.1115|-117.6876|438.6|15.0||1|FM15-METAR|223|ICAO-KCCB|-12.0||1|FM15-METAR|223|ICAO-KCCB|||||||||||||340|N-Normal|1|FM15-METAR|223|ICAO-KCCB|3.6|N-Normal|1|FM15-METAR|223|ICAO-KCCB|||||||||||||14|Derived||FM15-METAR|223|ICAO-KCCB|||||||||||||||||||||||||||||||||||||||||||||||||||||||||||||||||||||||||1024.4||1|FM15-METAR|223|ICAO-KCCB|||||||||||||||||||||||||||||||||||||||||||MET062METAR KCCB 090755Z AUTO 34007KT 10SM CLR 15/M12 A3025 RMK AO2=||F||223|ICAO-KCCB
USI0000KCCB|CABLE|2017|12|09|08|15|34.1115|-117.6876|438.6|16.0||1|FM15-METAR|223|ICAO-KCCB|-13.0||1|FM15-METAR|223|ICAO-KCCB|||||||||||||330|N-Normal|1|FM15-METAR|223|ICAO-KCCB|3.6|N-Normal|1|FM15-METAR|223|ICAO-KCCB|||||||||||||12|Derived||FM15-METAR|223|ICAO-KCCB|||||||||||||||||||||||||||||||||||||||||||||||||||||||||||||||||||||||||1024.4||1|FM15-METAR|223|ICAO-KCCB|||||||||||||||||||||||||||||||||||||||||||MET062METAR KCCB 090815Z AUTO 33007KT 10SM CLR 16/M13 A3025 RMK AO2=||F||223|ICAO-KCCB
USI0000KCCB|CABLE|2017|12|09|08|35|34.1115|-117.6876|438.6|16.0||1|FM15-METAR|223|ICAO-KCCB|-13.0||1|FM15-METAR|223|ICAO-KCCB|||||||||||||340|N-Normal|1|FM15-METAR|223|ICAO-KCCB|2.6|N-Normal|1|FM15-METAR|223|ICAO-KCCB|||||||||||||12|Derived||FM15-METAR|223|ICAO-KCCB|||||||||||||||||||||||||||||||||||||||||||||||||||||||||||||||||||||||||1024.0||1|FM15-METAR|223|ICAO-KCCB|||||||||||||||||||||||||||||||||||||||||||MET062METAR KCCB 090835Z AUTO 34005KT 10SM CLR 16/M13 A3024 RMK AO2=||F||223|ICAO-KCCB
USI0000KCCB|CABLE|2017|12|09|08|55|34.1115|-117.6876|438.6|16.0||1|FM15-METAR|223|ICAO-KCCB|-13.0||1|FM15-METAR|223|ICAO-KCCB|||||||||||||330|N-Normal|1|FM15-METAR|223|ICAO-KCCB|2.6|N-Normal|1|FM15-METAR|223|ICAO-KCCB|||||||||||||12|Derived||FM15-METAR|223|ICAO-KCCB|||||||||||||||||||||||||||||||||||||||||||||||||||||||||||||||||||||||||1024.0||1|FM15-METAR|223|ICAO-KCCB|||||||||||||||||||||||||||||||||||||||||||MET062METAR KCCB 090855Z AUTO 33005KT 10SM CLR 16/M13 A3024 RMK AO2=||F||223|ICAO-KCCB
USI0000KCCB|CABLE|2017|12|09|09|15|34.1115|-117.6876|438.6|15.0||1|FM15-METAR|223|ICAO-KCCB|-12.0||1|FM15-METAR|223|ICAO-KCCB|||||||||||||150|N-Normal|1|FM15-METAR|223|ICAO-KCCB|1.5|N-Normal|1|FM15-METAR|223|ICAO-KCCB|||||||||||||14|Derived||FM15-METAR|223|ICAO-KCCB|||||||||||||||||||||||||||||||||||||||||||||||||||||||||||||||||||||||||1024.4||1|FM15-METAR|223|ICAO-KCCB|||||||||||||||||||||||||||||||||||||||||||MET062METAR KCCB 090915Z AUTO 15003KT 10SM CLR 15/M12 A3025 RMK AO2=||F||223|ICAO-KCCB
USI0000KCCB|CABLE|2017|12|09|09|35|34.1115|-117.6876|438.6|14.0||1|FM15-METAR|223|ICAO-KCCB|-11.0||1|FM15-METAR|223|ICAO-KCCB|||||||||||||999|C-Calm|9|FM15-METAR|223|ICAO-KCCB|0.0|C-Calm|1|FM15-METAR|223|ICAO-KCCB|||||||||||||17|Derived||FM15-METAR|223|ICAO-KCCB|||||||||||||||||||||||||||||||||||||||||||||||||||||||||||||||||||||||||1024.4||1|FM15-METAR|223|ICAO-KCCB|||||||||||||||||||||||||||||||||||||||||||MET062METAR KCCB 090935Z AUTO 00000KT 10SM CLR 14/M11 A3025 RMK AO2=||F||223|ICAO-KCCB
USI0000KCCB|CABLE|2017|12|09|09|55|34.1115|-117.6876|438.6|15.0||1|FM15-METAR|223|ICAO-KCCB|-11.0||1|FM15-METAR|223|ICAO-KCCB|||||||||||||999|C-Calm|9|FM15-METAR|223|ICAO-KCCB|0.0|C-Calm|1|FM15-METAR|223|ICAO-KCCB|||||||||||||16|Derived||FM15-METAR|223|ICAO-KCCB|||||||||||||||||||||||||||||||||||||||||||||||||||||||||||||||||||||||||1024.4||1|FM15-METAR|223|ICAO-KCCB|||||||||||||||||||||||||||||||||||||||||||MET062METAR KCCB 090955Z AUTO 00000KT 10SM CLR 15/M11 A3025 RMK AO2=||F||223|ICAO-KCCB
USI0000KCCB|CABLE|2017|12|09|10|15|34.1115|-117.6876|438.6|15.0||1|FM15-METAR|223|ICAO-KCCB|-11.0||1|FM15-METAR|223|ICAO-KCCB|||||||||||||999|V-Variable|9|FM15-METAR|223|ICAO-KCCB|1.5|V-Variable|1|FM15-METAR|223|ICAO-KCCB|||||||||||||16|Derived||FM15-METAR|223|ICAO-KCCB|||||||||||||||||||||||||||||||||||||||||||||||||||||||||||||||||||||||||1024.4||1|FM15-METAR|223|ICAO-KCCB|||||||||||||||||||||||||||||||||||||||||||MET062METAR KCCB 091015Z AUTO VRB03KT 10SM CLR 15/M11 A3025 RMK AO2=||F||223|ICAO-KCCB
USI0000KCCB|CABLE|2017|12|09|10|35|34.1115|-117.6876|438.6|15.0||1|FM15-METAR|223|ICAO-KCCB|-13.0||1|FM15-METAR|223|ICAO-KCCB|||||||||||||350|N-Normal|1|FM15-METAR|223|ICAO-KCCB|2.6|N-Normal|1|FM15-METAR|223|ICAO-KCCB|||||||||||||13|Derived||FM15-METAR|223|ICAO-KCCB|||||||||||||||||||||||||||||||||||||||||||||||||||||||||||||||||||||||||1024.4||1|FM15-METAR|223|ICAO-KCCB|||||||||||||||||||||||||||||||||||||||||||MET062METAR KCCB 091035Z AUTO 35005KT 10SM CLR 15/M13 A3025 RMK AO2=||F||223|ICAO-KCCB
USI0000KCCB|CABLE|2017|12|09|10|55|34.1115|-117.6876|438.6|15.0||1|FM15-METAR|223|ICAO-KCCB|-12.0||1|FM15-METAR|223|ICAO-KCCB|||||||||||||350|N-Normal|1|FM15-METAR|223|ICAO-KCCB|2.1|N-Normal|1|FM15-METAR|223|ICAO-KCCB|||||||||||||14|Derived||FM15-METAR|223|ICAO-KCCB|||||||||||||||||||||||||||||||||||||||||||||||||||||||||||||||||||||||||1024.4||1|FM15-METAR|223|ICAO-KCCB|||||||||||||||||||||||||||||||||||||||||||MET062METAR KCCB 091055Z AUTO 35004KT 10SM CLR 15/M12 A3025 RMK AO2=||F||223|ICAO-KCCB
USI0000KCCB|CABLE|2017|12|09|11|15|34.1115|-117.6876|438.6|14.0||1|FM15-METAR|223|ICAO-KCCB|-11.0||1|FM15-METAR|223|ICAO-KCCB|||||||||||||020|N-Normal|1|FM15-METAR|223|ICAO-KCCB|2.6|N-Normal|1|FM15-METAR|223|ICAO-KCCB|||||||||||||17|Derived||FM15-METAR|223|ICAO-KCCB|||||||||||||||||||||||||||||||||||||||||||||||||||||||||||||||||||||||||1024.0||1|FM15-METAR|223|ICAO-KCCB|||||||||||||||||||||||||||||||||||||||||||MET062METAR KCCB 091115Z AUTO 02005KT 10SM CLR 14/M11 A3024 RMK AO2=||F||223|ICAO-KCCB
USI0000KCCB|CABLE|2017|12|09|11|35|34.1115|-117.6876|438.6|16.0||1|FM15-METAR|223|ICAO-KCCB|-13.0||1|FM15-METAR|223|ICAO-KCCB|||||||||||||010|N-Normal|1|FM15-METAR|223|ICAO-KCCB|2.6|N-Normal|1|FM15-METAR|223|ICAO-KCCB|||||||||||||12|Derived||FM15-METAR|223|ICAO-KCCB|||||||||||||||||||||||||||||||||||||||||||||||||||||||||||||||||||||||||1023.7||1|FM15-METAR|223|ICAO-KCCB|||||||||||||||||||||||||||||||||||||||||||MET062METAR KCCB 091135Z AUTO 01005KT 10SM CLR 16/M13 A3023 RMK AO2=||F||223|ICAO-KCCB
USI0000KCCB|CABLE|2017|12|09|11|55|34.1115|-117.6876|438.6|16.0||1|FM15-METAR|223|ICAO-KCCB|-14.0||1|FM15-METAR|223|ICAO-KCCB|||||||||||||010|N-Normal|1|FM15-METAR|223|ICAO-KCCB|2.6|N-Normal|1|FM15-METAR|223|ICAO-KCCB|||||||||||||11|Derived||FM15-METAR|223|ICAO-KCCB|||||||||||||||||||||||||||||||||||||||||||||||||||||||||||||||||||||||||1023.7||1|FM15-METAR|223|ICAO-KCCB|||||||||||||||||||||||||||||||||||||||||||MET062METAR KCCB 091155Z AUTO 01005KT 10SM CLR 16/M14 A3023 RMK AO2=||F||223|ICAO-KCCB
USI0000KCCB|CABLE|2017|12|09|12|15|34.1115|-117.6876|438.6|15.0||1|FM15-METAR|223|ICAO-KCCB|-13.0||1|FM15-METAR|223|ICAO-KCCB|||||||||||||999|C-Calm|9|FM15-METAR|223|ICAO-KCCB|0.0|C-Calm|1|FM15-METAR|223|ICAO-KCCB|||||||||||||13|Derived||FM15-METAR|223|ICAO-KCCB|||||||||||||||||||||||||||||||||||||||||||||||||||||||||||||||||||||||||1023.7||1|FM15-METAR|223|ICAO-KCCB|||||||||||||||||||||||||||||||||||||||||||MET062METAR KCCB 091215Z AUTO 00000KT 10SM CLR 15/M13 A3023 RMK AO2=||F||223|ICAO-KCCB
USI0000KCCB|CABLE|2017|12|09|12|35|34.1115|-117.6876|438.6|13.0||1|FM15-METAR|223|ICAO-KCCB|-12.0||1|FM15-METAR|223|ICAO-KCCB|||||||||||||300|N-Normal|1|FM15-METAR|223|ICAO-KCCB|1.5|N-Normal|1|FM15-METAR|223|ICAO-KCCB|||||||||||||16|Derived||FM15-METAR|223|ICAO-KCCB|||||||||||||||||||||||||||||||||||||||||||||||||||||||||||||||||||||||||1023.7||1|FM15-METAR|223|ICAO-KCCB|||||||||||||||||||||||||||||||||||||||||||MET062METAR KCCB 091235Z AUTO 30003KT 10SM CLR 13/M12 A3023 RMK AO2=||F||223|ICAO-KCCB
USI0000KCCB|CABLE|2017|12|09|12|55|34.1115|-117.6876|438.6|14.0||1|FM15-METAR|223|ICAO-KCCB|-13.0||1|FM15-METAR|223|ICAO-KCCB|||||||||||||999|C-Calm|9|FM15-METAR|223|ICAO-KCCB|0.0|C-Calm|1|FM15-METAR|223|ICAO-KCCB|||||||||||||14|Derived||FM15-METAR|223|ICAO-KCCB|||||||||||||||||||||||||||||||||||||||||||||||||||||||||||||||||||||||||1023.7||1|FM15-METAR|223|ICAO-KCCB|||||||||||||||||||||||||||||||||||||||||||MET062METAR KCCB 091255Z AUTO 00000KT 10SM CLR 14/M13 A3023 RMK AO2=||F||223|ICAO-KCCB
USI0000KCCB|CABLE|2017|12|09|13|15|34.1115|-117.6876|438.6|13.0||1|FM15-METAR|223|ICAO-KCCB|-12.0||1|FM15-METAR|223|ICAO-KCCB|||||||||||||999|C-Calm|9|FM15-METAR|223|ICAO-KCCB|0.0|C-Calm|1|FM15-METAR|223|ICAO-KCCB|||||||||||||16|Derived||FM15-METAR|223|ICAO-KCCB|||||||||||||||||||||||||||||||||||||||||||||||||||||||||||||||||||||||||1024.0||1|FM15-METAR|223|ICAO-KCCB|||||||||||||||||||||||||||||||||||||||||||MET062METAR KCCB 091315Z AUTO 00000KT 10SM CLR 13/M12 A3024 RMK AO2=||F||223|ICAO-KCCB
USI0000KCCB|CABLE|2017|12|09|13|35|34.1115|-117.6876|438.6|12.0||1|FM15-METAR|223|ICAO-KCCB|-12.0||1|FM15-METAR|223|ICAO-KCCB|||||||||||||350|N-Normal|1|FM15-METAR|223|ICAO-KCCB|3.1|N-Normal|1|FM15-METAR|223|ICAO-KCCB|||||||||||||18|Derived||FM15-METAR|223|ICAO-KCCB|||||||||||||||||||||||||||||||||||||||||||||||||||||||||||||||||||||||||1024.0||1|FM15-METAR|223|ICAO-KCCB|||||||||||||||||||||||||||||||||||||||||||MET062METAR KCCB 091335Z AUTO 35006KT 10SM CLR 12/M12 A3024 RMK AO2=||F||223|ICAO-KCCB
USI0000KCCB|CABLE|2017|12|09|13|55|34.1115|-117.6876|438.6|13.0||1|FM15-METAR|223|ICAO-KCCB|-12.0||1|FM15-METAR|223|ICAO-KCCB|||||||||||||010|N-Normal|1|FM15-METAR|223|ICAO-KCCB|2.1|N-Normal|1|FM15-METAR|223|ICAO-KCCB|||||||||||||16|Derived||FM15-METAR|223|ICAO-KCCB|||||||||||||||||||||||||||||||||||||||||||||||||||||||||||||||||||||||||1024.0||1|FM15-METAR|223|ICAO-KCCB|||||||||||||||||||||||||||||||||||||||||||MET062METAR KCCB 091355Z AUTO 01004KT 10SM CLR 13/M12 A3024 RMK AO2=||F||223|ICAO-KCCB
USI0000KCCB|CABLE|2017|12|09|14|15|34.1115|-117.6876|438.6|15.0||1|FM15-METAR|223|ICAO-KCCB|-13.0||1|FM15-METAR|223|ICAO-KCCB|||||||||||||360|N-Normal|1|FM15-METAR|223|ICAO-KCCB|3.6|N-Normal|1|FM15-METAR|223|ICAO-KCCB|||||||||||||13|Derived||FM15-METAR|223|ICAO-KCCB|||||||||||||||||||||||||||||||||||||||||||||||||||||||||||||||||||||||||1023.7||1|FM15-METAR|223|ICAO-KCCB|||||||||||||||||||||||||||||||||||||||||||MET062METAR KCCB 091415Z AUTO 36007KT 10SM CLR 15/M13 A3023 RMK AO2=||F||223|ICAO-KCCB
USI0000KCCB|CABLE|2017|12|09|14|35|34.1115|-117.6876|438.6|15.0||1|FM15-METAR|223|ICAO-KCCB|-14.0||1|FM15-METAR|223|ICAO-KCCB|||||||||||||330|N-Normal|1|FM15-METAR|223|ICAO-KCCB|2.1|N-Normal|1|FM15-METAR|223|ICAO-KCCB|||||||||||||12|Derived||FM15-METAR|223|ICAO-KCCB|||||||||||||||||||||||||||||||||||||||||||||||||||||||||||||||||||||||||1023.7||1|FM15-METAR|223|ICAO-KCCB|||||||||||||||||||||||||||||||||||||||||||MET062METAR KCCB 091435Z AUTO 33004KT 10SM CLR 15/M14 A3023 RMK AO2=||F||223|ICAO-KCCB
USI0000KCCB|CABLE|2017|12|09|14|55|34.1115|-117.6876|438.6|15.0||1|FM15-METAR|223|ICAO-KCCB|-14.0||1|FM15-METAR|223|ICAO-KCCB|||||||||||||999|C-Calm|9|FM15-METAR|223|ICAO-KCCB|0.0|C-Calm|1|FM15-METAR|223|ICAO-KCCB|||||||||||||12|Derived||FM15-METAR|223|ICAO-KCCB|||||||||||||||||||||||||||||||||||||||||||||||||||||||||||||||||||||||||1024.0||1|FM15-METAR|223|ICAO-KCCB|||||||||||||||||||||||||||||||||||||||||||MET062METAR KCCB 091455Z AUTO 00000KT 10SM CLR 15/M14 A3024 RMK AO2=||F||223|ICAO-KCCB
USI0000KCCB|CABLE|2017|12|09|15|15|34.1115|-117.6876|438.6|14.0||1|FM15-METAR|223|ICAO-KCCB|-13.0||1|FM15-METAR|223|ICAO-KCCB|||||||||||||999|C-Calm|9|FM15-METAR|223|ICAO-KCCB|0.0|C-Calm|1|FM15-METAR|223|ICAO-KCCB|||||||||||||14|Derived||FM15-METAR|223|ICAO-KCCB|||||||||||||||||||||||||||||||||||||||||||||||||||||||||||||||||||||||||1024.0||1|FM15-METAR|223|ICAO-KCCB|||||||||||||||||||||||||||||||||||||||||||MET062METAR KCCB 091515Z AUTO 00000KT 10SM CLR 14/M13 A3024 RMK AO2=||F||223|ICAO-KCCB
USI0000KCCB|CABLE|2017|12|09|15|35|34.1115|-117.6876|438.6|16.0||1|FM15-METAR|223|ICAO-KCCB|-14.0||1|FM15-METAR|223|ICAO-KCCB|||||||||||||350|N-Normal|1|FM15-METAR|223|ICAO-KCCB|2.6|N-Normal|1|FM15-METAR|223|ICAO-KCCB|||||||||||||11|Derived||FM15-METAR|223|ICAO-KCCB|||||||||||||||||||||||||||||||||||||||||||||||||||||||||||||||||||||||||1024.0||1|FM15-METAR|223|ICAO-KCCB|||||||||||||||||||||||||||||||||||||||||||MET062METAR KCCB 091535Z AUTO 35005KT 10SM CLR 16/M14 A3024 RMK AO2=||F||223|ICAO-KCCB
USI0000KCCB|CABLE|2017|12|09|15|55|34.1115|-117.6876|438.6|17.0||1|FM15-METAR|223|ICAO-KCCB|-12.0||1|FM15-METAR|223|ICAO-KCCB|||||||||||||999|C-Calm|9|FM15-METAR|223|ICAO-KCCB|0.0|C-Calm|1|FM15-METAR|223|ICAO-KCCB|||||||||||||13|Derived||FM15-METAR|223|ICAO-KCCB|||||||||||||||||||||||||||||||||||||||||||||||||||||||||||||||||||||||||1024.0||1|FM15-METAR|223|ICAO-KCCB|||||||||||||||||||||||||||||||||||||||||||MET061METAR KCCB 091555Z AUTO 00000KT 9SM CLR 17/M12 A3024 RMK AO2=||F||223|ICAO-KCCB
USI0000KCCB|CABLE|2017|12|09|16|15|34.1115|-117.6876|438.6|15.0||1|FM15-METAR|223|ICAO-KCCB|-9.0||1|FM15-METAR|223|ICAO-KCCB|||||||||||||999|V-Variable|9|FM15-METAR|223|ICAO-KCCB|2.1|V-Variable|1|FM15-METAR|223|ICAO-KCCB|||||||||||||18|Derived||FM15-METAR|223|ICAO-KCCB|||||||||||||||||||||||||||||||||||||||||||||||||||||||||||||||||||||||||1024.4||1|FM15-METAR|223|ICAO-KCCB|||||||||||||||||||||||||||||||||||||||||||MET062METAR KCCB 091615Z AUTO VRB04KT 10SM CLR 15/M09 A3025 RMK AO2=||F||223|ICAO-KCCB
USI0000KCCB|CABLE|2017|12|09|16|35|34.1115|-117.6876|438.6|17.0||1|FM15-METAR|223|ICAO-KCCB|-11.0||1|FM15-METAR|223|ICAO-KCCB|||||||||||||999|C-Calm|9|FM15-METAR|223|ICAO-KCCB|0.0|C-Calm|1|FM15-METAR|223|ICAO-KCCB|||||||||||||14|Derived||FM15-METAR|223|ICAO-KCCB|||||||||||||||||||||||||||||||||||||||||||||||||||||||||||||||||||||||||1024.7||1|FM15-METAR|223|ICAO-KCCB|||||||||||||||||||||||||||||||||||||||||||MET062METAR KCCB 091635Z AUTO 00000KT 10SM CLR 17/M11 A3026 RMK AO2=||F||223|ICAO-KCCB
USI0000KCCB|CABLE|2017|12|09|16|55|34.1115|-117.6876|438.6|18.0||1|FM15-METAR|223|ICAO-KCCB|-10.0||1|FM15-METAR|223|ICAO-KCCB|||||||||||||999|C-Calm|9|FM15-METAR|223|ICAO-KCCB|0.0|C-Calm|1|FM15-METAR|223|ICAO-KCCB|||||||||||||14|Derived||FM15-METAR|223|ICAO-KCCB|||||||||||||||||||||||||||||||||||||||||||||||||||||||||||||||||||||||||1024.7||1|FM15-METAR|223|ICAO-KCCB|||||||||||||||||||||||||||||||||||||||||||MET062METAR KCCB 091655Z AUTO 00000KT 10SM CLR 18/M10 A3026 RMK AO2=||F||223|ICAO-KCCB
USI0000KCCB|CABLE|2017|12|09|17|15|34.1115|-117.6876|438.6|20.0||1|FM15-METAR|223|ICAO-KCCB|-10.0||1|FM15-METAR|223|ICAO-KCCB|||||||||||||040|N-Normal|1|FM15-METAR|223|ICAO-KCCB|2.1|N-Normal|1|FM15-METAR|223|ICAO-KCCB|||||||||||||12|Derived||FM15-METAR|223|ICAO-KCCB|||||||||||||||||||||||||||||||||||||||||||||||||||||||||||||||||||||||||1024.7||1|FM15-METAR|223|ICAO-KCCB|||||||||||||||||||||||||||||||||||||||||||MET062METAR KCCB 091715Z AUTO 04004KT 10SM CLR 20/M10 A3026 RMK AO2=||F||223|ICAO-KCCB
USI0000KCCB|CABLE|2017|12|09|17|35|34.1115|-117.6876|438.6|20.0||1|FM15-METAR|223|ICAO-KCCB|-7.0||1|FM15-METAR|223|ICAO-KCCB|||||||||||||999|C-Calm|9|FM15-METAR|223|ICAO-KCCB|0.0|C-Calm|1|FM15-METAR|223|ICAO-KCCB|||||||||||||16|Derived||FM15-METAR|223|ICAO-KCCB|||||||||||||||||||||||||||||||||||||||||||||||||||||||||||||||||||||||||1024.7||1|FM15-METAR|223|ICAO-KCCB|||||||||||||||||||||||||||||||||||||||||||MET062METAR KCCB 091735Z AUTO 00000KT 10SM CLR 20/M07 A3026 RMK AO2=||F||223|ICAO-KCCB
USI0000KCCB|CABLE|2017|12|09|17|55|34.1115|-117.6876|438.6|21.0||1|FM15-METAR|223|ICAO-KCCB|-11.0||1|FM15-METAR|223|ICAO-KCCB|||||||||||||999|C-Calm|9|FM15-METAR|223|ICAO-KCCB|0.0|C-Calm|1|FM15-METAR|223|ICAO-KCCB|||||||||||||11|Derived||FM15-METAR|223|ICAO-KCCB|||||||||||||||||||||||||||||||||||||||||||||||||||||||||||||||||||||||||1024.7||1|FM15-METAR|223|ICAO-KCCB|||||||||||||||||||||||||||||||||||||||||||MET062METAR KCCB 091755Z AUTO 00000KT 10SM CLR 21/M11 A3026 RMK AO2=||F||223|ICAO-KCCB
USI0000KCCB|CABLE|2017|12|09|18|15|34.1115|-117.6876|438.6|22.0||1|FM15-METAR|223|ICAO-KCCB|-14.0||1|FM15-METAR|223|ICAO-KCCB|||||||||||||999|C-Calm|9|FM15-METAR|223|ICAO-KCCB|0.0|C-Calm|1|FM15-METAR|223|ICAO-KCCB|||||||||||||8|Derived||FM15-METAR|223|ICAO-KCCB|||||||||||||||||||||||||||||||||||||||||||||||||||||||||||||||||||||||||1024.7||1|FM15-METAR|223|ICAO-KCCB|||||||||||||||||||||||||||||||||||||||||||MET062METAR KCCB 091815Z AUTO 00000KT 10SM CLR 22/M14 A3026 RMK AO2=||F||223|ICAO-KCCB
USI0000KCCB|CABLE|2017|12|09|18|35|34.1115|-117.6876|438.6|23.0||1|FM15-METAR|223|ICAO-KCCB|-12.0||1|FM15-METAR|223|ICAO-KCCB|||||||||||||260|N-Normal|1|FM15-METAR|223|ICAO-KCCB|1.5|N-Normal|1|FM15-METAR|223|ICAO-KCCB|||||||||||||9|Derived||FM15-METAR|223|ICAO-KCCB|||||||||||||||||||||||||||||||||||||||||||||||||||||||||||||||||||||||||1024.4||1|FM15-METAR|223|ICAO-KCCB|||||||||||||||||||||||||||||||||||||||||||MET062METAR KCCB 091835Z AUTO 26003KT 10SM CLR 23/M12 A3025 RMK AO2=||F||223|ICAO-KCCB
USI0000KCCB|CABLE|2017|12|09|18|55|34.1115|-117.6876|438.6|23.0||1|FM15-METAR|223|ICAO-KCCB|-11.0||1|FM15-METAR|223|ICAO-KCCB|||||||||||||250|N-Normal|1|FM15-METAR|223|ICAO-KCCB|2.6|N-Normal|1|FM15-METAR|223|ICAO-KCCB|||||||||||||9|Derived||FM15-METAR|223|ICAO-KCCB|||||||||||||||||||||||||||||||||||||||||||||||||||||||||||||||||||||||||1024.0||1|FM15-METAR|223|ICAO-KCCB|||||||||||||||||||||||||||||||||||||||||||MET062METAR KCCB 091855Z AUTO 25005KT 10SM CLR 23/M11 A3024 RMK AO2=||F||223|ICAO-KCCB
USI0000KCCB|CABLE|2017|12|09|19|15|34.1115|-117.6876|438.6|24.0||1|FM15-METAR|223|ICAO-KCCB|-15.0||1|FM15-METAR|223|ICAO-KCCB|||||||||||||300|N-Normal|1|FM15-METAR|223|ICAO-KCCB|3.6|N-Normal|1|FM15-METAR|223|ICAO-KCCB|||||||||||||6|Derived||FM15-METAR|223|ICAO-KCCB|||||||||||||||||||||||||||||||||||||||||||||||||||||||||||||||||||||||||1023.7||1|FM15-METAR|223|ICAO-KCCB|||||||||||||||||||||||||||||||||||||||||||MET062METAR KCCB 091915Z AUTO 30007KT 10SM CLR 24/M15 A3023 RMK AO2=||F||223|ICAO-KCCB
USI0000KCCB|CABLE|2017|12|09|19|35|34.1115|-117.6876|438.6|25.0||1|FM15-METAR|223|ICAO-KCCB|-15.0||1|FM15-METAR|223|ICAO-KCCB|||||||||||||290|N-Normal|1|FM15-METAR|223|ICAO-KCCB|2.6|N-Normal|1|FM15-METAR|223|ICAO-KCCB|||||||||||||6|Derived||FM15-METAR|223|ICAO-KCCB|||||||||||||||||||||||||||||||||||||||||||||||||||||||||||||||||||||||||1023.4||1|FM15-METAR|223|ICAO-KCCB|||||||||||||||||||||||||||||||||||||||||||MET062METAR KCCB 091935Z AUTO 29005KT 10SM CLR 25/M15 A3022 RMK AO2=||F||223|ICAO-KCCB
USI0000KCCB|CABLE|2017|12|09|19|55|34.1115|-117.6876|438.6|25.0||1|FM15-METAR|223|ICAO-KCCB|-15.0||1|FM15-METAR|223|ICAO-KCCB|||||||||||||270|N-Normal|1|FM15-METAR|223|ICAO-KCCB|3.6|N-Normal|1|FM15-METAR|223|ICAO-KCCB|||||||||||||6|Derived||FM15-METAR|223|ICAO-KCCB|||||||||||||||||||||||||||||||||||||||||||||||||||||||||||||||||||||||||1023.0||1|FM15-METAR|223|ICAO-KCCB|||||||||||||||||||||||||||||||||||||||||||MET062METAR KCCB 091955Z AUTO 27007KT 10SM CLR 25/M15 A3021 RMK AO2=||F||223|ICAO-KCCB
USI0000KCCB|CABLE|2017|12|09|20|15|34.1115|-117.6876|438.6|25.0||1|FM15-METAR|223|ICAO-KCCB|-12.0||1|FM15-METAR|223|ICAO-KCCB|||||||||||||250|N-Normal|1|FM15-METAR|223|ICAO-KCCB|3.1|N-Normal|1|FM15-METAR|223|ICAO-KCCB|||||||||||||8|Derived||FM15-METAR|223|ICAO-KCCB|||||||||||||||||||||||||||||||||||||||||||||||||||||||||||||||||||||||||1022.7||1|FM15-METAR|223|ICAO-KCCB|||||||||||||||||||||||||||||||||||||||||||MET062METAR KCCB 092015Z AUTO 25006KT 10SM CLR 25/M12 A3020 RMK AO2=||F||223|ICAO-KCCB
USI0000KCCB|CABLE|2017|12|09|20|35|34.1115|-117.6876|438.6|25.0||1|FM15-METAR|223|ICAO-KCCB|-11.0||1|FM15-METAR|223|ICAO-KCCB|||||||||||||260|N-Normal|1|FM15-METAR|223|ICAO-KCCB|2.6|N-Normal|1|FM15-METAR|223|ICAO-KCCB|||||||||||||8|Derived||FM15-METAR|223|ICAO-KCCB|||||||||||||||||||||||||||||||||||||||||||||||||||||||||||||||||||||||||1022.3||1|FM15-METAR|223|ICAO-KCCB|||||||||||||||||||||||||||||||||||||||||||MET062METAR KCCB 092035Z AUTO 26005KT 10SM CLR 25/M11 A3019 RMK AO2=||F||223|ICAO-KCCB
USI0000KCCB|CABLE|2017|12|09|20|55|34.1115|-117.6876|438.6|26.0||1|FM15-METAR|223|ICAO-KCCB|-11.0||1|FM15-METAR|223|ICAO-KCCB|||||||||||||250|N-Normal|1|FM15-METAR|223|ICAO-KCCB|3.1|N-Normal|1|FM15-METAR|223|ICAO-KCCB|||||||||||||8|Derived||FM15-METAR|223|ICAO-KCCB|||||||||||||||||||||||||||||||||||||||||||||||||||||||||||||||||||||||||1022.0||1|FM15-METAR|223|ICAO-KCCB|||||||||||||||||||||||||||||||||||||||||||MET062METAR KCCB 092055Z AUTO 25006KT 10SM CLR 26/M11 A3018 RMK AO2=||F||223|ICAO-KCCB
USI0000KCCB|CABLE|2017|12|09|21|15|34.1115|-117.6876|438.6|26.0||1|FM15-METAR|223|ICAO-KCCB|-12.0||1|FM15-METAR|223|ICAO-KCCB|||||||||||||240|N-Normal|1|FM15-METAR|223|ICAO-KCCB|3.1|N-Normal|1|FM15-METAR|223|ICAO-KCCB|||||||||||||7|Derived||FM15-METAR|223|ICAO-KCCB|||||||||||||||||||||||||||||||||||||||||||||||||||||||||||||||||||||||||1021.7||1|FM15-METAR|223|ICAO-KCCB|||||||||||||||||||||||||||||||||||||||||||MET061METAR KCCB 092115Z AUTO 24006KT 9SM CLR 26/M12 A3017 RMK AO2=||F||223|ICAO-KCCB
USI0000KCCB|CABLE|2017|12|09|21|35|34.1115|-117.6876|438.6|26.0||1|FM15-METAR|223|ICAO-KCCB|-12.0||1|FM15-METAR|223|ICAO-KCCB|||||||||||||240|N-Normal|1|FM15-METAR|223|ICAO-KCCB|2.1|N-Normal|1|FM15-METAR|223|ICAO-KCCB|||||||||||||7|Derived||FM15-METAR|223|ICAO-KCCB|||||||||||||||||||||||||||||||||||||||||||||||||||||||||||||||||||||||||1021.7||1|FM15-METAR|223|ICAO-KCCB|||||||||||||||||||||||||||||||||||||||||||MET062METAR KCCB 092135Z AUTO 24004KT 10SM CLR 26/M12 A3017 RMK AO2=||F||223|ICAO-KCCB
USI0000KCCB|CABLE|2017|12|09|21|55|34.1115|-117.6876|438.6|26.0||1|FM15-METAR|223|ICAO-KCCB|-12.0||1|FM15-METAR|223|ICAO-KCCB|||||||||||||270|N-Normal|1|FM15-METAR|223|ICAO-KCCB|2.1|N-Normal|1|FM15-METAR|223|ICAO-KCCB|||||||||||||7|Derived||FM15-METAR|223|ICAO-KCCB|||||||||||||||||||||||||||||||||||||||||||||||||||||||||||||||||||||||||1021.3||1|FM15-METAR|223|ICAO-KCCB|||||||||||||||||||||||||||||||||||||||||||MET062METAR KCCB 092155Z AUTO 27004KT 10SM CLR 26/M12 A3016 RMK AO2=||F||223|ICAO-KCCB
USI0000KCCB|CABLE|2017|12|09|22|15|34.1115|-117.6876|438.6|26.0||1|FM15-METAR|223|ICAO-KCCB|-14.0||1|FM15-METAR|223|ICAO-KCCB|||||||||||||230|N-Normal|1|FM15-METAR|223|ICAO-KCCB|2.6|N-Normal|1|FM15-METAR|223|ICAO-KCCB|||||||||||||6|Derived||FM15-METAR|223|ICAO-KCCB|||||||||||||||||||||||||||||||||||||||||||||||||||||||||||||||||||||||||1021.3||1|FM15-METAR|223|ICAO-KCCB|||||||||||||||||||||||||||||||||||||||||||MET062METAR KCCB 092215Z AUTO 23005KT 10SM CLR 26/M14 A3016 RMK AO2=||F||223|ICAO-KCCB
USI0000KCCB|CABLE|2017|12|09|22|35|34.1115|-117.6876|438.6|26.0||1|FM15-METAR|223|ICAO-KCCB|-15.0||1|FM15-METAR|223|ICAO-KCCB|||||||||||||260|N-Normal|1|FM15-METAR|223|ICAO-KCCB|2.6|N-Normal|1|FM15-METAR|223|ICAO-KCCB|||||||||||||6|Derived||FM15-METAR|223|ICAO-KCCB|||||||||||||||||||||||||||||||||||||||||||||||||||||||||||||||||||||||||1021.3||1|FM15-METAR|223|ICAO-KCCB|||||||||||||||||||||||||||||||||||||||||||MET062METAR KCCB 092235Z AUTO 26005KT 10SM CLR 26/M15 A3016 RMK AO2=||F||223|ICAO-KCCB
USI0000KCCB|CABLE|2017|12|09|22|55|34.1115|-117.6876|438.6|26.0||1|FM15-METAR|223|ICAO-KCCB|-14.0||1|FM15-METAR|223|ICAO-KCCB|||||||||||||260|N-Normal|1|FM15-METAR|223|ICAO-KCCB|2.6|N-Normal|1|FM15-METAR|223|ICAO-KCCB|||||||||||||6|Derived||FM15-METAR|223|ICAO-KCCB|||||||||||||||||||||||||||||||||||||||||||||||||||||||||||||||||||||||||1021.0||1|FM15-METAR|223|ICAO-KCCB|||||||||||||||||||||||||||||||||||||||||||MET062METAR KCCB 092255Z AUTO 26005KT 10SM CLR 26/M14 A3015 RMK AO2=||F||223|ICAO-KCCB
USI0000KCCB|CABLE|2017|12|09|23|15|34.1115|-117.6876|438.6|26.0||1|FM15-METAR|223|ICAO-KCCB|-13.0||1|FM15-METAR|223|ICAO-KCCB|||||||||||||290|N-Normal|1|FM15-METAR|223|ICAO-KCCB|3.6|N-Normal|1|FM15-METAR|223|ICAO-KCCB|||||||||||||7|Derived||FM15-METAR|223|ICAO-KCCB|||||||||||||||||||||||||||||||||||||||||||||||||||||||||||||||||||||||||1021.0||1|FM15-METAR|223|ICAO-KCCB|||||||||||||||||||||||||||||||||||||||||||MET062METAR KCCB 092315Z AUTO 29007KT 10SM CLR 26/M13 A3015 RMK AO2=||F||223|ICAO-KCCB
USI0000KCCB|CABLE|2017|12|09|23|35|34.1115|-117.6876|438.6|26.0||1|FM15-METAR|223|ICAO-KCCB|-13.0||1|FM15-METAR|223|ICAO-KCCB|||||||||||||260|N-Normal|1|FM15-METAR|223|ICAO-KCCB|3.6|N-Normal|1|FM15-METAR|223|ICAO-KCCB|||||||||||||7|Derived||FM15-METAR|223|ICAO-KCCB|||||||||||||||||||||||||||||||||||||||||||||||||||||||||||||||||||||||||1021.0||1|FM15-METAR|223|ICAO-KCCB|||||||||||||||||||||||||||||||||||||||||||MET062METAR KCCB 092335Z AUTO 26007KT 10SM CLR 26/M13 A3015 RMK AO2=||F||223|ICAO-KCCB
USI0000KCCB|CABLE|2017|12|09|23|55|34.1115|-117.6876|438.6|25.0||1|FM15-METAR|223|ICAO-KCCB|-12.0||1|FM15-METAR|223|ICAO-KCCB|||||||||||||290|N-Normal|1|FM15-METAR|223|ICAO-KCCB|2.1|N-Normal|1|FM15-METAR|223|ICAO-KCCB|||||||||||||8|Derived||FM15-METAR|223|ICAO-KCCB|||||||||||||||||||||||||||||||||||||||||||||||||||||||||||||||||||||||||1021.0||1|FM15-METAR|223|ICAO-KCCB|||||||||||||||||||||||||||||||||||||||||||MET062METAR KCCB 092355Z AUTO 29004KT 10SM CLR 25/M12 A3015 RMK AO2=||F||223|ICAO-KCCB
USI0000KCCB|CABLE|2017|12|10|00|15|34.1115|-117.6876|438.6|25.0||1|FM15-METAR|223|ICAO-KCCB|-12.0||1|FM15-METAR|223|ICAO-KCCB|||||||||||||280|N-Normal|1|FM15-METAR|223|ICAO-KCCB|3.1|N-Normal|1|FM15-METAR|223|ICAO-KCCB|||||||||||||8|Derived||FM15-METAR|223|ICAO-KCCB|||||||||||||||||||||||||||||||||||||||||||||||||||||||||||||||||||||||||1021.3||1|FM15-METAR|223|ICAO-KCCB|||||||||||||||||||||||||||||||||||||||||||MET062METAR KCCB 100015Z AUTO 28006KT 10SM CLR 25/M12 A3016 RMK AO2=||F||223|ICAO-KCCB
USI0000KCCB|CABLE|2017|12|10|00|35|34.1115|-117.6876|438.6|24.0||1|FM15-METAR|223|ICAO-KCCB|-11.0||1|FM15-METAR|223|ICAO-KCCB|||||||||||||240|N-Normal|1|FM15-METAR|223|ICAO-KCCB|2.1|N-Normal|1|FM15-METAR|223|ICAO-KCCB|||||||||||||9|Derived||FM15-METAR|223|ICAO-KCCB|||||||||||||||||||||||||||||||||||||||||||||||||||||||||||||||||||||||||1021.3||1|FM15-METAR|223|ICAO-KCCB|||||||||||||||||||||||||||||||||||||||||||MET062METAR KCCB 100035Z AUTO 24004KT 10SM CLR 24/M11 A3016 RMK AO2=||F||223|ICAO-KCCB
USI0000KCCB|CABLE|2017|12|10|00|55|34.1115|-117.6876|438.6|23.0||1|FM15-METAR|223|ICAO-KCCB|-11.0||1|FM15-METAR|223|ICAO-KCCB|||||||||||||280|N-Normal|1|FM15-METAR|223|ICAO-KCCB|3.1|N-Normal|1|FM15-METAR|223|ICAO-KCCB|||||||||||||9|Derived||FM15-METAR|223|ICAO-KCCB|||||||||||||||||||||||||||||||||||||||||||||||||||||||||||||||||||||||||1021.3||1|FM15-METAR|223|ICAO-KCCB|||||||||||||||||||||||||||||||||||||||||||MET062METAR KCCB 100055Z AUTO 28006KT 10SM CLR 23/M11 A3016 RMK AO2=||F||223|ICAO-KCCB
USI0000KCCB|CABLE|2017|12|10|01|15|34.1115|-117.6876|438.6|22.0||1|FM15-METAR|223|ICAO-KCCB|-10.0||1|FM15-METAR|223|ICAO-KCCB|||||||||||||350|N-Normal|1|FM15-METAR|223|ICAO-KCCB|2.1|N-Normal|1|FM15-METAR|223|ICAO-KCCB|||||||||||||11|Derived||FM15-METAR|223|ICAO-KCCB|||||||||||||||||||||||||||||||||||||||||||||||||||||||||||||||||||||||||1021.7||1|FM15-METAR|223|ICAO-KCCB|||||||||||||||||||||||||||||||||||||||||||MET062METAR KCCB 100115Z AUTO 35004KT 10SM CLR 22/M10 A3017 RMK AO2=||F||223|ICAO-KCCB
USI0000KCCB|CABLE|2017|12|10|01|35|34.1115|-117.6876|438.6|21.0||1|FM15-METAR|223|ICAO-KCCB|-12.0||1|FM15-METAR|223|ICAO-KCCB|||||||||||||360|N-Normal|1|FM15-METAR|223|ICAO-KCCB|2.1|N-Normal|1|FM15-METAR|223|ICAO-KCCB|||||||||||||10|Derived||FM15-METAR|223|ICAO-KCCB|||||||||||||||||||||||||||||||||||||||||||||||||||||||||||||||||||||||||1022.0||1|FM15-METAR|223|ICAO-KCCB|||||||||||||||||||||||||||||||||||||||||||MET062METAR KCCB 100135Z AUTO 36004KT 10SM CLR 21/M12 A3018 RMK AO2=||F||223|ICAO-KCCB
USI0000KCCB|CABLE|2017|12|10|01|55|34.1115|-117.6876|438.6|20.0||1|FM15-METAR|223|ICAO-KCCB|-11.0||1|FM15-METAR|223|ICAO-KCCB|||||||||||||010|N-Normal|1|FM15-METAR|223|ICAO-KCCB|2.6|N-Normal|1|FM15-METAR|223|ICAO-KCCB|||||||||||||11|Derived||FM15-METAR|223|ICAO-KCCB|||||||||||||||||||||||||||||||||||||||||||||||||||||||||||||||||||||||||1022.0||1|FM15-METAR|223|ICAO-KCCB|||||||||||||||||||||||||||||||||||||||||||MET062METAR KCCB 100155Z AUTO 01005KT 10SM CLR 20/M11 A3018 RMK AO2=||F||223|ICAO-KCCB
USI0000KCCB|CABLE|2017|12|10|02|15|34.1115|-117.6876|438.6|20.0||1|FM15-METAR|223|ICAO-KCCB|-11.0||1|FM15-METAR|223|ICAO-KCCB|||||||||||||010|N-Normal|1|FM15-METAR|223|ICAO-KCCB|2.6|N-Normal|1|FM15-METAR|223|ICAO-KCCB|||||||||||||11|Derived||FM15-METAR|223|ICAO-KCCB|||||||||||||||||||||||||||||||||||||||||||||||||||||||||||||||||||||||||1022.0||1|FM15-METAR|223|ICAO-KCCB|||||||||||||||||||||||||||||||||||||||||||MET062METAR KCCB 100215Z AUTO 01005KT 10SM CLR 20/M11 A3018 RMK AO2=||F||223|ICAO-KCCB
USI0000KCCB|CABLE|2017|12|10|02|35|34.1115|-117.6876|438.6|20.0||1|FM15-METAR|223|ICAO-KCCB|-11.0||1|FM15-METAR|223|ICAO-KCCB|||||||||||||999|C-Calm|9|FM15-METAR|223|ICAO-KCCB|0.0|C-Calm|1|FM15-METAR|223|ICAO-KCCB|||||||||||||11|Derived||FM15-METAR|223|ICAO-KCCB|||||||||||||||||||||||||||||||||||||||||||||||||||||||||||||||||||||||||1022.3||1|FM15-METAR|223|ICAO-KCCB|||||||||||||||||||||||||||||||||||||||||||MET062METAR KCCB 100235Z AUTO 00000KT 10SM CLR 20/M11 A3019 RMK AO2=||F||223|ICAO-KCCB
USI0000KCCB|CABLE|2017|12|10|02|55|34.1115|-117.6876|438.6|20.0||1|FM15-METAR|223|ICAO-KCCB|-12.0||1|FM15-METAR|223|ICAO-KCCB|||||||||||||999|C-Calm|9|FM15-METAR|223|ICAO-KCCB|0.0|C-Calm|1|FM15-METAR|223|ICAO-KCCB|||||||||||||10|Derived||FM15-METAR|223|ICAO-KCCB|||||||||||||||||||||||||||||||||||||||||||||||||||||||||||||||||||||||||1022.3||1|FM15-METAR|223|ICAO-KCCB|||||||||||||||||||||||||||||||||||||||||||MET062METAR KCCB 100255Z AUTO 00000KT 10SM CLR 20/M12 A3019 RMK AO2=||F||223|ICAO-KCCB
USI0000KCCB|CABLE|2017|12|10|03|15|34.1115|-117.6876|438.6|19.0||1|FM15-METAR|223|ICAO-KCCB|-11.0||1|FM15-METAR|223|ICAO-KCCB|||||||||||||340|N-Normal|1|FM15-METAR|223|ICAO-KCCB|2.6|N-Normal|1|FM15-METAR|223|ICAO-KCCB|||||||||||||12|Derived||FM15-METAR|223|ICAO-KCCB|||||||||||||||||||||||||||||||||||||||||||||||||||||||||||||||||||||||||1022.3||1|FM15-METAR|223|ICAO-KCCB|||||||||||||||||||||||||||||||||||||||||||MET062METAR KCCB 100315Z AUTO 34005KT 10SM CLR 19/M11 A3019 RMK AO2=||F||223|ICAO-KCCB
USI0000KCCB|CABLE|2017|12|10|03|35|34.1115|-117.6876|438.6|18.0||1|FM15-METAR|223|ICAO-KCCB|-13.0||1|FM15-METAR|223|ICAO-KCCB|||||||||||||350|N-Normal|1|FM15-METAR|223|ICAO-KCCB|3.6|N-Normal|1|FM15-METAR|223|ICAO-KCCB|||||||||||||11|Derived||FM15-METAR|223|ICAO-KCCB|||||||||||||||||||||||||||||||||||||||||||||||||||||||||||||||||||||||||1022.3||1|FM15-METAR|223|ICAO-KCCB|||||||||||||||||||||||||||||||||||||||||||MET062METAR KCCB 100335Z AUTO 35007KT 10SM CLR 18/M13 A3019 RMK AO2=||F||223|ICAO-KCCB
USI0000KCCB|CABLE|2017|12|10|03|55|34.1115|-117.6876|438.6|19.0||1|FM15-METAR|223|ICAO-KCCB|-15.0||1|FM15-METAR|223|ICAO-KCCB|||||||||||||350|N-Normal|1|FM15-METAR|223|ICAO-KCCB|3.6|N-Normal|1|FM15-METAR|223|ICAO-KCCB|||||||||||||9|Derived||FM15-METAR|223|ICAO-KCCB|||||||||||||||||||||||||||||||||||||||||||||||||||||||||||||||||||||||||1022.3||1|FM15-METAR|223|ICAO-KCCB|||||||||||||||||||||||||||||||||||||||||||MET062METAR KCCB 100355Z AUTO 35007KT 10SM CLR 19/M15 A3019 RMK AO2=||F||223|ICAO-KCCB
USI0000KCCB|CABLE|2017|12|10|04|15|34.1115|-117.6876|438.6|19.0||1|FM15-METAR|223|ICAO-KCCB|-15.0||1|FM15-METAR|223|ICAO-KCCB|||||||||||||360|N-Normal|1|FM15-METAR|223|ICAO-KCCB|3.1|N-Normal|1|FM15-METAR|223|ICAO-KCCB|||||||||||||9|Derived||FM15-METAR|223|ICAO-KCCB|||||||||||||||||||||||||||||||||||||||||||||||||||||||||||||||||||||||||1022.7||1|FM15-METAR|223|ICAO-KCCB|||||||||||||||||||||||||||||||||||||||||||MET062METAR KCCB 100415Z AUTO 36006KT 10SM CLR 19/M15 A3020 RMK AO2=||F||223|ICAO-KCCB
USI0000KCCB|CABLE|2017|12|10|04|35|34.1115|-117.6876|438.6|19.0||1|FM15-METAR|223|ICAO-KCCB|-14.0||1|FM15-METAR|223|ICAO-KCCB|||||||||||||320|N-Normal|1|FM15-METAR|223|ICAO-KCCB|2.6|N-Normal|1|FM15-METAR|223|ICAO-KCCB|||||||||||||9|Derived||FM15-METAR|223|ICAO-KCCB|||||||||||||||||||||||||||||||||||||||||||||||||||||||||||||||||||||||||1022.7||1|FM15-METAR|223|ICAO-KCCB|||||||||||||||||||||||||||||||||||||||||||MET062METAR KCCB 100435Z AUTO 32005KT 10SM CLR 19/M14 A3020 RMK AO2=||F||223|ICAO-KCCB
USI0000KCCB|CABLE|2017|12|10|04|55|34.1115|-117.6876|438.6|18.0||1|FM15-METAR|223|ICAO-KCCB|-13.0||1|FM15-METAR|223|ICAO-KCCB|||||||||||||999|C-Calm|9|FM15-METAR|223|ICAO-KCCB|0.0|C-Calm|1|FM15-METAR|223|ICAO-KCCB|||||||||||||11|Derived||FM15-METAR|223|ICAO-KCCB|||||||||||||||||||||||||||||||||||||||||||||||||||||||||||||||||||||||||1022.7||1|FM15-METAR|223|ICAO-KCCB|||||||||||||||||||||||||||||||||||||||||||MET062METAR KCCB 100455Z AUTO 00000KT 10SM CLR 18/M13 A3020 RMK AO2=||F||223|ICAO-KCCB
USI0000KCCB|CABLE|2017|12|10|05|15|34.1115|-117.6876|438.6|18.0||1|FM15-METAR|223|ICAO-KCCB|-14.0||1|FM15-METAR|223|ICAO-KCCB|||||||||||||310|N-Normal|1|FM15-METAR|223|ICAO-KCCB|3.6|N-Normal|1|FM15-METAR|223|ICAO-KCCB|||||||||||||10|Derived||FM15-METAR|223|ICAO-KCCB|||||||||||||||||||||||||||||||||||||||||||||||||||||||||||||||||||||||||1023.0||1|FM15-METAR|223|ICAO-KCCB|||||||||||||||||||||||||||||||||||||||||||MET062METAR KCCB 100515Z AUTO 31007KT 10SM CLR 18/M14 A3021 RMK AO2=||F||223|ICAO-KCCB
USI0000KCCB|CABLE|2017|12|10|05|35|34.1115|-117.6876|438.6|18.0||1|FM15-METAR|223|ICAO-KCCB|-14.0||1|FM15-METAR|223|ICAO-KCCB|||||||||||||340|N-Normal|1|FM15-METAR|223|ICAO-KCCB|3.1|N-Normal|1|FM15-METAR|223|ICAO-KCCB|||||||||||||10|Derived||FM15-METAR|223|ICAO-KCCB|||||||||||||||||||||||||||||||||||||||||||||||||||||||||||||||||||||||||1023.0||1|FM15-METAR|223|ICAO-KCCB|||||||||||||||||||||||||||||||||||||||||||MET062METAR KCCB 100535Z AUTO 34006KT 10SM CLR 18/M14 A3021 RMK AO2=||F||223|ICAO-KCCB
USI0000KCCB|CABLE|2017|12|10|05|55|34.1115|-117.6876|438.6|17.0||1|FM15-METAR|223|ICAO-KCCB|-14.0||1|FM15-METAR|223|ICAO-KCCB|||||||||||||330|N-Normal|1|FM15-METAR|223|ICAO-KCCB|2.1|N-Normal|1|FM15-METAR|223|ICAO-KCCB|||||||||||||11|Derived||FM15-METAR|223|ICAO-KCCB|||||||||||||||||||||||||||||||||||||||||||||||||||||||||||||||||||||||||1023.0||1|FM15-METAR|223|ICAO-KCCB|||||||||||||||||||||||||||||||||||||||||||MET062METAR KCCB 100555Z AUTO 33004KT 10SM CLR 17/M14 A3021 RMK AO2=||F||223|ICAO-KCCB
USI0000KCCB|CABLE|2017|12|10|06|15|34.1115|-117.6876|438.6|18.0||1|FM15-METAR|223|ICAO-KCCB|-15.0||1|FM15-METAR|223|ICAO-KCCB|||||||||||||320|N-Normal|1|FM15-METAR|223|ICAO-KCCB|2.1|N-Normal|1|FM15-METAR|223|ICAO-KCCB|||||||||||||9|Derived||FM15-METAR|223|ICAO-KCCB|||||||||||||||||||||||||||||||||||||||||||||||||||||||||||||||||||||||||1023.0||1|FM15-METAR|223|ICAO-KCCB|||||||||||||||||||||||||||||||||||||||||||MET062METAR KCCB 100615Z AUTO 32004KT 10SM CLR 18/M15 A3021 RMK AO2=||F||223|ICAO-KCCB
USI0000KCCB|CABLE|2017|12|10|06|35|34.1115|-117.6876|438.6|19.0||1|FM15-METAR|223|ICAO-KCCB|-15.0||1|FM15-METAR|223|ICAO-KCCB|||||||||||||999|C-Calm|9|FM15-METAR|223|ICAO-KCCB|0.0|C-Calm|1|FM15-METAR|223|ICAO-KCCB|||||||||||||9|Derived||FM15-METAR|223|ICAO-KCCB|||||||||||||||||||||||||||||||||||||||||||||||||||||||||||||||||||||||||1023.0||1|FM15-METAR|223|ICAO-KCCB|||||||||||||||||||||||||||||||||||||||||||MET062METAR KCCB 100635Z AUTO 00000KT 10SM CLR 19/M15 A3021 RMK AO2=||F||223|ICAO-KCCB
USI0000KCCB|CABLE|2017|12|10|06|55|34.1115|-117.6876|438.6|18.0||1|FM15-METAR|223|ICAO-KCCB|-16.0||1|FM15-METAR|223|ICAO-KCCB|||||||||||||999|C-Calm|9|FM15-METAR|223|ICAO-KCCB|0.0|C-Calm|1|FM15-METAR|223|ICAO-KCCB|||||||||||||8|Derived||FM15-METAR|223|ICAO-KCCB|||||||||||||||||||||||||||||||||||||||||||||||||||||||||||||||||||||||||1023.0||1|FM15-METAR|223|ICAO-KCCB|||||||||||||||||||||||||||||||||||||||||||MET062METAR KCCB 100655Z AUTO 00000KT 10SM CLR 18/M16 A3021 RMK AO2=||F||223|ICAO-KCCB
USI0000KCCB|CABLE|2017|12|10|07|15|34.1115|-117.6876|438.6|20.0||1|FM15-METAR|223|ICAO-KCCB|-17.0||1|FM15-METAR|223|ICAO-KCCB|||||||||||||999|C-Calm|9|FM15-METAR|223|ICAO-KCCB|0.0|C-Calm|1|FM15-METAR|223|ICAO-KCCB|||||||||||||7|Derived||FM15-METAR|223|ICAO-KCCB|||||||||||||||||||||||||||||||||||||||||||||||||||||||||||||||||||||||||1022.7||1|FM15-METAR|223|ICAO-KCCB|||||||||||||||||||||||||||||||||||||||||||MET062METAR KCCB 100715Z AUTO 00000KT 10SM CLR 20/M17 A3020 RMK AO2=||F||223|ICAO-KCCB
USI0000KCCB|CABLE|2017|12|10|07|35|34.1115|-117.6876|438.6|20.0||1|FM15-METAR|223|ICAO-KCCB|-17.0||1|FM15-METAR|223|ICAO-KCCB|||||||||||||999|C-Calm|9|FM15-METAR|223|ICAO-KCCB|0.0|C-Calm|1|FM15-METAR|223|ICAO-KCCB|||||||||||||7|Derived||FM15-METAR|223|ICAO-KCCB|||||||||||||||||||||||||||||||||||||||||||||||||||||||||||||||||||||||||1022.7||1|FM15-METAR|223|ICAO-KCCB|||||||||||||||||||||||||||||||||||||||||||MET062METAR KCCB 100735Z AUTO 00000KT 10SM CLR 20/M17 A3020 RMK AO2=||F||223|ICAO-KCCB
USI0000KCCB|CABLE|2017|12|10|07|55|34.1115|-117.6876|438.6|18.0||1|FM15-METAR|223|ICAO-KCCB|-17.0||1|FM15-METAR|223|ICAO-KCCB|||||||||||||340|N-Normal|1|FM15-METAR|223|ICAO-KCCB|1.5|N-Normal|1|FM15-METAR|223|ICAO-KCCB|||||||||||||8|Derived||FM15-METAR|223|ICAO-KCCB|||||||||||||||||||||||||||||||||||||||||||||||||||||||||||||||||||||||||1022.3||1|FM15-METAR|223|ICAO-KCCB|||||||||||||||||||||||||||||||||||||||||||MET062METAR KCCB 100755Z AUTO 34003KT 10SM CLR 18/M17 A3019 RMK AO2=||F||223|ICAO-KCCB
USI0000KCCB|CABLE|2017|12|10|08|15|34.1115|-117.6876|438.6|18.0||1|FM15-METAR|223|ICAO-KCCB|-17.0||1|FM15-METAR|223|ICAO-KCCB|||||||||||||010|N-Normal|1|FM15-METAR|223|ICAO-KCCB|2.1|N-Normal|1|FM15-METAR|223|ICAO-KCCB|||||||||||||8|Derived||FM15-METAR|223|ICAO-KCCB|||||||||||||||||||||||||||||||||||||||||||||||||||||||||||||||||||||||||1022.3||1|FM15-METAR|223|ICAO-KCCB|||||||||||||||||||||||||||||||||||||||||||MET062METAR KCCB 100815Z AUTO 01004KT 10SM CLR 18/M17 A3019 RMK AO2=||F||223|ICAO-KCCB
USI0000KCCB|CABLE|2017|12|10|08|35|34.1115|-117.6876|438.6|17.0||1|FM15-METAR|223|ICAO-KCCB|-16.0||1|FM15-METAR|223|ICAO-KCCB|||||||||||||260|N-Normal|1|FM15-METAR|223|ICAO-KCCB|1.5|N-Normal|1|FM15-METAR|223|ICAO-KCCB|||||||||||||9|Derived||FM15-METAR|223|ICAO-KCCB|||||||||||||||||||||||||||||||||||||||||||||||||||||||||||||||||||||||||1022.3||1|FM15-METAR|223|ICAO-KCCB|||||||||||||||||||||||||||||||||||||||||||MET062METAR KCCB 100835Z AUTO 26003KT 10SM CLR 17/M16 A3019 RMK AO2=||F||223|ICAO-KCCB
USI0000KCCB|CABLE|2017|12|10|08|55|34.1115|-117.6876|438.6|20.0||1|FM15-METAR|223|ICAO-KCCB|-20.0||1|FM15-METAR|223|ICAO-KCCB|||||||||||||999|C-Calm|9|FM15-METAR|223|ICAO-KCCB|0.0|C-Calm|1|FM15-METAR|223|ICAO-KCCB|||||||||||||5|Derived||FM15-METAR|223|ICAO-KCCB|||||||||||||||||||||||||||||||||||||||||||||||||||||||||||||||||||||||||1022.0||1|FM15-METAR|223|ICAO-KCCB|||||||||||||||||||||||||||||||||||||||||||MET062METAR KCCB 100855Z AUTO 00000KT 10SM CLR 20/M20 A3018 RMK AO2=||F||223|ICAO-KCCB
USI0000KCCB|CABLE|2017|12|10|09|15|34.1115|-117.6876|438.6|17.0||1|FM15-METAR|223|ICAO-KCCB|-16.0||1|FM15-METAR|223|ICAO-KCCB|||||||||||||270|N-Normal|1|FM15-METAR|223|ICAO-KCCB|2.6|N-Normal|1|FM15-METAR|223|ICAO-KCCB|||||||||||||9|Derived||FM15-METAR|223|ICAO-KCCB|||||||||||||||||||||||||||||||||||||||||||||||||||||||||||||||||||||||||1022.3||1|FM15-METAR|223|ICAO-KCCB|||||||||||||||||||||||||||||||||||||||||||MET062METAR KCCB 100915Z AUTO 27005KT 10SM CLR 17/M16 A3019 RMK AO2=||F||223|ICAO-KCCB
USI0000KCCB|CABLE|2017|12|10|09|35|34.1115|-117.6876|438.6|16.0||1|FM15-METAR|223|ICAO-KCCB|-15.0||1|FM15-METAR|223|ICAO-KCCB|||||||||||||280|N-Normal|1|FM15-METAR|223|ICAO-KCCB|2.6|N-Normal|1|FM15-METAR|223|ICAO-KCCB|||||||||||||11|Derived||FM15-METAR|223|ICAO-KCCB|||||||||||||||||||||||||||||||||||||||||||||||||||||||||||||||||||||||||1022.3||1|FM15-METAR|223|ICAO-KCCB|||||||||||||||||||||||||||||||||||||||||||MET062METAR KCCB 100935Z AUTO 28005KT 10SM CLR 16/M15 A3019 RMK AO2=||F||223|ICAO-KCCB
USI0000KCCB|CABLE|2017|12|10|09|55|34.1115|-117.6876|438.6|16.0||1|FM15-METAR|223|ICAO-KCCB|-16.0||1|FM15-METAR|223|ICAO-KCCB|||||||||||||330|N-Normal|1|FM15-METAR|223|ICAO-KCCB|3.1|N-Normal|1|FM15-METAR|223|ICAO-KCCB|||||||||||||10|Derived||FM15-METAR|223|ICAO-KCCB|||||||||||||||||||||||||||||||||||||||||||||||||||||||||||||||||||||||||1022.3||1|FM15-METAR|223|ICAO-KCCB|||||||||||||||||||||||||||||||||||||||||||MET062METAR KCCB 100955Z AUTO 33006KT 10SM CLR 16/M16 A3019 RMK AO2=||F||223|ICAO-KCCB
USI0000KCCB|CABLE|2017|12|10|10|15|34.1115|-117.6876|438.6|17.0||1|FM15-METAR|223|ICAO-KCCB|-16.0||1|FM15-METAR|223|ICAO-KCCB|||||||||||||320|N-Normal|1|FM15-METAR|223|ICAO-KCCB|3.1|N-Normal|1|FM15-METAR|223|ICAO-KCCB|||||||||||||9|Derived||FM15-METAR|223|ICAO-KCCB|||||||||||||||||||||||||||||||||||||||||||||||||||||||||||||||||||||||||1022.3||1|FM15-METAR|223|ICAO-KCCB|||||||||||||||||||||||||||||||||||||||||||MET062METAR KCCB 101015Z AUTO 32006KT 10SM CLR 17/M16 A3019 RMK AO2=||F||223|ICAO-KCCB
USI0000KCCB|CABLE|2017|12|10|10|35|34.1115|-117.6876|438.6|17.0||1|FM15-METAR|223|ICAO-KCCB|-18.0||1|FM15-METAR|223|ICAO-KCCB|||||||||||||340|N-Normal|1|FM15-METAR|223|ICAO-KCCB|2.6|N-Normal|1|FM15-METAR|223|ICAO-KCCB|||||||||||||8|Derived||FM15-METAR|223|ICAO-KCCB|||||||||||||||||||||||||||||||||||||||||||||||||||||||||||||||||||||||||1022.0||1|FM15-METAR|223|ICAO-KCCB|||||||||||||||||||||||||||||||||||||||||||MET062METAR KCCB 101035Z AUTO 34005KT 10SM CLR 17/M18 A3018 RMK AO2=||F||223|ICAO-KCCB
USI0000KCCB|CABLE|2017|12|10|10|55|34.1115|-117.6876|438.6|16.0||1|FM15-METAR|223|ICAO-KCCB|-18.0||1|FM15-METAR|223|ICAO-KCCB|||||||||||||999|C-Calm|9|FM15-METAR|223|ICAO-KCCB|0.0|C-Calm|1|FM15-METAR|223|ICAO-KCCB|||||||||||||8|Derived||FM15-METAR|223|ICAO-KCCB|||||||||||||||||||||||||||||||||||||||||||||||||||||||||||||||||||||||||1022.3||1|FM15-METAR|223|ICAO-KCCB|||||||||||||||||||||||||||||||||||||||||||MET062METAR KCCB 101055Z AUTO 00000KT 10SM CLR 16/M18 A3019 RMK AO2=||F||223|ICAO-KCCB
USI0000KCCB|CABLE|2017|12|10|11|15|34.1115|-117.6876|438.6|16.0||1|FM15-METAR|223|ICAO-KCCB|-18.0||1|FM15-METAR|223|ICAO-KCCB|||||||||||||999|C-Calm|9|FM15-METAR|223|ICAO-KCCB|0.0|C-Calm|1|FM15-METAR|223|ICAO-KCCB|||||||||||||8|Derived||FM15-METAR|223|ICAO-KCCB|||||||||||||||||||||||||||||||||||||||||||||||||||||||||||||||||||||||||1022.3||1|FM15-METAR|223|ICAO-KCCB|||||||||||||||||||||||||||||||||||||||||||MET062METAR KCCB 101115Z AUTO 00000KT 10SM CLR 16/M18 A3019 RMK AO2=||F||223|ICAO-KCCB
USI0000KCCB|CABLE|2017|12|10|11|35|34.1115|-117.6876|438.6|16.0||1|FM15-METAR|223|ICAO-KCCB|-17.0||1|FM15-METAR|223|ICAO-KCCB|||||||||||||220|N-Normal|1|FM15-METAR|223|ICAO-KCCB|2.6|N-Normal|1|FM15-METAR|223|ICAO-KCCB|||||||||||||9|Derived||FM15-METAR|223|ICAO-KCCB|||||||||||||||||||||||||||||||||||||||||||||||||||||||||||||||||||||||||1022.0||1|FM15-METAR|223|ICAO-KCCB|||||||||||||||||||||||||||||||||||||||||||MET062METAR KCCB 101135Z AUTO 22005KT 10SM CLR 16/M17 A3018 RMK AO2=||F||223|ICAO-KCCB
USI0000KCCB|CABLE|2017|12|10|11|55|34.1115|-117.6876|438.6|15.0||1|FM15-METAR|223|ICAO-KCCB|-17.0||1|FM15-METAR|223|ICAO-KCCB|||||||||||||999|C-Calm|9|FM15-METAR|223|ICAO-KCCB|0.0|C-Calm|1|FM15-METAR|223|ICAO-KCCB|||||||||||||9|Derived||FM15-METAR|223|ICAO-KCCB|||||||||||||||||||||||||||||||||||||||||||||||||||||||||||||||||||||||||1022.0||1|FM15-METAR|223|ICAO-KCCB|||||||||||||||||||||||||||||||||||||||||||MET062METAR KCCB 101155Z AUTO 00000KT 10SM CLR 15/M17 A3018 RMK AO2=||F||223|ICAO-KCCB
USI0000KCCB|CABLE|2017|12|10|12|15|34.1115|-117.6876|438.6|15.0||1|FM15-METAR|223|ICAO-KCCB|-16.0||1|FM15-METAR|223|ICAO-KCCB|||||||||||||320|N-Normal|1|FM15-METAR|223|ICAO-KCCB|2.6|N-Normal|1|FM15-METAR|223|ICAO-KCCB|||||||||||||10|Derived||FM15-METAR|223|ICAO-KCCB|||||||||||||||||||||||||||||||||||||||||||||||||||||||||||||||||||||||||1022.0||1|FM15-METAR|223|ICAO-KCCB|||||||||||||||||||||||||||||||||||||||||||MET062METAR KCCB 101215Z AUTO 32005KT 10SM CLR 15/M16 A3018 RMK AO2=||F||223|ICAO-KCCB
USI0000KCCB|CABLE|2017|12|10|12|35|34.1115|-117.6876|438.6|15.0||1|FM15-METAR|223|ICAO-KCCB|-16.0||1|FM15-METAR|223|ICAO-KCCB|||||||||||||340|N-Normal|1|FM15-METAR|223|ICAO-KCCB|2.6|N-Normal|1|FM15-METAR|223|ICAO-KCCB|||||||||||||10|Derived||FM15-METAR|223|ICAO-KCCB|||||||||||||||||||||||||||||||||||||||||||||||||||||||||||||||||||||||||1022.0||1|FM15-METAR|223|ICAO-KCCB|||||||||||||||||||||||||||||||||||||||||||MET062METAR KCCB 101235Z AUTO 34005KT 10SM CLR 15/M16 A3018 RMK AO2=||F||223|ICAO-KCCB
USI0000KCCB|CABLE|2017|12|10|12|55|34.1115|-117.6876|438.6|14.0||1|FM15-METAR|223|ICAO-KCCB|-15.0||1|FM15-METAR|223|ICAO-KCCB|||||||||||||280|N-Normal|1|FM15-METAR|223|ICAO-KCCB|2.6|N-Normal|1|FM15-METAR|223|ICAO-KCCB|||||||||||||12|Derived||FM15-METAR|223|ICAO-KCCB|||||||||||||||||||||||||||||||||||||||||||||||||||||||||||||||||||||||||1022.0||1|FM15-METAR|223|ICAO-KCCB|||||||||||||||||||||||||||||||||||||||||||MET062METAR KCCB 101255Z AUTO 28005KT 10SM CLR 14/M15 A3018 RMK AO2=||F||223|ICAO-KCCB
USI0000KCCB|CABLE|2017|12|10|13|15|34.1115|-117.6876|438.6|15.0||1|FM15-METAR|223|ICAO-KCCB|-16.0||1|FM15-METAR|223|ICAO-KCCB|||||||||||||320|N-Normal|1|FM15-METAR|223|ICAO-KCCB|3.6|N-Normal|1|FM15-METAR|223|ICAO-KCCB|||||||||||||10|Derived||FM15-METAR|223|ICAO-KCCB|||||||||||||||||||||||||||||||||||||||||||||||||||||||||||||||||||||||||1022.3||1|FM15-METAR|223|ICAO-KCCB|||||||||||||||||||||||||||||||||||||||||||MET062METAR KCCB 101315Z AUTO 32007KT 10SM CLR 15/M16 A3019 RMK AO2=||F||223|ICAO-KCCB
USI0000KCCB|CABLE|2017|12|10|13|35|34.1115|-117.6876|438.6|14.0||1|FM15-METAR|223|ICAO-KCCB|-15.0||1|FM15-METAR|223|ICAO-KCCB|||||||||||||320|N-Normal|1|FM15-METAR|223|ICAO-KCCB|2.6|N-Normal|1|FM15-METAR|223|ICAO-KCCB|||||||||||||12|Derived||FM15-METAR|223|ICAO-KCCB|||||||||||||||||||||||||||||||||||||||||||||||||||||||||||||||||||||||||1022.3||1|FM15-METAR|223|ICAO-KCCB|||||||||||||||||||||||||||||||||||||||||||MET062METAR KCCB 101335Z AUTO 32005KT 10SM CLR 14/M15 A3019 RMK AO2=||F||223|ICAO-KCCB
USI0000KCCB|CABLE|2017|12|10|13|55|34.1115|-117.6876|438.6|15.0||1|FM15-METAR|223|ICAO-KCCB|-16.0||1|FM15-METAR|223|ICAO-KCCB|||||||||||||999|C-Calm|9|FM15-METAR|223|ICAO-KCCB|0.0|C-Calm|1|FM15-METAR|223|ICAO-KCCB|||||||||||||10|Derived||FM15-METAR|223|ICAO-KCCB|||||||||||||||||||||||||||||||||||||||||||||||||||||||||||||||||||||||||1022.3||1|FM15-METAR|223|ICAO-KCCB|||||||||||||||||||||||||||||||||||||||||||MET062METAR KCCB 101355Z AUTO 00000KT 10SM CLR 15/M16 A3019 RMK AO2=||F||223|ICAO-KCCB
USI0000KCCB|CABLE|2017|12|10|14|15|34.1115|-117.6876|438.6|17.0||1|FM15-METAR|223|ICAO-KCCB|-15.0||1|FM15-METAR|223|ICAO-KCCB|||||||||||||350|N-Normal|1|FM15-METAR|223|ICAO-KCCB|1.5|N-Normal|1|FM15-METAR|223|ICAO-KCCB|||||||||||||10|Derived||FM15-METAR|223|ICAO-KCCB|||||||||||||||||||||||||||||||||||||||||||||||||||||||||||||||||||||||||1022.3||1|FM15-METAR|223|ICAO-KCCB|||||||||||||||||||||||||||||||||||||||||||MET062METAR KCCB 101415Z AUTO 35003KT 10SM CLR 17/M15 A3019 RMK AO2=||F||223|ICAO-KCCB
USI0000KCCB|CABLE|2017|12|10|14|35|34.1115|-117.6876|438.6|17.0||1|FM15-METAR|223|ICAO-KCCB|-15.0||1|FM15-METAR|223|ICAO-KCCB|||||||||||||350|N-Normal|1|FM15-METAR|223|ICAO-KCCB|2.6|N-Normal|1|FM15-METAR|223|ICAO-KCCB|||||||||||||10|Derived||FM15-METAR|223|ICAO-KCCB|||||||||||||||||||||||||||||||||||||||||||||||||||||||||||||||||||||||||1022.3||1|FM15-METAR|223|ICAO-KCCB|||||||||||||||||||||||||||||||||||||||||||MET062METAR KCCB 101435Z AUTO 35005KT 10SM CLR 17/M15 A3019 RMK AO2=||F||223|ICAO-KCCB
USI0000KCCB|CABLE|2017|12|10|14|55|34.1115|-117.6876|438.6|18.0||1|FM15-METAR|223|ICAO-KCCB|-15.0||1|FM15-METAR|223|ICAO-KCCB|||||||||||||360|N-Normal|1|FM15-METAR|223|ICAO-KCCB|1.5|N-Normal|1|FM15-METAR|223|ICAO-KCCB|||||||||||||9|Derived||FM15-METAR|223|ICAO-KCCB|||||||||||||||||||||||||||||||||||||||||||||||||||||||||||||||||||||||||1022.3||1|FM15-METAR|223|ICAO-KCCB|||||||||||||||||||||||||||||||||||||||||||MET062METAR KCCB 101455Z AUTO 36003KT 10SM CLR 18/M15 A3019 RMK AO2=||F||223|ICAO-KCCB
USI0000KCCB|CABLE|2017|12|10|15|15|34.1115|-117.6876|438.6|17.0||1|FM15-METAR|223|ICAO-KCCB|-13.0||1|FM15-METAR|223|ICAO-KCCB|||||||||||||999|C-Calm|9|FM15-METAR|223|ICAO-KCCB|0.0|C-Calm|1|FM15-METAR|223|ICAO-KCCB|||||||||||||12|Derived||FM15-METAR|223|ICAO-KCCB|||||||||||||||||||||||||||||||||||||||||||||||||||||||||||||||||||||||||1022.3||1|FM15-METAR|223|ICAO-KCCB|||||||||||||||||||||||||||||||||||||||||||MET062METAR KCCB 101515Z AUTO 00000KT 10SM CLR 17/M13 A3019 RMK AO2=||F||223|ICAO-KCCB
USI0000KCCB|CABLE|2017|12|10|15|35|34.1115|-117.6876|438.6|17.0||1|FM15-METAR|223|ICAO-KCCB|-15.0||1|FM15-METAR|223|ICAO-KCCB|||||||||||||999|C-Calm|9|FM15-METAR|223|ICAO-KCCB|0.0|C-Calm|1|FM15-METAR|223|ICAO-KCCB|||||||||||||10|Derived||FM15-METAR|223|ICAO-KCCB|||||||||||||||||||||||||||||||||||||||||||||||||||||||||||||||||||||||||1022.7||1|FM15-METAR|223|ICAO-KCCB|||||||||||||||||||||||||||||||||||||||||||MET062METAR KCCB 101535Z AUTO 00000KT 10SM CLR 17/M15 A3020 RMK AO2=||F||223|ICAO-KCCB
USI0000KCCB|CABLE|2017|12|10|15|55|34.1115|-117.6876|438.6|17.0||1|FM15-METAR|223|ICAO-KCCB|-13.0||1|FM15-METAR|223|ICAO-KCCB|||||||||||||999|C-Calm|9|FM15-METAR|223|ICAO-KCCB|0.0|C-Calm|1|FM15-METAR|223|ICAO-KCCB|||||||||||||12|Derived||FM15-METAR|223|ICAO-KCCB|||||||||||||||||||||||||||||||||||||||||||||||||||||||||||||||||||||||||1022.7||1|FM15-METAR|223|ICAO-KCCB|||||||||||||||||||||||||||||||||||||||||||MET062METAR KCCB 101555Z AUTO 00000KT 10SM CLR 17/M13 A3020 RMK AO2=||F||223|ICAO-KCCB
USI0000KCCB|CABLE|2017|12|10|16|15|34.1115|-117.6876|438.6|17.0||1|FM15-METAR|223|ICAO-KCCB|-14.0||1|FM15-METAR|223|ICAO-KCCB|||||||||||||340|N-Normal|1|FM15-METAR|223|ICAO-KCCB|2.1|N-Normal|1|FM15-METAR|223|ICAO-KCCB|||||||||||||11|Derived||FM15-METAR|223|ICAO-KCCB|||||||||||||||||||||||||||||||||||||||||||||||||||||||||||||||||||||||||1022.7||1|FM15-METAR|223|ICAO-KCCB|||||||||||||||||||||||||||||||||||||||||||MET062METAR KCCB 101615Z AUTO 34004KT 10SM CLR 17/M14 A3020 RMK AO2=||F||223|ICAO-KCCB
USI0000KCCB|CABLE|2017|12|10|16|35|34.1115|-117.6876|438.6|19.0||1|FM15-METAR|223|ICAO-KCCB|-14.0||1|FM15-METAR|223|ICAO-KCCB|||||||||||||210|N-Normal|1|FM15-METAR|223|ICAO-KCCB|3.1|N-Normal|1|FM15-METAR|223|ICAO-KCCB|||||||||||||9|Derived||FM15-METAR|223|ICAO-KCCB|||||||||||||||||||||||||||||||||||||||||||||||||||||||||||||||||||||||||1022.7||1|FM15-METAR|223|ICAO-KCCB|||||||||||||||||||||||||||||||||||||||||||MET062METAR KCCB 101635Z AUTO 21006KT 10SM CLR 19/M14 A3020 RMK AO2=||F||223|ICAO-KCCB
USI0000KCCB|CABLE|2017|12|10|16|55|34.1115|-117.6876|438.6|18.0||1|FM15-METAR|223|ICAO-KCCB|-11.0||1|FM15-METAR|223|ICAO-KCCB|||||||||||||260|N-Normal|1|FM15-METAR|223|ICAO-KCCB|2.6|N-Normal|1|FM15-METAR|223|ICAO-KCCB|||||||||||||13|Derived||FM15-METAR|223|ICAO-KCCB|||||||||||||||||||||||||||||||||||||||||||||||||||||||||||||||||||||||||1023.0||1|FM15-METAR|223|ICAO-KCCB|||||||||||||||||||||||||||||||||||||||||||MET062METAR KCCB 101655Z AUTO 26005KT 10SM CLR 18/M11 A3021 RMK AO2=||F||223|ICAO-KCCB
USI0000KCCB|CABLE|2017|12|10|17|15|34.1115|-117.6876|438.6|19.0||1|FM15-METAR|223|ICAO-KCCB|-12.0||1|FM15-METAR|223|ICAO-KCCB|||||||||||||320|N-Normal|1|FM15-METAR|223|ICAO-KCCB|1.5|N-Normal|1|FM15-METAR|223|ICAO-KCCB|||||||||||||11|Derived||FM15-METAR|223|ICAO-KCCB|||||||||||||||||||||||||||||||||||||||||||||||||||||||||||||||||||||||||1023.0||1|FM15-METAR|223|ICAO-KCCB|||||||||||||||||||||||||||||||||||||||||||MET062METAR KCCB 101715Z AUTO 32003KT 10SM CLR 19/M12 A3021 RMK AO2=||F||223|ICAO-KCCB
USI0000KCCB|CABLE|2017|12|10|17|35|34.1115|-117.6876|438.6|20.0||1|FM15-METAR|223|ICAO-KCCB|-13.0||1|FM15-METAR|223|ICAO-KCCB|||||||||||||300|N-Normal|1|FM15-METAR|223|ICAO-KCCB|1.5|N-Normal|1|FM15-METAR|223|ICAO-KCCB|||||||||||||10|Derived||FM15-METAR|223|ICAO-KCCB|||||||||||||||||||||||||||||||||||||||||||||||||||||||||||||||||||||||||1023.0||1|FM15-METAR|223|ICAO-KCCB|||||||||||||||||||||||||||||||||||||||||||MET062METAR KCCB 101735Z AUTO 30003KT 10SM CLR 20/M13 A3021 RMK AO2=||F||223|ICAO-KCCB
USI0000KCCB|CABLE|2017|12|10|17|55|34.1115|-117.6876|438.6|21.0||1|FM15-METAR|223|ICAO-KCCB|-14.0||1|FM15-METAR|223|ICAO-KCCB|||||||||||||300|N-Normal|1|FM15-METAR|223|ICAO-KCCB|2.6|N-Normal|1|FM15-METAR|223|ICAO-KCCB|||||||||||||8|Derived||FM15-METAR|223|ICAO-KCCB|||||||||||||||||||||||||||||||||||||||||||||||||||||||||||||||||||||||||1023.0||1|FM15-METAR|223|ICAO-KCCB|||||||||||||||||||||||||||||||||||||||||||MET062METAR KCCB 101755Z AUTO 30005KT 10SM CLR 21/M14 A3021 RMK AO2=||F||223|ICAO-KCCB
USI0000KCCB|CABLE|2017|12|10|18|15|34.1115|-117.6876|438.6|22.0||1|FM15-METAR|223|ICAO-KCCB|-14.0||1|FM15-METAR|223|ICAO-KCCB|||||||||||||300|N-Normal|1|FM15-METAR|223|ICAO-KCCB|3.1|N-Normal|1|FM15-METAR|223|ICAO-KCCB|||||||||||||8|Derived||FM15-METAR|223|ICAO-KCCB|||||||||||||||||||||||||||||||||||||||||||||||||||||||||||||||||||||||||1022.7||1|FM15-METAR|223|ICAO-KCCB|||||||||||||||||||||||||||||||||||||||||||MET062METAR KCCB 101815Z AUTO 30006KT 10SM CLR 22/M14 A3020 RMK AO2=||F||223|ICAO-KCCB
USI0000KCCB|CABLE|2017|12|10|18|35|34.1115|-117.6876|438.6|22.0||1|FM15-METAR|223|ICAO-KCCB|-14.0||1|FM15-METAR|223|ICAO-KCCB|||||||||||||260|N-Normal|1|FM15-METAR|223|ICAO-KCCB|2.6|N-Normal|1|FM15-METAR|223|ICAO-KCCB|||||||||||||8|Derived||FM15-METAR|223|ICAO-KCCB|||||||||||||||||||||||||||||||||||||||||||||||||||||||||||||||||||||||||1022.7||1|FM15-METAR|223|ICAO-KCCB|||||||||||||||||||||||||||||||||||||||||||MET062METAR KCCB 101835Z AUTO 26005KT 10SM CLR 22/M14 A3020 RMK AO2=||F||223|ICAO-KCCB
USI0000KCCB|CABLE|2017|12|10|18|55|34.1115|-117.6876|438.6|22.0||1|FM15-METAR|223|ICAO-KCCB|-14.0||1|FM15-METAR|223|ICAO-KCCB|||||||||||||260|N-Normal|1|FM15-METAR|223|ICAO-KCCB|2.1|N-Normal|1|FM15-METAR|223|ICAO-KCCB|||||||||||||8|Derived||FM15-METAR|223|ICAO-KCCB|||||||||||||||||||||||||||||||||||||||||||||||||||||||||||||||||||||||||1022.3||1|FM15-METAR|223|ICAO-KCCB|||||||||||||||||||||||||||||||||||||||||||MET062METAR KCCB 101855Z AUTO 26004KT 10SM CLR 22/M14 A3019 RMK AO2=||F||223|ICAO-KCCB
USI0000KCCB|CABLE|2017|12|10|19|15|34.1115|-117.6876|438.6|23.0||1|FM15-METAR|223|ICAO-KCCB|-13.0||1|FM15-METAR|223|ICAO-KCCB|||||||||||||230|N-Normal|1|FM15-METAR|223|ICAO-KCCB|1.5|N-Normal|1|FM15-METAR|223|ICAO-KCCB|||||||||||||8|Derived||FM15-METAR|223|ICAO-KCCB|||||||||||||||||||||||||||||||||||||||||||||||||||||||||||||||||||||||||1022.0||1|FM15-METAR|223|ICAO-KCCB|||||||||||||||||||||||||||||||||||||||||||MET062METAR KCCB 101915Z AUTO 23003KT 10SM CLR 23/M13 A3018 RMK AO2=||F||223|ICAO-KCCB
USI0000KCCB|CABLE|2017|12|10|19|35|34.1115|-117.6876|438.6|23.0||1|FM15-METAR|223|ICAO-KCCB|-15.0||1|FM15-METAR|223|ICAO-KCCB|||||||||||||260|N-Normal|1|FM15-METAR|223|ICAO-KCCB|3.1|N-Normal|1|FM15-METAR|223|ICAO-KCCB|||||||||||||7|Derived||FM15-METAR|223|ICAO-KCCB|||||||||||||||||||||||||||||||||||||||||||||||||||||||||||||||||||||||||1022.0||1|FM15-METAR|223|ICAO-KCCB|||||||||||||||||||||||||||||||||||||||||||MET062METAR KCCB 101935Z AUTO 26006KT 10SM CLR 23/M15 A3018 RMK AO2=||F||223|ICAO-KCCB
USI0000KCCB|CABLE|2017|12|10|19|55|34.1115|-117.6876|438.6|23.0||1|FM15-METAR|223|ICAO-KCCB|-16.0||1|FM15-METAR|223|ICAO-KCCB|||||||||||||270|N-Normal|1|FM15-METAR|223|ICAO-KCCB|4.1|N-Normal|1|FM15-METAR|223|ICAO-KCCB|||||||||||||6|Derived||FM15-METAR|223|ICAO-KCCB|||||||||||||||||||||||||||||||||||||||||||||||||||||||||||||||||||||||||1021.7||1|FM15-METAR|223|ICAO-KCCB|||||||||||||||||||||||||||||||||||||||||||MET062METAR KCCB 101955Z AUTO 27008KT 10SM CLR 23/M16 A3017 RMK AO2=||F||223|ICAO-KCCB
USI0000KCCB|CABLE|2017|12|10|20|15|34.1115|-117.6876|438.6|24.0||1|FM15-METAR|223|ICAO-KCCB|-15.0||1|FM15-METAR|223|ICAO-KCCB|||||||||||||280|N-Normal|1|FM15-METAR|223|ICAO-KCCB|3.6|N-Normal|1|FM15-METAR|223|ICAO-KCCB|||||||||||||6|Derived||FM15-METAR|223|ICAO-KCCB|||||||||||||||||||||||||||||||||||||||||||||||||||||||||||||||||||||||||1021.3||1|FM15-METAR|223|ICAO-KCCB|||||||||||||||||||||||||||||||||||||||||||MET062METAR KCCB 102015Z AUTO 28007KT 10SM CLR 24/M15 A3016 RMK AO2=||F||223|ICAO-KCCB
USI0000KCCB|CABLE|2017|12|10|20|35|34.1115|-117.6876|438.6|24.0||1|FM15-METAR|223|ICAO-KCCB|-15.0||1|FM15-METAR|223|ICAO-KCCB|||||||||||||290|N-Normal|1|FM15-METAR|223|ICAO-KCCB|3.1|N-Normal|1|FM15-METAR|223|ICAO-KCCB|||||||||||||6|Derived||FM15-METAR|223|ICAO-KCCB|||||||||||||||||||||||||||||||||||||||||||||||||||||||||||||||||||||||||1021.0||1|FM15-METAR|223|ICAO-KCCB|||||||||||||||||||||||||||||||||||||||||||MET062METAR KCCB 102035Z AUTO 29006KT 10SM CLR 24/M15 A3015 RMK AO2=||F||223|ICAO-KCCB
USI0000KCCB|CABLE|2017|12|10|20|55|34.1115|-117.6876|438.6|25.0||1|FM15-METAR|223|ICAO-KCCB|-15.0||1|FM15-METAR|223|ICAO-KCCB|||||||||||||280|N-Normal|1|FM15-METAR|223|ICAO-KCCB|4.1|N-Normal|1|FM15-METAR|223|ICAO-KCCB|||||||||||||6|Derived||FM15-METAR|223|ICAO-KCCB|||||||||||||||||||||||||||||||||||||||||||||||||||||||||||||||||||||||||1020.7||1|FM15-METAR|223|ICAO-KCCB|||||||||||||||||||||||||||||||||||||||||||MET062METAR KCCB 102055Z AUTO 28008KT 10SM CLR 25/M15 A3014 RMK AO2=||F||223|ICAO-KCCB
USI0000KCCB|CABLE|2017|12|10|21|15|34.1115|-117.6876|438.6|25.0||1|FM15-METAR|223|ICAO-KCCB|-15.0||1|FM15-METAR|223|ICAO-KCCB|||||||||||||270|N-Normal|1|FM15-METAR|223|ICAO-KCCB|3.6|N-Normal|1|FM15-METAR|223|ICAO-KCCB|||||||||||||6|Derived||FM15-METAR|223|ICAO-KCCB|||||||||||||||||||||||||||||||||||||||||||||||||||||||||||||||||||||||||1020.3||1|FM15-METAR|223|ICAO-KCCB|||||||||||||||||||||||||||||||||||||||||||MET062METAR KCCB 102115Z AUTO 27007KT 10SM CLR 25/M15 A3013 RMK AO2=||F||223|ICAO-KCCB
USI0000KCCB|CABLE|2017|12|10|21|35|34.1115|-117.6876|438.6|25.0||1|FM15-METAR|223|ICAO-KCCB|-14.0||1|FM15-METAR|223|ICAO-KCCB|||||||||||||250|N-Normal|1|FM15-METAR|223|ICAO-KCCB|2.6|N-Normal|1|FM15-METAR|223|ICAO-KCCB|||||||||||||6|Derived||FM15-METAR|223|ICAO-KCCB|||||||||||||||||||||||||||||||||||||||||||||||||||||||||||||||||||||||||1020.3||1|FM15-METAR|223|ICAO-KCCB|||||||||||||||||||||||||||||||||||||||||||MET062METAR KCCB 102135Z AUTO 25005KT 10SM CLR 25/M14 A3013 RMK AO2=||F||223|ICAO-KCCB
USI0000KCCB|CABLE|2017|12|10|21|55|34.1115|-117.6876|438.6|25.0||1|FM15-METAR|223|ICAO-KCCB|-14.0||1|FM15-METAR|223|ICAO-KCCB|||||||||||||250|N-Normal|1|FM15-METAR|223|ICAO-KCCB|2.1|N-Normal|1|FM15-METAR|223|ICAO-KCCB|||||||||||||6|Derived||FM15-METAR|223|ICAO-KCCB|||||||||||||||||||||||||||||||||||||||||||||||||||||||||||||||||||||||||1020.0||1|FM15-METAR|223|ICAO-KCCB|||||||||||||||||||||||||||||||||||||||||||MET062METAR KCCB 102155Z AUTO 25004KT 10SM CLR 25/M14 A3012 RMK AO2=||F||223|ICAO-KCCB
USI0000KCCB|CABLE|2017|12|10|22|15|34.1115|-117.6876|438.6|25.0||1|FM15-METAR|223|ICAO-KCCB|-13.0||1|FM15-METAR|223|ICAO-KCCB|||||||||||||260|N-Normal|1|FM15-METAR|223|ICAO-KCCB|2.6|N-Normal|1|FM15-METAR|223|ICAO-KCCB|||||||||||||7|Derived||FM15-METAR|223|ICAO-KCCB|||||||||||||||||||||||||||||||||||||||||||||||||||||||||||||||||||||||||1020.0||1|FM15-METAR|223|ICAO-KCCB|||||||||||||||||||||||||||||||||||||||||||MET062METAR KCCB 102215Z AUTO 26005KT 10SM CLR 25/M13 A3012 RMK AO2=||F||223|ICAO-KCCB
USI0000KCCB|CABLE|2017|12|10|22|35|34.1115|-117.6876|438.6|26.0||1|FM15-METAR|223|ICAO-KCCB|-13.0||1|FM15-METAR|223|ICAO-KCCB|||||||||||||280|N-Normal|1|FM15-METAR|223|ICAO-KCCB|3.6|N-Normal|1|FM15-METAR|223|ICAO-KCCB|||||||||||||7|Derived||FM15-METAR|223|ICAO-KCCB|||||||||||||||||||||||||||||||||||||||||||||||||||||||||||||||||||||||||1020.0||1|FM15-METAR|223|ICAO-KCCB|||||||||||||||||||||||||||||||||||||||||||MET062METAR KCCB 102235Z AUTO 28007KT 10SM CLR 26/M13 A3012 RMK AO2=||F||223|ICAO-KCCB
USI0000KCCB|CABLE|2017|12|10|22|55|34.1115|-117.6876|438.6|25.0||1|FM15-METAR|223|ICAO-KCCB|-13.0||1|FM15-METAR|223|ICAO-KCCB|||||||||||||290|N-Normal|1|FM15-METAR|223|ICAO-KCCB|2.6|N-Normal|1|FM15-METAR|223|ICAO-KCCB|||||||||||||7|Derived||FM15-METAR|223|ICAO-KCCB|||||||||||||||||||||||||||||||||||||||||||||||||||||||||||||||||||||||||1020.0||1|FM15-METAR|223|ICAO-KCCB|||||||||||||||||||||||||||||||||||||||||||MET062METAR KCCB 102255Z AUTO 29005KT 10SM CLR 25/M13 A3012 RMK AO2=||F||223|ICAO-KCCB
USI0000KCCB|CABLE|2017|12|10|23|15|34.1115|-117.6876|438.6|25.0||1|FM15-METAR|223|ICAO-KCCB|-12.0||1|FM15-METAR|223|ICAO-KCCB|||||||||||||280|N-Normal|1|FM15-METAR|223|ICAO-KCCB|2.6|N-Normal|1|FM15-METAR|223|ICAO-KCCB|||||||||||||8|Derived||FM15-METAR|223|ICAO-KCCB|||||||||||||||||||||||||||||||||||||||||||||||||||||||||||||||||||||||||1020.0||1|FM15-METAR|223|ICAO-KCCB|||||||||||||||||||||||||||||||||||||||||||MET062METAR KCCB 102315Z AUTO 28005KT 10SM CLR 25/M12 A3012 RMK AO2=||F||223|ICAO-KCCB
USI0000KCCB|CABLE|2017|12|10|23|35|34.1115|-117.6876|438.6|24.0||1|FM15-METAR|223|ICAO-KCCB|-11.0||1|FM15-METAR|223|ICAO-KCCB|||||||||||||280|N-Normal|1|FM15-METAR|223|ICAO-KCCB|3.1|N-Normal|1|FM15-METAR|223|ICAO-KCCB|||||||||||||9|Derived||FM15-METAR|223|ICAO-KCCB|||||||||||||||||||||||||||||||||||||||||||||||||||||||||||||||||||||||||1020.0||1|FM15-METAR|223|ICAO-KCCB|||||||||||||||||||||||||||||||||||||||||||MET062METAR KCCB 102335Z AUTO 28006KT 10SM CLR 24/M11 A3012 RMK AO2=||F||223|ICAO-KCCB
USI0000KCCB|CABLE|2017|12|10|23|55|34.1115|-117.6876|438.6|24.0||1|FM15-METAR|223|ICAO-KCCB|-11.0||1|FM15-METAR|223|ICAO-KCCB|||||||||||||290|N-Normal|1|FM15-METAR|223|ICAO-KCCB|2.1|N-Normal|1|FM15-METAR|223|ICAO-KCCB|||||||||||||9|Derived||FM15-METAR|223|ICAO-KCCB|||||||||||||||||||||||||||||||||||||||||||||||||||||||||||||||||||||||||1020.0||1|FM15-METAR|223|ICAO-KCCB|||||||||||||||||||||||||||||||||||||||||||MET062METAR KCCB 102355Z AUTO 29004KT 10SM CLR 24/M11 A3012 RMK AO2=||F||223|ICAO-KCCB
USI0000KCCB|CABLE|2017|12|11|00|15|34.1115|-117.6876|438.6|23.0||1|FM15-METAR|223|ICAO-KCCB|-10.0||1|FM15-METAR|223|ICAO-KCCB|||||||||||||999|C-Calm|9|FM15-METAR|223|ICAO-KCCB|0.0|C-Calm|1|FM15-METAR|223|ICAO-KCCB|||||||||||||10|Derived||FM15-METAR|223|ICAO-KCCB|||||||||||||||||||||||||||||||||||||||||||||||||||||||||||||||||||||||||1020.3||1|FM15-METAR|223|ICAO-KCCB|||||||||||||||||||||||||||||||||||||||||||MET062METAR KCCB 110015Z AUTO 00000KT 10SM CLR 23/M10 A3013 RMK AO2=||F||223|ICAO-KCCB
USI0000KCCB|CABLE|2017|12|11|00|35|34.1115|-117.6876|438.6|22.0||1|FM15-METAR|223|ICAO-KCCB|-10.0||1|FM15-METAR|223|ICAO-KCCB|||||||||||||320|N-Normal|1|FM15-METAR|223|ICAO-KCCB|2.6|N-Normal|1|FM15-METAR|223|ICAO-KCCB|||||||||||||11|Derived||FM15-METAR|223|ICAO-KCCB|||||||||||||||||||||||||||||||||||||||||||||||||||||||||||||||||||||||||1020.3||1|FM15-METAR|223|ICAO-KCCB|||||||||||||||||||||||||||||||||||||||||||MET062METAR KCCB 110035Z AUTO 32005KT 10SM CLR 22/M10 A3013 RMK AO2=||F||223|ICAO-KCCB
USI0000KCCB|CABLE|2017|12|11|00|55|34.1115|-117.6876|438.6|21.0||1|FM15-METAR|223|ICAO-KCCB|-10.0||1|FM15-METAR|223|ICAO-KCCB|||||||||||||360|N-Normal|1|FM15-METAR|223|ICAO-KCCB|2.6|N-Normal|1|FM15-METAR|223|ICAO-KCCB|||||||||||||12|Derived||FM15-METAR|223|ICAO-KCCB|||||||||||||||||||||||||||||||||||||||||||||||||||||||||||||||||||||||||1020.3||1|FM15-METAR|223|ICAO-KCCB|||||||||||||||||||||||||||||||||||||||||||MET062METAR KCCB 110055Z AUTO 36005KT 10SM CLR 21/M10 A3013 RMK AO2=||F||223|ICAO-KCCB
USI0000KCCB|CABLE|2017|12|11|01|15|34.1115|-117.6876|438.6|21.0||1|FM15-METAR|223|ICAO-KCCB|-11.0||1|FM15-METAR|223|ICAO-KCCB|||||||||||||999|C-Calm|9|FM15-METAR|223|ICAO-KCCB|0.0|C-Calm|1|FM15-METAR|223|ICAO-KCCB|||||||||||||11|Derived||FM15-METAR|223|ICAO-KCCB|||||||||||||||||||||||||||||||||||||||||||||||||||||||||||||||||||||||||1020.3||1|FM15-METAR|223|ICAO-KCCB|||||||||||||||||||||||||||||||||||||||||||MET062METAR KCCB 110115Z AUTO 00000KT 10SM CLR 21/M11 A3013 RMK AO2=||F||223|ICAO-KCCB
USI0000KCCB|CABLE|2017|12|11|01|35|34.1115|-117.6876|438.6|21.0||1|FM15-METAR|223|ICAO-KCCB|-10.0||1|FM15-METAR|223|ICAO-KCCB|||||||||||||350|N-Normal|1|FM15-METAR|223|ICAO-KCCB|1.5|N-Normal|1|FM15-METAR|223|ICAO-KCCB|||||||||||||12|Derived||FM15-METAR|223|ICAO-KCCB|||||||||||||||||||||||||||||||||||||||||||||||||||||||||||||||||||||||||1020.7||1|FM15-METAR|223|ICAO-KCCB|||||||||||||||||||||||||||||||||||||||||||MET062METAR KCCB 110135Z AUTO 35003KT 10SM CLR 21/M10 A3014 RMK AO2=||F||223|ICAO-KCCB
USI0000KCCB|CABLE|2017|12|11|01|55|34.1115|-117.6876|438.6|20.0||1|FM15-METAR|223|ICAO-KCCB|-10.0||1|FM15-METAR|223|ICAO-KCCB|||||||||||||999|C-Calm|9|FM15-METAR|223|ICAO-KCCB|0.0|C-Calm|1|FM15-METAR|223|ICAO-KCCB|||||||||||||12|Derived||FM15-METAR|223|ICAO-KCCB|||||||||||||||||||||||||||||||||||||||||||||||||||||||||||||||||||||||||1021.0||1|FM15-METAR|223|ICAO-KCCB|||||||||||||||||||||||||||||||||||||||||||MET062METAR KCCB 110155Z AUTO 00000KT 10SM CLR 20/M10 A3015 RMK AO2=||F||223|ICAO-KCCB
USI0000KCCB|CABLE|2017|12|11|02|15|34.1115|-117.6876|438.6|20.0||1|FM15-METAR|223|ICAO-KCCB|-11.0||1|FM15-METAR|223|ICAO-KCCB|||||||||||||999|C-Calm|9|FM15-METAR|223|ICAO-KCCB|0.0|C-Calm|1|FM15-METAR|223|ICAO-KCCB|||||||||||||11|Derived||FM15-METAR|223|ICAO-KCCB|||||||||||||||||||||||||||||||||||||||||||||||||||||||||||||||||||||||||1021.0||1|FM15-METAR|223|ICAO-KCCB|||||||||||||||||||||||||||||||||||||||||||MET062METAR KCCB 110215Z AUTO 00000KT 10SM CLR 20/M11 A3015 RMK AO2=||F||223|ICAO-KCCB
USI0000KCCB|CABLE|2017|12|11|02|35|34.1115|-117.6876|438.6|20.0||1|FM15-METAR|223|ICAO-KCCB|-11.0||1|FM15-METAR|223|ICAO-KCCB|||||||||||||360|N-Normal|1|FM15-METAR|223|ICAO-KCCB|1.5|N-Normal|1|FM15-METAR|223|ICAO-KCCB|||||||||||||11|Derived||FM15-METAR|223|ICAO-KCCB|||||||||||||||||||||||||||||||||||||||||||||||||||||||||||||||||||||||||1021.3||1|FM15-METAR|223|ICAO-KCCB|||||||||||||||||||||||||||||||||||||||||||MET062METAR KCCB 110235Z AUTO 36003KT 10SM CLR 20/M11 A3016 RMK AO2=||F||223|ICAO-KCCB
USI0000KCCB|CABLE|2017|12|11|02|55|34.1115|-117.6876|438.6|19.0||1|FM15-METAR|223|ICAO-KCCB|-10.0||1|FM15-METAR|223|ICAO-KCCB|||||||||||||999|C-Calm|9|FM15-METAR|223|ICAO-KCCB|0.0|C-Calm|1|FM15-METAR|223|ICAO-KCCB|||||||||||||13|Derived||FM15-METAR|223|ICAO-KCCB|||||||||||||||||||||||||||||||||||||||||||||||||||||||||||||||||||||||||1021.3||1|FM15-METAR|223|ICAO-KCCB|||||||||||||||||||||||||||||||||||||||||||MET062METAR KCCB 110255Z AUTO 00000KT 10SM CLR 19/M10 A3016 RMK AO2=||F||223|ICAO-KCCB
USI0000KCCB|CABLE|2017|12|11|03|15|34.1115|-117.6876|438.6|20.0||1|FM15-METAR|223|ICAO-KCCB|-12.0||1|FM15-METAR|223|ICAO-KCCB|||||||||||||999|C-Calm|9|FM15-METAR|223|ICAO-KCCB|0.0|C-Calm|1|FM15-METAR|223|ICAO-KCCB|||||||||||||10|Derived||FM15-METAR|223|ICAO-KCCB|||||||||||||||||||||||||||||||||||||||||||||||||||||||||||||||||||||||||1021.3||1|FM15-METAR|223|ICAO-KCCB|||||||||||||||||||||||||||||||||||||||||||MET062METAR KCCB 110315Z AUTO 00000KT 10SM CLR 20/M12 A3016 RMK AO2=||F||223|ICAO-KCCB
USI0000KCCB|CABLE|2017|12|11|03|35|34.1115|-117.6876|438.6|20.0||1|FM15-METAR|223|ICAO-KCCB|-9.0||1|FM15-METAR|223|ICAO-KCCB|||||||||||||999|C-Calm|9|FM15-METAR|223|ICAO-KCCB|0.0|C-Calm|1|FM15-METAR|223|ICAO-KCCB|||||||||||||13|Derived||FM15-METAR|223|ICAO-KCCB|||||||||||||||||||||||||||||||||||||||||||||||||||||||||||||||||||||||||1021.7||1|FM15-METAR|223|ICAO-KCCB|||||||||||||||||||||||||||||||||||||||||||MET062METAR KCCB 110335Z AUTO 00000KT 10SM CLR 20/M09 A3017 RMK AO2=||F||223|ICAO-KCCB
USI0000KCCB|CABLE|2017|12|11|03|55|34.1115|-117.6876|438.6|19.0||1|FM15-METAR|223|ICAO-KCCB|-10.0||1|FM15-METAR|223|ICAO-KCCB|||||||||||||999|C-Calm|9|FM15-METAR|223|ICAO-KCCB|0.0|C-Calm|1|FM15-METAR|223|ICAO-KCCB|||||||||||||13|Derived||FM15-METAR|223|ICAO-KCCB|||||||||||||||||||||||||||||||||||||||||||||||||||||||||||||||||||||||||1022.0||1|FM15-METAR|223|ICAO-KCCB|||||||||||||||||||||||||||||||||||||||||||MET062METAR KCCB 110355Z AUTO 00000KT 10SM CLR 19/M10 A3018 RMK AO2=||F||223|ICAO-KCCB
USI0000KCCB|CABLE|2017|12|11|04|15|34.1115|-117.6876|438.6|19.0||1|FM15-METAR|223|ICAO-KCCB|-10.0||1|FM15-METAR|223|ICAO-KCCB|||||||||||||350|N-Normal|1|FM15-METAR|223|ICAO-KCCB|3.1|N-Normal|1|FM15-METAR|223|ICAO-KCCB|||||||||||||13|Derived||FM15-METAR|223|ICAO-KCCB|||||||||||||||||||||||||||||||||||||||||||||||||||||||||||||||||||||||||1022.0||1|FM15-METAR|223|ICAO-KCCB|||||||||||||||||||||||||||||||||||||||||||MET062METAR KCCB 110415Z AUTO 35006KT 10SM CLR 19/M10 A3018 RMK AO2=||F||223|ICAO-KCCB
USI0000KCCB|CABLE|2017|12|11|04|35|34.1115|-117.6876|438.6|19.0||1|FM15-METAR|223|ICAO-KCCB|-12.0||1|FM15-METAR|223|ICAO-KCCB|||||||||||||350|N-Normal|1|FM15-METAR|223|ICAO-KCCB|3.1|N-Normal|1|FM15-METAR|223|ICAO-KCCB|||||||||||||11|Derived||FM15-METAR|223|ICAO-KCCB|||||||||||||||||||||||||||||||||||||||||||||||||||||||||||||||||||||||||1022.0||1|FM15-METAR|223|ICAO-KCCB|||||||||||||||||||||||||||||||||||||||||||MET062METAR KCCB 110435Z AUTO 35006KT 10SM CLR 19/M12 A3018 RMK AO2=||F||223|ICAO-KCCB
USI0000KCCB|CABLE|2017|12|11|04|55|34.1115|-117.6876|438.6|20.0||1|FM15-METAR|223|ICAO-KCCB|-13.0||1|FM15-METAR|223|ICAO-KCCB|||||||||||||350|N-Normal|1|FM15-METAR|223|ICAO-KCCB|2.6|N-Normal|1|FM15-METAR|223|ICAO-KCCB|||||||||||||10|Derived||FM15-METAR|223|ICAO-KCCB|||||||||||||||||||||||||||||||||||||||||||||||||||||||||||||||||||||||||1022.0||1|FM15-METAR|223|ICAO-KCCB|||||||||||||||||||||||||||||||||||||||||||MET062METAR KCCB 110455Z AUTO 35005KT 10SM CLR 20/M13 A3018 RMK AO2=||F||223|ICAO-KCCB
USI0000KCCB|CABLE|2017|12|11|05|15|34.1115|-117.6876|438.6|20.0||1|FM15-METAR|223|ICAO-KCCB|-13.0||1|FM15-METAR|223|ICAO-KCCB|||||||||||||999|V-Variable|9|FM15-METAR|223|ICAO-KCCB|1.5|V-Variable|1|FM15-METAR|223|ICAO-KCCB|||||||||||||10|Derived||FM15-METAR|223|ICAO-KCCB|||||||||||||||||||||||||||||||||||||||||||||||||||||||||||||||||||||||||1022.3||1|FM15-METAR|223|ICAO-KCCB|||||||||||||||||||||||||||||||||||||||||||MET062METAR KCCB 110515Z AUTO VRB03KT 10SM CLR 20/M13 A3019 RMK AO2=||F||223|ICAO-KCCB
USI0000KCCB|CABLE|2017|12|11|05|35|34.1115|-117.6876|438.6|19.0||1|FM15-METAR|223|ICAO-KCCB|-12.0||1|FM15-METAR|223|ICAO-KCCB|||||||||||||999|C-Calm|9|FM15-METAR|223|ICAO-KCCB|0.0|C-Calm|1|FM15-METAR|223|ICAO-KCCB|||||||||||||11|Derived||FM15-METAR|223|ICAO-KCCB|||||||||||||||||||||||||||||||||||||||||||||||||||||||||||||||||||||||||1022.3||1|FM15-METAR|223|ICAO-KCCB|||||||||||||||||||||||||||||||||||||||||||MET062METAR KCCB 110535Z AUTO 00000KT 10SM CLR 19/M12 A3019 RMK AO2=||F||223|ICAO-KCCB
USI0000KCCB|CABLE|2017|12|11|05|55|34.1115|-117.6876|438.6|19.0||1|FM15-METAR|223|ICAO-KCCB|-12.0||1|FM15-METAR|223|ICAO-KCCB|||||||||||||999|C-Calm|9|FM15-METAR|223|ICAO-KCCB|0.0|C-Calm|1|FM15-METAR|223|ICAO-KCCB|||||||||||||11|Derived||FM15-METAR|223|ICAO-KCCB|||||||||||||||||||||||||||||||||||||||||||||||||||||||||||||||||||||||||1022.7||1|FM15-METAR|223|ICAO-KCCB|||||||||||||||||||||||||||||||||||||||||||MET062METAR KCCB 110555Z AUTO 00000KT 10SM CLR 19/M12 A3020 RMK AO2=||F||223|ICAO-KCCB
USI0000KCCB|CABLE|2017|12|11|06|15|34.1115|-117.6876|438.6|17.0||1|FM15-METAR|223|ICAO-KCCB|-12.0||1|FM15-METAR|223|ICAO-KCCB|||||||||||||350|N-Normal|1|FM15-METAR|223|ICAO-KCCB|2.6|N-Normal|1|FM15-METAR|223|ICAO-KCCB|||||||||||||13|Derived||FM15-METAR|223|ICAO-KCCB|||||||||||||||||||||||||||||||||||||||||||||||||||||||||||||||||||||||||1022.7||1|FM15-METAR|223|ICAO-KCCB|||||||||||||||||||||||||||||||||||||||||||MET062METAR KCCB 110615Z AUTO 35005KT 10SM CLR 17/M12 A3020 RMK AO2=||F||223|ICAO-KCCB
USI0000KCCB|CABLE|2017|12|11|06|35|34.1115|-117.6876|438.6|18.0||1|FM15-METAR|223|ICAO-KCCB|-13.0||1|FM15-METAR|223|ICAO-KCCB|||||||||||||350|N-Normal|1|FM15-METAR|223|ICAO-KCCB|3.1|N-Normal|1|FM15-METAR|223|ICAO-KCCB|||||||||||||11|Derived||FM15-METAR|223|ICAO-KCCB|||||||||||||||||||||||||||||||||||||||||||||||||||||||||||||||||||||||||1022.7||1|FM15-METAR|223|ICAO-KCCB|||||||||||||||||||||||||||||||||||||||||||MET062METAR KCCB 110635Z AUTO 35006KT 10SM CLR 18/M13 A3020 RMK AO2=||F||223|ICAO-KCCB
USI0000KCCB|CABLE|2017|12|11|06|55|34.1115|-117.6876|438.6|18.0||1|FM15-METAR|223|ICAO-KCCB|-13.0||1|FM15-METAR|223|ICAO-KCCB|||||||||||||340|N-Normal|1|FM15-METAR|223|ICAO-KCCB|2.6|N-Normal|1|FM15-METAR|223|ICAO-KCCB|||||||||||||11|Derived||FM15-METAR|223|ICAO-KCCB|||||||||||||||||||||||||||||||||||||||||||||||||||||||||||||||||||||||||1022.7||1|FM15-METAR|223|ICAO-KCCB|||||||||||||||||||||||||||||||||||||||||||MET062METAR KCCB 110655Z AUTO 34005KT 10SM CLR 18/M13 A3020 RMK AO2=||F||223|ICAO-KCCB
USI0000KCCB|CABLE|2017|12|11|07|15|34.1115|-117.6876|438.6|17.0||1|FM15-METAR|223|ICAO-KCCB|-12.0||1|FM15-METAR|223|ICAO-KCCB|||||||||||||360|N-Normal|1|FM15-METAR|223|ICAO-KCCB|1.5|N-Normal|1|FM15-METAR|223|ICAO-KCCB|||||||||||||13|Derived||FM15-METAR|223|ICAO-KCCB|||||||||||||||||||||||||||||||||||||||||||||||||||||||||||||||||||||||||1022.7||1|FM15-METAR|223|ICAO-KCCB|||||||||||||||||||||||||||||||||||||||||||MET062METAR KCCB 110715Z AUTO 36003KT 10SM CLR 17/M12 A3020 RMK AO2=||F||223|ICAO-KCCB
USI0000KCCB|CABLE|2017|12|11|07|35|34.1115|-117.6876|438.6|17.0||1|FM15-METAR|223|ICAO-KCCB|-13.0||1|FM15-METAR|223|ICAO-KCCB|||||||||||||999|C-Calm|9|FM15-METAR|223|ICAO-KCCB|0.0|C-Calm|1|FM15-METAR|223|ICAO-KCCB|||||||||||||12|Derived||FM15-METAR|223|ICAO-KCCB|||||||||||||||||||||||||||||||||||||||||||||||||||||||||||||||||||||||||1022.7||1|FM15-METAR|223|ICAO-KCCB|||||||||||||||||||||||||||||||||||||||||||MET062METAR KCCB 110735Z AUTO 00000KT 10SM CLR 17/M13 A3020 RMK AO2=||F||223|ICAO-KCCB
USI0000KCCB|CABLE|2017|12|11|07|55|34.1115|-117.6876|438.6|15.0||1|FM15-METAR|223|ICAO-KCCB|-12.0||1|FM15-METAR|223|ICAO-KCCB|||||||||||||340|N-Normal|1|FM15-METAR|223|ICAO-KCCB|2.6|N-Normal|1|FM15-METAR|223|ICAO-KCCB|||||||||||||14|Derived||FM15-METAR|223|ICAO-KCCB|||||||||||||||||||||||||||||||||||||||||||||||||||||||||||||||||||||||||1022.3||1|FM15-METAR|223|ICAO-KCCB|||||||||||||||||||||||||||||||||||||||||||MET062METAR KCCB 110755Z AUTO 34005KT 10SM CLR 15/M12 A3019 RMK AO2=||F||223|ICAO-KCCB
USI0000KCCB|CABLE|2017|12|11|08|15|34.1115|-117.6876|438.6|16.0||1|FM15-METAR|223|ICAO-KCCB|-13.0||1|FM15-METAR|223|ICAO-KCCB|||||||||||||340|N-Normal|1|FM15-METAR|223|ICAO-KCCB|2.1|N-Normal|1|FM15-METAR|223|ICAO-KCCB|||||||||||||12|Derived||FM15-METAR|223|ICAO-KCCB|||||||||||||||||||||||||||||||||||||||||||||||||||||||||||||||||||||||||1022.3||1|FM15-METAR|223|ICAO-KCCB|||||||||||||||||||||||||||||||||||||||||||MET062METAR KCCB 110815Z AUTO 34004KT 10SM CLR 16/M13 A3019 RMK AO2=||F||223|ICAO-KCCB
USI0000KCCB|CABLE|2017|12|11|08|35|34.1115|-117.6876|438.6|17.0||1|FM15-METAR|223|ICAO-KCCB|-14.0||1|FM15-METAR|223|ICAO-KCCB|||||||||||||260|N-Normal|1|FM15-METAR|223|ICAO-KCCB|2.1|N-Normal|1|FM15-METAR|223|ICAO-KCCB|||||||||||||11|Derived||FM15-METAR|223|ICAO-KCCB|||||||||||||||||||||||||||||||||||||||||||||||||||||||||||||||||||||||||1022.3||1|FM15-METAR|223|ICAO-KCCB|||||||||||||||||||||||||||||||||||||||||||MET062METAR KCCB 110835Z AUTO 26004KT 10SM CLR 17/M14 A3019 RMK AO2=||F||223|ICAO-KCCB
USI0000KCCB|CABLE|2017|12|11|08|55|34.1115|-117.6876|438.6|17.0||1|FM15-METAR|223|ICAO-KCCB|-13.0||1|FM15-METAR|223|ICAO-KCCB|||||||||||||240|N-Normal|1|FM15-METAR|223|ICAO-KCCB|2.1|N-Normal|1|FM15-METAR|223|ICAO-KCCB|||||||||||||12|Derived||FM15-METAR|223|ICAO-KCCB|||||||||||||||||||||||||||||||||||||||||||||||||||||||||||||||||||||||||1022.3||1|FM15-METAR|223|ICAO-KCCB|||||||||||||||||||||||||||||||||||||||||||MET062METAR KCCB 110855Z AUTO 24004KT 10SM CLR 17/M13 A3019 RMK AO2=||F||223|ICAO-KCCB
USI0000KCCB|CABLE|2017|12|11|09|15|34.1115|-117.6876|438.6|17.0||1|FM15-METAR|223|ICAO-KCCB|-12.0||1|FM15-METAR|223|ICAO-KCCB|||||||||||||280|N-Normal|1|FM15-METAR|223|ICAO-KCCB|1.5|N-Normal|1|FM15-METAR|223|ICAO-KCCB|||||||||||||13|Derived||FM15-METAR|223|ICAO-KCCB|||||||||||||||||||||||||||||||||||||||||||||||||||||||||||||||||||||||||1022.7||1|FM15-METAR|223|ICAO-KCCB|||||||||||||||||||||||||||||||||||||||||||MET062METAR KCCB 110915Z AUTO 28003KT 10SM CLR 17/M12 A3020 RMK AO2=||F||223|ICAO-KCCB
USI0000KCCB|CABLE|2017|12|11|09|35|34.1115|-117.6876|438.6|16.0||1|FM15-METAR|223|ICAO-KCCB|-12.0||1|FM15-METAR|223|ICAO-KCCB|||||||||||||310|N-Normal|1|FM15-METAR|223|ICAO-KCCB|2.1|N-Normal|1|FM15-METAR|223|ICAO-KCCB|||||||||||||13|Derived||FM15-METAR|223|ICAO-KCCB|||||||||||||||||||||||||||||||||||||||||||||||||||||||||||||||||||||||||1022.7||1|FM15-METAR|223|ICAO-KCCB|||||||||||||||||||||||||||||||||||||||||||MET062METAR KCCB 110935Z AUTO 31004KT 10SM CLR 16/M12 A3020 RMK AO2=||F||223|ICAO-KCCB
USI0000KCCB|CABLE|2017|12|11|09|55|34.1115|-117.6876|438.6|15.0||1|FM15-METAR|223|ICAO-KCCB|-13.0||1|FM15-METAR|223|ICAO-KCCB|||||||||||||340|N-Normal|1|FM15-METAR|223|ICAO-KCCB|3.1|N-Normal|1|FM15-METAR|223|ICAO-KCCB|||||||||||||13|Derived||FM15-METAR|223|ICAO-KCCB|||||||||||||||||||||||||||||||||||||||||||||||||||||||||||||||||||||||||1022.7||1|FM15-METAR|223|ICAO-KCCB|||||||||||||||||||||||||||||||||||||||||||MET062METAR KCCB 110955Z AUTO 34006KT 10SM CLR 15/M13 A3020 RMK AO2=||F||223|ICAO-KCCB
USI0000KCCB|CABLE|2017|12|11|10|15|34.1115|-117.6876|438.6|16.0||1|FM15-METAR|223|ICAO-KCCB|-14.0||1|FM15-METAR|223|ICAO-KCCB|||||||||||||330|N-Normal|1|FM15-METAR|223|ICAO-KCCB|2.6|N-Normal|1|FM15-METAR|223|ICAO-KCCB|||||||||||||11|Derived||FM15-METAR|223|ICAO-KCCB|||||||||||||||||||||||||||||||||||||||||||||||||||||||||||||||||||||||||1022.7||1|FM15-METAR|223|ICAO-KCCB|||||||||||||||||||||||||||||||||||||||||||MET062METAR KCCB 111015Z AUTO 33005KT 10SM CLR 16/M14 A3020 RMK AO2=||F||223|ICAO-KCCB
USI0000KCCB|CABLE|2017|12|11|10|35|34.1115|-117.6876|438.6|16.0||1|FM15-METAR|223|ICAO-KCCB|-14.0||1|FM15-METAR|223|ICAO-KCCB|||||||||||||330|N-Normal|1|FM15-METAR|223|ICAO-KCCB|2.6|N-Normal|1|FM15-METAR|223|ICAO-KCCB|||||||||||||11|Derived||FM15-METAR|223|ICAO-KCCB|||||||||||||||||||||||||||||||||||||||||||||||||||||||||||||||||||||||||1022.3||1|FM15-METAR|223|ICAO-KCCB|||||||||||||||||||||||||||||||||||||||||||MET062METAR KCCB 111035Z AUTO 33005KT 10SM CLR 16/M14 A3019 RMK AO2=||F||223|ICAO-KCCB
USI0000KCCB|CABLE|2017|12|11|10|55|34.1115|-117.6876|438.6|16.0||1|FM15-METAR|223|ICAO-KCCB|-14.0||1|FM15-METAR|223|ICAO-KCCB|||||||||||||340|N-Normal|1|FM15-METAR|223|ICAO-KCCB|2.1|N-Normal|1|FM15-METAR|223|ICAO-KCCB|||||||||||||11|Derived||FM15-METAR|223|ICAO-KCCB|||||||||||||||||||||||||||||||||||||||||||||||||||||||||||||||||||||||||1022.3||1|FM15-METAR|223|ICAO-KCCB|||||||||||||||||||||||||||||||||||||||||||MET062METAR KCCB 111055Z AUTO 34004KT 10SM CLR 16/M14 A3019 RMK AO2=||F||223|ICAO-KCCB
USI0000KCCB|CABLE|2017|12|11|11|15|34.1115|-117.6876|438.6|17.0||1|FM15-METAR|223|ICAO-KCCB|-15.0||1|FM15-METAR|223|ICAO-KCCB|||||||||||||310|N-Normal|1|FM15-METAR|223|ICAO-KCCB|1.5|N-Normal|1|FM15-METAR|223|ICAO-KCCB|||||||||||||10|Derived||FM15-METAR|223|ICAO-KCCB|||||||||||||||||||||||||||||||||||||||||||||||||||||||||||||||||||||||||1022.0||1|FM15-METAR|223|ICAO-KCCB|||||||||||||||||||||||||||||||||||||||||||MET062METAR KCCB 111115Z AUTO 31003KT 10SM CLR 17/M15 A3018 RMK AO2=||F||223|ICAO-KCCB
USI0000KCCB|CABLE|2017|12|11|11|35|34.1115|-117.6876|438.6|16.0||1|FM15-METAR|223|ICAO-KCCB|-15.0||1|FM15-METAR|223|ICAO-KCCB|||||||||||||999|C-Calm|9|FM15-METAR|223|ICAO-KCCB|0.0|C-Calm|1|FM15-METAR|223|ICAO-KCCB|||||||||||||11|Derived||FM15-METAR|223|ICAO-KCCB|||||||||||||||||||||||||||||||||||||||||||||||||||||||||||||||||||||||||1022.0||1|FM15-METAR|223|ICAO-KCCB|||||||||||||||||||||||||||||||||||||||||||MET062METAR KCCB 111135Z AUTO 00000KT 10SM CLR 16/M15 A3018 RMK AO2=||F||223|ICAO-KCCB
USI0000KCCB|CABLE|2017|12|11|11|55|34.1115|-117.6876|438.6|16.0||1|FM15-METAR|223|ICAO-KCCB|-15.0||1|FM15-METAR|223|ICAO-KCCB|||||||||||||999|C-Calm|9|FM15-METAR|223|ICAO-KCCB|0.0|C-Calm|1|FM15-METAR|223|ICAO-KCCB|||||||||||||11|Derived||FM15-METAR|223|ICAO-KCCB|||||||||||||||||||||||||||||||||||||||||||||||||||||||||||||||||||||||||1022.0||1|FM15-METAR|223|ICAO-KCCB|||||||||||||||||||||||||||||||||||||||||||MET062METAR KCCB 111155Z AUTO 00000KT 10SM CLR 16/M15 A3018 RMK AO2=||F||223|ICAO-KCCB
USI0000KCCB|CABLE|2017|12|11|12|15|34.1115|-117.6876|438.6|15.0||1|FM15-METAR|223|ICAO-KCCB|-13.0||1|FM15-METAR|223|ICAO-KCCB|||||||||||||999|C-Calm|9|FM15-METAR|223|ICAO-KCCB|0.0|C-Calm|1|FM15-METAR|223|ICAO-KCCB|||||||||||||13|Derived||FM15-METAR|223|ICAO-KCCB|||||||||||||||||||||||||||||||||||||||||||||||||||||||||||||||||||||||||1022.0||1|FM15-METAR|223|ICAO-KCCB|||||||||||||||||||||||||||||||||||||||||||MET062METAR KCCB 111215Z AUTO 00000KT 10SM CLR 15/M13 A3018 RMK AO2=||F||223|ICAO-KCCB
USI0000KCCB|CABLE|2017|12|11|12|35|34.1115|-117.6876|438.6|15.0||1|FM15-METAR|223|ICAO-KCCB|-13.0||1|FM15-METAR|223|ICAO-KCCB|||||||||||||999|C-Calm|9|FM15-METAR|223|ICAO-KCCB|0.0|C-Calm|1|FM15-METAR|223|ICAO-KCCB|||||||||||||13|Derived||FM15-METAR|223|ICAO-KCCB|||||||||||||||||||||||||||||||||||||||||||||||||||||||||||||||||||||||||1022.0||1|FM15-METAR|223|ICAO-KCCB|||||||||||||||||||||||||||||||||||||||||||MET062METAR KCCB 111235Z AUTO 00000KT 10SM CLR 15/M13 A3018 RMK AO2=||F||223|ICAO-KCCB
USI0000KCCB|CABLE|2017|12|11|12|55|34.1115|-117.6876|438.6|14.0||1|FM15-METAR|223|ICAO-KCCB|-14.0||1|FM15-METAR|223|ICAO-KCCB|||||||||||||340|N-Normal|1|FM15-METAR|223|ICAO-KCCB|2.1|N-Normal|1|FM15-METAR|223|ICAO-KCCB|||||||||||||13|Derived||FM15-METAR|223|ICAO-KCCB|||||||||||||||||||||||||||||||||||||||||||||||||||||||||||||||||||||||||1021.7||1|FM15-METAR|223|ICAO-KCCB|||||||||||||||||||||||||||||||||||||||||||MET062METAR KCCB 111255Z AUTO 34004KT 10SM CLR 14/M14 A3017 RMK AO2=||F||223|ICAO-KCCB
USI0000KCCB|CABLE|2017|12|11|13|15|34.1115|-117.6876|438.6|15.0||1|FM15-METAR|223|ICAO-KCCB|-15.0||1|FM15-METAR|223|ICAO-KCCB|||||||||||||320|N-Normal|1|FM15-METAR|223|ICAO-KCCB|1.5|N-Normal|1|FM15-METAR|223|ICAO-KCCB|||||||||||||11|Derived||FM15-METAR|223|ICAO-KCCB|||||||||||||||||||||||||||||||||||||||||||||||||||||||||||||||||||||||||1022.0||1|FM15-METAR|223|ICAO-KCCB|||||||||||||||||||||||||||||||||||||||||||MET062METAR KCCB 111315Z AUTO 32003KT 10SM CLR 15/M15 A3018 RMK AO2=||F||223|ICAO-KCCB
USI0000KCCB|CABLE|2017|12|11|13|35|34.1115|-117.6876|438.6|15.0||1|FM15-METAR|223|ICAO-KCCB|-15.0||1|FM15-METAR|223|ICAO-KCCB|||||||||||||999|C-Calm|9|FM15-METAR|223|ICAO-KCCB|0.0|C-Calm|1|FM15-METAR|223|ICAO-KCCB|||||||||||||11|Derived||FM15-METAR|223|ICAO-KCCB|||||||||||||||||||||||||||||||||||||||||||||||||||||||||||||||||||||||||1022.0||1|FM15-METAR|223|ICAO-KCCB|||||||||||||||||||||||||||||||||||||||||||MET062METAR KCCB 111335Z AUTO 00000KT 10SM CLR 15/M15 A3018 RMK AO2=||F||223|ICAO-KCCB
USI0000KCCB|CABLE|2017|12|11|13|55|34.1115|-117.6876|438.6|15.0||1|FM15-METAR|223|ICAO-KCCB|-15.0||1|FM15-METAR|223|ICAO-KCCB|||||||||||||340|N-Normal|1|FM15-METAR|223|ICAO-KCCB|2.1|N-Normal|1|FM15-METAR|223|ICAO-KCCB|||||||||||||11|Derived||FM15-METAR|223|ICAO-KCCB|||||||||||||||||||||||||||||||||||||||||||||||||||||||||||||||||||||||||1022.3||1|FM15-METAR|223|ICAO-KCCB|||||||||||||||||||||||||||||||||||||||||||MET062METAR KCCB 111355Z AUTO 34004KT 10SM CLR 15/M15 A3019 RMK AO2=||F||223|ICAO-KCCB
USI0000KCCB|CABLE|2017|12|11|14|15|34.1115|-117.6876|438.6|15.0||1|FM15-METAR|223|ICAO-KCCB|-15.0||1|FM15-METAR|223|ICAO-KCCB|||||||||||||350|N-Normal|1|FM15-METAR|223|ICAO-KCCB|2.6|N-Normal|1|FM15-METAR|223|ICAO-KCCB|||||||||||||11|Derived||FM15-METAR|223|ICAO-KCCB|||||||||||||||||||||||||||||||||||||||||||||||||||||||||||||||||||||||||1022.3||1|FM15-METAR|223|ICAO-KCCB|||||||||||||||||||||||||||||||||||||||||||MET062METAR KCCB 111415Z AUTO 35005KT 10SM CLR 15/M15 A3019 RMK AO2=||F||223|ICAO-KCCB
USI0000KCCB|CABLE|2017|12|11|14|35|34.1115|-117.6876|438.6|16.0||1|FM15-METAR|223|ICAO-KCCB|-16.0||1|FM15-METAR|223|ICAO-KCCB|||||||||||||330|N-Normal|1|FM15-METAR|223|ICAO-KCCB|2.1|N-Normal|1|FM15-METAR|223|ICAO-KCCB|||||||||||||10|Derived||FM15-METAR|223|ICAO-KCCB|||||||||||||||||||||||||||||||||||||||||||||||||||||||||||||||||||||||||1022.7||1|FM15-METAR|223|ICAO-KCCB|||||||||||||||||||||||||||||||||||||||||||MET062METAR KCCB 111435Z AUTO 33004KT 10SM CLR 16/M16 A3020 RMK AO2=||F||223|ICAO-KCCB
USI0000KCCB|CABLE|2017|12|11|14|55|34.1115|-117.6876|438.6|14.0||1|FM15-METAR|223|ICAO-KCCB|-14.0||1|FM15-METAR|223|ICAO-KCCB|||||||||||||350|N-Normal|1|FM15-METAR|223|ICAO-KCCB|2.1|N-Normal|1|FM15-METAR|223|ICAO-KCCB|||||||||||||13|Derived||FM15-METAR|223|ICAO-KCCB|||||||||||||||||||||||||||||||||||||||||||||||||||||||||||||||||||||||||1022.7||1|FM15-METAR|223|ICAO-KCCB|||||||||||||||||||||||||||||||||||||||||||MET062METAR KCCB 111455Z AUTO 35004KT 10SM CLR 14/M14 A3020 RMK AO2=||F||223|ICAO-KCCB
USI0000KCCB|CABLE|2017|12|11|15|15|34.1115|-117.6876|438.6|16.0||1|FM15-METAR|223|ICAO-KCCB|-16.0||1|FM15-METAR|223|ICAO-KCCB|||||||||||||999|C-Calm|9|FM15-METAR|223|ICAO-KCCB|0.0|C-Calm|1|FM15-METAR|223|ICAO-KCCB|||||||||||||10|Derived||FM15-METAR|223|ICAO-KCCB|||||||||||||||||||||||||||||||||||||||||||||||||||||||||||||||||||||||||1023.0||1|FM15-METAR|223|ICAO-KCCB|||||||||||||||||||||||||||||||||||||||||||MET062METAR KCCB 111515Z AUTO 00000KT 10SM CLR 16/M16 A3021 RMK AO2=||F||223|ICAO-KCCB
USI0000KCCB|CABLE|2017|12|11|15|35|34.1115|-117.6876|438.6|16.0||1|FM15-METAR|223|ICAO-KCCB|-14.0||1|FM15-METAR|223|ICAO-KCCB|||||||||||||280|N-Normal|1|FM15-METAR|223|ICAO-KCCB|2.1|N-Normal|1|FM15-METAR|223|ICAO-KCCB|||||||||||||11|Derived||FM15-METAR|223|ICAO-KCCB|||||||||||||||||||||||||||||||||||||||||||||||||||||||||||||||||||||||||1023.4||1|FM15-METAR|223|ICAO-KCCB|||||||||||||||||||||||||||||||||||||||||||MET061METAR KCCB 111535Z AUTO 28004KT 8SM CLR 16/M14 A3022 RMK AO2=||F||223|ICAO-KCCB
USI0000KCCB|CABLE|2017|12|11|15|55|34.1115|-117.6876|438.6|16.0||1|FM15-METAR|223|ICAO-KCCB|-13.0||1|FM15-METAR|223|ICAO-KCCB|||||||||||||999|C-Calm|9|FM15-METAR|223|ICAO-KCCB|0.0|C-Calm|1|FM15-METAR|223|ICAO-KCCB|||||||||||||12|Derived||FM15-METAR|223|ICAO-KCCB|||||||||||||||||||||||||||||||||||||||||||||||||||||||||||||||||||||||||1023.4||1|FM15-METAR|223|ICAO-KCCB|||||||||||||||||||||||||||||||||||||||||||MET064METAR KCCB 111555Z AUTO 00000KT 6SM HZ CLR 16/M13 A3022 RMK AO2=||F||223|ICAO-KCCB
USI0000KCCB|CABLE|2017|12|11|16|15|34.1115|-117.6876|438.6|18.0||1|FM15-METAR|223|ICAO-KCCB|-14.0||1|FM15-METAR|223|ICAO-KCCB|||||||||||||999|C-Calm|9|FM15-METAR|223|ICAO-KCCB|0.0|C-Calm|1|FM15-METAR|223|ICAO-KCCB|||||||||||||10|Derived||FM15-METAR|223|ICAO-KCCB|||||||||||||||||||||||||||||||||||||||||||||||||||||||||||||||||||||||||1023.7||1|FM15-METAR|223|ICAO-KCCB|||||||||||||||||||||||||||||||||||||||||||MET061METAR KCCB 111615Z AUTO 00000KT 8SM CLR 18/M14 A3023 RMK AO2=||F||223|ICAO-KCCB
USI0000KCCB|CABLE|2017|12|11|16|35|34.1115|-117.6876|438.6|18.0||1|FM15-METAR|223|ICAO-KCCB|-16.0||1|FM15-METAR|223|ICAO-KCCB|||||||||||||999|C-Calm|9|FM15-METAR|223|ICAO-KCCB|0.0|C-Calm|1|FM15-METAR|223|ICAO-KCCB|||||||||||||8|Derived||FM15-METAR|223|ICAO-KCCB|||||||||||||||||||||||||||||||||||||||||||||||||||||||||||||||||||||||||1023.7||1|FM15-METAR|223|ICAO-KCCB|||||||||||||||||||||||||||||||||||||||||||MET062METAR KCCB 111635Z AUTO 00000KT 10SM CLR 18/M16 A3023 RMK AO2=||F||223|ICAO-KCCB
USI0000KCCB|CABLE|2017|12|11|16|55|34.1115|-117.6876|438.6|19.0||1|FM15-METAR|223|ICAO-KCCB|-16.0||1|FM15-METAR|223|ICAO-KCCB|||||||||||||999|C-Calm|9|FM15-METAR|223|ICAO-KCCB|0.0|C-Calm|1|FM15-METAR|223|ICAO-KCCB|||||||||||||8|Derived||FM15-METAR|223|ICAO-KCCB|||||||||||||||||||||||||||||||||||||||||||||||||||||||||||||||||||||||||1024.0||1|FM15-METAR|223|ICAO-KCCB|||||||||||||||||||||||||||||||||||||||||||MET062METAR KCCB 111655Z AUTO 00000KT 10SM CLR 19/M16 A3024 RMK AO2=||F||223|ICAO-KCCB
USI0000KCCB|CABLE|2017|12|11|17|15|34.1115|-117.6876|438.6|20.0||1|FM15-METAR|223|ICAO-KCCB|-15.0||1|FM15-METAR|223|ICAO-KCCB|||||||||||||220|N-Normal|1|FM15-METAR|223|ICAO-KCCB|1.5|N-Normal|1|FM15-METAR|223|ICAO-KCCB|||||||||||||8|Derived||FM15-METAR|223|ICAO-KCCB|||||||||||||||||||||||||||||||||||||||||||||||||||||||||||||||||||||||||1024.4||1|FM15-METAR|223|ICAO-KCCB|||||||||||||||||||||||||||||||||||||||||||MET062METAR KCCB 111715Z AUTO 22003KT 10SM CLR 20/M15 A3025 RMK AO2=||F||223|ICAO-KCCB
USI0000KCCB|CABLE|2017|12|11|17|35|34.1115|-117.6876|438.6|20.0||1|FM15-METAR|223|ICAO-KCCB|-16.0||1|FM15-METAR|223|ICAO-KCCB|||||||||||||240|N-Normal|1|FM15-METAR|223|ICAO-KCCB|1.5|N-Normal|1|FM15-METAR|223|ICAO-KCCB|||||||||||||7|Derived||FM15-METAR|223|ICAO-KCCB|||||||||||||||||||||||||||||||||||||||||||||||||||||||||||||||||||||||||1024.4||1|FM15-METAR|223|ICAO-KCCB|||||||||||||||||||||||||||||||||||||||||||MET062METAR KCCB 111735Z AUTO 24003KT 10SM CLR 20/M16 A3025 RMK AO2=||F||223|ICAO-KCCB
USI0000KCCB|CABLE|2017|12|11|17|55|34.1115|-117.6876|438.6|20.0||1|FM15-METAR|223|ICAO-KCCB|-15.0||1|FM15-METAR|223|ICAO-KCCB|||||||||||||999|C-Calm|9|FM15-METAR|223|ICAO-KCCB|0.0|C-Calm|1|FM15-METAR|223|ICAO-KCCB|||||||||||||8|Derived||FM15-METAR|223|ICAO-KCCB|||||||||||||||||||||||||||||||||||||||||||||||||||||||||||||||||||||||||1024.4||1|FM15-METAR|223|ICAO-KCCB|||||||||||||||||||||||||||||||||||||||||||MET062METAR KCCB 111755Z AUTO 00000KT 10SM CLR 20/M15 A3025 RMK AO2=||F||223|ICAO-KCCB
USI0000KCCB|CABLE|2017|12|11|18|15|34.1115|-117.6876|438.6|21.0||1|FM15-METAR|223|ICAO-KCCB|-15.0||1|FM15-METAR|223|ICAO-KCCB|||||||||||||240|N-Normal|1|FM15-METAR|223|ICAO-KCCB|2.1|N-Normal|1|FM15-METAR|223|ICAO-KCCB|||||||||||||8|Derived||FM15-METAR|223|ICAO-KCCB|||||||||||||||||||||||||||||||||||||||||||||||||||||||||||||||||||||||||1024.0||1|FM15-METAR|223|ICAO-KCCB|||||||||||||||||||||||||||||||||||||||||||MET062METAR KCCB 111815Z AUTO 24004KT 10SM CLR 21/M15 A3024 RMK AO2=||F||223|ICAO-KCCB
USI0000KCCB|CABLE|2017|12|11|18|35|34.1115|-117.6876|438.6|22.0||1|FM15-METAR|223|ICAO-KCCB|-15.0||1|FM15-METAR|223|ICAO-KCCB|||||||||||||999|V-Variable|9|FM15-METAR|223|ICAO-KCCB|2.1|V-Variable|1|FM15-METAR|223|ICAO-KCCB|||||||||||||7|Derived||FM15-METAR|223|ICAO-KCCB|||||||||||||||||||||||||||||||||||||||||||||||||||||||||||||||||||||||||1024.0||1|FM15-METAR|223|ICAO-KCCB|||||||||||||||||||||||||||||||||||||||||||MET062METAR KCCB 111835Z AUTO VRB04KT 10SM CLR 22/M15 A3024 RMK AO2=||F||223|ICAO-KCCB
USI0000KCCB|CABLE|2017|12|11|18|55|34.1115|-117.6876|438.6|23.0||1|FM15-METAR|223|ICAO-KCCB|-15.0||1|FM15-METAR|223|ICAO-KCCB|||||||||||||250|N-Normal|1|FM15-METAR|223|ICAO-KCCB|2.6|N-Normal|1|FM15-METAR|223|ICAO-KCCB|||||||||||||7|Derived||FM15-METAR|223|ICAO-KCCB|||||||||||||||||||||||||||||||||||||||||||||||||||||||||||||||||||||||||1023.7||1|FM15-METAR|223|ICAO-KCCB|||||||||||||||||||||||||||||||||||||||||||MET062METAR KCCB 111855Z AUTO 25005KT 10SM CLR 23/M15 A3023 RMK AO2=||F||223|ICAO-KCCB
USI0000KCCB|CABLE|2017|12|11|19|15|34.1115|-117.6876|438.6|23.0||1|FM15-METAR|223|ICAO-KCCB|-14.0||1|FM15-METAR|223|ICAO-KCCB|||||||||||||240|N-Normal|1|FM15-METAR|223|ICAO-KCCB|3.1|N-Normal|1|FM15-METAR|223|ICAO-KCCB|||||||||||||7|Derived||FM15-METAR|223|ICAO-KCCB|||||||||||||||||||||||||||||||||||||||||||||||||||||||||||||||||||||||||1023.7||1|FM15-METAR|223|ICAO-KCCB|||||||||||||||||||||||||||||||||||||||||||MET062METAR KCCB 111915Z AUTO 24006KT 10SM CLR 23/M14 A3023 RMK AO2=||F||223|ICAO-KCCB
USI0000KCCB|CABLE|2017|12|11|19|35|34.1115|-117.6876|438.6|24.0||1|FM15-METAR|223|ICAO-KCCB|-15.0||1|FM15-METAR|223|ICAO-KCCB|||||||||||||230|N-Normal|1|FM15-METAR|223|ICAO-KCCB|4.6|N-Normal|1|FM15-METAR|223|ICAO-KCCB|||||||||||||6|Derived||FM15-METAR|223|ICAO-KCCB|||||||||||||||||||||||||||||||||||||||||||||||||||||||||||||||||||||||||1023.4||1|FM15-METAR|223|ICAO-KCCB|||||||||||||||||||||||||||||||||||||||||||MET062METAR KCCB 111935Z AUTO 23009KT 10SM CLR 24/M15 A3022 RMK AO2=||F||223|ICAO-KCCB
USI0000KCCB|CABLE|2017|12|11|19|55|34.1115|-117.6876|438.6|24.0||1|FM15-METAR|223|ICAO-KCCB|-14.0||1|FM15-METAR|223|ICAO-KCCB|||||||||||||270|N-Normal|1|FM15-METAR|223|ICAO-KCCB|3.6|N-Normal|1|FM15-METAR|223|ICAO-KCCB|||||||||||||7|Derived||FM15-METAR|223|ICAO-KCCB|||||||||||||||||||||||||||||||||||||||||||||||||||||||||||||||||||||||||1023.4||1|FM15-METAR|223|ICAO-KCCB|||||||||||||||||||||||||||||||||||||||||||MET062METAR KCCB 111955Z AUTO 27007KT 10SM CLR 24/M14 A3022 RMK AO2=||F||223|ICAO-KCCB
USI0000KCCB|CABLE|2017|12|11|20|15|34.1115|-117.6876|438.6|24.0||1|FM15-METAR|223|ICAO-KCCB|-16.0||1|FM15-METAR|223|ICAO-KCCB|||||||||||||240|N-Normal|1|FM15-METAR|223|ICAO-KCCB|2.6|N-Normal|1|FM15-METAR|223|ICAO-KCCB|6.7||1|FM15-METAR|223|ICAO-KCCB|||||||6|Derived||FM15-METAR|223|ICAO-KCCB|||||||||||||||||||||||||||||||||||||||||||||||||||||||||||||||||||||||||1023.0||1|FM15-METAR|223|ICAO-KCCB|||||||||||||||||||||||||||||||||||||||||||MET065METAR KCCB 112015Z AUTO 24005G13KT 10SM CLR 24/M16 A3021 RMK AO2=||F||223|ICAO-KCCB
USI0000KCCB|CABLE|2017|12|11|20|35|34.1115|-117.6876|438.6|25.0||1|FM15-METAR|223|ICAO-KCCB|-15.0||1|FM15-METAR|223|ICAO-KCCB|||||||||||||220|N-Normal|1|FM15-METAR|223|ICAO-KCCB|2.6|N-Normal|1|FM15-METAR|223|ICAO-KCCB|||||||||||||6|Derived||FM15-METAR|223|ICAO-KCCB|||||||||||||||||||||||||||||||||||||||||||||||||||||||||||||||||||||||||1022.7||1|FM15-METAR|223|ICAO-KCCB|||||||||||||||||||||||||||||||||||||||||||MET062METAR KCCB 112035Z AUTO 22005KT 10SM CLR 25/M15 A3020 RMK AO2=||F||223|ICAO-KCCB
USI0000KCCB|CABLE|2017|12|11|20|55|34.1115|-117.6876|438.6|25.0||1|FM15-METAR|223|ICAO-KCCB|-16.0||1|FM15-METAR|223|ICAO-KCCB|||||||||||||999|V-Variable|9|FM15-METAR|223|ICAO-KCCB|3.1|V-Variable|1|FM15-METAR|223|ICAO-KCCB|||||||||||||5|Derived||FM15-METAR|223|ICAO-KCCB|||||||||||||||||||||||||||||||||||||||||||||||||||||||||||||||||||||||||1022.3||1|FM15-METAR|223|ICAO-KCCB|||||||||||||||||||||||||||||||||||||||||||MET062METAR KCCB 112055Z AUTO VRB06KT 10SM CLR 25/M16 A3019 RMK AO2=||F||223|ICAO-KCCB
USI0000KCCB|CABLE|2017|12|11|21|15|34.1115|-117.6876|438.6|25.0||1|FM15-METAR|223|ICAO-KCCB|-16.0||1|FM15-METAR|223|ICAO-KCCB|||||||||||||260|N-Normal|1|FM15-METAR|223|ICAO-KCCB|3.1|N-Normal|1|FM15-METAR|223|ICAO-KCCB|||||||||||||5|Derived||FM15-METAR|223|ICAO-KCCB|||||||||||||||||||||||||||||||||||||||||||||||||||||||||||||||||||||||||1022.3||1|FM15-METAR|223|ICAO-KCCB|||||||||||||||||||||||||||||||||||||||||||MET062METAR KCCB 112115Z AUTO 26006KT 10SM CLR 25/M16 A3019 RMK AO2=||F||223|ICAO-KCCB
USI0000KCCB|CABLE|2017|12|11|21|35|34.1115|-117.6876|438.6|26.0||1|FM15-METAR|223|ICAO-KCCB|-16.0||1|FM15-METAR|223|ICAO-KCCB|||||||||||||260|N-Normal|1|FM15-METAR|223|ICAO-KCCB|2.1|N-Normal|1|FM15-METAR|223|ICAO-KCCB|5.1||1|FM15-METAR|223|ICAO-KCCB|||||||5|Derived||FM15-METAR|223|ICAO-KCCB|||||||||||||||||||||||||||||||||||||||||||||||||||||||||||||||||||||||||1022.3||1|FM15-METAR|223|ICAO-KCCB|||||||||||||||||||||||||||||||||||||||||||MET065METAR KCCB 112135Z AUTO 26004G10KT 10SM CLR 26/M16 A3019 RMK AO2=||F||223|ICAO-KCCB
USI0000KCCB|CABLE|2017|12|11|21|55|34.1115|-117.6876|438.6|26.0||1|FM15-METAR|223|ICAO-KCCB|-17.0||1|FM15-METAR|223|ICAO-KCCB|||||||||||||250|N-Normal|1|FM15-METAR|223|ICAO-KCCB|3.6|N-Normal|1|FM15-METAR|223|ICAO-KCCB|||||||||||||5|Derived||FM15-METAR|223|ICAO-KCCB|||||||||||||||||||||||||||||||||||||||||||||||||||||||||||||||||||||||||1022.0||1|FM15-METAR|223|ICAO-KCCB|||||||||||||||||||||||||||||||||||||||||||MET062METAR KCCB 112155Z AUTO 25007KT 10SM CLR 26/M17 A3018 RMK AO2=||F||223|ICAO-KCCB
USI0000KCCB|CABLE|2017|12|11|22|15|34.1115|-117.6876|438.6|26.0||1|FM15-METAR|223|ICAO-KCCB|-16.0||1|FM15-METAR|223|ICAO-KCCB|||||||||||||230|N-Normal|1|FM15-METAR|223|ICAO-KCCB|3.6|N-Normal|1|FM15-METAR|223|ICAO-KCCB|||||||||||||5|Derived||FM15-METAR|223|ICAO-KCCB|||||||||||||||||||||||||||||||||||||||||||||||||||||||||||||||||||||||||1022.0||1|FM15-METAR|223|ICAO-KCCB|||||||||||||||||||||||||||||||||||||||||||MET062METAR KCCB 112215Z AUTO 23007KT 10SM CLR 26/M16 A3018 RMK AO2=||F||223|ICAO-KCCB
USI0000KCCB|CABLE|2017|12|11|22|35|34.1115|-117.6876|438.6|26.0||1|FM15-METAR|223|ICAO-KCCB|-15.0||1|FM15-METAR|223|ICAO-KCCB|||||||||||||260|N-Normal|1|FM15-METAR|223|ICAO-KCCB|3.1|N-Normal|1|FM15-METAR|223|ICAO-KCCB|||||||||||||6|Derived||FM15-METAR|223|ICAO-KCCB|||||||||||||||||||||||||||||||||||||||||||||||||||||||||||||||||||||||||1022.0||1|FM15-METAR|223|ICAO-KCCB|||||||||||||||||||||||||||||||||||||||||||MET062METAR KCCB 112235Z AUTO 26006KT 10SM CLR 26/M15 A3018 RMK AO2=||F||223|ICAO-KCCB
USI0000KCCB|CABLE|2017|12|11|22|55|34.1115|-117.6876|438.6|26.0||1|FM15-METAR|223|ICAO-KCCB|-15.0||1|FM15-METAR|223|ICAO-KCCB|||||||||||||250|N-Normal|1|FM15-METAR|223|ICAO-KCCB|4.1|N-Normal|1|FM15-METAR|223|ICAO-KCCB|||||||||||||6|Derived||FM15-METAR|223|ICAO-KCCB|||||||||||||||||||||||||||||||||||||||||||||||||||||||||||||||||||||||||1022.0||1|FM15-METAR|223|ICAO-KCCB|||||||||||||||||||||||||||||||||||||||||||MET062METAR KCCB 112255Z AUTO 25008KT 10SM CLR 26/M15 A3018 RMK AO2=||F||223|ICAO-KCCB
USI0000KCCB|CABLE|2017|12|11|23|15|34.1115|-117.6876|438.6|26.0||1|FM15-METAR|223|ICAO-KCCB|-14.0||1|FM15-METAR|223|ICAO-KCCB|||||||||||||260|N-Normal|1|FM15-METAR|223|ICAO-KCCB|3.6|N-Normal|1|FM15-METAR|223|ICAO-KCCB|||||||||||||6|Derived||FM15-METAR|223|ICAO-KCCB|||||||||||||||||||||||||||||||||||||||||||||||||||||||||||||||||||||||||1022.0||1|FM15-METAR|223|ICAO-KCCB|||||||||||||||||||||||||||||||||||||||||||MET062METAR KCCB 112315Z AUTO 26007KT 10SM CLR 26/M14 A3018 RMK AO2=||F||223|ICAO-KCCB
USI0000KCCB|CABLE|2017|12|11|23|35|34.1115|-117.6876|438.6|25.0||1|FM15-METAR|223|ICAO-KCCB|-14.0||1|FM15-METAR|223|ICAO-KCCB|||||||||||||280|N-Normal|1|FM15-METAR|223|ICAO-KCCB|4.6|N-Normal|1|FM15-METAR|223|ICAO-KCCB|||||||||||||6|Derived||FM15-METAR|223|ICAO-KCCB|||||||||||||||||||||||||||||||||||||||||||||||||||||||||||||||||||||||||1022.3||1|FM15-METAR|223|ICAO-KCCB|||||||||||||||||||||||||||||||||||||||||||MET062METAR KCCB 112335Z AUTO 28009KT 10SM CLR 25/M14 A3019 RMK AO2=||F||223|ICAO-KCCB
USI0000KCCB|CABLE|2017|12|11|23|55|34.1115|-117.6876|438.6|25.0||1|FM15-METAR|223|ICAO-KCCB|-14.0||1|FM15-METAR|223|ICAO-KCCB|||||||||||||280|N-Normal|1|FM15-METAR|223|ICAO-KCCB|3.6|N-Normal|1|FM15-METAR|223|ICAO-KCCB|||||||||||||6|Derived||FM15-METAR|223|ICAO-KCCB|||||||||||||||||||||||||||||||||||||||||||||||||||||||||||||||||||||||||1022.3||1|FM15-METAR|223|ICAO-KCCB|||||||||||||||||||||||||||||||||||||||||||MET062METAR KCCB 112355Z AUTO 28007KT 10SM CLR 25/M14 A3019 RMK AO2=||F||223|ICAO-KCCB
USI0000KCCB|CABLE|2017|12|12|00|15|34.1115|-117.6876|438.6|24.0||1|FM15-METAR|223|ICAO-KCCB|-14.0||1|FM15-METAR|223|ICAO-KCCB|||||||||||||290|N-Normal|1|FM15-METAR|223|ICAO-KCCB|2.6|N-Normal|1|FM15-METAR|223|ICAO-KCCB|||||||||||||7|Derived||FM15-METAR|223|ICAO-KCCB|||||||||||||||||||||||||||||||||||||||||||||||||||||||||||||||||||||||||1022.3||1|FM15-METAR|223|ICAO-KCCB|||||||||||||||||||||||||||||||||||||||||||MET062METAR KCCB 120015Z AUTO 29005KT 10SM CLR 24/M14 A3019 RMK AO2=||F||223|ICAO-KCCB
USI0000KCCB|CABLE|2017|12|12|00|35|34.1115|-117.6876|438.6|23.0||1|FM15-METAR|223|ICAO-KCCB|-13.0||1|FM15-METAR|223|ICAO-KCCB|||||||||||||280|N-Normal|1|FM15-METAR|223|ICAO-KCCB|2.6|N-Normal|1|FM15-METAR|223|ICAO-KCCB|||||||||||||8|Derived||FM15-METAR|223|ICAO-KCCB|||||||||||||||||||||||||||||||||||||||||||||||||||||||||||||||||||||||||1022.7||1|FM15-METAR|223|ICAO-KCCB|||||||||||||||||||||||||||||||||||||||||||MET062METAR KCCB 120035Z AUTO 28005KT 10SM CLR 23/M13 A3020 RMK AO2=||F||223|ICAO-KCCB
USI0000KCCB|CABLE|2017|12|12|00|55|34.1115|-117.6876|438.6|22.0||1|FM15-METAR|223|ICAO-KCCB|-11.0||1|FM15-METAR|223|ICAO-KCCB|||||||||||||330|N-Normal|1|FM15-METAR|223|ICAO-KCCB|2.1|N-Normal|1|FM15-METAR|223|ICAO-KCCB|||||||||||||10|Derived||FM15-METAR|223|ICAO-KCCB|||||||||||||||||||||||||||||||||||||||||||||||||||||||||||||||||||||||||1022.7||1|FM15-METAR|223|ICAO-KCCB|||||||||||||||||||||||||||||||||||||||||||MET062METAR KCCB 120055Z AUTO 33004KT 10SM CLR 22/M11 A3020 RMK AO2=||F||223|ICAO-KCCB
USI0000KCCB|CABLE|2017|12|12|01|15|34.1115|-117.6876|438.6|20.0||1|FM15-METAR|223|ICAO-KCCB|-12.0||1|FM15-METAR|223|ICAO-KCCB|||||||||||||360|N-Normal|1|FM15-METAR|223|ICAO-KCCB|2.1|N-Normal|1|FM15-METAR|223|ICAO-KCCB|||||||||||||10|Derived||FM15-METAR|223|ICAO-KCCB|||||||||||||||||||||||||||||||||||||||||||||||||||||||||||||||||||||||||1022.7||1|FM15-METAR|223|ICAO-KCCB|||||||||||||||||||||||||||||||||||||||||||MET062METAR KCCB 120115Z AUTO 36004KT 10SM CLR 20/M12 A3020 RMK AO2=||F||223|ICAO-KCCB
USI0000KCCB|CABLE|2017|12|12|01|35|34.1115|-117.6876|438.6|20.0||1|FM15-METAR|223|ICAO-KCCB|-13.0||1|FM15-METAR|223|ICAO-KCCB|||||||||||||010|N-Normal|1|FM15-METAR|223|ICAO-KCCB|3.1|N-Normal|1|FM15-METAR|223|ICAO-KCCB|||||||||||||10|Derived||FM15-METAR|223|ICAO-KCCB|||||||||||||||||||||||||||||||||||||||||||||||||||||||||||||||||||||||||1022.7||1|FM15-METAR|223|ICAO-KCCB|||||||||||||||||||||||||||||||||||||||||||MET062METAR KCCB 120135Z AUTO 01006KT 10SM CLR 20/M13 A3020 RMK AO2=||F||223|ICAO-KCCB
USI0000KCCB|CABLE|2017|12|12|01|55|34.1115|-117.6876|438.6|20.0||1|FM15-METAR|223|ICAO-KCCB|-13.0||1|FM15-METAR|223|ICAO-KCCB|||||||||||||010|N-Normal|1|FM15-METAR|223|ICAO-KCCB|3.1|N-Normal|1|FM15-METAR|223|ICAO-KCCB|||||||||||||10|Derived||FM15-METAR|223|ICAO-KCCB|||||||||||||||||||||||||||||||||||||||||||||||||||||||||||||||||||||||||1023.0||1|FM15-METAR|223|ICAO-KCCB|||||||||||||||||||||||||||||||||||||||||||MET062METAR KCCB 120155Z AUTO 01006KT 10SM CLR 20/M13 A3021 RMK AO2=||F||223|ICAO-KCCB
USI0000KCCB|CABLE|2017|12|12|02|15|34.1115|-117.6876|438.6|20.0||1|FM15-METAR|223|ICAO-KCCB|-14.0||1|FM15-METAR|223|ICAO-KCCB|||||||||||||010|N-Normal|1|FM15-METAR|223|ICAO-KCCB|3.1|N-Normal|1|FM15-METAR|223|ICAO-KCCB|||||||||||||9|Derived||FM15-METAR|223|ICAO-KCCB|||||||||||||||||||||||||||||||||||||||||||||||||||||||||||||||||||||||||1023.0||1|FM15-METAR|223|ICAO-KCCB|||||||||||||||||||||||||||||||||||||||||||MET062METAR KCCB 120215Z AUTO 01006KT 10SM CLR 20/M14 A3021 RMK AO2=||F||223|ICAO-KCCB
USI0000KCCB|CABLE|2017|12|12|02|35|34.1115|-117.6876|438.6|20.0||1|FM15-METAR|223|ICAO-KCCB|-14.0||1|FM15-METAR|223|ICAO-KCCB|||||||||||||010|N-Normal|1|FM15-METAR|223|ICAO-KCCB|2.6|N-Normal|1|FM15-METAR|223|ICAO-KCCB|||||||||||||9|Derived||FM15-METAR|223|ICAO-KCCB|||||||||||||||||||||||||||||||||||||||||||||||||||||||||||||||||||||||||1023.0||1|FM15-METAR|223|ICAO-KCCB|||||||||||||||||||||||||||||||||||||||||||MET062METAR KCCB 120235Z AUTO 01005KT 10SM CLR 20/M14 A3021 RMK AO2=||F||223|ICAO-KCCB
USI0000KCCB|CABLE|2017|12|12|02|55|34.1115|-117.6876|438.6|19.0||1|FM15-METAR|223|ICAO-KCCB|-14.0||1|FM15-METAR|223|ICAO-KCCB|||||||||||||010|N-Normal|1|FM15-METAR|223|ICAO-KCCB|2.6|N-Normal|1|FM15-METAR|223|ICAO-KCCB|||||||||||||9|Derived||FM15-METAR|223|ICAO-KCCB|||||||||||||||||||||||||||||||||||||||||||||||||||||||||||||||||||||||||1023.0||1|FM15-METAR|223|ICAO-KCCB|||||||||||||||||||||||||||||||||||||||||||MET062METAR KCCB 120255Z AUTO 01005KT 10SM CLR 19/M14 A3021 RMK AO2=||F||223|ICAO-KCCB
USI0000KCCB|CABLE|2017|12|12|03|15|34.1115|-117.6876|438.6|19.0||1|FM15-METAR|223|ICAO-KCCB|-14.0||1|FM15-METAR|223|ICAO-KCCB|||||||||||||360|N-Normal|1|FM15-METAR|223|ICAO-KCCB|2.6|N-Normal|1|FM15-METAR|223|ICAO-KCCB|||||||||||||9|Derived||FM15-METAR|223|ICAO-KCCB|||||||||||||||||||||||||||||||||||||||||||||||||||||||||||||||||||||||||1023.0||1|FM15-METAR|223|ICAO-KCCB|||||||||||||||||||||||||||||||||||||||||||MET062METAR KCCB 120315Z AUTO 36005KT 10SM CLR 19/M14 A3021 RMK AO2=||F||223|ICAO-KCCB
USI0000KCCB|CABLE|2017|12|12|03|35|34.1115|-117.6876|438.6|19.0||1|FM15-METAR|223|ICAO-KCCB|-15.0||1|FM15-METAR|223|ICAO-KCCB|||||||||||||999|C-Calm|9|FM15-METAR|223|ICAO-KCCB|0.0|C-Calm|1|FM15-METAR|223|ICAO-KCCB|||||||||||||9|Derived||FM15-METAR|223|ICAO-KCCB|||||||||||||||||||||||||||||||||||||||||||||||||||||||||||||||||||||||||1023.4||1|FM15-METAR|223|ICAO-KCCB|||||||||||||||||||||||||||||||||||||||||||MET062METAR KCCB 120335Z AUTO 00000KT 10SM CLR 19/M15 A3022 RMK AO2=||F||223|ICAO-KCCB
USI0000KCCB|CABLE|2017|12|12|03|55|34.1115|-117.6876|438.6|19.0||1|FM15-METAR|223|ICAO-KCCB|-14.0||1|FM15-METAR|223|ICAO-KCCB|||||||||||||999|C-Calm|9|FM15-METAR|223|ICAO-KCCB|0.0|C-Calm|1|FM15-METAR|223|ICAO-KCCB|||||||||||||9|Derived||FM15-METAR|223|ICAO-KCCB|||||||||||||||||||||||||||||||||||||||||||||||||||||||||||||||||||||||||1023.4||1|FM15-METAR|223|ICAO-KCCB|||||||||||||||||||||||||||||||||||||||||||MET062METAR KCCB 120355Z AUTO 00000KT 10SM CLR 19/M14 A3022 RMK AO2=||F||223|ICAO-KCCB
USI0000KCCB|CABLE|2017|12|12|04|15|34.1115|-117.6876|438.6|17.0||1|FM15-METAR|223|ICAO-KCCB|-14.0||1|FM15-METAR|223|ICAO-KCCB|||||||||||||360|N-Normal|1|FM15-METAR|223|ICAO-KCCB|2.6|N-Normal|1|FM15-METAR|223|ICAO-KCCB|||||||||||||11|Derived||FM15-METAR|223|ICAO-KCCB|||||||||||||||||||||||||||||||||||||||||||||||||||||||||||||||||||||||||1023.4||1|FM15-METAR|223|ICAO-KCCB|||||||||||||||||||||||||||||||||||||||||||MET062METAR KCCB 120415Z AUTO 36005KT 10SM CLR 17/M14 A3022 RMK AO2=||F||223|ICAO-KCCB
USI0000KCCB|CABLE|2017|12|12|04|35|34.1115|-117.6876|438.6|17.0||1|FM15-METAR|223|ICAO-KCCB|-14.0||1|FM15-METAR|223|ICAO-KCCB|||||||||||||350|N-Normal|1|FM15-METAR|223|ICAO-KCCB|2.6|N-Normal|1|FM15-METAR|223|ICAO-KCCB|||||||||||||11|Derived||FM15-METAR|223|ICAO-KCCB|||||||||||||||||||||||||||||||||||||||||||||||||||||||||||||||||||||||||1023.4||1|FM15-METAR|223|ICAO-KCCB|||||||||||||||||||||||||||||||||||||||||||MET062METAR KCCB 120435Z AUTO 35005KT 10SM CLR 17/M14 A3022 RMK AO2=||F||223|ICAO-KCCB
USI0000KCCB|CABLE|2017|12|12|04|55|34.1115|-117.6876|438.6|17.0||1|FM15-METAR|223|ICAO-KCCB|-14.0||1|FM15-METAR|223|ICAO-KCCB|||||||||||||320|N-Normal|1|FM15-METAR|223|ICAO-KCCB|2.1|N-Normal|1|FM15-METAR|223|ICAO-KCCB|||||||||||||11|Derived||FM15-METAR|223|ICAO-KCCB|||||||||||||||||||||||||||||||||||||||||||||||||||||||||||||||||||||||||1023.4||1|FM15-METAR|223|ICAO-KCCB|||||||||||||||||||||||||||||||||||||||||||MET062METAR KCCB 120455Z AUTO 32004KT 10SM CLR 17/M14 A3022 RMK AO2=||F||223|ICAO-KCCB
USI0000KCCB|CABLE|2017|12|12|05|15|34.1115|-117.6876|438.6|17.0||1|FM15-METAR|223|ICAO-KCCB|-14.0||1|FM15-METAR|223|ICAO-KCCB|||||||||||||320|N-Normal|1|FM15-METAR|223|ICAO-KCCB|2.1|N-Normal|1|FM15-METAR|223|ICAO-KCCB|||||||||||||11|Derived||FM15-METAR|223|ICAO-KCCB|||||||||||||||||||||||||||||||||||||||||||||||||||||||||||||||||||||||||1023.4||1|FM15-METAR|223|ICAO-KCCB|||||||||||||||||||||||||||||||||||||||||||MET062METAR KCCB 120515Z AUTO 32004KT 10SM CLR 17/M14 A3022 RMK AO2=||F||223|ICAO-KCCB
USI0000KCCB|CABLE|2017|12|12|05|35|34.1115|-117.6876|438.6|16.0||1|FM15-METAR|223|ICAO-KCCB|-14.0||1|FM15-METAR|223|ICAO-KCCB|||||||||||||350|N-Normal|1|FM15-METAR|223|ICAO-KCCB|2.1|N-Normal|1|FM15-METAR|223|ICAO-KCCB|||||||||||||11|Derived||FM15-METAR|223|ICAO-KCCB|||||||||||||||||||||||||||||||||||||||||||||||||||||||||||||||||||||||||1023.4||1|FM15-METAR|223|ICAO-KCCB|||||||||||||||||||||||||||||||||||||||||||MET062METAR KCCB 120535Z AUTO 35004KT 10SM CLR 16/M14 A3022 RMK AO2=||F||223|ICAO-KCCB
USI0000KCCB|CABLE|2017|12|12|05|55|34.1115|-117.6876|438.6|16.0||1|FM15-METAR|223|ICAO-KCCB|-14.0||1|FM15-METAR|223|ICAO-KCCB|||||||||||||350|N-Normal|1|FM15-METAR|223|ICAO-KCCB|2.6|N-Normal|1|FM15-METAR|223|ICAO-KCCB|||||||||||||11|Derived||FM15-METAR|223|ICAO-KCCB|||||||||||||||||||||||||||||||||||||||||||||||||||||||||||||||||||||||||1023.4||1|FM15-METAR|223|ICAO-KCCB|||||||||||||||||||||||||||||||||||||||||||MET062METAR KCCB 120555Z AUTO 35005KT 10SM CLR 16/M14 A3022 RMK AO2=||F||223|ICAO-KCCB
USI0000KCCB|CABLE|2017|12|12|06|15|34.1115|-117.6876|438.6|17.0||1|FM15-METAR|223|ICAO-KCCB|-16.0||1|FM15-METAR|223|ICAO-KCCB|||||||||||||340|N-Normal|1|FM15-METAR|223|ICAO-KCCB|2.6|N-Normal|1|FM15-METAR|223|ICAO-KCCB|||||||||||||9|Derived||FM15-METAR|223|ICAO-KCCB|||||||||||||||||||||||||||||||||||||||||||||||||||||||||||||||||||||||||1023.4||1|FM15-METAR|223|ICAO-KCCB|||||||||||||||||||||||||||||||||||||||||||MET062METAR KCCB 120615Z AUTO 34005KT 10SM CLR 17/M16 A3022 RMK AO2=||F||223|ICAO-KCCB
USI0000KCCB|CABLE|2017|12|12|06|35|34.1115|-117.6876|438.6|16.0||1|FM15-METAR|223|ICAO-KCCB|-16.0||1|FM15-METAR|223|ICAO-KCCB|||||||||||||010|N-Normal|1|FM15-METAR|223|ICAO-KCCB|2.6|N-Normal|1|FM15-METAR|223|ICAO-KCCB|||||||||||||10|Derived||FM15-METAR|223|ICAO-KCCB|||||||||||||||||||||||||||||||||||||||||||||||||||||||||||||||||||||||||1023.7||1|FM15-METAR|223|ICAO-KCCB|||||||||||||||||||||||||||||||||||||||||||MET062METAR KCCB 120635Z AUTO 01005KT 10SM CLR 16/M16 A3023 RMK AO2=||F||223|ICAO-KCCB
USI0000KCCB|CABLE|2017|12|12|06|55|34.1115|-117.6876|438.6|16.0||1|FM15-METAR|223|ICAO-KCCB|-16.0||1|FM15-METAR|223|ICAO-KCCB|||||||||||||010|N-Normal|1|FM15-METAR|223|ICAO-KCCB|1.5|N-Normal|1|FM15-METAR|223|ICAO-KCCB|||||||||||||10|Derived||FM15-METAR|223|ICAO-KCCB|||||||||||||||||||||||||||||||||||||||||||||||||||||||||||||||||||||||||1023.4||1|FM15-METAR|223|ICAO-KCCB|||||||||||||||||||||||||||||||||||||||||||MET062METAR KCCB 120655Z AUTO 01003KT 10SM CLR 16/M16 A3022 RMK AO2=||F||223|ICAO-KCCB
USI0000KCCB|CABLE|2017|12|12|07|15|34.1115|-117.6876|438.6|16.0||1|FM15-METAR|223|ICAO-KCCB|-16.0||1|FM15-METAR|223|ICAO-KCCB|||||||||||||999|C-Calm|9|FM15-METAR|223|ICAO-KCCB|0.0|C-Calm|1|FM15-METAR|223|ICAO-KCCB|||||||||||||10|Derived||FM15-METAR|223|ICAO-KCCB|||||||||||||||||||||||||||||||||||||||||||||||||||||||||||||||||||||||||1023.4||1|FM15-METAR|223|ICAO-KCCB|||||||||||||||||||||||||||||||||||||||||||MET062METAR KCCB 120715Z AUTO 00000KT 10SM CLR 16/M16 A3022 RMK AO2=||F||223|ICAO-KCCB
USI0000KCCB|CABLE|2017|12|12|07|35|34.1115|-117.6876|438.6|17.0||1|FM15-METAR|223|ICAO-KCCB|-17.0||1|FM15-METAR|223|ICAO-KCCB|||||||||||||010|N-Normal|1|FM15-METAR|223|ICAO-KCCB|3.1|N-Normal|1|FM15-METAR|223|ICAO-KCCB|||||||||||||8|Derived||FM15-METAR|223|ICAO-KCCB|||||||||||||||||||||||||||||||||||||||||||||||||||||||||||||||||||||||||1023.4||1|FM15-METAR|223|ICAO-KCCB|||||||||||||||||||||||||||||||||||||||||||MET062METAR KCCB 120735Z AUTO 01006KT 10SM CLR 17/M17 A3022 RMK AO2=||F||223|ICAO-KCCB
USI0000KCCB|CABLE|2017|12|12|07|55|34.1115|-117.6876|438.6|17.0||1|FM15-METAR|223|ICAO-KCCB|-18.0||1|FM15-METAR|223|ICAO-KCCB|||||||||||||010|N-Normal|1|FM15-METAR|223|ICAO-KCCB|3.6|N-Normal|1|FM15-METAR|223|ICAO-KCCB|||||||||||||8|Derived||FM15-METAR|223|ICAO-KCCB|||||||||||||||||||||||||||||||||||||||||||||||||||||||||||||||||||||||||1023.4||1|FM15-METAR|223|ICAO-KCCB|||||||||||||||||||||||||||||||||||||||||||MET062METAR KCCB 120755Z AUTO 01007KT 10SM CLR 17/M18 A3022 RMK AO2=||F||223|ICAO-KCCB
USI0000KCCB|CABLE|2017|12|12|08|15|34.1115|-117.6876|438.6|18.0||1|FM15-METAR|223|ICAO-KCCB|-18.0||1|FM15-METAR|223|ICAO-KCCB|||||||||||||010|N-Normal|1|FM15-METAR|223|ICAO-KCCB|3.6|N-Normal|1|FM15-METAR|223|ICAO-KCCB|||||||||||||7|Derived||FM15-METAR|223|ICAO-KCCB|||||||||||||||||||||||||||||||||||||||||||||||||||||||||||||||||||||||||1023.4||1|FM15-METAR|223|ICAO-KCCB|||||||||||||||||||||||||||||||||||||||||||MET062METAR KCCB 120815Z AUTO 01007KT 10SM CLR 18/M18 A3022 RMK AO2=||F||223|ICAO-KCCB
USI0000KCCB|CABLE|2017|12|12|08|35|34.1115|-117.6876|438.6|18.0||1|FM15-METAR|223|ICAO-KCCB|-19.0||1|FM15-METAR|223|ICAO-KCCB|||||||||||||010|N-Normal|1|FM15-METAR|223|ICAO-KCCB|3.6|N-Normal|1|FM15-METAR|223|ICAO-KCCB|||||||||||||7|Derived||FM15-METAR|223|ICAO-KCCB|||||||||||||||||||||||||||||||||||||||||||||||||||||||||||||||||||||||||1023.4||1|FM15-METAR|223|ICAO-KCCB|||||||||||||||||||||||||||||||||||||||||||MET062METAR KCCB 120835Z AUTO 01007KT 10SM CLR 18/M19 A3022 RMK AO2=||F||223|ICAO-KCCB
USI0000KCCB|CABLE|2017|12|12|08|55|34.1115|-117.6876|438.6|16.0||1|FM15-METAR|223|ICAO-KCCB|-18.0||1|FM15-METAR|223|ICAO-KCCB|||||||||||||999|C-Calm|9|FM15-METAR|223|ICAO-KCCB|0.0|C-Calm|1|FM15-METAR|223|ICAO-KCCB|||||||||||||8|Derived||FM15-METAR|223|ICAO-KCCB|||||||||||||||||||||||||||||||||||||||||||||||||||||||||||||||||||||||||1023.4||1|FM15-METAR|223|ICAO-KCCB|||||||||||||||||||||||||||||||||||||||||||MET062METAR KCCB 120855Z AUTO 00000KT 10SM CLR 16/M18 A3022 RMK AO2=||F||223|ICAO-KCCB
USI0000KCCB|CABLE|2017|12|12|09|15|34.1115|-117.6876|438.6|15.0||1|FM15-METAR|223|ICAO-KCCB|-18.0||1|FM15-METAR|223|ICAO-KCCB|||||||||||||999|C-Calm|9|FM15-METAR|223|ICAO-KCCB|0.0|C-Calm|1|FM15-METAR|223|ICAO-KCCB|||||||||||||9|Derived||FM15-METAR|223|ICAO-KCCB|||||||||||||||||||||||||||||||||||||||||||||||||||||||||||||||||||||||||1023.4||1|FM15-METAR|223|ICAO-KCCB|||||||||||||||||||||||||||||||||||||||||||MET062METAR KCCB 120915Z AUTO 00000KT 10SM CLR 15/M18 A3022 RMK AO2=||F||223|ICAO-KCCB
USI0000KCCB|CABLE|2017|12|12|09|35|34.1115|-117.6876|438.6|14.0||1|FM15-METAR|223|ICAO-KCCB|-18.0||1|FM15-METAR|223|ICAO-KCCB|||||||||||||350|N-Normal|1|FM15-METAR|223|ICAO-KCCB|2.6|N-Normal|1|FM15-METAR|223|ICAO-KCCB|||||||||||||9|Derived||FM15-METAR|223|ICAO-KCCB|||||||||||||||||||||||||||||||||||||||||||||||||||||||||||||||||||||||||1023.4||1|FM15-METAR|223|ICAO-KCCB|||||||||||||||||||||||||||||||||||||||||||MET062METAR KCCB 120935Z AUTO 35005KT 10SM CLR 14/M18 A3022 RMK AO2=||F||223|ICAO-KCCB
USI0000KCCB|CABLE|2017|12|12|09|55|34.1115|-117.6876|438.6|16.0||1|FM15-METAR|223|ICAO-KCCB|-18.0||1|FM15-METAR|223|ICAO-KCCB|||||||||||||010|N-Normal|1|FM15-METAR|223|ICAO-KCCB|3.1|N-Normal|1|FM15-METAR|223|ICAO-KCCB|||||||||||||8|Derived||FM15-METAR|223|ICAO-KCCB|||||||||||||||||||||||||||||||||||||||||||||||||||||||||||||||||||||||||1023.0||1|FM15-METAR|223|ICAO-KCCB|||||||||||||||||||||||||||||||||||||||||||MET062METAR KCCB 120955Z AUTO 01006KT 10SM CLR 16/M18 A3021 RMK AO2=||F||223|ICAO-KCCB
USI0000KCCB|CABLE|2017|12|12|10|15|34.1115|-117.6876|438.6|16.0||1|FM15-METAR|223|ICAO-KCCB|-18.0||1|FM15-METAR|223|ICAO-KCCB|||||||||||||999|C-Calm|9|FM15-METAR|223|ICAO-KCCB|0.0|C-Calm|1|FM15-METAR|223|ICAO-KCCB|||||||||||||8|Derived||FM15-METAR|223|ICAO-KCCB|||||||||||||||||||||||||||||||||||||||||||||||||||||||||||||||||||||||||1023.4||1|FM15-METAR|223|ICAO-KCCB|||||||||||||||||||||||||||||||||||||||||||MET062METAR KCCB 121015Z AUTO 00000KT 10SM CLR 16/M18 A3022 RMK AO2=||F||223|ICAO-KCCB
USI0000KCCB|CABLE|2017|12|12|10|35|34.1115|-117.6876|438.6|16.0||1|FM15-METAR|223|ICAO-KCCB|-18.0||1|FM15-METAR|223|ICAO-KCCB|||||||||||||999|C-Calm|9|FM15-METAR|223|ICAO-KCCB|0.0|C-Calm|1|FM15-METAR|223|ICAO-KCCB|||||||||||||8|Derived||FM15-METAR|223|ICAO-KCCB|||||||||||||||||||||||||||||||||||||||||||||||||||||||||||||||||||||||||1023.4||1|FM15-METAR|223|ICAO-KCCB|||||||||||||||||||||||||||||||||||||||||||MET062METAR KCCB 121035Z AUTO 00000KT 10SM CLR 16/M18 A3022 RMK AO2=||F||223|ICAO-KCCB
USI0000KCCB|CABLE|2017|12|12|10|55|34.1115|-117.6876|438.6|15.0||1|FM15-METAR|223|ICAO-KCCB|-18.0||1|FM15-METAR|223|ICAO-KCCB|||||||||||||999|C-Calm|9|FM15-METAR|223|ICAO-KCCB|0.0|C-Calm|1|FM15-METAR|223|ICAO-KCCB|||||||||||||9|Derived||FM15-METAR|223|ICAO-KCCB|||||||||||||||||||||||||||||||||||||||||||||||||||||||||||||||||||||||||1023.4||1|FM15-METAR|223|ICAO-KCCB|||||||||||||||||||||||||||||||||||||||||||MET062METAR KCCB 121055Z AUTO 00000KT 10SM CLR 15/M18 A3022 RMK AO2=||F||223|ICAO-KCCB
USI0000KCCB|CABLE|2017|12|12|11|15|34.1115|-117.6876|438.6|16.0||1|FM15-METAR|223|ICAO-KCCB|-19.0||1|FM15-METAR|223|ICAO-KCCB|||||||||||||010|N-Normal|1|FM15-METAR|223|ICAO-KCCB|3.1|N-Normal|1|FM15-METAR|223|ICAO-KCCB|||||||||||||7|Derived||FM15-METAR|223|ICAO-KCCB|||||||||||||||||||||||||||||||||||||||||||||||||||||||||||||||||||||||||1023.4||1|FM15-METAR|223|ICAO-KCCB|||||||||||||||||||||||||||||||||||||||||||MET062METAR KCCB 121115Z AUTO 01006KT 10SM CLR 16/M19 A3022 RMK AO2=||F||223|ICAO-KCCB
USI0000KCCB|CABLE|2017|12|12|11|35|34.1115|-117.6876|438.6|16.0||1|FM15-METAR|223|ICAO-KCCB|-19.0||1|FM15-METAR|223|ICAO-KCCB|||||||||||||020|N-Normal|1|FM15-METAR|223|ICAO-KCCB|2.6|N-Normal|1|FM15-METAR|223|ICAO-KCCB|||||||||||||7|Derived||FM15-METAR|223|ICAO-KCCB|||||||||||||||||||||||||||||||||||||||||||||||||||||||||||||||||||||||||1023.4||1|FM15-METAR|223|ICAO-KCCB|||||||||||||||||||||||||||||||||||||||||||MET062METAR KCCB 121135Z AUTO 02005KT 10SM CLR 16/M19 A3022 RMK AO2=||F||223|ICAO-KCCB
USI0000KCCB|CABLE|2017|12|12|11|55|34.1115|-117.6876|438.6|17.0||1|FM15-METAR|223|ICAO-KCCB|-19.0||1|FM15-METAR|223|ICAO-KCCB|||||||||||||360|N-Normal|1|FM15-METAR|223|ICAO-KCCB|3.6|N-Normal|1|FM15-METAR|223|ICAO-KCCB|||||||||||||7|Derived||FM15-METAR|223|ICAO-KCCB|||||||||||||||||||||||||||||||||||||||||||||||||||||||||||||||||||||||||1023.0||1|FM15-METAR|223|ICAO-KCCB|||||||||||||||||||||||||||||||||||||||||||MET062METAR KCCB 121155Z AUTO 36007KT 10SM CLR 17/M19 A3021 RMK AO2=||F||223|ICAO-KCCB
USI0000KCCB|CABLE|2017|12|12|12|15|34.1115|-117.6876|438.6|16.0||1|FM15-METAR|223|ICAO-KCCB|-20.0||1|FM15-METAR|223|ICAO-KCCB|||||||||||||010|N-Normal|1|FM15-METAR|223|ICAO-KCCB|3.6|N-Normal|1|FM15-METAR|223|ICAO-KCCB|||||||||||||7|Derived||FM15-METAR|223|ICAO-KCCB|||||||||||||||||||||||||||||||||||||||||||||||||||||||||||||||||||||||||1023.0||1|FM15-METAR|223|ICAO-KCCB|||||||||||||||||||||||||||||||||||||||||||MET062METAR KCCB 121215Z AUTO 01007KT 10SM CLR 16/M20 A3021 RMK AO2=||F||223|ICAO-KCCB
USI0000KCCB|CABLE|2017|12|12|12|35|34.1115|-117.6876|438.6|17.0||1|FM15-METAR|223|ICAO-KCCB|-21.0||1|FM15-METAR|223|ICAO-KCCB|||||||||||||010|N-Normal|1|FM15-METAR|223|ICAO-KCCB|4.1|N-Normal|1|FM15-METAR|223|ICAO-KCCB|||||||||||||6|Derived||FM15-METAR|223|ICAO-KCCB|||||||||||||||||||||||||||||||||||||||||||||||||||||||||||||||||||||||||1022.7||1|FM15-METAR|223|ICAO-KCCB|||||||||||||||||||||||||||||||||||||||||||MET062METAR KCCB 121235Z AUTO 01008KT 10SM CLR 17/M21 A3020 RMK AO2=||F||223|ICAO-KCCB
USI0000KCCB|CABLE|2017|12|12|12|55|34.1115|-117.6876|438.6|15.0||1|FM15-METAR|223|ICAO-KCCB|-20.0||1|FM15-METAR|223|ICAO-KCCB|||||||||||||999|C-Calm|9|FM15-METAR|223|ICAO-KCCB|0.0|C-Calm|1|FM15-METAR|223|ICAO-KCCB|||||||||||||7|Derived||FM15-METAR|223|ICAO-KCCB|||||||||||||||||||||||||||||||||||||||||||||||||||||||||||||||||||||||||1022.7||1|FM15-METAR|223|ICAO-KCCB|||||||||||||||||||||||||||||||||||||||||||MET062METAR KCCB 121255Z AUTO 00000KT 10SM CLR 15/M20 A3020 RMK AO2=||F||223|ICAO-KCCB
USI0000KCCB|CABLE|2017|12|12|13|15|34.1115|-117.6876|438.6|14.0||1|FM15-METAR|223|ICAO-KCCB|-20.0||1|FM15-METAR|223|ICAO-KCCB|||||||||||||999|C-Calm|9|FM15-METAR|223|ICAO-KCCB|0.0|C-Calm|1|FM15-METAR|223|ICAO-KCCB|||||||||||||8|Derived||FM15-METAR|223|ICAO-KCCB|||||||||||||||||||||||||||||||||||||||||||||||||||||||||||||||||||||||||1022.7||1|FM15-METAR|223|ICAO-KCCB|||||||||||||||||||||||||||||||||||||||||||MET062METAR KCCB 121315Z AUTO 00000KT 10SM CLR 14/M20 A3020 RMK AO2=||F||223|ICAO-KCCB
USI0000KCCB|CABLE|2017|12|12|13|35|34.1115|-117.6876|438.6|15.0||1|FM15-METAR|223|ICAO-KCCB|-20.0||1|FM15-METAR|223|ICAO-KCCB|||||||||||||999|C-Calm|9|FM15-METAR|223|ICAO-KCCB|0.0|C-Calm|1|FM15-METAR|223|ICAO-KCCB|||||||||||||7|Derived||FM15-METAR|223|ICAO-KCCB|||||||||||||||||||||||||||||||||||||||||||||||||||||||||||||||||||||||||1022.7||1|FM15-METAR|223|ICAO-KCCB|||||||||||||||||||||||||||||||||||||||||||MET062METAR KCCB 121335Z AUTO 00000KT 10SM CLR 15/M20 A3020 RMK AO2=||F||223|ICAO-KCCB
USI0000KCCB|CABLE|2017|12|12|13|55|34.1115|-117.6876|438.6|14.0||1|FM15-METAR|223|ICAO-KCCB|-19.0||1|FM15-METAR|223|ICAO-KCCB|||||||||||||999|C-Calm|9|FM15-METAR|223|ICAO-KCCB|0.0|C-Calm|1|FM15-METAR|223|ICAO-KCCB|||||||||||||9|Derived||FM15-METAR|223|ICAO-KCCB|||||||||||||||||||||||||||||||||||||||||||||||||||||||||||||||||||||||||1022.7||1|FM15-METAR|223|ICAO-KCCB|||||||||||||||||||||||||||||||||||||||||||MET062METAR KCCB 121355Z AUTO 00000KT 10SM CLR 14/M19 A3020 RMK AO2=||F||223|ICAO-KCCB
USI0000KCCB|CABLE|2017|12|12|14|15|34.1115|-117.6876|438.6|14.0||1|FM15-METAR|223|ICAO-KCCB|-19.0||1|FM15-METAR|223|ICAO-KCCB|||||||||||||240|N-Normal|1|FM15-METAR|223|ICAO-KCCB|1.5|N-Normal|1|FM15-METAR|223|ICAO-KCCB|||||||||||||9|Derived||FM15-METAR|223|ICAO-KCCB|||||||||||||||||||||||||||||||||||||||||||||||||||||||||||||||||||||||||1023.0||1|FM15-METAR|223|ICAO-KCCB|||||||||||||||||||||||||||||||||||||||||||MET062METAR KCCB 121415Z AUTO 24003KT 10SM CLR 14/M19 A3021 RMK AO2=||F||223|ICAO-KCCB
USI0000KCCB|CABLE|2017|12|12|14|35|34.1115|-117.6876|438.6|13.0||1|FM15-METAR|223|ICAO-KCCB|-19.0||1|FM15-METAR|223|ICAO-KCCB|||||||||||||999|C-Calm|9|FM15-METAR|223|ICAO-KCCB|0.0|C-Calm|1|FM15-METAR|223|ICAO-KCCB|||||||||||||9|Derived||FM15-METAR|223|ICAO-KCCB|||||||||||||||||||||||||||||||||||||||||||||||||||||||||||||||||||||||||1023.0||1|FM15-METAR|223|ICAO-KCCB|||||||||||||||||||||||||||||||||||||||||||MET062METAR KCCB 121435Z AUTO 00000KT 10SM CLR 13/M19 A3021 RMK AO2=||F||223|ICAO-KCCB
USI0000KCCB|CABLE|2017|12|12|14|55|34.1115|-117.6876|438.6|13.0||1|FM15-METAR|223|ICAO-KCCB|-19.0||1|FM15-METAR|223|ICAO-KCCB|||||||||||||999|C-Calm|9|FM15-METAR|223|ICAO-KCCB|0.0|C-Calm|1|FM15-METAR|223|ICAO-KCCB|||||||||||||9|Derived||FM15-METAR|223|ICAO-KCCB|||||||||||||||||||||||||||||||||||||||||||||||||||||||||||||||||||||||||1023.0||1|FM15-METAR|223|ICAO-KCCB|||||||||||||||||||||||||||||||||||||||||||MET062METAR KCCB 121455Z AUTO 00000KT 10SM CLR 13/M19 A3021 RMK AO2=||F||223|ICAO-KCCB
USI0000KCCB|CABLE|2017|12|12|15|15|34.1115|-117.6876|438.6|14.0||1|FM15-METAR|223|ICAO-KCCB|-21.0||1|FM15-METAR|223|ICAO-KCCB|||||||||||||999|C-Calm|9|FM15-METAR|223|ICAO-KCCB|0.0|C-Calm|1|FM15-METAR|223|ICAO-KCCB|||||||||||||7|Derived||FM15-METAR|223|ICAO-KCCB|||||||||||||||||||||||||||||||||||||||||||||||||||||||||||||||||||||||||1023.0||1|FM15-METAR|223|ICAO-KCCB|||||||||||||||||||||||||||||||||||||||||||MET062METAR KCCB 121515Z AUTO 00000KT 10SM CLR 14/M21 A3021 RMK AO2=||F||223|ICAO-KCCB
USI0000KCCB|CABLE|2017|12|12|15|35|34.1115|-117.6876|438.6|15.0||1|FM15-METAR|223|ICAO-KCCB|-18.0||1|FM15-METAR|223|ICAO-KCCB|||||||||||||999|C-Calm|9|FM15-METAR|223|ICAO-KCCB|0.0|C-Calm|1|FM15-METAR|223|ICAO-KCCB|||||||||||||9|Derived||FM15-METAR|223|ICAO-KCCB|||||||||||||||||||||||||||||||||||||||||||||||||||||||||||||||||||||||||1023.0||1|FM15-METAR|223|ICAO-KCCB|||||||||||||||||||||||||||||||||||||||||||MET061METAR KCCB 121535Z AUTO 00000KT 7SM CLR 15/M18 A3021 RMK AO2=||F||223|ICAO-KCCB
USI0000KCCB|CABLE|2017|12|12|15|55|34.1115|-117.6876|438.6|16.0||1|FM15-METAR|223|ICAO-KCCB|-17.0||1|FM15-METAR|223|ICAO-KCCB|||||||||||||320|N-Normal|1|FM15-METAR|223|ICAO-KCCB|2.6|N-Normal|1|FM15-METAR|223|ICAO-KCCB|||||||||||||9|Derived||FM15-METAR|223|ICAO-KCCB|||||||||||||||||||||||||||||||||||||||||||||||||||||||||||||||||||||||||1023.0||1|FM15-METAR|223|ICAO-KCCB|||||||||||||||||||||||||||||||||||||||||||MET062METAR KCCB 121555Z AUTO 32005KT 10SM CLR 16/M17 A3021 RMK AO2=||F||223|ICAO-KCCB
USI0000KCCB|CABLE|2017|12|12|16|15|34.1115|-117.6876|438.6|17.0||1|FM15-METAR|223|ICAO-KCCB|-16.0||1|FM15-METAR|223|ICAO-KCCB|||||||||||||999|C-Calm|9|FM15-METAR|223|ICAO-KCCB|0.0|C-Calm|1|FM15-METAR|223|ICAO-KCCB|||||||||||||9|Derived||FM15-METAR|223|ICAO-KCCB|||||||||||||||||||||||||||||||||||||||||||||||||||||||||||||||||||||||||1023.4||1|FM15-METAR|223|ICAO-KCCB|||||||||||||||||||||||||||||||||||||||||||MET061METAR KCCB 121615Z AUTO 00000KT 9SM CLR 17/M16 A3022 RMK AO2=||F||223|ICAO-KCCB
USI0000KCCB|CABLE|2017|12|12|16|35|34.1115|-117.6876|438.6|18.0||1|FM15-METAR|223|ICAO-KCCB|-19.0||1|FM15-METAR|223|ICAO-KCCB|||||||||||||999|C-Calm|9|FM15-METAR|223|ICAO-KCCB|0.0|C-Calm|1|FM15-METAR|223|ICAO-KCCB|||||||||||||7|Derived||FM15-METAR|223|ICAO-KCCB|||||||||||||||||||||||||||||||||||||||||||||||||||||||||||||||||||||||||1023.4||1|FM15-METAR|223|ICAO-KCCB|||||||||||||||||||||||||||||||||||||||||||MET062METAR KCCB 121635Z AUTO 00000KT 10SM CLR 18/M19 A3022 RMK AO2=||F||223|ICAO-KCCB
USI0000KCCB|CABLE|2017|12|12|16|55|34.1115|-117.6876|438.6|18.0||1|FM15-METAR|223|ICAO-KCCB|-17.0||1|FM15-METAR|223|ICAO-KCCB|||||||||||||999|C-Calm|9|FM15-METAR|223|ICAO-KCCB|0.0|C-Calm|1|FM15-METAR|223|ICAO-KCCB|||||||||||||8|Derived||FM15-METAR|223|ICAO-KCCB|||||||||||||||||||||||||||||||||||||||||||||||||||||||||||||||||||||||||1023.4||1|FM15-METAR|223|ICAO-KCCB|||||||||||||||||||||||||||||||||||||||||||MET062METAR KCCB 121655Z AUTO 00000KT 10SM CLR 18/M17 A3022 RMK AO2=||F||223|ICAO-KCCB
USI0000KCCB|CABLE|2017|12|12|17|15|34.1115|-117.6876|438.6|19.0||1|FM15-METAR|223|ICAO-KCCB|-20.0||1|FM15-METAR|223|ICAO-KCCB|||||||||||||999|C-Calm|9|FM15-METAR|223|ICAO-KCCB|0.0|C-Calm|1|FM15-METAR|223|ICAO-KCCB|||||||||||||6|Derived||FM15-METAR|223|ICAO-KCCB|||||||||||||||||||||||||||||||||||||||||||||||||||||||||||||||||||||||||1023.7||1|FM15-METAR|223|ICAO-KCCB|||||||||||||||||||||||||||||||||||||||||||MET062METAR KCCB 121715Z AUTO 00000KT 10SM CLR 19/M20 A3023 RMK AO2=||F||223|ICAO-KCCB
USI0000KCCB|CABLE|2017|12|12|17|35|34.1115|-117.6876|438.6|20.0||1|FM15-METAR|223|ICAO-KCCB|-21.0||1|FM15-METAR|223|ICAO-KCCB|||||||||||||999|C-Calm|9|FM15-METAR|223|ICAO-KCCB|0.0|C-Calm|1|FM15-METAR|223|ICAO-KCCB|||||||||||||5|Derived||FM15-METAR|223|ICAO-KCCB|||||||||||||||||||||||||||||||||||||||||||||||||||||||||||||||||||||||||1023.4||1|FM15-METAR|223|ICAO-KCCB|||||||||||||||||||||||||||||||||||||||||||MET062METAR KCCB 121735Z AUTO 00000KT 10SM CLR 20/M21 A3022 RMK AO2=||F||223|ICAO-KCCB
USI0000KCCB|CABLE|2017|12|12|17|55|34.1115|-117.6876|438.6|21.0||1|FM15-METAR|223|ICAO-KCCB|-21.0||1|FM15-METAR|223|ICAO-KCCB|||||||||||||230|N-Normal|1|FM15-METAR|223|ICAO-KCCB|2.1|N-Normal|1|FM15-METAR|223|ICAO-KCCB|||||||||||||5|Derived||FM15-METAR|223|ICAO-KCCB|||||||||||||||||||||||||||||||||||||||||||||||||||||||||||||||||||||||||1023.4||1|FM15-METAR|223|ICAO-KCCB|||||||||||||||||||||||||||||||||||||||||||MET062METAR KCCB 121755Z AUTO 23004KT 10SM CLR 21/M21 A3022 RMK AO2=||F||223|ICAO-KCCB
USI0000KCCB|CABLE|2017|12|12|18|15|34.1115|-117.6876|438.6|21.0||1|FM15-METAR|223|ICAO-KCCB|-19.0||1|FM15-METAR|223|ICAO-KCCB|||||||||||||999|C-Calm|9|FM15-METAR|223|ICAO-KCCB|0.0|C-Calm|1|FM15-METAR|223|ICAO-KCCB|||||||||||||5|Derived||FM15-METAR|223|ICAO-KCCB|||||||||||||||||||||||||||||||||||||||||||||||||||||||||||||||||||||||||1023.0||1|FM15-METAR|223|ICAO-KCCB|||||||||||||||||||||||||||||||||||||||||||MET062METAR KCCB 121815Z AUTO 00000KT 10SM CLR 21/M19 A3021 RMK AO2=||F||223|ICAO-KCCB
USI0000KCCB|CABLE|2017|12|12|18|35|34.1115|-117.6876|438.6|22.0||1|FM15-METAR|223|ICAO-KCCB|-17.0||1|FM15-METAR|223|ICAO-KCCB|||||||||||||220|N-Normal|1|FM15-METAR|223|ICAO-KCCB|2.6|N-Normal|1|FM15-METAR|223|ICAO-KCCB|||||||||||||6|Derived||FM15-METAR|223|ICAO-KCCB|||||||||||||||||||||||||||||||||||||||||||||||||||||||||||||||||||||||||1022.7||1|FM15-METAR|223|ICAO-KCCB|||||||||||||||||||||||||||||||||||||||||||MET062METAR KCCB 121835Z AUTO 22005KT 10SM CLR 22/M17 A3020 RMK AO2=||F||223|ICAO-KCCB
USI0000KCCB|CABLE|2017|12|12|18|55|34.1115|-117.6876|438.6|23.0||1|FM15-METAR|223|ICAO-KCCB|-17.0||1|FM15-METAR|223|ICAO-KCCB|||||||||||||210|N-Normal|1|FM15-METAR|223|ICAO-KCCB|2.1|N-Normal|1|FM15-METAR|223|ICAO-KCCB|||||||||||||6|Derived||FM15-METAR|223|ICAO-KCCB|||||||||||||||||||||||||||||||||||||||||||||||||||||||||||||||||||||||||1022.0||1|FM15-METAR|223|ICAO-KCCB|||||||||||||||||||||||||||||||||||||||||||MET062METAR KCCB 121855Z AUTO 21004KT 10SM CLR 23/M17 A3018 RMK AO2=||F||223|ICAO-KCCB
USI0000KCCB|CABLE|2017|12|12|19|15|34.1115|-117.6876|438.6|23.0||1|FM15-METAR|223|ICAO-KCCB|-18.0||1|FM15-METAR|223|ICAO-KCCB|||||||||||||230|N-Normal|1|FM15-METAR|223|ICAO-KCCB|2.6|N-Normal|1|FM15-METAR|223|ICAO-KCCB|||||||||||||5|Derived||FM15-METAR|223|ICAO-KCCB|||||||||||||||||||||||||||||||||||||||||||||||||||||||||||||||||||||||||1021.7||1|FM15-METAR|223|ICAO-KCCB|||||||||||||||||||||||||||||||||||||||||||MET062METAR KCCB 121915Z AUTO 23005KT 10SM CLR 23/M18 A3017 RMK AO2=||F||223|ICAO-KCCB
USI0000KCCB|CABLE|2017|12|12|19|35|34.1115|-117.6876|438.6|24.0||1|FM15-METAR|223|ICAO-KCCB|-20.0||1|FM15-METAR|223|ICAO-KCCB|||||||||||||230|N-Normal|1|FM15-METAR|223|ICAO-KCCB|3.6|N-Normal|1|FM15-METAR|223|ICAO-KCCB|||||||||||||4|Derived||FM15-METAR|223|ICAO-KCCB|||||||||||||||||||||||||||||||||||||||||||||||||||||||||||||||||||||||||1021.3||1|FM15-METAR|223|ICAO-KCCB|||||||||||||||||||||||||||||||||||||||||||MET062METAR KCCB 121935Z AUTO 23007KT 10SM CLR 24/M20 A3016 RMK AO2=||F||223|ICAO-KCCB
USI0000KCCB|CABLE|2017|12|12|19|55|34.1115|-117.6876|438.6|24.0||1|FM15-METAR|223|ICAO-KCCB|-18.0||1|FM15-METAR|223|ICAO-KCCB|||||||||||||240|N-Normal|1|FM15-METAR|223|ICAO-KCCB|3.1|N-Normal|1|FM15-METAR|223|ICAO-KCCB|||||||||||||5|Derived||FM15-METAR|223|ICAO-KCCB|||||||||||||||||||||||||||||||||||||||||||||||||||||||||||||||||||||||||1021.0||1|FM15-METAR|223|ICAO-KCCB|||||||||||||||||||||||||||||||||||||||||||MET062METAR KCCB 121955Z AUTO 24006KT 10SM CLR 24/M18 A3015 RMK AO2=||F||223|ICAO-KCCB
USI0000KCCB|CABLE|2017|12|12|20|15|34.1115|-117.6876|438.6|24.0||1|FM15-METAR|223|ICAO-KCCB|-20.0||1|FM15-METAR|223|ICAO-KCCB|||||||||||||250|N-Normal|1|FM15-METAR|223|ICAO-KCCB|3.1|N-Normal|1|FM15-METAR|223|ICAO-KCCB|||||||||||||4|Derived||FM15-METAR|223|ICAO-KCCB|||||||||||||||||||||||||||||||||||||||||||||||||||||||||||||||||||||||||1020.3||1|FM15-METAR|223|ICAO-KCCB|||||||||||||||||||||||||||||||||||||||||||MET062METAR KCCB 122015Z AUTO 25006KT 10SM CLR 24/M20 A3013 RMK AO2=||F||223|ICAO-KCCB
USI0000KCCB|CABLE|2017|12|12|20|35|34.1115|-117.6876|438.6|25.0||1|FM15-METAR|223|ICAO-KCCB|-20.0||1|FM15-METAR|223|ICAO-KCCB|||||||||||||250|N-Normal|1|FM15-METAR|223|ICAO-KCCB|4.1|N-Normal|1|FM15-METAR|223|ICAO-KCCB|||||||||||||4|Derived||FM15-METAR|223|ICAO-KCCB|||||||||||||||||||||||||||||||||||||||||||||||||||||||||||||||||||||||||1020.0||1|FM15-METAR|223|ICAO-KCCB|||||||||||||||||||||||||||||||||||||||||||MET062METAR KCCB 122035Z AUTO 25008KT 10SM CLR 25/M20 A3012 RMK AO2=||F||223|ICAO-KCCB
USI0000KCCB|CABLE|2017|12|12|20|55|34.1115|-117.6876|438.6|25.0||1|FM15-METAR|223|ICAO-KCCB|-19.0||1|FM15-METAR|223|ICAO-KCCB|||||||||||||250|N-Normal|1|FM15-METAR|223|ICAO-KCCB|3.6|N-Normal|1|FM15-METAR|223|ICAO-KCCB|||||||||||||4|Derived||FM15-METAR|223|ICAO-KCCB|||||||||||||||||||||||||||||||||||||||||||||||||||||||||||||||||||||||||1019.6||1|FM15-METAR|223|ICAO-KCCB|||||||||||||||||||||||||||||||||||||||||||MET062METAR KCCB 122055Z AUTO 25007KT 10SM CLR 25/M19 A3011 RMK AO2=||F||223|ICAO-KCCB
USI0000KCCB|CABLE|2017|12|12|21|15|34.1115|-117.6876|438.6|25.0||1|FM15-METAR|223|ICAO-KCCB|-20.0||1|FM15-METAR|223|ICAO-KCCB|||||||||||||230|N-Normal|1|FM15-METAR|223|ICAO-KCCB|5.7|N-Normal|1|FM15-METAR|223|ICAO-KCCB|||||||||||||4|Derived||FM15-METAR|223|ICAO-KCCB|||||||||||||||||||||||||||||||||||||||||||||||||||||||||||||||||||||||||1019.3||1|FM15-METAR|223|ICAO-KCCB|||||||||||||||||||||||||||||||||||||||||||MET062METAR KCCB 122115Z AUTO 23011KT 10SM CLR 25/M20 A3010 RMK AO2=||F||223|ICAO-KCCB
USI0000KCCB|CABLE|2017|12|12|21|35|34.1115|-117.6876|438.6|26.0||1|FM15-METAR|223|ICAO-KCCB|-21.0||1|FM15-METAR|223|ICAO-KCCB|||||||||||||260|N-Normal|1|FM15-METAR|223|ICAO-KCCB|4.6|N-Normal|1|FM15-METAR|223|ICAO-KCCB|||||||||||||3|Derived||FM15-METAR|223|ICAO-KCCB|||||||||||||||||||||||||||||||||||||||||||||||||||||||||||||||||||||||||1019.3||1|FM15-METAR|223|ICAO-KCCB|||||||||||||||||||||||||||||||||||||||||||MET062METAR KCCB 122135Z AUTO 26009KT 10SM CLR 26/M21 A3010 RMK AO2=||F||223|ICAO-KCCB
USI0000KCCB|CABLE|2017|12|12|21|55|34.1115|-117.6876|438.6|26.0||1|FM15-METAR|223|ICAO-KCCB|-20.0||1|FM15-METAR|223|ICAO-KCCB|||||||||||||260|N-Normal|1|FM15-METAR|223|ICAO-KCCB|3.6|N-Normal|1|FM15-METAR|223|ICAO-KCCB|||||||||||||4|Derived||FM15-METAR|223|ICAO-KCCB|||||||||||||||||||||||||||||||||||||||||||||||||||||||||||||||||||||||||1019.0||1|FM15-METAR|223|ICAO-KCCB|||||||||||||||||||||||||||||||||||||||||||MET062METAR KCCB 122155Z AUTO 26007KT 10SM CLR 26/M20 A3009 RMK AO2=||F||223|ICAO-KCCB
USI0000KCCB|CABLE|2017|12|12|22|15|34.1115|-117.6876|438.6|26.0||1|FM15-METAR|223|ICAO-KCCB|-21.0||1|FM15-METAR|223|ICAO-KCCB|||||||||||||260|N-Normal|1|FM15-METAR|223|ICAO-KCCB|4.1|N-Normal|1|FM15-METAR|223|ICAO-KCCB|||||||||||||3|Derived||FM15-METAR|223|ICAO-KCCB|||||||||||||||||||||||||||||||||||||||||||||||||||||||||||||||||||||||||1018.6||1|FM15-METAR|223|ICAO-KCCB|||||||||||||||||||||||||||||||||||||||||||MET062METAR KCCB 122215Z AUTO 26008KT 10SM CLR 26/M21 A3008 RMK AO2=||F||223|ICAO-KCCB
USI0000KCCB|CABLE|2017|12|12|22|35|34.1115|-117.6876|438.6|26.0||1|FM15-METAR|223|ICAO-KCCB|-20.0||1|FM15-METAR|223|ICAO-KCCB|||||||||||||280|N-Normal|1|FM15-METAR|223|ICAO-KCCB|2.6|N-Normal|1|FM15-METAR|223|ICAO-KCCB|||||||||||||4|Derived||FM15-METAR|223|ICAO-KCCB|||||||||||||||||||||||||||||||||||||||||||||||||||||||||||||||||||||||||1018.6||1|FM15-METAR|223|ICAO-KCCB|||||||||||||||||||||||||||||||||||||||||||MET062METAR KCCB 122235Z AUTO 28005KT 10SM CLR 26/M20 A3008 RMK AO2=||F||223|ICAO-KCCB
USI0000KCCB|CABLE|2017|12|12|22|55|34.1115|-117.6876|438.6|26.0||1|FM15-METAR|223|ICAO-KCCB|-21.0||1|FM15-METAR|223|ICAO-KCCB|||||||||||||270|N-Normal|1|FM15-METAR|223|ICAO-KCCB|2.6|N-Normal|1|FM15-METAR|223|ICAO-KCCB|||||||||||||3|Derived||FM15-METAR|223|ICAO-KCCB|||||||||||||||||||||||||||||||||||||||||||||||||||||||||||||||||||||||||1018.6||1|FM15-METAR|223|ICAO-KCCB|||||||||||||||||||||||||||||||||||||||||||MET062METAR KCCB 122255Z AUTO 27005KT 10SM CLR 26/M21 A3008 RMK AO2=||F||223|ICAO-KCCB
USI0000KCCB|CABLE|2017|12|12|23|15|34.1115|-117.6876|438.6|26.0||1|FM15-METAR|223|ICAO-KCCB|-20.0||1|FM15-METAR|223|ICAO-KCCB|||||||||||||280|N-Normal|1|FM15-METAR|223|ICAO-KCCB|3.1|N-Normal|1|FM15-METAR|223|ICAO-KCCB|||||||||||||4|Derived||FM15-METAR|223|ICAO-KCCB|||||||||||||||||||||||||||||||||||||||||||||||||||||||||||||||||||||||||1018.6||1|FM15-METAR|223|ICAO-KCCB|||||||||||||||||||||||||||||||||||||||||||MET062METAR KCCB 122315Z AUTO 28006KT 10SM CLR 26/M20 A3008 RMK AO2=||F||223|ICAO-KCCB
USI0000KCCB|CABLE|2017|12|12|23|35|34.1115|-117.6876|438.6|25.0||1|FM15-METAR|223|ICAO-KCCB|-19.0||1|FM15-METAR|223|ICAO-KCCB|||||||||||||280|N-Normal|1|FM15-METAR|223|ICAO-KCCB|2.6|N-Normal|1|FM15-METAR|223|ICAO-KCCB|||||||||||||4|Derived||FM15-METAR|223|ICAO-KCCB|||||||||||||||||||||||||||||||||||||||||||||||||||||||||||||||||||||||||1018.6||1|FM15-METAR|223|ICAO-KCCB|||||||||||||||||||||||||||||||||||||||||||MET062METAR KCCB 122335Z AUTO 28005KT 10SM CLR 25/M19 A3008 RMK AO2=||F||223|ICAO-KCCB
USI0000KCCB|CABLE|2017|12|12|23|55|34.1115|-117.6876|438.6|25.0||1|FM15-METAR|223|ICAO-KCCB|-17.0||1|FM15-METAR|223|ICAO-KCCB|||||||||||||260|N-Normal|1|FM15-METAR|223|ICAO-KCCB|2.1|N-Normal|1|FM15-METAR|223|ICAO-KCCB|||||||||||||5|Derived||FM15-METAR|223|ICAO-KCCB|||||||||||||||||||||||||||||||||||||||||||||||||||||||||||||||||||||||||1018.3||1|FM15-METAR|223|ICAO-KCCB|||||||||||||||||||||||||||||||||||||||||||MET062METAR KCCB 122355Z AUTO 26004KT 10SM CLR 25/M17 A3007 RMK AO2=||F||223|ICAO-KCCB
USI0000KCCB|CABLE|2017|12|13|00|15|34.1115|-117.6876|438.6|25.0||1|FM15-METAR|223|ICAO-KCCB|-16.0||1|FM15-METAR|223|ICAO-KCCB|||||||||||||280|N-Normal|1|FM15-METAR|223|ICAO-KCCB|2.1|N-Normal|1|FM15-METAR|223|ICAO-KCCB|||||||||||||5|Derived||FM15-METAR|223|ICAO-KCCB|||||||||||||||||||||||||||||||||||||||||||||||||||||||||||||||||||||||||1018.3||1|FM15-METAR|223|ICAO-KCCB|||||||||||||||||||||||||||||||||||||||||||MET062METAR KCCB 130015Z AUTO 28004KT 10SM CLR 25/M16 A3007 RMK AO2=||F||223|ICAO-KCCB
USI0000KCCB|CABLE|2017|12|13|00|35|34.1115|-117.6876|438.6|24.0||1|FM15-METAR|223|ICAO-KCCB|-15.0||1|FM15-METAR|223|ICAO-KCCB|||||||||||||999|C-Calm|9|FM15-METAR|223|ICAO-KCCB|0.0|C-Calm|1|FM15-METAR|223|ICAO-KCCB|||||||||||||6|Derived||FM15-METAR|223|ICAO-KCCB|||||||||||||||||||||||||||||||||||||||||||||||||||||||||||||||||||||||||1018.3||1|FM15-METAR|223|ICAO-KCCB|||||||||||||||||||||||||||||||||||||||||||MET062METAR KCCB 130035Z AUTO 00000KT 10SM CLR 24/M15 A3007 RMK AO2=||F||223|ICAO-KCCB
USI0000KCCB|CABLE|2017|12|13|00|55|34.1115|-117.6876|438.6|23.0||1|FM15-METAR|223|ICAO-KCCB|-14.0||1|FM15-METAR|223|ICAO-KCCB|||||||||||||999|C-Calm|9|FM15-METAR|223|ICAO-KCCB|0.0|C-Calm|1|FM15-METAR|223|ICAO-KCCB|||||||||||||7|Derived||FM15-METAR|223|ICAO-KCCB|||||||||||||||||||||||||||||||||||||||||||||||||||||||||||||||||||||||||1018.3||1|FM15-METAR|223|ICAO-KCCB|||||||||||||||||||||||||||||||||||||||||||MET062METAR KCCB 130055Z AUTO 00000KT 10SM CLR 23/M14 A3007 RMK AO2=||F||223|ICAO-KCCB
USI0000KCCB|CABLE|2017|12|13|01|15|34.1115|-117.6876|438.6|21.0||1|FM15-METAR|223|ICAO-KCCB|-14.0||1|FM15-METAR|223|ICAO-KCCB|||||||||||||360|N-Normal|1|FM15-METAR|223|ICAO-KCCB|2.6|N-Normal|1|FM15-METAR|223|ICAO-KCCB|||||||||||||8|Derived||FM15-METAR|223|ICAO-KCCB|||||||||||||||||||||||||||||||||||||||||||||||||||||||||||||||||||||||||1018.6||1|FM15-METAR|223|ICAO-KCCB|||||||||||||||||||||||||||||||||||||||||||MET062METAR KCCB 130115Z AUTO 36005KT 10SM CLR 21/M14 A3008 RMK AO2=||F||223|ICAO-KCCB
USI0000KCCB|CABLE|2017|12|13|01|35|34.1115|-117.6876|438.6|20.0||1|FM15-METAR|223|ICAO-KCCB|-16.0||1|FM15-METAR|223|ICAO-KCCB|||||||||||||360|N-Normal|1|FM15-METAR|223|ICAO-KCCB|2.6|N-Normal|1|FM15-METAR|223|ICAO-KCCB|||||||||||||7|Derived||FM15-METAR|223|ICAO-KCCB|||||||||||||||||||||||||||||||||||||||||||||||||||||||||||||||||||||||||1018.6||1|FM15-METAR|223|ICAO-KCCB|||||||||||||||||||||||||||||||||||||||||||MET062METAR KCCB 130135Z AUTO 36005KT 10SM CLR 20/M16 A3008 RMK AO2=||F||223|ICAO-KCCB
USI0000KCCB|CABLE|2017|12|13|01|55|34.1115|-117.6876|438.6|20.0||1|FM15-METAR|223|ICAO-KCCB|-18.0||1|FM15-METAR|223|ICAO-KCCB|||||||||||||360|N-Normal|1|FM15-METAR|223|ICAO-KCCB|2.6|N-Normal|1|FM15-METAR|223|ICAO-KCCB|||||||||||||6|Derived||FM15-METAR|223|ICAO-KCCB|||||||||||||||||||||||||||||||||||||||||||||||||||||||||||||||||||||||||1018.6||1|FM15-METAR|223|ICAO-KCCB|||||||||||||||||||||||||||||||||||||||||||MET062METAR KCCB 130155Z AUTO 36005KT 10SM CLR 20/M18 A3008 RMK AO2=||F||223|ICAO-KCCB
USI0000KCCB|CABLE|2017|12|13|02|15|34.1115|-117.6876|438.6|19.0||1|FM15-METAR|223|ICAO-KCCB|-18.0||1|FM15-METAR|223|ICAO-KCCB|||||||||||||010|N-Normal|1|FM15-METAR|223|ICAO-KCCB|2.6|N-Normal|1|FM15-METAR|223|ICAO-KCCB|||||||||||||7|Derived||FM15-METAR|223|ICAO-KCCB|||||||||||||||||||||||||||||||||||||||||||||||||||||||||||||||||||||||||1018.6||1|FM15-METAR|223|ICAO-KCCB|||||||||||||||||||||||||||||||||||||||||||MET062METAR KCCB 130215Z AUTO 01005KT 10SM CLR 19/M18 A3008 RMK AO2=||F||223|ICAO-KCCB
USI0000KCCB|CABLE|2017|12|13|02|35|34.1115|-117.6876|438.6|20.0||1|FM15-METAR|223|ICAO-KCCB|-21.0||1|FM15-METAR|223|ICAO-KCCB|||||||||||||360|N-Normal|1|FM15-METAR|223|ICAO-KCCB|2.6|N-Normal|1|FM15-METAR|223|ICAO-KCCB|||||||||||||5|Derived||FM15-METAR|223|ICAO-KCCB|||||||||||||||||||||||||||||||||||||||||||||||||||||||||||||||||||||||||1018.6||1|FM15-METAR|223|ICAO-KCCB|||||||||||||||||||||||||||||||||||||||||||MET062METAR KCCB 130235Z AUTO 36005KT 10SM CLR 20/M21 A3008 RMK AO2=||F||223|ICAO-KCCB
USI0000KCCB|CABLE|2017|12|13|02|55|34.1115|-117.6876|438.6|19.0||1|FM15-METAR|223|ICAO-KCCB|-21.0||1|FM15-METAR|223|ICAO-KCCB|||||||||||||350|N-Normal|1|FM15-METAR|223|ICAO-KCCB|2.6|N-Normal|1|FM15-METAR|223|ICAO-KCCB|||||||||||||5|Derived||FM15-METAR|223|ICAO-KCCB|||||||||||||||||||||||||||||||||||||||||||||||||||||||||||||||||||||||||1018.6||1|FM15-METAR|223|ICAO-KCCB|||||||||||||||||||||||||||||||||||||||||||MET062METAR KCCB 130255Z AUTO 35005KT 10SM CLR 19/M21 A3008 RMK AO2=||F||223|ICAO-KCCB
USI0000KCCB|CABLE|2017|12|13|03|15|34.1115|-117.6876|438.6|18.0||1|FM15-METAR|223|ICAO-KCCB|-20.0||1|FM15-METAR|223|ICAO-KCCB|||||||||||||999|C-Calm|9|FM15-METAR|223|ICAO-KCCB|0.0|C-Calm|1|FM15-METAR|223|ICAO-KCCB|||||||||||||6|Derived||FM15-METAR|223|ICAO-KCCB|||||||||||||||||||||||||||||||||||||||||||||||||||||||||||||||||||||||||1018.6||1|FM15-METAR|223|ICAO-KCCB|||||||||||||||||||||||||||||||||||||||||||MET062METAR KCCB 130315Z AUTO 00000KT 10SM CLR 18/M20 A3008 RMK AO2=||F||223|ICAO-KCCB
USI0000KCCB|CABLE|2017|12|13|03|35|34.1115|-117.6876|438.6|18.0||1|FM15-METAR|223|ICAO-KCCB|-17.0||1|FM15-METAR|223|ICAO-KCCB|||||||||||||999|C-Calm|9|FM15-METAR|223|ICAO-KCCB|0.0|C-Calm|1|FM15-METAR|223|ICAO-KCCB|||||||||||||8|Derived||FM15-METAR|223|ICAO-KCCB|||||||||||||||||||||||||||||||||||||||||||||||||||||||||||||||||||||||||1018.6||1|FM15-METAR|223|ICAO-KCCB|||||||||||||||||||||||||||||||||||||||||||MET062METAR KCCB 130335Z AUTO 00000KT 10SM CLR 18/M17 A3008 RMK AO2=||F||223|ICAO-KCCB
USI0000KCCB|CABLE|2017|12|13|03|55|34.1115|-117.6876|438.6|18.0||1|FM15-METAR|223|ICAO-KCCB|-18.0||1|FM15-METAR|223|ICAO-KCCB|||||||||||||010|N-Normal|1|FM15-METAR|223|ICAO-KCCB|2.1|N-Normal|1|FM15-METAR|223|ICAO-KCCB|||||||||||||7|Derived||FM15-METAR|223|ICAO-KCCB|||||||||||||||||||||||||||||||||||||||||||||||||||||||||||||||||||||||||1018.6||1|FM15-METAR|223|ICAO-KCCB|||||||||||||||||||||||||||||||||||||||||||MET062METAR KCCB 130355Z AUTO 01004KT 10SM CLR 18/M18 A3008 RMK AO2=||F||223|ICAO-KCCB
USI0000KCCB|CABLE|2017|12|13|04|15|34.1115|-117.6876|438.6|17.0||1|FM15-METAR|223|ICAO-KCCB|-18.0||1|FM15-METAR|223|ICAO-KCCB|||||||||||||360|N-Normal|1|FM15-METAR|223|ICAO-KCCB|2.6|N-Normal|1|FM15-METAR|223|ICAO-KCCB|||||||||||||8|Derived||FM15-METAR|223|ICAO-KCCB|||||||||||||||||||||||||||||||||||||||||||||||||||||||||||||||||||||||||1018.6||1|FM15-METAR|223|ICAO-KCCB|||||||||||||||||||||||||||||||||||||||||||MET062METAR KCCB 130415Z AUTO 36005KT 10SM CLR 17/M18 A3008 RMK AO2=||F||223|ICAO-KCCB
USI0000KCCB|CABLE|2017|12|13|04|35|34.1115|-117.6876|438.6|17.0||1|FM15-METAR|223|ICAO-KCCB|-18.0||1|FM15-METAR|223|ICAO-KCCB|||||||||||||999|C-Calm|9|FM15-METAR|223|ICAO-KCCB|0.0|C-Calm|1|FM15-METAR|223|ICAO-KCCB|||||||||||||8|Derived||FM15-METAR|223|ICAO-KCCB|||||||||||||||||||||||||||||||||||||||||||||||||||||||||||||||||||||||||1018.3||1|FM15-METAR|223|ICAO-KCCB|||||||||||||||||||||||||||||||||||||||||||MET062METAR KCCB 130435Z AUTO 00000KT 10SM CLR 17/M18 A3007 RMK AO2=||F||223|ICAO-KCCB
USI0000KCCB|CABLE|2017|12|13|04|55|34.1115|-117.6876|438.6|17.0||1|FM15-METAR|223|ICAO-KCCB|-19.0||1|FM15-METAR|223|ICAO-KCCB|||||||||||||999|C-Calm|9|FM15-METAR|223|ICAO-KCCB|0.0|C-Calm|1|FM15-METAR|223|ICAO-KCCB|||||||||||||7|Derived||FM15-METAR|223|ICAO-KCCB|||||||||||||||||||||||||||||||||||||||||||||||||||||||||||||||||||||||||1018.3||1|FM15-METAR|223|ICAO-KCCB|||||||||||||||||||||||||||||||||||||||||||MET062METAR KCCB 130455Z AUTO 00000KT 10SM CLR 17/M19 A3007 RMK AO2=||F||223|ICAO-KCCB
USI0000KCCB|CABLE|2017|12|13|05|15|34.1115|-117.6876|438.6|17.0||1|FM15-METAR|223|ICAO-KCCB|-17.0||1|FM15-METAR|223|ICAO-KCCB|||||||||||||010|N-Normal|1|FM15-METAR|223|ICAO-KCCB|2.6|N-Normal|1|FM15-METAR|223|ICAO-KCCB|||||||||||||8|Derived||FM15-METAR|223|ICAO-KCCB|||||||||||||||||||||||||||||||||||||||||||||||||||||||||||||||||||||||||1018.3||1|FM15-METAR|223|ICAO-KCCB|||||||||||||||||||||||||||||||||||||||||||MET062METAR KCCB 130515Z AUTO 01005KT 10SM CLR 17/M17 A3007 RMK AO2=||F||223|ICAO-KCCB
USI0000KCCB|CABLE|2017|12|13|05|35|34.1115|-117.6876|438.6|17.0||1|FM15-METAR|223|ICAO-KCCB|-17.0||1|FM15-METAR|223|ICAO-KCCB|||||||||||||010|N-Normal|1|FM15-METAR|223|ICAO-KCCB|2.6|N-Normal|1|FM15-METAR|223|ICAO-KCCB|||||||||||||8|Derived||FM15-METAR|223|ICAO-KCCB|||||||||||||||||||||||||||||||||||||||||||||||||||||||||||||||||||||||||1018.3||1|FM15-METAR|223|ICAO-KCCB|||||||||||||||||||||||||||||||||||||||||||MET062METAR KCCB 130535Z AUTO 01005KT 10SM CLR 17/M17 A3007 RMK AO2=||F||223|ICAO-KCCB
USI0000KCCB|CABLE|2017|12|13|05|55|34.1115|-117.6876|438.6|17.0||1|FM15-METAR|223|ICAO-KCCB|-18.0||1|FM15-METAR|223|ICAO-KCCB|||||||||||||360|N-Normal|1|FM15-METAR|223|ICAO-KCCB|3.1|N-Normal|1|FM15-METAR|223|ICAO-KCCB|||||||||||||8|Derived||FM15-METAR|223|ICAO-KCCB|||||||||||||||||||||||||||||||||||||||||||||||||||||||||||||||||||||||||1018.3||1|FM15-METAR|223|ICAO-KCCB|||||||||||||||||||||||||||||||||||||||||||MET062METAR KCCB 130555Z AUTO 36006KT 10SM CLR 17/M18 A3007 RMK AO2=||F||223|ICAO-KCCB
USI0000KCCB|CABLE|2017|12|13|06|15|34.1115|-117.6876|438.6|17.0||1|FM15-METAR|223|ICAO-KCCB|-19.0||1|FM15-METAR|223|ICAO-KCCB|||||||||||||350|N-Normal|1|FM15-METAR|223|ICAO-KCCB|2.6|N-Normal|1|FM15-METAR|223|ICAO-KCCB|||||||||||||7|Derived||FM15-METAR|223|ICAO-KCCB|||||||||||||||||||||||||||||||||||||||||||||||||||||||||||||||||||||||||1017.9||1|FM15-METAR|223|ICAO-KCCB|||||||||||||||||||||||||||||||||||||||||||MET062METAR KCCB 130615Z AUTO 35005KT 10SM CLR 17/M19 A3006 RMK AO2=||F||223|ICAO-KCCB
USI0000KCCB|CABLE|2017|12|13|06|35|34.1115|-117.6876|438.6|17.0||1|FM15-METAR|223|ICAO-KCCB|-18.0||1|FM15-METAR|223|ICAO-KCCB|||||||||||||360|N-Normal|1|FM15-METAR|223|ICAO-KCCB|2.6|N-Normal|1|FM15-METAR|223|ICAO-KCCB|||||||||||||8|Derived||FM15-METAR|223|ICAO-KCCB|||||||||||||||||||||||||||||||||||||||||||||||||||||||||||||||||||||||||1018.3||1|FM15-METAR|223|ICAO-KCCB|||||||||||||||||||||||||||||||||||||||||||MET062METAR KCCB 130635Z AUTO 36005KT 10SM CLR 17/M18 A3007 RMK AO2=||F||223|ICAO-KCCB
USI0000KCCB|CABLE|2017|12|13|06|55|34.1115|-117.6876|438.6|17.0||1|FM15-METAR|223|ICAO-KCCB|-18.0||1|FM15-METAR|223|ICAO-KCCB|||||||||||||350|N-Normal|1|FM15-METAR|223|ICAO-KCCB|2.6|N-Normal|1|FM15-METAR|223|ICAO-KCCB|||||||||||||8|Derived||FM15-METAR|223|ICAO-KCCB|||||||||||||||||||||||||||||||||||||||||||||||||||||||||||||||||||||||||1017.9||1|FM15-METAR|223|ICAO-KCCB|||||||||||||||||||||||||||||||||||||||||||MET062METAR KCCB 130655Z AUTO 35005KT 10SM CLR 17/M18 A3006 RMK AO2=||F||223|ICAO-KCCB
USI0000KCCB|CABLE|2017|12|13|07|15|34.1115|-117.6876|438.6|17.0||1|FM15-METAR|223|ICAO-KCCB|-19.0||1|FM15-METAR|223|ICAO-KCCB|||||||||||||340|N-Normal|1|FM15-METAR|223|ICAO-KCCB|2.6|N-Normal|1|FM15-METAR|223|ICAO-KCCB|||||||||||||7|Derived||FM15-METAR|223|ICAO-KCCB|||||||||||||||||||||||||||||||||||||||||||||||||||||||||||||||||||||||||1017.9||1|FM15-METAR|223|ICAO-KCCB|||||||||||||||||||||||||||||||||||||||||||MET062METAR KCCB 130715Z AUTO 34005KT 10SM CLR 17/M19 A3006 RMK AO2=||F||223|ICAO-KCCB
USI0000KCCB|CABLE|2017|12|13|07|35|34.1115|-117.6876|438.6|16.0||1|FM15-METAR|223|ICAO-KCCB|-18.0||1|FM15-METAR|223|ICAO-KCCB|||||||||||||340|N-Normal|1|FM15-METAR|223|ICAO-KCCB|2.6|N-Normal|1|FM15-METAR|223|ICAO-KCCB|||||||||||||8|Derived||FM15-METAR|223|ICAO-KCCB|||||||||||||||||||||||||||||||||||||||||||||||||||||||||||||||||||||||||1017.9||1|FM15-METAR|223|ICAO-KCCB|||||||||||||||||||||||||||||||||||||||||||MET062METAR KCCB 130735Z AUTO 34005KT 10SM CLR 16/M18 A3006 RMK AO2=||F||223|ICAO-KCCB
USI0000KCCB|CABLE|2017|12|13|07|55|34.1115|-117.6876|438.6|16.0||1|FM15-METAR|223|ICAO-KCCB|-18.0||1|FM15-METAR|223|ICAO-KCCB|||||||||||||340|N-Normal|1|FM15-METAR|223|ICAO-KCCB|2.6|N-Normal|1|FM15-METAR|223|ICAO-KCCB|||||||||||||8|Derived||FM15-METAR|223|ICAO-KCCB|||||||||||||||||||||||||||||||||||||||||||||||||||||||||||||||||||||||||1017.9||1|FM15-METAR|223|ICAO-KCCB|||||||||||||||||||||||||||||||||||||||||||MET062METAR KCCB 130755Z AUTO 34005KT 10SM CLR 16/M18 A3006 RMK AO2=||F||223|ICAO-KCCB
USI0000KCCB|CABLE|2017|12|13|08|15|34.1115|-117.6876|438.6|16.0||1|FM15-METAR|223|ICAO-KCCB|-18.0||1|FM15-METAR|223|ICAO-KCCB|||||||||||||340|N-Normal|1|FM15-METAR|223|ICAO-KCCB|2.1|N-Normal|1|FM15-METAR|223|ICAO-KCCB|||||||||||||8|Derived||FM15-METAR|223|ICAO-KCCB|||||||||||||||||||||||||||||||||||||||||||||||||||||||||||||||||||||||||1017.6||1|FM15-METAR|223|ICAO-KCCB|||||||||||||||||||||||||||||||||||||||||||MET062METAR KCCB 130815Z AUTO 34004KT 10SM CLR 16/M18 A3005 RMK AO2=||F||223|ICAO-KCCB
USI0000KCCB|CABLE|2017|12|13|08|35|34.1115|-117.6876|438.6|14.0||1|FM15-METAR|223|ICAO-KCCB|-17.0||1|FM15-METAR|223|ICAO-KCCB|||||||||||||350|N-Normal|1|FM15-METAR|223|ICAO-KCCB|2.6|N-Normal|1|FM15-METAR|223|ICAO-KCCB|||||||||||||10|Derived||FM15-METAR|223|ICAO-KCCB|||||||||||||||||||||||||||||||||||||||||||||||||||||||||||||||||||||||||1017.6||1|FM15-METAR|223|ICAO-KCCB|||||||||||||||||||||||||||||||||||||||||||MET062METAR KCCB 130835Z AUTO 35005KT 10SM CLR 14/M17 A3005 RMK AO2=||F||223|ICAO-KCCB
USI0000KCCB|CABLE|2017|12|13|08|55|34.1115|-117.6876|438.6|16.0||1|FM15-METAR|223|ICAO-KCCB|-17.0||1|FM15-METAR|223|ICAO-KCCB|||||||||||||360|N-Normal|1|FM15-METAR|223|ICAO-KCCB|2.1|N-Normal|1|FM15-METAR|223|ICAO-KCCB|||||||||||||9|Derived||FM15-METAR|223|ICAO-KCCB|||||||||||||||||||||||||||||||||||||||||||||||||||||||||||||||||||||||||1017.6||1|FM15-METAR|223|ICAO-KCCB|||||||||||||||||||||||||||||||||||||||||||MET062METAR KCCB 130855Z AUTO 36004KT 10SM CLR 16/M17 A3005 RMK AO2=||F||223|ICAO-KCCB
USI0000KCCB|CABLE|2017|12|13|09|15|34.1115|-117.6876|438.6|15.0||1|FM15-METAR|223|ICAO-KCCB|-16.0||1|FM15-METAR|223|ICAO-KCCB|||||||||||||999|C-Calm|9|FM15-METAR|223|ICAO-KCCB|0.0|C-Calm|1|FM15-METAR|223|ICAO-KCCB|||||||||||||10|Derived||FM15-METAR|223|ICAO-KCCB|||||||||||||||||||||||||||||||||||||||||||||||||||||||||||||||||||||||||1017.6||1|FM15-METAR|223|ICAO-KCCB|||||||||||||||||||||||||||||||||||||||||||MET062METAR KCCB 130915Z AUTO 00000KT 10SM CLR 15/M16 A3005 RMK AO2=||F||223|ICAO-KCCB
USI0000KCCB|CABLE|2017|12|13|09|35|34.1115|-117.6876|438.6|15.0||1|FM15-METAR|223|ICAO-KCCB|-17.0||1|FM15-METAR|223|ICAO-KCCB|||||||||||||010|N-Normal|1|FM15-METAR|223|ICAO-KCCB|2.1|N-Normal|1|FM15-METAR|223|ICAO-KCCB|||||||||||||9|Derived||FM15-METAR|223|ICAO-KCCB|||||||||||||||||||||||||||||||||||||||||||||||||||||||||||||||||||||||||1017.6||1|FM15-METAR|223|ICAO-KCCB|||||||||||||||||||||||||||||||||||||||||||MET062METAR KCCB 130935Z AUTO 01004KT 10SM CLR 15/M17 A3005 RMK AO2=||F||223|ICAO-KCCB
USI0000KCCB|CABLE|2017|12|13|09|55|34.1115|-117.6876|438.6|15.0||1|FM15-METAR|223|ICAO-KCCB|-16.0||1|FM15-METAR|223|ICAO-KCCB|||||||||||||020|N-Normal|1|FM15-METAR|223|ICAO-KCCB|2.6|N-Normal|1|FM15-METAR|223|ICAO-KCCB|||||||||||||10|Derived||FM15-METAR|223|ICAO-KCCB|||||||||||||||||||||||||||||||||||||||||||||||||||||||||||||||||||||||||1017.6||1|FM15-METAR|223|ICAO-KCCB|||||||||||||||||||||||||||||||||||||||||||MET062METAR KCCB 130955Z AUTO 02005KT 10SM CLR 15/M16 A3005 RMK AO2=||F||223|ICAO-KCCB
USI0000KCCB|CABLE|2017|12|13|10|15|34.1115|-117.6876|438.6|15.0||1|FM15-METAR|223|ICAO-KCCB|-16.0||1|FM15-METAR|223|ICAO-KCCB|||||||||||||010|N-Normal|1|FM15-METAR|223|ICAO-KCCB|1.5|N-Normal|1|FM15-METAR|223|ICAO-KCCB|||||||||||||10|Derived||FM15-METAR|223|ICAO-KCCB|||||||||||||||||||||||||||||||||||||||||||||||||||||||||||||||||||||||||1017.6||1|FM15-METAR|223|ICAO-KCCB|||||||||||||||||||||||||||||||||||||||||||MET062METAR KCCB 131015Z AUTO 01003KT 10SM CLR 15/M16 A3005 RMK AO2=||F||223|ICAO-KCCB
USI0000KCCB|CABLE|2017|12|13|10|35|34.1115|-117.6876|438.6|15.0||1|FM15-METAR|223|ICAO-KCCB|-16.0||1|FM15-METAR|223|ICAO-KCCB|||||||||||||010|N-Normal|1|FM15-METAR|223|ICAO-KCCB|2.1|N-Normal|1|FM15-METAR|223|ICAO-KCCB|||||||||||||10|Derived||FM15-METAR|223|ICAO-KCCB|||||||||||||||||||||||||||||||||||||||||||||||||||||||||||||||||||||||||1017.6||1|FM15-METAR|223|ICAO-KCCB|||||||||||||||||||||||||||||||||||||||||||MET062METAR KCCB 131035Z AUTO 01004KT 10SM CLR 15/M16 A3005 RMK AO2=||F||223|ICAO-KCCB
USI0000KCCB|CABLE|2017|12|13|10|55|34.1115|-117.6876|438.6|15.0||1|FM15-METAR|223|ICAO-KCCB|-15.0||1|FM15-METAR|223|ICAO-KCCB|||||||||||||999|C-Calm|9|FM15-METAR|223|ICAO-KCCB|0.0|C-Calm|1|FM15-METAR|223|ICAO-KCCB|||||||||||||11|Derived||FM15-METAR|223|ICAO-KCCB|||||||||||||||||||||||||||||||||||||||||||||||||||||||||||||||||||||||||1017.6||1|FM15-METAR|223|ICAO-KCCB|||||||||||||||||||||||||||||||||||||||||||MET062METAR KCCB 131055Z AUTO 00000KT 10SM CLR 15/M15 A3005 RMK AO2=||F||223|ICAO-KCCB
USI0000KCCB|CABLE|2017|12|13|11|15|34.1115|-117.6876|438.6|15.0||1|FM15-METAR|223|ICAO-KCCB|-15.0||1|FM15-METAR|223|ICAO-KCCB|||||||||||||030|N-Normal|1|FM15-METAR|223|ICAO-KCCB|1.5|N-Normal|1|FM15-METAR|223|ICAO-KCCB|||||||||||||11|Derived||FM15-METAR|223|ICAO-KCCB|||||||||||||||||||||||||||||||||||||||||||||||||||||||||||||||||||||||||1017.3||1|FM15-METAR|223|ICAO-KCCB|||||||||||||||||||||||||||||||||||||||||||MET062METAR KCCB 131115Z AUTO 03003KT 10SM CLR 15/M15 A3004 RMK AO2=||F||223|ICAO-KCCB
USI0000KCCB|CABLE|2017|12|13|11|35|34.1115|-117.6876|438.6|15.0||1|FM15-METAR|223|ICAO-KCCB|-15.0||1|FM15-METAR|223|ICAO-KCCB|||||||||||||010|N-Normal|1|FM15-METAR|223|ICAO-KCCB|3.1|N-Normal|1|FM15-METAR|223|ICAO-KCCB|||||||||||||11|Derived||FM15-METAR|223|ICAO-KCCB|||||||||||||||||||||||||||||||||||||||||||||||||||||||||||||||||||||||||1016.9||1|FM15-METAR|223|ICAO-KCCB|||||||||||||||||||||||||||||||||||||||||||MET062METAR KCCB 131135Z AUTO 01006KT 10SM CLR 15/M15 A3003 RMK AO2=||F||223|ICAO-KCCB
USI0000KCCB|CABLE|2017|12|13|11|55|34.1115|-117.6876|438.6|16.0||1|FM15-METAR|223|ICAO-KCCB|-15.0||1|FM15-METAR|223|ICAO-KCCB|||||||||||||999|C-Calm|9|FM15-METAR|223|ICAO-KCCB|0.0|C-Calm|1|FM15-METAR|223|ICAO-KCCB|||||||||||||11|Derived||FM15-METAR|223|ICAO-KCCB|||||||||||||||||||||||||||||||||||||||||||||||||||||||||||||||||||||||||1016.9||1|FM15-METAR|223|ICAO-KCCB|||||||||||||||||||||||||||||||||||||||||||MET062METAR KCCB 131155Z AUTO 00000KT 10SM CLR 16/M15 A3003 RMK AO2=||F||223|ICAO-KCCB
USI0000KCCB|CABLE|2017|12|13|12|15|34.1115|-117.6876|438.6|16.0||1|FM15-METAR|223|ICAO-KCCB|-16.0||1|FM15-METAR|223|ICAO-KCCB|||||||||||||360|N-Normal|1|FM15-METAR|223|ICAO-KCCB|2.1|N-Normal|1|FM15-METAR|223|ICAO-KCCB|||||||||||||10|Derived||FM15-METAR|223|ICAO-KCCB|||||||||||||||||||||||||||||||||||||||||||||||||||||||||||||||||||||||||1016.9||1|FM15-METAR|223|ICAO-KCCB|||||||||||||||||||||||||||||||||||||||||||MET062METAR KCCB 131215Z AUTO 36004KT 10SM CLR 16/M16 A3003 RMK AO2=||F||223|ICAO-KCCB
USI0000KCCB|CABLE|2017|12|13|12|35|34.1115|-117.6876|438.6|16.0||1|FM15-METAR|223|ICAO-KCCB|-17.0||1|FM15-METAR|223|ICAO-KCCB|||||||||||||350|N-Normal|1|FM15-METAR|223|ICAO-KCCB|2.1|N-Normal|1|FM15-METAR|223|ICAO-KCCB|||||||||||||9|Derived||FM15-METAR|223|ICAO-KCCB|||||||||||||||||||||||||||||||||||||||||||||||||||||||||||||||||||||||||1016.6||1|FM15-METAR|223|ICAO-KCCB|||||||||||||||||||||||||||||||||||||||||||MET062METAR KCCB 131235Z AUTO 35004KT 10SM CLR 16/M17 A3002 RMK AO2=||F||223|ICAO-KCCB
USI0000KCCB|CABLE|2017|12|13|12|55|34.1115|-117.6876|438.6|17.0||1|FM15-METAR|223|ICAO-KCCB|-18.0||1|FM15-METAR|223|ICAO-KCCB|||||||||||||340|N-Normal|1|FM15-METAR|223|ICAO-KCCB|2.6|N-Normal|1|FM15-METAR|223|ICAO-KCCB|||||||||||||8|Derived||FM15-METAR|223|ICAO-KCCB|||||||||||||||||||||||||||||||||||||||||||||||||||||||||||||||||||||||||1016.9||1|FM15-METAR|223|ICAO-KCCB|||||||||||||||||||||||||||||||||||||||||||MET062METAR KCCB 131255Z AUTO 34005KT 10SM CLR 17/M18 A3003 RMK AO2=||F||223|ICAO-KCCB
USI0000KCCB|CABLE|2017|12|13|13|15|34.1115|-117.6876|438.6|16.0||1|FM15-METAR|223|ICAO-KCCB|-17.0||1|FM15-METAR|223|ICAO-KCCB|||||||||||||999|C-Calm|9|FM15-METAR|223|ICAO-KCCB|0.0|C-Calm|1|FM15-METAR|223|ICAO-KCCB|||||||||||||9|Derived||FM15-METAR|223|ICAO-KCCB|||||||||||||||||||||||||||||||||||||||||||||||||||||||||||||||||||||||||1016.6||1|FM15-METAR|223|ICAO-KCCB|||||||||||||||||||||||||||||||||||||||||||MET061METAR KCCB 131315Z AUTO 00000KT 7SM CLR 16/M17 A3002 RMK AO2=||F||223|ICAO-KCCB
USI0000KCCB|CABLE|2017|12|13|13|35|34.1115|-117.6876|438.6|15.0||1|FM15-METAR|223|ICAO-KCCB|-17.0||1|FM15-METAR|223|ICAO-KCCB|||||||||||||350|N-Normal|1|FM15-METAR|223|ICAO-KCCB|2.6|N-Normal|1|FM15-METAR|223|ICAO-KCCB|||||||||||||9|Derived||FM15-METAR|223|ICAO-KCCB|||||||||||||||||||||||||||||||||||||||||||||||||||||||||||||||||||||||||1016.6||1|FM15-METAR|223|ICAO-KCCB|||||||||||||||||||||||||||||||||||||||||||MET062METAR KCCB 131335Z AUTO 35005KT 10SM CLR 15/M17 A3002 RMK AO2=||F||223|ICAO-KCCB
USI0000KCCB|CABLE|2017|12|13|13|55|34.1115|-117.6876|438.6|14.0||1|FM15-METAR|223|ICAO-KCCB|-17.0||1|FM15-METAR|223|ICAO-KCCB|||||||||||||999|C-Calm|9|FM15-METAR|223|ICAO-KCCB|0.0|C-Calm|1|FM15-METAR|223|ICAO-KCCB|||||||||||||10|Derived||FM15-METAR|223|ICAO-KCCB|||||||||||||||||||||||||||||||||||||||||||||||||||||||||||||||||||||||||1016.9||1|FM15-METAR|223|ICAO-KCCB|||||||||||||||||||||||||||||||||||||||||||MET062METAR KCCB 131355Z AUTO 00000KT 10SM CLR 14/M17 A3003 RMK AO2=||F||223|ICAO-KCCB
USI0000KCCB|CABLE|2017|12|13|14|15|34.1115|-117.6876|438.6|14.0||1|FM15-METAR|223|ICAO-KCCB|-16.0||1|FM15-METAR|223|ICAO-KCCB|||||||||||||999|C-Calm|9|FM15-METAR|223|ICAO-KCCB|0.0|C-Calm|1|FM15-METAR|223|ICAO-KCCB|||||||||||||11|Derived||FM15-METAR|223|ICAO-KCCB|||||||||||||||||||||||||||||||||||||||||||||||||||||||||||||||||||||||||1017.3||1|FM15-METAR|223|ICAO-KCCB|||||||||||||||||||||||||||||||||||||||||||MET062METAR KCCB 131415Z AUTO 00000KT 10SM CLR 14/M16 A3004 RMK AO2=||F||223|ICAO-KCCB
USI0000KCCB|CABLE|2017|12|13|14|35|34.1115|-117.6876|438.6|14.0||1|FM15-METAR|223|ICAO-KCCB|-15.0||1|FM15-METAR|223|ICAO-KCCB|||||||||||||999|C-Calm|9|FM15-METAR|223|ICAO-KCCB|0.0|C-Calm|1|FM15-METAR|223|ICAO-KCCB|||||||||||||12|Derived||FM15-METAR|223|ICAO-KCCB|||||||||||||||||||||||||||||||||||||||||||||||||||||||||||||||||||||||||1017.3||1|FM15-METAR|223|ICAO-KCCB|||||||||||||||||||||||||||||||||||||||||||MET062METAR KCCB 131435Z AUTO 00000KT 10SM CLR 14/M15 A3004 RMK AO2=||F||223|ICAO-KCCB
USI0000KCCB|CABLE|2017|12|13|14|55|34.1115|-117.6876|438.6|14.0||1|FM15-METAR|223|ICAO-KCCB|-16.0||1|FM15-METAR|223|ICAO-KCCB|||||||||||||350|N-Normal|1|FM15-METAR|223|ICAO-KCCB|3.1|N-Normal|1|FM15-METAR|223|ICAO-KCCB|||||||||||||11|Derived||FM15-METAR|223|ICAO-KCCB|||||||||||||||||||||||||||||||||||||||||||||||||||||||||||||||||||||||||1017.3||1|FM15-METAR|223|ICAO-KCCB|||||||||||||||||||||||||||||||||||||||||||MET062METAR KCCB 131455Z AUTO 35006KT 10SM CLR 14/M16 A3004 RMK AO2=||F||223|ICAO-KCCB
USI0000KCCB|CABLE|2017|12|13|15|15|34.1115|-117.6876|438.6|16.0||1|FM15-METAR|223|ICAO-KCCB|-17.0||1|FM15-METAR|223|ICAO-KCCB|||||||||||||350|N-Normal|1|FM15-METAR|223|ICAO-KCCB|2.6|N-Normal|1|FM15-METAR|223|ICAO-KCCB|||||||||||||9|Derived||FM15-METAR|223|ICAO-KCCB|||||||||||||||||||||||||||||||||||||||||||||||||||||||||||||||||||||||||1017.3||1|FM15-METAR|223|ICAO-KCCB|||||||||||||||||||||||||||||||||||||||||||MET062METAR KCCB 131515Z AUTO 35005KT 10SM CLR 16/M17 A3004 RMK AO2=||F||223|ICAO-KCCB
USI0000KCCB|CABLE|2017|12|13|15|35|34.1115|-117.6876|438.6|18.0||1|FM15-METAR|223|ICAO-KCCB|-18.0||1|FM15-METAR|223|ICAO-KCCB|||||||||||||350|N-Normal|1|FM15-METAR|223|ICAO-KCCB|2.6|N-Normal|1|FM15-METAR|223|ICAO-KCCB|||||||||||||7|Derived||FM15-METAR|223|ICAO-KCCB|||||||||||||||||||||||||||||||||||||||||||||||||||||||||||||||||||||||||1017.3||1|FM15-METAR|223|ICAO-KCCB|||||||||||||||||||||||||||||||||||||||||||MET062METAR KCCB 131535Z AUTO 35005KT 10SM CLR 18/M18 A3004 RMK AO2=||F||223|ICAO-KCCB
USI0000KCCB|CABLE|2017|12|13|15|55|34.1115|-117.6876|438.6|19.0||1|FM15-METAR|223|ICAO-KCCB|-17.0||1|FM15-METAR|223|ICAO-KCCB|||||||||||||350|N-Normal|1|FM15-METAR|223|ICAO-KCCB|2.6|N-Normal|1|FM15-METAR|223|ICAO-KCCB|||||||||||||7|Derived||FM15-METAR|223|ICAO-KCCB|||||||||||||||||||||||||||||||||||||||||||||||||||||||||||||||||||||||||1017.3||1|FM15-METAR|223|ICAO-KCCB|||||||||||||||||||||||||||||||||||||||||||MET062METAR KCCB 131555Z AUTO 35005KT 10SM CLR 19/M17 A3004 RMK AO2=||F||223|ICAO-KCCB
USI0000KCCB|CABLE|2017|12|13|16|15|34.1115|-117.6876|438.6|19.0||1|FM15-METAR|223|ICAO-KCCB|-17.0||1|FM15-METAR|223|ICAO-KCCB|||||||||||||999|C-Calm|9|FM15-METAR|223|ICAO-KCCB|0.0|C-Calm|1|FM15-METAR|223|ICAO-KCCB|||||||||||||7|Derived||FM15-METAR|223|ICAO-KCCB|||||||||||||||||||||||||||||||||||||||||||||||||||||||||||||||||||||||||1017.3||1|FM15-METAR|223|ICAO-KCCB|||||||||||||||||||||||||||||||||||||||||||MET062METAR KCCB 131615Z AUTO 00000KT 10SM CLR 19/M17 A3004 RMK AO2=||F||223|ICAO-KCCB
USI0000KCCB|CABLE|2017|12|13|16|35|34.1115|-117.6876|438.6|18.0||1|FM15-METAR|223|ICAO-KCCB|-14.0||1|FM15-METAR|223|ICAO-KCCB|||||||||||||250|N-Normal|1|FM15-METAR|223|ICAO-KCCB|2.6|N-Normal|1|FM15-METAR|223|ICAO-KCCB|||||||||||||10|Derived||FM15-METAR|223|ICAO-KCCB|||||||||||||||||||||||||||||||||||||||||||||||||||||||||||||||||||||||||1017.6||1|FM15-METAR|223|ICAO-KCCB|||||||||||||||||||||||||||||||||||||||||||MET061METAR KCCB 131635Z AUTO 25005KT 9SM CLR 18/M14 A3005 RMK AO2=||F||223|ICAO-KCCB
USI0000KCCB|CABLE|2017|12|13|16|55|34.1115|-117.6876|438.6|19.0||1|FM15-METAR|223|ICAO-KCCB|-11.0||1|FM15-METAR|223|ICAO-KCCB|||||||||||||260|N-Normal|1|FM15-METAR|223|ICAO-KCCB|1.5|N-Normal|1|FM15-METAR|223|ICAO-KCCB|||||||||||||12|Derived||FM15-METAR|223|ICAO-KCCB|||||||||||||||||||||||||||||||||||||||||||||||||||||||||||||||||||||||||1017.9||1|FM15-METAR|223|ICAO-KCCB|||||||||||||||||||||||||||||||||||||||||||MET062METAR KCCB 131655Z AUTO 26003KT 10SM CLR 19/M11 A3006 RMK AO2=||F||223|ICAO-KCCB
USI0000KCCB|CABLE|2017|12|13|17|15|34.1115|-117.6876|438.6|20.0||1|FM15-METAR|223|ICAO-KCCB|-16.0||1|FM15-METAR|223|ICAO-KCCB|||||||||||||250|N-Normal|1|FM15-METAR|223|ICAO-KCCB|3.1|N-Normal|1|FM15-METAR|223|ICAO-KCCB|||||||||||||7|Derived||FM15-METAR|223|ICAO-KCCB|||||||||||||||||||||||||||||||||||||||||||||||||||||||||||||||||||||||||1017.9||1|FM15-METAR|223|ICAO-KCCB|||||||||||||||||||||||||||||||||||||||||||MET062METAR KCCB 131715Z AUTO 25006KT 10SM CLR 20/M16 A3006 RMK AO2=||F||223|ICAO-KCCB
USI0000KCCB|CABLE|2017|12|13|17|35|34.1115|-117.6876|438.6|21.0||1|FM15-METAR|223|ICAO-KCCB|-15.0||1|FM15-METAR|223|ICAO-KCCB|||||||||||||250|N-Normal|1|FM15-METAR|223|ICAO-KCCB|2.6|N-Normal|1|FM15-METAR|223|ICAO-KCCB|||||||||||||8|Derived||FM15-METAR|223|ICAO-KCCB|||||||||||||||||||||||||||||||||||||||||||||||||||||||||||||||||||||||||1018.3||1|FM15-METAR|223|ICAO-KCCB|||||||||||||||||||||||||||||||||||||||||||MET062METAR KCCB 131735Z AUTO 25005KT 10SM CLR 21/M15 A3007 RMK AO2=||F||223|ICAO-KCCB
USI0000KCCB|CABLE|2017|12|13|17|55|34.1115|-117.6876|438.6|21.0||1|FM15-METAR|223|ICAO-KCCB|-17.0||1|FM15-METAR|223|ICAO-KCCB|||||||||||||250|N-Normal|1|FM15-METAR|223|ICAO-KCCB|2.6|N-Normal|1|FM15-METAR|223|ICAO-KCCB|||||||||||||6|Derived||FM15-METAR|223|ICAO-KCCB|||||||||||||||||||||||||||||||||||||||||||||||||||||||||||||||||||||||||1017.9||1|FM15-METAR|223|ICAO-KCCB|||||||||||||||||||||||||||||||||||||||||||MET062METAR KCCB 131755Z AUTO 25005KT 10SM CLR 21/M17 A3006 RMK AO2=||F||223|ICAO-KCCB
USI0000KCCB|CABLE|2017|12|13|18|15|34.1115|-117.6876|438.6|22.0||1|FM15-METAR|223|ICAO-KCCB|-17.0||1|FM15-METAR|223|ICAO-KCCB|||||||||||||240|N-Normal|1|FM15-METAR|223|ICAO-KCCB|3.1|N-Normal|1|FM15-METAR|223|ICAO-KCCB|||||||||||||6|Derived||FM15-METAR|223|ICAO-KCCB|||||||||||||||||||||||||||||||||||||||||||||||||||||||||||||||||||||||||1017.6||1|FM15-METAR|223|ICAO-KCCB|||||||||||||||||||||||||||||||||||||||||||MET062METAR KCCB 131815Z AUTO 24006KT 10SM CLR 22/M17 A3005 RMK AO2=||F||223|ICAO-KCCB
USI0000KCCB|CABLE|2017|12|13|18|35|34.1115|-117.6876|438.6|23.0||1|FM15-METAR|223|ICAO-KCCB|-17.0||1|FM15-METAR|223|ICAO-KCCB|||||||||||||210|N-Normal|1|FM15-METAR|223|ICAO-KCCB|2.6|N-Normal|1|FM15-METAR|223|ICAO-KCCB|||||||||||||6|Derived||FM15-METAR|223|ICAO-KCCB|||||||||||||||||||||||||||||||||||||||||||||||||||||||||||||||||||||||||1017.3||1|FM15-METAR|223|ICAO-KCCB|||||||||||||||||||||||||||||||||||||||||||MET062METAR KCCB 131835Z AUTO 21005KT 10SM CLR 23/M17 A3004 RMK AO2=||F||223|ICAO-KCCB
USI0000KCCB|CABLE|2017|12|13|18|55|34.1115|-117.6876|438.6|23.0||1|FM15-METAR|223|ICAO-KCCB|-18.0||1|FM15-METAR|223|ICAO-KCCB|||||||||||||230|N-Normal|1|FM15-METAR|223|ICAO-KCCB|2.1|N-Normal|1|FM15-METAR|223|ICAO-KCCB|||||||||||||5|Derived||FM15-METAR|223|ICAO-KCCB|||||||||||||||||||||||||||||||||||||||||||||||||||||||||||||||||||||||||1016.9||1|FM15-METAR|223|ICAO-KCCB|||||||||||||||||||||||||||||||||||||||||||MET062METAR KCCB 131855Z AUTO 23004KT 10SM CLR 23/M18 A3003 RMK AO2=||F||223|ICAO-KCCB
USI0000KCCB|CABLE|2017|12|13|19|15|34.1115|-117.6876|438.6|24.0||1|FM15-METAR|223|ICAO-KCCB|-18.0||1|FM15-METAR|223|ICAO-KCCB|||||||||||||230|N-Normal|1|FM15-METAR|223|ICAO-KCCB|2.1|N-Normal|1|FM15-METAR|223|ICAO-KCCB|||||||||||||5|Derived||FM15-METAR|223|ICAO-KCCB|||||||||||||||||||||||||||||||||||||||||||||||||||||||||||||||||||||||||1016.9||1|FM15-METAR|223|ICAO-KCCB|||||||||||||||||||||||||||||||||||||||||||MET062METAR KCCB 131915Z AUTO 23004KT 10SM CLR 24/M18 A3003 RMK AO2=||F||223|ICAO-KCCB
USI0000KCCB|CABLE|2017|12|13|19|35|34.1115|-117.6876|438.6|24.0||1|FM15-METAR|223|ICAO-KCCB|-19.0||1|FM15-METAR|223|ICAO-KCCB|||||||||||||999|V-Variable|9|FM15-METAR|223|ICAO-KCCB|1.5|V-Variable|1|FM15-METAR|223|ICAO-KCCB|||||||||||||4|Derived||FM15-METAR|223|ICAO-KCCB|||||||||||||||||||||||||||||||||||||||||||||||||||||||||||||||||||||||||1016.6||1|FM15-METAR|223|ICAO-KCCB|||||||||||||||||||||||||||||||||||||||||||MET062METAR KCCB 131935Z AUTO VRB03KT 10SM CLR 24/M19 A3002 RMK AO2=||F||223|ICAO-KCCB
USI0000KCCB|CABLE|2017|12|13|19|55|34.1115|-117.6876|438.6|25.0||1|FM15-METAR|223|ICAO-KCCB|-19.0||1|FM15-METAR|223|ICAO-KCCB|||||||||||||230|N-Normal|1|FM15-METAR|223|ICAO-KCCB|2.6|N-Normal|1|FM15-METAR|223|ICAO-KCCB|||||||||||||4|Derived||FM15-METAR|223|ICAO-KCCB|||||||||||||||||||||||||||||||||||||||||||||||||||||||||||||||||||||||||1016.3||1|FM15-METAR|223|ICAO-KCCB|||||||||||||||||||||||||||||||||||||||||||MET062METAR KCCB 131955Z AUTO 23005KT 10SM CLR 25/M19 A3001 RMK AO2=||F||223|ICAO-KCCB
USI0000KCCB|CABLE|2017|12|13|20|15|34.1115|-117.6876|438.6|25.0||1|FM15-METAR|223|ICAO-KCCB|-18.0||1|FM15-METAR|223|ICAO-KCCB|||||||||||||260|N-Normal|1|FM15-METAR|223|ICAO-KCCB|3.1|N-Normal|1|FM15-METAR|223|ICAO-KCCB|||||||||||||5|Derived||FM15-METAR|223|ICAO-KCCB|||||||||||||||||||||||||||||||||||||||||||||||||||||||||||||||||||||||||1015.6||1|FM15-METAR|223|ICAO-KCCB|||||||||||||||||||||||||||||||||||||||||||MET062METAR KCCB 132015Z AUTO 26006KT 10SM CLR 25/M18 A2999 RMK AO2=||F||223|ICAO-KCCB
USI0000KCCB|CABLE|2017|12|13|20|35|34.1115|-117.6876|438.6|26.0||1|FM15-METAR|223|ICAO-KCCB|-17.0||1|FM15-METAR|223|ICAO-KCCB|||||||||||||250|N-Normal|1|FM15-METAR|223|ICAO-KCCB|3.1|N-Normal|1|FM15-METAR|223|ICAO-KCCB|||||||||||||5|Derived||FM15-METAR|223|ICAO-KCCB|||||||||||||||||||||||||||||||||||||||||||||||||||||||||||||||||||||||||1015.6||1|FM15-METAR|223|ICAO-KCCB|||||||||||||||||||||||||||||||||||||||||||MET062METAR KCCB 132035Z AUTO 25006KT 10SM CLR 26/M17 A2999 RMK AO2=||F||223|ICAO-KCCB
USI0000KCCB|CABLE|2017|12|13|20|55|34.1115|-117.6876|438.6|26.0||1|FM15-METAR|223|ICAO-KCCB|-19.0||1|FM15-METAR|223|ICAO-KCCB|||||||||||||270|N-Normal|1|FM15-METAR|223|ICAO-KCCB|4.6|N-Normal|1|FM15-METAR|223|ICAO-KCCB|||||||||||||4|Derived||FM15-METAR|223|ICAO-KCCB|||||||||||||||||||||||||||||||||||||||||||||||||||||||||||||||||||||||||1015.2||1|FM15-METAR|223|ICAO-KCCB|||||||||||||||||||||||||||||||||||||||||||MET062METAR KCCB 132055Z AUTO 27009KT 10SM CLR 26/M19 A2998 RMK AO2=||F||223|ICAO-KCCB
USI0000KCCB|CABLE|2017|12|13|21|15|34.1115|-117.6876|438.6|26.0||1|FM15-METAR|223|ICAO-KCCB|-19.0||1|FM15-METAR|223|ICAO-KCCB|||||||||||||260|N-Normal|1|FM15-METAR|223|ICAO-KCCB|4.1|N-Normal|1|FM15-METAR|223|ICAO-KCCB|||||||||||||4|Derived||FM15-METAR|223|ICAO-KCCB|||||||||||||||||||||||||||||||||||||||||||||||||||||||||||||||||||||||||1015.2||1|FM15-METAR|223|ICAO-KCCB|||||||||||||||||||||||||||||||||||||||||||MET062METAR KCCB 132115Z AUTO 26008KT 10SM CLR 26/M19 A2998 RMK AO2=||F||223|ICAO-KCCB
USI0000KCCB|CABLE|2017|12|13|21|35|34.1115|-117.6876|438.6|26.0||1|FM15-METAR|223|ICAO-KCCB|-19.0||1|FM15-METAR|223|ICAO-KCCB|||||||||||||260|N-Normal|1|FM15-METAR|223|ICAO-KCCB|4.1|N-Normal|1|FM15-METAR|223|ICAO-KCCB|||||||||||||4|Derived||FM15-METAR|223|ICAO-KCCB|||||||||||||||||||||||||||||||||||||||||||||||||||||||||||||||||||||||||1014.9||1|FM15-METAR|223|ICAO-KCCB|||||||||||||||||||||||||||||||||||||||||||MET062METAR KCCB 132135Z AUTO 26008KT 10SM CLR 26/M19 A2997 RMK AO2=||F||223|ICAO-KCCB
USI0000KCCB|CABLE|2017|12|13|21|55|34.1115|-117.6876|438.6|26.0||1|FM15-METAR|223|ICAO-KCCB|-19.0||1|FM15-METAR|223|ICAO-KCCB|||||||||||||270|N-Normal|1|FM15-METAR|223|ICAO-KCCB|4.6|N-Normal|1|FM15-METAR|223|ICAO-KCCB|||||||||||||4|Derived||FM15-METAR|223|ICAO-KCCB|||||||||||||||||||||||||||||||||||||||||||||||||||||||||||||||||||||||||1014.9||1|FM15-METAR|223|ICAO-KCCB|||||||||||||||||||||||||||||||||||||||||||MET062METAR KCCB 132155Z AUTO 27009KT 10SM CLR 26/M19 A2997 RMK AO2=||F||223|ICAO-KCCB
USI0000KCCB|CABLE|2017|12|13|22|15|34.1115|-117.6876|438.6|26.0||1|FM15-METAR|223|ICAO-KCCB|-18.0||1|FM15-METAR|223|ICAO-KCCB|||||||||||||250|N-Normal|1|FM15-METAR|223|ICAO-KCCB|4.1|N-Normal|1|FM15-METAR|223|ICAO-KCCB|||||||||||||4|Derived||FM15-METAR|223|ICAO-KCCB|||||||||||||||||||||||||||||||||||||||||||||||||||||||||||||||||||||||||1014.9||1|FM15-METAR|223|ICAO-KCCB|||||||||||||||||||||||||||||||||||||||||||MET062METAR KCCB 132215Z AUTO 25008KT 10SM CLR 26/M18 A2997 RMK AO2=||F||223|ICAO-KCCB
USI0000KCCB|CABLE|2017|12|13|22|35|34.1115|-117.6876|438.6|26.0||1|FM15-METAR|223|ICAO-KCCB|-19.0||1|FM15-METAR|223|ICAO-KCCB|||||||||||||270|N-Normal|1|FM15-METAR|223|ICAO-KCCB|4.6|N-Normal|1|FM15-METAR|223|ICAO-KCCB|||||||||||||4|Derived||FM15-METAR|223|ICAO-KCCB|||||||||||||||||||||||||||||||||||||||||||||||||||||||||||||||||||||||||1014.6||1|FM15-METAR|223|ICAO-KCCB|||||||||||||||||||||||||||||||||||||||||||MET062METAR KCCB 132235Z AUTO 27009KT 10SM CLR 26/M19 A2996 RMK AO2=||F||223|ICAO-KCCB
USI0000KCCB|CABLE|2017|12|13|22|55|34.1115|-117.6876|438.6|26.0||1|FM15-METAR|223|ICAO-KCCB|-18.0||1|FM15-METAR|223|ICAO-KCCB|||||||||||||270|N-Normal|1|FM15-METAR|223|ICAO-KCCB|4.6|N-Normal|1|FM15-METAR|223|ICAO-KCCB|||||||||||||4|Derived||FM15-METAR|223|ICAO-KCCB|||||||||||||||||||||||||||||||||||||||||||||||||||||||||||||||||||||||||1014.6||1|FM15-METAR|223|ICAO-KCCB|||||||||||||||||||||||||||||||||||||||||||MET062METAR KCCB 132255Z AUTO 27009KT 10SM CLR 26/M18 A2996 RMK AO2=||F||223|ICAO-KCCB
USI0000KCCB|CABLE|2017|12|13|23|15|34.1115|-117.6876|438.6|26.0||1|FM15-METAR|223|ICAO-KCCB|-19.0||1|FM15-METAR|223|ICAO-KCCB|||||||||||||250|N-Normal|1|FM15-METAR|223|ICAO-KCCB|5.1|N-Normal|1|FM15-METAR|223|ICAO-KCCB|||||||||||||4|Derived||FM15-METAR|223|ICAO-KCCB|||||||||||||||||||||||||||||||||||||||||||||||||||||||||||||||||||||||||1014.6||1|FM15-METAR|223|ICAO-KCCB|||||||||||||||||||||||||||||||||||||||||||MET062METAR KCCB 132315Z AUTO 25010KT 10SM CLR 26/M19 A2996 RMK AO2=||F||223|ICAO-KCCB
USI0000KCCB|CABLE|2017|12|13|23|35|34.1115|-117.6876|438.6|26.0||1|FM15-METAR|223|ICAO-KCCB|-18.0||1|FM15-METAR|223|ICAO-KCCB|||||||||||||260|N-Normal|1|FM15-METAR|223|ICAO-KCCB|4.1|N-Normal|1|FM15-METAR|223|ICAO-KCCB|||||||||||||4|Derived||FM15-METAR|223|ICAO-KCCB|||||||||||||||||||||||||||||||||||||||||||||||||||||||||||||||||||||||||1014.6||1|FM15-METAR|223|ICAO-KCCB|||||||||||||||||||||||||||||||||||||||||||MET062METAR KCCB 132335Z AUTO 26008KT 10SM CLR 26/M18 A2996 RMK AO2=||F||223|ICAO-KCCB
USI0000KCCB|CABLE|2017|12|13|23|55|34.1115|-117.6876|438.6|25.0||1|FM15-METAR|223|ICAO-KCCB|-18.0||1|FM15-METAR|223|ICAO-KCCB|||||||||||||270|N-Normal|1|FM15-METAR|223|ICAO-KCCB|4.1|N-Normal|1|FM15-METAR|223|ICAO-KCCB|||||||||||||5|Derived||FM15-METAR|223|ICAO-KCCB|||||||||||||||||||||||||||||||||||||||||||||||||||||||||||||||||||||||||1014.6||1|FM15-METAR|223|ICAO-KCCB|||||||||||||||||||||||||||||||||||||||||||MET062METAR KCCB 132355Z AUTO 27008KT 10SM CLR 25/M18 A2996 RMK AO2=||F||223|ICAO-KCCB
USI0000KCCB|CABLE|2017|12|14|00|15|34.1115|-117.6876|438.6|25.0||1|FM15-METAR|223|ICAO-KCCB|-17.0||1|FM15-METAR|223|ICAO-KCCB|||||||||||||260|N-Normal|1|FM15-METAR|223|ICAO-KCCB|3.6|N-Normal|1|FM15-METAR|223|ICAO-KCCB|||||||||||||5|Derived||FM15-METAR|223|ICAO-KCCB|||||||||||||||||||||||||||||||||||||||||||||||||||||||||||||||||||||||||1014.6||1|FM15-METAR|223|ICAO-KCCB|||||||||||||||||||||||||||||||||||||||||||MET062METAR KCCB 140015Z AUTO 26007KT 10SM CLR 25/M17 A2996 RMK AO2=||F||223|ICAO-KCCB
USI0000KCCB|CABLE|2017|12|14|00|35|34.1115|-117.6876|438.6|23.0||1|FM15-METAR|223|ICAO-KCCB|-16.0||1|FM15-METAR|223|ICAO-KCCB|||||||||||||270|N-Normal|1|FM15-METAR|223|ICAO-KCCB|3.1|N-Normal|1|FM15-METAR|223|ICAO-KCCB|||||||||||||6|Derived||FM15-METAR|223|ICAO-KCCB|||||||||||||||||||||||||||||||||||||||||||||||||||||||||||||||||||||||||1014.6||1|FM15-METAR|223|ICAO-KCCB|||||||||||||||||||||||||||||||||||||||||||MET062METAR KCCB 140035Z AUTO 27006KT 10SM CLR 23/M16 A2996 RMK AO2=||F||223|ICAO-KCCB
USI0000KCCB|CABLE|2017|12|14|00|55|34.1115|-117.6876|438.6|23.0||1|FM15-METAR|223|ICAO-KCCB|-15.0||1|FM15-METAR|223|ICAO-KCCB|||||||||||||280|N-Normal|1|FM15-METAR|223|ICAO-KCCB|3.1|N-Normal|1|FM15-METAR|223|ICAO-KCCB|||||||||||||7|Derived||FM15-METAR|223|ICAO-KCCB|||||||||||||||||||||||||||||||||||||||||||||||||||||||||||||||||||||||||1014.6||1|FM15-METAR|223|ICAO-KCCB|||||||||||||||||||||||||||||||||||||||||||MET062METAR KCCB 140055Z AUTO 28006KT 10SM CLR 23/M15 A2996 RMK AO2=||F||223|ICAO-KCCB
USI0000KCCB|CABLE|2017|12|14|01|15|34.1115|-117.6876|438.6|22.0||1|FM15-METAR|223|ICAO-KCCB|-15.0||1|FM15-METAR|223|ICAO-KCCB|||||||||||||300|N-Normal|1|FM15-METAR|223|ICAO-KCCB|3.1|N-Normal|1|FM15-METAR|223|ICAO-KCCB|||||||||||||7|Derived||FM15-METAR|223|ICAO-KCCB|||||||||||||||||||||||||||||||||||||||||||||||||||||||||||||||||||||||||1014.6||1|FM15-METAR|223|ICAO-KCCB|||||||||||||||||||||||||||||||||||||||||||MET062METAR KCCB 140115Z AUTO 30006KT 10SM CLR 22/M15 A2996 RMK AO2=||F||223|ICAO-KCCB
USI0000KCCB|CABLE|2017|12|14|01|35|34.1115|-117.6876|438.6|21.0||1|FM15-METAR|223|ICAO-KCCB|-13.0||1|FM15-METAR|223|ICAO-KCCB|||||||||||||280|N-Normal|1|FM15-METAR|223|ICAO-KCCB|3.6|N-Normal|1|FM15-METAR|223|ICAO-KCCB|||||||||||||9|Derived||FM15-METAR|223|ICAO-KCCB|||||||||||||||||||||||||||||||||||||||||||||||||||||||||||||||||||||||||1014.9||1|FM15-METAR|223|ICAO-KCCB|||||||||||||||||||||||||||||||||||||||||||MET062METAR KCCB 140135Z AUTO 28007KT 10SM CLR 21/M13 A2997 RMK AO2=||F||223|ICAO-KCCB
USI0000KCCB|CABLE|2017|12|14|01|55|34.1115|-117.6876|438.6|20.0||1|FM15-METAR|223|ICAO-KCCB|-12.0||1|FM15-METAR|223|ICAO-KCCB|||||||||||||280|N-Normal|1|FM15-METAR|223|ICAO-KCCB|2.6|N-Normal|1|FM15-METAR|223|ICAO-KCCB|||||||||||||10|Derived||FM15-METAR|223|ICAO-KCCB|||||||||||||||||||||||||||||||||||||||||||||||||||||||||||||||||||||||||1014.9||1|FM15-METAR|223|ICAO-KCCB|||||||||||||||||||||||||||||||||||||||||||MET062METAR KCCB 140155Z AUTO 28005KT 10SM CLR 20/M12 A2997 RMK AO2=||F||223|ICAO-KCCB
USI0000KCCB|CABLE|2017|12|14|02|15|34.1115|-117.6876|438.6|19.0||1|FM15-METAR|223|ICAO-KCCB|-12.0||1|FM15-METAR|223|ICAO-KCCB|||||||||||||320|N-Normal|1|FM15-METAR|223|ICAO-KCCB|3.1|N-Normal|1|FM15-METAR|223|ICAO-KCCB|||||||||||||11|Derived||FM15-METAR|223|ICAO-KCCB|||||||||||||||||||||||||||||||||||||||||||||||||||||||||||||||||||||||||1015.2||1|FM15-METAR|223|ICAO-KCCB|||||||||||||||||||||||||||||||||||||||||||MET062METAR KCCB 140215Z AUTO 32006KT 10SM CLR 19/M12 A2998 RMK AO2=||F||223|ICAO-KCCB
USI0000KCCB|CABLE|2017|12|14|02|35|34.1115|-117.6876|438.6|19.0||1|FM15-METAR|223|ICAO-KCCB|-14.0||1|FM15-METAR|223|ICAO-KCCB|||||||||||||300|N-Normal|1|FM15-METAR|223|ICAO-KCCB|2.6|N-Normal|1|FM15-METAR|223|ICAO-KCCB|||||||||||||9|Derived||FM15-METAR|223|ICAO-KCCB|||||||||||||||||||||||||||||||||||||||||||||||||||||||||||||||||||||||||1014.9||1|FM15-METAR|223|ICAO-KCCB|||||||||||||||||||||||||||||||||||||||||||MET062METAR KCCB 140235Z AUTO 30005KT 10SM CLR 19/M14 A2997 RMK AO2=||F||223|ICAO-KCCB
USI0000KCCB|CABLE|2017|12|14|02|55|34.1115|-117.6876|438.6|18.0||1|FM15-METAR|223|ICAO-KCCB|-14.0||1|FM15-METAR|223|ICAO-KCCB|||||||||||||330|N-Normal|1|FM15-METAR|223|ICAO-KCCB|2.1|N-Normal|1|FM15-METAR|223|ICAO-KCCB|||||||||||||10|Derived||FM15-METAR|223|ICAO-KCCB|||||||||||||||||||||||||||||||||||||||||||||||||||||||||||||||||||||||||1014.6||1|FM15-METAR|223|ICAO-KCCB|||||||||||||||||||||||||||||||||||||||||||MET062METAR KCCB 140255Z AUTO 33004KT 10SM CLR 18/M14 A2996 RMK AO2=||F||223|ICAO-KCCB
USI0000KCCB|CABLE|2017|12|14|03|15|34.1115|-117.6876|438.6|18.0||1|FM15-METAR|223|ICAO-KCCB|-14.0||1|FM15-METAR|223|ICAO-KCCB|||||||||||||320|N-Normal|1|FM15-METAR|223|ICAO-KCCB|2.6|N-Normal|1|FM15-METAR|223|ICAO-KCCB|||||||||||||10|Derived||FM15-METAR|223|ICAO-KCCB|||||||||||||||||||||||||||||||||||||||||||||||||||||||||||||||||||||||||1014.6||1|FM15-METAR|223|ICAO-KCCB|||||||||||||||||||||||||||||||||||||||||||MET062METAR KCCB 140315Z AUTO 32005KT 10SM CLR 18/M14 A2996 RMK AO2=||F||223|ICAO-KCCB
USI0000KCCB|CABLE|2017|12|14|03|35|34.1115|-117.6876|438.6|17.0||1|FM15-METAR|223|ICAO-KCCB|-16.0||1|FM15-METAR|223|ICAO-KCCB|||||||||||||999|C-Calm|9|FM15-METAR|223|ICAO-KCCB|0.0|C-Calm|1|FM15-METAR|223|ICAO-KCCB|||||||||||||9|Derived||FM15-METAR|223|ICAO-KCCB|||||||||||||||||||||||||||||||||||||||||||||||||||||||||||||||||||||||||1014.6||1|FM15-METAR|223|ICAO-KCCB|||||||||||||||||||||||||||||||||||||||||||MET062METAR KCCB 140335Z AUTO 00000KT 10SM CLR 17/M16 A2996 RMK AO2=||F||223|ICAO-KCCB
USI0000KCCB|CABLE|2017|12|14|03|55|34.1115|-117.6876|438.6|18.0||1|FM15-METAR|223|ICAO-KCCB|-16.0||1|FM15-METAR|223|ICAO-KCCB|||||||||||||350|N-Normal|1|FM15-METAR|223|ICAO-KCCB|1.5|N-Normal|1|FM15-METAR|223|ICAO-KCCB|||||||||||||8|Derived||FM15-METAR|223|ICAO-KCCB|||||||||||||||||||||||||||||||||||||||||||||||||||||||||||||||||||||||||1014.9||1|FM15-METAR|223|ICAO-KCCB|||||||||||||||||||||||||||||||||||||||||||MET062METAR KCCB 140355Z AUTO 35003KT 10SM CLR 18/M16 A2997 RMK AO2=||F||223|ICAO-KCCB
USI0000KCCB|CABLE|2017|12|14|04|15|34.1115|-117.6876|438.6|18.0||1|FM15-METAR|223|ICAO-KCCB|-16.0||1|FM15-METAR|223|ICAO-KCCB|||||||||||||340|N-Normal|1|FM15-METAR|223|ICAO-KCCB|2.1|N-Normal|1|FM15-METAR|223|ICAO-KCCB|||||||||||||8|Derived||FM15-METAR|223|ICAO-KCCB|||||||||||||||||||||||||||||||||||||||||||||||||||||||||||||||||||||||||1014.9||1|FM15-METAR|223|ICAO-KCCB|||||||||||||||||||||||||||||||||||||||||||MET062METAR KCCB 140415Z AUTO 34004KT 10SM CLR 18/M16 A2997 RMK AO2=||F||223|ICAO-KCCB
USI0000KCCB|CABLE|2017|12|14|04|35|34.1115|-117.6876|438.6|17.0||1|FM15-METAR|223|ICAO-KCCB|-16.0||1|FM15-METAR|223|ICAO-KCCB|||||||||||||300|N-Normal|1|FM15-METAR|223|ICAO-KCCB|2.6|N-Normal|1|FM15-METAR|223|ICAO-KCCB|||||||||||||9|Derived||FM15-METAR|223|ICAO-KCCB|||||||||||||||||||||||||||||||||||||||||||||||||||||||||||||||||||||||||1015.2||1|FM15-METAR|223|ICAO-KCCB|||||||||||||||||||||||||||||||||||||||||||MET062METAR KCCB 140435Z AUTO 30005KT 10SM CLR 17/M16 A2998 RMK AO2=||F||223|ICAO-KCCB
USI0000KCCB|CABLE|2017|12|14|04|55|34.1115|-117.6876|438.6|16.0||1|FM15-METAR|223|ICAO-KCCB|-14.0||1|FM15-METAR|223|ICAO-KCCB|||||||||||||110|N-Normal|1|FM15-METAR|223|ICAO-KCCB|2.1|N-Normal|1|FM15-METAR|223|ICAO-KCCB|||||||||||||11|Derived||FM15-METAR|223|ICAO-KCCB|||||||||||||||||||||||||||||||||||||||||||||||||||||||||||||||||||||||||1015.6||1|FM15-METAR|223|ICAO-KCCB|||||||||||||||||||||||||||||||||||||||||||MET062METAR KCCB 140455Z AUTO 11004KT 10SM CLR 16/M14 A2999 RMK AO2=||F||223|ICAO-KCCB
USI0000KCCB|CABLE|2017|12|14|05|15|34.1115|-117.6876|438.6|16.0||1|FM15-METAR|223|ICAO-KCCB|-14.0||1|FM15-METAR|223|ICAO-KCCB|||||||||||||999|V-Variable|9|FM15-METAR|223|ICAO-KCCB|1.5|V-Variable|1|FM15-METAR|223|ICAO-KCCB|||||||||||||11|Derived||FM15-METAR|223|ICAO-KCCB|||||||||||||||||||||||||||||||||||||||||||||||||||||||||||||||||||||||||1015.6||1|FM15-METAR|223|ICAO-KCCB|||||||||||||||||||||||||||||||||||||||||||MET062METAR KCCB 140515Z AUTO VRB03KT 10SM CLR 16/M14 A2999 RMK AO2=||F||223|ICAO-KCCB
USI0000KCCB|CABLE|2017|12|14|05|35|34.1115|-117.6876|438.6|16.0||1|FM15-METAR|223|ICAO-KCCB|-13.0||1|FM15-METAR|223|ICAO-KCCB|||||||||||||050|N-Normal|1|FM15-METAR|223|ICAO-KCCB|2.6|N-Normal|1|FM15-METAR|223|ICAO-KCCB|||||||||||||12|Derived||FM15-METAR|223|ICAO-KCCB|||||||||||||||||||||||||||||||||||||||||||||||||||||||||||||||||||||||||1015.6||1|FM15-METAR|223|ICAO-KCCB|||||||||||||||||||||||||||||||||||||||||||MET062METAR KCCB 140535Z AUTO 05005KT 10SM CLR 16/M13 A2999 RMK AO2=||F||223|ICAO-KCCB
USI0000KCCB|CABLE|2017|12|14|05|55|34.1115|-117.6876|438.6|16.0||1|FM15-METAR|223|ICAO-KCCB|-13.0||1|FM15-METAR|223|ICAO-KCCB|||||||||||||060|N-Normal|1|FM15-METAR|223|ICAO-KCCB|2.6|N-Normal|1|FM15-METAR|223|ICAO-KCCB|||||||||||||12|Derived||FM15-METAR|223|ICAO-KCCB|||||||||||||||||||||||||||||||||||||||||||||||||||||||||||||||||||||||||1015.6||1|FM15-METAR|223|ICAO-KCCB|||||||||||||||||||||||||||||||||||||||||||MET062METAR KCCB 140555Z AUTO 06005KT 10SM CLR 16/M13 A2999 RMK AO2=||F||223|ICAO-KCCB
USI0000KCCB|CABLE|2017|12|14|06|15|34.1115|-117.6876|438.6|16.0||1|FM15-METAR|223|ICAO-KCCB|-13.0||1|FM15-METAR|223|ICAO-KCCB|||||||||||||060|N-Normal|1|FM15-METAR|223|ICAO-KCCB|2.6|N-Normal|1|FM15-METAR|223|ICAO-KCCB|||||||||||||12|Derived||FM15-METAR|223|ICAO-KCCB|||||||||||||||||||||||||||||||||||||||||||||||||||||||||||||||||||||||||1015.6||1|FM15-METAR|223|ICAO-KCCB|||||||||||||||||||||||||||||||||||||||||||MET062METAR KCCB 140615Z AUTO 06005KT 10SM CLR 16/M13 A2999 RMK AO2=||F||223|ICAO-KCCB
USI0000KCCB|CABLE|2017|12|14|06|35|34.1115|-117.6876|438.6|17.0||1|FM15-METAR|223|ICAO-KCCB|-14.0||1|FM15-METAR|223|ICAO-KCCB|||||||||||||050|N-Normal|1|FM15-METAR|223|ICAO-KCCB|2.1|N-Normal|1|FM15-METAR|223|ICAO-KCCB|||||||||||||11|Derived||FM15-METAR|223|ICAO-KCCB|||||||||||||||||||||||||||||||||||||||||||||||||||||||||||||||||||||||||1015.6||1|FM15-METAR|223|ICAO-KCCB|||||||||||||||||||||||||||||||||||||||||||MET065METAR KCCB 140635Z AUTO 05004KT 10SM FEW022 17/M14 A2999 RMK AO2=||F||223|ICAO-KCCB
USI0000KCCB|CABLE|2017|12|14|06|55|34.1115|-117.6876|438.6|15.0||1|FM15-METAR|223|ICAO-KCCB|-11.0||1|FM15-METAR|223|ICAO-KCCB|||||||||||||090|N-Normal|1|FM15-METAR|223|ICAO-KCCB|2.6|N-Normal|1|FM15-METAR|223|ICAO-KCCB|||||||||||||16|Derived||FM15-METAR|223|ICAO-KCCB|||||||||||||||||||||||||||||||||||||||||||||||||||||||||||||||||||||||||1015.9||1|FM15-METAR|223|ICAO-KCCB|||||||||||||||||||||||||||||||||||||||||||MET065METAR KCCB 140655Z AUTO 09005KT 10SM BKN022 15/M11 A3000 RMK AO2=||F||223|ICAO-KCCB
USI0000KCCB|CABLE|2017|12|14|07|15|34.1115|-117.6876|438.6|15.0||1|FM15-METAR|223|ICAO-KCCB|-11.0||1|FM15-METAR|223|ICAO-KCCB|||||||||||||050|N-Normal|1|FM15-METAR|223|ICAO-KCCB|2.1|N-Normal|1|FM15-METAR|223|ICAO-KCCB|||||||||||||16|Derived||FM15-METAR|223|ICAO-KCCB|||||||||||||||||||||||||||||||||||||||||||||||||||||||||||||||||||||||||1015.6||1|FM15-METAR|223|ICAO-KCCB|||||||||||||||||||||||||||||||||||||||||||MET065METAR KCCB 140715Z AUTO 05004KT 10SM FEW023 15/M11 A2999 RMK AO2=||F||223|ICAO-KCCB
USI0000KCCB|CABLE|2017|12|14|07|35|34.1115|-117.6876|438.6|15.0||1|FM15-METAR|223|ICAO-KCCB|-11.0||1|FM15-METAR|223|ICAO-KCCB|||||||||||||040|N-Normal|1|FM15-METAR|223|ICAO-KCCB|3.1|N-Normal|1|FM15-METAR|223|ICAO-KCCB|||||||||||||16|Derived||FM15-METAR|223|ICAO-KCCB|||||||||||||||||||||||||||||||||||||||||||||||||||||||||||||||||||||||||1015.2||1|FM15-METAR|223|ICAO-KCCB|||||||||||||||||||||||||||||||||||||||||||MET062METAR KCCB 140735Z AUTO 04006KT 10SM CLR 15/M11 A2998 RMK AO2=||F||223|ICAO-KCCB
USI0000KCCB|CABLE|2017|12|14|07|55|34.1115|-117.6876|438.6|16.0||1|FM15-METAR|223|ICAO-KCCB|-12.0||1|FM15-METAR|223|ICAO-KCCB|||||||||||||050|N-Normal|1|FM15-METAR|223|ICAO-KCCB|3.1|N-Normal|1|FM15-METAR|223|ICAO-KCCB|||||||||||||13|Derived||FM15-METAR|223|ICAO-KCCB|||||||||||||||||||||||||||||||||||||||||||||||||||||||||||||||||||||||||1015.2||1|FM15-METAR|223|ICAO-KCCB|||||||||||||||||||||||||||||||||||||||||||MET062METAR KCCB 140755Z AUTO 05006KT 10SM CLR 16/M12 A2998 RMK AO2=||F||223|ICAO-KCCB
USI0000KCCB|CABLE|2017|12|14|08|15|34.1115|-117.6876|438.6|14.0||1|FM15-METAR|223|ICAO-KCCB|-12.0||1|FM15-METAR|223|ICAO-KCCB|||||||||||||070|N-Normal|1|FM15-METAR|223|ICAO-KCCB|1.5|N-Normal|1|FM15-METAR|223|ICAO-KCCB|||||||||||||15|Derived||FM15-METAR|223|ICAO-KCCB|||||||||||||||||||||||||||||||||||||||||||||||||||||||||||||||||||||||||1014.9||1|FM15-METAR|223|ICAO-KCCB|||||||||||||||||||||||||||||||||||||||||||MET062METAR KCCB 140815Z AUTO 07003KT 10SM CLR 14/M12 A2997 RMK AO2=||F||223|ICAO-KCCB
USI0000KCCB|CABLE|2017|12|14|08|35|34.1115|-117.6876|438.6|15.0||1|FM15-METAR|223|ICAO-KCCB|-12.0||1|FM15-METAR|223|ICAO-KCCB|||||||||||||050|N-Normal|1|FM15-METAR|223|ICAO-KCCB|2.6|N-Normal|1|FM15-METAR|223|ICAO-KCCB|||||||||||||14|Derived||FM15-METAR|223|ICAO-KCCB|||||||||||||||||||||||||||||||||||||||||||||||||||||||||||||||||||||||||1014.9||1|FM15-METAR|223|ICAO-KCCB|||||||||||||||||||||||||||||||||||||||||||MET062METAR KCCB 140835Z AUTO 05005KT 10SM CLR 15/M12 A2997 RMK AO2=||F||223|ICAO-KCCB
USI0000KCCB|CABLE|2017|12|14|08|55|34.1115|-117.6876|438.6|14.0||1|FM15-METAR|223|ICAO-KCCB|-12.0||1|FM15-METAR|223|ICAO-KCCB|||||||||||||999|C-Calm|9|FM15-METAR|223|ICAO-KCCB|0.0|C-Calm|1|FM15-METAR|223|ICAO-KCCB|||||||||||||15|Derived||FM15-METAR|223|ICAO-KCCB|||||||||||||||||||||||||||||||||||||||||||||||||||||||||||||||||||||||||1014.9||1|FM15-METAR|223|ICAO-KCCB|||||||||||||||||||||||||||||||||||||||||||MET062METAR KCCB 140855Z AUTO 00000KT 10SM CLR 14/M12 A2997 RMK AO2=||F||223|ICAO-KCCB
USI0000KCCB|CABLE|2017|12|14|09|15|34.1115|-117.6876|438.6|15.0||1|FM15-METAR|223|ICAO-KCCB|-11.0||1|FM15-METAR|223|ICAO-KCCB|||||||||||||040|N-Normal|1|FM15-METAR|223|ICAO-KCCB|2.1|N-Normal|1|FM15-METAR|223|ICAO-KCCB|||||||||||||16|Derived||FM15-METAR|223|ICAO-KCCB|||||||||||||||||||||||||||||||||||||||||||||||||||||||||||||||||||||||||1014.9||1|FM15-METAR|223|ICAO-KCCB|||||||||||||||||||||||||||||||||||||||||||MET062METAR KCCB 140915Z AUTO 04004KT 10SM CLR 15/M11 A2997 RMK AO2=||F||223|ICAO-KCCB
USI0000KCCB|CABLE|2017|12|14|09|35|34.1115|-117.6876|438.6|14.0||1|FM15-METAR|223|ICAO-KCCB|-13.0||1|FM15-METAR|223|ICAO-KCCB|||||||||||||050|N-Normal|1|FM15-METAR|223|ICAO-KCCB|2.6|N-Normal|1|FM15-METAR|223|ICAO-KCCB|||||||||||||14|Derived||FM15-METAR|223|ICAO-KCCB|||||||||||||||||||||||||||||||||||||||||||||||||||||||||||||||||||||||||1014.9||1|FM15-METAR|223|ICAO-KCCB|||||||||||||||||||||||||||||||||||||||||||MET062METAR KCCB 140935Z AUTO 05005KT 10SM CLR 14/M13 A2997 RMK AO2=||F||223|ICAO-KCCB
USI0000KCCB|CABLE|2017|12|14|09|55|34.1115|-117.6876|438.6|15.0||1|FM15-METAR|223|ICAO-KCCB|-13.0||1|FM15-METAR|223|ICAO-KCCB|||||||||||||040|N-Normal|1|FM15-METAR|223|ICAO-KCCB|2.1|N-Normal|1|FM15-METAR|223|ICAO-KCCB|||||||||||||13|Derived||FM15-METAR|223|ICAO-KCCB|||||||||||||||||||||||||||||||||||||||||||||||||||||||||||||||||||||||||1014.9||1|FM15-METAR|223|ICAO-KCCB|||||||||||||||||||||||||||||||||||||||||||MET062METAR KCCB 140955Z AUTO 04004KT 10SM CLR 15/M13 A2997 RMK AO2=||F||223|ICAO-KCCB
USI0000KCCB|CABLE|2017|12|14|10|15|34.1115|-117.6876|438.6|15.0||1|FM15-METAR|223|ICAO-KCCB|-13.0||1|FM15-METAR|223|ICAO-KCCB|||||||||||||040|N-Normal|1|FM15-METAR|223|ICAO-KCCB|1.5|N-Normal|1|FM15-METAR|223|ICAO-KCCB|||||||||||||13|Derived||FM15-METAR|223|ICAO-KCCB|||||||||||||||||||||||||||||||||||||||||||||||||||||||||||||||||||||||||1014.9||1|FM15-METAR|223|ICAO-KCCB|||||||||||||||||||||||||||||||||||||||||||MET062METAR KCCB 141015Z AUTO 04003KT 10SM CLR 15/M13 A2997 RMK AO2=||F||223|ICAO-KCCB
USI0000KCCB|CABLE|2017|12|14|10|35|34.1115|-117.6876|438.6|13.0||1|FM15-METAR|223|ICAO-KCCB|-12.0||1|FM15-METAR|223|ICAO-KCCB|||||||||||||070|N-Normal|1|FM15-METAR|223|ICAO-KCCB|1.5|N-Normal|1|FM15-METAR|223|ICAO-KCCB|||||||||||||16|Derived||FM15-METAR|223|ICAO-KCCB|||||||||||||||||||||||||||||||||||||||||||||||||||||||||||||||||||||||||1014.9||1|FM15-METAR|223|ICAO-KCCB|||||||||||||||||||||||||||||||||||||||||||MET062METAR KCCB 141035Z AUTO 07003KT 10SM CLR 13/M12 A2997 RMK AO2=||F||223|ICAO-KCCB
USI0000KCCB|CABLE|2017|12|14|10|55|34.1115|-117.6876|438.6|14.0||1|FM15-METAR|223|ICAO-KCCB|-12.0||1|FM15-METAR|223|ICAO-KCCB|||||||||||||999|C-Calm|9|FM15-METAR|223|ICAO-KCCB|0.0|C-Calm|1|FM15-METAR|223|ICAO-KCCB|||||||||||||15|Derived||FM15-METAR|223|ICAO-KCCB|||||||||||||||||||||||||||||||||||||||||||||||||||||||||||||||||||||||||1014.6||1|FM15-METAR|223|ICAO-KCCB|||||||||||||||||||||||||||||||||||||||||||MET062METAR KCCB 141055Z AUTO 00000KT 10SM CLR 14/M12 A2996 RMK AO2=||F||223|ICAO-KCCB
USI0000KCCB|CABLE|2017|12|14|11|15|34.1115|-117.6876|438.6|12.0||1|FM15-METAR|223|ICAO-KCCB|-11.0||1|FM15-METAR|223|ICAO-KCCB|||||||||||||080|N-Normal|1|FM15-METAR|223|ICAO-KCCB|2.1|N-Normal|1|FM15-METAR|223|ICAO-KCCB|||||||||||||19|Derived||FM15-METAR|223|ICAO-KCCB|||||||||||||||||||||||||||||||||||||||||||||||||||||||||||||||||||||||||1014.9||1|FM15-METAR|223|ICAO-KCCB|||||||||||||||||||||||||||||||||||||||||||MET062METAR KCCB 141115Z AUTO 08004KT 10SM CLR 12/M11 A2997 RMK AO2=||F||223|ICAO-KCCB
USI0000KCCB|CABLE|2017|12|14|11|35|34.1115|-117.6876|438.6|13.0||1|FM15-METAR|223|ICAO-KCCB|-12.0||1|FM15-METAR|223|ICAO-KCCB|||||||||||||060|N-Normal|1|FM15-METAR|223|ICAO-KCCB|2.1|N-Normal|1|FM15-METAR|223|ICAO-KCCB|||||||||||||16|Derived||FM15-METAR|223|ICAO-KCCB|||||||||||||||||||||||||||||||||||||||||||||||||||||||||||||||||||||||||1014.6||1|FM15-METAR|223|ICAO-KCCB|||||||||||||||||||||||||||||||||||||||||||MET062METAR KCCB 141135Z AUTO 06004KT 10SM CLR 13/M12 A2996 RMK AO2=||F||223|ICAO-KCCB
USI0000KCCB|CABLE|2017|12|14|11|55|34.1115|-117.6876|438.6|13.0||1|FM15-METAR|223|ICAO-KCCB|-12.0||1|FM15-METAR|223|ICAO-KCCB|||||||||||||360|N-Normal|1|FM15-METAR|223|ICAO-KCCB|2.1|N-Normal|1|FM15-METAR|223|ICAO-KCCB|||||||||||||16|Derived||FM15-METAR|223|ICAO-KCCB|||||||||||||||||||||||||||||||||||||||||||||||||||||||||||||||||||||||||1014.6||1|FM15-METAR|223|ICAO-KCCB|||||||||||||||||||||||||||||||||||||||||||MET062METAR KCCB 141155Z AUTO 36004KT 10SM CLR 13/M12 A2996 RMK AO2=||F||223|ICAO-KCCB
USI0000KCCB|CABLE|2017|12|14|12|15|34.1115|-117.6876|438.6|13.0||1|FM15-METAR|223|ICAO-KCCB|-11.0||1|FM15-METAR|223|ICAO-KCCB|||||||||||||050|N-Normal|1|FM15-METAR|223|ICAO-KCCB|1.5|N-Normal|1|FM15-METAR|223|ICAO-KCCB|||||||||||||18|Derived||FM15-METAR|223|ICAO-KCCB|||||||||||||||||||||||||||||||||||||||||||||||||||||||||||||||||||||||||1014.6||1|FM15-METAR|223|ICAO-KCCB|||||||||||||||||||||||||||||||||||||||||||MET062METAR KCCB 141215Z AUTO 05003KT 10SM CLR 13/M11 A2996 RMK AO2=||F||223|ICAO-KCCB
USI0000KCCB|CABLE|2017|12|14|12|35|34.1115|-117.6876|438.6|13.0||1|FM15-METAR|223|ICAO-KCCB|-12.0||1|FM15-METAR|223|ICAO-KCCB|||||||||||||320|N-Normal|1|FM15-METAR|223|ICAO-KCCB|2.1|N-Normal|1|FM15-METAR|223|ICAO-KCCB|||||||||||||16|Derived||FM15-METAR|223|ICAO-KCCB|||||||||||||||||||||||||||||||||||||||||||||||||||||||||||||||||||||||||1014.6||1|FM15-METAR|223|ICAO-KCCB|||||||||||||||||||||||||||||||||||||||||||MET062METAR KCCB 141235Z AUTO 32004KT 10SM CLR 13/M12 A2996 RMK AO2=||F||223|ICAO-KCCB
USI0000KCCB|CABLE|2017|12|14|12|55|34.1115|-117.6876|438.6|13.0||1|FM15-METAR|223|ICAO-KCCB|-13.0||1|FM15-METAR|223|ICAO-KCCB|||||||||||||999|C-Calm|9|FM15-METAR|223|ICAO-KCCB|0.0|C-Calm|1|FM15-METAR|223|ICAO-KCCB|||||||||||||15|Derived||FM15-METAR|223|ICAO-KCCB|||||||||||||||||||||||||||||||||||||||||||||||||||||||||||||||||||||||||1014.6||1|FM15-METAR|223|ICAO-KCCB|||||||||||||||||||||||||||||||||||||||||||MET062METAR KCCB 141255Z AUTO 00000KT 10SM CLR 13/M13 A2996 RMK AO2=||F||223|ICAO-KCCB
USI0000KCCB|CABLE|2017|12|14|13|15|34.1115|-117.6876|438.6|14.0||1|FM15-METAR|223|ICAO-KCCB|-14.0||1|FM15-METAR|223|ICAO-KCCB|||||||||||||999|C-Calm|9|FM15-METAR|223|ICAO-KCCB|0.0|C-Calm|1|FM15-METAR|223|ICAO-KCCB|||||||||||||13|Derived||FM15-METAR|223|ICAO-KCCB|||||||||||||||||||||||||||||||||||||||||||||||||||||||||||||||||||||||||1014.9||1|FM15-METAR|223|ICAO-KCCB|||||||||||||||||||||||||||||||||||||||||||MET062METAR KCCB 141315Z AUTO 00000KT 10SM CLR 14/M14 A2997 RMK AO2=||F||223|ICAO-KCCB
USI0000KCCB|CABLE|2017|12|14|13|35|34.1115|-117.6876|438.6|14.0||1|FM15-METAR|223|ICAO-KCCB|-13.0||1|FM15-METAR|223|ICAO-KCCB|||||||||||||999|C-Calm|9|FM15-METAR|223|ICAO-KCCB|0.0|C-Calm|1|FM15-METAR|223|ICAO-KCCB|||||||||||||14|Derived||FM15-METAR|223|ICAO-KCCB|||||||||||||||||||||||||||||||||||||||||||||||||||||||||||||||||||||||||1014.9||1|FM15-METAR|223|ICAO-KCCB|||||||||||||||||||||||||||||||||||||||||||MET062METAR KCCB 141335Z AUTO 00000KT 10SM CLR 14/M13 A2997 RMK AO2=||F||223|ICAO-KCCB
USI0000KCCB|CABLE|2017|12|14|13|55|34.1115|-117.6876|438.6|14.0||1|FM15-METAR|223|ICAO-KCCB|-13.0||1|FM15-METAR|223|ICAO-KCCB|||||||||||||330|N-Normal|1|FM15-METAR|223|ICAO-KCCB|2.1|N-Normal|1|FM15-METAR|223|ICAO-KCCB|||||||||||||14|Derived||FM15-METAR|223|ICAO-KCCB|||||||||||||||||||||||||||||||||||||||||||||||||||||||||||||||||||||||||1015.2||1|FM15-METAR|223|ICAO-KCCB|||||||||||||||||||||||||||||||||||||||||||MET062METAR KCCB 141355Z AUTO 33004KT 10SM CLR 14/M13 A2998 RMK AO2=||F||223|ICAO-KCCB
USI0000KCCB|CABLE|2017|12|14|14|15|34.1115|-117.6876|438.6|13.0||1|FM15-METAR|223|ICAO-KCCB|-12.0||1|FM15-METAR|223|ICAO-KCCB|||||||||||||340|N-Normal|1|FM15-METAR|223|ICAO-KCCB|3.1|N-Normal|1|FM15-METAR|223|ICAO-KCCB|||||||||||||16|Derived||FM15-METAR|223|ICAO-KCCB|||||||||||||||||||||||||||||||||||||||||||||||||||||||||||||||||||||||||1015.2||1|FM15-METAR|223|ICAO-KCCB|||||||||||||||||||||||||||||||||||||||||||MET062METAR KCCB 141415Z AUTO 34006KT 10SM CLR 13/M12 A2998 RMK AO2=||F||223|ICAO-KCCB
USI0000KCCB|CABLE|2017|12|14|14|35|34.1115|-117.6876|438.6|13.0||1|FM15-METAR|223|ICAO-KCCB|-13.0||1|FM15-METAR|223|ICAO-KCCB|||||||||||||320|N-Normal|1|FM15-METAR|223|ICAO-KCCB|2.1|N-Normal|1|FM15-METAR|223|ICAO-KCCB|||||||||||||15|Derived||FM15-METAR|223|ICAO-KCCB|||||||||||||||||||||||||||||||||||||||||||||||||||||||||||||||||||||||||1015.6||1|FM15-METAR|223|ICAO-KCCB|||||||||||||||||||||||||||||||||||||||||||MET062METAR KCCB 141435Z AUTO 32004KT 10SM CLR 13/M13 A2999 RMK AO2=||F||223|ICAO-KCCB
USI0000KCCB|CABLE|2017|12|14|14|55|34.1115|-117.6876|438.6|14.0||1|FM15-METAR|223|ICAO-KCCB|-13.0||1|FM15-METAR|223|ICAO-KCCB|||||||||||||999|V-Variable|9|FM15-METAR|223|ICAO-KCCB|1.5|V-Variable|1|FM15-METAR|223|ICAO-KCCB|||||||||||||14|Derived||FM15-METAR|223|ICAO-KCCB|||||||||||||||||||||||||||||||||||||||||||||||||||||||||||||||||||||||||1015.6||1|FM15-METAR|223|ICAO-KCCB|||||||||||||||||||||||||||||||||||||||||||MET062METAR KCCB 141455Z AUTO VRB03KT 10SM CLR 14/M13 A2999 RMK AO2=||F||223|ICAO-KCCB
USI0000KCCB|CABLE|2017|12|14|15|15|34.1115|-117.6876|438.6|15.0||1|FM15-METAR|223|ICAO-KCCB|-13.0||1|FM15-METAR|223|ICAO-KCCB|||||||||||||999|C-Calm|9|FM15-METAR|223|ICAO-KCCB|0.0|C-Calm|1|FM15-METAR|223|ICAO-KCCB|||||||||||||13|Derived||FM15-METAR|223|ICAO-KCCB|||||||||||||||||||||||||||||||||||||||||||||||||||||||||||||||||||||||||1015.9||1|FM15-METAR|223|ICAO-KCCB|||||||||||||||||||||||||||||||||||||||||||MET062METAR KCCB 141515Z AUTO 00000KT 10SM CLR 15/M13 A3000 RMK AO2=||F||223|ICAO-KCCB
USI0000KCCB|CABLE|2017|12|14|15|35|34.1115|-117.6876|438.6|17.0||1|FM15-METAR|223|ICAO-KCCB|-14.0||1|FM15-METAR|223|ICAO-KCCB|||||||||||||999|V-Variable|9|FM15-METAR|223|ICAO-KCCB|2.1|V-Variable|1|FM15-METAR|223|ICAO-KCCB|5.1||1|FM15-METAR|223|ICAO-KCCB|||||||11|Derived||FM15-METAR|223|ICAO-KCCB|||||||||||||||||||||||||||||||||||||||||||||||||||||||||||||||||||||||||1015.9||1|FM15-METAR|223|ICAO-KCCB|||||||||||||||||||||||||||||||||||||||||||MET065METAR KCCB 141535Z AUTO VRB04G10KT 10SM CLR 17/M14 A3000 RMK AO2=||F||223|ICAO-KCCB
USI0000KCCB|CABLE|2017|12|14|15|55|34.1115|-117.6876|438.6|18.0||1|FM15-METAR|223|ICAO-KCCB|-14.0||1|FM15-METAR|223|ICAO-KCCB|||||||||||||270|N-Normal|1|FM15-METAR|223|ICAO-KCCB|4.6|N-Normal|1|FM15-METAR|223|ICAO-KCCB|||||||||||||10|Derived||FM15-METAR|223|ICAO-KCCB|||||||||||||||||||||||||||||||||||||||||||||||||||||||||||||||||||||||||1016.3||1|FM15-METAR|223|ICAO-KCCB|||||||||||||||||||||||||||||||||||||||||||MET061METAR KCCB 141555Z AUTO 27009KT 9SM CLR 18/M14 A3001 RMK AO2=||F||223|ICAO-KCCB
USI0000KCCB|CABLE|2017|12|14|16|15|34.1115|-117.6876|438.6|18.0||1|FM15-METAR|223|ICAO-KCCB|-14.0||1|FM15-METAR|223|ICAO-KCCB|||||||||||||300|N-Normal|1|FM15-METAR|223|ICAO-KCCB|3.6|N-Normal|1|FM15-METAR|223|ICAO-KCCB|||||||||||||10|Derived||FM15-METAR|223|ICAO-KCCB|||||||||||||||||||||||||||||||||||||||||||||||||||||||||||||||||||||||||1016.6||1|FM15-METAR|223|ICAO-KCCB|||||||||||||||||||||||||||||||||||||||||||MET062METAR KCCB 141615Z AUTO 30007KT 10SM CLR 18/M14 A3002 RMK AO2=||F||223|ICAO-KCCB
USI0000KCCB|CABLE|2017|12|14|16|35|34.1115|-117.6876|438.6|20.0||1|FM15-METAR|223|ICAO-KCCB|-14.0||1|FM15-METAR|223|ICAO-KCCB|||||||||||||250|N-Normal|1|FM15-METAR|223|ICAO-KCCB|3.1|N-Normal|1|FM15-METAR|223|ICAO-KCCB|||||||||||||9|Derived||FM15-METAR|223|ICAO-KCCB|||||||||||||||||||||||||||||||||||||||||||||||||||||||||||||||||||||||||1016.6||1|FM15-METAR|223|ICAO-KCCB|||||||||||||||||||||||||||||||||||||||||||MET062METAR KCCB 141635Z AUTO 25006KT 10SM CLR 20/M14 A3002 RMK AO2=||F||223|ICAO-KCCB
USI0000KCCB|CABLE|2017|12|14|16|55|34.1115|-117.6876|438.6|20.0||1|FM15-METAR|223|ICAO-KCCB|-12.0||1|FM15-METAR|223|ICAO-KCCB|||||||||||||240|N-Normal|1|FM15-METAR|223|ICAO-KCCB|2.6|N-Normal|1|FM15-METAR|223|ICAO-KCCB|||||||||||||10|Derived||FM15-METAR|223|ICAO-KCCB|||||||||||||||||||||||||||||||||||||||||||||||||||||||||||||||||||||||||1016.9||1|FM15-METAR|223|ICAO-KCCB|||||||||||||||||||||||||||||||||||||||||||MET062METAR KCCB 141655Z AUTO 24005KT 10SM CLR 20/M12 A3003 RMK AO2=||F||223|ICAO-KCCB
USI0000KCCB|CABLE|2017|12|14|17|15|34.1115|-117.6876|438.6|21.0||1|FM15-METAR|223|ICAO-KCCB|-12.0||1|FM15-METAR|223|ICAO-KCCB|||||||||||||260|N-Normal|1|FM15-METAR|223|ICAO-KCCB|3.1|N-Normal|1|FM15-METAR|223|ICAO-KCCB|||||||||||||10|Derived||FM15-METAR|223|ICAO-KCCB|||||||||||||||||||||||||||||||||||||||||||||||||||||||||||||||||||||||||1016.9||1|FM15-METAR|223|ICAO-KCCB|||||||||||||||||||||||||||||||||||||||||||MET062METAR KCCB 141715Z AUTO 26006KT 10SM CLR 21/M12 A3003 RMK AO2=||F||223|ICAO-KCCB
USI0000KCCB|CABLE|2017|12|14|17|35|34.1115|-117.6876|438.6|21.0||1|FM15-METAR|223|ICAO-KCCB|-12.0||1|FM15-METAR|223|ICAO-KCCB|||||||||||||260|N-Normal|1|FM15-METAR|223|ICAO-KCCB|4.6|N-Normal|1|FM15-METAR|223|ICAO-KCCB|||||||||||||10|Derived||FM15-METAR|223|ICAO-KCCB|||||||||||||||||||||||||||||||||||||||||||||||||||||||||||||||||||||||||1016.9||1|FM15-METAR|223|ICAO-KCCB|||||||||||||||||||||||||||||||||||||||||||MET062METAR KCCB 141735Z AUTO 26009KT 10SM CLR 21/M12 A3003 RMK AO2=||F||223|ICAO-KCCB
USI0000KCCB|CABLE|2017|12|14|17|55|34.1115|-117.6876|438.6|22.0||1|FM15-METAR|223|ICAO-KCCB|-12.0||1|FM15-METAR|223|ICAO-KCCB|||||||||||||270|N-Normal|1|FM15-METAR|223|ICAO-KCCB|4.1|N-Normal|1|FM15-METAR|223|ICAO-KCCB|||||||||||||9|Derived||FM15-METAR|223|ICAO-KCCB|||||||||||||||||||||||||||||||||||||||||||||||||||||||||||||||||||||||||1016.9||1|FM15-METAR|223|ICAO-KCCB|||||||||||||||||||||||||||||||||||||||||||MET062METAR KCCB 141755Z AUTO 27008KT 10SM CLR 22/M12 A3003 RMK AO2=||F||223|ICAO-KCCB
USI0000KCCB|CABLE|2017|12|14|18|15|34.1115|-117.6876|438.6|22.0||1|FM15-METAR|223|ICAO-KCCB|-11.0||1|FM15-METAR|223|ICAO-KCCB|||||||||||||210|N-Normal|1|FM15-METAR|223|ICAO-KCCB|5.7|N-Normal|1|FM15-METAR|223|ICAO-KCCB|||||||||||||10|Derived||FM15-METAR|223|ICAO-KCCB|||||||||||||||||||||||||||||||||||||||||||||||||||||||||||||||||||||||||1016.6||1|FM15-METAR|223|ICAO-KCCB|||||||||||||||||||||||||||||||||||||||||||MET062METAR KCCB 141815Z AUTO 21011KT 10SM CLR 22/M11 A3002 RMK AO2=||F||223|ICAO-KCCB
USI0000KCCB|CABLE|2017|12|14|18|35|34.1115|-117.6876|438.6|22.0||1|FM15-METAR|223|ICAO-KCCB|-11.0||1|FM15-METAR|223|ICAO-KCCB|||||||||||||270|N-Normal|1|FM15-METAR|223|ICAO-KCCB|3.1|N-Normal|1|FM15-METAR|223|ICAO-KCCB|||||||||||||10|Derived||FM15-METAR|223|ICAO-KCCB|||||||||||||||||||||||||||||||||||||||||||||||||||||||||||||||||||||||||1017.3||1|FM15-METAR|223|ICAO-KCCB|||||||||||||||||||||||||||||||||||||||||||MET062METAR KCCB 141835Z AUTO 27006KT 10SM CLR 22/M11 A3004 RMK AO2=||F||223|ICAO-KCCB
USI0000KCCB|CABLE|2017|12|14|18|55|34.1115|-117.6876|438.6|22.0||1|FM15-METAR|223|ICAO-KCCB|-15.0||1|FM15-METAR|223|ICAO-KCCB|||||||||||||270|N-Normal|1|FM15-METAR|223|ICAO-KCCB|5.1|N-Normal|1|FM15-METAR|223|ICAO-KCCB|||||||||||||7|Derived||FM15-METAR|223|ICAO-KCCB|||||||||||||||||||||||||||||||||||||||||||||||||||||||||||||||||||||||||1017.3||1|FM15-METAR|223|ICAO-KCCB|||||||||||||||||||||||||||||||||||||||||||MET062METAR KCCB 141855Z AUTO 27010KT 10SM CLR 22/M15 A3004 RMK AO2=||F||223|ICAO-KCCB
USI0000KCCB|CABLE|2017|12|14|19|15|34.1115|-117.6876|438.6|23.0||1|FM15-METAR|223|ICAO-KCCB|-14.0||1|FM15-METAR|223|ICAO-KCCB|||||||||||||280|N-Normal|1|FM15-METAR|223|ICAO-KCCB|4.1|N-Normal|1|FM15-METAR|223|ICAO-KCCB|||||||||||||7|Derived||FM15-METAR|223|ICAO-KCCB|||||||||||||||||||||||||||||||||||||||||||||||||||||||||||||||||||||||||1017.3||1|FM15-METAR|223|ICAO-KCCB|||||||||||||||||||||||||||||||||||||||||||MET061METAR KCCB 141915Z AUTO 28008KT 9SM CLR 23/M14 A3004 RMK AO2=||F||223|ICAO-KCCB
USI0000KCCB|CABLE|2017|12|14|19|35|34.1115|-117.6876|438.6|24.0||1|FM15-METAR|223|ICAO-KCCB|-15.0||1|FM15-METAR|223|ICAO-KCCB|||||||||||||280|N-Normal|1|FM15-METAR|223|ICAO-KCCB|4.6|N-Normal|1|FM15-METAR|223|ICAO-KCCB|||||||||||||6|Derived||FM15-METAR|223|ICAO-KCCB|||||||||||||||||||||||||||||||||||||||||||||||||||||||||||||||||||||||||1016.9||1|FM15-METAR|223|ICAO-KCCB|||||||||||||||||||||||||||||||||||||||||||MET062METAR KCCB 141935Z AUTO 28009KT 10SM CLR 24/M15 A3003 RMK AO2=||F||223|ICAO-KCCB
USI0000KCCB|CABLE|2017|12|14|19|55|34.1115|-117.6876|438.6|24.0||1|FM15-METAR|223|ICAO-KCCB|-16.0||1|FM15-METAR|223|ICAO-KCCB|||||||||||||290|N-Normal|1|FM15-METAR|223|ICAO-KCCB|4.6|N-Normal|1|FM15-METAR|223|ICAO-KCCB|||||||||||||6|Derived||FM15-METAR|223|ICAO-KCCB|||||||||||||||||||||||||||||||||||||||||||||||||||||||||||||||||||||||||1016.6||1|FM15-METAR|223|ICAO-KCCB|||||||||||||||||||||||||||||||||||||||||||MET062METAR KCCB 141955Z AUTO 29009KT 10SM CLR 24/M16 A3002 RMK AO2=||F||223|ICAO-KCCB
USI0000KCCB|CABLE|2017|12|14|20|15|34.1115|-117.6876|438.6|25.0||1|FM15-METAR|223|ICAO-KCCB|-14.0||1|FM15-METAR|223|ICAO-KCCB|||||||||||||250|N-Normal|1|FM15-METAR|223|ICAO-KCCB|4.1|N-Normal|1|FM15-METAR|223|ICAO-KCCB|||||||||||||6|Derived||FM15-METAR|223|ICAO-KCCB|||||||||||||||||||||||||||||||||||||||||||||||||||||||||||||||||||||||||1016.6||1|FM15-METAR|223|ICAO-KCCB|||||||||||||||||||||||||||||||||||||||||||MET062METAR KCCB 142015Z AUTO 25008KT 10SM CLR 25/M14 A3002 RMK AO2=||F||223|ICAO-KCCB
USI0000KCCB|CABLE|2017|12|14|20|35|34.1115|-117.6876|438.6|25.0||1|FM15-METAR|223|ICAO-KCCB|-13.0||1|FM15-METAR|223|ICAO-KCCB|||||||||||||260|N-Normal|1|FM15-METAR|223|ICAO-KCCB|3.1|N-Normal|1|FM15-METAR|223|ICAO-KCCB|||||||||||||7|Derived||FM15-METAR|223|ICAO-KCCB|||||||||||||||||||||||||||||||||||||||||||||||||||||||||||||||||||||||||1016.6||1|FM15-METAR|223|ICAO-KCCB|||||||||||||||||||||||||||||||||||||||||||MET062METAR KCCB 142035Z AUTO 26006KT 10SM CLR 25/M13 A3002 RMK AO2=||F||223|ICAO-KCCB
USI0000KCCB|CABLE|2017|12|14|20|55|34.1115|-117.6876|438.6|25.0||1|FM15-METAR|223|ICAO-KCCB|-15.0||1|FM15-METAR|223|ICAO-KCCB|||||||||||||230|N-Normal|1|FM15-METAR|223|ICAO-KCCB|2.6|N-Normal|1|FM15-METAR|223|ICAO-KCCB|||||||||||||6|Derived||FM15-METAR|223|ICAO-KCCB|||||||||||||||||||||||||||||||||||||||||||||||||||||||||||||||||||||||||1016.6||1|FM15-METAR|223|ICAO-KCCB|||||||||||||||||||||||||||||||||||||||||||MET062METAR KCCB 142055Z AUTO 23005KT 10SM CLR 25/M15 A3002 RMK AO2=||F||223|ICAO-KCCB
USI0000KCCB|CABLE|2017|12|14|21|15|34.1115|-117.6876|438.6|25.0||1|FM15-METAR|223|ICAO-KCCB|-14.0||1|FM15-METAR|223|ICAO-KCCB|||||||||||||290|N-Normal|1|FM15-METAR|223|ICAO-KCCB|4.6|N-Normal|1|FM15-METAR|223|ICAO-KCCB|||||||||||||6|Derived||FM15-METAR|223|ICAO-KCCB|||||||||||||||||||||||||||||||||||||||||||||||||||||||||||||||||||||||||1016.3||1|FM15-METAR|223|ICAO-KCCB|||||||||||||||||||||||||||||||||||||||||||MET062METAR KCCB 142115Z AUTO 29009KT 10SM CLR 25/M14 A3001 RMK AO2=||F||223|ICAO-KCCB
USI0000KCCB|CABLE|2017|12|14|21|35|34.1115|-117.6876|438.6|26.0||1|FM15-METAR|223|ICAO-KCCB|-15.0||1|FM15-METAR|223|ICAO-KCCB|||||||||||||210|N-Normal|1|FM15-METAR|223|ICAO-KCCB|2.1|N-Normal|1|FM15-METAR|223|ICAO-KCCB|||||||||||||6|Derived||FM15-METAR|223|ICAO-KCCB|||||||||||||||||||||||||||||||||||||||||||||||||||||||||||||||||||||||||1016.3||1|FM15-METAR|223|ICAO-KCCB|||||||||||||||||||||||||||||||||||||||||||MET062METAR KCCB 142135Z AUTO 21004KT 10SM CLR 26/M15 A3001 RMK AO2=||F||223|ICAO-KCCB
USI0000KCCB|CABLE|2017|12|14|21|55|34.1115|-117.6876|438.6|26.0||1|FM15-METAR|223|ICAO-KCCB|-13.0||1|FM15-METAR|223|ICAO-KCCB|||||||||||||220|N-Normal|1|FM15-METAR|223|ICAO-KCCB|3.1|N-Normal|1|FM15-METAR|223|ICAO-KCCB|||||||||||||7|Derived||FM15-METAR|223|ICAO-KCCB|||||||||||||||||||||||||||||||||||||||||||||||||||||||||||||||||||||||||1016.3||1|FM15-METAR|223|ICAO-KCCB|||||||||||||||||||||||||||||||||||||||||||MET062METAR KCCB 142155Z AUTO 22006KT 10SM CLR 26/M13 A3001 RMK AO2=||F||223|ICAO-KCCB
USI0000KCCB|CABLE|2017|12|14|22|15|34.1115|-117.6876|438.6|26.0||1|FM15-METAR|223|ICAO-KCCB|-14.0||1|FM15-METAR|223|ICAO-KCCB|||||||||||||210|N-Normal|1|FM15-METAR|223|ICAO-KCCB|2.6|N-Normal|1|FM15-METAR|223|ICAO-KCCB|||||||||||||6|Derived||FM15-METAR|223|ICAO-KCCB|||||||||||||||||||||||||||||||||||||||||||||||||||||||||||||||||||||||||1016.3||1|FM15-METAR|223|ICAO-KCCB|||||||||||||||||||||||||||||||||||||||||||MET062METAR KCCB 142215Z AUTO 21005KT 10SM CLR 26/M14 A3001 RMK AO2=||F||223|ICAO-KCCB
USI0000KCCB|CABLE|2017|12|14|22|35|34.1115|-117.6876|438.6|26.0||1|FM15-METAR|223|ICAO-KCCB|-12.0||1|FM15-METAR|223|ICAO-KCCB|||||||||||||260|N-Normal|1|FM15-METAR|223|ICAO-KCCB|2.1|N-Normal|1|FM15-METAR|223|ICAO-KCCB|5.1||1|FM15-METAR|223|ICAO-KCCB|||||||7|Derived||FM15-METAR|223|ICAO-KCCB|||||||||||||||||||||||||||||||||||||||||||||||||||||||||||||||||||||||||1016.3||1|FM15-METAR|223|ICAO-KCCB|||||||||||||||||||||||||||||||||||||||||||MET065METAR KCCB 142235Z AUTO 26004G10KT 10SM CLR 26/M12 A3001 RMK AO2=||F||223|ICAO-KCCB
USI0000KCCB|CABLE|2017|12|14|22|55|34.1115|-117.6876|438.6|25.0||1|FM15-METAR|223|ICAO-KCCB|-13.0||1|FM15-METAR|223|ICAO-KCCB|||||||||||||999|V-Variable|9|FM15-METAR|223|ICAO-KCCB|1.5|V-Variable|1|FM15-METAR|223|ICAO-KCCB|5.7||1|FM15-METAR|223|ICAO-KCCB|||||||7|Derived||FM15-METAR|223|ICAO-KCCB|||||||||||||||||||||||||||||||||||||||||||||||||||||||||||||||||||||||||1016.3||1|FM15-METAR|223|ICAO-KCCB|||||||||||||||||||||||||||||||||||||||||||MET065METAR KCCB 142255Z AUTO VRB03G11KT 10SM CLR 25/M13 A3001 RMK AO2=||F||223|ICAO-KCCB
USI0000KCCB|CABLE|2017|12|14|23|15|34.1115|-117.6876|438.6|25.0||1|FM15-METAR|223|ICAO-KCCB|-12.0||1|FM15-METAR|223|ICAO-KCCB|||||||||||||260|N-Normal|1|FM15-METAR|223|ICAO-KCCB|3.6|N-Normal|1|FM15-METAR|223|ICAO-KCCB|||||||||||||8|Derived||FM15-METAR|223|ICAO-KCCB|||||||||||||||||||||||||||||||||||||||||||||||||||||||||||||||||||||||||1016.3||1|FM15-METAR|223|ICAO-KCCB|||||||||||||||||||||||||||||||||||||||||||MET062METAR KCCB 142315Z AUTO 26007KT 10SM CLR 25/M12 A3001 RMK AO2=||F||223|ICAO-KCCB
USI0000KCCB|CABLE|2017|12|14|23|35|34.1115|-117.6876|438.6|25.0||1|FM15-METAR|223|ICAO-KCCB|-13.0||1|FM15-METAR|223|ICAO-KCCB|||||||||||||250|V-Variable|1|FM15-METAR|223|ICAO-KCCB|3.6|V-Variable|1|FM15-METAR|223|ICAO-KCCB|||||||||||||7|Derived||FM15-METAR|223|ICAO-KCCB|||||||||||||||||||||||||||||||||||||||||||||||||||||||||||||||||||||||||1016.6||1|FM15-METAR|223|ICAO-KCCB|||||||||||||||||||||||||||||||||||||||||||MET070METAR KCCB 142335Z AUTO 25007KT 210V270 10SM CLR 25/M13 A3002 RMK AO2=||F||223|ICAO-KCCB
USI0000KCCB|CABLE|2017|12|14|23|55|34.1115|-117.6876|438.6|24.0||1|FM15-METAR|223|ICAO-KCCB|-10.0||1|FM15-METAR|223|ICAO-KCCB|||||||||||||999|V-Variable|9|FM15-METAR|223|ICAO-KCCB|2.6|V-Variable|1|FM15-METAR|223|ICAO-KCCB|6.7||1|FM15-METAR|223|ICAO-KCCB|||||||10|Derived||FM15-METAR|223|ICAO-KCCB|||||||||||||||||||||||||||||||||||||||||||||||||||||||||||||||||||||||||1016.6||1|FM15-METAR|223|ICAO-KCCB|||||||||||||||||||||||||||||||||||||||||||MET065METAR KCCB 142355Z AUTO VRB05G13KT 10SM CLR 24/M10 A3002 RMK AO2=||F||223|ICAO-KCCB
USI0000KCCB|CABLE|2017|12|15|00|15|34.1115|-117.6876|438.6|24.0||1|FM15-METAR|223|ICAO-KCCB|-9.0||1|FM15-METAR|223|ICAO-KCCB|||||||||||||250|N-Normal|1|FM15-METAR|223|ICAO-KCCB|3.6|N-Normal|1|FM15-METAR|223|ICAO-KCCB|||||||||||||10|Derived||FM15-METAR|223|ICAO-KCCB|||||||||||||||||||||||||||||||||||||||||||||||||||||||||||||||||||||||||1016.6||1|FM15-METAR|223|ICAO-KCCB|||||||||||||||||||||||||||||||||||||||||||MET062METAR KCCB 150015Z AUTO 25007KT 10SM CLR 24/M09 A3002 RMK AO2=||F||223|ICAO-KCCB
USI0000KCCB|CABLE|2017|12|15|00|35|34.1115|-117.6876|438.6|23.0||1|FM15-METAR|223|ICAO-KCCB|-8.0||1|FM15-METAR|223|ICAO-KCCB|||||||||||||999|V-Variable|9|FM15-METAR|223|ICAO-KCCB|2.6|V-Variable|1|FM15-METAR|223|ICAO-KCCB|5.7||1|FM15-METAR|223|ICAO-KCCB|||||||12|Derived||FM15-METAR|223|ICAO-KCCB|||||||||||||||||||||||||||||||||||||||||||||||||||||||||||||||||||||||||1017.3||1|FM15-METAR|223|ICAO-KCCB|||||||||||||||||||||||||||||||||||||||||||MET064METAR KCCB 150035Z AUTO VRB05G11KT 9SM CLR 23/M08 A3004 RMK AO2=||F||223|ICAO-KCCB
USI0000KCCB|CABLE|2017|12|15|00|55|34.1115|-117.6876|438.6|21.0||1|FM15-METAR|223|ICAO-KCCB|-7.0||1|FM15-METAR|223|ICAO-KCCB|||||||||||||320|N-Normal|1|FM15-METAR|223|ICAO-KCCB|2.1|N-Normal|1|FM15-METAR|223|ICAO-KCCB|||||||||||||15|Derived||FM15-METAR|223|ICAO-KCCB|||||||||||||||||||||||||||||||||||||||||||||||||||||||||||||||||||||||||1017.3||1|FM15-METAR|223|ICAO-KCCB|||||||||||||||||||||||||||||||||||||||||||MET061METAR KCCB 150055Z AUTO 32004KT 8SM CLR 21/M07 A3004 RMK AO2=||F||223|ICAO-KCCB
USI0000KCCB|CABLE|2017|12|15|01|15|34.1115|-117.6876|438.6|22.0||1|FM15-METAR|223|ICAO-KCCB|-7.0||1|FM15-METAR|223|ICAO-KCCB|||||||||||||280|N-Normal|1|FM15-METAR|223|ICAO-KCCB|3.6|N-Normal|1|FM15-METAR|223|ICAO-KCCB|||||||||||||14|Derived||FM15-METAR|223|ICAO-KCCB|||||||||||||||||||||||||||||||||||||||||||||||||||||||||||||||||||||||||1017.6||1|FM15-METAR|223|ICAO-KCCB|||||||||||||||||||||||||||||||||||||||||||MET062METAR KCCB 150115Z AUTO 28007KT 10SM CLR 22/M07 A3005 RMK AO2=||F||223|ICAO-KCCB
USI0000KCCB|CABLE|2017|12|15|01|35|34.1115|-117.6876|438.6|20.0||1|FM15-METAR|223|ICAO-KCCB|-8.0||1|FM15-METAR|223|ICAO-KCCB|||||||||||||020|N-Normal|1|FM15-METAR|223|ICAO-KCCB|2.6|N-Normal|1|FM15-METAR|223|ICAO-KCCB|||||||||||||14|Derived||FM15-METAR|223|ICAO-KCCB|||||||||||||||||||||||||||||||||||||||||||||||||||||||||||||||||||||||||1017.9||1|FM15-METAR|223|ICAO-KCCB|||||||||||||||||||||||||||||||||||||||||||MET062METAR KCCB 150135Z AUTO 02005KT 10SM CLR 20/M08 A3006 RMK AO2=||F||223|ICAO-KCCB
USI0000KCCB|CABLE|2017|12|15|01|55|34.1115|-117.6876|438.6|21.0||1|FM15-METAR|223|ICAO-KCCB|-7.0||1|FM15-METAR|223|ICAO-KCCB|||||||||||||290|N-Normal|1|FM15-METAR|223|ICAO-KCCB|6.7|N-Normal|1|FM15-METAR|223|ICAO-KCCB|||||||||||||15|Derived||FM15-METAR|223|ICAO-KCCB|||||||||||||||||||||||||||||||||||||||||||||||||||||||||||||||||||||||||1017.6||1|FM15-METAR|223|ICAO-KCCB|||||||||||||||||||||||||||||||||||||||||||MET062METAR KCCB 150155Z AUTO 29013KT 10SM CLR 21/M07 A3005 RMK AO2=||F||223|ICAO-KCCB
USI0000KCCB|CABLE|2017|12|15|02|15|34.1115|-117.6876|438.6|21.0||1|FM15-METAR|223|ICAO-KCCB|-9.0||1|FM15-METAR|223|ICAO-KCCB|||||||||||||300|N-Normal|1|FM15-METAR|223|ICAO-KCCB|1.5|N-Normal|1|FM15-METAR|223|ICAO-KCCB|||||||||||||12|Derived||FM15-METAR|223|ICAO-KCCB|||||||||||||||||||||||||||||||||||||||||||||||||||||||||||||||||||||||||1017.9||1|FM15-METAR|223|ICAO-KCCB|||||||||||||||||||||||||||||||||||||||||||MET062METAR KCCB 150215Z AUTO 30003KT 10SM CLR 21/M09 A3006 RMK AO2=||F||223|ICAO-KCCB
USI0000KCCB|CABLE|2017|12|15|02|35|34.1115|-117.6876|438.6|20.0||1|FM15-METAR|223|ICAO-KCCB|-10.0||1|FM15-METAR|223|ICAO-KCCB|||||||||||||280|N-Normal|1|FM15-METAR|223|ICAO-KCCB|2.1|N-Normal|1|FM15-METAR|223|ICAO-KCCB|||||||||||||12|Derived||FM15-METAR|223|ICAO-KCCB|||||||||||||||||||||||||||||||||||||||||||||||||||||||||||||||||||||||||1018.3||1|FM15-METAR|223|ICAO-KCCB|||||||||||||||||||||||||||||||||||||||||||MET062METAR KCCB 150235Z AUTO 28004KT 10SM CLR 20/M10 A3007 RMK AO2=||F||223|ICAO-KCCB
USI0000KCCB|CABLE|2017|12|15|02|55|34.1115|-117.6876|438.6|21.0||1|FM15-METAR|223|ICAO-KCCB|-14.0||1|FM15-METAR|223|ICAO-KCCB|||||||||||||270|N-Normal|1|FM15-METAR|223|ICAO-KCCB|2.1|N-Normal|1|FM15-METAR|223|ICAO-KCCB|||||||||||||8|Derived||FM15-METAR|223|ICAO-KCCB|||||||||||||||||||||||||||||||||||||||||||||||||||||||||||||||||||||||||1018.3||1|FM15-METAR|223|ICAO-KCCB|||||||||||||||||||||||||||||||||||||||||||MET062METAR KCCB 150255Z AUTO 27004KT 10SM CLR 21/M14 A3007 RMK AO2=||F||223|ICAO-KCCB
USI0000KCCB|CABLE|2017|12|15|03|15|34.1115|-117.6876|438.6|20.0||1|FM15-METAR|223|ICAO-KCCB|-13.0||1|FM15-METAR|223|ICAO-KCCB|||||||||||||999|C-Calm|9|FM15-METAR|223|ICAO-KCCB|0.0|C-Calm|1|FM15-METAR|223|ICAO-KCCB|||||||||||||10|Derived||FM15-METAR|223|ICAO-KCCB|||||||||||||||||||||||||||||||||||||||||||||||||||||||||||||||||||||||||1018.3||1|FM15-METAR|223|ICAO-KCCB|||||||||||||||||||||||||||||||||||||||||||MET062METAR KCCB 150315Z AUTO 00000KT 10SM CLR 20/M13 A3007 RMK AO2=||F||223|ICAO-KCCB
USI0000KCCB|CABLE|2017|12|15|03|35|34.1115|-117.6876|438.6|21.0||1|FM15-METAR|223|ICAO-KCCB|-13.0||1|FM15-METAR|223|ICAO-KCCB|||||||||||||310|N-Normal|1|FM15-METAR|223|ICAO-KCCB|2.6|N-Normal|1|FM15-METAR|223|ICAO-KCCB|||||||||||||9|Derived||FM15-METAR|223|ICAO-KCCB|||||||||||||||||||||||||||||||||||||||||||||||||||||||||||||||||||||||||1018.6||1|FM15-METAR|223|ICAO-KCCB|||||||||||||||||||||||||||||||||||||||||||MET062METAR KCCB 150335Z AUTO 31005KT 10SM CLR 21/M13 A3008 RMK AO2=||F||223|ICAO-KCCB
USI0000KCCB|CABLE|2017|12|15|03|55|34.1115|-117.6876|438.6|19.0||1|FM15-METAR|223|ICAO-KCCB|-13.0||1|FM15-METAR|223|ICAO-KCCB|||||||||||||260|N-Normal|1|FM15-METAR|223|ICAO-KCCB|2.6|N-Normal|1|FM15-METAR|223|ICAO-KCCB|||||||||||||10|Derived||FM15-METAR|223|ICAO-KCCB|||||||||||||||||||||||||||||||||||||||||||||||||||||||||||||||||||||||||1018.6||1|FM15-METAR|223|ICAO-KCCB|||||||||||||||||||||||||||||||||||||||||||MET062METAR KCCB 150355Z AUTO 26005KT 10SM CLR 19/M13 A3008 RMK AO2=||F||223|ICAO-KCCB
USI0000KCCB|CABLE|2017|12|15|04|15|34.1115|-117.6876|438.6|20.0||1|FM15-METAR|223|ICAO-KCCB|-12.0||1|FM15-METAR|223|ICAO-KCCB|||||||||||||290|N-Normal|1|FM15-METAR|223|ICAO-KCCB|4.1|N-Normal|1|FM15-METAR|223|ICAO-KCCB|||||||||||||10|Derived||FM15-METAR|223|ICAO-KCCB|||||||||||||||||||||||||||||||||||||||||||||||||||||||||||||||||||||||||1019.0||1|FM15-METAR|223|ICAO-KCCB|||||||||||||||||||||||||||||||||||||||||||MET062METAR KCCB 150415Z AUTO 29008KT 10SM CLR 20/M12 A3009 RMK AO2=||F||223|ICAO-KCCB
USI0000KCCB|CABLE|2017|12|15|04|35|34.1115|-117.6876|438.6|20.0||1|FM15-METAR|223|ICAO-KCCB|-13.0||1|FM15-METAR|223|ICAO-KCCB|||||||||||||300|N-Normal|1|FM15-METAR|223|ICAO-KCCB|3.6|N-Normal|1|FM15-METAR|223|ICAO-KCCB|||||||||||||10|Derived||FM15-METAR|223|ICAO-KCCB|||||||||||||||||||||||||||||||||||||||||||||||||||||||||||||||||||||||||1019.0||1|FM15-METAR|223|ICAO-KCCB|||||||||||||||||||||||||||||||||||||||||||MET062METAR KCCB 150435Z AUTO 30007KT 10SM CLR 20/M13 A3009 RMK AO2=||F||223|ICAO-KCCB
USI0000KCCB|CABLE|2017|12|15|04|55|34.1115|-117.6876|438.6|19.0||1|FM15-METAR|223|ICAO-KCCB|-13.0||1|FM15-METAR|223|ICAO-KCCB|||||||||||||300|N-Normal|1|FM15-METAR|223|ICAO-KCCB|3.6|N-Normal|1|FM15-METAR|223|ICAO-KCCB|||||||||||||10|Derived||FM15-METAR|223|ICAO-KCCB|||||||||||||||||||||||||||||||||||||||||||||||||||||||||||||||||||||||||1019.3||1|FM15-METAR|223|ICAO-KCCB|||||||||||||||||||||||||||||||||||||||||||MET062METAR KCCB 150455Z AUTO 30007KT 10SM CLR 19/M13 A3010 RMK AO2=||F||223|ICAO-KCCB
USI0000KCCB|CABLE|2017|12|15|05|15|34.1115|-117.6876|438.6|18.0||1|FM15-METAR|223|ICAO-KCCB|-13.0||1|FM15-METAR|223|ICAO-KCCB|||||||||||||320|N-Normal|1|FM15-METAR|223|ICAO-KCCB|4.1|N-Normal|1|FM15-METAR|223|ICAO-KCCB|||||||||||||11|Derived||FM15-METAR|223|ICAO-KCCB|||||||||||||||||||||||||||||||||||||||||||||||||||||||||||||||||||||||||1019.3||1|FM15-METAR|223|ICAO-KCCB|||||||||||||||||||||||||||||||||||||||||||MET062METAR KCCB 150515Z AUTO 32008KT 10SM CLR 18/M13 A3010 RMK AO2=||F||223|ICAO-KCCB
USI0000KCCB|CABLE|2017|12|15|05|20|34.1115|-117.6876|438.6|18.0||1|FM15-METAR|223|ICAO-KCCB|-13.0||1|FM15-METAR|223|ICAO-KCCB|||||||||||||310|N-Normal|1|FM15-METAR|223|ICAO-KCCB|3.1|N-Normal|1|FM15-METAR|223|ICAO-KCCB|||||||||||||11|Derived||FM15-METAR|223|ICAO-KCCB|||||||||||||||||||||||||||||||||||||||||||||||||||||||||||||||||||||||||1019.3||1|FM15-METAR|223|ICAO-KCCB|||||||||||||||||||||||||||||||||||||||||||MET062METAR KCCB 150520Z AUTO 31006KT 10SM CLR 18/M13 A3010 RMK AO2=||F||223|ICAO-KCCB
USI0000KCCB|CABLE|2017|12|15|05|55|34.1115|-117.6876|438.6|18.0||1|FM15-METAR|223|ICAO-KCCB|-14.0||1|FM15-METAR|223|ICAO-KCCB|||||||||||||340|N-Normal|1|FM15-METAR|223|ICAO-KCCB|3.1|N-Normal|1|FM15-METAR|223|ICAO-KCCB|||||||||||||10|Derived||FM15-METAR|223|ICAO-KCCB|||||||||||||||||||||||||||||||||||||||||||||||||||||||||||||||||||||||||1019.6||1|FM15-METAR|223|ICAO-KCCB|||||||||||||||||||||||||||||||||||||||||||MET062METAR KCCB 150555Z AUTO 34006KT 10SM CLR 18/M14 A3011 RMK AO2=||F||223|ICAO-KCCB
USI0000KCCB|CABLE|2017|12|15|06|15|34.1115|-117.6876|438.6|18.0||1|FM15-METAR|223|ICAO-KCCB|-16.0||1|FM15-METAR|223|ICAO-KCCB|||||||||||||999|V-Variable|9|FM15-METAR|223|ICAO-KCCB|2.6|V-Variable|1|FM15-METAR|223|ICAO-KCCB|||||||||||||8|Derived||FM15-METAR|223|ICAO-KCCB|||||||||||||||||||||||||||||||||||||||||||||||||||||||||||||||||||||||||1019.6||1|FM15-METAR|223|ICAO-KCCB|||||||||||||||||||||||||||||||||||||||||||MET062METAR KCCB 150615Z AUTO VRB05KT 10SM CLR 18/M16 A3011 RMK AO2=||F||223|ICAO-KCCB
USI0000KCCB|CABLE|2017|12|15|06|35|34.1115|-117.6876|438.6|17.0||1|FM15-METAR|223|ICAO-KCCB|-16.0||1|FM15-METAR|223|ICAO-KCCB|||||||||||||999|C-Calm|9|FM15-METAR|223|ICAO-KCCB|0.0|C-Calm|1|FM15-METAR|223|ICAO-KCCB|||||||||||||9|Derived||FM15-METAR|223|ICAO-KCCB|||||||||||||||||||||||||||||||||||||||||||||||||||||||||||||||||||||||||1020.0||1|FM15-METAR|223|ICAO-KCCB|||||||||||||||||||||||||||||||||||||||||||MET062METAR KCCB 150635Z AUTO 00000KT 10SM CLR 17/M16 A3012 RMK AO2=||F||223|ICAO-KCCB
USI0000KCCB|CABLE|2017|12|15|06|55|34.1115|-117.6876|438.6|16.0||1|FM15-METAR|223|ICAO-KCCB|-16.0||1|FM15-METAR|223|ICAO-KCCB|||||||||||||010|N-Normal|1|FM15-METAR|223|ICAO-KCCB|2.1|N-Normal|1|FM15-METAR|223|ICAO-KCCB|||||||||||||10|Derived||FM15-METAR|223|ICAO-KCCB|||||||||||||||||||||||||||||||||||||||||||||||||||||||||||||||||||||||||1020.0||1|FM15-METAR|223|ICAO-KCCB|||||||||||||||||||||||||||||||||||||||||||MET062METAR KCCB 150655Z AUTO 01004KT 10SM CLR 16/M16 A3012 RMK AO2=||F||223|ICAO-KCCB
USI0000KCCB|CABLE|2017|12|15|07|15|34.1115|-117.6876|438.6|17.0||1|FM15-METAR|223|ICAO-KCCB|-20.0||1|FM15-METAR|223|ICAO-KCCB|||||||||||||320|N-Normal|1|FM15-METAR|223|ICAO-KCCB|2.1|N-Normal|1|FM15-METAR|223|ICAO-KCCB|||||||||||||6|Derived||FM15-METAR|223|ICAO-KCCB|||||||||||||||||||||||||||||||||||||||||||||||||||||||||||||||||||||||||1020.0||1|FM15-METAR|223|ICAO-KCCB|||||||||||||||||||||||||||||||||||||||||||MET062METAR KCCB 150715Z AUTO 32004KT 10SM CLR 17/M20 A3012 RMK AO2=||F||223|ICAO-KCCB
USI0000KCCB|CABLE|2017|12|15|07|35|34.1115|-117.6876|438.6|16.0||1|FM15-METAR|223|ICAO-KCCB|-18.0||1|FM15-METAR|223|ICAO-KCCB|||||||||||||010|N-Normal|1|FM15-METAR|223|ICAO-KCCB|3.1|N-Normal|1|FM15-METAR|223|ICAO-KCCB|||||||||||||8|Derived||FM15-METAR|223|ICAO-KCCB|||||||||||||||||||||||||||||||||||||||||||||||||||||||||||||||||||||||||1020.0||1|FM15-METAR|223|ICAO-KCCB|||||||||||||||||||||||||||||||||||||||||||MET062METAR KCCB 150735Z AUTO 01006KT 10SM CLR 16/M18 A3012 RMK AO2=||F||223|ICAO-KCCB
USI0000KCCB|CABLE|2017|12|15|07|55|34.1115|-117.6876|438.6|17.0||1|FM15-METAR|223|ICAO-KCCB|-17.0||1|FM15-METAR|223|ICAO-KCCB|||||||||||||350|N-Normal|1|FM15-METAR|223|ICAO-KCCB|2.6|N-Normal|1|FM15-METAR|223|ICAO-KCCB|||||||||||||8|Derived||FM15-METAR|223|ICAO-KCCB|||||||||||||||||||||||||||||||||||||||||||||||||||||||||||||||||||||||||1020.0||1|FM15-METAR|223|ICAO-KCCB|||||||||||||||||||||||||||||||||||||||||||MET062METAR KCCB 150755Z AUTO 35005KT 10SM CLR 17/M17 A3012 RMK AO2=||F||223|ICAO-KCCB
USI0000KCCB|CABLE|2017|12|15|08|15|34.1115|-117.6876|438.6|19.0||1|FM15-METAR|223|ICAO-KCCB|-21.0||1|FM15-METAR|223|ICAO-KCCB|||||||||||||050|N-Normal|1|FM15-METAR|223|ICAO-KCCB|3.1|N-Normal|1|FM15-METAR|223|ICAO-KCCB|||||||||||||5|Derived||FM15-METAR|223|ICAO-KCCB|||||||||||||||||||||||||||||||||||||||||||||||||||||||||||||||||||||||||1020.0||1|FM15-METAR|223|ICAO-KCCB|||||||||||||||||||||||||||||||||||||||||||MET062METAR KCCB 150815Z AUTO 05006KT 10SM CLR 19/M21 A3012 RMK AO2=||F||223|ICAO-KCCB
USI0000KCCB|CABLE|2017|12|15|08|35|34.1115|-117.6876|438.6|17.0||1|FM15-METAR|223|ICAO-KCCB|-19.0||1|FM15-METAR|223|ICAO-KCCB|||||||||||||030|N-Normal|1|FM15-METAR|223|ICAO-KCCB|2.1|N-Normal|1|FM15-METAR|223|ICAO-KCCB|||||||||||||7|Derived||FM15-METAR|223|ICAO-KCCB|||||||||||||||||||||||||||||||||||||||||||||||||||||||||||||||||||||||||1020.3||1|FM15-METAR|223|ICAO-KCCB|||||||||||||||||||||||||||||||||||||||||||MET062METAR KCCB 150835Z AUTO 03004KT 10SM CLR 17/M19 A3013 RMK AO2=||F||223|ICAO-KCCB
USI0000KCCB|CABLE|2017|12|15|08|55|34.1115|-117.6876|438.6|17.0||1|FM15-METAR|223|ICAO-KCCB|-19.0||1|FM15-METAR|223|ICAO-KCCB|||||||||||||360|N-Normal|1|FM15-METAR|223|ICAO-KCCB|2.1|N-Normal|1|FM15-METAR|223|ICAO-KCCB|||||||||||||7|Derived||FM15-METAR|223|ICAO-KCCB|||||||||||||||||||||||||||||||||||||||||||||||||||||||||||||||||||||||||1020.0||1|FM15-METAR|223|ICAO-KCCB|||||||||||||||||||||||||||||||||||||||||||MET062METAR KCCB 150855Z AUTO 36004KT 10SM CLR 17/M19 A3012 RMK AO2=||F||223|ICAO-KCCB
USI0000KCCB|CABLE|2017|12|15|09|15|34.1115|-117.6876|438.6|17.0||1|FM15-METAR|223|ICAO-KCCB|-19.0||1|FM15-METAR|223|ICAO-KCCB|||||||||||||340|N-Normal|1|FM15-METAR|223|ICAO-KCCB|2.6|N-Normal|1|FM15-METAR|223|ICAO-KCCB|||||||||||||7|Derived||FM15-METAR|223|ICAO-KCCB|||||||||||||||||||||||||||||||||||||||||||||||||||||||||||||||||||||||||1020.3||1|FM15-METAR|223|ICAO-KCCB|||||||||||||||||||||||||||||||||||||||||||MET062METAR KCCB 150915Z AUTO 34005KT 10SM CLR 17/M19 A3013 RMK AO2=||F||223|ICAO-KCCB
USI0000KCCB|CABLE|2017|12|15|09|35|34.1115|-117.6876|438.6|16.0||1|FM15-METAR|223|ICAO-KCCB|-20.0||1|FM15-METAR|223|ICAO-KCCB|||||||||||||360|N-Normal|1|FM15-METAR|223|ICAO-KCCB|2.6|N-Normal|1|FM15-METAR|223|ICAO-KCCB|||||||||||||7|Derived||FM15-METAR|223|ICAO-KCCB|||||||||||||||||||||||||||||||||||||||||||||||||||||||||||||||||||||||||1020.3||1|FM15-METAR|223|ICAO-KCCB|||||||||||||||||||||||||||||||||||||||||||MET062METAR KCCB 150935Z AUTO 36005KT 10SM CLR 16/M20 A3013 RMK AO2=||F||223|ICAO-KCCB
USI0000KCCB|CABLE|2017|12|15|09|55|34.1115|-117.6876|438.6|16.0||1|FM15-METAR|223|ICAO-KCCB|-19.0||1|FM15-METAR|223|ICAO-KCCB|||||||||||||350|N-Normal|1|FM15-METAR|223|ICAO-KCCB|3.1|N-Normal|1|FM15-METAR|223|ICAO-KCCB|||||||||||||7|Derived||FM15-METAR|223|ICAO-KCCB|||||||||||||||||||||||||||||||||||||||||||||||||||||||||||||||||||||||||1020.3||1|FM15-METAR|223|ICAO-KCCB|||||||||||||||||||||||||||||||||||||||||||MET062METAR KCCB 150955Z AUTO 35006KT 10SM CLR 16/M19 A3013 RMK AO2=||F||223|ICAO-KCCB
USI0000KCCB|CABLE|2017|12|15|10|15|34.1115|-117.6876|438.6|15.0||1|FM15-METAR|223|ICAO-KCCB|-17.0||1|FM15-METAR|223|ICAO-KCCB|||||||||||||999|C-Calm|9|FM15-METAR|223|ICAO-KCCB|0.0|C-Calm|1|FM15-METAR|223|ICAO-KCCB|||||||||||||9|Derived||FM15-METAR|223|ICAO-KCCB|||||||||||||||||||||||||||||||||||||||||||||||||||||||||||||||||||||||||1020.3||1|FM15-METAR|223|ICAO-KCCB|||||||||||||||||||||||||||||||||||||||||||MET062METAR KCCB 151015Z AUTO 00000KT 10SM CLR 15/M17 A3013 RMK AO2=||F||223|ICAO-KCCB
USI0000KCCB|CABLE|2017|12|15|10|35|34.1115|-117.6876|438.6|15.0||1|FM15-METAR|223|ICAO-KCCB|-17.0||1|FM15-METAR|223|ICAO-KCCB|||||||||||||320|N-Normal|1|FM15-METAR|223|ICAO-KCCB|3.1|N-Normal|1|FM15-METAR|223|ICAO-KCCB|||||||||||||9|Derived||FM15-METAR|223|ICAO-KCCB|||||||||||||||||||||||||||||||||||||||||||||||||||||||||||||||||||||||||1020.3||1|FM15-METAR|223|ICAO-KCCB|||||||||||||||||||||||||||||||||||||||||||MET062METAR KCCB 151035Z AUTO 32006KT 10SM CLR 15/M17 A3013 RMK AO2=||F||223|ICAO-KCCB
USI0000KCCB|CABLE|2017|12|15|10|55|34.1115|-117.6876|438.6|15.0||1|FM15-METAR|223|ICAO-KCCB|-17.0||1|FM15-METAR|223|ICAO-KCCB|||||||||||||350|N-Normal|1|FM15-METAR|223|ICAO-KCCB|1.5|N-Normal|1|FM15-METAR|223|ICAO-KCCB|||||||||||||9|Derived||FM15-METAR|223|ICAO-KCCB|||||||||||||||||||||||||||||||||||||||||||||||||||||||||||||||||||||||||1020.3||1|FM15-METAR|223|ICAO-KCCB|||||||||||||||||||||||||||||||||||||||||||MET062METAR KCCB 151055Z AUTO 35003KT 10SM CLR 15/M17 A3013 RMK AO2=||F||223|ICAO-KCCB
USI0000KCCB|CABLE|2017|12|15|11|15|34.1115|-117.6876|438.6|15.0||1|FM15-METAR|223|ICAO-KCCB|-16.0||1|FM15-METAR|223|ICAO-KCCB|||||||||||||360|N-Normal|1|FM15-METAR|223|ICAO-KCCB|2.6|N-Normal|1|FM15-METAR|223|ICAO-KCCB|||||||||||||10|Derived||FM15-METAR|223|ICAO-KCCB|||||||||||||||||||||||||||||||||||||||||||||||||||||||||||||||||||||||||1020.3||1|FM15-METAR|223|ICAO-KCCB|||||||||||||||||||||||||||||||||||||||||||MET062METAR KCCB 151115Z AUTO 36005KT 10SM CLR 15/M16 A3013 RMK AO2=||F||223|ICAO-KCCB
USI0000KCCB|CABLE|2017|12|15|11|35|34.1115|-117.6876|438.6|16.0||1|FM15-METAR|223|ICAO-KCCB|-16.0||1|FM15-METAR|223|ICAO-KCCB|||||||||||||350|N-Normal|1|FM15-METAR|223|ICAO-KCCB|2.6|N-Normal|1|FM15-METAR|223|ICAO-KCCB|||||||||||||10|Derived||FM15-METAR|223|ICAO-KCCB|||||||||||||||||||||||||||||||||||||||||||||||||||||||||||||||||||||||||1020.3||1|FM15-METAR|223|ICAO-KCCB|||||||||||||||||||||||||||||||||||||||||||MET062METAR KCCB 151135Z AUTO 35005KT 10SM CLR 16/M16 A3013 RMK AO2=||F||223|ICAO-KCCB
USI0000KCCB|CABLE|2017|12|15|11|55|34.1115|-117.6876|438.6|16.0||1|FM15-METAR|223|ICAO-KCCB|-16.0||1|FM15-METAR|223|ICAO-KCCB|||||||||||||999|C-Calm|9|FM15-METAR|223|ICAO-KCCB|0.0|C-Calm|1|FM15-METAR|223|ICAO-KCCB|||||||||||||10|Derived||FM15-METAR|223|ICAO-KCCB|||||||||||||||||||||||||||||||||||||||||||||||||||||||||||||||||||||||||1020.3||1|FM15-METAR|223|ICAO-KCCB|||||||||||||||||||||||||||||||||||||||||||MET062METAR KCCB 151155Z AUTO 00000KT 10SM CLR 16/M16 A3013 RMK AO2=||F||223|ICAO-KCCB
USI0000KCCB|CABLE|2017|12|15|12|15|34.1115|-117.6876|438.6|15.0||1|FM15-METAR|223|ICAO-KCCB|-16.0||1|FM15-METAR|223|ICAO-KCCB|||||||||||||999|C-Calm|9|FM15-METAR|223|ICAO-KCCB|0.0|C-Calm|1|FM15-METAR|223|ICAO-KCCB|||||||||||||10|Derived||FM15-METAR|223|ICAO-KCCB|||||||||||||||||||||||||||||||||||||||||||||||||||||||||||||||||||||||||1020.3||1|FM15-METAR|223|ICAO-KCCB|||||||||||||||||||||||||||||||||||||||||||MET062METAR KCCB 151215Z AUTO 00000KT 10SM CLR 15/M16 A3013 RMK AO2=||F||223|ICAO-KCCB
USI0000KCCB|CABLE|2017|12|15|12|35|34.1115|-117.6876|438.6|14.0||1|FM15-METAR|223|ICAO-KCCB|-16.0||1|FM15-METAR|223|ICAO-KCCB|||||||||||||999|C-Calm|9|FM15-METAR|223|ICAO-KCCB|0.0|C-Calm|1|FM15-METAR|223|ICAO-KCCB|||||||||||||11|Derived||FM15-METAR|223|ICAO-KCCB|||||||||||||||||||||||||||||||||||||||||||||||||||||||||||||||||||||||||1020.3||1|FM15-METAR|223|ICAO-KCCB|||||||||||||||||||||||||||||||||||||||||||MET062METAR KCCB 151235Z AUTO 00000KT 10SM CLR 14/M16 A3013 RMK AO2=||F||223|ICAO-KCCB
USI0000KCCB|CABLE|2017|12|15|12|55|34.1115|-117.6876|438.6|14.0||1|FM15-METAR|223|ICAO-KCCB|-17.0||1|FM15-METAR|223|ICAO-KCCB|||||||||||||350|N-Normal|1|FM15-METAR|223|ICAO-KCCB|2.1|N-Normal|1|FM15-METAR|223|ICAO-KCCB|||||||||||||10|Derived||FM15-METAR|223|ICAO-KCCB|||||||||||||||||||||||||||||||||||||||||||||||||||||||||||||||||||||||||1020.3||1|FM15-METAR|223|ICAO-KCCB|||||||||||||||||||||||||||||||||||||||||||MET062METAR KCCB 151255Z AUTO 35004KT 10SM CLR 14/M17 A3013 RMK AO2=||F||223|ICAO-KCCB
USI0000KCCB|CABLE|2017|12|15|13|15|34.1115|-117.6876|438.6|14.0||1|FM15-METAR|223|ICAO-KCCB|-15.0||1|FM15-METAR|223|ICAO-KCCB|||||||||||||310|N-Normal|1|FM15-METAR|223|ICAO-KCCB|2.1|N-Normal|1|FM15-METAR|223|ICAO-KCCB|||||||||||||12|Derived||FM15-METAR|223|ICAO-KCCB|||||||||||||||||||||||||||||||||||||||||||||||||||||||||||||||||||||||||1020.3||1|FM15-METAR|223|ICAO-KCCB|||||||||||||||||||||||||||||||||||||||||||MET062METAR KCCB 151315Z AUTO 31004KT 10SM CLR 14/M15 A3013 RMK AO2=||F||223|ICAO-KCCB
USI0000KCCB|CABLE|2017|12|15|13|35|34.1115|-117.6876|438.6|14.0||1|FM15-METAR|223|ICAO-KCCB|-15.0||1|FM15-METAR|223|ICAO-KCCB|||||||||||||350|N-Normal|1|FM15-METAR|223|ICAO-KCCB|3.1|N-Normal|1|FM15-METAR|223|ICAO-KCCB|||||||||||||12|Derived||FM15-METAR|223|ICAO-KCCB|||||||||||||||||||||||||||||||||||||||||||||||||||||||||||||||||||||||||1020.3||1|FM15-METAR|223|ICAO-KCCB|||||||||||||||||||||||||||||||||||||||||||MET062METAR KCCB 151335Z AUTO 35006KT 10SM CLR 14/M15 A3013 RMK AO2=||F||223|ICAO-KCCB
USI0000KCCB|CABLE|2017|12|15|13|55|34.1115|-117.6876|438.6|14.0||1|FM15-METAR|223|ICAO-KCCB|-15.0||1|FM15-METAR|223|ICAO-KCCB|||||||||||||320|N-Normal|1|FM15-METAR|223|ICAO-KCCB|2.6|N-Normal|1|FM15-METAR|223|ICAO-KCCB|||||||||||||12|Derived||FM15-METAR|223|ICAO-KCCB|||||||||||||||||||||||||||||||||||||||||||||||||||||||||||||||||||||||||1020.7||1|FM15-METAR|223|ICAO-KCCB|||||||||||||||||||||||||||||||||||||||||||MET062METAR KCCB 151355Z AUTO 32005KT 10SM CLR 14/M15 A3014 RMK AO2=||F||223|ICAO-KCCB
USI0000KCCB|CABLE|2017|12|15|14|15|34.1115|-117.6876|438.6|14.0||1|FM15-METAR|223|ICAO-KCCB|-15.0||1|FM15-METAR|223|ICAO-KCCB|||||||||||||320|N-Normal|1|FM15-METAR|223|ICAO-KCCB|2.1|N-Normal|1|FM15-METAR|223|ICAO-KCCB|||||||||||||12|Derived||FM15-METAR|223|ICAO-KCCB|||||||||||||||||||||||||||||||||||||||||||||||||||||||||||||||||||||||||1020.7||1|FM15-METAR|223|ICAO-KCCB|||||||||||||||||||||||||||||||||||||||||||MET062METAR KCCB 151415Z AUTO 32004KT 10SM CLR 14/M15 A3014 RMK AO2=||F||223|ICAO-KCCB
USI0000KCCB|CABLE|2017|12|15|14|35|34.1115|-117.6876|438.6|14.0||1|FM15-METAR|223|ICAO-KCCB|-16.0||1|FM15-METAR|223|ICAO-KCCB|||||||||||||350|N-Normal|1|FM15-METAR|223|ICAO-KCCB|2.6|N-Normal|1|FM15-METAR|223|ICAO-KCCB|||||||||||||11|Derived||FM15-METAR|223|ICAO-KCCB|||||||||||||||||||||||||||||||||||||||||||||||||||||||||||||||||||||||||1020.7||1|FM15-METAR|223|ICAO-KCCB|||||||||||||||||||||||||||||||||||||||||||MET062METAR KCCB 151435Z AUTO 35005KT 10SM CLR 14/M16 A3014 RMK AO2=||F||223|ICAO-KCCB
USI0000KCCB|CABLE|2017|12|15|14|55|34.1115|-117.6876|438.6|14.0||1|FM15-METAR|223|ICAO-KCCB|-16.0||1|FM15-METAR|223|ICAO-KCCB|||||||||||||360|N-Normal|1|FM15-METAR|223|ICAO-KCCB|4.6|N-Normal|1|FM15-METAR|223|ICAO-KCCB|||||||||||||11|Derived||FM15-METAR|223|ICAO-KCCB|||||||||||||||||||||||||||||||||||||||||||||||||||||||||||||||||||||||||1020.7||1|FM15-METAR|223|ICAO-KCCB|||||||||||||||||||||||||||||||||||||||||||MET062METAR KCCB 151455Z AUTO 36009KT 10SM CLR 14/M16 A3014 RMK AO2=||F||223|ICAO-KCCB
USI0000KCCB|CABLE|2017|12|15|15|15|34.1115|-117.6876|438.6|15.0||1|FM15-METAR|223|ICAO-KCCB|-15.0||1|FM15-METAR|223|ICAO-KCCB|||||||||||||350|N-Normal|1|FM15-METAR|223|ICAO-KCCB|3.1|N-Normal|1|FM15-METAR|223|ICAO-KCCB|||||||||||||11|Derived||FM15-METAR|223|ICAO-KCCB|||||||||||||||||||||||||||||||||||||||||||||||||||||||||||||||||||||||||1021.0||1|FM15-METAR|223|ICAO-KCCB|||||||||||||||||||||||||||||||||||||||||||MET062METAR KCCB 151515Z AUTO 35006KT 10SM CLR 15/M15 A3015 RMK AO2=||F||223|ICAO-KCCB
USI0000KCCB|CABLE|2017|12|15|15|35|34.1115|-117.6876|438.6|15.0||1|FM15-METAR|223|ICAO-KCCB|-15.0||1|FM15-METAR|223|ICAO-KCCB|||||||||||||999|C-Calm|9|FM15-METAR|223|ICAO-KCCB|0.0|C-Calm|1|FM15-METAR|223|ICAO-KCCB|||||||||||||11|Derived||FM15-METAR|223|ICAO-KCCB|||||||||||||||||||||||||||||||||||||||||||||||||||||||||||||||||||||||||1021.0||1|FM15-METAR|223|ICAO-KCCB|||||||||||||||||||||||||||||||||||||||||||MET062METAR KCCB 151535Z AUTO 00000KT 10SM CLR 15/M15 A3015 RMK AO2=||F||223|ICAO-KCCB
USI0000KCCB|CABLE|2017|12|15|15|55|34.1115|-117.6876|438.6|15.0||1|FM15-METAR|223|ICAO-KCCB|-12.0||1|FM15-METAR|223|ICAO-KCCB|||||||||||||999|C-Calm|9|FM15-METAR|223|ICAO-KCCB|0.0|C-Calm|1|FM15-METAR|223|ICAO-KCCB|||||||||||||14|Derived||FM15-METAR|223|ICAO-KCCB|||||||||||||||||||||||||||||||||||||||||||||||||||||||||||||||||||||||||1021.3||1|FM15-METAR|223|ICAO-KCCB|||||||||||||||||||||||||||||||||||||||||||MET062METAR KCCB 151555Z AUTO 00000KT 10SM CLR 15/M12 A3016 RMK AO2=||F||223|ICAO-KCCB
USI0000KCCB|CABLE|2017|12|15|16|15|34.1115|-117.6876|438.6|16.0||1|FM15-METAR|223|ICAO-KCCB|-12.0||1|FM15-METAR|223|ICAO-KCCB|||||||||||||999|C-Calm|9|FM15-METAR|223|ICAO-KCCB|0.0|C-Calm|1|FM15-METAR|223|ICAO-KCCB|||||||||||||13|Derived||FM15-METAR|223|ICAO-KCCB|||||||||||||||||||||||||||||||||||||||||||||||||||||||||||||||||||||||||1021.7||1|FM15-METAR|223|ICAO-KCCB|||||||||||||||||||||||||||||||||||||||||||MET062METAR KCCB 151615Z AUTO 00000KT 10SM CLR 16/M12 A3017 RMK AO2=||F||223|ICAO-KCCB
USI0000KCCB|CABLE|2017|12|15|16|35|34.1115|-117.6876|438.6|18.0||1|FM15-METAR|223|ICAO-KCCB|-14.0||1|FM15-METAR|223|ICAO-KCCB|||||||||||||340|N-Normal|1|FM15-METAR|223|ICAO-KCCB|2.1|N-Normal|1|FM15-METAR|223|ICAO-KCCB|||||||||||||10|Derived||FM15-METAR|223|ICAO-KCCB|||||||||||||||||||||||||||||||||||||||||||||||||||||||||||||||||||||||||1021.7||1|FM15-METAR|223|ICAO-KCCB|||||||||||||||||||||||||||||||||||||||||||MET062METAR KCCB 151635Z AUTO 34004KT 10SM CLR 18/M14 A3017 RMK AO2=||F||223|ICAO-KCCB
USI0000KCCB|CABLE|2017|12|15|16|55|34.1115|-117.6876|438.6|19.0||1|FM15-METAR|223|ICAO-KCCB|-14.0||1|FM15-METAR|223|ICAO-KCCB|||||||||||||999|C-Calm|9|FM15-METAR|223|ICAO-KCCB|0.0|C-Calm|1|FM15-METAR|223|ICAO-KCCB|||||||||||||9|Derived||FM15-METAR|223|ICAO-KCCB|||||||||||||||||||||||||||||||||||||||||||||||||||||||||||||||||||||||||1021.7||1|FM15-METAR|223|ICAO-KCCB|||||||||||||||||||||||||||||||||||||||||||MET062METAR KCCB 151655Z AUTO 00000KT 10SM CLR 19/M14 A3017 RMK AO2=||F||223|ICAO-KCCB
USI0000KCCB|CABLE|2017|12|15|17|15|34.1115|-117.6876|438.6|22.0||1|FM15-METAR|223|ICAO-KCCB|-16.0||1|FM15-METAR|223|ICAO-KCCB|||||||||||||999|C-Calm|9|FM15-METAR|223|ICAO-KCCB|0.0|C-Calm|1|FM15-METAR|223|ICAO-KCCB|||||||||||||7|Derived||FM15-METAR|223|ICAO-KCCB|||||||||||||||||||||||||||||||||||||||||||||||||||||||||||||||||||||||||1022.0||1|FM15-METAR|223|ICAO-KCCB|||||||||||||||||||||||||||||||||||||||||||MET062METAR KCCB 151715Z AUTO 00000KT 10SM CLR 22/M16 A3018 RMK AO2=||F||223|ICAO-KCCB
USI0000KCCB|CABLE|2017|12|15|17|35|34.1115|-117.6876|438.6|21.0||1|FM15-METAR|223|ICAO-KCCB|-12.0||1|FM15-METAR|223|ICAO-KCCB|||||||||||||999|C-Calm|9|FM15-METAR|223|ICAO-KCCB|0.0|C-Calm|1|FM15-METAR|223|ICAO-KCCB|||||||||||||10|Derived||FM15-METAR|223|ICAO-KCCB|||||||||||||||||||||||||||||||||||||||||||||||||||||||||||||||||||||||||1021.7||1|FM15-METAR|223|ICAO-KCCB|||||||||||||||||||||||||||||||||||||||||||MET062METAR KCCB 151735Z AUTO 00000KT 10SM CLR 21/M12 A3017 RMK AO2=||F||223|ICAO-KCCB
USI0000KCCB|CABLE|2017|12|15|17|55|34.1115|-117.6876|438.6|21.0||1|FM15-METAR|223|ICAO-KCCB|-13.0||1|FM15-METAR|223|ICAO-KCCB|||||||||||||999|C-Calm|9|FM15-METAR|223|ICAO-KCCB|0.0|C-Calm|1|FM15-METAR|223|ICAO-KCCB|||||||||||||9|Derived||FM15-METAR|223|ICAO-KCCB|||||||||||||||||||||||||||||||||||||||||||||||||||||||||||||||||||||||||1021.7||1|FM15-METAR|223|ICAO-KCCB|||||||||||||||||||||||||||||||||||||||||||MET062METAR KCCB 151755Z AUTO 00000KT 10SM CLR 21/M13 A3017 RMK AO2=||F||223|ICAO-KCCB
USI0000KCCB|CABLE|2017|12|15|18|15|34.1115|-117.6876|438.6|22.0||1|FM15-METAR|223|ICAO-KCCB|-13.0||1|FM15-METAR|223|ICAO-KCCB|||||||||||||999|C-Calm|9|FM15-METAR|223|ICAO-KCCB|0.0|C-Calm|1|FM15-METAR|223|ICAO-KCCB|||||||||||||8|Derived||FM15-METAR|223|ICAO-KCCB|||||||||||||||||||||||||||||||||||||||||||||||||||||||||||||||||||||||||1021.7||1|FM15-METAR|223|ICAO-KCCB|||||||||||||||||||||||||||||||||||||||||||MET062METAR KCCB 151815Z AUTO 00000KT 10SM CLR 22/M13 A3017 RMK AO2=||F||223|ICAO-KCCB
USI0000KCCB|CABLE|2017|12|15|18|35|34.1115|-117.6876|438.6|21.0||1|FM15-METAR|223|ICAO-KCCB|-13.0||1|FM15-METAR|223|ICAO-KCCB|||||||||||||999|V-Variable|9|FM15-METAR|223|ICAO-KCCB|1.5|V-Variable|1|FM15-METAR|223|ICAO-KCCB|||||||||||||9|Derived||FM15-METAR|223|ICAO-KCCB|||||||||||||||||||||||||||||||||||||||||||||||||||||||||||||||||||||||||1021.7||1|FM15-METAR|223|ICAO-KCCB|||||||||||||||||||||||||||||||||||||||||||MET062METAR KCCB 151835Z AUTO VRB03KT 10SM CLR 21/M13 A3017 RMK AO2=||F||223|ICAO-KCCB
USI0000KCCB|CABLE|2017|12|15|18|55|34.1115|-117.6876|438.6|21.0||1|FM15-METAR|223|ICAO-KCCB|-14.0||1|FM15-METAR|223|ICAO-KCCB|||||||||||||999|C-Calm|9|FM15-METAR|223|ICAO-KCCB|0.0|C-Calm|1|FM15-METAR|223|ICAO-KCCB|||||||||||||8|Derived||FM15-METAR|223|ICAO-KCCB|||||||||||||||||||||||||||||||||||||||||||||||||||||||||||||||||||||||||1021.3||1|FM15-METAR|223|ICAO-KCCB|||||||||||||||||||||||||||||||||||||||||||MET062METAR KCCB 151855Z AUTO 00000KT 10SM CLR 21/M14 A3016 RMK AO2=||F||223|ICAO-KCCB
USI0000KCCB|CABLE|2017|12|15|19|15|34.1115|-117.6876|438.6|22.0||1|FM15-METAR|223|ICAO-KCCB|-15.0||1|FM15-METAR|223|ICAO-KCCB|||||||||||||999|V-Variable|9|FM15-METAR|223|ICAO-KCCB|1.5|V-Variable|1|FM15-METAR|223|ICAO-KCCB|||||||||||||7|Derived||FM15-METAR|223|ICAO-KCCB|||||||||||||||||||||||||||||||||||||||||||||||||||||||||||||||||||||||||1021.0||1|FM15-METAR|223|ICAO-KCCB|||||||||||||||||||||||||||||||||||||||||||MET062METAR KCCB 151915Z AUTO VRB03KT 10SM CLR 22/M15 A3015 RMK AO2=||F||223|ICAO-KCCB
USI0000KCCB|CABLE|2017|12|15|19|35|34.1115|-117.6876|438.6|22.0||1|FM15-METAR|223|ICAO-KCCB|-14.0||1|FM15-METAR|223|ICAO-KCCB|||||||||||||999|C-Calm|9|FM15-METAR|223|ICAO-KCCB|0.0|C-Calm|1|FM15-METAR|223|ICAO-KCCB|||||||||||||8|Derived||FM15-METAR|223|ICAO-KCCB|||||||||||||||||||||||||||||||||||||||||||||||||||||||||||||||||||||||||1020.7||1|FM15-METAR|223|ICAO-KCCB|||||||||||||||||||||||||||||||||||||||||||MET062METAR KCCB 151935Z AUTO 00000KT 10SM CLR 22/M14 A3014 RMK AO2=||F||223|ICAO-KCCB
USI0000KCCB|CABLE|2017|12|15|19|55|34.1115|-117.6876|438.6|23.0||1|FM15-METAR|223|ICAO-KCCB|-14.0||1|FM15-METAR|223|ICAO-KCCB|||||||||||||999|C-Calm|9|FM15-METAR|223|ICAO-KCCB|0.0|C-Calm|1|FM15-METAR|223|ICAO-KCCB|||||||||||||7|Derived||FM15-METAR|223|ICAO-KCCB|||||||||||||||||||||||||||||||||||||||||||||||||||||||||||||||||||||||||1020.3||1|FM15-METAR|223|ICAO-KCCB|||||||||||||||||||||||||||||||||||||||||||MET062METAR KCCB 151955Z AUTO 00000KT 10SM CLR 23/M14 A3013 RMK AO2=||F||223|ICAO-KCCB
USI0000KCCB|CABLE|2017|12|15|20|15|34.1115|-117.6876|438.6|23.0||1|FM15-METAR|223|ICAO-KCCB|-15.0||1|FM15-METAR|223|ICAO-KCCB|||||||||||||999|V-Variable|9|FM15-METAR|223|ICAO-KCCB|1.5|V-Variable|1|FM15-METAR|223|ICAO-KCCB|||||||||||||7|Derived||FM15-METAR|223|ICAO-KCCB|||||||||||||||||||||||||||||||||||||||||||||||||||||||||||||||||||||||||1020.0||1|FM15-METAR|223|ICAO-KCCB|||||||||||||||||||||||||||||||||||||||||||MET062METAR KCCB 152015Z AUTO VRB03KT 10SM CLR 23/M15 A3012 RMK AO2=||F||223|ICAO-KCCB
USI0000KCCB|CABLE|2017|12|15|20|35|34.1115|-117.6876|438.6|24.0||1|FM15-METAR|223|ICAO-KCCB|-15.0||1|FM15-METAR|223|ICAO-KCCB|||||||||||||210|N-Normal|1|FM15-METAR|223|ICAO-KCCB|2.6|N-Normal|1|FM15-METAR|223|ICAO-KCCB|||||||||||||6|Derived||FM15-METAR|223|ICAO-KCCB|||||||||||||||||||||||||||||||||||||||||||||||||||||||||||||||||||||||||1019.3||1|FM15-METAR|223|ICAO-KCCB|||||||||||||||||||||||||||||||||||||||||||MET061METAR KCCB 152035Z AUTO 21005KT 9SM CLR 24/M15 A3010 RMK AO2=||F||223|ICAO-KCCB
USI0000KCCB|CABLE|2017|12|15|20|55|34.1115|-117.6876|438.6|24.0||1|FM15-METAR|223|ICAO-KCCB|-17.0||1|FM15-METAR|223|ICAO-KCCB|||||||||||||240|N-Normal|1|FM15-METAR|223|ICAO-KCCB|2.6|N-Normal|1|FM15-METAR|223|ICAO-KCCB|||||||||||||5|Derived||FM15-METAR|223|ICAO-KCCB|||||||||||||||||||||||||||||||||||||||||||||||||||||||||||||||||||||||||1019.0||1|FM15-METAR|223|ICAO-KCCB|||||||||||||||||||||||||||||||||||||||||||MET062METAR KCCB 152055Z AUTO 24005KT 10SM CLR 24/M17 A3009 RMK AO2=||F||223|ICAO-KCCB
USI0000KCCB|CABLE|2017|12|15|21|15|34.1115|-117.6876|438.6|25.0||1|FM15-METAR|223|ICAO-KCCB|-17.0||1|FM15-METAR|223|ICAO-KCCB|||||||||||||220|N-Normal|1|FM15-METAR|223|ICAO-KCCB|3.1|N-Normal|1|FM15-METAR|223|ICAO-KCCB|||||||||||||5|Derived||FM15-METAR|223|ICAO-KCCB|||||||||||||||||||||||||||||||||||||||||||||||||||||||||||||||||||||||||1018.6||1|FM15-METAR|223|ICAO-KCCB|||||||||||||||||||||||||||||||||||||||||||MET062METAR KCCB 152115Z AUTO 22006KT 10SM CLR 25/M17 A3008 RMK AO2=||F||223|ICAO-KCCB
USI0000KCCB|CABLE|2017|12|15|21|35|34.1115|-117.6876|438.6|25.0||1|FM15-METAR|223|ICAO-KCCB|-16.0||1|FM15-METAR|223|ICAO-KCCB|||||||||||||999|C-Calm|9|FM15-METAR|223|ICAO-KCCB|0.0|C-Calm|1|FM15-METAR|223|ICAO-KCCB|5.1||1|FM15-METAR|223|ICAO-KCCB|||||||5|Derived||FM15-METAR|223|ICAO-KCCB|||||||||||||||||||||||||||||||||||||||||||||||||||||||||||||||||||||||||1017.9||1|FM15-METAR|223|ICAO-KCCB|||||||||||||||||||||||||||||||||||||||||||MET065METAR KCCB 152135Z AUTO 00000G10KT 10SM CLR 25/M16 A3006 RMK AO2=||F||223|ICAO-KCCB
USI0000KCCB|CABLE|2017|12|15|21|55|34.1115|-117.6876|438.6|25.0||1|FM15-METAR|223|ICAO-KCCB|-15.0||1|FM15-METAR|223|ICAO-KCCB|||||||||||||250|N-Normal|1|FM15-METAR|223|ICAO-KCCB|3.1|N-Normal|1|FM15-METAR|223|ICAO-KCCB|||||||||||||6|Derived||FM15-METAR|223|ICAO-KCCB|||||||||||||||||||||||||||||||||||||||||||||||||||||||||||||||||||||||||1017.9||1|FM15-METAR|223|ICAO-KCCB|||||||||||||||||||||||||||||||||||||||||||MET062METAR KCCB 152155Z AUTO 25006KT 10SM CLR 25/M15 A3006 RMK AO2=||F||223|ICAO-KCCB
USI0000KCCB|CABLE|2017|12|15|22|15|34.1115|-117.6876|438.6|25.0||1|FM15-METAR|223|ICAO-KCCB|-17.0||1|FM15-METAR|223|ICAO-KCCB|||||||||||||280|N-Normal|1|FM15-METAR|223|ICAO-KCCB|4.6|N-Normal|1|FM15-METAR|223|ICAO-KCCB|||||||||||||5|Derived||FM15-METAR|223|ICAO-KCCB|||||||||||||||||||||||||||||||||||||||||||||||||||||||||||||||||||||||||1017.6||1|FM15-METAR|223|ICAO-KCCB|||||||||||||||||||||||||||||||||||||||||||MET062METAR KCCB 152215Z AUTO 28009KT 10SM CLR 25/M17 A3005 RMK AO2=||F||223|ICAO-KCCB
USI0000KCCB|CABLE|2017|12|15|22|35|34.1115|-117.6876|438.6|25.0||1|FM15-METAR|223|ICAO-KCCB|-16.0||1|FM15-METAR|223|ICAO-KCCB|||||||||||||280|N-Normal|1|FM15-METAR|223|ICAO-KCCB|4.1|N-Normal|1|FM15-METAR|223|ICAO-KCCB|6.7||1|FM15-METAR|223|ICAO-KCCB|||||||5|Derived||FM15-METAR|223|ICAO-KCCB|||||||||||||||||||||||||||||||||||||||||||||||||||||||||||||||||||||||||1017.6||1|FM15-METAR|223|ICAO-KCCB|||||||||||||||||||||||||||||||||||||||||||MET065METAR KCCB 152235Z AUTO 28008G13KT 10SM CLR 25/M16 A3005 RMK AO2=||F||223|ICAO-KCCB
USI0000KCCB|CABLE|2017|12|15|22|55|34.1115|-117.6876|438.6|25.0||1|FM15-METAR|223|ICAO-KCCB|-16.0||1|FM15-METAR|223|ICAO-KCCB|||||||||||||260|N-Normal|1|FM15-METAR|223|ICAO-KCCB|5.1|N-Normal|1|FM15-METAR|223|ICAO-KCCB|||||||||||||5|Derived||FM15-METAR|223|ICAO-KCCB|||||||||||||||||||||||||||||||||||||||||||||||||||||||||||||||||||||||||1017.3||1|FM15-METAR|223|ICAO-KCCB|||||||||||||||||||||||||||||||||||||||||||MET062METAR KCCB 152255Z AUTO 26010KT 10SM CLR 25/M16 A3004 RMK AO2=||F||223|ICAO-KCCB
USI0000KCCB|CABLE|2017|12|15|23|15|34.1115|-117.6876|438.6|24.0||1|FM15-METAR|223|ICAO-KCCB|-15.0||1|FM15-METAR|223|ICAO-KCCB|||||||||||||240|N-Normal|1|FM15-METAR|223|ICAO-KCCB|3.1|N-Normal|1|FM15-METAR|223|ICAO-KCCB|||||||||||||6|Derived||FM15-METAR|223|ICAO-KCCB|||||||||||||||||||||||||||||||||||||||||||||||||||||||||||||||||||||||||1016.9||1|FM15-METAR|223|ICAO-KCCB|||||||||||||||||||||||||||||||||||||||||||MET062METAR KCCB 152315Z AUTO 24006KT 10SM CLR 24/M15 A3003 RMK AO2=||F||223|ICAO-KCCB
USI0000KCCB|CABLE|2017|12|15|23|35|34.1115|-117.6876|438.6|24.0||1|FM15-METAR|223|ICAO-KCCB|-15.0||1|FM15-METAR|223|ICAO-KCCB|||||||||||||260|N-Normal|1|FM15-METAR|223|ICAO-KCCB|4.6|N-Normal|1|FM15-METAR|223|ICAO-KCCB|||||||||||||6|Derived||FM15-METAR|223|ICAO-KCCB|||||||||||||||||||||||||||||||||||||||||||||||||||||||||||||||||||||||||1016.9||1|FM15-METAR|223|ICAO-KCCB|||||||||||||||||||||||||||||||||||||||||||MET062METAR KCCB 152335Z AUTO 26009KT 10SM CLR 24/M15 A3003 RMK AO2=||F||223|ICAO-KCCB
USI0000KCCB|CABLE|2017|12|15|23|55|34.1115|-117.6876|438.6|24.0||1|FM15-METAR|223|ICAO-KCCB|-16.0||1|FM15-METAR|223|ICAO-KCCB|||||||||||||260|N-Normal|1|FM15-METAR|223|ICAO-KCCB|5.1|N-Normal|1|FM15-METAR|223|ICAO-KCCB|||||||||||||6|Derived||FM15-METAR|223|ICAO-KCCB|||||||||||||||||||||||||||||||||||||||||||||||||||||||||||||||||||||||||1016.9||1|FM15-METAR|223|ICAO-KCCB|||||||||||||||||||||||||||||||||||||||||||MET062METAR KCCB 152355Z AUTO 26010KT 10SM CLR 24/M16 A3003 RMK AO2=||F||223|ICAO-KCCB
USI0000KCCB|CABLE|2017|12|16|00|15|34.1115|-117.6876|438.6|23.0||1|FM15-METAR|223|ICAO-KCCB|-15.0||1|FM15-METAR|223|ICAO-KCCB|||||||||||||260|N-Normal|1|FM15-METAR|223|ICAO-KCCB|4.1|N-Normal|1|FM15-METAR|223|ICAO-KCCB|||||||||||||7|Derived||FM15-METAR|223|ICAO-KCCB|||||||||||||||||||||||||||||||||||||||||||||||||||||||||||||||||||||||||1016.9||1|FM15-METAR|223|ICAO-KCCB|||||||||||||||||||||||||||||||||||||||||||MET062METAR KCCB 160015Z AUTO 26008KT 10SM CLR 23/M15 A3003 RMK AO2=||F||223|ICAO-KCCB
USI0000KCCB|CABLE|2017|12|16|00|35|34.1115|-117.6876|438.6|22.0||1|FM15-METAR|223|ICAO-KCCB|-10.0||1|FM15-METAR|223|ICAO-KCCB|||||||||||||240|N-Normal|1|FM15-METAR|223|ICAO-KCCB|4.6|N-Normal|1|FM15-METAR|223|ICAO-KCCB|||||||||||||11|Derived||FM15-METAR|223|ICAO-KCCB|||||||||||||||||||||||||||||||||||||||||||||||||||||||||||||||||||||||||1016.9||1|FM15-METAR|223|ICAO-KCCB|||||||||||||||||||||||||||||||||||||||||||MET062METAR KCCB 160035Z AUTO 24009KT 10SM CLR 22/M10 A3003 RMK AO2=||F||223|ICAO-KCCB
USI0000KCCB|CABLE|2017|12|16|00|55|34.1115|-117.6876|438.6|21.0||1|FM15-METAR|223|ICAO-KCCB|-9.0||1|FM15-METAR|223|ICAO-KCCB|||||||||||||260|N-Normal|1|FM15-METAR|223|ICAO-KCCB|3.1|N-Normal|1|FM15-METAR|223|ICAO-KCCB|||||||||||||12|Derived||FM15-METAR|223|ICAO-KCCB|||||||||||||||||||||||||||||||||||||||||||||||||||||||||||||||||||||||||1016.9||1|FM15-METAR|223|ICAO-KCCB|||||||||||||||||||||||||||||||||||||||||||MET062METAR KCCB 160055Z AUTO 26006KT 10SM CLR 21/M09 A3003 RMK AO2=||F||223|ICAO-KCCB
USI0000KCCB|CABLE|2017|12|16|01|15|34.1115|-117.6876|438.6|20.0||1|FM15-METAR|223|ICAO-KCCB|-8.0||1|FM15-METAR|223|ICAO-KCCB|||||||||||||270|N-Normal|1|FM15-METAR|223|ICAO-KCCB|2.6|N-Normal|1|FM15-METAR|223|ICAO-KCCB|||||||||||||14|Derived||FM15-METAR|223|ICAO-KCCB|||||||||||||||||||||||||||||||||||||||||||||||||||||||||||||||||||||||||1016.6||1|FM15-METAR|223|ICAO-KCCB|||||||||||||||||||||||||||||||||||||||||||MET062METAR KCCB 160115Z AUTO 27005KT 10SM CLR 20/M08 A3002 RMK AO2=||F||223|ICAO-KCCB
USI0000KCCB|CABLE|2017|12|16|01|35|34.1115|-117.6876|438.6|19.0||1|FM15-METAR|223|ICAO-KCCB|-7.0||1|FM15-METAR|223|ICAO-KCCB|||||||||||||270|N-Normal|1|FM15-METAR|223|ICAO-KCCB|2.6|N-Normal|1|FM15-METAR|223|ICAO-KCCB|||||||||||||17|Derived||FM15-METAR|223|ICAO-KCCB|||||||||||||||||||||||||||||||||||||||||||||||||||||||||||||||||||||||||1016.6||1|FM15-METAR|223|ICAO-KCCB|||||||||||||||||||||||||||||||||||||||||||MET062METAR KCCB 160135Z AUTO 27005KT 10SM CLR 19/M07 A3002 RMK AO2=||F||223|ICAO-KCCB
USI0000KCCB|CABLE|2017|12|16|01|55|34.1115|-117.6876|438.6|19.0||1|FM15-METAR|223|ICAO-KCCB|-8.0||1|FM15-METAR|223|ICAO-KCCB|||||||||||||280|N-Normal|1|FM15-METAR|223|ICAO-KCCB|3.6|N-Normal|1|FM15-METAR|223|ICAO-KCCB|||||||||||||15|Derived||FM15-METAR|223|ICAO-KCCB|||||||||||||||||||||||||||||||||||||||||||||||||||||||||||||||||||||||||1016.6||1|FM15-METAR|223|ICAO-KCCB|||||||||||||||||||||||||||||||||||||||||||MET062METAR KCCB 160155Z AUTO 28007KT 10SM CLR 19/M08 A3002 RMK AO2=||F||223|ICAO-KCCB
USI0000KCCB|CABLE|2017|12|16|02|15|34.1115|-117.6876|438.6|18.0||1|FM15-METAR|223|ICAO-KCCB|-8.0||1|FM15-METAR|223|ICAO-KCCB|||||||||||||260|N-Normal|1|FM15-METAR|223|ICAO-KCCB|2.1|N-Normal|1|FM15-METAR|223|ICAO-KCCB|||||||||||||16|Derived||FM15-METAR|223|ICAO-KCCB|||||||||||||||||||||||||||||||||||||||||||||||||||||||||||||||||||||||||1016.3||1|FM15-METAR|223|ICAO-KCCB|||||||||||||||||||||||||||||||||||||||||||MET062METAR KCCB 160215Z AUTO 26004KT 10SM CLR 18/M08 A3001 RMK AO2=||F||223|ICAO-KCCB
USI0000KCCB|CABLE|2017|12|16|02|35|34.1115|-117.6876|438.6|18.0||1|FM15-METAR|223|ICAO-KCCB|-9.0||1|FM15-METAR|223|ICAO-KCCB|||||||||||||300|N-Normal|1|FM15-METAR|223|ICAO-KCCB|2.6|N-Normal|1|FM15-METAR|223|ICAO-KCCB|||||||||||||15|Derived||FM15-METAR|223|ICAO-KCCB|||||||||||||||||||||||||||||||||||||||||||||||||||||||||||||||||||||||||1016.3||1|FM15-METAR|223|ICAO-KCCB|||||||||||||||||||||||||||||||||||||||||||MET072METAR KCCB 160235Z AUTO 30005KT 10SM FEW065 FEW075 18/M09 A3001 RMK AO2=||F||223|ICAO-KCCB
USI0000KCCB|CABLE|2017|12|16|02|55|34.1115|-117.6876|438.6|18.0||1|FM15-METAR|223|ICAO-KCCB|-10.0||1|FM15-METAR|223|ICAO-KCCB|||||||||||||350|N-Normal|1|FM15-METAR|223|ICAO-KCCB|2.1|N-Normal|1|FM15-METAR|223|ICAO-KCCB|||||||||||||14|Derived||FM15-METAR|223|ICAO-KCCB|||||||||||||||||||||||||||||||||||||||||||||||||||||||||||||||||||||||||1016.3||1|FM15-METAR|223|ICAO-KCCB|||||||||||||||||||||||||||||||||||||||||||MET072METAR KCCB 160255Z AUTO 35004KT 10SM BKN065 BKN075 18/M10 A3001 RMK AO2=||F||223|ICAO-KCCB
USI0000KCCB|CABLE|2017|12|16|03|15|34.1115|-117.6876|438.6|17.0||1|FM15-METAR|223|ICAO-KCCB|-10.0||1|FM15-METAR|223|ICAO-KCCB|||||||||||||360|N-Normal|1|FM15-METAR|223|ICAO-KCCB|1.5|N-Normal|1|FM15-METAR|223|ICAO-KCCB|||||||||||||15|Derived||FM15-METAR|223|ICAO-KCCB|||||||||||||||||||||||||||||||||||||||||||||||||||||||||||||||||||||||||1015.9||1|FM15-METAR|223|ICAO-KCCB|||||||||||||||||||||||||||||||||||||||||||MET072METAR KCCB 160315Z AUTO 36003KT 10SM BKN060 OVC070 17/M10 A3000 RMK AO2=||F||223|ICAO-KCCB
USI0000KCCB|CABLE|2017|12|16|03|35|34.1115|-117.6876|438.6|17.0||1|FM15-METAR|223|ICAO-KCCB|-11.0||1|FM15-METAR|223|ICAO-KCCB|||||||||||||020|N-Normal|1|FM15-METAR|223|ICAO-KCCB|1.5|N-Normal|1|FM15-METAR|223|ICAO-KCCB|||||||||||||14|Derived||FM15-METAR|223|ICAO-KCCB|||||||||||||||||||||||||||||||||||||||||||||||||||||||||||||||||||||||||1015.6||1|FM15-METAR|223|ICAO-KCCB|||||||||||||||||||||||||||||||||||||||||||MET072METAR KCCB 160335Z AUTO 02003KT 10SM BKN060 OVC070 17/M11 A2999 RMK AO2=||F||223|ICAO-KCCB
USI0000KCCB|CABLE|2017|12|16|03|55|34.1115|-117.6876|438.6|17.0||1|FM15-METAR|223|ICAO-KCCB|-11.0||1|FM15-METAR|223|ICAO-KCCB|||||||||||||999|C-Calm|9|FM15-METAR|223|ICAO-KCCB|0.0|C-Calm|1|FM15-METAR|223|ICAO-KCCB|||||||||||||14|Derived||FM15-METAR|223|ICAO-KCCB|||||||||||||||||||||||||||||||||||||||||||||||||||||||||||||||||||||||||1015.6||1|FM15-METAR|223|ICAO-KCCB|||||||||||||||||||||||||||||||||||||||||||MET072METAR KCCB 160355Z AUTO 00000KT 10SM BKN060 OVC070 17/M11 A2999 RMK AO2=||F||223|ICAO-KCCB
USI0000KCCB|CABLE|2017|12|16|04|15|34.1115|-117.6876|438.6|17.0||1|FM15-METAR|223|ICAO-KCCB|-12.0||1|FM15-METAR|223|ICAO-KCCB|||||||||||||999|C-Calm|9|FM15-METAR|223|ICAO-KCCB|0.0|C-Calm|1|FM15-METAR|223|ICAO-KCCB|||||||||||||13|Derived||FM15-METAR|223|ICAO-KCCB|||||||||||||||||||||||||||||||||||||||||||||||||||||||||||||||||||||||||1015.6||1|FM15-METAR|223|ICAO-KCCB|||||||||||||||||||||||||||||||||||||||||||MET072METAR KCCB 160415Z AUTO 00000KT 10SM BKN060 OVC070 17/M12 A2999 RMK AO2=||F||223|ICAO-KCCB
USI0000KCCB|CABLE|2017|12|16|04|35|34.1115|-117.6876|438.6|17.0||1|FM15-METAR|223|ICAO-KCCB|-11.0||1|FM15-METAR|223|ICAO-KCCB|||||||||||||999|C-Calm|9|FM15-METAR|223|ICAO-KCCB|0.0|C-Calm|1|FM15-METAR|223|ICAO-KCCB|||||||||||||14|Derived||FM15-METAR|223|ICAO-KCCB|||||||||||||||||||||||||||||||||||||||||||||||||||||||||||||||||||||||||1015.6||1|FM15-METAR|223|ICAO-KCCB|||||||||||||||||||||||||||||||||||||||||||MET072METAR KCCB 160435Z AUTO 00000KT 10SM SCT060 OVC075 17/M11 A2999 RMK AO2=||F||223|ICAO-KCCB
USI0000KCCB|CABLE|2017|12|16|04|55|34.1115|-117.6876|438.6|17.0||1|FM15-METAR|223|ICAO-KCCB|-11.0||1|FM15-METAR|223|ICAO-KCCB|||||||||||||999|C-Calm|9|FM15-METAR|223|ICAO-KCCB|0.0|C-Calm|1|FM15-METAR|223|ICAO-KCCB|||||||||||||14|Derived||FM15-METAR|223|ICAO-KCCB|||||||||||||||||||||||||||||||||||||||||||||||||||||||||||||||||||||||||1015.2||1|FM15-METAR|223|ICAO-KCCB|||||||||||||||||||||||||||||||||||||||||||MET065METAR KCCB 160455Z AUTO 00000KT 10SM OVC075 17/M11 A2998 RMK AO2=||F||223|ICAO-KCCB
USI0000KCCB|CABLE|2017|12|16|05|15|34.1115|-117.6876|438.6|16.0||1|FM15-METAR|223|ICAO-KCCB|-10.0||1|FM15-METAR|223|ICAO-KCCB|||||||||||||010|N-Normal|1|FM15-METAR|223|ICAO-KCCB|2.1|N-Normal|1|FM15-METAR|223|ICAO-KCCB|||||||||||||16|Derived||FM15-METAR|223|ICAO-KCCB|||||||||||||||||||||||||||||||||||||||||||||||||||||||||||||||||||||||||1015.2||1|FM15-METAR|223|ICAO-KCCB|||||||||||||||||||||||||||||||||||||||||||MET079METAR KCCB 160515Z AUTO 01004KT 10SM BKN049 BKN060 OVC075 16/M10 A2998 RMK AO2=||F||223|ICAO-KCCB
USI0000KCCB|CABLE|2017|12|16|05|35|34.1115|-117.6876|438.6|16.0||1|FM15-METAR|223|ICAO-KCCB|-9.0||1|FM15-METAR|223|ICAO-KCCB|||||||||||||999|C-Calm|9|FM15-METAR|223|ICAO-KCCB|0.0|C-Calm|1|FM15-METAR|223|ICAO-KCCB|||||||||||||17|Derived||FM15-METAR|223|ICAO-KCCB|||||||||||||||||||||||||||||||||||||||||||||||||||||||||||||||||||||||||1015.2||1|FM15-METAR|223|ICAO-KCCB|||||||||||||||||||||||||||||||||||||||||||MET065METAR KCCB 160535Z AUTO 00000KT 10SM OVC049 16/M09 A2998 RMK AO2=||F||223|ICAO-KCCB
USI0000KCCB|CABLE|2017|12|16|05|55|34.1115|-117.6876|438.6|15.0||1|FM15-METAR|223|ICAO-KCCB|-9.0||1|FM15-METAR|223|ICAO-KCCB|||||||||||||999|C-Calm|9|FM15-METAR|223|ICAO-KCCB|0.0|C-Calm|1|FM15-METAR|223|ICAO-KCCB|||||||||||||18|Derived||FM15-METAR|223|ICAO-KCCB|||||||||||||||||||||||||||||||||||||||||||||||||||||||||||||||||||||||||1015.2||1|FM15-METAR|223|ICAO-KCCB|||||||||||||||||||||||||||||||||||||||||||MET065METAR KCCB 160555Z AUTO 00000KT 10SM OVC048 15/M09 A2998 RMK AO2=||F||223|ICAO-KCCB
USI0000KCCB|CABLE|2017|12|16|06|15|34.1115|-117.6876|438.6|14.0||1|FM15-METAR|223|ICAO-KCCB|-10.0||1|FM15-METAR|223|ICAO-KCCB|||||||||||||350|N-Normal|1|FM15-METAR|223|ICAO-KCCB|2.1|N-Normal|1|FM15-METAR|223|ICAO-KCCB|||||||||||||18|Derived||FM15-METAR|223|ICAO-KCCB|||||||||||||||||||||||||||||||||||||||||||||||||||||||||||||||||||||||||1014.9||1|FM15-METAR|223|ICAO-KCCB|||||||||||||||||||||||||||||||||||||||||||MET065METAR KCCB 160615Z AUTO 35004KT 10SM OVC048 14/M10 A2997 RMK AO2=||F||223|ICAO-KCCB
USI0000KCCB|CABLE|2017|12|16|06|35|34.1115|-117.6876|438.6|15.0||1|FM15-METAR|223|ICAO-KCCB|-11.0||1|FM15-METAR|223|ICAO-KCCB|||||||||||||999|C-Calm|9|FM15-METAR|223|ICAO-KCCB|0.0|C-Calm|1|FM15-METAR|223|ICAO-KCCB|||||||||||||16|Derived||FM15-METAR|223|ICAO-KCCB|||||||||||||||||||||||||||||||||||||||||||||||||||||||||||||||||||||||||1014.9||1|FM15-METAR|223|ICAO-KCCB|||||||||||||||||||||||||||||||||||||||||||MET065METAR KCCB 160635Z AUTO 00000KT 10SM OVC049 15/M11 A2997 RMK AO2=||F||223|ICAO-KCCB
USI0000KCCB|CABLE|2017|12|16|06|55|34.1115|-117.6876|438.6|14.0||1|FM15-METAR|223|ICAO-KCCB|-10.0||1|FM15-METAR|223|ICAO-KCCB|||||||||||||010|N-Normal|1|FM15-METAR|223|ICAO-KCCB|1.5|N-Normal|1|FM15-METAR|223|ICAO-KCCB|||||||||||||18|Derived||FM15-METAR|223|ICAO-KCCB|||||||||||||||||||||||||||||||||||||||||||||||||||||||||||||||||||||||||1014.9||1|FM15-METAR|223|ICAO-KCCB|||||||||||||||||||||||||||||||||||||||||||MET065METAR KCCB 160655Z AUTO 01003KT 10SM OVC049 14/M10 A2997 RMK AO2=||F||223|ICAO-KCCB
USI0000KCCB|CABLE|2017|12|16|07|15|34.1115|-117.6876|438.6|14.0||1|FM15-METAR|223|ICAO-KCCB|-10.0||1|FM15-METAR|223|ICAO-KCCB|||||||||||||020|N-Normal|1|FM15-METAR|223|ICAO-KCCB|2.1|N-Normal|1|FM15-METAR|223|ICAO-KCCB|||||||||||||18|Derived||FM15-METAR|223|ICAO-KCCB|||||||||||||||||||||||||||||||||||||||||||||||||||||||||||||||||||||||||1014.2||1|FM15-METAR|223|ICAO-KCCB|||||||||||||||||||||||||||||||||||||||||||MET072METAR KCCB 160715Z AUTO 02004KT 10SM BKN048 OVC060 14/M10 A2995 RMK AO2=||F||223|ICAO-KCCB
USI0000KCCB|CABLE|2017|12|16|07|35|34.1115|-117.6876|438.6|14.0||1|FM15-METAR|223|ICAO-KCCB|-10.0||1|FM15-METAR|223|ICAO-KCCB|||||||||||||020|N-Normal|1|FM15-METAR|223|ICAO-KCCB|2.6|N-Normal|1|FM15-METAR|223|ICAO-KCCB|||||||||||||18|Derived||FM15-METAR|223|ICAO-KCCB|||||||||||||||||||||||||||||||||||||||||||||||||||||||||||||||||||||||||1013.9||1|FM15-METAR|223|ICAO-KCCB|||||||||||||||||||||||||||||||||||||||||||MET065METAR KCCB 160735Z AUTO 02005KT 10SM OVC046 14/M10 A2994 RMK AO2=||F||223|ICAO-KCCB
USI0000KCCB|CABLE|2017|12|16|07|55|34.1115|-117.6876|438.6|15.0||1|FM15-METAR|223|ICAO-KCCB|-10.0||1|FM15-METAR|223|ICAO-KCCB|||||||||||||050|N-Normal|1|FM15-METAR|223|ICAO-KCCB|2.1|N-Normal|1|FM15-METAR|223|ICAO-KCCB|||||||||||||17|Derived||FM15-METAR|223|ICAO-KCCB|||||||||||||||||||||||||||||||||||||||||||||||||||||||||||||||||||||||||1013.5||1|FM15-METAR|223|ICAO-KCCB|||||||||||||||||||||||||||||||||||||||||||MET072METAR KCCB 160755Z AUTO 05004KT 10SM FEW029 OVC045 15/M10 A2993 RMK AO2=||F||223|ICAO-KCCB
USI0000KCCB|CABLE|2017|12|16|08|15|34.1115|-117.6876|438.6|14.0||1|FM15-METAR|223|ICAO-KCCB|-9.0||1|FM15-METAR|223|ICAO-KCCB|||||||||||||060|N-Normal|1|FM15-METAR|223|ICAO-KCCB|2.6|N-Normal|1|FM15-METAR|223|ICAO-KCCB|||||||||||||20|Derived||FM15-METAR|223|ICAO-KCCB|||||||||||||||||||||||||||||||||||||||||||||||||||||||||||||||||||||||||1012.9||1|FM15-METAR|223|ICAO-KCCB|||||||||||||||||||||||||||||||||||||||||||MET072METAR KCCB 160815Z AUTO 06005KT 10SM FEW029 OVC043 14/M09 A2991 RMK AO2=||F||223|ICAO-KCCB
USI0000KCCB|CABLE|2017|12|16|08|35|34.1115|-117.6876|438.6|14.0||1|FM15-METAR|223|ICAO-KCCB|-9.0||1|FM15-METAR|223|ICAO-KCCB|||||||||||||040|N-Normal|1|FM15-METAR|223|ICAO-KCCB|2.1|N-Normal|1|FM15-METAR|223|ICAO-KCCB|||||||||||||20|Derived||FM15-METAR|223|ICAO-KCCB|||||||||||||||||||||||||||||||||||||||||||||||||||||||||||||||||||||||||1012.9||1|FM15-METAR|223|ICAO-KCCB|||||||||||||||||||||||||||||||||||||||||||MET079METAR KCCB 160835Z AUTO 04004KT 10SM SCT030 SCT036 OVC044 14/M09 A2991 RMK AO2=||F||223|ICAO-KCCB
USI0000KCCB|CABLE|2017|12|16|08|55|34.1115|-117.6876|438.6|15.0||1|FM15-METAR|223|ICAO-KCCB|-9.0||1|FM15-METAR|223|ICAO-KCCB|||||||||||||999|C-Calm|9|FM15-METAR|223|ICAO-KCCB|0.0|C-Calm|1|FM15-METAR|223|ICAO-KCCB|||||||||||||18|Derived||FM15-METAR|223|ICAO-KCCB|||||||||||||||||||||||||||||||||||||||||||||||||||||||||||||||||||||||||1012.9||1|FM15-METAR|223|ICAO-KCCB|||||||||||||||||||||||||||||||||||||||||||MET079METAR KCCB 160855Z AUTO 00000KT 10SM SCT031 BKN039 OVC045 15/M09 A2991 RMK AO2=||F||223|ICAO-KCCB
USI0000KCCB|CABLE|2017|12|16|09|15|34.1115|-117.6876|438.6|15.0||1|FM15-METAR|223|ICAO-KCCB|-9.0||1|FM15-METAR|223|ICAO-KCCB|||||||||||||030|N-Normal|1|FM15-METAR|223|ICAO-KCCB|2.1|N-Normal|1|FM15-METAR|223|ICAO-KCCB|||||||||||||18|Derived||FM15-METAR|223|ICAO-KCCB|||||||||||||||||||||||||||||||||||||||||||||||||||||||||||||||||||||||||1012.5||1|FM15-METAR|223|ICAO-KCCB|||||||||||||||||||||||||||||||||||||||||||MET065METAR KCCB 160915Z AUTO 03004KT 10SM OVC038 15/M09 A2990 RMK AO2=||F||223|ICAO-KCCB
USI0000KCCB|CABLE|2017|12|16|09|35|34.1115|-117.6876|438.6|13.0||1|FM15-METAR|223|ICAO-KCCB|-9.0||1|FM15-METAR|223|ICAO-KCCB|||||||||||||040|N-Normal|1|FM15-METAR|223|ICAO-KCCB|1.5|N-Normal|1|FM15-METAR|223|ICAO-KCCB|||||||||||||21|Derived||FM15-METAR|223|ICAO-KCCB|||||||||||||||||||||||||||||||||||||||||||||||||||||||||||||||||||||||||1012.2||1|FM15-METAR|223|ICAO-KCCB|||||||||||||||||||||||||||||||||||||||||||MET072METAR KCCB 160935Z AUTO 04003KT 10SM BKN037 OVC043 13/M09 A2989 RMK AO2=||F||223|ICAO-KCCB
USI0000KCCB|CABLE|2017|12|16|09|55|34.1115|-117.6876|438.6|14.0||1|FM15-METAR|223|ICAO-KCCB|-9.0||1|FM15-METAR|223|ICAO-KCCB|||||||||||||040|N-Normal|1|FM15-METAR|223|ICAO-KCCB|2.1|N-Normal|1|FM15-METAR|223|ICAO-KCCB|||||||||||||20|Derived||FM15-METAR|223|ICAO-KCCB|||||||||||||||||||||||||||||||||||||||||||||||||||||||||||||||||||||||||1012.2||1|FM15-METAR|223|ICAO-KCCB|||||||||||||||||||||||||||||||||||||||||||MET072METAR KCCB 160955Z AUTO 04004KT 10SM BKN038 OVC044 14/M09 A2989 RMK AO2=||F||223|ICAO-KCCB
USI0000KCCB|CABLE|2017|12|16|10|15|34.1115|-117.6876|438.6|13.0||1|FM15-METAR|223|ICAO-KCCB|-9.0||1|FM15-METAR|223|ICAO-KCCB|||||||||||||999|C-Calm|9|FM15-METAR|223|ICAO-KCCB|0.0|C-Calm|1|FM15-METAR|223|ICAO-KCCB|||||||||||||21|Derived||FM15-METAR|223|ICAO-KCCB|||||||||||||||||||||||||||||||||||||||||||||||||||||||||||||||||||||||||1011.8||1|FM15-METAR|223|ICAO-KCCB|||||||||||||||||||||||||||||||||||||||||||MET072METAR KCCB 161015Z AUTO 00000KT 10SM SCT034 OVC042 13/M09 A2988 RMK AO2=||F||223|ICAO-KCCB
USI0000KCCB|CABLE|2017|12|16|10|35|34.1115|-117.6876|438.6|12.0||1|FM15-METAR|223|ICAO-KCCB|-9.0||1|FM15-METAR|223|ICAO-KCCB|||||||||||||010|N-Normal|1|FM15-METAR|223|ICAO-KCCB|2.1|N-Normal|1|FM15-METAR|223|ICAO-KCCB|||||||||||||22|Derived||FM15-METAR|223|ICAO-KCCB|||||||||||||||||||||||||||||||||||||||||||||||||||||||||||||||||||||||||1011.5||1|FM15-METAR|223|ICAO-KCCB|||||||||||||||||||||||||||||||||||||||||||MET079METAR KCCB 161035Z AUTO 01004KT 10SM FEW032 SCT038 BKN044 12/M09 A2987 RMK AO2=||F||223|ICAO-KCCB
USI0000KCCB|CABLE|2017|12|16|10|55|34.1115|-117.6876|438.6|13.0||1|FM15-METAR|223|ICAO-KCCB|-10.0||1|FM15-METAR|223|ICAO-KCCB|||||||||||||999|C-Calm|9|FM15-METAR|223|ICAO-KCCB|0.0|C-Calm|1|FM15-METAR|223|ICAO-KCCB|||||||||||||19|Derived||FM15-METAR|223|ICAO-KCCB|||||||||||||||||||||||||||||||||||||||||||||||||||||||||||||||||||||||||1010.8||1|FM15-METAR|223|ICAO-KCCB|||||||||||||||||||||||||||||||||||||||||||MET072METAR KCCB 161055Z AUTO 00000KT 10SM SCT023 OVC043 13/M10 A2985 RMK AO2=||F||223|ICAO-KCCB
USI0000KCCB|CABLE|2017|12|16|11|15|34.1115|-117.6876|438.6|13.0||1|FM15-METAR|223|ICAO-KCCB|-10.0||1|FM15-METAR|223|ICAO-KCCB|||||||||||||999|C-Calm|9|FM15-METAR|223|ICAO-KCCB|0.0|C-Calm|1|FM15-METAR|223|ICAO-KCCB|||||||||||||19|Derived||FM15-METAR|223|ICAO-KCCB|||||||||||||||||||||||||||||||||||||||||||||||||||||||||||||||||||||||||1010.2||1|FM15-METAR|223|ICAO-KCCB|||||||||||||||||||||||||||||||||||||||||||MET065METAR KCCB 161115Z AUTO 00000KT 10SM OVC023 13/M10 A2983 RMK AO2=||F||223|ICAO-KCCB
USI0000KCCB|CABLE|2017|12|16|11|35|34.1115|-117.6876|438.6|13.0||1|FM15-METAR|223|ICAO-KCCB|-9.0||1|FM15-METAR|223|ICAO-KCCB|||||||||||||999|C-Calm|9|FM15-METAR|223|ICAO-KCCB|0.0|C-Calm|1|FM15-METAR|223|ICAO-KCCB|||||||||||||21|Derived||FM15-METAR|223|ICAO-KCCB|||||||||||||||||||||||||||||||||||||||||||||||||||||||||||||||||||||||||1009.8||1|FM15-METAR|223|ICAO-KCCB|||||||||||||||||||||||||||||||||||||||||||MET065METAR KCCB 161135Z AUTO 00000KT 10SM OVC024 13/M09 A2982 RMK AO2=||F||223|ICAO-KCCB
USI0000KCCB|CABLE|2017|12|16|11|55|34.1115|-117.6876|438.6|13.0||1|FM15-METAR|223|ICAO-KCCB|-9.0||1|FM15-METAR|223|ICAO-KCCB|||||||||||||999|C-Calm|9|FM15-METAR|223|ICAO-KCCB|0.0|C-Calm|1|FM15-METAR|223|ICAO-KCCB|||||||||||||21|Derived||FM15-METAR|223|ICAO-KCCB|||||||||||||||||||||||||||||||||||||||||||||||||||||||||||||||||||||||||1009.5||1|FM15-METAR|223|ICAO-KCCB|||||||||||||||||||||||||||||||||||||||||||MET072METAR KCCB 161155Z AUTO 00000KT 10SM SCT025 OVC055 13/M09 A2981 RMK AO2=||F||223|ICAO-KCCB
USI0000KCCB|CABLE|2017|12|16|12|15|34.1115|-117.6876|438.6|13.0||1|FM15-METAR|223|ICAO-KCCB|-10.0||1|FM15-METAR|223|ICAO-KCCB|||||||||||||999|C-Calm|9|FM15-METAR|223|ICAO-KCCB|0.0|C-Calm|1|FM15-METAR|223|ICAO-KCCB|||||||||||||19|Derived||FM15-METAR|223|ICAO-KCCB|||||||||||||||||||||||||||||||||||||||||||||||||||||||||||||||||||||||||1009.5||1|FM15-METAR|223|ICAO-KCCB|||||||||||||||||||||||||||||||||||||||||||MET072METAR KCCB 161215Z AUTO 00000KT 10SM BKN050 OVC060 13/M10 A2981 RMK AO2=||F||223|ICAO-KCCB
USI0000KCCB|CABLE|2017|12|16|12|35|34.1115|-117.6876|438.6|12.0||1|FM15-METAR|223|ICAO-KCCB|-10.0||1|FM15-METAR|223|ICAO-KCCB|||||||||||||010|N-Normal|1|FM15-METAR|223|ICAO-KCCB|1.5|N-Normal|1|FM15-METAR|223|ICAO-KCCB|||||||||||||21|Derived||FM15-METAR|223|ICAO-KCCB|||||||||||||||||||||||||||||||||||||||||||||||||||||||||||||||||||||||||1008.8||1|FM15-METAR|223|ICAO-KCCB|||||||||||||||||||||||||||||||||||||||||||MET072METAR KCCB 161235Z AUTO 01003KT 10SM BKN050 BKN065 12/M10 A2979 RMK AO2=||F||223|ICAO-KCCB
USI0000KCCB|CABLE|2017|12|16|12|55|34.1115|-117.6876|438.6|12.0||1|FM15-METAR|223|ICAO-KCCB|-9.0||1|FM15-METAR|223|ICAO-KCCB|||||||||||||999|C-Calm|9|FM15-METAR|223|ICAO-KCCB|0.0|C-Calm|1|FM15-METAR|223|ICAO-KCCB|||||||||||||22|Derived||FM15-METAR|223|ICAO-KCCB|||||||||||||||||||||||||||||||||||||||||||||||||||||||||||||||||||||||||1008.1||1|FM15-METAR|223|ICAO-KCCB|||||||||||||||||||||||||||||||||||||||||||MET072METAR KCCB 161255Z AUTO 00000KT 10SM FEW055 SCT065 12/M09 A2977 RMK AO2=||F||223|ICAO-KCCB
USI0000KCCB|CABLE|2017|12|16|13|15|34.1115|-117.6876|438.6|12.0||1|FM15-METAR|223|ICAO-KCCB|-9.0||1|FM15-METAR|223|ICAO-KCCB|||||||||||||360|N-Normal|1|FM15-METAR|223|ICAO-KCCB|1.5|N-Normal|1|FM15-METAR|223|ICAO-KCCB|||||||||||||22|Derived||FM15-METAR|223|ICAO-KCCB|||||||||||||||||||||||||||||||||||||||||||||||||||||||||||||||||||||||||1008.1||1|FM15-METAR|223|ICAO-KCCB|||||||||||||||||||||||||||||||||||||||||||MET079METAR KCCB 161315Z AUTO 36003KT 10SM FEW048 FEW055 BKN065 12/M09 A2977 RMK AO2=||F||223|ICAO-KCCB
USI0000KCCB|CABLE|2017|12|16|13|35|34.1115|-117.6876|438.6|12.0||1|FM15-METAR|223|ICAO-KCCB|-8.0||1|FM15-METAR|223|ICAO-KCCB|||||||||||||060|N-Normal|1|FM15-METAR|223|ICAO-KCCB|1.5|N-Normal|1|FM15-METAR|223|ICAO-KCCB|||||||||||||24|Derived||FM15-METAR|223|ICAO-KCCB|||||||||||||||||||||||||||||||||||||||||||||||||||||||||||||||||||||||||1007.8||1|FM15-METAR|223|ICAO-KCCB|||||||||||||||||||||||||||||||||||||||||||MET065METAR KCCB 161335Z AUTO 06003KT 10SM OVC060 12/M08 A2976 RMK AO2=||F||223|ICAO-KCCB
USI0000KCCB|CABLE|2017|12|16|13|55|34.1115|-117.6876|438.6|13.0||1|FM15-METAR|223|ICAO-KCCB|-5.0||1|FM15-METAR|223|ICAO-KCCB|||||||||||||070|N-Normal|1|FM15-METAR|223|ICAO-KCCB|2.6|N-Normal|1|FM15-METAR|223|ICAO-KCCB|5.1||1|FM15-METAR|223|ICAO-KCCB|||||||28|Derived||FM15-METAR|223|ICAO-KCCB|||||||||||||||||||||||||||||||||||||||||||||||||||||||||||||||||||||||||1007.1||1|FM15-METAR|223|ICAO-KCCB|||||||||||||||||||||||||||||||||||||||||||MET082METAR KCCB 161355Z AUTO 07005G10KT 10SM FEW027 BKN060 OVC110 13/M05 A2974 RMK AO2=||F||223|ICAO-KCCB
USI0000KCCB|CABLE|2017|12|16|14|15|34.1115|-117.6876|438.6|12.0||1|FM15-METAR|223|ICAO-KCCB|-6.0||1|FM15-METAR|223|ICAO-KCCB|||||||||||||999|C-Calm|9|FM15-METAR|223|ICAO-KCCB|0.0|C-Calm|1|FM15-METAR|223|ICAO-KCCB|||||||||||||28|Derived||FM15-METAR|223|ICAO-KCCB|||||||||||||||||||||||||||||||||||||||||||||||||||||||||||||||||||||||||1007.4||1|FM15-METAR|223|ICAO-KCCB|||||||||||||||||||||||||||||||||||||||||||MET079METAR KCCB 161415Z AUTO 00000KT 10SM BKN050 BKN085 OVC100 12/M06 A2975 RMK AO2=||F||223|ICAO-KCCB
USI0000KCCB|CABLE|2017|12|16|14|35|34.1115|-117.6876|438.6|12.0||1|FM15-METAR|223|ICAO-KCCB|-5.0||1|FM15-METAR|223|ICAO-KCCB|||||||||||||999|C-Calm|9|FM15-METAR|223|ICAO-KCCB|0.0|C-Calm|1|FM15-METAR|223|ICAO-KCCB|||||||||||||30|Derived||FM15-METAR|223|ICAO-KCCB|||||||||||||||||||||||||||||||||||||||||||||||||||||||||||||||||||||||||1007.8||1|FM15-METAR|223|ICAO-KCCB|||||||||||||||||||||||||||||||||||||||||||MET079METAR KCCB 161435Z AUTO 00000KT 10SM SCT050 SCT055 BKN100 12/M05 A2976 RMK AO2=||F||223|ICAO-KCCB
USI0000KCCB|CABLE|2017|12|16|14|55|34.1115|-117.6876|438.6|12.0||1|FM15-METAR|223|ICAO-KCCB|-4.0||1|FM15-METAR|223|ICAO-KCCB|||||||||||||999|C-Calm|9|FM15-METAR|223|ICAO-KCCB|0.0|C-Calm|1|FM15-METAR|223|ICAO-KCCB|||||||||||||33|Derived||FM15-METAR|223|ICAO-KCCB|||||||||||||||||||||||||||||||||||||||||||||||||||||||||||||||||||||||||1007.4||1|FM15-METAR|223|ICAO-KCCB|||||||||||||||||||||||||||||||||||||||||||MET065METAR KCCB 161455Z AUTO 00000KT 10SM FEW055 12/M04 A2975 RMK AO2=||F||223|ICAO-KCCB
USI0000KCCB|CABLE|2017|12|16|15|15|34.1115|-117.6876|438.6|11.0||1|FM15-METAR|223|ICAO-KCCB|-5.0||1|FM15-METAR|223|ICAO-KCCB|||||||||||||280|N-Normal|1|FM15-METAR|223|ICAO-KCCB|3.6|N-Normal|1|FM15-METAR|223|ICAO-KCCB|||||||||||||32|Derived||FM15-METAR|223|ICAO-KCCB|||||||||||||||||||||||||||||||||||||||||||||||||||||||||||||||||||||||||1007.8||1|FM15-METAR|223|ICAO-KCCB|||||||||||||||||||||||||||||||||||||||||||MET062METAR KCCB 161515Z AUTO 28007KT 10SM CLR 11/M05 A2976 RMK AO2=||F||223|ICAO-KCCB
USI0000KCCB|CABLE|2017|12|16|15|35|34.1115|-117.6876|438.6|11.0||1|FM15-METAR|223|ICAO-KCCB|-4.0||1|FM15-METAR|223|ICAO-KCCB|||||||||||||999|C-Calm|9|FM15-METAR|223|ICAO-KCCB|0.0|C-Calm|1|FM15-METAR|223|ICAO-KCCB|||||||||||||35|Derived||FM15-METAR|223|ICAO-KCCB|||||||||||||||||||||||||||||||||||||||||||||||||||||||||||||||||||||||||1007.8||1|FM15-METAR|223|ICAO-KCCB|||||||||||||||||||||||||||||||||||||||||||MET062METAR KCCB 161535Z AUTO 00000KT 10SM CLR 11/M04 A2976 RMK AO2=||F||223|ICAO-KCCB
USI0000KCCB|CABLE|2017|12|16|15|55|34.1115|-117.6876|438.6|10.0||1|FM15-METAR|223|ICAO-KCCB|-4.0||1|FM15-METAR|223|ICAO-KCCB|||||||||||||040|N-Normal|1|FM15-METAR|223|ICAO-KCCB|1.5|N-Normal|1|FM15-METAR|223|ICAO-KCCB|||||||||||||37|Derived||FM15-METAR|223|ICAO-KCCB|||||||||||||||||||||||||||||||||||||||||||||||||||||||||||||||||||||||||1007.4||1|FM15-METAR|223|ICAO-KCCB|||||||||||||||||||||||||||||||||||||||||||MET061METAR KCCB 161555Z AUTO 04003KT 9SM CLR 10/M04 A2975 RMK AO2=||F||223|ICAO-KCCB
USI0000KCCB|CABLE|2017|12|16|16|15|34.1115|-117.6876|438.6|11.0||1|FM15-METAR|223|ICAO-KCCB|-2.0||1|FM15-METAR|223|ICAO-KCCB|||||||||||||350|N-Normal|1|FM15-METAR|223|ICAO-KCCB|3.1|N-Normal|1|FM15-METAR|223|ICAO-KCCB|||||||||||||41|Derived||FM15-METAR|223|ICAO-KCCB|||||||||||||||||||||||||||||||||||||||||||||||||||||||||||||||||||||||||1007.1||1|FM15-METAR|223|ICAO-KCCB|||||||||||||||||||||||||||||||||||||||||||MET062METAR KCCB 161615Z AUTO 35006KT 10SM CLR 11/M02 A2974 RMK AO2=||F||223|ICAO-KCCB
USI0000KCCB|CABLE|2017|12|16|16|35|34.1115|-117.6876|438.6|13.0||1|FM15-METAR|223|ICAO-KCCB|0.0||1|FM15-METAR|223|ICAO-KCCB|||||||||||||999|C-Calm|9|FM15-METAR|223|ICAO-KCCB|0.0|C-Calm|1|FM15-METAR|223|ICAO-KCCB|||||||||||||41|Derived||FM15-METAR|223|ICAO-KCCB|||||||||||||||||||||||||||||||||||||||||||||||||||||||||||||||||||||||||1007.1||1|FM15-METAR|223|ICAO-KCCB|||||||||||||||||||||||||||||||||||||||||||MET061METAR KCCB 161635Z AUTO 00000KT 10SM CLR 13/00 A2974 RMK AO2=||F||223|ICAO-KCCB
USI0000KCCB|CABLE|2017|12|16|16|55|34.1115|-117.6876|438.6|14.0||1|FM15-METAR|223|ICAO-KCCB|-1.0||1|FM15-METAR|223|ICAO-KCCB|||||||||||||999|C-Calm|9|FM15-METAR|223|ICAO-KCCB|0.0|C-Calm|1|FM15-METAR|223|ICAO-KCCB|||||||||||||36|Derived||FM15-METAR|223|ICAO-KCCB|||||||||||||||||||||||||||||||||||||||||||||||||||||||||||||||||||||||||1007.1||1|FM15-METAR|223|ICAO-KCCB|||||||||||||||||||||||||||||||||||||||||||MET062METAR KCCB 161655Z AUTO 00000KT 10SM CLR 14/M01 A2974 RMK AO2=||F||223|ICAO-KCCB
USI0000KCCB|CABLE|2017|12|16|17|15|34.1115|-117.6876|438.6|15.0||1|FM15-METAR|223|ICAO-KCCB|-6.0||1|FM15-METAR|223|ICAO-KCCB|||||||||||||100|N-Normal|1|FM15-METAR|223|ICAO-KCCB|3.6|N-Normal|1|FM15-METAR|223|ICAO-KCCB|||||||||||||23|Derived||FM15-METAR|223|ICAO-KCCB|||||||||||||||||||||||||||||||||||||||||||||||||||||||||||||||||||||||||1007.1||1|FM15-METAR|223|ICAO-KCCB|||||||||||||||||||||||||||||||||||||||||||MET062METAR KCCB 161715Z AUTO 10007KT 10SM CLR 15/M06 A2974 RMK AO2=||F||223|ICAO-KCCB
USI0000KCCB|CABLE|2017|12|16|17|35|34.1115|-117.6876|438.6|15.0||1|FM15-METAR|223|ICAO-KCCB|-8.0||1|FM15-METAR|223|ICAO-KCCB|||||||||||||080|N-Normal|1|FM15-METAR|223|ICAO-KCCB|4.6|N-Normal|1|FM15-METAR|223|ICAO-KCCB|||||||||||||20|Derived||FM15-METAR|223|ICAO-KCCB|||||||||||||||||||||||||||||||||||||||||||||||||||||||||||||||||||||||||1006.8||1|FM15-METAR|223|ICAO-KCCB|||||||||||||||||||||||||||||||||||||||||||MET062METAR KCCB 161735Z AUTO 08009KT 10SM CLR 15/M08 A2973 RMK AO2=||F||223|ICAO-KCCB
USI0000KCCB|CABLE|2017|12|16|17|55|34.1115|-117.6876|438.6|16.0||1|FM15-METAR|223|ICAO-KCCB|-8.0||1|FM15-METAR|223|ICAO-KCCB|||||||||||||100|N-Normal|1|FM15-METAR|223|ICAO-KCCB|4.6|N-Normal|1|FM15-METAR|223|ICAO-KCCB|||||||||||||19|Derived||FM15-METAR|223|ICAO-KCCB|||||||||||||||||||||||||||||||||||||||||||||||||||||||||||||||||||||||||1006.8||1|FM15-METAR|223|ICAO-KCCB|||||||||||||||||||||||||||||||||||||||||||MET062METAR KCCB 161755Z AUTO 10009KT 10SM CLR 16/M08 A2973 RMK AO2=||F||223|ICAO-KCCB
USI0000KCCB|CABLE|2017|12|16|18|15|34.1115|-117.6876|438.6|16.0||1|FM15-METAR|223|ICAO-KCCB|-9.0||1|FM15-METAR|223|ICAO-KCCB|||||||||||||120|N-Normal|1|FM15-METAR|223|ICAO-KCCB|5.1|N-Normal|1|FM15-METAR|223|ICAO-KCCB|||||||||||||17|Derived||FM15-METAR|223|ICAO-KCCB|||||||||||||||||||||||||||||||||||||||||||||||||||||||||||||||||||||||||1006.4||1|FM15-METAR|223|ICAO-KCCB|||||||||||||||||||||||||||||||||||||||||||MET065METAR KCCB 161815Z AUTO 12010KT 10SM SCT120 16/M09 A2972 RMK AO2=||F||223|ICAO-KCCB
USI0000KCCB|CABLE|2017|12|16|18|35|34.1115|-117.6876|438.6|17.0||1|FM15-METAR|223|ICAO-KCCB|-10.0||1|FM15-METAR|223|ICAO-KCCB|||||||||||||110|N-Normal|1|FM15-METAR|223|ICAO-KCCB|6.7|N-Normal|1|FM15-METAR|223|ICAO-KCCB|9.8||1|FM15-METAR|223|ICAO-KCCB|||||||15|Derived||FM15-METAR|223|ICAO-KCCB|||||||||||||||||||||||||||||||||||||||||||||||||||||||||||||||||||||||||1006.1||1|FM15-METAR|223|ICAO-KCCB|||||||||||||||||||||||||||||||||||||||||||MET068METAR KCCB 161835Z AUTO 11013G19KT 10SM FEW120 17/M10 A2971 RMK AO2=||F||223|ICAO-KCCB
USI0000KCCB|CABLE|2017|12|16|18|55|34.1115|-117.6876|438.6|17.0||1|FM15-METAR|223|ICAO-KCCB|-10.0||1|FM15-METAR|223|ICAO-KCCB|||||||||||||100|N-Normal|1|FM15-METAR|223|ICAO-KCCB|6.2|N-Normal|1|FM15-METAR|223|ICAO-KCCB|8.8||1|FM15-METAR|223|ICAO-KCCB|||||||15|Derived||FM15-METAR|223|ICAO-KCCB|||||||||||||||||||||||||||||||||||||||||||||||||||||||||||||||||||||||||1006.1||1|FM15-METAR|223|ICAO-KCCB|||||||||||||||||||||||||||||||||||||||||||MET068METAR KCCB 161855Z AUTO 10012G17KT 10SM BKN110 17/M10 A2971 RMK AO2=||F||223|ICAO-KCCB
USI0000KCCB|CABLE|2017|12|16|19|15|34.1115|-117.6876|438.6|16.0||1|FM15-METAR|223|ICAO-KCCB|-8.0||1|FM15-METAR|223|ICAO-KCCB|||||||||||||100|N-Normal|1|FM15-METAR|223|ICAO-KCCB|6.7|N-Normal|1|FM15-METAR|223|ICAO-KCCB|||||||||||||19|Derived||FM15-METAR|223|ICAO-KCCB|||||||||||||||||||||||||||||||||||||||||||||||||||||||||||||||||||||||||1005.8||1|FM15-METAR|223|ICAO-KCCB|||||||||||||||||||||||||||||||||||||||||||MET065METAR KCCB 161915Z AUTO 10013KT 10SM BKN110 16/M08 A2970 RMK AO2=||F||223|ICAO-KCCB
USI0000KCCB|CABLE|2017|12|16|19|35|34.1115|-117.6876|438.6|16.0||1|FM15-METAR|223|ICAO-KCCB|-8.0||1|FM15-METAR|223|ICAO-KCCB|||||||||||||110|N-Normal|1|FM15-METAR|223|ICAO-KCCB|3.6|N-Normal|1|FM15-METAR|223|ICAO-KCCB|7.7||1|FM15-METAR|223|ICAO-KCCB|||||||19|Derived||FM15-METAR|223|ICAO-KCCB|||||||||||||||||||||||||||||||||||||||||||||||||||||||||||||||||||||||||1005.8||1|FM15-METAR|223|ICAO-KCCB|||||||||||||||||||||||||||||||||||||||||||MET068METAR KCCB 161935Z AUTO 11007G15KT 10SM BKN110 16/M08 A2970 RMK AO2=||F||223|ICAO-KCCB
USI0000KCCB|CABLE|2017|12|16|19|55|34.1115|-117.6876|438.6|16.0||1|FM15-METAR|223|ICAO-KCCB|-6.0||1|FM15-METAR|223|ICAO-KCCB|||||||||||||100|N-Normal|1|FM15-METAR|223|ICAO-KCCB|2.6|N-Normal|1|FM15-METAR|223|ICAO-KCCB|||||||||||||22|Derived||FM15-METAR|223|ICAO-KCCB|||||||||||||||||||||||||||||||||||||||||||||||||||||||||||||||||||||||||1005.8||1|FM15-METAR|223|ICAO-KCCB|||||||||||||||||||||||||||||||||||||||||||MET065METAR KCCB 161955Z AUTO 10005KT 10SM BKN110 16/M06 A2970 RMK AO2=||F||223|ICAO-KCCB
USI0000KCCB|CABLE|2017|12|16|20|15|34.1115|-117.6876|438.6|16.0||1|FM15-METAR|223|ICAO-KCCB|-4.0||1|FM15-METAR|223|ICAO-KCCB|||||||||||||080|N-Normal|1|FM15-METAR|223|ICAO-KCCB|3.1|N-Normal|1|FM15-METAR|223|ICAO-KCCB|||||||||||||25|Derived||FM15-METAR|223|ICAO-KCCB|||||||||||||||||||||||||||||||||||||||||||||||||||||||||||||||||||||||||1005.8||1|FM15-METAR|223|ICAO-KCCB|||||||||||||||||||||||||||||||||||||||||||MET065METAR KCCB 162015Z AUTO 08006KT 10SM OVC110 16/M04 A2970 RMK AO2=||F||223|ICAO-KCCB
USI0000KCCB|CABLE|2017|12|16|20|35|34.1115|-117.6876|438.6|16.0||1|FM15-METAR|223|ICAO-KCCB|-3.0||1|FM15-METAR|223|ICAO-KCCB|||||||||||||110|N-Normal|1|FM15-METAR|223|ICAO-KCCB|2.6|N-Normal|1|FM15-METAR|223|ICAO-KCCB|||||||||||||27|Derived||FM15-METAR|223|ICAO-KCCB|||||||||||||||||||||||||||||||||||||||||||||||||||||||||||||||||||||||||1005.4||1|FM15-METAR|223|ICAO-KCCB|||||||||||||||||||||||||||||||||||||||||||MET065METAR KCCB 162035Z AUTO 11005KT 10SM SCT110 16/M03 A2969 RMK AO2=||F||223|ICAO-KCCB
USI0000KCCB|CABLE|2017|12|16|20|55|34.1115|-117.6876|438.6|17.0||1|FM15-METAR|223|ICAO-KCCB|-2.0||1|FM15-METAR|223|ICAO-KCCB|||||||||||||999|V-Variable|9|FM15-METAR|223|ICAO-KCCB|2.1|V-Variable|1|FM15-METAR|223|ICAO-KCCB|||||||||||||27|Derived||FM15-METAR|223|ICAO-KCCB|||||||||||||||||||||||||||||||||||||||||||||||||||||||||||||||||||||||||1005.1||1|FM15-METAR|223|ICAO-KCCB|||||||||||||||||||||||||||||||||||||||||||MET065METAR KCCB 162055Z AUTO VRB04KT 10SM SCT110 17/M02 A2968 RMK AO2=||F||223|ICAO-KCCB
USI0000KCCB|CABLE|2017|12|16|21|15|34.1115|-117.6876|438.6|17.0||1|FM15-METAR|223|ICAO-KCCB|-3.0||1|FM15-METAR|223|ICAO-KCCB|||||||||||||999|V-Variable|9|FM15-METAR|223|ICAO-KCCB|2.1|V-Variable|1|FM15-METAR|223|ICAO-KCCB|||||||||||||25|Derived||FM15-METAR|223|ICAO-KCCB|||||||||||||||||||||||||||||||||||||||||||||||||||||||||||||||||||||||||1004.7||1|FM15-METAR|223|ICAO-KCCB|||||||||||||||||||||||||||||||||||||||||||MET065METAR KCCB 162115Z AUTO VRB04KT 10SM SCT110 17/M03 A2967 RMK AO2=||F||223|ICAO-KCCB
USI0000KCCB|CABLE|2017|12|16|21|35|34.1115|-117.6876|438.6|17.0||1|FM15-METAR|223|ICAO-KCCB|-2.0||1|FM15-METAR|223|ICAO-KCCB|||||||||||||999|V-Variable|9|FM15-METAR|223|ICAO-KCCB|2.1|V-Variable|1|FM15-METAR|223|ICAO-KCCB|||||||||||||27|Derived||FM15-METAR|223|ICAO-KCCB|||||||||||||||||||||||||||||||||||||||||||||||||||||||||||||||||||||||||1004.7||1|FM15-METAR|223|ICAO-KCCB|||||||||||||||||||||||||||||||||||||||||||MET065METAR KCCB 162135Z AUTO VRB04KT 10SM FEW110 17/M02 A2967 RMK AO2=||F||223|ICAO-KCCB
USI0000KCCB|CABLE|2017|12|16|21|55|34.1115|-117.6876|438.6|18.0||1|FM15-METAR|223|ICAO-KCCB|0.0||1|FM15-METAR|223|ICAO-KCCB|||||||||||||999|C-Calm|9|FM15-METAR|223|ICAO-KCCB|0.0|C-Calm|1|FM15-METAR|223|ICAO-KCCB|||||||||||||30|Derived||FM15-METAR|223|ICAO-KCCB|||||||||||||||||||||||||||||||||||||||||||||||||||||||||||||||||||||||||1005.1||1|FM15-METAR|223|ICAO-KCCB|||||||||||||||||||||||||||||||||||||||||||MET062METAR KCCB 162155Z AUTO 00000KT 10SM CLR 18/M00 A2968 RMK AO2=||F||223|ICAO-KCCB
USI0000KCCB|CABLE|2017|12|16|22|15|34.1115|-117.6876|438.6|18.0||1|FM15-METAR|223|ICAO-KCCB|0.0||1|FM15-METAR|223|ICAO-KCCB|||||||||||||999|C-Calm|9|FM15-METAR|223|ICAO-KCCB|0.0|C-Calm|1|FM15-METAR|223|ICAO-KCCB|||||||||||||30|Derived||FM15-METAR|223|ICAO-KCCB|||||||||||||||||||||||||||||||||||||||||||||||||||||||||||||||||||||||||1005.1||1|FM15-METAR|223|ICAO-KCCB|||||||||||||||||||||||||||||||||||||||||||MET061METAR KCCB 162215Z AUTO 00000KT 10SM CLR 18/00 A2968 RMK AO2=||F||223|ICAO-KCCB
USI0000KCCB|CABLE|2017|12|16|22|35|34.1115|-117.6876|438.6|17.0||1|FM15-METAR|223|ICAO-KCCB|1.0||1|FM15-METAR|223|ICAO-KCCB|||||||||||||230|N-Normal|1|FM15-METAR|223|ICAO-KCCB|2.6|N-Normal|1|FM15-METAR|223|ICAO-KCCB|||||||||||||34|Derived||FM15-METAR|223|ICAO-KCCB|||||||||||||||||||||||||||||||||||||||||||||||||||||||||||||||||||||||||1005.1||1|FM15-METAR|223|ICAO-KCCB|||||||||||||||||||||||||||||||||||||||||||MET061METAR KCCB 162235Z AUTO 23005KT 10SM CLR 17/01 A2968 RMK AO2=||F||223|ICAO-KCCB
USI0000KCCB|CABLE|2017|12|16|22|55|34.1115|-117.6876|438.6|18.0||1|FM15-METAR|223|ICAO-KCCB|-1.0||1|FM15-METAR|223|ICAO-KCCB|||||||||||||220|N-Normal|1|FM15-METAR|223|ICAO-KCCB|3.1|N-Normal|1|FM15-METAR|223|ICAO-KCCB|||||||||||||28|Derived||FM15-METAR|223|ICAO-KCCB|||||||||||||||||||||||||||||||||||||||||||||||||||||||||||||||||||||||||1005.4||1|FM15-METAR|223|ICAO-KCCB|||||||||||||||||||||||||||||||||||||||||||MET062METAR KCCB 162255Z AUTO 22006KT 10SM CLR 18/M01 A2969 RMK AO2=||F||223|ICAO-KCCB
USI0000KCCB|CABLE|2017|12|16|23|15|34.1115|-117.6876|438.6|18.0||1|FM15-METAR|223|ICAO-KCCB|-1.0||1|FM15-METAR|223|ICAO-KCCB|||||||||||||260|N-Normal|1|FM15-METAR|223|ICAO-KCCB|3.1|N-Normal|1|FM15-METAR|223|ICAO-KCCB|||||||||||||28|Derived||FM15-METAR|223|ICAO-KCCB|||||||||||||||||||||||||||||||||||||||||||||||||||||||||||||||||||||||||1005.4||1|FM15-METAR|223|ICAO-KCCB|||||||||||||||||||||||||||||||||||||||||||MET062METAR KCCB 162315Z AUTO 26006KT 10SM CLR 18/M01 A2969 RMK AO2=||F||223|ICAO-KCCB
USI0000KCCB|CABLE|2017|12|16|23|35|34.1115|-117.6876|438.6|18.0||1|FM15-METAR|223|ICAO-KCCB|-2.0||1|FM15-METAR|223|ICAO-KCCB|||||||||||||270|N-Normal|1|FM15-METAR|223|ICAO-KCCB|4.6|N-Normal|1|FM15-METAR|223|ICAO-KCCB|7.7||1|FM15-METAR|223|ICAO-KCCB|||||||26|Derived||FM15-METAR|223|ICAO-KCCB|||||||||||||||||||||||||||||||||||||||||||||||||||||||||||||||||||||||||1005.8||1|FM15-METAR|223|ICAO-KCCB|||||||||||||||||||||||||||||||||||||||||||MET065METAR KCCB 162335Z AUTO 27009G15KT 10SM CLR 18/M02 A2970 RMK AO2=||F||223|ICAO-KCCB
USI0000KCCB|CABLE|2017|12|16|23|55|34.1115|-117.6876|438.6|17.0||1|FM15-METAR|223|ICAO-KCCB|-3.0||1|FM15-METAR|223|ICAO-KCCB|||||||||||||270|N-Normal|1|FM15-METAR|223|ICAO-KCCB|4.6|N-Normal|1|FM15-METAR|223|ICAO-KCCB|||||||||||||25|Derived||FM15-METAR|223|ICAO-KCCB|||||||||||||||||||||||||||||||||||||||||||||||||||||||||||||||||||||||||1006.1||1|FM15-METAR|223|ICAO-KCCB|||||||||||||||||||||||||||||||||||||||||||MET062METAR KCCB 162355Z AUTO 27009KT 10SM CLR 17/M03 A2971 RMK AO2=||F||223|ICAO-KCCB
USI0000KCCB|CABLE|2017|12|17|00|15|34.1115|-117.6876|438.6|16.0||1|FM15-METAR|223|ICAO-KCCB|4.0||1|FM15-METAR|223|ICAO-KCCB|||||||||||||260|N-Normal|1|FM15-METAR|223|ICAO-KCCB|4.6|N-Normal|1|FM15-METAR|223|ICAO-KCCB|||||||||||||45|Derived||FM15-METAR|223|ICAO-KCCB|||||||||||||||||||||||||||||||||||||||||||||||||||||||||||||||||||||||||1006.1||1|FM15-METAR|223|ICAO-KCCB|||||||||||||||||||||||||||||||||||||||||||MET061METAR KCCB 170015Z AUTO 26009KT 10SM CLR 16/04 A2971 RMK AO2=||F||223|ICAO-KCCB
USI0000KCCB|CABLE|2017|12|17|00|35|34.1115|-117.6876|438.6|15.0||1|FM15-METAR|223|ICAO-KCCB|8.0||1|FM15-METAR|223|ICAO-KCCB|||||||||||||260|N-Normal|1|FM15-METAR|223|ICAO-KCCB|4.6|N-Normal|1|FM15-METAR|223|ICAO-KCCB|||||||||||||63|Derived||FM15-METAR|223|ICAO-KCCB|||||||||||||||||||||||||||||||||||||||||||||||||||||||||||||||||||||||||1006.1||1|FM15-METAR|223|ICAO-KCCB|||||||||||||||||||||||||||||||||||||||||||MET061METAR KCCB 170035Z AUTO 26009KT 10SM CLR 15/08 A2971 RMK AO2=||F||223|ICAO-KCCB
USI0000KCCB|CABLE|2017|12|17|00|55|34.1115|-117.6876|438.6|14.0||1|FM15-METAR|223|ICAO-KCCB|9.0||1|FM15-METAR|223|ICAO-KCCB|||||||||||||240|N-Normal|1|FM15-METAR|223|ICAO-KCCB|3.1|N-Normal|1|FM15-METAR|223|ICAO-KCCB|||||||||||||72|Derived||FM15-METAR|223|ICAO-KCCB|||||||||||||||||||||||||||||||||||||||||||||||||||||||||||||||||||||||||1006.1||1|FM15-METAR|223|ICAO-KCCB|||||||||||||||||||||||||||||||||||||||||||MET061METAR KCCB 170055Z AUTO 24006KT 10SM CLR 14/09 A2971 RMK AO2=||F||223|ICAO-KCCB
USI0000KCCB|CABLE|2017|12|17|01|15|34.1115|-117.6876|438.6|14.0||1|FM15-METAR|223|ICAO-KCCB|9.0||1|FM15-METAR|223|ICAO-KCCB|||||||||||||250|N-Normal|1|FM15-METAR|223|ICAO-KCCB|3.6|N-Normal|1|FM15-METAR|223|ICAO-KCCB|||||||||||||72|Derived||FM15-METAR|223|ICAO-KCCB|||||||||||||||||||||||||||||||||||||||||||||||||||||||||||||||||||||||||1006.1||1|FM15-METAR|223|ICAO-KCCB|||||||||||||||||||||||||||||||||||||||||||MET061METAR KCCB 170115Z AUTO 25007KT 10SM CLR 14/09 A2971 RMK AO2=||F||223|ICAO-KCCB
USI0000KCCB|CABLE|2017|12|17|01|35|34.1115|-117.6876|438.6|14.0||1|FM15-METAR|223|ICAO-KCCB|9.0||1|FM15-METAR|223|ICAO-KCCB|||||||||||||999|C-Calm|9|FM15-METAR|223|ICAO-KCCB|0.0|C-Calm|1|FM15-METAR|223|ICAO-KCCB|||||||||||||72|Derived||FM15-METAR|223|ICAO-KCCB|||||||||||||||||||||||||||||||||||||||||||||||||||||||||||||||||||||||||1006.4||1|FM15-METAR|223|ICAO-KCCB|||||||||||||||||||||||||||||||||||||||||||MET061METAR KCCB 170135Z AUTO 00000KT 10SM CLR 14/09 A2972 RMK AO2=||F||223|ICAO-KCCB
USI0000KCCB|CABLE|2017|12|17|01|55|34.1115|-117.6876|438.6|13.0||1|FM15-METAR|223|ICAO-KCCB|9.0||1|FM15-METAR|223|ICAO-KCCB|||||||||||||260|N-Normal|1|FM15-METAR|223|ICAO-KCCB|3.1|N-Normal|1|FM15-METAR|223|ICAO-KCCB|||||||||||||77|Derived||FM15-METAR|223|ICAO-KCCB|||||||||||||||||||||||||||||||||||||||||||||||||||||||||||||||||||||||||1006.4||1|FM15-METAR|223|ICAO-KCCB|||||||||||||||||||||||||||||||||||||||||||MET061METAR KCCB 170155Z AUTO 26006KT 10SM CLR 13/09 A2972 RMK AO2=||F||223|ICAO-KCCB
USI0000KCCB|CABLE|2017|12|17|02|15|34.1115|-117.6876|438.6|13.0||1|FM15-METAR|223|ICAO-KCCB|9.0||1|FM15-METAR|223|ICAO-KCCB|||||||||||||270|N-Normal|1|FM15-METAR|223|ICAO-KCCB|3.6|N-Normal|1|FM15-METAR|223|ICAO-KCCB|||||||||||||77|Derived||FM15-METAR|223|ICAO-KCCB|||||||||||||||||||||||||||||||||||||||||||||||||||||||||||||||||||||||||1007.1||1|FM15-METAR|223|ICAO-KCCB|||||||||||||||||||||||||||||||||||||||||||MET061METAR KCCB 170215Z AUTO 27007KT 10SM CLR 13/09 A2974 RMK AO2=||F||223|ICAO-KCCB
USI0000KCCB|CABLE|2017|12|17|02|35|34.1115|-117.6876|438.6|13.0||1|FM15-METAR|223|ICAO-KCCB|9.0||1|FM15-METAR|223|ICAO-KCCB|||||||||||||270|N-Normal|1|FM15-METAR|223|ICAO-KCCB|2.1|N-Normal|1|FM15-METAR|223|ICAO-KCCB|||||||||||||77|Derived||FM15-METAR|223|ICAO-KCCB|||||||||||||||||||||||||||||||||||||||||||||||||||||||||||||||||||||||||1007.4||1|FM15-METAR|223|ICAO-KCCB|||||||||||||||||||||||||||||||||||||||||||MET071METAR KCCB 170235Z AUTO 27004KT 10SM FEW021 FEW042 13/09 A2975 RMK AO2=||F||223|ICAO-KCCB
USI0000KCCB|CABLE|2017|12|17|02|55|34.1115|-117.6876|438.6|13.0||1|FM15-METAR|223|ICAO-KCCB|9.0||1|FM15-METAR|223|ICAO-KCCB|||||||||||||270|N-Normal|1|FM15-METAR|223|ICAO-KCCB|2.1|N-Normal|1|FM15-METAR|223|ICAO-KCCB|||||||||||||77|Derived||FM15-METAR|223|ICAO-KCCB|||||||||||||||||||||||||||||||||||||||||||||||||||||||||||||||||||||||||1007.4||1|FM15-METAR|223|ICAO-KCCB|||||||||||||||||||||||||||||||||||||||||||MET061METAR KCCB 170255Z AUTO 27004KT 10SM CLR 13/09 A2975 RMK AO2=||F||223|ICAO-KCCB
USI0000KCCB|CABLE|2017|12|17|03|15|34.1115|-117.6876|438.6|13.0||1|FM15-METAR|223|ICAO-KCCB|9.0||1|FM15-METAR|223|ICAO-KCCB|||||||||||||280|N-Normal|1|FM15-METAR|223|ICAO-KCCB|2.6|N-Normal|1|FM15-METAR|223|ICAO-KCCB|||||||||||||77|Derived||FM15-METAR|223|ICAO-KCCB|||||||||||||||||||||||||||||||||||||||||||||||||||||||||||||||||||||||||1007.8||1|FM15-METAR|223|ICAO-KCCB|||||||||||||||||||||||||||||||||||||||||||MET061METAR KCCB 170315Z AUTO 28005KT 10SM CLR 13/09 A2976 RMK AO2=||F||223|ICAO-KCCB
USI0000KCCB|CABLE|2017|12|17|03|35|34.1115|-117.6876|438.6|12.0||1|FM15-METAR|223|ICAO-KCCB|8.0||1|FM15-METAR|223|ICAO-KCCB|||||||||||||280|N-Normal|1|FM15-METAR|223|ICAO-KCCB|2.1|N-Normal|1|FM15-METAR|223|ICAO-KCCB|||||||||||||77|Derived||FM15-METAR|223|ICAO-KCCB|||||||||||||||||||||||||||||||||||||||||||||||||||||||||||||||||||||||||1007.8||1|FM15-METAR|223|ICAO-KCCB|||||||||||||||||||||||||||||||||||||||||||MET061METAR KCCB 170335Z AUTO 28004KT 10SM CLR 12/08 A2976 RMK AO2=||F||223|ICAO-KCCB
USI0000KCCB|CABLE|2017|12|17|03|55|34.1115|-117.6876|438.6|12.0||1|FM15-METAR|223|ICAO-KCCB|8.0||1|FM15-METAR|223|ICAO-KCCB|||||||||||||320|N-Normal|1|FM15-METAR|223|ICAO-KCCB|2.1|N-Normal|1|FM15-METAR|223|ICAO-KCCB|||||||||||||77|Derived||FM15-METAR|223|ICAO-KCCB|||||||||||||||||||||||||||||||||||||||||||||||||||||||||||||||||||||||||1007.8||1|FM15-METAR|223|ICAO-KCCB|||||||||||||||||||||||||||||||||||||||||||MET061METAR KCCB 170355Z AUTO 32004KT 10SM CLR 12/08 A2976 RMK AO2=||F||223|ICAO-KCCB
USI0000KCCB|CABLE|2017|12|17|04|15|34.1115|-117.6876|438.6|12.0||1|FM15-METAR|223|ICAO-KCCB|8.0||1|FM15-METAR|223|ICAO-KCCB|||||||||||||270|N-Normal|1|FM15-METAR|223|ICAO-KCCB|2.1|N-Normal|1|FM15-METAR|223|ICAO-KCCB|||||||||||||77|Derived||FM15-METAR|223|ICAO-KCCB|||||||||||||||||||||||||||||||||||||||||||||||||||||||||||||||||||||||||1008.1||1|FM15-METAR|223|ICAO-KCCB|||||||||||||||||||||||||||||||||||||||||||MET061METAR KCCB 170415Z AUTO 27004KT 10SM CLR 12/08 A2977 RMK AO2=||F||223|ICAO-KCCB
USI0000KCCB|CABLE|2017|12|17|04|35|34.1115|-117.6876|438.6|12.0||1|FM15-METAR|223|ICAO-KCCB|8.0||1|FM15-METAR|223|ICAO-KCCB|||||||||||||300|N-Normal|1|FM15-METAR|223|ICAO-KCCB|3.6|N-Normal|1|FM15-METAR|223|ICAO-KCCB|||||||||||||77|Derived||FM15-METAR|223|ICAO-KCCB|||||||||||||||||||||||||||||||||||||||||||||||||||||||||||||||||||||||||1008.1||1|FM15-METAR|223|ICAO-KCCB|||||||||||||||||||||||||||||||||||||||||||MET061METAR KCCB 170435Z AUTO 30007KT 10SM CLR 12/08 A2977 RMK AO2=||F||223|ICAO-KCCB
USI0000KCCB|CABLE|2017|12|17|04|55|34.1115|-117.6876|438.6|12.0||1|FM15-METAR|223|ICAO-KCCB|8.0||1|FM15-METAR|223|ICAO-KCCB|||||||||||||290|N-Normal|1|FM15-METAR|223|ICAO-KCCB|3.1|N-Normal|1|FM15-METAR|223|ICAO-KCCB|||||||||||||77|Derived||FM15-METAR|223|ICAO-KCCB|||||||||||||||||||||||||||||||||||||||||||||||||||||||||||||||||||||||||1008.5||1|FM15-METAR|223|ICAO-KCCB|||||||||||||||||||||||||||||||||||||||||||MET061METAR KCCB 170455Z AUTO 29006KT 10SM CLR 12/08 A2978 RMK AO2=||F||223|ICAO-KCCB
USI0000KCCB|CABLE|2017|12|17|05|15|34.1115|-117.6876|438.6|12.0||1|FM15-METAR|223|ICAO-KCCB|8.0||1|FM15-METAR|223|ICAO-KCCB|||||||||||||290|N-Normal|1|FM15-METAR|223|ICAO-KCCB|3.1|N-Normal|1|FM15-METAR|223|ICAO-KCCB|||||||||||||77|Derived||FM15-METAR|223|ICAO-KCCB|||||||||||||||||||||||||||||||||||||||||||||||||||||||||||||||||||||||||1008.5||1|FM15-METAR|223|ICAO-KCCB|||||||||||||||||||||||||||||||||||||||||||MET057METAR KCCB 170515Z AUTO 29006KT 10SM 12/08 A2978 RMK AO2=||F||223|ICAO-KCCB
USI0000KCCB|CABLE|2017|12|17|05|35|34.1115|-117.6876|438.6|12.0||1|FM15-METAR|223|ICAO-KCCB|7.0||1|FM15-METAR|223|ICAO-KCCB|||||||||||||330|N-Normal|1|FM15-METAR|223|ICAO-KCCB|1.5|N-Normal|1|FM15-METAR|223|ICAO-KCCB|||||||||||||72|Derived||FM15-METAR|223|ICAO-KCCB|||||||||||||||||||||||||||||||||||||||||||||||||||||||||||||||||||||||||1008.5||1|FM15-METAR|223|ICAO-KCCB|||||||||||||||||||||||||||||||||||||||||||MET057METAR KCCB 170535Z AUTO 33003KT 10SM 12/07 A2978 RMK AO2=||F||223|ICAO-KCCB
USI0000KCCB|CABLE|2017|12|17|05|55|34.1115|-117.6876|438.6|12.0||1|FM15-METAR|223|ICAO-KCCB|7.0||1|FM15-METAR|223|ICAO-KCCB|||||||||||||250|N-Normal|1|FM15-METAR|223|ICAO-KCCB|2.1|N-Normal|1|FM15-METAR|223|ICAO-KCCB|||||||||||||72|Derived||FM15-METAR|223|ICAO-KCCB|||||||||||||||||||||||||||||||||||||||||||||||||||||||||||||||||||||||||1008.8||1|FM15-METAR|223|ICAO-KCCB|||||||||||||||||||||||||||||||||||||||||||MET061METAR KCCB 170555Z AUTO 25004KT 10SM CLR 12/07 A2979 RMK AO2=||F||223|ICAO-KCCB
USI0000KCCB|CABLE|2017|12|17|06|15|34.1115|-117.6876|438.6|12.0||1|FM15-METAR|223|ICAO-KCCB|7.0||1|FM15-METAR|223|ICAO-KCCB|||||||||||||260|N-Normal|1|FM15-METAR|223|ICAO-KCCB|3.1|N-Normal|1|FM15-METAR|223|ICAO-KCCB|||||||||||||72|Derived||FM15-METAR|223|ICAO-KCCB|||||||||||||||||||||||||||||||||||||||||||||||||||||||||||||||||||||||||1008.8||1|FM15-METAR|223|ICAO-KCCB|||||||||||||||||||||||||||||||||||||||||||MET061METAR KCCB 170615Z AUTO 26006KT 10SM CLR 12/07 A2979 RMK AO2=||F||223|ICAO-KCCB
USI0000KCCB|CABLE|2017|12|17|06|35|34.1115|-117.6876|438.6|12.0||1|FM15-METAR|223|ICAO-KCCB|7.0||1|FM15-METAR|223|ICAO-KCCB|||||||||||||999|C-Calm|9|FM15-METAR|223|ICAO-KCCB|0.0|C-Calm|1|FM15-METAR|223|ICAO-KCCB|||||||||||||72|Derived||FM15-METAR|223|ICAO-KCCB|||||||||||||||||||||||||||||||||||||||||||||||||||||||||||||||||||||||||1008.8||1|FM15-METAR|223|ICAO-KCCB|||||||||||||||||||||||||||||||||||||||||||MET061METAR KCCB 170635Z AUTO 00000KT 10SM CLR 12/07 A2979 RMK AO2=||F||223|ICAO-KCCB
USI0000KCCB|CABLE|2017|12|17|06|55|34.1115|-117.6876|438.6|12.0||1|FM15-METAR|223|ICAO-KCCB|6.0||1|FM15-METAR|223|ICAO-KCCB|||||||||||||999|C-Calm|9|FM15-METAR|223|ICAO-KCCB|0.0|C-Calm|1|FM15-METAR|223|ICAO-KCCB|||||||||||||67|Derived||FM15-METAR|223|ICAO-KCCB|||||||||||||||||||||||||||||||||||||||||||||||||||||||||||||||||||||||||1009.1||1|FM15-METAR|223|ICAO-KCCB|||||||||||||||||||||||||||||||||||||||||||MET061METAR KCCB 170655Z AUTO 00000KT 10SM CLR 12/06 A2980 RMK AO2=||F||223|ICAO-KCCB
USI0000KCCB|CABLE|2017|12|17|07|15|34.1115|-117.6876|438.6|11.0||1|FM15-METAR|223|ICAO-KCCB|6.0||1|FM15-METAR|223|ICAO-KCCB|||||||||||||320|N-Normal|1|FM15-METAR|223|ICAO-KCCB|1.5|N-Normal|1|FM15-METAR|223|ICAO-KCCB|||||||||||||72|Derived||FM15-METAR|223|ICAO-KCCB|||||||||||||||||||||||||||||||||||||||||||||||||||||||||||||||||||||||||1008.8||1|FM15-METAR|223|ICAO-KCCB|||||||||||||||||||||||||||||||||||||||||||MET064METAR KCCB 170715Z AUTO 32003KT 10SM FEW120 11/06 A2979 RMK AO2=||F||223|ICAO-KCCB
USI0000KCCB|CABLE|2017|12|17|07|35|34.1115|-117.6876|438.6|11.0||1|FM15-METAR|223|ICAO-KCCB|6.0||1|FM15-METAR|223|ICAO-KCCB|||||||||||||999|C-Calm|9|FM15-METAR|223|ICAO-KCCB|0.0|C-Calm|1|FM15-METAR|223|ICAO-KCCB|||||||||||||72|Derived||FM15-METAR|223|ICAO-KCCB|||||||||||||||||||||||||||||||||||||||||||||||||||||||||||||||||||||||||1008.8||1|FM15-METAR|223|ICAO-KCCB|||||||||||||||||||||||||||||||||||||||||||MET061METAR KCCB 170735Z AUTO 00000KT 10SM CLR 11/06 A2979 RMK AO2=||F||223|ICAO-KCCB
USI0000KCCB|CABLE|2017|12|17|07|55|34.1115|-117.6876|438.6|10.0||1|FM15-METAR|223|ICAO-KCCB|6.0||1|FM15-METAR|223|ICAO-KCCB|||||||||||||999|C-Calm|9|FM15-METAR|223|ICAO-KCCB|0.0|C-Calm|1|FM15-METAR|223|ICAO-KCCB|||||||||||||76|Derived||FM15-METAR|223|ICAO-KCCB|||||||||||||||||||||||||||||||||||||||||||||||||||||||||||||||||||||||||1008.8||1|FM15-METAR|223|ICAO-KCCB|||||||||||||||||||||||||||||||||||||||||||MET061METAR KCCB 170755Z AUTO 00000KT 10SM CLR 10/06 A2979 RMK AO2=||F||223|ICAO-KCCB
USI0000KCCB|CABLE|2017|12|17|08|15|34.1115|-117.6876|438.6|10.0||1|FM15-METAR|223|ICAO-KCCB|6.0||1|FM15-METAR|223|ICAO-KCCB|||||||||||||999|C-Calm|9|FM15-METAR|223|ICAO-KCCB|0.0|C-Calm|1|FM15-METAR|223|ICAO-KCCB|||||||||||||76|Derived||FM15-METAR|223|ICAO-KCCB|||||||||||||||||||||||||||||||||||||||||||||||||||||||||||||||||||||||||1009.1||1|FM15-METAR|223|ICAO-KCCB|||||||||||||||||||||||||||||||||||||||||||MET061METAR KCCB 170815Z AUTO 00000KT 10SM CLR 10/06 A2980 RMK AO2=||F||223|ICAO-KCCB
USI0000KCCB|CABLE|2017|12|17|08|35|34.1115|-117.6876|438.6|10.0||1|FM15-METAR|223|ICAO-KCCB|6.0||1|FM15-METAR|223|ICAO-KCCB|||||||||||||020|N-Normal|1|FM15-METAR|223|ICAO-KCCB|2.1|N-Normal|1|FM15-METAR|223|ICAO-KCCB|||||||||||||76|Derived||FM15-METAR|223|ICAO-KCCB|||||||||||||||||||||||||||||||||||||||||||||||||||||||||||||||||||||||||1009.1||1|FM15-METAR|223|ICAO-KCCB|||||||||||||||||||||||||||||||||||||||||||MET061METAR KCCB 170835Z AUTO 02004KT 10SM CLR 10/06 A2980 RMK AO2=||F||223|ICAO-KCCB
USI0000KCCB|CABLE|2017|12|17|08|55|34.1115|-117.6876|438.6|10.0||1|FM15-METAR|223|ICAO-KCCB|6.0||1|FM15-METAR|223|ICAO-KCCB|||||||||||||020|N-Normal|1|FM15-METAR|223|ICAO-KCCB|1.5|N-Normal|1|FM15-METAR|223|ICAO-KCCB|||||||||||||76|Derived||FM15-METAR|223|ICAO-KCCB|||||||||||||||||||||||||||||||||||||||||||||||||||||||||||||||||||||||||1009.5||1|FM15-METAR|223|ICAO-KCCB|||||||||||||||||||||||||||||||||||||||||||MET061METAR KCCB 170855Z AUTO 02003KT 10SM CLR 10/06 A2981 RMK AO2=||F||223|ICAO-KCCB
USI0000KCCB|CABLE|2017|12|17|09|15|34.1115|-117.6876|438.6|10.0||1|FM15-METAR|223|ICAO-KCCB|6.0||1|FM15-METAR|223|ICAO-KCCB|||||||||||||999|C-Calm|9|FM15-METAR|223|ICAO-KCCB|0.0|C-Calm|1|FM15-METAR|223|ICAO-KCCB|||||||||||||76|Derived||FM15-METAR|223|ICAO-KCCB|||||||||||||||||||||||||||||||||||||||||||||||||||||||||||||||||||||||||1009.5||1|FM15-METAR|223|ICAO-KCCB|||||||||||||||||||||||||||||||||||||||||||MET061METAR KCCB 170915Z AUTO 00000KT 10SM CLR 10/06 A2981 RMK AO2=||F||223|ICAO-KCCB
USI0000KCCB|CABLE|2017|12|17|09|35|34.1115|-117.6876|438.6|11.0||1|FM15-METAR|223|ICAO-KCCB|3.0||1|FM15-METAR|223|ICAO-KCCB|||||||||||||999|C-Calm|9|FM15-METAR|223|ICAO-KCCB|0.0|C-Calm|1|FM15-METAR|223|ICAO-KCCB|||||||||||||58|Derived||FM15-METAR|223|ICAO-KCCB|||||||||||||||||||||||||||||||||||||||||||||||||||||||||||||||||||||||||1009.1||1|FM15-METAR|223|ICAO-KCCB|||||||||||||||||||||||||||||||||||||||||||MET061METAR KCCB 170935Z AUTO 00000KT 10SM CLR 11/03 A2980 RMK AO2=||F||223|ICAO-KCCB
USI0000KCCB|CABLE|2017|12|17|09|55|34.1115|-117.6876|438.6|12.0||1|FM15-METAR|223|ICAO-KCCB|3.0||1|FM15-METAR|223|ICAO-KCCB|||||||||||||999|C-Calm|9|FM15-METAR|223|ICAO-KCCB|0.0|C-Calm|1|FM15-METAR|223|ICAO-KCCB|||||||||||||54|Derived||FM15-METAR|223|ICAO-KCCB|||||||||||||||||||||||||||||||||||||||||||||||||||||||||||||||||||||||||1009.5||1|FM15-METAR|223|ICAO-KCCB|||||||||||||||||||||||||||||||||||||||||||MET061METAR KCCB 170955Z AUTO 00000KT 10SM CLR 12/03 A2981 RMK AO2=||F||223|ICAO-KCCB
USI0000KCCB|CABLE|2017|12|17|10|15|34.1115|-117.6876|438.6|12.0||1|FM15-METAR|223|ICAO-KCCB|3.0||1|FM15-METAR|223|ICAO-KCCB|||||||||||||300|N-Normal|1|FM15-METAR|223|ICAO-KCCB|1.5|N-Normal|1|FM15-METAR|223|ICAO-KCCB|||||||||||||54|Derived||FM15-METAR|223|ICAO-KCCB|||||||||||||||||||||||||||||||||||||||||||||||||||||||||||||||||||||||||1009.5||1|FM15-METAR|223|ICAO-KCCB|||||||||||||||||||||||||||||||||||||||||||MET061METAR KCCB 171015Z AUTO 30003KT 10SM CLR 12/03 A2981 RMK AO2=||F||223|ICAO-KCCB
USI0000KCCB|CABLE|2017|12|17|10|35|34.1115|-117.6876|438.6|11.0||1|FM15-METAR|223|ICAO-KCCB|3.0||1|FM15-METAR|223|ICAO-KCCB|||||||||||||999|C-Calm|9|FM15-METAR|223|ICAO-KCCB|0.0|C-Calm|1|FM15-METAR|223|ICAO-KCCB|||||||||||||58|Derived||FM15-METAR|223|ICAO-KCCB|||||||||||||||||||||||||||||||||||||||||||||||||||||||||||||||||||||||||1009.5||1|FM15-METAR|223|ICAO-KCCB|||||||||||||||||||||||||||||||||||||||||||MET061METAR KCCB 171035Z AUTO 00000KT 10SM CLR 11/03 A2981 RMK AO2=||F||223|ICAO-KCCB
USI0000KCCB|CABLE|2017|12|17|10|55|34.1115|-117.6876|438.6|11.0||1|FM15-METAR|223|ICAO-KCCB|2.0||1|FM15-METAR|223|ICAO-KCCB|||||||||||||290|N-Normal|1|FM15-METAR|223|ICAO-KCCB|2.6|N-Normal|1|FM15-METAR|223|ICAO-KCCB|||||||||||||54|Derived||FM15-METAR|223|ICAO-KCCB|||||||||||||||||||||||||||||||||||||||||||||||||||||||||||||||||||||||||1009.5||1|FM15-METAR|223|ICAO-KCCB|||||||||||||||||||||||||||||||||||||||||||MET061METAR KCCB 171055Z AUTO 29005KT 10SM CLR 11/02 A2981 RMK AO2=||F||223|ICAO-KCCB
USI0000KCCB|CABLE|2017|12|17|11|15|34.1115|-117.6876|438.6|11.0||1|FM15-METAR|223|ICAO-KCCB|1.0||1|FM15-METAR|223|ICAO-KCCB|||||||||||||350|N-Normal|1|FM15-METAR|223|ICAO-KCCB|2.6|N-Normal|1|FM15-METAR|223|ICAO-KCCB|5.1||1|FM15-METAR|223|ICAO-KCCB|||||||50|Derived||FM15-METAR|223|ICAO-KCCB|||||||||||||||||||||||||||||||||||||||||||||||||||||||||||||||||||||||||1009.5||1|FM15-METAR|223|ICAO-KCCB|||||||||||||||||||||||||||||||||||||||||||MET064METAR KCCB 171115Z AUTO 35005G10KT 10SM CLR 11/01 A2981 RMK AO2=||F||223|ICAO-KCCB
USI0000KCCB|CABLE|2017|12|17|11|35|34.1115|-117.6876|438.6|11.0||1|FM15-METAR|223|ICAO-KCCB|1.0||1|FM15-METAR|223|ICAO-KCCB|||||||||||||999|V-Variable|9|FM15-METAR|223|ICAO-KCCB|2.1|V-Variable|1|FM15-METAR|223|ICAO-KCCB|||||||||||||50|Derived||FM15-METAR|223|ICAO-KCCB|||||||||||||||||||||||||||||||||||||||||||||||||||||||||||||||||||||||||1009.8||1|FM15-METAR|223|ICAO-KCCB|||||||||||||||||||||||||||||||||||||||||||MET061METAR KCCB 171135Z AUTO VRB04KT 10SM CLR 11/01 A2982 RMK AO2=||F||223|ICAO-KCCB
USI0000KCCB|CABLE|2017|12|17|11|55|34.1115|-117.6876|438.6|11.0||1|FM15-METAR|223|ICAO-KCCB|0.0||1|FM15-METAR|223|ICAO-KCCB|||||||||||||999|C-Calm|9|FM15-METAR|223|ICAO-KCCB|0.0|C-Calm|1|FM15-METAR|223|ICAO-KCCB|||||||||||||47|Derived||FM15-METAR|223|ICAO-KCCB|||||||||||||||||||||||||||||||||||||||||||||||||||||||||||||||||||||||||1010.2||1|FM15-METAR|223|ICAO-KCCB|||||||||||||||||||||||||||||||||||||||||||MET061METAR KCCB 171155Z AUTO 00000KT 10SM CLR 11/00 A2983 RMK AO2=||F||223|ICAO-KCCB
USI0000KCCB|CABLE|2017|12|17|12|15|34.1115|-117.6876|438.6|11.0||1|FM15-METAR|223|ICAO-KCCB|0.0||1|FM15-METAR|223|ICAO-KCCB|||||||||||||999|C-Calm|9|FM15-METAR|223|ICAO-KCCB|0.0|C-Calm|1|FM15-METAR|223|ICAO-KCCB|||||||||||||47|Derived||FM15-METAR|223|ICAO-KCCB|||||||||||||||||||||||||||||||||||||||||||||||||||||||||||||||||||||||||1010.2||1|FM15-METAR|223|ICAO-KCCB|||||||||||||||||||||||||||||||||||||||||||MET061METAR KCCB 171215Z AUTO 00000KT 10SM CLR 11/00 A2983 RMK AO2=||F||223|ICAO-KCCB
USI0000KCCB|CABLE|2017|12|17|12|35|34.1115|-117.6876|438.6|11.0||1|FM15-METAR|223|ICAO-KCCB|0.0||1|FM15-METAR|223|ICAO-KCCB|||||||||||||999|C-Calm|9|FM15-METAR|223|ICAO-KCCB|0.0|C-Calm|1|FM15-METAR|223|ICAO-KCCB|||||||||||||47|Derived||FM15-METAR|223|ICAO-KCCB|||||||||||||||||||||||||||||||||||||||||||||||||||||||||||||||||||||||||1010.5||1|FM15-METAR|223|ICAO-KCCB|||||||||||||||||||||||||||||||||||||||||||MET061METAR KCCB 171235Z AUTO 00000KT 10SM CLR 11/00 A2984 RMK AO2=||F||223|ICAO-KCCB
USI0000KCCB|CABLE|2017|12|17|12|55|34.1115|-117.6876|438.6|11.0||1|FM15-METAR|223|ICAO-KCCB|-2.0||1|FM15-METAR|223|ICAO-KCCB|||||||||||||999|C-Calm|9|FM15-METAR|223|ICAO-KCCB|0.0|C-Calm|1|FM15-METAR|223|ICAO-KCCB|||||||||||||41|Derived||FM15-METAR|223|ICAO-KCCB|||||||||||||||||||||||||||||||||||||||||||||||||||||||||||||||||||||||||1010.5||1|FM15-METAR|223|ICAO-KCCB|||||||||||||||||||||||||||||||||||||||||||MET062METAR KCCB 171255Z AUTO 00000KT 10SM CLR 11/M02 A2984 RMK AO2=||F||223|ICAO-KCCB
USI0000KCCB|CABLE|2017|12|17|13|15|34.1115|-117.6876|438.6|11.0||1|FM15-METAR|223|ICAO-KCCB|-3.0||1|FM15-METAR|223|ICAO-KCCB|||||||||||||999|C-Calm|9|FM15-METAR|223|ICAO-KCCB|0.0|C-Calm|1|FM15-METAR|223|ICAO-KCCB|||||||||||||38|Derived||FM15-METAR|223|ICAO-KCCB|||||||||||||||||||||||||||||||||||||||||||||||||||||||||||||||||||||||||1010.8||1|FM15-METAR|223|ICAO-KCCB|||||||||||||||||||||||||||||||||||||||||||MET062METAR KCCB 171315Z AUTO 00000KT 10SM CLR 11/M03 A2985 RMK AO2=||F||223|ICAO-KCCB
USI0000KCCB|CABLE|2017|12|17|13|35|34.1115|-117.6876|438.6|13.0||1|FM15-METAR|223|ICAO-KCCB|-6.0||1|FM15-METAR|223|ICAO-KCCB|||||||||||||050|N-Normal|1|FM15-METAR|223|ICAO-KCCB|2.6|N-Normal|1|FM15-METAR|223|ICAO-KCCB|||||||||||||26|Derived||FM15-METAR|223|ICAO-KCCB|||||||||||||||||||||||||||||||||||||||||||||||||||||||||||||||||||||||||1011.2||1|FM15-METAR|223|ICAO-KCCB|||||||||||||||||||||||||||||||||||||||||||MET062METAR KCCB 171335Z AUTO 05005KT 10SM CLR 13/M06 A2986 RMK AO2=||F||223|ICAO-KCCB
USI0000KCCB|CABLE|2017|12|17|13|55|34.1115|-117.6876|438.6|14.0||1|FM15-METAR|223|ICAO-KCCB|-7.0||1|FM15-METAR|223|ICAO-KCCB|||||||||||||030|N-Normal|1|FM15-METAR|223|ICAO-KCCB|6.7|N-Normal|1|FM15-METAR|223|ICAO-KCCB|10.8||1|FM15-METAR|223|ICAO-KCCB|||||||23|Derived||FM15-METAR|223|ICAO-KCCB|||||||||||||||||||||||||||||||||||||||||||||||||||||||||||||||||||||||||1011.2||1|FM15-METAR|223|ICAO-KCCB|||||||||||||||||||||||||||||||||||||||||||MET065METAR KCCB 171355Z AUTO 03013G21KT 10SM CLR 14/M07 A2986 RMK AO2=||F||223|ICAO-KCCB
USI0000KCCB|CABLE|2017|12|17|14|15|34.1115|-117.6876|438.6|14.0||1|FM15-METAR|223|ICAO-KCCB|-8.0||1|FM15-METAR|223|ICAO-KCCB|||||||||||||020|N-Normal|1|FM15-METAR|223|ICAO-KCCB|5.7|N-Normal|1|FM15-METAR|223|ICAO-KCCB|||||||||||||21|Derived||FM15-METAR|223|ICAO-KCCB|||||||||||||||||||||||||||||||||||||||||||||||||||||||||||||||||||||||||1011.2||1|FM15-METAR|223|ICAO-KCCB|||||||||||||||||||||||||||||||||||||||||||MET062METAR KCCB 171415Z AUTO 02011KT 10SM CLR 14/M08 A2986 RMK AO2=||F||223|ICAO-KCCB
USI0000KCCB|CABLE|2017|12|17|14|35|34.1115|-117.6876|438.6|14.0||1|FM15-METAR|223|ICAO-KCCB|-8.0||1|FM15-METAR|223|ICAO-KCCB|||||||||||||999|V-Variable|9|FM15-METAR|223|ICAO-KCCB|2.6|V-Variable|1|FM15-METAR|223|ICAO-KCCB|8.2||1|FM15-METAR|223|ICAO-KCCB|||||||21|Derived||FM15-METAR|223|ICAO-KCCB|||||||||||||||||||||||||||||||||||||||||||||||||||||||||||||||||||||||||1011.8||1|FM15-METAR|223|ICAO-KCCB|||||||||||||||||||||||||||||||||||||||||||MET065METAR KCCB 171435Z AUTO VRB05G16KT 10SM CLR 14/M08 A2988 RMK AO2=||F||223|ICAO-KCCB
USI0000KCCB|CABLE|2017|12|17|14|55|34.1115|-117.6876|438.6|14.0||1|FM15-METAR|223|ICAO-KCCB|-8.0||1|FM15-METAR|223|ICAO-KCCB|||||||||||||020|N-Normal|1|FM15-METAR|223|ICAO-KCCB|5.7|N-Normal|1|FM15-METAR|223|ICAO-KCCB|8.8||1|FM15-METAR|223|ICAO-KCCB|||||||21|Derived||FM15-METAR|223|ICAO-KCCB|||||||||||||||||||||||||||||||||||||||||||||||||||||||||||||||||||||||||1011.8||1|FM15-METAR|223|ICAO-KCCB|||||||||||||||||||||||||||||||||||||||||||MET065METAR KCCB 171455Z AUTO 02011G17KT 10SM CLR 14/M08 A2988 RMK AO2=||F||223|ICAO-KCCB
USI0000KCCB|CABLE|2017|12|17|15|15|34.1115|-117.6876|438.6|11.0||1|FM15-METAR|223|ICAO-KCCB|-4.0||1|FM15-METAR|223|ICAO-KCCB|||||||||||||999|V-Variable|9|FM15-METAR|223|ICAO-KCCB|2.1|V-Variable|1|FM15-METAR|223|ICAO-KCCB|5.1||1|FM15-METAR|223|ICAO-KCCB|||||||35|Derived||FM15-METAR|223|ICAO-KCCB|||||||||||||||||||||||||||||||||||||||||||||||||||||||||||||||||||||||||1012.2||1|FM15-METAR|223|ICAO-KCCB|||||||||||||||||||||||||||||||||||||||||||MET065METAR KCCB 171515Z AUTO VRB04G10KT 10SM CLR 11/M04 A2989 RMK AO2=||F||223|ICAO-KCCB
USI0000KCCB|CABLE|2017|12|17|15|35|34.1115|-117.6876|438.6|11.0||1|FM15-METAR|223|ICAO-KCCB|-4.0||1|FM15-METAR|223|ICAO-KCCB|||||||||||||210|N-Normal|1|FM15-METAR|223|ICAO-KCCB|2.6|N-Normal|1|FM15-METAR|223|ICAO-KCCB|||||||||||||35|Derived||FM15-METAR|223|ICAO-KCCB|||||||||||||||||||||||||||||||||||||||||||||||||||||||||||||||||||||||||1012.5||1|FM15-METAR|223|ICAO-KCCB|||||||||||||||||||||||||||||||||||||||||||MET062METAR KCCB 171535Z AUTO 21005KT 10SM CLR 11/M04 A2990 RMK AO2=||F||223|ICAO-KCCB
USI0000KCCB|CABLE|2017|12|17|15|55|34.1115|-117.6876|438.6|11.0||1|FM15-METAR|223|ICAO-KCCB|-4.0||1|FM15-METAR|223|ICAO-KCCB|||||||||||||320|N-Normal|1|FM15-METAR|223|ICAO-KCCB|3.6|N-Normal|1|FM15-METAR|223|ICAO-KCCB|||||||||||||35|Derived||FM15-METAR|223|ICAO-KCCB|||||||||||||||||||||||||||||||||||||||||||||||||||||||||||||||||||||||||1012.5||1|FM15-METAR|223|ICAO-KCCB|||||||||||||||||||||||||||||||||||||||||||MET062METAR KCCB 171555Z AUTO 32007KT 10SM CLR 11/M04 A2990 RMK AO2=||F||223|ICAO-KCCB
USI0000KCCB|CABLE|2017|12|17|16|15|34.1115|-117.6876|438.6|12.0||1|FM15-METAR|223|ICAO-KCCB|-4.0||1|FM15-METAR|223|ICAO-KCCB|||||||||||||300|N-Normal|1|FM15-METAR|223|ICAO-KCCB|2.1|N-Normal|1|FM15-METAR|223|ICAO-KCCB|||||||||||||33|Derived||FM15-METAR|223|ICAO-KCCB|||||||||||||||||||||||||||||||||||||||||||||||||||||||||||||||||||||||||1012.9||1|FM15-METAR|223|ICAO-KCCB|||||||||||||||||||||||||||||||||||||||||||MET062METAR KCCB 171615Z AUTO 30004KT 10SM CLR 12/M04 A2991 RMK AO2=||F||223|ICAO-KCCB
USI0000KCCB|CABLE|2017|12|17|16|35|34.1115|-117.6876|438.6|13.0||1|FM15-METAR|223|ICAO-KCCB|-5.0||1|FM15-METAR|223|ICAO-KCCB|||||||||||||330|N-Normal|1|FM15-METAR|223|ICAO-KCCB|2.1|N-Normal|1|FM15-METAR|223|ICAO-KCCB|||||||||||||28|Derived||FM15-METAR|223|ICAO-KCCB|||||||||||||||||||||||||||||||||||||||||||||||||||||||||||||||||||||||||1012.9||1|FM15-METAR|223|ICAO-KCCB|||||||||||||||||||||||||||||||||||||||||||MET062METAR KCCB 171635Z AUTO 33004KT 10SM CLR 13/M05 A2991 RMK AO2=||F||223|ICAO-KCCB
USI0000KCCB|CABLE|2017|12|17|16|55|34.1115|-117.6876|438.6|13.0||1|FM15-METAR|223|ICAO-KCCB|-5.0||1|FM15-METAR|223|ICAO-KCCB|||||||||||||240|N-Normal|1|FM15-METAR|223|ICAO-KCCB|2.6|N-Normal|1|FM15-METAR|223|ICAO-KCCB|||||||||||||28|Derived||FM15-METAR|223|ICAO-KCCB|||||||||||||||||||||||||||||||||||||||||||||||||||||||||||||||||||||||||1012.9||1|FM15-METAR|223|ICAO-KCCB|||||||||||||||||||||||||||||||||||||||||||MET062METAR KCCB 171655Z AUTO 24005KT 10SM CLR 13/M05 A2991 RMK AO2=||F||223|ICAO-KCCB
USI0000KCCB|CABLE|2017|12|17|17|15|34.1115|-117.6876|438.6|14.0||1|FM15-METAR|223|ICAO-KCCB|-6.0||1|FM15-METAR|223|ICAO-KCCB|||||||||||||260|N-Normal|1|FM15-METAR|223|ICAO-KCCB|2.1|N-Normal|1|FM15-METAR|223|ICAO-KCCB|||||||||||||25|Derived||FM15-METAR|223|ICAO-KCCB|||||||||||||||||||||||||||||||||||||||||||||||||||||||||||||||||||||||||1013.2||1|FM15-METAR|223|ICAO-KCCB|||||||||||||||||||||||||||||||||||||||||||MET062METAR KCCB 171715Z AUTO 26004KT 10SM CLR 14/M06 A2992 RMK AO2=||F||223|ICAO-KCCB
USI0000KCCB|CABLE|2017|12|17|17|35|34.1115|-117.6876|438.6|15.0||1|FM15-METAR|223|ICAO-KCCB|-6.0||1|FM15-METAR|223|ICAO-KCCB|||||||||||||999|C-Calm|9|FM15-METAR|223|ICAO-KCCB|0.0|C-Calm|1|FM15-METAR|223|ICAO-KCCB|||||||||||||23|Derived||FM15-METAR|223|ICAO-KCCB|||||||||||||||||||||||||||||||||||||||||||||||||||||||||||||||||||||||||1013.2||1|FM15-METAR|223|ICAO-KCCB|||||||||||||||||||||||||||||||||||||||||||MET062METAR KCCB 171735Z AUTO 00000KT 10SM CLR 15/M06 A2992 RMK AO2=||F||223|ICAO-KCCB
USI0000KCCB|CABLE|2017|12|17|17|55|34.1115|-117.6876|438.6|15.0||1|FM15-METAR|223|ICAO-KCCB|-6.0||1|FM15-METAR|223|ICAO-KCCB|||||||||||||220|N-Normal|1|FM15-METAR|223|ICAO-KCCB|2.1|N-Normal|1|FM15-METAR|223|ICAO-KCCB|||||||||||||23|Derived||FM15-METAR|223|ICAO-KCCB|||||||||||||||||||||||||||||||||||||||||||||||||||||||||||||||||||||||||1013.2||1|FM15-METAR|223|ICAO-KCCB|||||||||||||||||||||||||||||||||||||||||||MET062METAR KCCB 171755Z AUTO 22004KT 10SM CLR 15/M06 A2992 RMK AO2=||F||223|ICAO-KCCB
USI0000KCCB|CABLE|2017|12|17|18|15|34.1115|-117.6876|438.6|16.0||1|FM15-METAR|223|ICAO-KCCB|-6.0||1|FM15-METAR|223|ICAO-KCCB|||||||||||||999|C-Calm|9|FM15-METAR|223|ICAO-KCCB|0.0|C-Calm|1|FM15-METAR|223|ICAO-KCCB|||||||||||||22|Derived||FM15-METAR|223|ICAO-KCCB|||||||||||||||||||||||||||||||||||||||||||||||||||||||||||||||||||||||||1013.2||1|FM15-METAR|223|ICAO-KCCB|||||||||||||||||||||||||||||||||||||||||||MET062METAR KCCB 171815Z AUTO 00000KT 10SM CLR 16/M06 A2992 RMK AO2=||F||223|ICAO-KCCB
USI0000KCCB|CABLE|2017|12|17|18|35|34.1115|-117.6876|438.6|17.0||1|FM15-METAR|223|ICAO-KCCB|-7.0||1|FM15-METAR|223|ICAO-KCCB|||||||||||||999|C-Calm|9|FM15-METAR|223|ICAO-KCCB|0.0|C-Calm|1|FM15-METAR|223|ICAO-KCCB|||||||||||||19|Derived||FM15-METAR|223|ICAO-KCCB|||||||||||||||||||||||||||||||||||||||||||||||||||||||||||||||||||||||||1013.2||1|FM15-METAR|223|ICAO-KCCB|||||||||||||||||||||||||||||||||||||||||||MET062METAR KCCB 171835Z AUTO 00000KT 10SM CLR 17/M07 A2992 RMK AO2=||F||223|ICAO-KCCB
USI0000KCCB|CABLE|2017|12|17|18|55|34.1115|-117.6876|438.6|18.0||1|FM15-METAR|223|ICAO-KCCB|-7.0||1|FM15-METAR|223|ICAO-KCCB|||||||||||||999|C-Calm|9|FM15-METAR|223|ICAO-KCCB|0.0|C-Calm|1|FM15-METAR|223|ICAO-KCCB|||||||||||||18|Derived||FM15-METAR|223|ICAO-KCCB|||||||||||||||||||||||||||||||||||||||||||||||||||||||||||||||||||||||||1013.2||1|FM15-METAR|223|ICAO-KCCB|||||||||||||||||||||||||||||||||||||||||||MET062METAR KCCB 171855Z AUTO 00000KT 10SM CLR 18/M07 A2992 RMK AO2=||F||223|ICAO-KCCB
USI0000KCCB|CABLE|2017|12|17|19|15|34.1115|-117.6876|438.6|20.0||1|FM15-METAR|223|ICAO-KCCB|-7.0||1|FM15-METAR|223|ICAO-KCCB|||||||||||||090|V-Variable|1|FM15-METAR|223|ICAO-KCCB|4.1|V-Variable|1|FM15-METAR|223|ICAO-KCCB|||||||||||||16|Derived||FM15-METAR|223|ICAO-KCCB|||||||||||||||||||||||||||||||||||||||||||||||||||||||||||||||||||||||||1012.9||1|FM15-METAR|223|ICAO-KCCB|||||||||||||||||||||||||||||||||||||||||||MET070METAR KCCB 171915Z AUTO 09008KT 060V120 10SM CLR 20/M07 A2991 RMK AO2=||F||223|ICAO-KCCB
USI0000KCCB|CABLE|2017|12|17|19|35|34.1115|-117.6876|438.6|20.0||1|FM15-METAR|223|ICAO-KCCB|-7.0||1|FM15-METAR|223|ICAO-KCCB|||||||||||||090|V-Variable|1|FM15-METAR|223|ICAO-KCCB|4.1|V-Variable|1|FM15-METAR|223|ICAO-KCCB|7.7||1|FM15-METAR|223|ICAO-KCCB|||||||16|Derived||FM15-METAR|223|ICAO-KCCB|||||||||||||||||||||||||||||||||||||||||||||||||||||||||||||||||||||||||1012.5||1|FM15-METAR|223|ICAO-KCCB|||||||||||||||||||||||||||||||||||||||||||MET073METAR KCCB 171935Z AUTO 09008G15KT 060V120 10SM CLR 20/M07 A2990 RMK AO2=||F||223|ICAO-KCCB
USI0000KCCB|CABLE|2017|12|17|19|55|34.1115|-117.6876|438.6|20.0||1|FM15-METAR|223|ICAO-KCCB|-7.0||1|FM15-METAR|223|ICAO-KCCB|||||||||||||290|V-Variable|1|FM15-METAR|223|ICAO-KCCB|5.7|V-Variable|1|FM15-METAR|223|ICAO-KCCB|||||||||||||16|Derived||FM15-METAR|223|ICAO-KCCB|||||||||||||||||||||||||||||||||||||||||||||||||||||||||||||||||||||||||1012.5||1|FM15-METAR|223|ICAO-KCCB|||||||||||||||||||||||||||||||||||||||||||MET070METAR KCCB 171955Z AUTO 29011KT 260V320 10SM CLR 20/M07 A2990 RMK AO2=||F||223|ICAO-KCCB
USI0000KCCB|CABLE|2017|12|17|20|15|34.1115|-117.6876|438.6|20.0||1|FM15-METAR|223|ICAO-KCCB|-7.0||1|FM15-METAR|223|ICAO-KCCB|||||||||||||290|N-Normal|1|FM15-METAR|223|ICAO-KCCB|4.1|N-Normal|1|FM15-METAR|223|ICAO-KCCB|||||||||||||16|Derived||FM15-METAR|223|ICAO-KCCB|||||||||||||||||||||||||||||||||||||||||||||||||||||||||||||||||||||||||1012.5||1|FM15-METAR|223|ICAO-KCCB|||||||||||||||||||||||||||||||||||||||||||MET062METAR KCCB 172015Z AUTO 29008KT 10SM CLR 20/M07 A2990 RMK AO2=||F||223|ICAO-KCCB
USI0000KCCB|CABLE|2017|12|17|20|35|34.1115|-117.6876|438.6|20.0||1|FM15-METAR|223|ICAO-KCCB|-7.0||1|FM15-METAR|223|ICAO-KCCB|||||||||||||290|N-Normal|1|FM15-METAR|223|ICAO-KCCB|3.6|N-Normal|1|FM15-METAR|223|ICAO-KCCB|7.7||1|FM15-METAR|223|ICAO-KCCB|||||||16|Derived||FM15-METAR|223|ICAO-KCCB|||||||||||||||||||||||||||||||||||||||||||||||||||||||||||||||||||||||||1012.2||1|FM15-METAR|223|ICAO-KCCB|||||||||||||||||||||||||||||||||||||||||||MET065METAR KCCB 172035Z AUTO 29007G15KT 10SM CLR 20/M07 A2989 RMK AO2=||F||223|ICAO-KCCB
USI0000KCCB|CABLE|2017|12|17|20|55|34.1115|-117.6876|438.6|20.0||1|FM15-METAR|223|ICAO-KCCB|-7.0||1|FM15-METAR|223|ICAO-KCCB|||||||||||||999|C-Calm|9|FM15-METAR|223|ICAO-KCCB|0.0|C-Calm|1|FM15-METAR|223|ICAO-KCCB|||||||||||||16|Derived||FM15-METAR|223|ICAO-KCCB|||||||||||||||||||||||||||||||||||||||||||||||||||||||||||||||||||||||||1012.2||1|FM15-METAR|223|ICAO-KCCB|||||||||||||||||||||||||||||||||||||||||||MET062METAR KCCB 172055Z AUTO 00000KT 10SM CLR 20/M07 A2989 RMK AO2=||F||223|ICAO-KCCB
USI0000KCCB|CABLE|2017|12|17|21|15|34.1115|-117.6876|438.6|20.0||1|FM15-METAR|223|ICAO-KCCB|-7.0||1|FM15-METAR|223|ICAO-KCCB|||||||||||||999|C-Calm|9|FM15-METAR|223|ICAO-KCCB|0.0|C-Calm|1|FM15-METAR|223|ICAO-KCCB|||||||||||||16|Derived||FM15-METAR|223|ICAO-KCCB|||||||||||||||||||||||||||||||||||||||||||||||||||||||||||||||||||||||||1011.8||1|FM15-METAR|223|ICAO-KCCB|||||||||||||||||||||||||||||||||||||||||||MET062METAR KCCB 172115Z AUTO 00000KT 10SM CLR 20/M07 A2988 RMK AO2=||F||223|ICAO-KCCB
USI0000KCCB|CABLE|2017|12|17|21|35|34.1115|-117.6876|438.6|21.0||1|FM15-METAR|223|ICAO-KCCB|-8.0||1|FM15-METAR|223|ICAO-KCCB|||||||||||||080|N-Normal|1|FM15-METAR|223|ICAO-KCCB|4.6|N-Normal|1|FM15-METAR|223|ICAO-KCCB|8.2||1|FM15-METAR|223|ICAO-KCCB|||||||13|Derived||FM15-METAR|223|ICAO-KCCB|||||||||||||||||||||||||||||||||||||||||||||||||||||||||||||||||||||||||1012.2||1|FM15-METAR|223|ICAO-KCCB|||||||||||||||||||||||||||||||||||||||||||MET065METAR KCCB 172135Z AUTO 08009G16KT 10SM CLR 21/M08 A2989 RMK AO2=||F||223|ICAO-KCCB
USI0000KCCB|CABLE|2017|12|17|21|55|34.1115|-117.6876|438.6|21.0||1|FM15-METAR|223|ICAO-KCCB|-8.0||1|FM15-METAR|223|ICAO-KCCB|||||||||||||100|V-Variable|1|FM15-METAR|223|ICAO-KCCB|5.1|V-Variable|1|FM15-METAR|223|ICAO-KCCB|7.7||1|FM15-METAR|223|ICAO-KCCB|||||||13|Derived||FM15-METAR|223|ICAO-KCCB|||||||||||||||||||||||||||||||||||||||||||||||||||||||||||||||||||||||||1012.2||1|FM15-METAR|223|ICAO-KCCB|||||||||||||||||||||||||||||||||||||||||||MET073METAR KCCB 172155Z AUTO 10010G15KT 080V140 10SM CLR 21/M08 A2989 RMK AO2=||F||223|ICAO-KCCB
USI0000KCCB|CABLE|2017|12|17|22|15|34.1115|-117.6876|438.6|20.0||1|FM15-METAR|223|ICAO-KCCB|-8.0||1|FM15-METAR|223|ICAO-KCCB|||||||||||||120|N-Normal|1|FM15-METAR|223|ICAO-KCCB|5.1|N-Normal|1|FM15-METAR|223|ICAO-KCCB|8.8||1|FM15-METAR|223|ICAO-KCCB|||||||14|Derived||FM15-METAR|223|ICAO-KCCB|||||||||||||||||||||||||||||||||||||||||||||||||||||||||||||||||||||||||1012.5||1|FM15-METAR|223|ICAO-KCCB|||||||||||||||||||||||||||||||||||||||||||MET065METAR KCCB 172215Z AUTO 12010G17KT 10SM CLR 20/M08 A2990 RMK AO2=||F||223|ICAO-KCCB
USI0000KCCB|CABLE|2017|12|17|22|35|34.1115|-117.6876|438.6|20.0||1|FM15-METAR|223|ICAO-KCCB|-8.0||1|FM15-METAR|223|ICAO-KCCB|||||||||||||120|N-Normal|1|FM15-METAR|223|ICAO-KCCB|6.2|N-Normal|1|FM15-METAR|223|ICAO-KCCB|8.8||1|FM15-METAR|223|ICAO-KCCB|||||||14|Derived||FM15-METAR|223|ICAO-KCCB|||||||||||||||||||||||||||||||||||||||||||||||||||||||||||||||||||||||||1012.9||1|FM15-METAR|223|ICAO-KCCB|||||||||||||||||||||||||||||||||||||||||||MET065METAR KCCB 172235Z AUTO 12012G17KT 10SM CLR 20/M08 A2991 RMK AO2=||F||223|ICAO-KCCB
USI0000KCCB|CABLE|2017|12|17|22|55|34.1115|-117.6876|438.6|20.0||1|FM15-METAR|223|ICAO-KCCB|-8.0||1|FM15-METAR|223|ICAO-KCCB|||||||||||||130|V-Variable|1|FM15-METAR|223|ICAO-KCCB|3.6|V-Variable|1|FM15-METAR|223|ICAO-KCCB|7.2||1|FM15-METAR|223|ICAO-KCCB|||||||14|Derived||FM15-METAR|223|ICAO-KCCB|||||||||||||||||||||||||||||||||||||||||||||||||||||||||||||||||||||||||1013.2||1|FM15-METAR|223|ICAO-KCCB|||||||||||||||||||||||||||||||||||||||||||MET073METAR KCCB 172255Z AUTO 13007G14KT 110V180 10SM CLR 20/M08 A2992 RMK AO2=||F||223|ICAO-KCCB
USI0000KCCB|CABLE|2017|12|17|23|15|34.1115|-117.6876|438.6|20.0||1|FM15-METAR|223|ICAO-KCCB|-8.0||1|FM15-METAR|223|ICAO-KCCB|||||||||||||999|V-Variable|9|FM15-METAR|223|ICAO-KCCB|3.1|V-Variable|1|FM15-METAR|223|ICAO-KCCB|6.2||1|FM15-METAR|223|ICAO-KCCB|||||||14|Derived||FM15-METAR|223|ICAO-KCCB|||||||||||||||||||||||||||||||||||||||||||||||||||||||||||||||||||||||||1013.2||1|FM15-METAR|223|ICAO-KCCB|||||||||||||||||||||||||||||||||||||||||||MET065METAR KCCB 172315Z AUTO VRB06G12KT 10SM CLR 20/M08 A2992 RMK AO2=||F||223|ICAO-KCCB
USI0000KCCB|CABLE|2017|12|17|23|35|34.1115|-117.6876|438.6|20.0||1|FM15-METAR|223|ICAO-KCCB|-8.0||1|FM15-METAR|223|ICAO-KCCB|||||||||||||999|V-Variable|9|FM15-METAR|223|ICAO-KCCB|1.5|V-Variable|1|FM15-METAR|223|ICAO-KCCB|5.7||1|FM15-METAR|223|ICAO-KCCB|||||||14|Derived||FM15-METAR|223|ICAO-KCCB|||||||||||||||||||||||||||||||||||||||||||||||||||||||||||||||||||||||||1013.5||1|FM15-METAR|223|ICAO-KCCB|||||||||||||||||||||||||||||||||||||||||||MET065METAR KCCB 172335Z AUTO VRB03G11KT 10SM CLR 20/M08 A2993 RMK AO2=||F||223|ICAO-KCCB
USI0000KCCB|CABLE|2017|12|17|23|55|34.1115|-117.6876|438.6|19.0||1|FM15-METAR|223|ICAO-KCCB|-8.0||1|FM15-METAR|223|ICAO-KCCB|||||||||||||150|V-Variable|1|FM15-METAR|223|ICAO-KCCB|3.6|V-Variable|1|FM15-METAR|223|ICAO-KCCB|||||||||||||15|Derived||FM15-METAR|223|ICAO-KCCB|||||||||||||||||||||||||||||||||||||||||||||||||||||||||||||||||||||||||1013.2||1|FM15-METAR|223|ICAO-KCCB|||||||||||||||||||||||||||||||||||||||||||MET070METAR KCCB 172355Z AUTO 15007KT 110V230 10SM CLR 19/M08 A2992 RMK AO2=||F||223|ICAO-KCCB
USI0000KCCB|CABLE|2017|12|18|00|15|34.1115|-117.6876|438.6|19.0||1|FM15-METAR|223|ICAO-KCCB|-8.0||1|FM15-METAR|223|ICAO-KCCB|||||||||||||999|V-Variable|9|FM15-METAR|223|ICAO-KCCB|3.1|V-Variable|1|FM15-METAR|223|ICAO-KCCB|||||||||||||15|Derived||FM15-METAR|223|ICAO-KCCB|||||||||||||||||||||||||||||||||||||||||||||||||||||||||||||||||||||||||1013.5||1|FM15-METAR|223|ICAO-KCCB|||||||||||||||||||||||||||||||||||||||||||MET062METAR KCCB 180015Z AUTO VRB06KT 10SM CLR 19/M08 A2993 RMK AO2=||F||223|ICAO-KCCB
USI0000KCCB|CABLE|2017|12|18|00|35|34.1115|-117.6876|438.6|18.0||1|FM15-METAR|223|ICAO-KCCB|-8.0||1|FM15-METAR|223|ICAO-KCCB|||||||||||||200|N-Normal|1|FM15-METAR|223|ICAO-KCCB|2.1|N-Normal|1|FM15-METAR|223|ICAO-KCCB|||||||||||||16|Derived||FM15-METAR|223|ICAO-KCCB|||||||||||||||||||||||||||||||||||||||||||||||||||||||||||||||||||||||||1014.2||1|FM15-METAR|223|ICAO-KCCB|||||||||||||||||||||||||||||||||||||||||||MET062METAR KCCB 180035Z AUTO 20004KT 10SM CLR 18/M08 A2995 RMK AO2=||F||223|ICAO-KCCB
USI0000KCCB|CABLE|2017|12|18|00|55|34.1115|-117.6876|438.6|18.0||1|FM15-METAR|223|ICAO-KCCB|-8.0||1|FM15-METAR|223|ICAO-KCCB|||||||||||||310|N-Normal|1|FM15-METAR|223|ICAO-KCCB|3.6|N-Normal|1|FM15-METAR|223|ICAO-KCCB|||||||||||||16|Derived||FM15-METAR|223|ICAO-KCCB|||||||||||||||||||||||||||||||||||||||||||||||||||||||||||||||||||||||||1014.6||1|FM15-METAR|223|ICAO-KCCB|||||||||||||||||||||||||||||||||||||||||||MET062METAR KCCB 180055Z AUTO 31007KT 10SM CLR 18/M08 A2996 RMK AO2=||F||223|ICAO-KCCB
USI0000KCCB|CABLE|2017|12|18|01|15|34.1115|-117.6876|438.6|17.0||1|FM15-METAR|223|ICAO-KCCB|-7.0||1|FM15-METAR|223|ICAO-KCCB|||||||||||||310|N-Normal|1|FM15-METAR|223|ICAO-KCCB|3.1|N-Normal|1|FM15-METAR|223|ICAO-KCCB|||||||||||||19|Derived||FM15-METAR|223|ICAO-KCCB|||||||||||||||||||||||||||||||||||||||||||||||||||||||||||||||||||||||||1014.9||1|FM15-METAR|223|ICAO-KCCB|||||||||||||||||||||||||||||||||||||||||||MET062METAR KCCB 180115Z AUTO 31006KT 10SM CLR 17/M07 A2997 RMK AO2=||F||223|ICAO-KCCB
USI0000KCCB|CABLE|2017|12|18|01|35|34.1115|-117.6876|438.6|16.0||1|FM15-METAR|223|ICAO-KCCB|-7.0||1|FM15-METAR|223|ICAO-KCCB|||||||||||||320|N-Normal|1|FM15-METAR|223|ICAO-KCCB|3.1|N-Normal|1|FM15-METAR|223|ICAO-KCCB|||||||||||||20|Derived||FM15-METAR|223|ICAO-KCCB|||||||||||||||||||||||||||||||||||||||||||||||||||||||||||||||||||||||||1015.2||1|FM15-METAR|223|ICAO-KCCB|||||||||||||||||||||||||||||||||||||||||||MET062METAR KCCB 180135Z AUTO 32006KT 10SM CLR 16/M07 A2998 RMK AO2=||F||223|ICAO-KCCB
USI0000KCCB|CABLE|2017|12|18|01|55|34.1115|-117.6876|438.6|16.0||1|FM15-METAR|223|ICAO-KCCB|-7.0||1|FM15-METAR|223|ICAO-KCCB|||||||||||||300|N-Normal|1|FM15-METAR|223|ICAO-KCCB|3.6|N-Normal|1|FM15-METAR|223|ICAO-KCCB|||||||||||||20|Derived||FM15-METAR|223|ICAO-KCCB|||||||||||||||||||||||||||||||||||||||||||||||||||||||||||||||||||||||||1015.2||1|FM15-METAR|223|ICAO-KCCB|||||||||||||||||||||||||||||||||||||||||||MET062METAR KCCB 180155Z AUTO 30007KT 10SM CLR 16/M07 A2998 RMK AO2=||F||223|ICAO-KCCB
USI0000KCCB|CABLE|2017|12|18|02|15|34.1115|-117.6876|438.6|16.0||1|FM15-METAR|223|ICAO-KCCB|-7.0||1|FM15-METAR|223|ICAO-KCCB|||||||||||||999|C-Calm|9|FM15-METAR|223|ICAO-KCCB|0.0|C-Calm|1|FM15-METAR|223|ICAO-KCCB|||||||||||||20|Derived||FM15-METAR|223|ICAO-KCCB|||||||||||||||||||||||||||||||||||||||||||||||||||||||||||||||||||||||||1015.6||1|FM15-METAR|223|ICAO-KCCB|||||||||||||||||||||||||||||||||||||||||||MET062METAR KCCB 180215Z AUTO 00000KT 10SM CLR 16/M07 A2999 RMK AO2=||F||223|ICAO-KCCB
USI0000KCCB|CABLE|2017|12|18|02|35|34.1115|-117.6876|438.6|15.0||1|FM15-METAR|223|ICAO-KCCB|-6.0||1|FM15-METAR|223|ICAO-KCCB|||||||||||||999|C-Calm|9|FM15-METAR|223|ICAO-KCCB|0.0|C-Calm|1|FM15-METAR|223|ICAO-KCCB|||||||||||||23|Derived||FM15-METAR|223|ICAO-KCCB|||||||||||||||||||||||||||||||||||||||||||||||||||||||||||||||||||||||||1015.9||1|FM15-METAR|223|ICAO-KCCB|||||||||||||||||||||||||||||||||||||||||||MET062METAR KCCB 180235Z AUTO 00000KT 10SM CLR 15/M06 A3000 RMK AO2=||F||223|ICAO-KCCB
USI0000KCCB|CABLE|2017|12|18|02|55|34.1115|-117.6876|438.6|14.0||1|FM15-METAR|223|ICAO-KCCB|-6.0||1|FM15-METAR|223|ICAO-KCCB|||||||||||||999|C-Calm|9|FM15-METAR|223|ICAO-KCCB|0.0|C-Calm|1|FM15-METAR|223|ICAO-KCCB|||||||||||||25|Derived||FM15-METAR|223|ICAO-KCCB|||||||||||||||||||||||||||||||||||||||||||||||||||||||||||||||||||||||||1016.3||1|FM15-METAR|223|ICAO-KCCB|||||||||||||||||||||||||||||||||||||||||||MET062METAR KCCB 180255Z AUTO 00000KT 10SM CLR 14/M06 A3001 RMK AO2=||F||223|ICAO-KCCB
USI0000KCCB|CABLE|2017|12|18|03|15|34.1115|-117.6876|438.6|14.0||1|FM15-METAR|223|ICAO-KCCB|-6.0||1|FM15-METAR|223|ICAO-KCCB|||||||||||||999|C-Calm|9|FM15-METAR|223|ICAO-KCCB|0.0|C-Calm|1|FM15-METAR|223|ICAO-KCCB|||||||||||||25|Derived||FM15-METAR|223|ICAO-KCCB|||||||||||||||||||||||||||||||||||||||||||||||||||||||||||||||||||||||||1016.3||1|FM15-METAR|223|ICAO-KCCB|||||||||||||||||||||||||||||||||||||||||||MET062METAR KCCB 180315Z AUTO 00000KT 10SM CLR 14/M06 A3001 RMK AO2=||F||223|ICAO-KCCB
USI0000KCCB|CABLE|2017|12|18|03|35|34.1115|-117.6876|438.6|14.0||1|FM15-METAR|223|ICAO-KCCB|-6.0||1|FM15-METAR|223|ICAO-KCCB|||||||||||||999|C-Calm|9|FM15-METAR|223|ICAO-KCCB|0.0|C-Calm|1|FM15-METAR|223|ICAO-KCCB|||||||||||||25|Derived||FM15-METAR|223|ICAO-KCCB|||||||||||||||||||||||||||||||||||||||||||||||||||||||||||||||||||||||||1016.6||1|FM15-METAR|223|ICAO-KCCB|||||||||||||||||||||||||||||||||||||||||||MET062METAR KCCB 180335Z AUTO 00000KT 10SM CLR 14/M06 A3002 RMK AO2=||F||223|ICAO-KCCB
USI0000KCCB|CABLE|2017|12|18|03|55|34.1115|-117.6876|438.6|13.0||1|FM15-METAR|223|ICAO-KCCB|-7.0||1|FM15-METAR|223|ICAO-KCCB|||||||||||||290|N-Normal|1|FM15-METAR|223|ICAO-KCCB|2.6|N-Normal|1|FM15-METAR|223|ICAO-KCCB|||||||||||||24|Derived||FM15-METAR|223|ICAO-KCCB|||||||||||||||||||||||||||||||||||||||||||||||||||||||||||||||||||||||||1016.6||1|FM15-METAR|223|ICAO-KCCB|||||||||||||||||||||||||||||||||||||||||||MET062METAR KCCB 180355Z AUTO 29005KT 10SM CLR 13/M07 A3002 RMK AO2=||F||223|ICAO-KCCB
USI0000KCCB|CABLE|2017|12|18|04|15|34.1115|-117.6876|438.6|13.0||1|FM15-METAR|223|ICAO-KCCB|-6.0||1|FM15-METAR|223|ICAO-KCCB|||||||||||||320|N-Normal|1|FM15-METAR|223|ICAO-KCCB|1.5|N-Normal|1|FM15-METAR|223|ICAO-KCCB|||||||||||||26|Derived||FM15-METAR|223|ICAO-KCCB|||||||||||||||||||||||||||||||||||||||||||||||||||||||||||||||||||||||||1016.9||1|FM15-METAR|223|ICAO-KCCB|||||||||||||||||||||||||||||||||||||||||||MET062METAR KCCB 180415Z AUTO 32003KT 10SM CLR 13/M06 A3003 RMK AO2=||F||223|ICAO-KCCB
USI0000KCCB|CABLE|2017|12|18|04|35|34.1115|-117.6876|438.6|12.0||1|FM15-METAR|223|ICAO-KCCB|-6.0||1|FM15-METAR|223|ICAO-KCCB|||||||||||||999|C-Calm|9|FM15-METAR|223|ICAO-KCCB|0.0|C-Calm|1|FM15-METAR|223|ICAO-KCCB|||||||||||||28|Derived||FM15-METAR|223|ICAO-KCCB|||||||||||||||||||||||||||||||||||||||||||||||||||||||||||||||||||||||||1016.9||1|FM15-METAR|223|ICAO-KCCB|||||||||||||||||||||||||||||||||||||||||||MET062METAR KCCB 180435Z AUTO 00000KT 10SM CLR 12/M06 A3003 RMK AO2=||F||223|ICAO-KCCB
USI0000KCCB|CABLE|2017|12|18|04|55|34.1115|-117.6876|438.6|12.0||1|FM15-METAR|223|ICAO-KCCB|-7.0||1|FM15-METAR|223|ICAO-KCCB|||||||||||||320|N-Normal|1|FM15-METAR|223|ICAO-KCCB|2.6|N-Normal|1|FM15-METAR|223|ICAO-KCCB|||||||||||||26|Derived||FM15-METAR|223|ICAO-KCCB|||||||||||||||||||||||||||||||||||||||||||||||||||||||||||||||||||||||||1017.3||1|FM15-METAR|223|ICAO-KCCB|||||||||||||||||||||||||||||||||||||||||||MET062METAR KCCB 180455Z AUTO 32005KT 10SM CLR 12/M07 A3004 RMK AO2=||F||223|ICAO-KCCB
USI0000KCCB|CABLE|2017|12|18|05|15|34.1115|-117.6876|438.6|12.0||1|FM15-METAR|223|ICAO-KCCB|-7.0||1|FM15-METAR|223|ICAO-KCCB|||||||||||||350|N-Normal|1|FM15-METAR|223|ICAO-KCCB|3.6|N-Normal|1|FM15-METAR|223|ICAO-KCCB|||||||||||||26|Derived||FM15-METAR|223|ICAO-KCCB|||||||||||||||||||||||||||||||||||||||||||||||||||||||||||||||||||||||||1017.3||1|FM15-METAR|223|ICAO-KCCB|||||||||||||||||||||||||||||||||||||||||||MET062METAR KCCB 180515Z AUTO 35007KT 10SM CLR 12/M07 A3004 RMK AO2=||F||223|ICAO-KCCB
USI0000KCCB|CABLE|2017|12|18|05|35|34.1115|-117.6876|438.6|12.0||1|FM15-METAR|223|ICAO-KCCB|-8.0||1|FM15-METAR|223|ICAO-KCCB|||||||||||||360|N-Normal|1|FM15-METAR|223|ICAO-KCCB|2.6|N-Normal|1|FM15-METAR|223|ICAO-KCCB|||||||||||||24|Derived||FM15-METAR|223|ICAO-KCCB|||||||||||||||||||||||||||||||||||||||||||||||||||||||||||||||||||||||||1017.6||1|FM15-METAR|223|ICAO-KCCB|||||||||||||||||||||||||||||||||||||||||||MET062METAR KCCB 180535Z AUTO 36005KT 10SM CLR 12/M08 A3005 RMK AO2=||F||223|ICAO-KCCB
USI0000KCCB|CABLE|2017|12|18|05|55|34.1115|-117.6876|438.6|12.0||1|FM15-METAR|223|ICAO-KCCB|-7.0||1|FM15-METAR|223|ICAO-KCCB|||||||||||||999|C-Calm|9|FM15-METAR|223|ICAO-KCCB|0.0|C-Calm|1|FM15-METAR|223|ICAO-KCCB|||||||||||||26|Derived||FM15-METAR|223|ICAO-KCCB|||||||||||||||||||||||||||||||||||||||||||||||||||||||||||||||||||||||||1017.9||1|FM15-METAR|223|ICAO-KCCB|||||||||||||||||||||||||||||||||||||||||||MET062METAR KCCB 180555Z AUTO 00000KT 10SM CLR 12/M07 A3006 RMK AO2=||F||223|ICAO-KCCB
USI0000KCCB|CABLE|2017|12|18|06|15|34.1115|-117.6876|438.6|11.0||1|FM15-METAR|223|ICAO-KCCB|-8.0||1|FM15-METAR|223|ICAO-KCCB|||||||||||||999|C-Calm|9|FM15-METAR|223|ICAO-KCCB|0.0|C-Calm|1|FM15-METAR|223|ICAO-KCCB|||||||||||||26|Derived||FM15-METAR|223|ICAO-KCCB|||||||||||||||||||||||||||||||||||||||||||||||||||||||||||||||||||||||||1017.9||1|FM15-METAR|223|ICAO-KCCB|||||||||||||||||||||||||||||||||||||||||||MET062METAR KCCB 180615Z AUTO 00000KT 10SM CLR 11/M08 A3006 RMK AO2=||F||223|ICAO-KCCB
USI0000KCCB|CABLE|2017|12|18|06|35|34.1115|-117.6876|438.6|11.0||1|FM15-METAR|223|ICAO-KCCB|-7.0||1|FM15-METAR|223|ICAO-KCCB|||||||||||||310|N-Normal|1|FM15-METAR|223|ICAO-KCCB|2.6|N-Normal|1|FM15-METAR|223|ICAO-KCCB|||||||||||||28|Derived||FM15-METAR|223|ICAO-KCCB|||||||||||||||||||||||||||||||||||||||||||||||||||||||||||||||||||||||||1017.9||1|FM15-METAR|223|ICAO-KCCB|||||||||||||||||||||||||||||||||||||||||||MET062METAR KCCB 180635Z AUTO 31005KT 10SM CLR 11/M07 A3006 RMK AO2=||F||223|ICAO-KCCB
USI0000KCCB|CABLE|2017|12|18|06|55|34.1115|-117.6876|438.6|11.0||1|FM15-METAR|223|ICAO-KCCB|-7.0||1|FM15-METAR|223|ICAO-KCCB|||||||||||||999|C-Calm|9|FM15-METAR|223|ICAO-KCCB|0.0|C-Calm|1|FM15-METAR|223|ICAO-KCCB|||||||||||||28|Derived||FM15-METAR|223|ICAO-KCCB|||||||||||||||||||||||||||||||||||||||||||||||||||||||||||||||||||||||||1018.3||1|FM15-METAR|223|ICAO-KCCB|||||||||||||||||||||||||||||||||||||||||||MET062METAR KCCB 180655Z AUTO 00000KT 10SM CLR 11/M07 A3007 RMK AO2=||F||223|ICAO-KCCB
USI0000KCCB|CABLE|2017|12|18|07|15|34.1115|-117.6876|438.6|11.0||1|FM15-METAR|223|ICAO-KCCB|-7.0||1|FM15-METAR|223|ICAO-KCCB|||||||||||||320|N-Normal|1|FM15-METAR|223|ICAO-KCCB|2.6|N-Normal|1|FM15-METAR|223|ICAO-KCCB|||||||||||||28|Derived||FM15-METAR|223|ICAO-KCCB|||||||||||||||||||||||||||||||||||||||||||||||||||||||||||||||||||||||||1018.3||1|FM15-METAR|223|ICAO-KCCB|||||||||||||||||||||||||||||||||||||||||||MET062METAR KCCB 180715Z AUTO 32005KT 10SM CLR 11/M07 A3007 RMK AO2=||F||223|ICAO-KCCB
USI0000KCCB|CABLE|2017|12|18|07|35|34.1115|-117.6876|438.6|12.0||1|FM15-METAR|223|ICAO-KCCB|-7.0||1|FM15-METAR|223|ICAO-KCCB|||||||||||||290|N-Normal|1|FM15-METAR|223|ICAO-KCCB|2.6|N-Normal|1|FM15-METAR|223|ICAO-KCCB|||||||||||||26|Derived||FM15-METAR|223|ICAO-KCCB|||||||||||||||||||||||||||||||||||||||||||||||||||||||||||||||||||||||||1018.3||1|FM15-METAR|223|ICAO-KCCB|||||||||||||||||||||||||||||||||||||||||||MET062METAR KCCB 180735Z AUTO 29005KT 10SM CLR 12/M07 A3007 RMK AO2=||F||223|ICAO-KCCB
USI0000KCCB|CABLE|2017|12|18|07|55|34.1115|-117.6876|438.6|11.0||1|FM15-METAR|223|ICAO-KCCB|-7.0||1|FM15-METAR|223|ICAO-KCCB|||||||||||||999|C-Calm|9|FM15-METAR|223|ICAO-KCCB|0.0|C-Calm|1|FM15-METAR|223|ICAO-KCCB|||||||||||||28|Derived||FM15-METAR|223|ICAO-KCCB|||||||||||||||||||||||||||||||||||||||||||||||||||||||||||||||||||||||||1018.3||1|FM15-METAR|223|ICAO-KCCB|||||||||||||||||||||||||||||||||||||||||||MET062METAR KCCB 180755Z AUTO 00000KT 10SM CLR 11/M07 A3007 RMK AO2=||F||223|ICAO-KCCB
USI0000KCCB|CABLE|2017|12|18|08|15|34.1115|-117.6876|438.6|10.0||1|FM15-METAR|223|ICAO-KCCB|-7.0||1|FM15-METAR|223|ICAO-KCCB|||||||||||||999|C-Calm|9|FM15-METAR|223|ICAO-KCCB|0.0|C-Calm|1|FM15-METAR|223|ICAO-KCCB|||||||||||||30|Derived||FM15-METAR|223|ICAO-KCCB|||||||||||||||||||||||||||||||||||||||||||||||||||||||||||||||||||||||||1018.3||1|FM15-METAR|223|ICAO-KCCB|||||||||||||||||||||||||||||||||||||||||||MET062METAR KCCB 180815Z AUTO 00000KT 10SM CLR 10/M07 A3007 RMK AO2=||F||223|ICAO-KCCB
USI0000KCCB|CABLE|2017|12|18|08|35|34.1115|-117.6876|438.6|10.0||1|FM15-METAR|223|ICAO-KCCB|-7.0||1|FM15-METAR|223|ICAO-KCCB|||||||||||||280|N-Normal|1|FM15-METAR|223|ICAO-KCCB|2.6|N-Normal|1|FM15-METAR|223|ICAO-KCCB|||||||||||||30|Derived||FM15-METAR|223|ICAO-KCCB|||||||||||||||||||||||||||||||||||||||||||||||||||||||||||||||||||||||||1018.3||1|FM15-METAR|223|ICAO-KCCB|||||||||||||||||||||||||||||||||||||||||||MET062METAR KCCB 180835Z AUTO 28005KT 10SM CLR 10/M07 A3007 RMK AO2=||F||223|ICAO-KCCB
USI0000KCCB|CABLE|2017|12|18|08|55|34.1115|-117.6876|438.6|11.0||1|FM15-METAR|223|ICAO-KCCB|-8.0||1|FM15-METAR|223|ICAO-KCCB|||||||||||||999|C-Calm|9|FM15-METAR|223|ICAO-KCCB|0.0|C-Calm|1|FM15-METAR|223|ICAO-KCCB|||||||||||||26|Derived||FM15-METAR|223|ICAO-KCCB|||||||||||||||||||||||||||||||||||||||||||||||||||||||||||||||||||||||||1018.6||1|FM15-METAR|223|ICAO-KCCB|||||||||||||||||||||||||||||||||||||||||||MET062METAR KCCB 180855Z AUTO 00000KT 10SM CLR 11/M08 A3008 RMK AO2=||F||223|ICAO-KCCB
USI0000KCCB|CABLE|2017|12|18|09|15|34.1115|-117.6876|438.6|10.0||1|FM15-METAR|223|ICAO-KCCB|-8.0||1|FM15-METAR|223|ICAO-KCCB|||||||||||||320|N-Normal|1|FM15-METAR|223|ICAO-KCCB|2.1|N-Normal|1|FM15-METAR|223|ICAO-KCCB|||||||||||||28|Derived||FM15-METAR|223|ICAO-KCCB|||||||||||||||||||||||||||||||||||||||||||||||||||||||||||||||||||||||||1018.6||1|FM15-METAR|223|ICAO-KCCB|||||||||||||||||||||||||||||||||||||||||||MET062METAR KCCB 180915Z AUTO 32004KT 10SM CLR 10/M08 A3008 RMK AO2=||F||223|ICAO-KCCB
USI0000KCCB|CABLE|2017|12|18|09|35|34.1115|-117.6876|438.6|10.0||1|FM15-METAR|223|ICAO-KCCB|-8.0||1|FM15-METAR|223|ICAO-KCCB|||||||||||||310|N-Normal|1|FM15-METAR|223|ICAO-KCCB|2.6|N-Normal|1|FM15-METAR|223|ICAO-KCCB|||||||||||||28|Derived||FM15-METAR|223|ICAO-KCCB|||||||||||||||||||||||||||||||||||||||||||||||||||||||||||||||||||||||||1019.0||1|FM15-METAR|223|ICAO-KCCB|||||||||||||||||||||||||||||||||||||||||||MET062METAR KCCB 180935Z AUTO 31005KT 10SM CLR 10/M08 A3009 RMK AO2=||F||223|ICAO-KCCB
USI0000KCCB|CABLE|2017|12|18|09|55|34.1115|-117.6876|438.6|10.0||1|FM15-METAR|223|ICAO-KCCB|-8.0||1|FM15-METAR|223|ICAO-KCCB|||||||||||||350|N-Normal|1|FM15-METAR|223|ICAO-KCCB|3.1|N-Normal|1|FM15-METAR|223|ICAO-KCCB|||||||||||||28|Derived||FM15-METAR|223|ICAO-KCCB|||||||||||||||||||||||||||||||||||||||||||||||||||||||||||||||||||||||||1019.0||1|FM15-METAR|223|ICAO-KCCB|||||||||||||||||||||||||||||||||||||||||||MET062METAR KCCB 180955Z AUTO 35006KT 10SM CLR 10/M08 A3009 RMK AO2=||F||223|ICAO-KCCB
USI0000KCCB|CABLE|2017|12|18|10|15|34.1115|-117.6876|438.6|10.0||1|FM15-METAR|223|ICAO-KCCB|-8.0||1|FM15-METAR|223|ICAO-KCCB|||||||||||||350|N-Normal|1|FM15-METAR|223|ICAO-KCCB|3.1|N-Normal|1|FM15-METAR|223|ICAO-KCCB|||||||||||||28|Derived||FM15-METAR|223|ICAO-KCCB|||||||||||||||||||||||||||||||||||||||||||||||||||||||||||||||||||||||||1019.3||1|FM15-METAR|223|ICAO-KCCB|||||||||||||||||||||||||||||||||||||||||||MET062METAR KCCB 181015Z AUTO 35006KT 10SM CLR 10/M08 A3010 RMK AO2=||F||223|ICAO-KCCB
USI0000KCCB|CABLE|2017|12|18|10|35|34.1115|-117.6876|438.6|10.0||1|FM15-METAR|223|ICAO-KCCB|-8.0||1|FM15-METAR|223|ICAO-KCCB|||||||||||||340|N-Normal|1|FM15-METAR|223|ICAO-KCCB|2.6|N-Normal|1|FM15-METAR|223|ICAO-KCCB|||||||||||||28|Derived||FM15-METAR|223|ICAO-KCCB|||||||||||||||||||||||||||||||||||||||||||||||||||||||||||||||||||||||||1019.0||1|FM15-METAR|223|ICAO-KCCB|||||||||||||||||||||||||||||||||||||||||||MET062METAR KCCB 181035Z AUTO 34005KT 10SM CLR 10/M08 A3009 RMK AO2=||F||223|ICAO-KCCB
USI0000KCCB|CABLE|2017|12|18|10|55|34.1115|-117.6876|438.6|10.0||1|FM15-METAR|223|ICAO-KCCB|-8.0||1|FM15-METAR|223|ICAO-KCCB|||||||||||||340|N-Normal|1|FM15-METAR|223|ICAO-KCCB|1.5|N-Normal|1|FM15-METAR|223|ICAO-KCCB|||||||||||||28|Derived||FM15-METAR|223|ICAO-KCCB|||||||||||||||||||||||||||||||||||||||||||||||||||||||||||||||||||||||||1019.0||1|FM15-METAR|223|ICAO-KCCB|||||||||||||||||||||||||||||||||||||||||||MET062METAR KCCB 181055Z AUTO 34003KT 10SM CLR 10/M08 A3009 RMK AO2=||F||223|ICAO-KCCB
USI0000KCCB|CABLE|2017|12|18|11|15|34.1115|-117.6876|438.6|10.0||1|FM15-METAR|223|ICAO-KCCB|-8.0||1|FM15-METAR|223|ICAO-KCCB|||||||||||||320|N-Normal|1|FM15-METAR|223|ICAO-KCCB|2.1|N-Normal|1|FM15-METAR|223|ICAO-KCCB|||||||||||||28|Derived||FM15-METAR|223|ICAO-KCCB|||||||||||||||||||||||||||||||||||||||||||||||||||||||||||||||||||||||||1019.0||1|FM15-METAR|223|ICAO-KCCB|||||||||||||||||||||||||||||||||||||||||||MET062METAR KCCB 181115Z AUTO 32004KT 10SM CLR 10/M08 A3009 RMK AO2=||F||223|ICAO-KCCB
USI0000KCCB|CABLE|2017|12|18|11|35|34.1115|-117.6876|438.6|10.0||1|FM15-METAR|223|ICAO-KCCB|-8.0||1|FM15-METAR|223|ICAO-KCCB|||||||||||||300|N-Normal|1|FM15-METAR|223|ICAO-KCCB|2.1|N-Normal|1|FM15-METAR|223|ICAO-KCCB|||||||||||||28|Derived||FM15-METAR|223|ICAO-KCCB|||||||||||||||||||||||||||||||||||||||||||||||||||||||||||||||||||||||||1019.0||1|FM15-METAR|223|ICAO-KCCB|||||||||||||||||||||||||||||||||||||||||||MET062METAR KCCB 181135Z AUTO 30004KT 10SM CLR 10/M08 A3009 RMK AO2=||F||223|ICAO-KCCB
USI0000KCCB|CABLE|2017|12|18|11|55|34.1115|-117.6876|438.6|10.0||1|FM15-METAR|223|ICAO-KCCB|-8.0||1|FM15-METAR|223|ICAO-KCCB|||||||||||||340|N-Normal|1|FM15-METAR|223|ICAO-KCCB|2.1|N-Normal|1|FM15-METAR|223|ICAO-KCCB|||||||||||||28|Derived||FM15-METAR|223|ICAO-KCCB|||||||||||||||||||||||||||||||||||||||||||||||||||||||||||||||||||||||||1019.3||1|FM15-METAR|223|ICAO-KCCB|||||||||||||||||||||||||||||||||||||||||||MET062METAR KCCB 181155Z AUTO 34004KT 10SM CLR 10/M08 A3010 RMK AO2=||F||223|ICAO-KCCB
USI0000KCCB|CABLE|2017|12|18|12|15|34.1115|-117.6876|438.6|10.0||1|FM15-METAR|223|ICAO-KCCB|-8.0||1|FM15-METAR|223|ICAO-KCCB|||||||||||||310|N-Normal|1|FM15-METAR|223|ICAO-KCCB|1.5|N-Normal|1|FM15-METAR|223|ICAO-KCCB|||||||||||||28|Derived||FM15-METAR|223|ICAO-KCCB|||||||||||||||||||||||||||||||||||||||||||||||||||||||||||||||||||||||||1019.3||1|FM15-METAR|223|ICAO-KCCB|||||||||||||||||||||||||||||||||||||||||||MET062METAR KCCB 181215Z AUTO 31003KT 10SM CLR 10/M08 A3010 RMK AO2=||F||223|ICAO-KCCB
USI0000KCCB|CABLE|2017|12|18|12|35|34.1115|-117.6876|438.6|10.0||1|FM15-METAR|223|ICAO-KCCB|-8.0||1|FM15-METAR|223|ICAO-KCCB|||||||||||||240|N-Normal|1|FM15-METAR|223|ICAO-KCCB|2.1|N-Normal|1|FM15-METAR|223|ICAO-KCCB|||||||||||||28|Derived||FM15-METAR|223|ICAO-KCCB|||||||||||||||||||||||||||||||||||||||||||||||||||||||||||||||||||||||||1019.3||1|FM15-METAR|223|ICAO-KCCB|||||||||||||||||||||||||||||||||||||||||||MET062METAR KCCB 181235Z AUTO 24004KT 10SM CLR 10/M08 A3010 RMK AO2=||F||223|ICAO-KCCB
USI0000KCCB|CABLE|2017|12|18|12|55|34.1115|-117.6876|438.6|10.0||1|FM15-METAR|223|ICAO-KCCB|-9.0||1|FM15-METAR|223|ICAO-KCCB|||||||||||||999|C-Calm|9|FM15-METAR|223|ICAO-KCCB|0.0|C-Calm|1|FM15-METAR|223|ICAO-KCCB|||||||||||||25|Derived||FM15-METAR|223|ICAO-KCCB|||||||||||||||||||||||||||||||||||||||||||||||||||||||||||||||||||||||||1019.3||1|FM15-METAR|223|ICAO-KCCB|||||||||||||||||||||||||||||||||||||||||||MET062METAR KCCB 181255Z AUTO 00000KT 10SM CLR 10/M09 A3010 RMK AO2=||F||223|ICAO-KCCB
USI0000KCCB|CABLE|2017|12|18|13|15|34.1115|-117.6876|438.6|10.0||1|FM15-METAR|223|ICAO-KCCB|-9.0||1|FM15-METAR|223|ICAO-KCCB|||||||||||||999|C-Calm|9|FM15-METAR|223|ICAO-KCCB|0.0|C-Calm|1|FM15-METAR|223|ICAO-KCCB|||||||||||||25|Derived||FM15-METAR|223|ICAO-KCCB|||||||||||||||||||||||||||||||||||||||||||||||||||||||||||||||||||||||||1019.6||1|FM15-METAR|223|ICAO-KCCB|||||||||||||||||||||||||||||||||||||||||||MET062METAR KCCB 181315Z AUTO 00000KT 10SM CLR 10/M09 A3011 RMK AO2=||F||223|ICAO-KCCB
USI0000KCCB|CABLE|2017|12|18|13|35|34.1115|-117.6876|438.6|9.0||1|FM15-METAR|223|ICAO-KCCB|-9.0||1|FM15-METAR|223|ICAO-KCCB|||||||||||||350|N-Normal|1|FM15-METAR|223|ICAO-KCCB|2.1|N-Normal|1|FM15-METAR|223|ICAO-KCCB|||||||||||||27|Derived||FM15-METAR|223|ICAO-KCCB|||||||||||||||||||||||||||||||||||||||||||||||||||||||||||||||||||||||||1020.0||1|FM15-METAR|223|ICAO-KCCB|||||||||||||||||||||||||||||||||||||||||||MET062METAR KCCB 181335Z AUTO 35004KT 10SM CLR 09/M09 A3012 RMK AO2=||F||223|ICAO-KCCB
USI0000KCCB|CABLE|2017|12|18|13|55|34.1115|-117.6876|438.6|9.0||1|FM15-METAR|223|ICAO-KCCB|-9.0||1|FM15-METAR|223|ICAO-KCCB|||||||||||||350|N-Normal|1|FM15-METAR|223|ICAO-KCCB|2.6|N-Normal|1|FM15-METAR|223|ICAO-KCCB|||||||||||||27|Derived||FM15-METAR|223|ICAO-KCCB|||||||||||||||||||||||||||||||||||||||||||||||||||||||||||||||||||||||||1020.0||1|FM15-METAR|223|ICAO-KCCB|||||||||||||||||||||||||||||||||||||||||||MET062METAR KCCB 181355Z AUTO 35005KT 10SM CLR 09/M09 A3012 RMK AO2=||F||223|ICAO-KCCB
USI0000KCCB|CABLE|2017|12|18|14|15|34.1115|-117.6876|438.6|10.0||1|FM15-METAR|223|ICAO-KCCB|-9.0||1|FM15-METAR|223|ICAO-KCCB|||||||||||||330|N-Normal|1|FM15-METAR|223|ICAO-KCCB|2.1|N-Normal|1|FM15-METAR|223|ICAO-KCCB|||||||||||||25|Derived||FM15-METAR|223|ICAO-KCCB|||||||||||||||||||||||||||||||||||||||||||||||||||||||||||||||||||||||||1020.3||1|FM15-METAR|223|ICAO-KCCB|||||||||||||||||||||||||||||||||||||||||||MET062METAR KCCB 181415Z AUTO 33004KT 10SM CLR 10/M09 A3013 RMK AO2=||F||223|ICAO-KCCB
USI0000KCCB|CABLE|2017|12|18|14|35|34.1115|-117.6876|438.6|9.0||1|FM15-METAR|223|ICAO-KCCB|-9.0||1|FM15-METAR|223|ICAO-KCCB|||||||||||||340|N-Normal|1|FM15-METAR|223|ICAO-KCCB|2.6|N-Normal|1|FM15-METAR|223|ICAO-KCCB|||||||||||||27|Derived||FM15-METAR|223|ICAO-KCCB|||||||||||||||||||||||||||||||||||||||||||||||||||||||||||||||||||||||||1020.3||1|FM15-METAR|223|ICAO-KCCB|||||||||||||||||||||||||||||||||||||||||||MET062METAR KCCB 181435Z AUTO 34005KT 10SM CLR 09/M09 A3013 RMK AO2=||F||223|ICAO-KCCB
USI0000KCCB|CABLE|2017|12|18|15|15|34.1115|-117.6876|438.6|10.0||1|FM15-METAR|223|ICAO-KCCB|-9.0||1|FM15-METAR|223|ICAO-KCCB|||||||||||||999|C-Calm|9|FM15-METAR|223|ICAO-KCCB|0.0|C-Calm|1|FM15-METAR|223|ICAO-KCCB|||||||||||||25|Derived||FM15-METAR|223|ICAO-KCCB|||||||||||||||||||||||||||||||||||||||||||||||||||||||||||||||||||||||||1021.0||1|FM15-METAR|223|ICAO-KCCB|||||||||||||||||||||||||||||||||||||||||||MET062METAR KCCB 181515Z AUTO 00000KT 10SM CLR 10/M09 A3015 RMK AO2=||F||223|ICAO-KCCB
USI0000KCCB|CABLE|2017|12|18|15|35|34.1115|-117.6876|438.6|11.0||1|FM15-METAR|223|ICAO-KCCB|-9.0||1|FM15-METAR|223|ICAO-KCCB|||||||||||||999|C-Calm|9|FM15-METAR|223|ICAO-KCCB|0.0|C-Calm|1|FM15-METAR|223|ICAO-KCCB|||||||||||||24|Derived||FM15-METAR|223|ICAO-KCCB|||||||||||||||||||||||||||||||||||||||||||||||||||||||||||||||||||||||||1021.0||1|FM15-METAR|223|ICAO-KCCB|||||||||||||||||||||||||||||||||||||||||||MET062METAR KCCB 181535Z AUTO 00000KT 10SM CLR 11/M09 A3015 RMK AO2=||F||223|ICAO-KCCB
USI0000KCCB|CABLE|2017|12|18|15|55|34.1115|-117.6876|438.6|12.0||1|FM15-METAR|223|ICAO-KCCB|-10.0||1|FM15-METAR|223|ICAO-KCCB|||||||||||||999|C-Calm|9|FM15-METAR|223|ICAO-KCCB|0.0|C-Calm|1|FM15-METAR|223|ICAO-KCCB|||||||||||||21|Derived||FM15-METAR|223|ICAO-KCCB|||||||||||||||||||||||||||||||||||||||||||||||||||||||||||||||||||||||||1021.3||1|FM15-METAR|223|ICAO-KCCB|||||||||||||||||||||||||||||||||||||||||||MET062METAR KCCB 181555Z AUTO 00000KT 10SM CLR 12/M10 A3016 RMK AO2=||F||223|ICAO-KCCB
USI0000KCCB|CABLE|2017|12|18|16|15|34.1115|-117.6876|438.6|12.0||1|FM15-METAR|223|ICAO-KCCB|-8.0||1|FM15-METAR|223|ICAO-KCCB|||||||||||||999|C-Calm|9|FM15-METAR|223|ICAO-KCCB|0.0|C-Calm|1|FM15-METAR|223|ICAO-KCCB|||||||||||||24|Derived||FM15-METAR|223|ICAO-KCCB|||||||||||||||||||||||||||||||||||||||||||||||||||||||||||||||||||||||||1021.3||1|FM15-METAR|223|ICAO-KCCB|||||||||||||||||||||||||||||||||||||||||||MET062METAR KCCB 181615Z AUTO 00000KT 10SM CLR 12/M08 A3016 RMK AO2=||F||223|ICAO-KCCB
USI0000KCCB|CABLE|2017|12|18|16|35|34.1115|-117.6876|438.6|13.0||1|FM15-METAR|223|ICAO-KCCB|-9.0||1|FM15-METAR|223|ICAO-KCCB|||||||||||||999|C-Calm|9|FM15-METAR|223|ICAO-KCCB|0.0|C-Calm|1|FM15-METAR|223|ICAO-KCCB|||||||||||||21|Derived||FM15-METAR|223|ICAO-KCCB|||||||||||||||||||||||||||||||||||||||||||||||||||||||||||||||||||||||||1021.3||1|FM15-METAR|223|ICAO-KCCB|||||||||||||||||||||||||||||||||||||||||||MET062METAR KCCB 181635Z AUTO 00000KT 10SM CLR 13/M09 A3016 RMK AO2=||F||223|ICAO-KCCB
USI0000KCCB|CABLE|2017|12|18|16|55|34.1115|-117.6876|438.6|13.0||1|FM15-METAR|223|ICAO-KCCB|-9.0||1|FM15-METAR|223|ICAO-KCCB|||||||||||||250|N-Normal|1|FM15-METAR|223|ICAO-KCCB|1.5|N-Normal|1|FM15-METAR|223|ICAO-KCCB|||||||||||||21|Derived||FM15-METAR|223|ICAO-KCCB|||||||||||||||||||||||||||||||||||||||||||||||||||||||||||||||||||||||||1021.7||1|FM15-METAR|223|ICAO-KCCB|||||||||||||||||||||||||||||||||||||||||||MET062METAR KCCB 181655Z AUTO 25003KT 10SM CLR 13/M09 A3017 RMK AO2=||F||223|ICAO-KCCB
USI0000KCCB|CABLE|2017|12|18|17|15|34.1115|-117.6876|438.6|14.0||1|FM15-METAR|223|ICAO-KCCB|-8.0||1|FM15-METAR|223|ICAO-KCCB|||||||||||||999|V-Variable|9|FM15-METAR|223|ICAO-KCCB|1.5|V-Variable|1|FM15-METAR|223|ICAO-KCCB|||||||||||||21|Derived||FM15-METAR|223|ICAO-KCCB|||||||||||||||||||||||||||||||||||||||||||||||||||||||||||||||||||||||||1022.0||1|FM15-METAR|223|ICAO-KCCB|||||||||||||||||||||||||||||||||||||||||||MET062METAR KCCB 181715Z AUTO VRB03KT 10SM CLR 14/M08 A3018 RMK AO2=||F||223|ICAO-KCCB
USI0000KCCB|CABLE|2017|12|18|17|35|34.1115|-117.6876|438.6|14.0||1|FM15-METAR|223|ICAO-KCCB|-9.0||1|FM15-METAR|223|ICAO-KCCB|||||||||||||240|N-Normal|1|FM15-METAR|223|ICAO-KCCB|2.1|N-Normal|1|FM15-METAR|223|ICAO-KCCB|||||||||||||20|Derived||FM15-METAR|223|ICAO-KCCB|||||||||||||||||||||||||||||||||||||||||||||||||||||||||||||||||||||||||1022.3||1|FM15-METAR|223|ICAO-KCCB|||||||||||||||||||||||||||||||||||||||||||MET062METAR KCCB 181735Z AUTO 24004KT 10SM CLR 14/M09 A3019 RMK AO2=||F||223|ICAO-KCCB
USI0000KCCB|CABLE|2017|12|18|17|55|34.1115|-117.6876|438.6|15.0||1|FM15-METAR|223|ICAO-KCCB|-8.0||1|FM15-METAR|223|ICAO-KCCB|||||||||||||230|N-Normal|1|FM15-METAR|223|ICAO-KCCB|2.6|N-Normal|1|FM15-METAR|223|ICAO-KCCB|||||||||||||20|Derived||FM15-METAR|223|ICAO-KCCB|||||||||||||||||||||||||||||||||||||||||||||||||||||||||||||||||||||||||1022.3||1|FM15-METAR|223|ICAO-KCCB|||||||||||||||||||||||||||||||||||||||||||MET062METAR KCCB 181755Z AUTO 23005KT 10SM CLR 15/M08 A3019 RMK AO2=||F||223|ICAO-KCCB
USI0000KCCB|CABLE|2017|12|18|18|15|34.1115|-117.6876|438.6|16.0||1|FM15-METAR|223|ICAO-KCCB|-9.0||1|FM15-METAR|223|ICAO-KCCB|||||||||||||240|N-Normal|1|FM15-METAR|223|ICAO-KCCB|2.1|N-Normal|1|FM15-METAR|223|ICAO-KCCB|||||||||||||17|Derived||FM15-METAR|223|ICAO-KCCB|||||||||||||||||||||||||||||||||||||||||||||||||||||||||||||||||||||||||1022.3||1|FM15-METAR|223|ICAO-KCCB|||||||||||||||||||||||||||||||||||||||||||MET062METAR KCCB 181815Z AUTO 24004KT 10SM CLR 16/M09 A3019 RMK AO2=||F||223|ICAO-KCCB
USI0000KCCB|CABLE|2017|12|18|18|35|34.1115|-117.6876|438.6|16.0||1|FM15-METAR|223|ICAO-KCCB|-8.0||1|FM15-METAR|223|ICAO-KCCB|||||||||||||250|N-Normal|1|FM15-METAR|223|ICAO-KCCB|2.6|N-Normal|1|FM15-METAR|223|ICAO-KCCB|||||||||||||19|Derived||FM15-METAR|223|ICAO-KCCB|||||||||||||||||||||||||||||||||||||||||||||||||||||||||||||||||||||||||1022.3||1|FM15-METAR|223|ICAO-KCCB|||||||||||||||||||||||||||||||||||||||||||MET062METAR KCCB 181835Z AUTO 25005KT 10SM CLR 16/M08 A3019 RMK AO2=||F||223|ICAO-KCCB
USI0000KCCB|CABLE|2017|12|18|18|55|34.1115|-117.6876|438.6|16.0||1|FM15-METAR|223|ICAO-KCCB|-9.0||1|FM15-METAR|223|ICAO-KCCB|||||||||||||240|N-Normal|1|FM15-METAR|223|ICAO-KCCB|2.6|N-Normal|1|FM15-METAR|223|ICAO-KCCB|||||||||||||17|Derived||FM15-METAR|223|ICAO-KCCB|||||||||||||||||||||||||||||||||||||||||||||||||||||||||||||||||||||||||1022.0||1|FM15-METAR|223|ICAO-KCCB|||||||||||||||||||||||||||||||||||||||||||MET062METAR KCCB 181855Z AUTO 24005KT 10SM CLR 16/M09 A3018 RMK AO2=||F||223|ICAO-KCCB
USI0000KCCB|CABLE|2017|12|18|19|15|34.1115|-117.6876|438.6|17.0||1|FM15-METAR|223|ICAO-KCCB|-9.0||1|FM15-METAR|223|ICAO-KCCB|||||||||||||210|N-Normal|1|FM15-METAR|223|ICAO-KCCB|2.6|N-Normal|1|FM15-METAR|223|ICAO-KCCB|||||||||||||16|Derived||FM15-METAR|223|ICAO-KCCB|||||||||||||||||||||||||||||||||||||||||||||||||||||||||||||||||||||||||1022.0||1|FM15-METAR|223|ICAO-KCCB|||||||||||||||||||||||||||||||||||||||||||MET062METAR KCCB 181915Z AUTO 21005KT 10SM CLR 17/M09 A3018 RMK AO2=||F||223|ICAO-KCCB
USI0000KCCB|CABLE|2017|12|18|19|35|34.1115|-117.6876|438.6|17.0||1|FM15-METAR|223|ICAO-KCCB|-10.0||1|FM15-METAR|223|ICAO-KCCB|||||||||||||260|N-Normal|1|FM15-METAR|223|ICAO-KCCB|3.6|N-Normal|1|FM15-METAR|223|ICAO-KCCB|||||||||||||15|Derived||FM15-METAR|223|ICAO-KCCB|||||||||||||||||||||||||||||||||||||||||||||||||||||||||||||||||||||||||1021.7||1|FM15-METAR|223|ICAO-KCCB|||||||||||||||||||||||||||||||||||||||||||MET062METAR KCCB 181935Z AUTO 26007KT 10SM CLR 17/M10 A3017 RMK AO2=||F||223|ICAO-KCCB
USI0000KCCB|CABLE|2017|12|18|19|55|34.1115|-117.6876|438.6|18.0||1|FM15-METAR|223|ICAO-KCCB|-10.0||1|FM15-METAR|223|ICAO-KCCB|||||||||||||999|V-Variable|9|FM15-METAR|223|ICAO-KCCB|2.1|V-Variable|1|FM15-METAR|223|ICAO-KCCB|||||||||||||14|Derived||FM15-METAR|223|ICAO-KCCB|||||||||||||||||||||||||||||||||||||||||||||||||||||||||||||||||||||||||1021.3||1|FM15-METAR|223|ICAO-KCCB|||||||||||||||||||||||||||||||||||||||||||MET062METAR KCCB 181955Z AUTO VRB04KT 10SM CLR 18/M10 A3016 RMK AO2=||F||223|ICAO-KCCB
USI0000KCCB|CABLE|2017|12|18|20|15|34.1115|-117.6876|438.6|18.0||1|FM15-METAR|223|ICAO-KCCB|-11.0||1|FM15-METAR|223|ICAO-KCCB|||||||||||||230|N-Normal|1|FM15-METAR|223|ICAO-KCCB|2.6|N-Normal|1|FM15-METAR|223|ICAO-KCCB|||||||||||||13|Derived||FM15-METAR|223|ICAO-KCCB|||||||||||||||||||||||||||||||||||||||||||||||||||||||||||||||||||||||||1021.0||1|FM15-METAR|223|ICAO-KCCB|||||||||||||||||||||||||||||||||||||||||||MET062METAR KCCB 182015Z AUTO 23005KT 10SM CLR 18/M11 A3015 RMK AO2=||F||223|ICAO-KCCB
USI0000KCCB|CABLE|2017|12|18|20|35|34.1115|-117.6876|438.6|19.0||1|FM15-METAR|223|ICAO-KCCB|-10.0||1|FM15-METAR|223|ICAO-KCCB|||||||||||||999|V-Variable|9|FM15-METAR|223|ICAO-KCCB|2.6|V-Variable|1|FM15-METAR|223|ICAO-KCCB|||||||||||||13|Derived||FM15-METAR|223|ICAO-KCCB|||||||||||||||||||||||||||||||||||||||||||||||||||||||||||||||||||||||||1020.7||1|FM15-METAR|223|ICAO-KCCB|||||||||||||||||||||||||||||||||||||||||||MET062METAR KCCB 182035Z AUTO VRB05KT 10SM CLR 19/M10 A3014 RMK AO2=||F||223|ICAO-KCCB
USI0000KCCB|CABLE|2017|12|18|20|55|34.1115|-117.6876|438.6|19.0||1|FM15-METAR|223|ICAO-KCCB|-10.0||1|FM15-METAR|223|ICAO-KCCB|||||||||||||210|N-Normal|1|FM15-METAR|223|ICAO-KCCB|2.1|N-Normal|1|FM15-METAR|223|ICAO-KCCB|||||||||||||13|Derived||FM15-METAR|223|ICAO-KCCB|||||||||||||||||||||||||||||||||||||||||||||||||||||||||||||||||||||||||1020.3||1|FM15-METAR|223|ICAO-KCCB|||||||||||||||||||||||||||||||||||||||||||MET062METAR KCCB 182055Z AUTO 21004KT 10SM CLR 19/M10 A3013 RMK AO2=||F||223|ICAO-KCCB
USI0000KCCB|CABLE|2017|12|18|21|15|34.1115|-117.6876|438.6|19.0||1|FM15-METAR|223|ICAO-KCCB|-9.0||1|FM15-METAR|223|ICAO-KCCB|||||||||||||240|N-Normal|1|FM15-METAR|223|ICAO-KCCB|3.6|N-Normal|1|FM15-METAR|223|ICAO-KCCB|||||||||||||14|Derived||FM15-METAR|223|ICAO-KCCB|||||||||||||||||||||||||||||||||||||||||||||||||||||||||||||||||||||||||1020.3||1|FM15-METAR|223|ICAO-KCCB|||||||||||||||||||||||||||||||||||||||||||MET062METAR KCCB 182115Z AUTO 24007KT 10SM CLR 19/M09 A3013 RMK AO2=||F||223|ICAO-KCCB
USI0000KCCB|CABLE|2017|12|18|21|35|34.1115|-117.6876|438.6|19.0||1|FM15-METAR|223|ICAO-KCCB|-9.0||1|FM15-METAR|223|ICAO-KCCB|||||||||||||999|V-Variable|9|FM15-METAR|223|ICAO-KCCB|2.1|V-Variable|1|FM15-METAR|223|ICAO-KCCB|||||||||||||14|Derived||FM15-METAR|223|ICAO-KCCB|||||||||||||||||||||||||||||||||||||||||||||||||||||||||||||||||||||||||1020.0||1|FM15-METAR|223|ICAO-KCCB|||||||||||||||||||||||||||||||||||||||||||MET062METAR KCCB 182135Z AUTO VRB04KT 10SM CLR 19/M09 A3012 RMK AO2=||F||223|ICAO-KCCB
USI0000KCCB|CABLE|2017|12|18|21|55|34.1115|-117.6876|438.6|19.0||1|FM15-METAR|223|ICAO-KCCB|-9.0||1|FM15-METAR|223|ICAO-KCCB|||||||||||||999|C-Calm|9|FM15-METAR|223|ICAO-KCCB|0.0|C-Calm|1|FM15-METAR|223|ICAO-KCCB|||||||||||||14|Derived||FM15-METAR|223|ICAO-KCCB|||||||||||||||||||||||||||||||||||||||||||||||||||||||||||||||||||||||||1020.0||1|FM15-METAR|223|ICAO-KCCB|||||||||||||||||||||||||||||||||||||||||||MET062METAR KCCB 182155Z AUTO 00000KT 10SM CLR 19/M09 A3012 RMK AO2=||F||223|ICAO-KCCB
USI0000KCCB|CABLE|2017|12|18|22|15|34.1115|-117.6876|438.6|20.0||1|FM15-METAR|223|ICAO-KCCB|-8.0||1|FM15-METAR|223|ICAO-KCCB|||||||||||||280|N-Normal|1|FM15-METAR|223|ICAO-KCCB|2.6|N-Normal|1|FM15-METAR|223|ICAO-KCCB|5.7||1|FM15-METAR|223|ICAO-KCCB|||||||14|Derived||FM15-METAR|223|ICAO-KCCB|||||||||||||||||||||||||||||||||||||||||||||||||||||||||||||||||||||||||1020.0||1|FM15-METAR|223|ICAO-KCCB|||||||||||||||||||||||||||||||||||||||||||MET065METAR KCCB 182215Z AUTO 28005G11KT 10SM CLR 20/M08 A3012 RMK AO2=||F||223|ICAO-KCCB
USI0000KCCB|CABLE|2017|12|18|22|35|34.1115|-117.6876|438.6|20.0||1|FM15-METAR|223|ICAO-KCCB|-7.0||1|FM15-METAR|223|ICAO-KCCB|||||||||||||250|N-Normal|1|FM15-METAR|223|ICAO-KCCB|2.6|N-Normal|1|FM15-METAR|223|ICAO-KCCB|6.2||1|FM15-METAR|223|ICAO-KCCB|||||||16|Derived||FM15-METAR|223|ICAO-KCCB|||||||||||||||||||||||||||||||||||||||||||||||||||||||||||||||||||||||||1020.0||1|FM15-METAR|223|ICAO-KCCB|||||||||||||||||||||||||||||||||||||||||||MET065METAR KCCB 182235Z AUTO 25005G12KT 10SM CLR 20/M07 A3012 RMK AO2=||F||223|ICAO-KCCB
USI0000KCCB|CABLE|2017|12|18|22|55|34.1115|-117.6876|438.6|19.0||1|FM15-METAR|223|ICAO-KCCB|-7.0||1|FM15-METAR|223|ICAO-KCCB|||||||||||||270|N-Normal|1|FM15-METAR|223|ICAO-KCCB|2.6|N-Normal|1|FM15-METAR|223|ICAO-KCCB|5.7||1|FM15-METAR|223|ICAO-KCCB|||||||17|Derived||FM15-METAR|223|ICAO-KCCB|||||||||||||||||||||||||||||||||||||||||||||||||||||||||||||||||||||||||1020.0||1|FM15-METAR|223|ICAO-KCCB|||||||||||||||||||||||||||||||||||||||||||MET065METAR KCCB 182255Z AUTO 27005G11KT 10SM CLR 19/M07 A3012 RMK AO2=||F||223|ICAO-KCCB
USI0000KCCB|CABLE|2017|12|18|23|15|34.1115|-117.6876|438.6|19.0||1|FM15-METAR|223|ICAO-KCCB|-7.0||1|FM15-METAR|223|ICAO-KCCB|||||||||||||270|N-Normal|1|FM15-METAR|223|ICAO-KCCB|4.1|N-Normal|1|FM15-METAR|223|ICAO-KCCB|||||||||||||17|Derived||FM15-METAR|223|ICAO-KCCB|||||||||||||||||||||||||||||||||||||||||||||||||||||||||||||||||||||||||1019.6||1|FM15-METAR|223|ICAO-KCCB|||||||||||||||||||||||||||||||||||||||||||MET062METAR KCCB 182315Z AUTO 27008KT 10SM CLR 19/M07 A3011 RMK AO2=||F||223|ICAO-KCCB
USI0000KCCB|CABLE|2017|12|18|23|35|34.1115|-117.6876|438.6|19.0||1|FM15-METAR|223|ICAO-KCCB|-7.0||1|FM15-METAR|223|ICAO-KCCB|||||||||||||270|N-Normal|1|FM15-METAR|223|ICAO-KCCB|3.6|N-Normal|1|FM15-METAR|223|ICAO-KCCB|||||||||||||17|Derived||FM15-METAR|223|ICAO-KCCB|||||||||||||||||||||||||||||||||||||||||||||||||||||||||||||||||||||||||1019.6||1|FM15-METAR|223|ICAO-KCCB|||||||||||||||||||||||||||||||||||||||||||MET062METAR KCCB 182335Z AUTO 27007KT 10SM CLR 19/M07 A3011 RMK AO2=||F||223|ICAO-KCCB
USI0000KCCB|CABLE|2017|12|18|23|55|34.1115|-117.6876|438.6|19.0||1|FM15-METAR|223|ICAO-KCCB|-7.0||1|FM15-METAR|223|ICAO-KCCB|||||||||||||260|N-Normal|1|FM15-METAR|223|ICAO-KCCB|4.1|N-Normal|1|FM15-METAR|223|ICAO-KCCB|||||||||||||17|Derived||FM15-METAR|223|ICAO-KCCB|||||||||||||||||||||||||||||||||||||||||||||||||||||||||||||||||||||||||1020.0||1|FM15-METAR|223|ICAO-KCCB|||||||||||||||||||||||||||||||||||||||||||MET062METAR KCCB 182355Z AUTO 26008KT 10SM CLR 19/M07 A3012 RMK AO2=||F||223|ICAO-KCCB
USI0000KCCB|CABLE|2017|12|19|00|15|34.1115|-117.6876|438.6|18.0||1|FM15-METAR|223|ICAO-KCCB|-7.0||1|FM15-METAR|223|ICAO-KCCB|||||||||||||250|N-Normal|1|FM15-METAR|223|ICAO-KCCB|3.1|N-Normal|1|FM15-METAR|223|ICAO-KCCB|||||||||||||18|Derived||FM15-METAR|223|ICAO-KCCB|||||||||||||||||||||||||||||||||||||||||||||||||||||||||||||||||||||||||1020.0||1|FM15-METAR|223|ICAO-KCCB|||||||||||||||||||||||||||||||||||||||||||MET062METAR KCCB 190015Z AUTO 25006KT 10SM CLR 18/M07 A3012 RMK AO2=||F||223|ICAO-KCCB
USI0000KCCB|CABLE|2017|12|19|00|35|34.1115|-117.6876|438.6|18.0||1|FM15-METAR|223|ICAO-KCCB|-6.0||1|FM15-METAR|223|ICAO-KCCB|||||||||||||260|N-Normal|1|FM15-METAR|223|ICAO-KCCB|2.6|N-Normal|1|FM15-METAR|223|ICAO-KCCB|||||||||||||19|Derived||FM15-METAR|223|ICAO-KCCB|||||||||||||||||||||||||||||||||||||||||||||||||||||||||||||||||||||||||1020.0||1|FM15-METAR|223|ICAO-KCCB|||||||||||||||||||||||||||||||||||||||||||MET062METAR KCCB 190035Z AUTO 26005KT 10SM CLR 18/M06 A3012 RMK AO2=||F||223|ICAO-KCCB
USI0000KCCB|CABLE|2017|12|19|00|55|34.1115|-117.6876|438.6|18.0||1|FM15-METAR|223|ICAO-KCCB|-6.0||1|FM15-METAR|223|ICAO-KCCB|||||||||||||270|N-Normal|1|FM15-METAR|223|ICAO-KCCB|2.6|N-Normal|1|FM15-METAR|223|ICAO-KCCB|||||||||||||19|Derived||FM15-METAR|223|ICAO-KCCB|||||||||||||||||||||||||||||||||||||||||||||||||||||||||||||||||||||||||1020.3||1|FM15-METAR|223|ICAO-KCCB|||||||||||||||||||||||||||||||||||||||||||MET062METAR KCCB 190055Z AUTO 27005KT 10SM CLR 18/M06 A3013 RMK AO2=||F||223|ICAO-KCCB
USI0000KCCB|CABLE|2017|12|19|01|15|34.1115|-117.6876|438.6|17.0||1|FM15-METAR|223|ICAO-KCCB|-6.0||1|FM15-METAR|223|ICAO-KCCB|||||||||||||270|N-Normal|1|FM15-METAR|223|ICAO-KCCB|1.5|N-Normal|1|FM15-METAR|223|ICAO-KCCB|||||||||||||20|Derived||FM15-METAR|223|ICAO-KCCB|||||||||||||||||||||||||||||||||||||||||||||||||||||||||||||||||||||||||1020.3||1|FM15-METAR|223|ICAO-KCCB|||||||||||||||||||||||||||||||||||||||||||MET062METAR KCCB 190115Z AUTO 27003KT 10SM CLR 17/M06 A3013 RMK AO2=||F||223|ICAO-KCCB
USI0000KCCB|CABLE|2017|12|19|01|35|34.1115|-117.6876|438.6|16.0||1|FM15-METAR|223|ICAO-KCCB|-5.0||1|FM15-METAR|223|ICAO-KCCB|||||||||||||280|N-Normal|1|FM15-METAR|223|ICAO-KCCB|3.6|N-Normal|1|FM15-METAR|223|ICAO-KCCB|||||||||||||23|Derived||FM15-METAR|223|ICAO-KCCB|||||||||||||||||||||||||||||||||||||||||||||||||||||||||||||||||||||||||1020.7||1|FM15-METAR|223|ICAO-KCCB|||||||||||||||||||||||||||||||||||||||||||MET062METAR KCCB 190135Z AUTO 28007KT 10SM CLR 16/M05 A3014 RMK AO2=||F||223|ICAO-KCCB
USI0000KCCB|CABLE|2017|12|19|01|55|34.1115|-117.6876|438.6|16.0||1|FM15-METAR|223|ICAO-KCCB|-5.0||1|FM15-METAR|223|ICAO-KCCB|||||||||||||280|N-Normal|1|FM15-METAR|223|ICAO-KCCB|2.6|N-Normal|1|FM15-METAR|223|ICAO-KCCB|||||||||||||23|Derived||FM15-METAR|223|ICAO-KCCB|||||||||||||||||||||||||||||||||||||||||||||||||||||||||||||||||||||||||1020.7||1|FM15-METAR|223|ICAO-KCCB|||||||||||||||||||||||||||||||||||||||||||MET062METAR KCCB 190155Z AUTO 28005KT 10SM CLR 16/M05 A3014 RMK AO2=||F||223|ICAO-KCCB
USI0000KCCB|CABLE|2017|12|19|02|15|34.1115|-117.6876|438.6|15.0||1|FM15-METAR|223|ICAO-KCCB|-5.0||1|FM15-METAR|223|ICAO-KCCB|||||||||||||280|N-Normal|1|FM15-METAR|223|ICAO-KCCB|2.6|N-Normal|1|FM15-METAR|223|ICAO-KCCB|||||||||||||25|Derived||FM15-METAR|223|ICAO-KCCB|||||||||||||||||||||||||||||||||||||||||||||||||||||||||||||||||||||||||1021.0||1|FM15-METAR|223|ICAO-KCCB|||||||||||||||||||||||||||||||||||||||||||MET062METAR KCCB 190215Z AUTO 28005KT 10SM CLR 15/M05 A3015 RMK AO2=||F||223|ICAO-KCCB
USI0000KCCB|CABLE|2017|12|19|02|35|34.1115|-117.6876|438.6|15.0||1|FM15-METAR|223|ICAO-KCCB|-5.0||1|FM15-METAR|223|ICAO-KCCB|||||||||||||300|N-Normal|1|FM15-METAR|223|ICAO-KCCB|2.1|N-Normal|1|FM15-METAR|223|ICAO-KCCB|||||||||||||25|Derived||FM15-METAR|223|ICAO-KCCB|||||||||||||||||||||||||||||||||||||||||||||||||||||||||||||||||||||||||1021.0||1|FM15-METAR|223|ICAO-KCCB|||||||||||||||||||||||||||||||||||||||||||MET062METAR KCCB 190235Z AUTO 30004KT 10SM CLR 15/M05 A3015 RMK AO2=||F||223|ICAO-KCCB
USI0000KCCB|CABLE|2017|12|19|02|55|34.1115|-117.6876|438.6|14.0||1|FM15-METAR|223|ICAO-KCCB|-6.0||1|FM15-METAR|223|ICAO-KCCB|||||||||||||320|N-Normal|1|FM15-METAR|223|ICAO-KCCB|3.1|N-Normal|1|FM15-METAR|223|ICAO-KCCB|||||||||||||25|Derived||FM15-METAR|223|ICAO-KCCB|||||||||||||||||||||||||||||||||||||||||||||||||||||||||||||||||||||||||1021.0||1|FM15-METAR|223|ICAO-KCCB|||||||||||||||||||||||||||||||||||||||||||MET062METAR KCCB 190255Z AUTO 32006KT 10SM CLR 14/M06 A3015 RMK AO2=||F||223|ICAO-KCCB
USI0000KCCB|CABLE|2017|12|19|03|15|34.1115|-117.6876|438.6|14.0||1|FM15-METAR|223|ICAO-KCCB|-6.0||1|FM15-METAR|223|ICAO-KCCB|||||||||||||330|N-Normal|1|FM15-METAR|223|ICAO-KCCB|2.6|N-Normal|1|FM15-METAR|223|ICAO-KCCB|||||||||||||25|Derived||FM15-METAR|223|ICAO-KCCB|||||||||||||||||||||||||||||||||||||||||||||||||||||||||||||||||||||||||1021.0||1|FM15-METAR|223|ICAO-KCCB|||||||||||||||||||||||||||||||||||||||||||MET062METAR KCCB 190315Z AUTO 33005KT 10SM CLR 14/M06 A3015 RMK AO2=||F||223|ICAO-KCCB
USI0000KCCB|CABLE|2017|12|19|03|35|34.1115|-117.6876|438.6|14.0||1|FM15-METAR|223|ICAO-KCCB|-6.0||1|FM15-METAR|223|ICAO-KCCB|||||||||||||350|N-Normal|1|FM15-METAR|223|ICAO-KCCB|1.5|N-Normal|1|FM15-METAR|223|ICAO-KCCB|||||||||||||25|Derived||FM15-METAR|223|ICAO-KCCB|||||||||||||||||||||||||||||||||||||||||||||||||||||||||||||||||||||||||1021.0||1|FM15-METAR|223|ICAO-KCCB|||||||||||||||||||||||||||||||||||||||||||MET062METAR KCCB 190335Z AUTO 35003KT 10SM CLR 14/M06 A3015 RMK AO2=||F||223|ICAO-KCCB
USI0000KCCB|CABLE|2017|12|19|03|55|34.1115|-117.6876|438.6|14.0||1|FM15-METAR|223|ICAO-KCCB|-6.0||1|FM15-METAR|223|ICAO-KCCB|||||||||||||340|N-Normal|1|FM15-METAR|223|ICAO-KCCB|1.5|N-Normal|1|FM15-METAR|223|ICAO-KCCB|||||||||||||25|Derived||FM15-METAR|223|ICAO-KCCB|||||||||||||||||||||||||||||||||||||||||||||||||||||||||||||||||||||||||1021.0||1|FM15-METAR|223|ICAO-KCCB|||||||||||||||||||||||||||||||||||||||||||MET062METAR KCCB 190355Z AUTO 34003KT 10SM CLR 14/M06 A3015 RMK AO2=||F||223|ICAO-KCCB
USI0000KCCB|CABLE|2017|12|19|04|15|34.1115|-117.6876|438.6|14.0||1|FM15-METAR|223|ICAO-KCCB|-6.0||1|FM15-METAR|223|ICAO-KCCB|||||||||||||999|C-Calm|9|FM15-METAR|223|ICAO-KCCB|0.0|C-Calm|1|FM15-METAR|223|ICAO-KCCB|||||||||||||25|Derived||FM15-METAR|223|ICAO-KCCB|||||||||||||||||||||||||||||||||||||||||||||||||||||||||||||||||||||||||1021.0||1|FM15-METAR|223|ICAO-KCCB|||||||||||||||||||||||||||||||||||||||||||MET062METAR KCCB 190415Z AUTO 00000KT 10SM CLR 14/M06 A3015 RMK AO2=||F||223|ICAO-KCCB
USI0000KCCB|CABLE|2017|12|19|04|35|34.1115|-117.6876|438.6|14.0||1|FM15-METAR|223|ICAO-KCCB|-6.0||1|FM15-METAR|223|ICAO-KCCB|||||||||||||350|N-Normal|1|FM15-METAR|223|ICAO-KCCB|2.6|N-Normal|1|FM15-METAR|223|ICAO-KCCB|||||||||||||25|Derived||FM15-METAR|223|ICAO-KCCB|||||||||||||||||||||||||||||||||||||||||||||||||||||||||||||||||||||||||1021.3||1|FM15-METAR|223|ICAO-KCCB|||||||||||||||||||||||||||||||||||||||||||MET062METAR KCCB 190435Z AUTO 35005KT 10SM CLR 14/M06 A3016 RMK AO2=||F||223|ICAO-KCCB
USI0000KCCB|CABLE|2017|12|19|04|55|34.1115|-117.6876|438.6|13.0||1|FM15-METAR|223|ICAO-KCCB|-6.0||1|FM15-METAR|223|ICAO-KCCB|||||||||||||350|N-Normal|1|FM15-METAR|223|ICAO-KCCB|2.6|N-Normal|1|FM15-METAR|223|ICAO-KCCB|||||||||||||26|Derived||FM15-METAR|223|ICAO-KCCB|||||||||||||||||||||||||||||||||||||||||||||||||||||||||||||||||||||||||1021.3||1|FM15-METAR|223|ICAO-KCCB|||||||||||||||||||||||||||||||||||||||||||MET062METAR KCCB 190455Z AUTO 35005KT 10SM CLR 13/M06 A3016 RMK AO2=||F||223|ICAO-KCCB
USI0000KCCB|CABLE|2017|12|19|05|15|34.1115|-117.6876|438.6|14.0||1|FM15-METAR|223|ICAO-KCCB|-7.0||1|FM15-METAR|223|ICAO-KCCB|||||||||||||360|N-Normal|1|FM15-METAR|223|ICAO-KCCB|2.6|N-Normal|1|FM15-METAR|223|ICAO-KCCB|||||||||||||23|Derived||FM15-METAR|223|ICAO-KCCB|||||||||||||||||||||||||||||||||||||||||||||||||||||||||||||||||||||||||1021.3||1|FM15-METAR|223|ICAO-KCCB|||||||||||||||||||||||||||||||||||||||||||MET062METAR KCCB 190515Z AUTO 36005KT 10SM CLR 14/M07 A3016 RMK AO2=||F||223|ICAO-KCCB
USI0000KCCB|CABLE|2017|12|19|05|35|34.1115|-117.6876|438.6|14.0||1|FM15-METAR|223|ICAO-KCCB|-7.0||1|FM15-METAR|223|ICAO-KCCB|||||||||||||350|N-Normal|1|FM15-METAR|223|ICAO-KCCB|2.1|N-Normal|1|FM15-METAR|223|ICAO-KCCB|||||||||||||23|Derived||FM15-METAR|223|ICAO-KCCB|||||||||||||||||||||||||||||||||||||||||||||||||||||||||||||||||||||||||1021.3||1|FM15-METAR|223|ICAO-KCCB|||||||||||||||||||||||||||||||||||||||||||MET062METAR KCCB 190535Z AUTO 35004KT 10SM CLR 14/M07 A3016 RMK AO2=||F||223|ICAO-KCCB
USI0000KCCB|CABLE|2017|12|19|05|55|34.1115|-117.6876|438.6|15.0||1|FM15-METAR|223|ICAO-KCCB|-7.0||1|FM15-METAR|223|ICAO-KCCB|||||||||||||360|N-Normal|1|FM15-METAR|223|ICAO-KCCB|2.1|N-Normal|1|FM15-METAR|223|ICAO-KCCB|||||||||||||21|Derived||FM15-METAR|223|ICAO-KCCB|||||||||||||||||||||||||||||||||||||||||||||||||||||||||||||||||||||||||1021.3||1|FM15-METAR|223|ICAO-KCCB|||||||||||||||||||||||||||||||||||||||||||MET062METAR KCCB 190555Z AUTO 36004KT 10SM CLR 15/M07 A3016 RMK AO2=||F||223|ICAO-KCCB
USI0000KCCB|CABLE|2017|12|19|06|15|34.1115|-117.6876|438.6|14.0||1|FM15-METAR|223|ICAO-KCCB|-7.0||1|FM15-METAR|223|ICAO-KCCB|||||||||||||040|N-Normal|1|FM15-METAR|223|ICAO-KCCB|1.5|N-Normal|1|FM15-METAR|223|ICAO-KCCB|||||||||||||23|Derived||FM15-METAR|223|ICAO-KCCB|||||||||||||||||||||||||||||||||||||||||||||||||||||||||||||||||||||||||1021.7||1|FM15-METAR|223|ICAO-KCCB|||||||||||||||||||||||||||||||||||||||||||MET062METAR KCCB 190615Z AUTO 04003KT 10SM CLR 14/M07 A3017 RMK AO2=||F||223|ICAO-KCCB
USI0000KCCB|CABLE|2017|12|19|06|35|34.1115|-117.6876|438.6|13.0||1|FM15-METAR|223|ICAO-KCCB|-6.0||1|FM15-METAR|223|ICAO-KCCB|||||||||||||080|N-Normal|1|FM15-METAR|223|ICAO-KCCB|2.1|N-Normal|1|FM15-METAR|223|ICAO-KCCB|||||||||||||26|Derived||FM15-METAR|223|ICAO-KCCB|||||||||||||||||||||||||||||||||||||||||||||||||||||||||||||||||||||||||1021.7||1|FM15-METAR|223|ICAO-KCCB|||||||||||||||||||||||||||||||||||||||||||MET062METAR KCCB 190635Z AUTO 08004KT 10SM CLR 13/M06 A3017 RMK AO2=||F||223|ICAO-KCCB
USI0000KCCB|CABLE|2017|12|19|06|55|34.1115|-117.6876|438.6|12.0||1|FM15-METAR|223|ICAO-KCCB|-5.0||1|FM15-METAR|223|ICAO-KCCB|||||||||||||060|N-Normal|1|FM15-METAR|223|ICAO-KCCB|2.6|N-Normal|1|FM15-METAR|223|ICAO-KCCB|||||||||||||30|Derived||FM15-METAR|223|ICAO-KCCB|||||||||||||||||||||||||||||||||||||||||||||||||||||||||||||||||||||||||1021.7||1|FM15-METAR|223|ICAO-KCCB|||||||||||||||||||||||||||||||||||||||||||MET062METAR KCCB 190655Z AUTO 06005KT 10SM CLR 12/M05 A3017 RMK AO2=||F||223|ICAO-KCCB
USI0000KCCB|CABLE|2017|12|19|07|15|34.1115|-117.6876|438.6|12.0||1|FM15-METAR|223|ICAO-KCCB|-5.0||1|FM15-METAR|223|ICAO-KCCB|||||||||||||060|N-Normal|1|FM15-METAR|223|ICAO-KCCB|3.1|N-Normal|1|FM15-METAR|223|ICAO-KCCB|||||||||||||30|Derived||FM15-METAR|223|ICAO-KCCB|||||||||||||||||||||||||||||||||||||||||||||||||||||||||||||||||||||||||1021.7||1|FM15-METAR|223|ICAO-KCCB|||||||||||||||||||||||||||||||||||||||||||MET062METAR KCCB 190715Z AUTO 06006KT 10SM CLR 12/M05 A3017 RMK AO2=||F||223|ICAO-KCCB
USI0000KCCB|CABLE|2017|12|19|07|35|34.1115|-117.6876|438.6|12.0||1|FM15-METAR|223|ICAO-KCCB|-5.0||1|FM15-METAR|223|ICAO-KCCB|||||||||||||060|N-Normal|1|FM15-METAR|223|ICAO-KCCB|2.6|N-Normal|1|FM15-METAR|223|ICAO-KCCB|||||||||||||30|Derived||FM15-METAR|223|ICAO-KCCB|||||||||||||||||||||||||||||||||||||||||||||||||||||||||||||||||||||||||1021.7||1|FM15-METAR|223|ICAO-KCCB|||||||||||||||||||||||||||||||||||||||||||MET062METAR KCCB 190735Z AUTO 06005KT 10SM CLR 12/M05 A3017 RMK AO2=||F||223|ICAO-KCCB
USI0000KCCB|CABLE|2017|12|19|07|55|34.1115|-117.6876|438.6|12.0||1|FM15-METAR|223|ICAO-KCCB|-6.0||1|FM15-METAR|223|ICAO-KCCB|||||||||||||070|N-Normal|1|FM15-METAR|223|ICAO-KCCB|2.6|N-Normal|1|FM15-METAR|223|ICAO-KCCB|||||||||||||28|Derived||FM15-METAR|223|ICAO-KCCB|||||||||||||||||||||||||||||||||||||||||||||||||||||||||||||||||||||||||1021.7||1|FM15-METAR|223|ICAO-KCCB|||||||||||||||||||||||||||||||||||||||||||MET062METAR KCCB 190755Z AUTO 07005KT 10SM CLR 12/M06 A3017 RMK AO2=||F||223|ICAO-KCCB
USI0000KCCB|CABLE|2017|12|19|08|15|34.1115|-117.6876|438.6|12.0||1|FM15-METAR|223|ICAO-KCCB|-5.0||1|FM15-METAR|223|ICAO-KCCB|||||||||||||060|N-Normal|1|FM15-METAR|223|ICAO-KCCB|2.1|N-Normal|1|FM15-METAR|223|ICAO-KCCB|||||||||||||30|Derived||FM15-METAR|223|ICAO-KCCB|||||||||||||||||||||||||||||||||||||||||||||||||||||||||||||||||||||||||1021.3||1|FM15-METAR|223|ICAO-KCCB|||||||||||||||||||||||||||||||||||||||||||MET062METAR KCCB 190815Z AUTO 06004KT 10SM CLR 12/M05 A3016 RMK AO2=||F||223|ICAO-KCCB
USI0000KCCB|CABLE|2017|12|19|08|35|34.1115|-117.6876|438.6|11.0||1|FM15-METAR|223|ICAO-KCCB|-5.0||1|FM15-METAR|223|ICAO-KCCB|||||||||||||060|N-Normal|1|FM15-METAR|223|ICAO-KCCB|2.1|N-Normal|1|FM15-METAR|223|ICAO-KCCB|||||||||||||32|Derived||FM15-METAR|223|ICAO-KCCB|||||||||||||||||||||||||||||||||||||||||||||||||||||||||||||||||||||||||1021.3||1|FM15-METAR|223|ICAO-KCCB|||||||||||||||||||||||||||||||||||||||||||MET062METAR KCCB 190835Z AUTO 06004KT 10SM CLR 11/M05 A3016 RMK AO2=||F||223|ICAO-KCCB
USI0000KCCB|CABLE|2017|12|19|08|55|34.1115|-117.6876|438.6|12.0||1|FM15-METAR|223|ICAO-KCCB|-6.0||1|FM15-METAR|223|ICAO-KCCB|||||||||||||050|N-Normal|1|FM15-METAR|223|ICAO-KCCB|1.5|N-Normal|1|FM15-METAR|223|ICAO-KCCB|||||||||||||28|Derived||FM15-METAR|223|ICAO-KCCB|||||||||||||||||||||||||||||||||||||||||||||||||||||||||||||||||||||||||1021.3||1|FM15-METAR|223|ICAO-KCCB|||||||||||||||||||||||||||||||||||||||||||MET062METAR KCCB 190855Z AUTO 05003KT 10SM CLR 12/M06 A3016 RMK AO2=||F||223|ICAO-KCCB
USI0000KCCB|CABLE|2017|12|19|09|15|34.1115|-117.6876|438.6|11.0||1|FM15-METAR|223|ICAO-KCCB|-5.0||1|FM15-METAR|223|ICAO-KCCB|||||||||||||060|N-Normal|1|FM15-METAR|223|ICAO-KCCB|1.5|N-Normal|1|FM15-METAR|223|ICAO-KCCB|||||||||||||32|Derived||FM15-METAR|223|ICAO-KCCB|||||||||||||||||||||||||||||||||||||||||||||||||||||||||||||||||||||||||1021.3||1|FM15-METAR|223|ICAO-KCCB|||||||||||||||||||||||||||||||||||||||||||MET062METAR KCCB 190915Z AUTO 06003KT 10SM CLR 11/M05 A3016 RMK AO2=||F||223|ICAO-KCCB
USI0000KCCB|CABLE|2017|12|19|09|35|34.1115|-117.6876|438.6|12.0||1|FM15-METAR|223|ICAO-KCCB|-5.0||1|FM15-METAR|223|ICAO-KCCB|||||||||||||060|N-Normal|1|FM15-METAR|223|ICAO-KCCB|2.6|N-Normal|1|FM15-METAR|223|ICAO-KCCB|||||||||||||30|Derived||FM15-METAR|223|ICAO-KCCB|||||||||||||||||||||||||||||||||||||||||||||||||||||||||||||||||||||||||1021.3||1|FM15-METAR|223|ICAO-KCCB|||||||||||||||||||||||||||||||||||||||||||MET062METAR KCCB 190935Z AUTO 06005KT 10SM CLR 12/M05 A3016 RMK AO2=||F||223|ICAO-KCCB
USI0000KCCB|CABLE|2017|12|19|16|55|34.1115|-117.6876|438.6|14.0||1|FM15-METAR|223|ICAO-KCCB|-5.0||1|FM15-METAR|223|ICAO-KCCB|||||||||||||999|C-Calm|9|FM15-METAR|223|ICAO-KCCB|0.0|C-Calm|1|FM15-METAR|223|ICAO-KCCB|||||||||||||27|Derived||FM15-METAR|223|ICAO-KCCB|||||||||||||||||||||||||||||||||||||||||||||||||||||||||||||||||||||||||1023.7||1|FM15-METAR|223|ICAO-KCCB|||||||||||||||||||||||||||||||||||||||||||MET062METAR KCCB 191655Z AUTO 00000KT 10SM CLR 14/M05 A3023 RMK AO2=||F||223|ICAO-KCCB
USI0000KCCB|CABLE|2017|12|19|17|15|34.1115|-117.6876|438.6|15.0||1|FM15-METAR|223|ICAO-KCCB|-5.0||1|FM15-METAR|223|ICAO-KCCB|||||||||||||180|N-Normal|1|FM15-METAR|223|ICAO-KCCB|2.1|N-Normal|1|FM15-METAR|223|ICAO-KCCB|||||||||||||25|Derived||FM15-METAR|223|ICAO-KCCB|||||||||||||||||||||||||||||||||||||||||||||||||||||||||||||||||||||||||1024.0||1|FM15-METAR|223|ICAO-KCCB|||||||||||||||||||||||||||||||||||||||||||MET062METAR KCCB 191715Z AUTO 18004KT 10SM CLR 15/M05 A3024 RMK AO2=||F||223|ICAO-KCCB
USI0000KCCB|CABLE|2017|12|19|17|35|34.1115|-117.6876|438.6|15.0||1|FM15-METAR|223|ICAO-KCCB|-6.0||1|FM15-METAR|223|ICAO-KCCB|||||||||||||999|C-Calm|9|FM15-METAR|223|ICAO-KCCB|0.0|C-Calm|1|FM15-METAR|223|ICAO-KCCB|||||||||||||23|Derived||FM15-METAR|223|ICAO-KCCB|||||||||||||||||||||||||||||||||||||||||||||||||||||||||||||||||||||||||1024.0||1|FM15-METAR|223|ICAO-KCCB|||||||||||||||||||||||||||||||||||||||||||MET062METAR KCCB 191735Z AUTO 00000KT 10SM CLR 15/M06 A3024 RMK AO2=||F||223|ICAO-KCCB
USI0000KCCB|CABLE|2017|12|19|17|55|34.1115|-117.6876|438.6|15.0||1|FM15-METAR|223|ICAO-KCCB|-6.0||1|FM15-METAR|223|ICAO-KCCB|||||||||||||999|C-Calm|9|FM15-METAR|223|ICAO-KCCB|0.0|C-Calm|1|FM15-METAR|223|ICAO-KCCB|||||||||||||23|Derived||FM15-METAR|223|ICAO-KCCB|||||||||||||||||||||||||||||||||||||||||||||||||||||||||||||||||||||||||1024.0||1|FM15-METAR|223|ICAO-KCCB|||||||||||||||||||||||||||||||||||||||||||MET062METAR KCCB 191755Z AUTO 00000KT 10SM CLR 15/M06 A3024 RMK AO2=||F||223|ICAO-KCCB
USI0000KCCB|CABLE|2017|12|19|18|15|34.1115|-117.6876|438.6|16.0||1|FM15-METAR|223|ICAO-KCCB|-6.0||1|FM15-METAR|223|ICAO-KCCB|||||||||||||999|C-Calm|9|FM15-METAR|223|ICAO-KCCB|0.0|C-Calm|1|FM15-METAR|223|ICAO-KCCB|||||||||||||22|Derived||FM15-METAR|223|ICAO-KCCB|||||||||||||||||||||||||||||||||||||||||||||||||||||||||||||||||||||||||1023.7||1|FM15-METAR|223|ICAO-KCCB|||||||||||||||||||||||||||||||||||||||||||MET062METAR KCCB 191815Z AUTO 00000KT 10SM CLR 16/M06 A3023 RMK AO2=||F||223|ICAO-KCCB
USI0000KCCB|CABLE|2017|12|19|18|35|34.1115|-117.6876|438.6|16.0||1|FM15-METAR|223|ICAO-KCCB|-6.0||1|FM15-METAR|223|ICAO-KCCB|||||||||||||170|N-Normal|1|FM15-METAR|223|ICAO-KCCB|1.5|N-Normal|1|FM15-METAR|223|ICAO-KCCB|||||||||||||22|Derived||FM15-METAR|223|ICAO-KCCB|||||||||||||||||||||||||||||||||||||||||||||||||||||||||||||||||||||||||1023.7||1|FM15-METAR|223|ICAO-KCCB|||||||||||||||||||||||||||||||||||||||||||MET062METAR KCCB 191835Z AUTO 17003KT 10SM CLR 16/M06 A3023 RMK AO2=||F||223|ICAO-KCCB
USI0000KCCB|CABLE|2017|12|19|18|55|34.1115|-117.6876|438.6|17.0||1|FM15-METAR|223|ICAO-KCCB|-6.0||1|FM15-METAR|223|ICAO-KCCB|||||||||||||999|C-Calm|9|FM15-METAR|223|ICAO-KCCB|0.0|C-Calm|1|FM15-METAR|223|ICAO-KCCB|||||||||||||20|Derived||FM15-METAR|223|ICAO-KCCB|||||||||||||||||||||||||||||||||||||||||||||||||||||||||||||||||||||||||1023.7||1|FM15-METAR|223|ICAO-KCCB|||||||||||||||||||||||||||||||||||||||||||MET062METAR KCCB 191855Z AUTO 00000KT 10SM CLR 17/M06 A3023 RMK AO2=||F||223|ICAO-KCCB
USI0000KCCB|CABLE|2017|12|19|19|15|34.1115|-117.6876|438.6|16.0||1|FM15-METAR|223|ICAO-KCCB|-6.0||1|FM15-METAR|223|ICAO-KCCB|||||||||||||999|C-Calm|9|FM15-METAR|223|ICAO-KCCB|0.0|C-Calm|1|FM15-METAR|223|ICAO-KCCB|||||||||||||22|Derived||FM15-METAR|223|ICAO-KCCB|||||||||||||||||||||||||||||||||||||||||||||||||||||||||||||||||||||||||1023.4||1|FM15-METAR|223|ICAO-KCCB|||||||||||||||||||||||||||||||||||||||||||MET062METAR KCCB 191915Z AUTO 00000KT 10SM CLR 16/M06 A3022 RMK AO2=||F||223|ICAO-KCCB
USI0000KCCB|CABLE|2017|12|19|19|35|34.1115|-117.6876|438.6|17.0||1|FM15-METAR|223|ICAO-KCCB|-6.0||1|FM15-METAR|223|ICAO-KCCB|||||||||||||240|N-Normal|1|FM15-METAR|223|ICAO-KCCB|2.1|N-Normal|1|FM15-METAR|223|ICAO-KCCB|||||||||||||20|Derived||FM15-METAR|223|ICAO-KCCB|||||||||||||||||||||||||||||||||||||||||||||||||||||||||||||||||||||||||1023.0||1|FM15-METAR|223|ICAO-KCCB|||||||||||||||||||||||||||||||||||||||||||MET062METAR KCCB 191935Z AUTO 24004KT 10SM CLR 17/M06 A3021 RMK AO2=||F||223|ICAO-KCCB
USI0000KCCB|CABLE|2017|12|19|19|55|34.1115|-117.6876|438.6|17.0||1|FM15-METAR|223|ICAO-KCCB|-6.0||1|FM15-METAR|223|ICAO-KCCB|||||||||||||999|V-Variable|9|FM15-METAR|223|ICAO-KCCB|1.5|V-Variable|1|FM15-METAR|223|ICAO-KCCB|||||||||||||20|Derived||FM15-METAR|223|ICAO-KCCB|||||||||||||||||||||||||||||||||||||||||||||||||||||||||||||||||||||||||1022.7||1|FM15-METAR|223|ICAO-KCCB|||||||||||||||||||||||||||||||||||||||||||MET062METAR KCCB 191955Z AUTO VRB03KT 10SM CLR 17/M06 A3020 RMK AO2=||F||223|ICAO-KCCB
USI0000KCCB|CABLE|2017|12|19|20|15|34.1115|-117.6876|438.6|18.0||1|FM15-METAR|223|ICAO-KCCB|-7.0||1|FM15-METAR|223|ICAO-KCCB|||||||||||||220|N-Normal|1|FM15-METAR|223|ICAO-KCCB|2.1|N-Normal|1|FM15-METAR|223|ICAO-KCCB|||||||||||||18|Derived||FM15-METAR|223|ICAO-KCCB|||||||||||||||||||||||||||||||||||||||||||||||||||||||||||||||||||||||||1022.3||1|FM15-METAR|223|ICAO-KCCB|||||||||||||||||||||||||||||||||||||||||||MET062METAR KCCB 192015Z AUTO 22004KT 10SM CLR 18/M07 A3019 RMK AO2=||F||223|ICAO-KCCB
USI0000KCCB|CABLE|2017|12|19|20|35|34.1115|-117.6876|438.6|18.0||1|FM15-METAR|223|ICAO-KCCB|-7.0||1|FM15-METAR|223|ICAO-KCCB|||||||||||||230|N-Normal|1|FM15-METAR|223|ICAO-KCCB|2.1|N-Normal|1|FM15-METAR|223|ICAO-KCCB|||||||||||||18|Derived||FM15-METAR|223|ICAO-KCCB|||||||||||||||||||||||||||||||||||||||||||||||||||||||||||||||||||||||||1022.0||1|FM15-METAR|223|ICAO-KCCB|||||||||||||||||||||||||||||||||||||||||||MET062METAR KCCB 192035Z AUTO 23004KT 10SM CLR 18/M07 A3018 RMK AO2=||F||223|ICAO-KCCB
USI0000KCCB|CABLE|2017|12|19|20|55|34.1115|-117.6876|438.6|18.0||1|FM15-METAR|223|ICAO-KCCB|-7.0||1|FM15-METAR|223|ICAO-KCCB|||||||||||||230|N-Normal|1|FM15-METAR|223|ICAO-KCCB|1.5|N-Normal|1|FM15-METAR|223|ICAO-KCCB|||||||||||||18|Derived||FM15-METAR|223|ICAO-KCCB|||||||||||||||||||||||||||||||||||||||||||||||||||||||||||||||||||||||||1022.0||1|FM15-METAR|223|ICAO-KCCB|||||||||||||||||||||||||||||||||||||||||||MET062METAR KCCB 192055Z AUTO 23003KT 10SM CLR 18/M07 A3018 RMK AO2=||F||223|ICAO-KCCB
USI0000KCCB|CABLE|2017|12|19|21|15|34.1115|-117.6876|438.6|18.0||1|FM15-METAR|223|ICAO-KCCB|-7.0||1|FM15-METAR|223|ICAO-KCCB|||||||||||||999|C-Calm|9|FM15-METAR|223|ICAO-KCCB|0.0|C-Calm|1|FM15-METAR|223|ICAO-KCCB|||||||||||||18|Derived||FM15-METAR|223|ICAO-KCCB|||||||||||||||||||||||||||||||||||||||||||||||||||||||||||||||||||||||||1021.7||1|FM15-METAR|223|ICAO-KCCB|||||||||||||||||||||||||||||||||||||||||||MET062METAR KCCB 192115Z AUTO 00000KT 10SM CLR 18/M07 A3017 RMK AO2=||F||223|ICAO-KCCB
USI0000KCCB|CABLE|2017|12|19|21|35|34.1115|-117.6876|438.6|19.0||1|FM15-METAR|223|ICAO-KCCB|-6.0||1|FM15-METAR|223|ICAO-KCCB|||||||||||||250|N-Normal|1|FM15-METAR|223|ICAO-KCCB|2.1|N-Normal|1|FM15-METAR|223|ICAO-KCCB|||||||||||||18|Derived||FM15-METAR|223|ICAO-KCCB|||||||||||||||||||||||||||||||||||||||||||||||||||||||||||||||||||||||||1021.3||1|FM15-METAR|223|ICAO-KCCB|||||||||||||||||||||||||||||||||||||||||||MET062METAR KCCB 192135Z AUTO 25004KT 10SM CLR 19/M06 A3016 RMK AO2=||F||223|ICAO-KCCB
USI0000KCCB|CABLE|2017|12|19|21|55|34.1115|-117.6876|438.6|19.0||1|FM15-METAR|223|ICAO-KCCB|-5.0||1|FM15-METAR|223|ICAO-KCCB|||||||||||||220|N-Normal|1|FM15-METAR|223|ICAO-KCCB|2.6|N-Normal|1|FM15-METAR|223|ICAO-KCCB|||||||||||||19|Derived||FM15-METAR|223|ICAO-KCCB|||||||||||||||||||||||||||||||||||||||||||||||||||||||||||||||||||||||||1021.0||1|FM15-METAR|223|ICAO-KCCB|||||||||||||||||||||||||||||||||||||||||||MET062METAR KCCB 192155Z AUTO 22005KT 10SM CLR 19/M05 A3015 RMK AO2=||F||223|ICAO-KCCB
USI0000KCCB|CABLE|2017|12|19|22|15|34.1115|-117.6876|438.6|19.0||1|FM15-METAR|223|ICAO-KCCB|-6.0||1|FM15-METAR|223|ICAO-KCCB|||||||||||||999|V-Variable|9|FM15-METAR|223|ICAO-KCCB|3.1|V-Variable|1|FM15-METAR|223|ICAO-KCCB|||||||||||||18|Derived||FM15-METAR|223|ICAO-KCCB|||||||||||||||||||||||||||||||||||||||||||||||||||||||||||||||||||||||||1021.0||1|FM15-METAR|223|ICAO-KCCB|||||||||||||||||||||||||||||||||||||||||||MET062METAR KCCB 192215Z AUTO VRB06KT 10SM CLR 19/M06 A3015 RMK AO2=||F||223|ICAO-KCCB
USI0000KCCB|CABLE|2017|12|19|22|35|34.1115|-117.6876|438.6|19.0||1|FM15-METAR|223|ICAO-KCCB|-5.0||1|FM15-METAR|223|ICAO-KCCB|||||||||||||230|N-Normal|1|FM15-METAR|223|ICAO-KCCB|3.1|N-Normal|1|FM15-METAR|223|ICAO-KCCB|||||||||||||19|Derived||FM15-METAR|223|ICAO-KCCB|||||||||||||||||||||||||||||||||||||||||||||||||||||||||||||||||||||||||1021.0||1|FM15-METAR|223|ICAO-KCCB|||||||||||||||||||||||||||||||||||||||||||MET062METAR KCCB 192235Z AUTO 23006KT 10SM CLR 19/M05 A3015 RMK AO2=||F||223|ICAO-KCCB
USI0000KCCB|CABLE|2017|12|19|22|55|34.1115|-117.6876|438.6|19.0||1|FM15-METAR|223|ICAO-KCCB|-6.0||1|FM15-METAR|223|ICAO-KCCB|||||||||||||999|V-Variable|9|FM15-METAR|223|ICAO-KCCB|2.1|V-Variable|1|FM15-METAR|223|ICAO-KCCB|||||||||||||18|Derived||FM15-METAR|223|ICAO-KCCB|||||||||||||||||||||||||||||||||||||||||||||||||||||||||||||||||||||||||1021.0||1|FM15-METAR|223|ICAO-KCCB|||||||||||||||||||||||||||||||||||||||||||MET062METAR KCCB 192255Z AUTO VRB04KT 10SM CLR 19/M06 A3015 RMK AO2=||F||223|ICAO-KCCB
USI0000KCCB|CABLE|2017|12|19|23|15|34.1115|-117.6876|438.6|19.0||1|FM15-METAR|223|ICAO-KCCB|-5.0||1|FM15-METAR|223|ICAO-KCCB|||||||||||||230|N-Normal|1|FM15-METAR|223|ICAO-KCCB|2.6|N-Normal|1|FM15-METAR|223|ICAO-KCCB|||||||||||||19|Derived||FM15-METAR|223|ICAO-KCCB|||||||||||||||||||||||||||||||||||||||||||||||||||||||||||||||||||||||||1021.0||1|FM15-METAR|223|ICAO-KCCB|||||||||||||||||||||||||||||||||||||||||||MET062METAR KCCB 192315Z AUTO 23005KT 10SM CLR 19/M05 A3015 RMK AO2=||F||223|ICAO-KCCB
USI0000KCCB|CABLE|2017|12|19|23|35|34.1115|-117.6876|438.6|19.0||1|FM15-METAR|223|ICAO-KCCB|-5.0||1|FM15-METAR|223|ICAO-KCCB|||||||||||||240|N-Normal|1|FM15-METAR|223|ICAO-KCCB|2.6|N-Normal|1|FM15-METAR|223|ICAO-KCCB|||||||||||||19|Derived||FM15-METAR|223|ICAO-KCCB|||||||||||||||||||||||||||||||||||||||||||||||||||||||||||||||||||||||||1020.7||1|FM15-METAR|223|ICAO-KCCB|||||||||||||||||||||||||||||||||||||||||||MET062METAR KCCB 192335Z AUTO 24005KT 10SM CLR 19/M05 A3014 RMK AO2=||F||223|ICAO-KCCB
USI0000KCCB|CABLE|2017|12|19|23|55|34.1115|-117.6876|438.6|18.0||1|FM15-METAR|223|ICAO-KCCB|-2.0||1|FM15-METAR|223|ICAO-KCCB|||||||||||||250|N-Normal|1|FM15-METAR|223|ICAO-KCCB|3.1|N-Normal|1|FM15-METAR|223|ICAO-KCCB|||||||||||||26|Derived||FM15-METAR|223|ICAO-KCCB|||||||||||||||||||||||||||||||||||||||||||||||||||||||||||||||||||||||||1020.7||1|FM15-METAR|223|ICAO-KCCB|||||||||||||||||||||||||||||||||||||||||||MET062METAR KCCB 192355Z AUTO 25006KT 10SM CLR 18/M02 A3014 RMK AO2=||F||223|ICAO-KCCB
USI0000KCCB|CABLE|2017|12|20|00|15|34.1115|-117.6876|438.6|18.0||1|FM15-METAR|223|ICAO-KCCB|-1.0||1|FM15-METAR|223|ICAO-KCCB|||||||||||||250|N-Normal|1|FM15-METAR|223|ICAO-KCCB|2.6|N-Normal|1|FM15-METAR|223|ICAO-KCCB|||||||||||||28|Derived||FM15-METAR|223|ICAO-KCCB|||||||||||||||||||||||||||||||||||||||||||||||||||||||||||||||||||||||||1021.0||1|FM15-METAR|223|ICAO-KCCB|||||||||||||||||||||||||||||||||||||||||||MET062METAR KCCB 200015Z AUTO 25005KT 10SM CLR 18/M01 A3015 RMK AO2=||F||223|ICAO-KCCB
USI0000KCCB|CABLE|2017|12|20|00|35|34.1115|-117.6876|438.6|18.0||1|FM15-METAR|223|ICAO-KCCB|0.0||1|FM15-METAR|223|ICAO-KCCB|||||||||||||270|N-Normal|1|FM15-METAR|223|ICAO-KCCB|2.1|N-Normal|1|FM15-METAR|223|ICAO-KCCB|||||||||||||30|Derived||FM15-METAR|223|ICAO-KCCB|||||||||||||||||||||||||||||||||||||||||||||||||||||||||||||||||||||||||1021.0||1|FM15-METAR|223|ICAO-KCCB|||||||||||||||||||||||||||||||||||||||||||MET061METAR KCCB 200035Z AUTO 27004KT 10SM CLR 18/00 A3015 RMK AO2=||F||223|ICAO-KCCB
USI0000KCCB|CABLE|2017|12|20|00|55|34.1115|-117.6876|438.6|17.0||1|FM15-METAR|223|ICAO-KCCB|1.0||1|FM15-METAR|223|ICAO-KCCB|||||||||||||260|N-Normal|1|FM15-METAR|223|ICAO-KCCB|2.6|N-Normal|1|FM15-METAR|223|ICAO-KCCB|||||||||||||34|Derived||FM15-METAR|223|ICAO-KCCB|||||||||||||||||||||||||||||||||||||||||||||||||||||||||||||||||||||||||1021.0||1|FM15-METAR|223|ICAO-KCCB|||||||||||||||||||||||||||||||||||||||||||MET061METAR KCCB 200055Z AUTO 26005KT 10SM CLR 17/01 A3015 RMK AO2=||F||223|ICAO-KCCB
USI0000KCCB|CABLE|2017|12|20|01|15|34.1115|-117.6876|438.6|16.0||1|FM15-METAR|223|ICAO-KCCB|2.0||1|FM15-METAR|223|ICAO-KCCB|||||||||||||270|N-Normal|1|FM15-METAR|223|ICAO-KCCB|2.6|N-Normal|1|FM15-METAR|223|ICAO-KCCB|||||||||||||39|Derived||FM15-METAR|223|ICAO-KCCB|||||||||||||||||||||||||||||||||||||||||||||||||||||||||||||||||||||||||1021.0||1|FM15-METAR|223|ICAO-KCCB|||||||||||||||||||||||||||||||||||||||||||MET061METAR KCCB 200115Z AUTO 27005KT 10SM CLR 16/02 A3015 RMK AO2=||F||223|ICAO-KCCB
USI0000KCCB|CABLE|2017|12|20|01|35|34.1115|-117.6876|438.6|16.0||1|FM15-METAR|223|ICAO-KCCB|2.0||1|FM15-METAR|223|ICAO-KCCB|||||||||||||290|N-Normal|1|FM15-METAR|223|ICAO-KCCB|2.1|N-Normal|1|FM15-METAR|223|ICAO-KCCB|||||||||||||39|Derived||FM15-METAR|223|ICAO-KCCB|||||||||||||||||||||||||||||||||||||||||||||||||||||||||||||||||||||||||1021.3||1|FM15-METAR|223|ICAO-KCCB|||||||||||||||||||||||||||||||||||||||||||MET061METAR KCCB 200135Z AUTO 29004KT 10SM CLR 16/02 A3016 RMK AO2=||F||223|ICAO-KCCB
USI0000KCCB|CABLE|2017|12|20|01|55|34.1115|-117.6876|438.6|15.0||1|FM15-METAR|223|ICAO-KCCB|1.0||1|FM15-METAR|223|ICAO-KCCB|||||||||||||999|C-Calm|9|FM15-METAR|223|ICAO-KCCB|0.0|C-Calm|1|FM15-METAR|223|ICAO-KCCB|||||||||||||39|Derived||FM15-METAR|223|ICAO-KCCB|||||||||||||||||||||||||||||||||||||||||||||||||||||||||||||||||||||||||1021.3||1|FM15-METAR|223|ICAO-KCCB|||||||||||||||||||||||||||||||||||||||||||MET061METAR KCCB 200155Z AUTO 00000KT 10SM CLR 15/01 A3016 RMK AO2=||F||223|ICAO-KCCB
USI0000KCCB|CABLE|2017|12|20|02|15|34.1115|-117.6876|438.6|14.0||1|FM15-METAR|223|ICAO-KCCB|2.0||1|FM15-METAR|223|ICAO-KCCB|||||||||||||310|N-Normal|1|FM15-METAR|223|ICAO-KCCB|1.5|N-Normal|1|FM15-METAR|223|ICAO-KCCB|||||||||||||44|Derived||FM15-METAR|223|ICAO-KCCB|||||||||||||||||||||||||||||||||||||||||||||||||||||||||||||||||||||||||1021.3||1|FM15-METAR|223|ICAO-KCCB|||||||||||||||||||||||||||||||||||||||||||MET061METAR KCCB 200215Z AUTO 31003KT 10SM CLR 14/02 A3016 RMK AO2=||F||223|ICAO-KCCB
USI0000KCCB|CABLE|2017|12|20|02|35|34.1115|-117.6876|438.6|14.0||1|FM15-METAR|223|ICAO-KCCB|2.0||1|FM15-METAR|223|ICAO-KCCB|||||||||||||300|N-Normal|1|FM15-METAR|223|ICAO-KCCB|1.5|N-Normal|1|FM15-METAR|223|ICAO-KCCB|||||||||||||44|Derived||FM15-METAR|223|ICAO-KCCB|||||||||||||||||||||||||||||||||||||||||||||||||||||||||||||||||||||||||1021.3||1|FM15-METAR|223|ICAO-KCCB|||||||||||||||||||||||||||||||||||||||||||MET061METAR KCCB 200235Z AUTO 30003KT 10SM CLR 14/02 A3016 RMK AO2=||F||223|ICAO-KCCB
USI0000KCCB|CABLE|2017|12|20|02|55|34.1115|-117.6876|438.6|14.0||1|FM15-METAR|223|ICAO-KCCB|2.0||1|FM15-METAR|223|ICAO-KCCB|||||||||||||300|N-Normal|1|FM15-METAR|223|ICAO-KCCB|2.1|N-Normal|1|FM15-METAR|223|ICAO-KCCB|||||||||||||44|Derived||FM15-METAR|223|ICAO-KCCB|||||||||||||||||||||||||||||||||||||||||||||||||||||||||||||||||||||||||1021.3||1|FM15-METAR|223|ICAO-KCCB|||||||||||||||||||||||||||||||||||||||||||MET061METAR KCCB 200255Z AUTO 30004KT 10SM CLR 14/02 A3016 RMK AO2=||F||223|ICAO-KCCB
USI0000KCCB|CABLE|2017|12|20|03|15|34.1115|-117.6876|438.6|14.0||1|FM15-METAR|223|ICAO-KCCB|4.0||1|FM15-METAR|223|ICAO-KCCB|||||||||||||290|N-Normal|1|FM15-METAR|223|ICAO-KCCB|2.6|N-Normal|1|FM15-METAR|223|ICAO-KCCB|||||||||||||51|Derived||FM15-METAR|223|ICAO-KCCB|||||||||||||||||||||||||||||||||||||||||||||||||||||||||||||||||||||||||1021.3||1|FM15-METAR|223|ICAO-KCCB|||||||||||||||||||||||||||||||||||||||||||MET061METAR KCCB 200315Z AUTO 29005KT 10SM CLR 14/04 A3016 RMK AO2=||F||223|ICAO-KCCB
USI0000KCCB|CABLE|2017|12|20|03|35|34.1115|-117.6876|438.6|13.0||1|FM15-METAR|223|ICAO-KCCB|4.0||1|FM15-METAR|223|ICAO-KCCB|||||||||||||290|N-Normal|1|FM15-METAR|223|ICAO-KCCB|2.6|N-Normal|1|FM15-METAR|223|ICAO-KCCB|||||||||||||55|Derived||FM15-METAR|223|ICAO-KCCB|||||||||||||||||||||||||||||||||||||||||||||||||||||||||||||||||||||||||1021.3||1|FM15-METAR|223|ICAO-KCCB|||||||||||||||||||||||||||||||||||||||||||MET061METAR KCCB 200335Z AUTO 29005KT 10SM CLR 13/04 A3016 RMK AO2=||F||223|ICAO-KCCB
USI0000KCCB|CABLE|2017|12|20|03|55|34.1115|-117.6876|438.6|13.0||1|FM15-METAR|223|ICAO-KCCB|4.0||1|FM15-METAR|223|ICAO-KCCB|||||||||||||300|N-Normal|1|FM15-METAR|223|ICAO-KCCB|2.6|N-Normal|1|FM15-METAR|223|ICAO-KCCB|||||||||||||55|Derived||FM15-METAR|223|ICAO-KCCB|||||||||||||||||||||||||||||||||||||||||||||||||||||||||||||||||||||||||1021.7||1|FM15-METAR|223|ICAO-KCCB|||||||||||||||||||||||||||||||||||||||||||MET064METAR KCCB 200355Z AUTO 30005KT 10SM FEW060 13/04 A3017 RMK AO2=||F||223|ICAO-KCCB
USI0000KCCB|CABLE|2017|12|20|04|15|34.1115|-117.6876|438.6|13.0||1|FM15-METAR|223|ICAO-KCCB|4.0||1|FM15-METAR|223|ICAO-KCCB|||||||||||||280|N-Normal|1|FM15-METAR|223|ICAO-KCCB|2.6|N-Normal|1|FM15-METAR|223|ICAO-KCCB|||||||||||||55|Derived||FM15-METAR|223|ICAO-KCCB|||||||||||||||||||||||||||||||||||||||||||||||||||||||||||||||||||||||||1021.7||1|FM15-METAR|223|ICAO-KCCB|||||||||||||||||||||||||||||||||||||||||||MET064METAR KCCB 200415Z AUTO 28005KT 10SM BKN060 13/04 A3017 RMK AO2=||F||223|ICAO-KCCB
USI0000KCCB|CABLE|2017|12|20|04|35|34.1115|-117.6876|438.6|12.0||1|FM15-METAR|223|ICAO-KCCB|5.0||1|FM15-METAR|223|ICAO-KCCB|||||||||||||300|N-Normal|1|FM15-METAR|223|ICAO-KCCB|2.1|N-Normal|1|FM15-METAR|223|ICAO-KCCB|||||||||||||63|Derived||FM15-METAR|223|ICAO-KCCB|||||||||||||||||||||||||||||||||||||||||||||||||||||||||||||||||||||||||1021.7||1|FM15-METAR|223|ICAO-KCCB|||||||||||||||||||||||||||||||||||||||||||MET063METAR KCCB 200435Z AUTO 30004KT 9SM SCT060 12/05 A3017 RMK AO2=||F||223|ICAO-KCCB
USI0000KCCB|CABLE|2017|12|20|04|55|34.1115|-117.6876|438.6|12.0||1|FM15-METAR|223|ICAO-KCCB|5.0||1|FM15-METAR|223|ICAO-KCCB|||||||||||||290|N-Normal|1|FM15-METAR|223|ICAO-KCCB|1.5|N-Normal|1|FM15-METAR|223|ICAO-KCCB|||||||||||||63|Derived||FM15-METAR|223|ICAO-KCCB|||||||||||||||||||||||||||||||||||||||||||||||||||||||||||||||||||||||||1022.0||1|FM15-METAR|223|ICAO-KCCB|||||||||||||||||||||||||||||||||||||||||||MET064METAR KCCB 200455Z AUTO 29003KT 10SM BKN060 12/05 A3018 RMK AO2=||F||223|ICAO-KCCB
USI0000KCCB|CABLE|2017|12|20|05|15|34.1115|-117.6876|438.6|11.0||1|FM15-METAR|223|ICAO-KCCB|4.0||1|FM15-METAR|223|ICAO-KCCB|||||||||||||340|N-Normal|1|FM15-METAR|223|ICAO-KCCB|2.1|N-Normal|1|FM15-METAR|223|ICAO-KCCB|||||||||||||62|Derived||FM15-METAR|223|ICAO-KCCB|||||||||||||||||||||||||||||||||||||||||||||||||||||||||||||||||||||||||1022.0||1|FM15-METAR|223|ICAO-KCCB|||||||||||||||||||||||||||||||||||||||||||MET064METAR KCCB 200515Z AUTO 34004KT 10SM BKN060 11/04 A3018 RMK AO2=||F||223|ICAO-KCCB
USI0000KCCB|CABLE|2017|12|20|05|35|34.1115|-117.6876|438.6|11.0||1|FM15-METAR|223|ICAO-KCCB|3.0||1|FM15-METAR|223|ICAO-KCCB|||||||||||||320|N-Normal|1|FM15-METAR|223|ICAO-KCCB|1.5|N-Normal|1|FM15-METAR|223|ICAO-KCCB|||||||||||||58|Derived||FM15-METAR|223|ICAO-KCCB|||||||||||||||||||||||||||||||||||||||||||||||||||||||||||||||||||||||||1021.7||1|FM15-METAR|223|ICAO-KCCB|||||||||||||||||||||||||||||||||||||||||||MET064METAR KCCB 200535Z AUTO 32003KT 10SM SCT060 11/03 A3017 RMK AO2=||F||223|ICAO-KCCB
USI0000KCCB|CABLE|2017|12|20|05|55|34.1115|-117.6876|438.6|11.0||1|FM15-METAR|223|ICAO-KCCB|3.0||1|FM15-METAR|223|ICAO-KCCB|||||||||||||330|N-Normal|1|FM15-METAR|223|ICAO-KCCB|1.5|N-Normal|1|FM15-METAR|223|ICAO-KCCB|||||||||||||58|Derived||FM15-METAR|223|ICAO-KCCB|||||||||||||||||||||||||||||||||||||||||||||||||||||||||||||||||||||||||1021.7||1|FM15-METAR|223|ICAO-KCCB|||||||||||||||||||||||||||||||||||||||||||MET061METAR KCCB 200555Z AUTO 33003KT 10SM CLR 11/03 A3017 RMK AO2=||F||223|ICAO-KCCB
USI0000KCCB|CABLE|2017|12|20|06|15|34.1115|-117.6876|438.6|11.0||1|FM15-METAR|223|ICAO-KCCB|1.0||1|FM15-METAR|223|ICAO-KCCB|||||||||||||020|N-Normal|1|FM15-METAR|223|ICAO-KCCB|2.1|N-Normal|1|FM15-METAR|223|ICAO-KCCB|||||||||||||50|Derived||FM15-METAR|223|ICAO-KCCB|||||||||||||||||||||||||||||||||||||||||||||||||||||||||||||||||||||||||1022.0||1|FM15-METAR|223|ICAO-KCCB|||||||||||||||||||||||||||||||||||||||||||MET061METAR KCCB 200615Z AUTO 02004KT 10SM CLR 11/01 A3018 RMK AO2=||F||223|ICAO-KCCB
USI0000KCCB|CABLE|2017|12|20|06|35|34.1115|-117.6876|438.6|12.0||1|FM15-METAR|223|ICAO-KCCB|-2.0||1|FM15-METAR|223|ICAO-KCCB|||||||||||||999|C-Calm|9|FM15-METAR|223|ICAO-KCCB|0.0|C-Calm|1|FM15-METAR|223|ICAO-KCCB|||||||||||||38|Derived||FM15-METAR|223|ICAO-KCCB|||||||||||||||||||||||||||||||||||||||||||||||||||||||||||||||||||||||||1022.0||1|FM15-METAR|223|ICAO-KCCB|||||||||||||||||||||||||||||||||||||||||||MET062METAR KCCB 200635Z AUTO 00000KT 10SM CLR 12/M02 A3018 RMK AO2=||F||223|ICAO-KCCB
USI0000KCCB|CABLE|2017|12|20|06|55|34.1115|-117.6876|438.6|12.0||1|FM15-METAR|223|ICAO-KCCB|-1.0||1|FM15-METAR|223|ICAO-KCCB|||||||||||||060|N-Normal|1|FM15-METAR|223|ICAO-KCCB|2.6|N-Normal|1|FM15-METAR|223|ICAO-KCCB|||||||||||||41|Derived||FM15-METAR|223|ICAO-KCCB|||||||||||||||||||||||||||||||||||||||||||||||||||||||||||||||||||||||||1022.0||1|FM15-METAR|223|ICAO-KCCB|||||||||||||||||||||||||||||||||||||||||||MET062METAR KCCB 200655Z AUTO 06005KT 10SM CLR 12/M01 A3018 RMK AO2=||F||223|ICAO-KCCB
USI0000KCCB|CABLE|2017|12|20|07|15|34.1115|-117.6876|438.6|11.0||1|FM15-METAR|223|ICAO-KCCB|3.0||1|FM15-METAR|223|ICAO-KCCB|||||||||||||040|N-Normal|1|FM15-METAR|223|ICAO-KCCB|2.6|N-Normal|1|FM15-METAR|223|ICAO-KCCB|||||||||||||58|Derived||FM15-METAR|223|ICAO-KCCB|||||||||||||||||||||||||||||||||||||||||||||||||||||||||||||||||||||||||1022.0||1|FM15-METAR|223|ICAO-KCCB|||||||||||||||||||||||||||||||||||||||||||MET061METAR KCCB 200715Z AUTO 04005KT 10SM CLR 11/03 A3018 RMK AO2=||F||223|ICAO-KCCB
USI0000KCCB|CABLE|2017|12|20|07|35|34.1115|-117.6876|438.6|11.0||1|FM15-METAR|223|ICAO-KCCB|4.0||1|FM15-METAR|223|ICAO-KCCB|||||||||||||050|N-Normal|1|FM15-METAR|223|ICAO-KCCB|2.6|N-Normal|1|FM15-METAR|223|ICAO-KCCB|||||||||||||62|Derived||FM15-METAR|223|ICAO-KCCB|||||||||||||||||||||||||||||||||||||||||||||||||||||||||||||||||||||||||1022.0||1|FM15-METAR|223|ICAO-KCCB|||||||||||||||||||||||||||||||||||||||||||MET061METAR KCCB 200735Z AUTO 05005KT 10SM CLR 11/04 A3018 RMK AO2=||F||223|ICAO-KCCB
USI0000KCCB|CABLE|2017|12|20|07|55|34.1115|-117.6876|438.6|11.0||1|FM15-METAR|223|ICAO-KCCB|3.0||1|FM15-METAR|223|ICAO-KCCB|||||||||||||050|N-Normal|1|FM15-METAR|223|ICAO-KCCB|3.1|N-Normal|1|FM15-METAR|223|ICAO-KCCB|||||||||||||58|Derived||FM15-METAR|223|ICAO-KCCB|||||||||||||||||||||||||||||||||||||||||||||||||||||||||||||||||||||||||1021.7||1|FM15-METAR|223|ICAO-KCCB|||||||||||||||||||||||||||||||||||||||||||MET061METAR KCCB 200755Z AUTO 05006KT 10SM CLR 11/03 A3017 RMK AO2=||F||223|ICAO-KCCB
USI0000KCCB|CABLE|2017|12|20|08|15|34.1115|-117.6876|438.6|11.0||1|FM15-METAR|223|ICAO-KCCB|4.0||1|FM15-METAR|223|ICAO-KCCB|||||||||||||040|N-Normal|1|FM15-METAR|223|ICAO-KCCB|1.5|N-Normal|1|FM15-METAR|223|ICAO-KCCB|||||||||||||62|Derived||FM15-METAR|223|ICAO-KCCB|||||||||||||||||||||||||||||||||||||||||||||||||||||||||||||||||||||||||1021.7||1|FM15-METAR|223|ICAO-KCCB|||||||||||||||||||||||||||||||||||||||||||MET061METAR KCCB 200815Z AUTO 04003KT 10SM CLR 11/04 A3017 RMK AO2=||F||223|ICAO-KCCB
USI0000KCCB|CABLE|2017|12|20|08|35|34.1115|-117.6876|438.6|10.0||1|FM15-METAR|223|ICAO-KCCB|2.0||1|FM15-METAR|223|ICAO-KCCB|||||||||||||070|N-Normal|1|FM15-METAR|223|ICAO-KCCB|2.6|N-Normal|1|FM15-METAR|223|ICAO-KCCB|||||||||||||58|Derived||FM15-METAR|223|ICAO-KCCB|||||||||||||||||||||||||||||||||||||||||||||||||||||||||||||||||||||||||1021.3||1|FM15-METAR|223|ICAO-KCCB|||||||||||||||||||||||||||||||||||||||||||MET061METAR KCCB 200835Z AUTO 07005KT 10SM CLR 10/02 A3016 RMK AO2=||F||223|ICAO-KCCB
USI0000KCCB|CABLE|2017|12|20|08|55|34.1115|-117.6876|438.6|10.0||1|FM15-METAR|223|ICAO-KCCB|2.0||1|FM15-METAR|223|ICAO-KCCB|||||||||||||060|N-Normal|1|FM15-METAR|223|ICAO-KCCB|3.1|N-Normal|1|FM15-METAR|223|ICAO-KCCB|||||||||||||58|Derived||FM15-METAR|223|ICAO-KCCB|||||||||||||||||||||||||||||||||||||||||||||||||||||||||||||||||||||||||1021.0||1|FM15-METAR|223|ICAO-KCCB|||||||||||||||||||||||||||||||||||||||||||MET061METAR KCCB 200855Z AUTO 06006KT 10SM CLR 10/02 A3015 RMK AO2=||F||223|ICAO-KCCB
USI0000KCCB|CABLE|2017|12|20|09|15|34.1115|-117.6876|438.6|10.0||1|FM15-METAR|223|ICAO-KCCB|3.0||1|FM15-METAR|223|ICAO-KCCB|||||||||||||060|N-Normal|1|FM15-METAR|223|ICAO-KCCB|1.5|N-Normal|1|FM15-METAR|223|ICAO-KCCB|||||||||||||62|Derived||FM15-METAR|223|ICAO-KCCB|||||||||||||||||||||||||||||||||||||||||||||||||||||||||||||||||||||||||1021.0||1|FM15-METAR|223|ICAO-KCCB|||||||||||||||||||||||||||||||||||||||||||MET061METAR KCCB 200915Z AUTO 06003KT 10SM CLR 10/03 A3015 RMK AO2=||F||223|ICAO-KCCB
USI0000KCCB|CABLE|2017|12|20|09|35|34.1115|-117.6876|438.6|10.0||1|FM15-METAR|223|ICAO-KCCB|3.0||1|FM15-METAR|223|ICAO-KCCB|||||||||||||999|C-Calm|9|FM15-METAR|223|ICAO-KCCB|0.0|C-Calm|1|FM15-METAR|223|ICAO-KCCB|||||||||||||62|Derived||FM15-METAR|223|ICAO-KCCB|||||||||||||||||||||||||||||||||||||||||||||||||||||||||||||||||||||||||1021.0||1|FM15-METAR|223|ICAO-KCCB|||||||||||||||||||||||||||||||||||||||||||MET064METAR KCCB 200935Z AUTO 00000KT 10SM FEW031 10/03 A3015 RMK AO2=||F||223|ICAO-KCCB
USI0000KCCB|CABLE|2017|12|20|09|55|34.1115|-117.6876|438.6|10.0||1|FM15-METAR|223|ICAO-KCCB|3.0||1|FM15-METAR|223|ICAO-KCCB|||||||||||||030|N-Normal|1|FM15-METAR|223|ICAO-KCCB|2.1|N-Normal|1|FM15-METAR|223|ICAO-KCCB|||||||||||||62|Derived||FM15-METAR|223|ICAO-KCCB|||||||||||||||||||||||||||||||||||||||||||||||||||||||||||||||||||||||||1021.0||1|FM15-METAR|223|ICAO-KCCB|||||||||||||||||||||||||||||||||||||||||||MET071METAR KCCB 200955Z AUTO 03004KT 10SM FEW019 FEW031 10/03 A3015 RMK AO2=||F||223|ICAO-KCCB
USI0000KCCB|CABLE|2017|12|20|10|15|34.1115|-117.6876|438.6|10.0||1|FM15-METAR|223|ICAO-KCCB|2.0||1|FM15-METAR|223|ICAO-KCCB|||||||||||||030|N-Normal|1|FM15-METAR|223|ICAO-KCCB|1.5|N-Normal|1|FM15-METAR|223|ICAO-KCCB|||||||||||||58|Derived||FM15-METAR|223|ICAO-KCCB|||||||||||||||||||||||||||||||||||||||||||||||||||||||||||||||||||||||||1021.0||1|FM15-METAR|223|ICAO-KCCB|||||||||||||||||||||||||||||||||||||||||||MET061METAR KCCB 201015Z AUTO 03003KT 10SM CLR 10/02 A3015 RMK AO2=||F||223|ICAO-KCCB
USI0000KCCB|CABLE|2017|12|20|10|35|34.1115|-117.6876|438.6|10.0||1|FM15-METAR|223|ICAO-KCCB|2.0||1|FM15-METAR|223|ICAO-KCCB|||||||||||||010|N-Normal|1|FM15-METAR|223|ICAO-KCCB|1.5|N-Normal|1|FM15-METAR|223|ICAO-KCCB|||||||||||||58|Derived||FM15-METAR|223|ICAO-KCCB|||||||||||||||||||||||||||||||||||||||||||||||||||||||||||||||||||||||||1021.0||1|FM15-METAR|223|ICAO-KCCB|||||||||||||||||||||||||||||||||||||||||||MET061METAR KCCB 201035Z AUTO 01003KT 10SM CLR 10/02 A3015 RMK AO2=||F||223|ICAO-KCCB
USI0000KCCB|CABLE|2017|12|20|10|55|34.1115|-117.6876|438.6|9.0||1|FM15-METAR|223|ICAO-KCCB|1.0||1|FM15-METAR|223|ICAO-KCCB|||||||||||||010|N-Normal|1|FM15-METAR|223|ICAO-KCCB|2.6|N-Normal|1|FM15-METAR|223|ICAO-KCCB|||||||||||||58|Derived||FM15-METAR|223|ICAO-KCCB|||||||||||||||||||||||||||||||||||||||||||||||||||||||||||||||||||||||||1021.3||1|FM15-METAR|223|ICAO-KCCB|||||||||||||||||||||||||||||||||||||||||||MET061METAR KCCB 201055Z AUTO 01005KT 10SM CLR 09/01 A3016 RMK AO2=||F||223|ICAO-KCCB
USI0000KCCB|CABLE|2017|12|20|11|15|34.1115|-117.6876|438.6|10.0||1|FM15-METAR|223|ICAO-KCCB|-1.0||1|FM15-METAR|223|ICAO-KCCB|||||||||||||010|N-Normal|1|FM15-METAR|223|ICAO-KCCB|2.6|N-Normal|1|FM15-METAR|223|ICAO-KCCB|||||||||||||47|Derived||FM15-METAR|223|ICAO-KCCB|||||||||||||||||||||||||||||||||||||||||||||||||||||||||||||||||||||||||1021.0||1|FM15-METAR|223|ICAO-KCCB|||||||||||||||||||||||||||||||||||||||||||MET062METAR KCCB 201115Z AUTO 01005KT 10SM CLR 10/M01 A3015 RMK AO2=||F||223|ICAO-KCCB
USI0000KCCB|CABLE|2017|12|20|11|35|34.1115|-117.6876|438.6|10.0||1|FM15-METAR|223|ICAO-KCCB|-1.0||1|FM15-METAR|223|ICAO-KCCB|||||||||||||020|N-Normal|1|FM15-METAR|223|ICAO-KCCB|2.1|N-Normal|1|FM15-METAR|223|ICAO-KCCB|||||||||||||47|Derived||FM15-METAR|223|ICAO-KCCB|||||||||||||||||||||||||||||||||||||||||||||||||||||||||||||||||||||||||1021.0||1|FM15-METAR|223|ICAO-KCCB|||||||||||||||||||||||||||||||||||||||||||MET062METAR KCCB 201135Z AUTO 02004KT 10SM CLR 10/M01 A3015 RMK AO2=||F||223|ICAO-KCCB
USI0000KCCB|CABLE|2017|12|20|11|55|34.1115|-117.6876|438.6|9.0||1|FM15-METAR|223|ICAO-KCCB|-1.0||1|FM15-METAR|223|ICAO-KCCB|||||||||||||010|N-Normal|1|FM15-METAR|223|ICAO-KCCB|2.1|N-Normal|1|FM15-METAR|223|ICAO-KCCB|||||||||||||50|Derived||FM15-METAR|223|ICAO-KCCB|||||||||||||||||||||||||||||||||||||||||||||||||||||||||||||||||||||||||1020.7||1|FM15-METAR|223|ICAO-KCCB|||||||||||||||||||||||||||||||||||||||||||MET062METAR KCCB 201155Z AUTO 01004KT 10SM CLR 09/M01 A3014 RMK AO2=||F||223|ICAO-KCCB
USI0000KCCB|CABLE|2017|12|20|12|15|34.1115|-117.6876|438.6|10.0||1|FM15-METAR|223|ICAO-KCCB|-1.0||1|FM15-METAR|223|ICAO-KCCB|||||||||||||030|N-Normal|1|FM15-METAR|223|ICAO-KCCB|1.5|N-Normal|1|FM15-METAR|223|ICAO-KCCB|||||||||||||47|Derived||FM15-METAR|223|ICAO-KCCB|||||||||||||||||||||||||||||||||||||||||||||||||||||||||||||||||||||||||1020.7||1|FM15-METAR|223|ICAO-KCCB|||||||||||||||||||||||||||||||||||||||||||MET062METAR KCCB 201215Z AUTO 03003KT 10SM CLR 10/M01 A3014 RMK AO2=||F||223|ICAO-KCCB
USI0000KCCB|CABLE|2017|12|20|12|35|34.1115|-117.6876|438.6|10.0||1|FM15-METAR|223|ICAO-KCCB|0.0||1|FM15-METAR|223|ICAO-KCCB|||||||||||||040|N-Normal|1|FM15-METAR|223|ICAO-KCCB|1.5|N-Normal|1|FM15-METAR|223|ICAO-KCCB|||||||||||||50|Derived||FM15-METAR|223|ICAO-KCCB|||||||||||||||||||||||||||||||||||||||||||||||||||||||||||||||||||||||||1020.3||1|FM15-METAR|223|ICAO-KCCB|||||||||||||||||||||||||||||||||||||||||||MET060METAR KCCB 201235Z AUTO 04003KT 9SM CLR 10/00 A3013 RMK AO2=||F||223|ICAO-KCCB
USI0000KCCB|CABLE|2017|12|20|12|55|34.1115|-117.6876|438.6|9.0||1|FM15-METAR|223|ICAO-KCCB|0.0||1|FM15-METAR|223|ICAO-KCCB|||||||||||||030|N-Normal|1|FM15-METAR|223|ICAO-KCCB|2.1|N-Normal|1|FM15-METAR|223|ICAO-KCCB|||||||||||||54|Derived||FM15-METAR|223|ICAO-KCCB|||||||||||||||||||||||||||||||||||||||||||||||||||||||||||||||||||||||||1020.3||1|FM15-METAR|223|ICAO-KCCB|||||||||||||||||||||||||||||||||||||||||||MET061METAR KCCB 201255Z AUTO 03004KT 10SM CLR 09/00 A3013 RMK AO2=||F||223|ICAO-KCCB
USI0000KCCB|CABLE|2017|12|20|13|15|34.1115|-117.6876|438.6|9.0||1|FM15-METAR|223|ICAO-KCCB|0.0||1|FM15-METAR|223|ICAO-KCCB|||||||||||||050|N-Normal|1|FM15-METAR|223|ICAO-KCCB|1.5|N-Normal|1|FM15-METAR|223|ICAO-KCCB|||||||||||||54|Derived||FM15-METAR|223|ICAO-KCCB|||||||||||||||||||||||||||||||||||||||||||||||||||||||||||||||||||||||||1020.3||1|FM15-METAR|223|ICAO-KCCB|||||||||||||||||||||||||||||||||||||||||||MET061METAR KCCB 201315Z AUTO 05003KT 10SM CLR 09/00 A3013 RMK AO2=||F||223|ICAO-KCCB
USI0000KCCB|CABLE|2017|12|20|13|35|34.1115|-117.6876|438.6|9.0||1|FM15-METAR|223|ICAO-KCCB|1.0||1|FM15-METAR|223|ICAO-KCCB|||||||||||||999|C-Calm|9|FM15-METAR|223|ICAO-KCCB|0.0|C-Calm|1|FM15-METAR|223|ICAO-KCCB|||||||||||||58|Derived||FM15-METAR|223|ICAO-KCCB|||||||||||||||||||||||||||||||||||||||||||||||||||||||||||||||||||||||||1020.0||1|FM15-METAR|223|ICAO-KCCB|||||||||||||||||||||||||||||||||||||||||||MET061METAR KCCB 201335Z AUTO 00000KT 10SM CLR 09/01 A3012 RMK AO2=||F||223|ICAO-KCCB
USI0000KCCB|CABLE|2017|12|20|13|55|34.1115|-117.6876|438.6|9.0||1|FM15-METAR|223|ICAO-KCCB|1.0||1|FM15-METAR|223|ICAO-KCCB|||||||||||||030|N-Normal|1|FM15-METAR|223|ICAO-KCCB|1.5|N-Normal|1|FM15-METAR|223|ICAO-KCCB|||||||||||||58|Derived||FM15-METAR|223|ICAO-KCCB|||||||||||||||||||||||||||||||||||||||||||||||||||||||||||||||||||||||||1020.3||1|FM15-METAR|223|ICAO-KCCB|||||||||||||||||||||||||||||||||||||||||||MET061METAR KCCB 201355Z AUTO 03003KT 10SM CLR 09/01 A3013 RMK AO2=||F||223|ICAO-KCCB
USI0000KCCB|CABLE|2017|12|20|14|15|34.1115|-117.6876|438.6|9.0||1|FM15-METAR|223|ICAO-KCCB|1.0||1|FM15-METAR|223|ICAO-KCCB|||||||||||||030|N-Normal|1|FM15-METAR|223|ICAO-KCCB|2.1|N-Normal|1|FM15-METAR|223|ICAO-KCCB|||||||||||||58|Derived||FM15-METAR|223|ICAO-KCCB|||||||||||||||||||||||||||||||||||||||||||||||||||||||||||||||||||||||||1020.3||1|FM15-METAR|223|ICAO-KCCB|||||||||||||||||||||||||||||||||||||||||||MET061METAR KCCB 201415Z AUTO 03004KT 10SM CLR 09/01 A3013 RMK AO2=||F||223|ICAO-KCCB
USI0000KCCB|CABLE|2017|12|20|14|35|34.1115|-117.6876|438.6|9.0||1|FM15-METAR|223|ICAO-KCCB|1.0||1|FM15-METAR|223|ICAO-KCCB|||||||||||||020|N-Normal|1|FM15-METAR|223|ICAO-KCCB|2.1|N-Normal|1|FM15-METAR|223|ICAO-KCCB|||||||||||||58|Derived||FM15-METAR|223|ICAO-KCCB|||||||||||||||||||||||||||||||||||||||||||||||||||||||||||||||||||||||||1020.7||1|FM15-METAR|223|ICAO-KCCB|||||||||||||||||||||||||||||||||||||||||||MET061METAR KCCB 201435Z AUTO 02004KT 10SM CLR 09/01 A3014 RMK AO2=||F||223|ICAO-KCCB
USI0000KCCB|CABLE|2017|12|20|14|55|34.1115|-117.6876|438.6|8.0||1|FM15-METAR|223|ICAO-KCCB|0.0||1|FM15-METAR|223|ICAO-KCCB|||||||||||||010|N-Normal|1|FM15-METAR|223|ICAO-KCCB|2.6|N-Normal|1|FM15-METAR|223|ICAO-KCCB|||||||||||||57|Derived||FM15-METAR|223|ICAO-KCCB|||||||||||||||||||||||||||||||||||||||||||||||||||||||||||||||||||||||||1020.7||1|FM15-METAR|223|ICAO-KCCB|||||||||||||||||||||||||||||||||||||||||||MET061METAR KCCB 201455Z AUTO 01005KT 10SM CLR 08/00 A3014 RMK AO2=||F||223|ICAO-KCCB
USI0000KCCB|CABLE|2017|12|20|15|15|34.1115|-117.6876|438.6|9.0||1|FM15-METAR|223|ICAO-KCCB|0.0||1|FM15-METAR|223|ICAO-KCCB|||||||||||||010|N-Normal|1|FM15-METAR|223|ICAO-KCCB|2.6|N-Normal|1|FM15-METAR|223|ICAO-KCCB|||||||||||||54|Derived||FM15-METAR|223|ICAO-KCCB|||||||||||||||||||||||||||||||||||||||||||||||||||||||||||||||||||||||||1020.3||1|FM15-METAR|223|ICAO-KCCB|||||||||||||||||||||||||||||||||||||||||||MET062METAR KCCB 201515Z AUTO 01005KT 10SM CLR 09/M00 A3013 RMK AO2=||F||223|ICAO-KCCB
USI0000KCCB|CABLE|2017|12|20|15|35|34.1115|-117.6876|438.6|10.0||1|FM15-METAR|223|ICAO-KCCB|0.0||1|FM15-METAR|223|ICAO-KCCB|||||||||||||360|N-Normal|1|FM15-METAR|223|ICAO-KCCB|2.1|N-Normal|1|FM15-METAR|223|ICAO-KCCB|||||||||||||50|Derived||FM15-METAR|223|ICAO-KCCB|||||||||||||||||||||||||||||||||||||||||||||||||||||||||||||||||||||||||1020.7||1|FM15-METAR|223|ICAO-KCCB|||||||||||||||||||||||||||||||||||||||||||MET062METAR KCCB 201535Z AUTO 36004KT 10SM CLR 10/M00 A3014 RMK AO2=||F||223|ICAO-KCCB
USI0000KCCB|CABLE|2017|12|20|15|55|34.1115|-117.6876|438.6|11.0||1|FM15-METAR|223|ICAO-KCCB|-1.0||1|FM15-METAR|223|ICAO-KCCB|||||||||||||999|C-Calm|9|FM15-METAR|223|ICAO-KCCB|0.0|C-Calm|1|FM15-METAR|223|ICAO-KCCB|||||||||||||44|Derived||FM15-METAR|223|ICAO-KCCB|||||||||||||||||||||||||||||||||||||||||||||||||||||||||||||||||||||||||1020.7||1|FM15-METAR|223|ICAO-KCCB|||||||||||||||||||||||||||||||||||||||||||MET062METAR KCCB 201555Z AUTO 00000KT 10SM CLR 11/M01 A3014 RMK AO2=||F||223|ICAO-KCCB
USI0000KCCB|CABLE|2017|12|20|16|15|34.1115|-117.6876|438.6|11.0||1|FM15-METAR|223|ICAO-KCCB|1.0||1|FM15-METAR|223|ICAO-KCCB|||||||||||||999|C-Calm|9|FM15-METAR|223|ICAO-KCCB|0.0|C-Calm|1|FM15-METAR|223|ICAO-KCCB|||||||||||||50|Derived||FM15-METAR|223|ICAO-KCCB|||||||||||||||||||||||||||||||||||||||||||||||||||||||||||||||||||||||||1021.0||1|FM15-METAR|223|ICAO-KCCB|||||||||||||||||||||||||||||||||||||||||||MET061METAR KCCB 201615Z AUTO 00000KT 10SM CLR 11/01 A3015 RMK AO2=||F||223|ICAO-KCCB
USI0000KCCB|CABLE|2017|12|20|16|35|34.1115|-117.6876|438.6|11.0||1|FM15-METAR|223|ICAO-KCCB|2.0||1|FM15-METAR|223|ICAO-KCCB|||||||||||||999|C-Calm|9|FM15-METAR|223|ICAO-KCCB|0.0|C-Calm|1|FM15-METAR|223|ICAO-KCCB|||||||||||||54|Derived||FM15-METAR|223|ICAO-KCCB|||||||||||||||||||||||||||||||||||||||||||||||||||||||||||||||||||||||||1021.3||1|FM15-METAR|223|ICAO-KCCB|||||||||||||||||||||||||||||||||||||||||||MET060METAR KCCB 201635Z AUTO 00000KT 9SM CLR 11/02 A3016 RMK AO2=||F||223|ICAO-KCCB
USI0000KCCB|CABLE|2017|12|20|16|55|34.1115|-117.6876|438.6|11.0||1|FM15-METAR|223|ICAO-KCCB|3.0||1|FM15-METAR|223|ICAO-KCCB|||||||||||||999|C-Calm|9|FM15-METAR|223|ICAO-KCCB|0.0|C-Calm|1|FM15-METAR|223|ICAO-KCCB|||||||||||||58|Derived||FM15-METAR|223|ICAO-KCCB|||||||||||||||||||||||||||||||||||||||||||||||||||||||||||||||||||||||||1021.3||1|FM15-METAR|223|ICAO-KCCB|||||||||||||||||||||||||||||||||||||||||||MET061METAR KCCB 201655Z AUTO 00000KT 10SM CLR 11/03 A3016 RMK AO2=||F||223|ICAO-KCCB
USI0000KCCB|CABLE|2017|12|20|17|15|34.1115|-117.6876|438.6|11.0||1|FM15-METAR|223|ICAO-KCCB|3.0||1|FM15-METAR|223|ICAO-KCCB|||||||||||||230|N-Normal|1|FM15-METAR|223|ICAO-KCCB|2.1|N-Normal|1|FM15-METAR|223|ICAO-KCCB|||||||||||||58|Derived||FM15-METAR|223|ICAO-KCCB|||||||||||||||||||||||||||||||||||||||||||||||||||||||||||||||||||||||||1021.3||1|FM15-METAR|223|ICAO-KCCB|||||||||||||||||||||||||||||||||||||||||||MET061METAR KCCB 201715Z AUTO 23004KT 10SM CLR 11/03 A3016 RMK AO2=||F||223|ICAO-KCCB
USI0000KCCB|CABLE|2017|12|20|17|35|34.1115|-117.6876|438.6|12.0||1|FM15-METAR|223|ICAO-KCCB|4.0||1|FM15-METAR|223|ICAO-KCCB|||||||||||||230|N-Normal|1|FM15-METAR|223|ICAO-KCCB|2.6|N-Normal|1|FM15-METAR|223|ICAO-KCCB|||||||||||||58|Derived||FM15-METAR|223|ICAO-KCCB|||||||||||||||||||||||||||||||||||||||||||||||||||||||||||||||||||||||||1021.7||1|FM15-METAR|223|ICAO-KCCB|||||||||||||||||||||||||||||||||||||||||||MET060METAR KCCB 201735Z AUTO 23005KT 9SM CLR 12/04 A3017 RMK AO2=||F||223|ICAO-KCCB
USI0000KCCB|CABLE|2017|12|20|17|55|34.1115|-117.6876|438.6|12.0||1|FM15-METAR|223|ICAO-KCCB|5.0||1|FM15-METAR|223|ICAO-KCCB|||||||||||||230|N-Normal|1|FM15-METAR|223|ICAO-KCCB|3.1|N-Normal|1|FM15-METAR|223|ICAO-KCCB|||||||||||||63|Derived||FM15-METAR|223|ICAO-KCCB|||||||||||||||||||||||||||||||||||||||||||||||||||||||||||||||||||||||||1021.7||1|FM15-METAR|223|ICAO-KCCB|||||||||||||||||||||||||||||||||||||||||||MET060METAR KCCB 201755Z AUTO 23006KT 8SM CLR 12/05 A3017 RMK AO2=||F||223|ICAO-KCCB
USI0000KCCB|CABLE|2017|12|20|18|15|34.1115|-117.6876|438.6|12.0||1|FM15-METAR|223|ICAO-KCCB|6.0||1|FM15-METAR|223|ICAO-KCCB|||||||||||||220|N-Normal|1|FM15-METAR|223|ICAO-KCCB|2.6|N-Normal|1|FM15-METAR|223|ICAO-KCCB|||||||||||||67|Derived||FM15-METAR|223|ICAO-KCCB|||||||||||||||||||||||||||||||||||||||||||||||||||||||||||||||||||||||||1021.3||1|FM15-METAR|223|ICAO-KCCB|||||||||||||||||||||||||||||||||||||||||||MET063METAR KCCB 201815Z AUTO 22005KT 6SM HZ CLR 12/06 A3016 RMK AO2=||F||223|ICAO-KCCB
USI0000KCCB|CABLE|2017|12|20|18|35|34.1115|-117.6876|438.6|13.0||1|FM15-METAR|223|ICAO-KCCB|5.0||1|FM15-METAR|223|ICAO-KCCB|||||||||||||240|N-Normal|1|FM15-METAR|223|ICAO-KCCB|3.1|N-Normal|1|FM15-METAR|223|ICAO-KCCB|||||||||||||59|Derived||FM15-METAR|223|ICAO-KCCB|||||||||||||||||||||||||||||||||||||||||||||||||||||||||||||||||||||||||1021.0||1|FM15-METAR|223|ICAO-KCCB|||||||||||||||||||||||||||||||||||||||||||MET060METAR KCCB 201835Z AUTO 24006KT 7SM CLR 13/05 A3015 RMK AO2=||F||223|ICAO-KCCB
USI0000KCCB|CABLE|2017|12|20|18|55|34.1115|-117.6876|438.6|13.0||1|FM15-METAR|223|ICAO-KCCB|5.0||1|FM15-METAR|223|ICAO-KCCB|||||||||||||220|N-Normal|1|FM15-METAR|223|ICAO-KCCB|3.6|N-Normal|1|FM15-METAR|223|ICAO-KCCB|||||||||||||59|Derived||FM15-METAR|223|ICAO-KCCB|||||||||||||||||||||||||||||||||||||||||||||||||||||||||||||||||||||||||1020.7||1|FM15-METAR|223|ICAO-KCCB|||||||||||||||||||||||||||||||||||||||||||MET060METAR KCCB 201855Z AUTO 22007KT 8SM CLR 13/05 A3014 RMK AO2=||F||223|ICAO-KCCB
USI0000KCCB|CABLE|2017|12|20|19|15|34.1115|-117.6876|438.6|14.0||1|FM15-METAR|223|ICAO-KCCB|7.0||1|FM15-METAR|223|ICAO-KCCB|||||||||||||240|N-Normal|1|FM15-METAR|223|ICAO-KCCB|3.6|N-Normal|1|FM15-METAR|223|ICAO-KCCB|||||||||||||63|Derived||FM15-METAR|223|ICAO-KCCB|||||||||||||||||||||||||||||||||||||||||||||||||||||||||||||||||||||||||1020.0||1|FM15-METAR|223|ICAO-KCCB|||||||||||||||||||||||||||||||||||||||||||MET060METAR KCCB 201915Z AUTO 24007KT 9SM CLR 14/07 A3012 RMK AO2=||F||223|ICAO-KCCB
USI0000KCCB|CABLE|2017|12|20|19|35|34.1115|-117.6876|438.6|14.0||1|FM15-METAR|223|ICAO-KCCB|7.0||1|FM15-METAR|223|ICAO-KCCB|||||||||||||220|N-Normal|1|FM15-METAR|223|ICAO-KCCB|4.1|N-Normal|1|FM15-METAR|223|ICAO-KCCB|||||||||||||63|Derived||FM15-METAR|223|ICAO-KCCB|||||||||||||||||||||||||||||||||||||||||||||||||||||||||||||||||||||||||1019.6||1|FM15-METAR|223|ICAO-KCCB|||||||||||||||||||||||||||||||||||||||||||MET061METAR KCCB 201935Z AUTO 22008KT 10SM CLR 14/07 A3011 RMK AO2=||F||223|ICAO-KCCB
USI0000KCCB|CABLE|2017|12|20|19|55|34.1115|-117.6876|438.6|14.0||1|FM15-METAR|223|ICAO-KCCB|7.0||1|FM15-METAR|223|ICAO-KCCB|||||||||||||250|N-Normal|1|FM15-METAR|223|ICAO-KCCB|4.1|N-Normal|1|FM15-METAR|223|ICAO-KCCB|6.7||1|FM15-METAR|223|ICAO-KCCB|||||||63|Derived||FM15-METAR|223|ICAO-KCCB|||||||||||||||||||||||||||||||||||||||||||||||||||||||||||||||||||||||||1019.3||1|FM15-METAR|223|ICAO-KCCB|||||||||||||||||||||||||||||||||||||||||||MET064METAR KCCB 201955Z AUTO 25008G13KT 10SM CLR 14/07 A3010 RMK AO2=||F||223|ICAO-KCCB
USI0000KCCB|CABLE|2017|12|20|20|15|34.1115|-117.6876|438.6|14.0||1|FM15-METAR|223|ICAO-KCCB|7.0||1|FM15-METAR|223|ICAO-KCCB|||||||||||||240|N-Normal|1|FM15-METAR|223|ICAO-KCCB|5.1|N-Normal|1|FM15-METAR|223|ICAO-KCCB|||||||||||||63|Derived||FM15-METAR|223|ICAO-KCCB|||||||||||||||||||||||||||||||||||||||||||||||||||||||||||||||||||||||||1019.0||1|FM15-METAR|223|ICAO-KCCB|||||||||||||||||||||||||||||||||||||||||||MET061METAR KCCB 202015Z AUTO 24010KT 10SM CLR 14/07 A3009 RMK AO2=||F||223|ICAO-KCCB
USI0000KCCB|CABLE|2017|12|20|20|35|34.1115|-117.6876|438.6|14.0||1|FM15-METAR|223|ICAO-KCCB|7.0||1|FM15-METAR|223|ICAO-KCCB|||||||||||||240|N-Normal|1|FM15-METAR|223|ICAO-KCCB|4.1|N-Normal|1|FM15-METAR|223|ICAO-KCCB|||||||||||||63|Derived||FM15-METAR|223|ICAO-KCCB|||||||||||||||||||||||||||||||||||||||||||||||||||||||||||||||||||||||||1018.6||1|FM15-METAR|223|ICAO-KCCB|||||||||||||||||||||||||||||||||||||||||||MET061METAR KCCB 202035Z AUTO 24008KT 10SM CLR 14/07 A3008 RMK AO2=||F||223|ICAO-KCCB
USI0000KCCB|CABLE|2017|12|20|20|55|34.1115|-117.6876|438.6|14.0||1|FM15-METAR|223|ICAO-KCCB|7.0||1|FM15-METAR|223|ICAO-KCCB|||||||||||||250|N-Normal|1|FM15-METAR|223|ICAO-KCCB|5.1|N-Normal|1|FM15-METAR|223|ICAO-KCCB|||||||||||||63|Derived||FM15-METAR|223|ICAO-KCCB|||||||||||||||||||||||||||||||||||||||||||||||||||||||||||||||||||||||||1018.3||1|FM15-METAR|223|ICAO-KCCB|||||||||||||||||||||||||||||||||||||||||||MET061METAR KCCB 202055Z AUTO 25010KT 10SM CLR 14/07 A3007 RMK AO2=||F||223|ICAO-KCCB
USI0000KCCB|CABLE|2017|12|20|21|15|34.1115|-117.6876|438.6|15.0||1|FM15-METAR|223|ICAO-KCCB|7.0||1|FM15-METAR|223|ICAO-KCCB|||||||||||||250|V-Variable|1|FM15-METAR|223|ICAO-KCCB|4.6|V-Variable|1|FM15-METAR|223|ICAO-KCCB|||||||||||||59|Derived||FM15-METAR|223|ICAO-KCCB|||||||||||||||||||||||||||||||||||||||||||||||||||||||||||||||||||||||||1017.9||1|FM15-METAR|223|ICAO-KCCB|||||||||||||||||||||||||||||||||||||||||||MET069METAR KCCB 202115Z AUTO 25009KT 210V270 10SM CLR 15/07 A3006 RMK AO2=||F||223|ICAO-KCCB
USI0000KCCB|CABLE|2017|12|20|21|35|34.1115|-117.6876|438.6|14.0||1|FM15-METAR|223|ICAO-KCCB|6.0||1|FM15-METAR|223|ICAO-KCCB|||||||||||||230|N-Normal|1|FM15-METAR|223|ICAO-KCCB|4.6|N-Normal|1|FM15-METAR|223|ICAO-KCCB|7.7||1|FM15-METAR|223|ICAO-KCCB|||||||59|Derived||FM15-METAR|223|ICAO-KCCB|||||||||||||||||||||||||||||||||||||||||||||||||||||||||||||||||||||||||1017.3||1|FM15-METAR|223|ICAO-KCCB|||||||||||||||||||||||||||||||||||||||||||MET064METAR KCCB 202135Z AUTO 23009G15KT 10SM CLR 14/06 A3004 RMK AO2=||F||223|ICAO-KCCB
USI0000KCCB|CABLE|2017|12|20|21|55|34.1115|-117.6876|438.6|14.0||1|FM15-METAR|223|ICAO-KCCB|6.0||1|FM15-METAR|223|ICAO-KCCB|||||||||||||230|N-Normal|1|FM15-METAR|223|ICAO-KCCB|6.2|N-Normal|1|FM15-METAR|223|ICAO-KCCB|||||||||||||59|Derived||FM15-METAR|223|ICAO-KCCB|||||||||||||||||||||||||||||||||||||||||||||||||||||||||||||||||||||||||1017.3||1|FM15-METAR|223|ICAO-KCCB|||||||||||||||||||||||||||||||||||||||||||MET061METAR KCCB 202155Z AUTO 23012KT 10SM CLR 14/06 A3004 RMK AO2=||F||223|ICAO-KCCB
USI0000KCCB|CABLE|2017|12|20|22|15|34.1115|-117.6876|438.6|14.0||1|FM15-METAR|223|ICAO-KCCB|7.0||1|FM15-METAR|223|ICAO-KCCB|||||||||||||260|N-Normal|1|FM15-METAR|223|ICAO-KCCB|5.7|N-Normal|1|FM15-METAR|223|ICAO-KCCB|||||||||||||63|Derived||FM15-METAR|223|ICAO-KCCB|||||||||||||||||||||||||||||||||||||||||||||||||||||||||||||||||||||||||1016.6||1|FM15-METAR|223|ICAO-KCCB|||||||||||||||||||||||||||||||||||||||||||MET064METAR KCCB 202215Z AUTO 26011KT 10SM FEW025 14/07 A3002 RMK AO2=||F||223|ICAO-KCCB
USI0000KCCB|CABLE|2017|12|20|22|35|34.1115|-117.6876|438.6|14.0||1|FM15-METAR|223|ICAO-KCCB|7.0||1|FM15-METAR|223|ICAO-KCCB|||||||||||||270|N-Normal|1|FM15-METAR|223|ICAO-KCCB|5.7|N-Normal|1|FM15-METAR|223|ICAO-KCCB|8.2||1|FM15-METAR|223|ICAO-KCCB|||||||63|Derived||FM15-METAR|223|ICAO-KCCB|||||||||||||||||||||||||||||||||||||||||||||||||||||||||||||||||||||||||1016.6||1|FM15-METAR|223|ICAO-KCCB|||||||||||||||||||||||||||||||||||||||||||MET067METAR KCCB 202235Z AUTO 27011G16KT 10SM FEW024 14/07 A3002 RMK AO2=||F||223|ICAO-KCCB
USI0000KCCB|CABLE|2017|12|20|22|55|34.1115|-117.6876|438.6|13.0||1|FM15-METAR|223|ICAO-KCCB|7.0||1|FM15-METAR|223|ICAO-KCCB|||||||||||||230|N-Normal|1|FM15-METAR|223|ICAO-KCCB|5.7|N-Normal|1|FM15-METAR|223|ICAO-KCCB|||||||||||||67|Derived||FM15-METAR|223|ICAO-KCCB|||||||||||||||||||||||||||||||||||||||||||||||||||||||||||||||||||||||||1016.6||1|FM15-METAR|223|ICAO-KCCB|||||||||||||||||||||||||||||||||||||||||||MET064METAR KCCB 202255Z AUTO 23011KT 10SM SCT023 13/07 A3002 RMK AO2=||F||223|ICAO-KCCB
USI0000KCCB|CABLE|2017|12|20|23|15|34.1115|-117.6876|438.6|13.0||1|FM15-METAR|223|ICAO-KCCB|7.0||1|FM15-METAR|223|ICAO-KCCB|||||||||||||240|N-Normal|1|FM15-METAR|223|ICAO-KCCB|5.7|N-Normal|1|FM15-METAR|223|ICAO-KCCB|8.8||1|FM15-METAR|223|ICAO-KCCB|||||||67|Derived||FM15-METAR|223|ICAO-KCCB|||||||||||||||||||||||||||||||||||||||||||||||||||||||||||||||||||||||||1016.6||1|FM15-METAR|223|ICAO-KCCB|||||||||||||||||||||||||||||||||||||||||||MET067METAR KCCB 202315Z AUTO 24011G17KT 10SM BKN024 13/07 A3002 RMK AO2=||F||223|ICAO-KCCB
USI0000KCCB|CABLE|2017|12|20|23|35|34.1115|-117.6876|438.6|13.0||1|FM15-METAR|223|ICAO-KCCB|7.0||1|FM15-METAR|223|ICAO-KCCB|||||||||||||240|N-Normal|1|FM15-METAR|223|ICAO-KCCB|5.1|N-Normal|1|FM15-METAR|223|ICAO-KCCB|||||||||||||67|Derived||FM15-METAR|223|ICAO-KCCB|||||||||||||||||||||||||||||||||||||||||||||||||||||||||||||||||||||||||1016.3||1|FM15-METAR|223|ICAO-KCCB|||||||||||||||||||||||||||||||||||||||||||MET064METAR KCCB 202335Z AUTO 24010KT 10SM OVC025 13/07 A3001 RMK AO2=||F||223|ICAO-KCCB
USI0000KCCB|CABLE|2017|12|20|23|55|34.1115|-117.6876|438.6|12.0||1|FM15-METAR|223|ICAO-KCCB|8.0||1|FM15-METAR|223|ICAO-KCCB|||||||||||||230|N-Normal|1|FM15-METAR|223|ICAO-KCCB|6.2|N-Normal|1|FM15-METAR|223|ICAO-KCCB|||||||||||||77|Derived||FM15-METAR|223|ICAO-KCCB|||||||||||||||||||||||||||||||||||||||||||||||||||||||||||||||||||||||||1015.9||1|FM15-METAR|223|ICAO-KCCB|||||||||||||||||||||||||||||||||||||||||||MET071METAR KCCB 202355Z AUTO 23012KT 10SM SCT019 OVC025 12/08 A3000 RMK AO2=||F||223|ICAO-KCCB
USI0000KCCB|CABLE|2017|12|21|00|15|34.1115|-117.6876|438.6|12.0||1|FM15-METAR|223|ICAO-KCCB|7.0||1|FM15-METAR|223|ICAO-KCCB|||||||||||||240|N-Normal|1|FM15-METAR|223|ICAO-KCCB|5.1|N-Normal|1|FM15-METAR|223|ICAO-KCCB|||||||||||||72|Derived||FM15-METAR|223|ICAO-KCCB|||||||||||||||||||||||||||||||||||||||||||||||||||||||||||||||||||||||||1015.6||1|FM15-METAR|223|ICAO-KCCB|||||||||||||||||||||||||||||||||||||||||||MET071METAR KCCB 210015Z AUTO 24010KT 10SM BKN021 OVC028 12/07 A2999 RMK AO2=||F||223|ICAO-KCCB
USI0000KCCB|CABLE|2017|12|21|00|35|34.1115|-117.6876|438.6|12.0||1|FM15-METAR|223|ICAO-KCCB|7.0||1|FM15-METAR|223|ICAO-KCCB|||||||||||||240|N-Normal|1|FM15-METAR|223|ICAO-KCCB|4.1|N-Normal|1|FM15-METAR|223|ICAO-KCCB|||||||||||||72|Derived||FM15-METAR|223|ICAO-KCCB|||||||||||||||||||||||||||||||||||||||||||||||||||||||||||||||||||||||||1015.6||1|FM15-METAR|223|ICAO-KCCB|||||||||||||||||||||||||||||||||||||||||||MET071METAR KCCB 210035Z AUTO 24008KT 10SM SCT020 OVC027 12/07 A2999 RMK AO2=||F||223|ICAO-KCCB
USI0000KCCB|CABLE|2017|12|21|00|55|34.1115|-117.6876|438.6|12.0||1|FM15-METAR|223|ICAO-KCCB|7.0||1|FM15-METAR|223|ICAO-KCCB|||||||||||||240|N-Normal|1|FM15-METAR|223|ICAO-KCCB|5.1|N-Normal|1|FM15-METAR|223|ICAO-KCCB|||||||||||||72|Derived||FM15-METAR|223|ICAO-KCCB|||||||||||||||||||||||||||||||||||||||||||||||||||||||||||||||||||||||||1015.6||1|FM15-METAR|223|ICAO-KCCB|||||||||||||||||||||||||||||||||||||||||||MET064METAR KCCB 210055Z AUTO 24010KT 10SM OVC027 12/07 A2999 RMK AO2=||F||223|ICAO-KCCB
USI0000KCCB|CABLE|2017|12|21|01|15|34.1115|-117.6876|438.6|12.0||1|FM15-METAR|223|ICAO-KCCB|7.0||1|FM15-METAR|223|ICAO-KCCB|||||||||||||250|N-Normal|1|FM15-METAR|223|ICAO-KCCB|4.1|N-Normal|1|FM15-METAR|223|ICAO-KCCB|||||||||||||72|Derived||FM15-METAR|223|ICAO-KCCB|||||||||||||||||||||||||||||||||||||||||||||||||||||||||||||||||||||||||1015.6||1|FM15-METAR|223|ICAO-KCCB|||||||||||||||||||||||||||||||||||||||||||MET071METAR KCCB 210115Z AUTO 25008KT 10SM BKN020 OVC028 12/07 A2999 RMK AO2=||F||223|ICAO-KCCB
USI0000KCCB|CABLE|2017|12|21|01|35|34.1115|-117.6876|438.6|12.0||1|FM15-METAR|223|ICAO-KCCB|7.0||1|FM15-METAR|223|ICAO-KCCB|||||||||||||260|N-Normal|1|FM15-METAR|223|ICAO-KCCB|4.6|N-Normal|1|FM15-METAR|223|ICAO-KCCB|||||||||||||72|Derived||FM15-METAR|223|ICAO-KCCB|||||||||||||||||||||||||||||||||||||||||||||||||||||||||||||||||||||||||1015.9||1|FM15-METAR|223|ICAO-KCCB|||||||||||||||||||||||||||||||||||||||||||MET078METAR KCCB 210135Z AUTO 26009KT 10SM BKN020 BKN029 OVC049 12/07 A3000 RMK AO2=||F||223|ICAO-KCCB
USI0000KCCB|CABLE|2017|12|21|01|55|34.1115|-117.6876|438.6|11.0||1|FM15-METAR|223|ICAO-KCCB|7.0||1|FM15-METAR|223|ICAO-KCCB|||||||||||||230|N-Normal|1|FM15-METAR|223|ICAO-KCCB|3.1|N-Normal|1|FM15-METAR|223|ICAO-KCCB|||||||||||||77|Derived||FM15-METAR|223|ICAO-KCCB|||||||||||||||||||||||||||||||||||||||||||||||||||||||||||||||||||||||||1015.9||1|FM15-METAR|223|ICAO-KCCB|||||||||||||||||||||||||||||||||||||||||||MET078METAR KCCB 210155Z AUTO 23006KT 10SM SCT022 BKN044 OVC055 11/07 A3000 RMK AO2=||F||223|ICAO-KCCB
USI0000KCCB|CABLE|2017|12|21|02|15|34.1115|-117.6876|438.6|11.0||1|FM15-METAR|223|ICAO-KCCB|8.0||1|FM15-METAR|223|ICAO-KCCB|||||||||||||260|N-Normal|1|FM15-METAR|223|ICAO-KCCB|4.6|N-Normal|1|FM15-METAR|223|ICAO-KCCB|||||||||||||82|Derived||FM15-METAR|223|ICAO-KCCB|||||||||||||||||||||||||||||||||||||||||||||||||||||||||||||||||||||||||1015.9||1|FM15-METAR|223|ICAO-KCCB|||||||||||||||||||||||||||||||||||||||||||MET078METAR KCCB 210215Z AUTO 26009KT 10SM BKN019 BKN034 OVC055 11/08 A3000 RMK AO2=||F||223|ICAO-KCCB
USI0000KCCB|CABLE|2017|12|21|02|35|34.1115|-117.6876|438.6|11.0||1|FM15-METAR|223|ICAO-KCCB|8.0||1|FM15-METAR|223|ICAO-KCCB|||||||||||||250|N-Normal|1|FM15-METAR|223|ICAO-KCCB|4.1|N-Normal|1|FM15-METAR|223|ICAO-KCCB|||||||||||||82|Derived||FM15-METAR|223|ICAO-KCCB|||||||||||||||||||||||||||||||||||||||||||||||||||||||||||||||||||||||||1016.3||1|FM15-METAR|223|ICAO-KCCB|||||||||||||||||||||||||||||||||||||||||||MET057METAR KCCB 210235Z AUTO 25008KT 10SM 11/08 A3001 RMK AO2=||F||223|ICAO-KCCB
USI0000KCCB|CABLE|2017|12|21|02|55|34.1115|-117.6876|438.6|11.0||1|FM15-METAR|223|ICAO-KCCB|8.0||1|FM15-METAR|223|ICAO-KCCB|||||||||||||250|N-Normal|1|FM15-METAR|223|ICAO-KCCB|3.6|N-Normal|1|FM15-METAR|223|ICAO-KCCB|||||||||||||82|Derived||FM15-METAR|223|ICAO-KCCB|||||||||||||||||||||||||||||||||||||||||||||||||||||||||||||||||||||||||1015.9||1|FM15-METAR|223|ICAO-KCCB|||||||||||||||||||||||||||||||||||||||||||MET057METAR KCCB 210255Z AUTO 25007KT 10SM 11/08 A3000 RMK AO2=||F||223|ICAO-KCCB
USI0000KCCB|CABLE|2017|12|21|03|15|34.1115|-117.6876|438.6|11.0||1|FM15-METAR|223|ICAO-KCCB|8.0||1|FM15-METAR|223|ICAO-KCCB|||||||||||||280|N-Normal|1|FM15-METAR|223|ICAO-KCCB|2.6|N-Normal|1|FM15-METAR|223|ICAO-KCCB|||||||||||||82|Derived||FM15-METAR|223|ICAO-KCCB|||||||||||||||||||||||||||||||||||||||||||||||||||||||||||||||||||||||||1016.3||1|FM15-METAR|223|ICAO-KCCB|||||||||||||||||||||||||||||||||||||||||||MET057METAR KCCB 210315Z AUTO 28005KT 10SM 11/08 A3001 RMK AO2=||F||223|ICAO-KCCB
USI0000KCCB|CABLE|2017|12|21|03|35|34.1115|-117.6876|438.6|11.0||1|FM15-METAR|223|ICAO-KCCB|7.0||1|FM15-METAR|223|ICAO-KCCB|||||||||||||240|N-Normal|1|FM15-METAR|223|ICAO-KCCB|3.1|N-Normal|1|FM15-METAR|223|ICAO-KCCB|||||||||||||77|Derived||FM15-METAR|223|ICAO-KCCB|||||||||||||||||||||||||||||||||||||||||||||||||||||||||||||||||||||||||1015.9||1|FM15-METAR|223|ICAO-KCCB|||||||||||||||||||||||||||||||||||||||||||MET078METAR KCCB 210335Z AUTO 24006KT 10SM FEW020 BKN027 OVC033 11/07 A3000 RMK AO2=||F||223|ICAO-KCCB
USI0000KCCB|CABLE|2017|12|21|03|55|34.1115|-117.6876|438.6|11.0||1|FM15-METAR|223|ICAO-KCCB|7.0||1|FM15-METAR|223|ICAO-KCCB|||||||||||||230|N-Normal|1|FM15-METAR|223|ICAO-KCCB|3.1|N-Normal|1|FM15-METAR|223|ICAO-KCCB|||||||||||||77|Derived||FM15-METAR|223|ICAO-KCCB|||||||||||||||||||||||||||||||||||||||||||||||||||||||||||||||||||||||||1016.3||1|FM15-METAR|223|ICAO-KCCB|||||||||||||||||||||||||||||||||||||||||||MET071METAR KCCB 210355Z AUTO 23006KT 10SM FEW028 BKN036 11/07 A3001 RMK AO2=||F||223|ICAO-KCCB
USI0000KCCB|CABLE|2017|12|21|04|15|34.1115|-117.6876|438.6|11.0||1|FM15-METAR|223|ICAO-KCCB|8.0||1|FM15-METAR|223|ICAO-KCCB|||||||||||||999|C-Calm|9|FM15-METAR|223|ICAO-KCCB|0.0|C-Calm|1|FM15-METAR|223|ICAO-KCCB|||||||||||||82|Derived||FM15-METAR|223|ICAO-KCCB|||||||||||||||||||||||||||||||||||||||||||||||||||||||||||||||||||||||||1016.6||1|FM15-METAR|223|ICAO-KCCB|||||||||||||||||||||||||||||||||||||||||||MET078METAR KCCB 210415Z AUTO 00000KT 10SM FEW025 SCT036 BKN044 11/08 A3002 RMK AO2=||F||223|ICAO-KCCB
USI0000KCCB|CABLE|2017|12|21|04|35|34.1115|-117.6876|438.6|11.0||1|FM15-METAR|223|ICAO-KCCB|8.0||1|FM15-METAR|223|ICAO-KCCB|||||||||||||999|C-Calm|9|FM15-METAR|223|ICAO-KCCB|0.0|C-Calm|1|FM15-METAR|223|ICAO-KCCB|||||||||||||82|Derived||FM15-METAR|223|ICAO-KCCB|||||||||||||||||||||||||||||||||||||||||||||||||||||||||||||||||||||||||1016.6||1|FM15-METAR|223|ICAO-KCCB|||||||||||||||||||||||||||||||||||||||||||MET057METAR KCCB 210435Z AUTO 00000KT 10SM 11/08 A3002 RMK AO2=||F||223|ICAO-KCCB
USI0000KCCB|CABLE|2017|12|21|04|55|34.1115|-117.6876|438.6|11.0||1|FM15-METAR|223|ICAO-KCCB|8.0||1|FM15-METAR|223|ICAO-KCCB|||||||||||||999|C-Calm|9|FM15-METAR|223|ICAO-KCCB|0.0|C-Calm|1|FM15-METAR|223|ICAO-KCCB|||||||||||||82|Derived||FM15-METAR|223|ICAO-KCCB|||||||||||||||||||||||||||||||||||||||||||||||||||||||||||||||||||||||||1016.6||1|FM15-METAR|223|ICAO-KCCB|||||||||||||||||||||||||||||||||||||||||||MET057METAR KCCB 210455Z AUTO 00000KT 10SM 11/08 A3002 RMK AO2=||F||223|ICAO-KCCB
USI0000KCCB|CABLE|2017|12|21|05|15|34.1115|-117.6876|438.6|11.0||1|FM15-METAR|223|ICAO-KCCB|8.0||1|FM15-METAR|223|ICAO-KCCB|||||||||||||999|C-Calm|9|FM15-METAR|223|ICAO-KCCB|0.0|C-Calm|1|FM15-METAR|223|ICAO-KCCB|||||||||||||82|Derived||FM15-METAR|223|ICAO-KCCB|||||||||||||||||||||||||||||||||||||||||||||||||||||||||||||||||||||||||1016.9||1|FM15-METAR|223|ICAO-KCCB|||||||||||||||||||||||||||||||||||||||||||MET057METAR KCCB 210515Z AUTO 00000KT 10SM 11/08 A3003 RMK AO2=||F||223|ICAO-KCCB
USI0000KCCB|CABLE|2017|12|21|05|35|34.1115|-117.6876|438.6|10.0||1|FM15-METAR|223|ICAO-KCCB|7.0||1|FM15-METAR|223|ICAO-KCCB|||||||||||||040|N-Normal|1|FM15-METAR|223|ICAO-KCCB|2.6|N-Normal|1|FM15-METAR|223|ICAO-KCCB|||||||||||||82|Derived||FM15-METAR|223|ICAO-KCCB|||||||||||||||||||||||||||||||||||||||||||||||||||||||||||||||||||||||||1016.6||1|FM15-METAR|223|ICAO-KCCB|||||||||||||||||||||||||||||||||||||||||||MET057METAR KCCB 210535Z AUTO 04005KT 10SM 10/07 A3002 RMK AO2=||F||223|ICAO-KCCB
USI0000KCCB|CABLE|2017|12|21|05|55|34.1115|-117.6876|438.6|10.0||1|FM15-METAR|223|ICAO-KCCB|8.0||1|FM15-METAR|223|ICAO-KCCB|||||||||||||999|C-Calm|9|FM15-METAR|223|ICAO-KCCB|0.0|C-Calm|1|FM15-METAR|223|ICAO-KCCB|||||||||||||88|Derived||FM15-METAR|223|ICAO-KCCB|||||||||||||||||||||||||||||||||||||||||||||||||||||||||||||||||||||||||1016.6||1|FM15-METAR|223|ICAO-KCCB|||||||||||||||||||||||||||||||||||||||||||MET057METAR KCCB 210555Z AUTO 00000KT 10SM 10/08 A3002 RMK AO2=||F||223|ICAO-KCCB
USI0000KCCB|CABLE|2017|12|21|06|15|34.1115|-117.6876|438.6|10.0||1|FM15-METAR|223|ICAO-KCCB|8.0||1|FM15-METAR|223|ICAO-KCCB|||||||||||||999|C-Calm|9|FM15-METAR|223|ICAO-KCCB|0.0|C-Calm|1|FM15-METAR|223|ICAO-KCCB|||||||||||||88|Derived||FM15-METAR|223|ICAO-KCCB|||||||||||||||||||||||||||||||||||||||||||||||||||||||||||||||||||||||||1016.6||1|FM15-METAR|223|ICAO-KCCB|||||||||||||||||||||||||||||||||||||||||||MET064METAR KCCB 210615Z AUTO 00000KT 10SM SCT013 10/08 A3002 RMK AO2=||F||223|ICAO-KCCB
USI0000KCCB|CABLE|2017|12|21|06|35|34.1115|-117.6876|438.6|10.0||1|FM15-METAR|223|ICAO-KCCB|8.0||1|FM15-METAR|223|ICAO-KCCB|||||||||||||999|C-Calm|9|FM15-METAR|223|ICAO-KCCB|0.0|C-Calm|1|FM15-METAR|223|ICAO-KCCB|||||||||||||88|Derived||FM15-METAR|223|ICAO-KCCB|||||||||||||||||||||||||||||||||||||||||||||||||||||||||||||||||||||||||1016.6||1|FM15-METAR|223|ICAO-KCCB|||||||||||||||||||||||||||||||||||||||||||MET057METAR KCCB 210635Z AUTO 00000KT 10SM 10/08 A3002 RMK AO2=||F||223|ICAO-KCCB
USI0000KCCB|CABLE|2017|12|21|06|55|34.1115|-117.6876|438.6|9.0||1|FM15-METAR|223|ICAO-KCCB|7.0||1|FM15-METAR|223|ICAO-KCCB|||||||||||||999|C-Calm|9|FM15-METAR|223|ICAO-KCCB|0.0|C-Calm|1|FM15-METAR|223|ICAO-KCCB|||||||||||||87|Derived||FM15-METAR|223|ICAO-KCCB|||||||||||||||||||||||||||||||||||||||||||||||||||||||||||||||||||||||||1016.6||1|FM15-METAR|223|ICAO-KCCB|||||||||||||||||||||||||||||||||||||||||||MET057METAR KCCB 210655Z AUTO 00000KT 10SM 09/07 A3002 RMK AO2=||F||223|ICAO-KCCB
USI0000KCCB|CABLE|2017|12|21|07|15|34.1115|-117.6876|438.6|9.0||1|FM15-METAR|223|ICAO-KCCB|7.0||1|FM15-METAR|223|ICAO-KCCB|||||||||||||999|C-Calm|9|FM15-METAR|223|ICAO-KCCB|0.0|C-Calm|1|FM15-METAR|223|ICAO-KCCB|||||||||||||87|Derived||FM15-METAR|223|ICAO-KCCB|||||||||||||||||||||||||||||||||||||||||||||||||||||||||||||||||||||||||1016.6||1|FM15-METAR|223|ICAO-KCCB|||||||||||||||||||||||||||||||||||||||||||MET057METAR KCCB 210715Z AUTO 00000KT 10SM 09/07 A3002 RMK AO2=||F||223|ICAO-KCCB
USI0000KCCB|CABLE|2017|12|21|07|35|34.1115|-117.6876|438.6|10.0||1|FM15-METAR|223|ICAO-KCCB|8.0||1|FM15-METAR|223|ICAO-KCCB|||||||||||||999|C-Calm|9|FM15-METAR|223|ICAO-KCCB|0.0|C-Calm|1|FM15-METAR|223|ICAO-KCCB|||||||||||||88|Derived||FM15-METAR|223|ICAO-KCCB|||||||||||||||||||||||||||||||||||||||||||||||||||||||||||||||||||||||||1016.3||1|FM15-METAR|223|ICAO-KCCB|||||||||||||||||||||||||||||||||||||||||||MET057METAR KCCB 210735Z AUTO 00000KT 10SM 10/08 A3001 RMK AO2=||F||223|ICAO-KCCB
USI0000KCCB|CABLE|2017|12|21|07|55|34.1115|-117.6876|438.6|10.0||1|FM15-METAR|223|ICAO-KCCB|7.0||1|FM15-METAR|223|ICAO-KCCB|||||||||||||999|C-Calm|9|FM15-METAR|223|ICAO-KCCB|0.0|C-Calm|1|FM15-METAR|223|ICAO-KCCB|||||||||||||82|Derived||FM15-METAR|223|ICAO-KCCB|||||||||||||||||||||||||||||||||||||||||||||||||||||||||||||||||||||||||1016.3||1|FM15-METAR|223|ICAO-KCCB|||||||||||||||||||||||||||||||||||||||||||MET057METAR KCCB 210755Z AUTO 00000KT 10SM 10/07 A3001 RMK AO2=||F||223|ICAO-KCCB
USI0000KCCB|CABLE|2017|12|21|08|15|34.1115|-117.6876|438.6|9.0||1|FM15-METAR|223|ICAO-KCCB|8.0||1|FM15-METAR|223|ICAO-KCCB|||||||||||||180|N-Normal|1|FM15-METAR|223|ICAO-KCCB|2.1|N-Normal|1|FM15-METAR|223|ICAO-KCCB|||||||||||||94|Derived||FM15-METAR|223|ICAO-KCCB|||||||||||||||||||||||||||||||||||||||||||||||||||||||||||||||||||||||||1015.9||1|FM15-METAR|223|ICAO-KCCB|||||||||||||||||||||||||||||||||||||||||||MET077METAR KCCB 210815Z AUTO 18004KT 8SM FEW010 SCT015 BKN023 09/08 A3000 RMK AO2=||F||223|ICAO-KCCB
USI0000KCCB|CABLE|2017|12|21|08|35|34.1115|-117.6876|438.6|9.0||1|FM15-METAR|223|ICAO-KCCB|8.0||1|FM15-METAR|223|ICAO-KCCB|||||||||||||999|C-Calm|9|FM15-METAR|223|ICAO-KCCB|0.0|C-Calm|1|FM15-METAR|223|ICAO-KCCB|||||||||||||94|Derived||FM15-METAR|223|ICAO-KCCB|||||||||||||||||||||||||||||||||||||||||||||||||||||||||||||||||||||||||1015.9||1|FM15-METAR|223|ICAO-KCCB|||||||||||||||||||||||||||||||||||||||||||MET056METAR KCCB 210835Z AUTO 00000KT 8SM 09/08 A3000 RMK AO2=||F||223|ICAO-KCCB
USI0000KCCB|CABLE|2017|12|21|08|55|34.1115|-117.6876|438.6|9.0||1|FM15-METAR|223|ICAO-KCCB|8.0||1|FM15-METAR|223|ICAO-KCCB|||||||||||||999|C-Calm|9|FM15-METAR|223|ICAO-KCCB|0.0|C-Calm|1|FM15-METAR|223|ICAO-KCCB|||||||||||||94|Derived||FM15-METAR|223|ICAO-KCCB|||||||||||||||||||||||||||||||||||||||||||||||||||||||||||||||||||||||||1016.3||1|FM15-METAR|223|ICAO-KCCB|||||||||||||||||||||||||||||||||||||||||||MET056METAR KCCB 210855Z AUTO 00000KT 8SM 09/08 A3001 RMK AO2=||F||223|ICAO-KCCB
USI0000KCCB|CABLE|2017|12|21|09|15|34.1115|-117.6876|438.6|9.0||1|FM15-METAR|223|ICAO-KCCB|8.0||1|FM15-METAR|223|ICAO-KCCB|||||||||||||999|C-Calm|9|FM15-METAR|223|ICAO-KCCB|0.0|C-Calm|1|FM15-METAR|223|ICAO-KCCB|||||||||||||94|Derived||FM15-METAR|223|ICAO-KCCB|||||||||||||||||||||||||||||||||||||||||||||||||||||||||||||||||||||||||1016.3||1|FM15-METAR|223|ICAO-KCCB|||||||||||||||||||||||||||||||||||||||||||MET056METAR KCCB 210915Z AUTO 00000KT 7SM 09/08 A3001 RMK AO2=||F||223|ICAO-KCCB
USI0000KCCB|CABLE|2017|12|21|09|35|34.1115|-117.6876|438.6|9.0||1|FM15-METAR|223|ICAO-KCCB|7.0||1|FM15-METAR|223|ICAO-KCCB|||||||||||||999|C-Calm|9|FM15-METAR|223|ICAO-KCCB|0.0|C-Calm|1|FM15-METAR|223|ICAO-KCCB|||||||||||||87|Derived||FM15-METAR|223|ICAO-KCCB|||||||||||||||||||||||||||||||||||||||||||||||||||||||||||||||||||||||||1016.6||1|FM15-METAR|223|ICAO-KCCB|||||||||||||||||||||||||||||||||||||||||||MET059METAR KCCB 210935Z AUTO 00000KT 6SM BR 09/07 A3002 RMK AO2=||F||223|ICAO-KCCB
USI0000KCCB|CABLE|2017|12|21|09|55|34.1115|-117.6876|438.6|9.0||1|FM15-METAR|223|ICAO-KCCB|7.0||1|FM15-METAR|223|ICAO-KCCB|||||||||||||999|C-Calm|9|FM15-METAR|223|ICAO-KCCB|0.0|C-Calm|1|FM15-METAR|223|ICAO-KCCB|||||||||||||87|Derived||FM15-METAR|223|ICAO-KCCB|||||||||||||||||||||||||||||||||||||||||||||||||||||||||||||||||||||||||1016.9||1|FM15-METAR|223|ICAO-KCCB|||||||||||||||||||||||||||||||||||||||||||MET056METAR KCCB 210955Z AUTO 00000KT 9SM 09/07 A3003 RMK AO2=||F||223|ICAO-KCCB
USI0000KCCB|CABLE|2017|12|21|10|15|34.1115|-117.6876|438.6|9.0||1|FM15-METAR|223|ICAO-KCCB|5.0||1|FM15-METAR|223|ICAO-KCCB|||||||||||||999|C-Calm|9|FM15-METAR|223|ICAO-KCCB|0.0|C-Calm|1|FM15-METAR|223|ICAO-KCCB|||||||||||||76|Derived||FM15-METAR|223|ICAO-KCCB|||||||||||||||||||||||||||||||||||||||||||||||||||||||||||||||||||||||||1016.9||1|FM15-METAR|223|ICAO-KCCB|||||||||||||||||||||||||||||||||||||||||||MET078METAR KCCB 211015Z AUTO 00000KT 10SM FEW018 FEW031 SCT050 09/05 A3003 RMK AO2=||F||223|ICAO-KCCB
USI0000KCCB|CABLE|2017|12|21|10|35|34.1115|-117.6876|438.6|9.0||1|FM15-METAR|223|ICAO-KCCB|4.0||1|FM15-METAR|223|ICAO-KCCB|||||||||||||999|C-Calm|9|FM15-METAR|223|ICAO-KCCB|0.0|C-Calm|1|FM15-METAR|223|ICAO-KCCB|||||||||||||71|Derived||FM15-METAR|223|ICAO-KCCB|||||||||||||||||||||||||||||||||||||||||||||||||||||||||||||||||||||||||1017.3||1|FM15-METAR|223|ICAO-KCCB|||||||||||||||||||||||||||||||||||||||||||MET057METAR KCCB 211035Z AUTO 00000KT 10SM 09/04 A3004 RMK AO2=||F||223|ICAO-KCCB
USI0000KCCB|CABLE|2017|12|21|10|55|34.1115|-117.6876|438.6|8.0||1|FM15-METAR|223|ICAO-KCCB|5.0||1|FM15-METAR|223|ICAO-KCCB|||||||||||||999|C-Calm|9|FM15-METAR|223|ICAO-KCCB|0.0|C-Calm|1|FM15-METAR|223|ICAO-KCCB|||||||||||||82|Derived||FM15-METAR|223|ICAO-KCCB|||||||||||||||||||||||||||||||||||||||||||||||||||||||||||||||||||||||||1017.3||1|FM15-METAR|223|ICAO-KCCB|||||||||||||||||||||||||||||||||||||||||||MET057METAR KCCB 211055Z AUTO 00000KT 10SM 08/05 A3004 RMK AO2=||F||223|ICAO-KCCB
USI0000KCCB|CABLE|2017|12|21|11|15|34.1115|-117.6876|438.6|8.0||1|FM15-METAR|223|ICAO-KCCB|4.0||1|FM15-METAR|223|ICAO-KCCB|||||||||||||999|C-Calm|9|FM15-METAR|223|ICAO-KCCB|0.0|C-Calm|1|FM15-METAR|223|ICAO-KCCB|||||||||||||76|Derived||FM15-METAR|223|ICAO-KCCB|||||||||||||||||||||||||||||||||||||||||||||||||||||||||||||||||||||||||1017.3||1|FM15-METAR|223|ICAO-KCCB|||||||||||||||||||||||||||||||||||||||||||MET057METAR KCCB 211115Z AUTO 00000KT 10SM 08/04 A3004 RMK AO2=||F||223|ICAO-KCCB
USI0000KCCB|CABLE|2017|12|21|11|35|34.1115|-117.6876|438.6|7.0||1|FM15-METAR|223|ICAO-KCCB|4.0||1|FM15-METAR|223|ICAO-KCCB|||||||||||||999|C-Calm|9|FM15-METAR|223|ICAO-KCCB|0.0|C-Calm|1|FM15-METAR|223|ICAO-KCCB|||||||||||||81|Derived||FM15-METAR|223|ICAO-KCCB|||||||||||||||||||||||||||||||||||||||||||||||||||||||||||||||||||||||||1017.3||1|FM15-METAR|223|ICAO-KCCB|||||||||||||||||||||||||||||||||||||||||||MET057METAR KCCB 211135Z AUTO 00000KT 10SM 07/04 A3004 RMK AO2=||F||223|ICAO-KCCB
USI0000KCCB|CABLE|2017|12|21|11|55|34.1115|-117.6876|438.6|8.0||1|FM15-METAR|223|ICAO-KCCB|4.0||1|FM15-METAR|223|ICAO-KCCB|||||||||||||999|C-Calm|9|FM15-METAR|223|ICAO-KCCB|0.0|C-Calm|1|FM15-METAR|223|ICAO-KCCB|||||||||||||76|Derived||FM15-METAR|223|ICAO-KCCB|||||||||||||||||||||||||||||||||||||||||||||||||||||||||||||||||||||||||1017.3||1|FM15-METAR|223|ICAO-KCCB|||||||||||||||||||||||||||||||||||||||||||MET061METAR KCCB 211155Z AUTO 00000KT 10SM CLR 08/04 A3004 RMK AO2=||F||223|ICAO-KCCB
USI0000KCCB|CABLE|2017|12|21|12|15|34.1115|-117.6876|438.6|7.0||1|FM15-METAR|223|ICAO-KCCB|4.0||1|FM15-METAR|223|ICAO-KCCB|||||||||||||040|N-Normal|1|FM15-METAR|223|ICAO-KCCB|2.1|N-Normal|1|FM15-METAR|223|ICAO-KCCB|||||||||||||81|Derived||FM15-METAR|223|ICAO-KCCB|||||||||||||||||||||||||||||||||||||||||||||||||||||||||||||||||||||||||1017.3||1|FM15-METAR|223|ICAO-KCCB|||||||||||||||||||||||||||||||||||||||||||MET061METAR KCCB 211215Z AUTO 04004KT 10SM CLR 07/04 A3004 RMK AO2=||F||223|ICAO-KCCB
USI0000KCCB|CABLE|2017|12|21|12|35|34.1115|-117.6876|438.6|7.0||1|FM15-METAR|223|ICAO-KCCB|3.0||1|FM15-METAR|223|ICAO-KCCB|||||||||||||360|N-Normal|1|FM15-METAR|223|ICAO-KCCB|2.1|N-Normal|1|FM15-METAR|223|ICAO-KCCB|||||||||||||76|Derived||FM15-METAR|223|ICAO-KCCB|||||||||||||||||||||||||||||||||||||||||||||||||||||||||||||||||||||||||1016.9||1|FM15-METAR|223|ICAO-KCCB|||||||||||||||||||||||||||||||||||||||||||MET064METAR KCCB 211235Z AUTO 36004KT 10SM FEW043 07/03 A3003 RMK AO2=||F||223|ICAO-KCCB
USI0000KCCB|CABLE|2017|12|21|12|55|34.1115|-117.6876|438.6|7.0||1|FM15-METAR|223|ICAO-KCCB|3.0||1|FM15-METAR|223|ICAO-KCCB|||||||||||||999|C-Calm|9|FM15-METAR|223|ICAO-KCCB|0.0|C-Calm|1|FM15-METAR|223|ICAO-KCCB|||||||||||||76|Derived||FM15-METAR|223|ICAO-KCCB|||||||||||||||||||||||||||||||||||||||||||||||||||||||||||||||||||||||||1016.9||1|FM15-METAR|223|ICAO-KCCB|||||||||||||||||||||||||||||||||||||||||||MET061METAR KCCB 211255Z AUTO 00000KT 10SM CLR 07/03 A3003 RMK AO2=||F||223|ICAO-KCCB
USI0000KCCB|CABLE|2017|12|21|13|15|34.1115|-117.6876|438.6|6.0||1|FM15-METAR|223|ICAO-KCCB|2.0||1|FM15-METAR|223|ICAO-KCCB|||||||||||||340|N-Normal|1|FM15-METAR|223|ICAO-KCCB|2.1|N-Normal|1|FM15-METAR|223|ICAO-KCCB|||||||||||||76|Derived||FM15-METAR|223|ICAO-KCCB|||||||||||||||||||||||||||||||||||||||||||||||||||||||||||||||||||||||||1017.3||1|FM15-METAR|223|ICAO-KCCB|||||||||||||||||||||||||||||||||||||||||||MET061METAR KCCB 211315Z AUTO 34004KT 10SM CLR 06/02 A3004 RMK AO2=||F||223|ICAO-KCCB
USI0000KCCB|CABLE|2017|12|21|13|35|34.1115|-117.6876|438.6|6.0||1|FM15-METAR|223|ICAO-KCCB|2.0||1|FM15-METAR|223|ICAO-KCCB|||||||||||||310|N-Normal|1|FM15-METAR|223|ICAO-KCCB|2.1|N-Normal|1|FM15-METAR|223|ICAO-KCCB|||||||||||||76|Derived||FM15-METAR|223|ICAO-KCCB|||||||||||||||||||||||||||||||||||||||||||||||||||||||||||||||||||||||||1017.3||1|FM15-METAR|223|ICAO-KCCB|||||||||||||||||||||||||||||||||||||||||||MET061METAR KCCB 211335Z AUTO 31004KT 10SM CLR 06/02 A3004 RMK AO2=||F||223|ICAO-KCCB
USI0000KCCB|CABLE|2017|12|21|13|55|34.1115|-117.6876|438.6|6.0||1|FM15-METAR|223|ICAO-KCCB|2.0||1|FM15-METAR|223|ICAO-KCCB|||||||||||||360|N-Normal|1|FM15-METAR|223|ICAO-KCCB|2.1|N-Normal|1|FM15-METAR|223|ICAO-KCCB|||||||||||||76|Derived||FM15-METAR|223|ICAO-KCCB|||||||||||||||||||||||||||||||||||||||||||||||||||||||||||||||||||||||||1017.6||1|FM15-METAR|223|ICAO-KCCB|||||||||||||||||||||||||||||||||||||||||||MET061METAR KCCB 211355Z AUTO 36004KT 10SM CLR 06/02 A3005 RMK AO2=||F||223|ICAO-KCCB
USI0000KCCB|CABLE|2017|12|21|14|15|34.1115|-117.6876|438.6|6.0||1|FM15-METAR|223|ICAO-KCCB|2.0||1|FM15-METAR|223|ICAO-KCCB|||||||||||||999|C-Calm|9|FM15-METAR|223|ICAO-KCCB|0.0|C-Calm|1|FM15-METAR|223|ICAO-KCCB|||||||||||||76|Derived||FM15-METAR|223|ICAO-KCCB|||||||||||||||||||||||||||||||||||||||||||||||||||||||||||||||||||||||||1017.9||1|FM15-METAR|223|ICAO-KCCB|||||||||||||||||||||||||||||||||||||||||||MET061METAR KCCB 211415Z AUTO 00000KT 10SM CLR 06/02 A3006 RMK AO2=||F||223|ICAO-KCCB
USI0000KCCB|CABLE|2017|12|21|14|35|34.1115|-117.6876|438.6|6.0||1|FM15-METAR|223|ICAO-KCCB|2.0||1|FM15-METAR|223|ICAO-KCCB|||||||||||||999|C-Calm|9|FM15-METAR|223|ICAO-KCCB|0.0|C-Calm|1|FM15-METAR|223|ICAO-KCCB|||||||||||||76|Derived||FM15-METAR|223|ICAO-KCCB|||||||||||||||||||||||||||||||||||||||||||||||||||||||||||||||||||||||||1018.3||1|FM15-METAR|223|ICAO-KCCB|||||||||||||||||||||||||||||||||||||||||||MET061METAR KCCB 211435Z AUTO 00000KT 10SM CLR 06/02 A3007 RMK AO2=||F||223|ICAO-KCCB
USI0000KCCB|CABLE|2017|12|21|14|55|34.1115|-117.6876|438.6|6.0||1|FM15-METAR|223|ICAO-KCCB|0.0||1|FM15-METAR|223|ICAO-KCCB|||||||||||||290|N-Normal|1|FM15-METAR|223|ICAO-KCCB|2.1|N-Normal|1|FM15-METAR|223|ICAO-KCCB|||||||||||||66|Derived||FM15-METAR|223|ICAO-KCCB|||||||||||||||||||||||||||||||||||||||||||||||||||||||||||||||||||||||||1018.3||1|FM15-METAR|223|ICAO-KCCB|||||||||||||||||||||||||||||||||||||||||||MET061METAR KCCB 211455Z AUTO 29004KT 10SM CLR 06/00 A3007 RMK AO2=||F||223|ICAO-KCCB
USI0000KCCB|CABLE|2017|12|21|15|15|34.1115|-117.6876|438.6|6.0||1|FM15-METAR|223|ICAO-KCCB|-3.0||1|FM15-METAR|223|ICAO-KCCB|||||||||||||340|N-Normal|1|FM15-METAR|223|ICAO-KCCB|3.1|N-Normal|1|FM15-METAR|223|ICAO-KCCB|||||||||||||53|Derived||FM15-METAR|223|ICAO-KCCB|||||||||||||||||||||||||||||||||||||||||||||||||||||||||||||||||||||||||1018.6||1|FM15-METAR|223|ICAO-KCCB|||||||||||||||||||||||||||||||||||||||||||MET062METAR KCCB 211515Z AUTO 34006KT 10SM CLR 06/M03 A3008 RMK AO2=||F||223|ICAO-KCCB
USI0000KCCB|CABLE|2017|12|21|15|35|34.1115|-117.6876|438.6|7.0||1|FM15-METAR|223|ICAO-KCCB|-3.0||1|FM15-METAR|223|ICAO-KCCB|||||||||||||010|N-Normal|1|FM15-METAR|223|ICAO-KCCB|1.5|N-Normal|1|FM15-METAR|223|ICAO-KCCB|||||||||||||49|Derived||FM15-METAR|223|ICAO-KCCB|||||||||||||||||||||||||||||||||||||||||||||||||||||||||||||||||||||||||1019.0||1|FM15-METAR|223|ICAO-KCCB|||||||||||||||||||||||||||||||||||||||||||MET062METAR KCCB 211535Z AUTO 01003KT 10SM CLR 07/M03 A3009 RMK AO2=||F||223|ICAO-KCCB
USI0000KCCB|CABLE|2017|12|21|15|55|34.1115|-117.6876|438.6|8.0||1|FM15-METAR|223|ICAO-KCCB|-4.0||1|FM15-METAR|223|ICAO-KCCB|||||||||||||999|C-Calm|9|FM15-METAR|223|ICAO-KCCB|0.0|C-Calm|1|FM15-METAR|223|ICAO-KCCB|||||||||||||43|Derived||FM15-METAR|223|ICAO-KCCB|||||||||||||||||||||||||||||||||||||||||||||||||||||||||||||||||||||||||1019.0||1|FM15-METAR|223|ICAO-KCCB|||||||||||||||||||||||||||||||||||||||||||MET062METAR KCCB 211555Z AUTO 00000KT 10SM CLR 08/M04 A3009 RMK AO2=||F||223|ICAO-KCCB
USI0000KCCB|CABLE|2017|12|21|16|15|34.1115|-117.6876|438.6|8.0||1|FM15-METAR|223|ICAO-KCCB|-2.0||1|FM15-METAR|223|ICAO-KCCB|||||||||||||999|C-Calm|9|FM15-METAR|223|ICAO-KCCB|0.0|C-Calm|1|FM15-METAR|223|ICAO-KCCB|||||||||||||50|Derived||FM15-METAR|223|ICAO-KCCB|||||||||||||||||||||||||||||||||||||||||||||||||||||||||||||||||||||||||1019.3||1|FM15-METAR|223|ICAO-KCCB|||||||||||||||||||||||||||||||||||||||||||MET062METAR KCCB 211615Z AUTO 00000KT 10SM CLR 08/M02 A3010 RMK AO2=||F||223|ICAO-KCCB
USI0000KCCB|CABLE|2017|12|21|16|35|34.1115|-117.6876|438.6|9.0||1|FM15-METAR|223|ICAO-KCCB|-5.0||1|FM15-METAR|223|ICAO-KCCB|||||||||||||999|V-Variable|9|FM15-METAR|223|ICAO-KCCB|1.5|V-Variable|1|FM15-METAR|223|ICAO-KCCB|||||||||||||37|Derived||FM15-METAR|223|ICAO-KCCB|||||||||||||||||||||||||||||||||||||||||||||||||||||||||||||||||||||||||1019.3||1|FM15-METAR|223|ICAO-KCCB|||||||||||||||||||||||||||||||||||||||||||MET062METAR KCCB 211635Z AUTO VRB03KT 10SM CLR 09/M05 A3010 RMK AO2=||F||223|ICAO-KCCB
USI0000KCCB|CABLE|2017|12|21|16|55|34.1115|-117.6876|438.6|10.0||1|FM15-METAR|223|ICAO-KCCB|-6.0||1|FM15-METAR|223|ICAO-KCCB|||||||||||||280|N-Normal|1|FM15-METAR|223|ICAO-KCCB|2.6|N-Normal|1|FM15-METAR|223|ICAO-KCCB|||||||||||||32|Derived||FM15-METAR|223|ICAO-KCCB|||||||||||||||||||||||||||||||||||||||||||||||||||||||||||||||||||||||||1019.3||1|FM15-METAR|223|ICAO-KCCB|||||||||||||||||||||||||||||||||||||||||||MET062METAR KCCB 211655Z AUTO 28005KT 10SM CLR 10/M06 A3010 RMK AO2=||F||223|ICAO-KCCB
USI0000KCCB|CABLE|2017|12|21|17|15|34.1115|-117.6876|438.6|10.0||1|FM15-METAR|223|ICAO-KCCB|-7.0||1|FM15-METAR|223|ICAO-KCCB|||||||||||||280|N-Normal|1|FM15-METAR|223|ICAO-KCCB|4.1|N-Normal|1|FM15-METAR|223|ICAO-KCCB|||||||||||||30|Derived||FM15-METAR|223|ICAO-KCCB|||||||||||||||||||||||||||||||||||||||||||||||||||||||||||||||||||||||||1019.6||1|FM15-METAR|223|ICAO-KCCB|||||||||||||||||||||||||||||||||||||||||||MET062METAR KCCB 211715Z AUTO 28008KT 10SM CLR 10/M07 A3011 RMK AO2=||F||223|ICAO-KCCB
USI0000KCCB|CABLE|2017|12|21|17|35|34.1115|-117.6876|438.6|10.0||1|FM15-METAR|223|ICAO-KCCB|-9.0||1|FM15-METAR|223|ICAO-KCCB|||||||||||||290|N-Normal|1|FM15-METAR|223|ICAO-KCCB|3.1|N-Normal|1|FM15-METAR|223|ICAO-KCCB|||||||||||||25|Derived||FM15-METAR|223|ICAO-KCCB|||||||||||||||||||||||||||||||||||||||||||||||||||||||||||||||||||||||||1020.0||1|FM15-METAR|223|ICAO-KCCB|||||||||||||||||||||||||||||||||||||||||||MET062METAR KCCB 211735Z AUTO 29006KT 10SM CLR 10/M09 A3012 RMK AO2=||F||223|ICAO-KCCB
USI0000KCCB|CABLE|2017|12|21|17|55|34.1115|-117.6876|438.6|11.0||1|FM15-METAR|223|ICAO-KCCB|-11.0||1|FM15-METAR|223|ICAO-KCCB|||||||||||||260|N-Normal|1|FM15-METAR|223|ICAO-KCCB|3.6|N-Normal|1|FM15-METAR|223|ICAO-KCCB|||||||||||||20|Derived||FM15-METAR|223|ICAO-KCCB|||||||||||||||||||||||||||||||||||||||||||||||||||||||||||||||||||||||||1020.0||1|FM15-METAR|223|ICAO-KCCB|||||||||||||||||||||||||||||||||||||||||||MET062METAR KCCB 211755Z AUTO 26007KT 10SM CLR 11/M11 A3012 RMK AO2=||F||223|ICAO-KCCB
USI0000KCCB|CABLE|2017|12|21|18|15|34.1115|-117.6876|438.6|11.0||1|FM15-METAR|223|ICAO-KCCB|-10.0||1|FM15-METAR|223|ICAO-KCCB|||||||||||||260|N-Normal|1|FM15-METAR|223|ICAO-KCCB|3.1|N-Normal|1|FM15-METAR|223|ICAO-KCCB|||||||||||||22|Derived||FM15-METAR|223|ICAO-KCCB|||||||||||||||||||||||||||||||||||||||||||||||||||||||||||||||||||||||||1020.0||1|FM15-METAR|223|ICAO-KCCB|||||||||||||||||||||||||||||||||||||||||||MET062METAR KCCB 211815Z AUTO 26006KT 10SM CLR 11/M10 A3012 RMK AO2=||F||223|ICAO-KCCB
USI0000KCCB|CABLE|2017|12|21|18|35|34.1115|-117.6876|438.6|12.0||1|FM15-METAR|223|ICAO-KCCB|-11.0||1|FM15-METAR|223|ICAO-KCCB|||||||||||||999|V-Variable|9|FM15-METAR|223|ICAO-KCCB|2.6|V-Variable|1|FM15-METAR|223|ICAO-KCCB|||||||||||||19|Derived||FM15-METAR|223|ICAO-KCCB|||||||||||||||||||||||||||||||||||||||||||||||||||||||||||||||||||||||||1019.6||1|FM15-METAR|223|ICAO-KCCB|||||||||||||||||||||||||||||||||||||||||||MET062METAR KCCB 211835Z AUTO VRB05KT 10SM CLR 12/M11 A3011 RMK AO2=||F||223|ICAO-KCCB
USI0000KCCB|CABLE|2017|12|21|18|55|34.1115|-117.6876|438.6|12.0||1|FM15-METAR|223|ICAO-KCCB|-12.0||1|FM15-METAR|223|ICAO-KCCB|||||||||||||240|N-Normal|1|FM15-METAR|223|ICAO-KCCB|3.6|N-Normal|1|FM15-METAR|223|ICAO-KCCB|||||||||||||18|Derived||FM15-METAR|223|ICAO-KCCB|||||||||||||||||||||||||||||||||||||||||||||||||||||||||||||||||||||||||1019.6||1|FM15-METAR|223|ICAO-KCCB|||||||||||||||||||||||||||||||||||||||||||MET062METAR KCCB 211855Z AUTO 24007KT 10SM CLR 12/M12 A3011 RMK AO2=||F||223|ICAO-KCCB
USI0000KCCB|CABLE|2017|12|21|19|15|34.1115|-117.6876|438.6|13.0||1|FM15-METAR|223|ICAO-KCCB|-13.0||1|FM15-METAR|223|ICAO-KCCB|||||||||||||230|N-Normal|1|FM15-METAR|223|ICAO-KCCB|4.1|N-Normal|1|FM15-METAR|223|ICAO-KCCB|6.7||1|FM15-METAR|223|ICAO-KCCB|||||||15|Derived||FM15-METAR|223|ICAO-KCCB|||||||||||||||||||||||||||||||||||||||||||||||||||||||||||||||||||||||||1019.3||1|FM15-METAR|223|ICAO-KCCB|||||||||||||||||||||||||||||||||||||||||||MET065METAR KCCB 211915Z AUTO 23008G13KT 10SM CLR 13/M13 A3010 RMK AO2=||F||223|ICAO-KCCB
USI0000KCCB|CABLE|2017|12|21|19|35|34.1115|-117.6876|438.6|13.0||1|FM15-METAR|223|ICAO-KCCB|-12.0||1|FM15-METAR|223|ICAO-KCCB|||||||||||||290|N-Normal|1|FM15-METAR|223|ICAO-KCCB|2.6|N-Normal|1|FM15-METAR|223|ICAO-KCCB|6.7||1|FM15-METAR|223|ICAO-KCCB|||||||16|Derived||FM15-METAR|223|ICAO-KCCB|||||||||||||||||||||||||||||||||||||||||||||||||||||||||||||||||||||||||1019.3||1|FM15-METAR|223|ICAO-KCCB|||||||||||||||||||||||||||||||||||||||||||MET065METAR KCCB 211935Z AUTO 29005G13KT 10SM CLR 13/M12 A3010 RMK AO2=||F||223|ICAO-KCCB
USI0000KCCB|CABLE|2017|12|21|19|55|34.1115|-117.6876|438.6|12.0||1|FM15-METAR|223|ICAO-KCCB|-10.0||1|FM15-METAR|223|ICAO-KCCB|||||||||||||999|V-Variable|9|FM15-METAR|223|ICAO-KCCB|2.1|V-Variable|1|FM15-METAR|223|ICAO-KCCB|5.1||1|FM15-METAR|223|ICAO-KCCB|||||||21|Derived||FM15-METAR|223|ICAO-KCCB|||||||||||||||||||||||||||||||||||||||||||||||||||||||||||||||||||||||||1019.3||1|FM15-METAR|223|ICAO-KCCB|||||||||||||||||||||||||||||||||||||||||||MET065METAR KCCB 211955Z AUTO VRB04G10KT 10SM CLR 12/M10 A3010 RMK AO2=||F||223|ICAO-KCCB
USI0000KCCB|CABLE|2017|12|21|20|15|34.1115|-117.6876|438.6|13.0||1|FM15-METAR|223|ICAO-KCCB|-9.0||1|FM15-METAR|223|ICAO-KCCB|||||||||||||290|N-Normal|1|FM15-METAR|223|ICAO-KCCB|2.6|N-Normal|1|FM15-METAR|223|ICAO-KCCB|7.2||1|FM15-METAR|223|ICAO-KCCB|||||||21|Derived||FM15-METAR|223|ICAO-KCCB|||||||||||||||||||||||||||||||||||||||||||||||||||||||||||||||||||||||||1019.3||1|FM15-METAR|223|ICAO-KCCB|||||||||||||||||||||||||||||||||||||||||||MET065METAR KCCB 212015Z AUTO 29005G14KT 10SM CLR 13/M09 A3010 RMK AO2=||F||223|ICAO-KCCB
USI0000KCCB|CABLE|2017|12|21|20|35|34.1115|-117.6876|438.6|13.0||1|FM15-METAR|223|ICAO-KCCB|-8.0||1|FM15-METAR|223|ICAO-KCCB|||||||||||||999|V-Variable|9|FM15-METAR|223|ICAO-KCCB|2.6|V-Variable|1|FM15-METAR|223|ICAO-KCCB|6.7||1|FM15-METAR|223|ICAO-KCCB|||||||23|Derived||FM15-METAR|223|ICAO-KCCB|||||||||||||||||||||||||||||||||||||||||||||||||||||||||||||||||||||||||1019.0||1|FM15-METAR|223|ICAO-KCCB|||||||||||||||||||||||||||||||||||||||||||MET065METAR KCCB 212035Z AUTO VRB05G13KT 10SM CLR 13/M08 A3009 RMK AO2=||F||223|ICAO-KCCB
USI0000KCCB|CABLE|2017|12|21|20|55|34.1115|-117.6876|438.6|13.0||1|FM15-METAR|223|ICAO-KCCB|-9.0||1|FM15-METAR|223|ICAO-KCCB|||||||||||||270|N-Normal|1|FM15-METAR|223|ICAO-KCCB|4.6|N-Normal|1|FM15-METAR|223|ICAO-KCCB|||||||||||||21|Derived||FM15-METAR|223|ICAO-KCCB|||||||||||||||||||||||||||||||||||||||||||||||||||||||||||||||||||||||||1019.0||1|FM15-METAR|223|ICAO-KCCB|||||||||||||||||||||||||||||||||||||||||||MET062METAR KCCB 212055Z AUTO 27009KT 10SM CLR 13/M09 A3009 RMK AO2=||F||223|ICAO-KCCB
USI0000KCCB|CABLE|2017|12|21|21|15|34.1115|-117.6876|438.6|13.0||1|FM15-METAR|223|ICAO-KCCB|-10.0||1|FM15-METAR|223|ICAO-KCCB|||||||||||||230|N-Normal|1|FM15-METAR|223|ICAO-KCCB|3.1|N-Normal|1|FM15-METAR|223|ICAO-KCCB|5.7||1|FM15-METAR|223|ICAO-KCCB|||||||19|Derived||FM15-METAR|223|ICAO-KCCB|||||||||||||||||||||||||||||||||||||||||||||||||||||||||||||||||||||||||1018.6||1|FM15-METAR|223|ICAO-KCCB|||||||||||||||||||||||||||||||||||||||||||MET065METAR KCCB 212115Z AUTO 23006G11KT 10SM CLR 13/M10 A3008 RMK AO2=||F||223|ICAO-KCCB
USI0000KCCB|CABLE|2017|12|21|21|35|34.1115|-117.6876|438.6|14.0||1|FM15-METAR|223|ICAO-KCCB|-10.0||1|FM15-METAR|223|ICAO-KCCB|||||||||||||270|N-Normal|1|FM15-METAR|223|ICAO-KCCB|3.1|N-Normal|1|FM15-METAR|223|ICAO-KCCB|6.2||1|FM15-METAR|223|ICAO-KCCB|||||||18|Derived||FM15-METAR|223|ICAO-KCCB|||||||||||||||||||||||||||||||||||||||||||||||||||||||||||||||||||||||||1018.3||1|FM15-METAR|223|ICAO-KCCB|||||||||||||||||||||||||||||||||||||||||||MET065METAR KCCB 212135Z AUTO 27006G12KT 10SM CLR 14/M10 A3007 RMK AO2=||F||223|ICAO-KCCB
USI0000KCCB|CABLE|2017|12|21|21|55|34.1115|-117.6876|438.6|14.0||1|FM15-METAR|223|ICAO-KCCB|-12.0||1|FM15-METAR|223|ICAO-KCCB|||||||||||||250|N-Normal|1|FM15-METAR|223|ICAO-KCCB|4.6|N-Normal|1|FM15-METAR|223|ICAO-KCCB|7.7||1|FM15-METAR|223|ICAO-KCCB|||||||15|Derived||FM15-METAR|223|ICAO-KCCB|||||||||||||||||||||||||||||||||||||||||||||||||||||||||||||||||||||||||1018.3||1|FM15-METAR|223|ICAO-KCCB|||||||||||||||||||||||||||||||||||||||||||MET065METAR KCCB 212155Z AUTO 25009G15KT 10SM CLR 14/M12 A3007 RMK AO2=||F||223|ICAO-KCCB
USI0000KCCB|CABLE|2017|12|21|22|15|34.1115|-117.6876|438.6|14.0||1|FM15-METAR|223|ICAO-KCCB|-13.0||1|FM15-METAR|223|ICAO-KCCB|||||||||||||220|N-Normal|1|FM15-METAR|223|ICAO-KCCB|3.1|N-Normal|1|FM15-METAR|223|ICAO-KCCB|7.2||1|FM15-METAR|223|ICAO-KCCB|||||||14|Derived||FM15-METAR|223|ICAO-KCCB|||||||||||||||||||||||||||||||||||||||||||||||||||||||||||||||||||||||||1018.6||1|FM15-METAR|223|ICAO-KCCB|||||||||||||||||||||||||||||||||||||||||||MET065METAR KCCB 212215Z AUTO 22006G14KT 10SM CLR 14/M13 A3008 RMK AO2=||F||223|ICAO-KCCB
USI0000KCCB|CABLE|2017|12|21|22|35|34.1115|-117.6876|438.6|14.0||1|FM15-METAR|223|ICAO-KCCB|-13.0||1|FM15-METAR|223|ICAO-KCCB|||||||||||||250|N-Normal|1|FM15-METAR|223|ICAO-KCCB|4.1|N-Normal|1|FM15-METAR|223|ICAO-KCCB|||||||||||||14|Derived||FM15-METAR|223|ICAO-KCCB|||||||||||||||||||||||||||||||||||||||||||||||||||||||||||||||||||||||||1018.6||1|FM15-METAR|223|ICAO-KCCB|||||||||||||||||||||||||||||||||||||||||||MET062METAR KCCB 212235Z AUTO 25008KT 10SM CLR 14/M13 A3008 RMK AO2=||F||223|ICAO-KCCB
USI0000KCCB|CABLE|2017|12|21|22|55|34.1115|-117.6876|438.6|14.0||1|FM15-METAR|223|ICAO-KCCB|-14.0||1|FM15-METAR|223|ICAO-KCCB|||||||||||||250|N-Normal|1|FM15-METAR|223|ICAO-KCCB|4.6|N-Normal|1|FM15-METAR|223|ICAO-KCCB|||||||||||||13|Derived||FM15-METAR|223|ICAO-KCCB|||||||||||||||||||||||||||||||||||||||||||||||||||||||||||||||||||||||||1018.6||1|FM15-METAR|223|ICAO-KCCB|||||||||||||||||||||||||||||||||||||||||||MET062METAR KCCB 212255Z AUTO 25009KT 10SM CLR 14/M14 A3008 RMK AO2=||F||223|ICAO-KCCB
USI0000KCCB|CABLE|2017|12|21|23|15|34.1115|-117.6876|438.6|14.0||1|FM15-METAR|223|ICAO-KCCB|-14.0||1|FM15-METAR|223|ICAO-KCCB|||||||||||||240|N-Normal|1|FM15-METAR|223|ICAO-KCCB|4.6|N-Normal|1|FM15-METAR|223|ICAO-KCCB|||||||||||||13|Derived||FM15-METAR|223|ICAO-KCCB|||||||||||||||||||||||||||||||||||||||||||||||||||||||||||||||||||||||||1019.0||1|FM15-METAR|223|ICAO-KCCB|||||||||||||||||||||||||||||||||||||||||||MET062METAR KCCB 212315Z AUTO 24009KT 10SM CLR 14/M14 A3009 RMK AO2=||F||223|ICAO-KCCB
USI0000KCCB|CABLE|2017|12|21|23|35|34.1115|-117.6876|438.6|14.0||1|FM15-METAR|223|ICAO-KCCB|-14.0||1|FM15-METAR|223|ICAO-KCCB|||||||||||||240|N-Normal|1|FM15-METAR|223|ICAO-KCCB|3.1|N-Normal|1|FM15-METAR|223|ICAO-KCCB|6.7||1|FM15-METAR|223|ICAO-KCCB|||||||13|Derived||FM15-METAR|223|ICAO-KCCB|||||||||||||||||||||||||||||||||||||||||||||||||||||||||||||||||||||||||1019.3||1|FM15-METAR|223|ICAO-KCCB|||||||||||||||||||||||||||||||||||||||||||MET065METAR KCCB 212335Z AUTO 24006G13KT 10SM CLR 14/M14 A3010 RMK AO2=||F||223|ICAO-KCCB
USI0000KCCB|CABLE|2017|12|21|23|55|34.1115|-117.6876|438.6|14.0||1|FM15-METAR|223|ICAO-KCCB|-14.0||1|FM15-METAR|223|ICAO-KCCB|||||||||||||270|N-Normal|1|FM15-METAR|223|ICAO-KCCB|6.2|N-Normal|1|FM15-METAR|223|ICAO-KCCB|||||||||||||13|Derived||FM15-METAR|223|ICAO-KCCB|||||||||||||||||||||||||||||||||||||||||||||||||||||||||||||||||||||||||1019.3||1|FM15-METAR|223|ICAO-KCCB|||||||||||||||||||||||||||||||||||||||||||MET062METAR KCCB 212355Z AUTO 27012KT 10SM CLR 14/M14 A3010 RMK AO2=||F||223|ICAO-KCCB
USI0000KCCB|CABLE|2017|12|22|00|15|34.1115|-117.6876|438.6|13.0||1|FM15-METAR|223|ICAO-KCCB|-14.0||1|FM15-METAR|223|ICAO-KCCB|||||||||||||240|N-Normal|1|FM15-METAR|223|ICAO-KCCB|4.1|N-Normal|1|FM15-METAR|223|ICAO-KCCB|6.7||1|FM15-METAR|223|ICAO-KCCB|||||||14|Derived||FM15-METAR|223|ICAO-KCCB|||||||||||||||||||||||||||||||||||||||||||||||||||||||||||||||||||||||||1019.0||1|FM15-METAR|223|ICAO-KCCB|||||||||||||||||||||||||||||||||||||||||||MET065METAR KCCB 220015Z AUTO 24008G13KT 10SM CLR 13/M14 A3009 RMK AO2=||F||223|ICAO-KCCB
USI0000KCCB|CABLE|2017|12|22|00|35|34.1115|-117.6876|438.6|13.0||1|FM15-METAR|223|ICAO-KCCB|-13.0||1|FM15-METAR|223|ICAO-KCCB|||||||||||||230|N-Normal|1|FM15-METAR|223|ICAO-KCCB|3.1|N-Normal|1|FM15-METAR|223|ICAO-KCCB|||||||||||||15|Derived||FM15-METAR|223|ICAO-KCCB|||||||||||||||||||||||||||||||||||||||||||||||||||||||||||||||||||||||||1019.0||1|FM15-METAR|223|ICAO-KCCB|||||||||||||||||||||||||||||||||||||||||||MET062METAR KCCB 220035Z AUTO 23006KT 10SM CLR 13/M13 A3009 RMK AO2=||F||223|ICAO-KCCB
USI0000KCCB|CABLE|2017|12|22|00|55|34.1115|-117.6876|438.6|12.0||1|FM15-METAR|223|ICAO-KCCB|-14.0||1|FM15-METAR|223|ICAO-KCCB|||||||||||||210|N-Normal|1|FM15-METAR|223|ICAO-KCCB|3.6|N-Normal|1|FM15-METAR|223|ICAO-KCCB|||||||||||||15|Derived||FM15-METAR|223|ICAO-KCCB|||||||||||||||||||||||||||||||||||||||||||||||||||||||||||||||||||||||||1019.6||1|FM15-METAR|223|ICAO-KCCB|||||||||||||||||||||||||||||||||||||||||||MET062METAR KCCB 220055Z AUTO 21007KT 10SM CLR 12/M14 A3011 RMK AO2=||F||223|ICAO-KCCB
USI0000KCCB|CABLE|2017|12|22|01|15|34.1115|-117.6876|438.6|12.0||1|FM15-METAR|223|ICAO-KCCB|-14.0||1|FM15-METAR|223|ICAO-KCCB|||||||||||||250|N-Normal|1|FM15-METAR|223|ICAO-KCCB|2.6|N-Normal|1|FM15-METAR|223|ICAO-KCCB|||||||||||||15|Derived||FM15-METAR|223|ICAO-KCCB|||||||||||||||||||||||||||||||||||||||||||||||||||||||||||||||||||||||||1019.6||1|FM15-METAR|223|ICAO-KCCB|||||||||||||||||||||||||||||||||||||||||||MET062METAR KCCB 220115Z AUTO 25005KT 10SM CLR 12/M14 A3011 RMK AO2=||F||223|ICAO-KCCB
USI0000KCCB|CABLE|2017|12|22|01|35|34.1115|-117.6876|438.6|12.0||1|FM15-METAR|223|ICAO-KCCB|-14.0||1|FM15-METAR|223|ICAO-KCCB|||||||||||||290|N-Normal|1|FM15-METAR|223|ICAO-KCCB|1.5|N-Normal|1|FM15-METAR|223|ICAO-KCCB|||||||||||||15|Derived||FM15-METAR|223|ICAO-KCCB|||||||||||||||||||||||||||||||||||||||||||||||||||||||||||||||||||||||||1019.6||1|FM15-METAR|223|ICAO-KCCB|||||||||||||||||||||||||||||||||||||||||||MET062METAR KCCB 220135Z AUTO 29003KT 10SM CLR 12/M14 A3011 RMK AO2=||F||223|ICAO-KCCB
USI0000KCCB|CABLE|2017|12|22|01|55|34.1115|-117.6876|438.6|11.0||1|FM15-METAR|223|ICAO-KCCB|-14.0||1|FM15-METAR|223|ICAO-KCCB|||||||||||||300|N-Normal|1|FM15-METAR|223|ICAO-KCCB|2.6|N-Normal|1|FM15-METAR|223|ICAO-KCCB|||||||||||||16|Derived||FM15-METAR|223|ICAO-KCCB|||||||||||||||||||||||||||||||||||||||||||||||||||||||||||||||||||||||||1020.0||1|FM15-METAR|223|ICAO-KCCB|||||||||||||||||||||||||||||||||||||||||||MET062METAR KCCB 220155Z AUTO 30005KT 10SM CLR 11/M14 A3012 RMK AO2=||F||223|ICAO-KCCB
USI0000KCCB|CABLE|2017|12|22|02|15|34.1115|-117.6876|438.6|10.0||1|FM15-METAR|223|ICAO-KCCB|-11.0||1|FM15-METAR|223|ICAO-KCCB|||||||||||||310|N-Normal|1|FM15-METAR|223|ICAO-KCCB|3.6|N-Normal|1|FM15-METAR|223|ICAO-KCCB|||||||||||||22|Derived||FM15-METAR|223|ICAO-KCCB|||||||||||||||||||||||||||||||||||||||||||||||||||||||||||||||||||||||||1020.7||1|FM15-METAR|223|ICAO-KCCB|||||||||||||||||||||||||||||||||||||||||||MET062METAR KCCB 220215Z AUTO 31007KT 10SM CLR 10/M11 A3014 RMK AO2=||F||223|ICAO-KCCB
USI0000KCCB|CABLE|2017|12|22|02|35|34.1115|-117.6876|438.6|9.0||1|FM15-METAR|223|ICAO-KCCB|-12.0||1|FM15-METAR|223|ICAO-KCCB|||||||||||||330|N-Normal|1|FM15-METAR|223|ICAO-KCCB|2.6|N-Normal|1|FM15-METAR|223|ICAO-KCCB|||||||||||||21|Derived||FM15-METAR|223|ICAO-KCCB|||||||||||||||||||||||||||||||||||||||||||||||||||||||||||||||||||||||||1020.7||1|FM15-METAR|223|ICAO-KCCB|||||||||||||||||||||||||||||||||||||||||||MET062METAR KCCB 220235Z AUTO 33005KT 10SM CLR 09/M12 A3014 RMK AO2=||F||223|ICAO-KCCB
USI0000KCCB|CABLE|2017|12|22|02|55|34.1115|-117.6876|438.6|10.0||1|FM15-METAR|223|ICAO-KCCB|-11.0||1|FM15-METAR|223|ICAO-KCCB|||||||||||||350|N-Normal|1|FM15-METAR|223|ICAO-KCCB|2.6|N-Normal|1|FM15-METAR|223|ICAO-KCCB|||||||||||||22|Derived||FM15-METAR|223|ICAO-KCCB|||||||||||||||||||||||||||||||||||||||||||||||||||||||||||||||||||||||||1021.0||1|FM15-METAR|223|ICAO-KCCB|||||||||||||||||||||||||||||||||||||||||||MET062METAR KCCB 220255Z AUTO 35005KT 10SM CLR 10/M11 A3015 RMK AO2=||F||223|ICAO-KCCB
USI0000KCCB|CABLE|2017|12|22|03|15|34.1115|-117.6876|438.6|10.0||1|FM15-METAR|223|ICAO-KCCB|-11.0||1|FM15-METAR|223|ICAO-KCCB|||||||||||||350|N-Normal|1|FM15-METAR|223|ICAO-KCCB|2.6|N-Normal|1|FM15-METAR|223|ICAO-KCCB|||||||||||||22|Derived||FM15-METAR|223|ICAO-KCCB|||||||||||||||||||||||||||||||||||||||||||||||||||||||||||||||||||||||||1021.0||1|FM15-METAR|223|ICAO-KCCB|||||||||||||||||||||||||||||||||||||||||||MET062METAR KCCB 220315Z AUTO 35005KT 10SM CLR 10/M11 A3015 RMK AO2=||F||223|ICAO-KCCB
USI0000KCCB|CABLE|2017|12|22|03|35|34.1115|-117.6876|438.6|10.0||1|FM15-METAR|223|ICAO-KCCB|-12.0||1|FM15-METAR|223|ICAO-KCCB|||||||||||||010|N-Normal|1|FM15-METAR|223|ICAO-KCCB|2.1|N-Normal|1|FM15-METAR|223|ICAO-KCCB|||||||||||||20|Derived||FM15-METAR|223|ICAO-KCCB|||||||||||||||||||||||||||||||||||||||||||||||||||||||||||||||||||||||||1021.3||1|FM15-METAR|223|ICAO-KCCB|||||||||||||||||||||||||||||||||||||||||||MET062METAR KCCB 220335Z AUTO 01004KT 10SM CLR 10/M12 A3016 RMK AO2=||F||223|ICAO-KCCB
USI0000KCCB|CABLE|2017|12|22|03|55|34.1115|-117.6876|438.6|9.0||1|FM15-METAR|223|ICAO-KCCB|-12.0||1|FM15-METAR|223|ICAO-KCCB|||||||||||||020|N-Normal|1|FM15-METAR|223|ICAO-KCCB|2.1|N-Normal|1|FM15-METAR|223|ICAO-KCCB|||||||||||||21|Derived||FM15-METAR|223|ICAO-KCCB|||||||||||||||||||||||||||||||||||||||||||||||||||||||||||||||||||||||||1021.3||1|FM15-METAR|223|ICAO-KCCB|||||||||||||||||||||||||||||||||||||||||||MET062METAR KCCB 220355Z AUTO 02004KT 10SM CLR 09/M12 A3016 RMK AO2=||F||223|ICAO-KCCB
USI0000KCCB|CABLE|2017|12|22|04|15|34.1115|-117.6876|438.6|9.0||1|FM15-METAR|223|ICAO-KCCB|-12.0||1|FM15-METAR|223|ICAO-KCCB|||||||||||||030|N-Normal|1|FM15-METAR|223|ICAO-KCCB|2.6|N-Normal|1|FM15-METAR|223|ICAO-KCCB|||||||||||||21|Derived||FM15-METAR|223|ICAO-KCCB|||||||||||||||||||||||||||||||||||||||||||||||||||||||||||||||||||||||||1021.0||1|FM15-METAR|223|ICAO-KCCB|||||||||||||||||||||||||||||||||||||||||||MET062METAR KCCB 220415Z AUTO 03005KT 10SM CLR 09/M12 A3015 RMK AO2=||F||223|ICAO-KCCB
USI0000KCCB|CABLE|2017|12|22|04|35|34.1115|-117.6876|438.6|9.0||1|FM15-METAR|223|ICAO-KCCB|-14.0||1|FM15-METAR|223|ICAO-KCCB|||||||||||||020|N-Normal|1|FM15-METAR|223|ICAO-KCCB|2.1|N-Normal|1|FM15-METAR|223|ICAO-KCCB|||||||||||||18|Derived||FM15-METAR|223|ICAO-KCCB|||||||||||||||||||||||||||||||||||||||||||||||||||||||||||||||||||||||||1021.0||1|FM15-METAR|223|ICAO-KCCB|||||||||||||||||||||||||||||||||||||||||||MET062METAR KCCB 220435Z AUTO 02004KT 10SM CLR 09/M14 A3015 RMK AO2=||F||223|ICAO-KCCB
USI0000KCCB|CABLE|2017|12|22|04|55|34.1115|-117.6876|438.6|9.0||1|FM15-METAR|223|ICAO-KCCB|-14.0||1|FM15-METAR|223|ICAO-KCCB|||||||||||||050|N-Normal|1|FM15-METAR|223|ICAO-KCCB|1.5|N-Normal|1|FM15-METAR|223|ICAO-KCCB|||||||||||||18|Derived||FM15-METAR|223|ICAO-KCCB|||||||||||||||||||||||||||||||||||||||||||||||||||||||||||||||||||||||||1021.3||1|FM15-METAR|223|ICAO-KCCB|||||||||||||||||||||||||||||||||||||||||||MET062METAR KCCB 220455Z AUTO 05003KT 10SM CLR 09/M14 A3016 RMK AO2=||F||223|ICAO-KCCB
USI0000KCCB|CABLE|2017|12|22|05|15|34.1115|-117.6876|438.6|8.0||1|FM15-METAR|223|ICAO-KCCB|-13.0||1|FM15-METAR|223|ICAO-KCCB|||||||||||||020|N-Normal|1|FM15-METAR|223|ICAO-KCCB|2.1|N-Normal|1|FM15-METAR|223|ICAO-KCCB|||||||||||||21|Derived||FM15-METAR|223|ICAO-KCCB|||||||||||||||||||||||||||||||||||||||||||||||||||||||||||||||||||||||||1022.0||1|FM15-METAR|223|ICAO-KCCB|||||||||||||||||||||||||||||||||||||||||||MET062METAR KCCB 220515Z AUTO 02004KT 10SM CLR 08/M13 A3018 RMK AO2=||F||223|ICAO-KCCB
USI0000KCCB|CABLE|2017|12|22|05|35|34.1115|-117.6876|438.6|9.0||1|FM15-METAR|223|ICAO-KCCB|-15.0||1|FM15-METAR|223|ICAO-KCCB|||||||||||||010|N-Normal|1|FM15-METAR|223|ICAO-KCCB|2.6|N-Normal|1|FM15-METAR|223|ICAO-KCCB|||||||||||||17|Derived||FM15-METAR|223|ICAO-KCCB|||||||||||||||||||||||||||||||||||||||||||||||||||||||||||||||||||||||||1022.0||1|FM15-METAR|223|ICAO-KCCB|||||||||||||||||||||||||||||||||||||||||||MET062METAR KCCB 220535Z AUTO 01005KT 10SM CLR 09/M15 A3018 RMK AO2=||F||223|ICAO-KCCB
USI0000KCCB|CABLE|2017|12|22|05|55|34.1115|-117.6876|438.6|9.0||1|FM15-METAR|223|ICAO-KCCB|-14.0||1|FM15-METAR|223|ICAO-KCCB|||||||||||||360|N-Normal|1|FM15-METAR|223|ICAO-KCCB|3.1|N-Normal|1|FM15-METAR|223|ICAO-KCCB|||||||||||||18|Derived||FM15-METAR|223|ICAO-KCCB|||||||||||||||||||||||||||||||||||||||||||||||||||||||||||||||||||||||||1022.3||1|FM15-METAR|223|ICAO-KCCB|||||||||||||||||||||||||||||||||||||||||||MET062METAR KCCB 220555Z AUTO 36006KT 10SM CLR 09/M14 A3019 RMK AO2=||F||223|ICAO-KCCB
USI0000KCCB|CABLE|2017|12|22|06|15|34.1115|-117.6876|438.6|9.0||1|FM15-METAR|223|ICAO-KCCB|-15.0||1|FM15-METAR|223|ICAO-KCCB|||||||||||||010|N-Normal|1|FM15-METAR|223|ICAO-KCCB|3.6|N-Normal|1|FM15-METAR|223|ICAO-KCCB|||||||||||||17|Derived||FM15-METAR|223|ICAO-KCCB|||||||||||||||||||||||||||||||||||||||||||||||||||||||||||||||||||||||||1022.7||1|FM15-METAR|223|ICAO-KCCB|||||||||||||||||||||||||||||||||||||||||||MET062METAR KCCB 220615Z AUTO 01007KT 10SM CLR 09/M15 A3020 RMK AO2=||F||223|ICAO-KCCB
USI0000KCCB|CABLE|2017|12|22|06|35|34.1115|-117.6876|438.6|9.0||1|FM15-METAR|223|ICAO-KCCB|-15.0||1|FM15-METAR|223|ICAO-KCCB|||||||||||||010|N-Normal|1|FM15-METAR|223|ICAO-KCCB|3.6|N-Normal|1|FM15-METAR|223|ICAO-KCCB|||||||||||||17|Derived||FM15-METAR|223|ICAO-KCCB|||||||||||||||||||||||||||||||||||||||||||||||||||||||||||||||||||||||||1023.0||1|FM15-METAR|223|ICAO-KCCB|||||||||||||||||||||||||||||||||||||||||||MET062METAR KCCB 220635Z AUTO 01007KT 10SM CLR 09/M15 A3021 RMK AO2=||F||223|ICAO-KCCB
USI0000KCCB|CABLE|2017|12|22|06|55|34.1115|-117.6876|438.6|9.0||1|FM15-METAR|223|ICAO-KCCB|-15.0||1|FM15-METAR|223|ICAO-KCCB|||||||||||||020|N-Normal|1|FM15-METAR|223|ICAO-KCCB|3.6|N-Normal|1|FM15-METAR|223|ICAO-KCCB|||||||||||||17|Derived||FM15-METAR|223|ICAO-KCCB|||||||||||||||||||||||||||||||||||||||||||||||||||||||||||||||||||||||||1022.7||1|FM15-METAR|223|ICAO-KCCB|||||||||||||||||||||||||||||||||||||||||||MET062METAR KCCB 220655Z AUTO 02007KT 10SM CLR 09/M15 A3020 RMK AO2=||F||223|ICAO-KCCB
USI0000KCCB|CABLE|2017|12|22|07|15|34.1115|-117.6876|438.6|9.0||1|FM15-METAR|223|ICAO-KCCB|-16.0||1|FM15-METAR|223|ICAO-KCCB|||||||||||||360|N-Normal|1|FM15-METAR|223|ICAO-KCCB|3.1|N-Normal|1|FM15-METAR|223|ICAO-KCCB|||||||||||||15|Derived||FM15-METAR|223|ICAO-KCCB|||||||||||||||||||||||||||||||||||||||||||||||||||||||||||||||||||||||||1022.7||1|FM15-METAR|223|ICAO-KCCB|||||||||||||||||||||||||||||||||||||||||||MET062METAR KCCB 220715Z AUTO 36006KT 10SM CLR 09/M16 A3020 RMK AO2=||F||223|ICAO-KCCB
USI0000KCCB|CABLE|2017|12|22|07|35|34.1115|-117.6876|438.6|9.0||1|FM15-METAR|223|ICAO-KCCB|-16.0||1|FM15-METAR|223|ICAO-KCCB|||||||||||||350|N-Normal|1|FM15-METAR|223|ICAO-KCCB|2.6|N-Normal|1|FM15-METAR|223|ICAO-KCCB|||||||||||||15|Derived||FM15-METAR|223|ICAO-KCCB|||||||||||||||||||||||||||||||||||||||||||||||||||||||||||||||||||||||||1022.3||1|FM15-METAR|223|ICAO-KCCB|||||||||||||||||||||||||||||||||||||||||||MET062METAR KCCB 220735Z AUTO 35005KT 10SM CLR 09/M16 A3019 RMK AO2=||F||223|ICAO-KCCB
USI0000KCCB|CABLE|2017|12|22|07|55|34.1115|-117.6876|438.6|8.0||1|FM15-METAR|223|ICAO-KCCB|-16.0||1|FM15-METAR|223|ICAO-KCCB|||||||||||||360|N-Normal|1|FM15-METAR|223|ICAO-KCCB|3.1|N-Normal|1|FM15-METAR|223|ICAO-KCCB|||||||||||||17|Derived||FM15-METAR|223|ICAO-KCCB|||||||||||||||||||||||||||||||||||||||||||||||||||||||||||||||||||||||||1022.3||1|FM15-METAR|223|ICAO-KCCB|||||||||||||||||||||||||||||||||||||||||||MET062METAR KCCB 220755Z AUTO 36006KT 10SM CLR 08/M16 A3019 RMK AO2=||F||223|ICAO-KCCB
USI0000KCCB|CABLE|2017|12|22|08|15|34.1115|-117.6876|438.6|9.0||1|FM15-METAR|223|ICAO-KCCB|-16.0||1|FM15-METAR|223|ICAO-KCCB|||||||||||||360|N-Normal|1|FM15-METAR|223|ICAO-KCCB|2.6|N-Normal|1|FM15-METAR|223|ICAO-KCCB|||||||||||||15|Derived||FM15-METAR|223|ICAO-KCCB|||||||||||||||||||||||||||||||||||||||||||||||||||||||||||||||||||||||||1021.7||1|FM15-METAR|223|ICAO-KCCB|||||||||||||||||||||||||||||||||||||||||||MET062METAR KCCB 220815Z AUTO 36005KT 10SM CLR 09/M16 A3017 RMK AO2=||F||223|ICAO-KCCB
USI0000KCCB|CABLE|2017|12|22|08|35|34.1115|-117.6876|438.6|9.0||1|FM15-METAR|223|ICAO-KCCB|-16.0||1|FM15-METAR|223|ICAO-KCCB|||||||||||||340|N-Normal|1|FM15-METAR|223|ICAO-KCCB|3.1|N-Normal|1|FM15-METAR|223|ICAO-KCCB|||||||||||||15|Derived||FM15-METAR|223|ICAO-KCCB|||||||||||||||||||||||||||||||||||||||||||||||||||||||||||||||||||||||||1022.0||1|FM15-METAR|223|ICAO-KCCB|||||||||||||||||||||||||||||||||||||||||||MET062METAR KCCB 220835Z AUTO 34006KT 10SM CLR 09/M16 A3018 RMK AO2=||F||223|ICAO-KCCB
USI0000KCCB|CABLE|2017|12|22|08|55|34.1115|-117.6876|438.6|8.0||1|FM15-METAR|223|ICAO-KCCB|-16.0||1|FM15-METAR|223|ICAO-KCCB|||||||||||||340|N-Normal|1|FM15-METAR|223|ICAO-KCCB|2.6|N-Normal|1|FM15-METAR|223|ICAO-KCCB|||||||||||||17|Derived||FM15-METAR|223|ICAO-KCCB|||||||||||||||||||||||||||||||||||||||||||||||||||||||||||||||||||||||||1022.0||1|FM15-METAR|223|ICAO-KCCB|||||||||||||||||||||||||||||||||||||||||||MET062METAR KCCB 220855Z AUTO 34005KT 10SM CLR 08/M16 A3018 RMK AO2=||F||223|ICAO-KCCB
USI0000KCCB|CABLE|2017|12|22|09|15|34.1115|-117.6876|438.6|7.0||1|FM15-METAR|223|ICAO-KCCB|-16.0||1|FM15-METAR|223|ICAO-KCCB|||||||||||||360|N-Normal|1|FM15-METAR|223|ICAO-KCCB|3.1|N-Normal|1|FM15-METAR|223|ICAO-KCCB|||||||||||||18|Derived||FM15-METAR|223|ICAO-KCCB|||||||||||||||||||||||||||||||||||||||||||||||||||||||||||||||||||||||||1022.0||1|FM15-METAR|223|ICAO-KCCB|||||||||||||||||||||||||||||||||||||||||||MET062METAR KCCB 220915Z AUTO 36006KT 10SM CLR 07/M16 A3018 RMK AO2=||F||223|ICAO-KCCB
USI0000KCCB|CABLE|2017|12|22|09|35|34.1115|-117.6876|438.6|7.0||1|FM15-METAR|223|ICAO-KCCB|-16.0||1|FM15-METAR|223|ICAO-KCCB|||||||||||||360|N-Normal|1|FM15-METAR|223|ICAO-KCCB|3.1|N-Normal|1|FM15-METAR|223|ICAO-KCCB|||||||||||||18|Derived||FM15-METAR|223|ICAO-KCCB|||||||||||||||||||||||||||||||||||||||||||||||||||||||||||||||||||||||||1022.3||1|FM15-METAR|223|ICAO-KCCB|||||||||||||||||||||||||||||||||||||||||||MET062METAR KCCB 220935Z AUTO 36006KT 10SM CLR 07/M16 A3019 RMK AO2=||F||223|ICAO-KCCB
USI0000KCCB|CABLE|2017|12|22|09|55|34.1115|-117.6876|438.6|8.0||1|FM15-METAR|223|ICAO-KCCB|-16.0||1|FM15-METAR|223|ICAO-KCCB|||||||||||||340|N-Normal|1|FM15-METAR|223|ICAO-KCCB|2.1|N-Normal|1|FM15-METAR|223|ICAO-KCCB|||||||||||||17|Derived||FM15-METAR|223|ICAO-KCCB|||||||||||||||||||||||||||||||||||||||||||||||||||||||||||||||||||||||||1022.3||1|FM15-METAR|223|ICAO-KCCB|||||||||||||||||||||||||||||||||||||||||||MET062METAR KCCB 220955Z AUTO 34004KT 10SM CLR 08/M16 A3019 RMK AO2=||F||223|ICAO-KCCB
USI0000KCCB|CABLE|2017|12|22|10|15|34.1115|-117.6876|438.6|7.0||1|FM15-METAR|223|ICAO-KCCB|-16.0||1|FM15-METAR|223|ICAO-KCCB|||||||||||||350|N-Normal|1|FM15-METAR|223|ICAO-KCCB|2.6|N-Normal|1|FM15-METAR|223|ICAO-KCCB|||||||||||||18|Derived||FM15-METAR|223|ICAO-KCCB|||||||||||||||||||||||||||||||||||||||||||||||||||||||||||||||||||||||||1022.0||1|FM15-METAR|223|ICAO-KCCB|||||||||||||||||||||||||||||||||||||||||||MET062METAR KCCB 221015Z AUTO 35005KT 10SM CLR 07/M16 A3018 RMK AO2=||F||223|ICAO-KCCB
USI0000KCCB|CABLE|2017|12|22|10|35|34.1115|-117.6876|438.6|7.0||1|FM15-METAR|223|ICAO-KCCB|-16.0||1|FM15-METAR|223|ICAO-KCCB|||||||||||||350|N-Normal|1|FM15-METAR|223|ICAO-KCCB|2.1|N-Normal|1|FM15-METAR|223|ICAO-KCCB|||||||||||||18|Derived||FM15-METAR|223|ICAO-KCCB|||||||||||||||||||||||||||||||||||||||||||||||||||||||||||||||||||||||||1022.3||1|FM15-METAR|223|ICAO-KCCB|||||||||||||||||||||||||||||||||||||||||||MET062METAR KCCB 221035Z AUTO 35004KT 10SM CLR 07/M16 A3019 RMK AO2=||F||223|ICAO-KCCB
USI0000KCCB|CABLE|2017|12|22|10|55|34.1115|-117.6876|438.6|7.0||1|FM15-METAR|223|ICAO-KCCB|-16.0||1|FM15-METAR|223|ICAO-KCCB|||||||||||||010|N-Normal|1|FM15-METAR|223|ICAO-KCCB|2.6|N-Normal|1|FM15-METAR|223|ICAO-KCCB|||||||||||||18|Derived||FM15-METAR|223|ICAO-KCCB|||||||||||||||||||||||||||||||||||||||||||||||||||||||||||||||||||||||||1022.3||1|FM15-METAR|223|ICAO-KCCB|||||||||||||||||||||||||||||||||||||||||||MET062METAR KCCB 221055Z AUTO 01005KT 10SM CLR 07/M16 A3019 RMK AO2=||F||223|ICAO-KCCB
USI0000KCCB|CABLE|2017|12|22|11|15|34.1115|-117.6876|438.6|8.0||1|FM15-METAR|223|ICAO-KCCB|-16.0||1|FM15-METAR|223|ICAO-KCCB|||||||||||||360|N-Normal|1|FM15-METAR|223|ICAO-KCCB|3.1|N-Normal|1|FM15-METAR|223|ICAO-KCCB|||||||||||||17|Derived||FM15-METAR|223|ICAO-KCCB|||||||||||||||||||||||||||||||||||||||||||||||||||||||||||||||||||||||||1022.3||1|FM15-METAR|223|ICAO-KCCB|||||||||||||||||||||||||||||||||||||||||||MET062METAR KCCB 221115Z AUTO 36006KT 10SM CLR 08/M16 A3019 RMK AO2=||F||223|ICAO-KCCB
USI0000KCCB|CABLE|2017|12|22|11|35|34.1115|-117.6876|438.6|8.0||1|FM15-METAR|223|ICAO-KCCB|-16.0||1|FM15-METAR|223|ICAO-KCCB|||||||||||||010|N-Normal|1|FM15-METAR|223|ICAO-KCCB|3.1|N-Normal|1|FM15-METAR|223|ICAO-KCCB|||||||||||||17|Derived||FM15-METAR|223|ICAO-KCCB|||||||||||||||||||||||||||||||||||||||||||||||||||||||||||||||||||||||||1022.7||1|FM15-METAR|223|ICAO-KCCB|||||||||||||||||||||||||||||||||||||||||||MET062METAR KCCB 221135Z AUTO 01006KT 10SM CLR 08/M16 A3020 RMK AO2=||F||223|ICAO-KCCB
USI0000KCCB|CABLE|2017|12|22|11|55|34.1115|-117.6876|438.6|8.0||1|FM15-METAR|223|ICAO-KCCB|-16.0||1|FM15-METAR|223|ICAO-KCCB|||||||||||||360|N-Normal|1|FM15-METAR|223|ICAO-KCCB|2.1|N-Normal|1|FM15-METAR|223|ICAO-KCCB|||||||||||||17|Derived||FM15-METAR|223|ICAO-KCCB|||||||||||||||||||||||||||||||||||||||||||||||||||||||||||||||||||||||||1022.3||1|FM15-METAR|223|ICAO-KCCB|||||||||||||||||||||||||||||||||||||||||||MET062METAR KCCB 221155Z AUTO 36004KT 10SM CLR 08/M16 A3019 RMK AO2=||F||223|ICAO-KCCB
USI0000KCCB|CABLE|2017|12|22|12|15|34.1115|-117.6876|438.6|9.0||1|FM15-METAR|223|ICAO-KCCB|-17.0||1|FM15-METAR|223|ICAO-KCCB|||||||||||||310|N-Normal|1|FM15-METAR|223|ICAO-KCCB|3.6|N-Normal|1|FM15-METAR|223|ICAO-KCCB|||||||||||||14|Derived||FM15-METAR|223|ICAO-KCCB|||||||||||||||||||||||||||||||||||||||||||||||||||||||||||||||||||||||||1022.3||1|FM15-METAR|223|ICAO-KCCB|||||||||||||||||||||||||||||||||||||||||||MET062METAR KCCB 221215Z AUTO 31007KT 10SM CLR 09/M17 A3019 RMK AO2=||F||223|ICAO-KCCB
USI0000KCCB|CABLE|2017|12|22|12|35|34.1115|-117.6876|438.6|8.0||1|FM15-METAR|223|ICAO-KCCB|-17.0||1|FM15-METAR|223|ICAO-KCCB|||||||||||||360|N-Normal|1|FM15-METAR|223|ICAO-KCCB|3.1|N-Normal|1|FM15-METAR|223|ICAO-KCCB|||||||||||||15|Derived||FM15-METAR|223|ICAO-KCCB|||||||||||||||||||||||||||||||||||||||||||||||||||||||||||||||||||||||||1022.3||1|FM15-METAR|223|ICAO-KCCB|||||||||||||||||||||||||||||||||||||||||||MET062METAR KCCB 221235Z AUTO 36006KT 10SM CLR 08/M17 A3019 RMK AO2=||F||223|ICAO-KCCB
USI0000KCCB|CABLE|2017|12|22|12|55|34.1115|-117.6876|438.6|8.0||1|FM15-METAR|223|ICAO-KCCB|-17.0||1|FM15-METAR|223|ICAO-KCCB|||||||||||||340|N-Normal|1|FM15-METAR|223|ICAO-KCCB|3.1|N-Normal|1|FM15-METAR|223|ICAO-KCCB|||||||||||||15|Derived||FM15-METAR|223|ICAO-KCCB|||||||||||||||||||||||||||||||||||||||||||||||||||||||||||||||||||||||||1023.0||1|FM15-METAR|223|ICAO-KCCB|||||||||||||||||||||||||||||||||||||||||||MET062METAR KCCB 221255Z AUTO 34006KT 10SM CLR 08/M17 A3021 RMK AO2=||F||223|ICAO-KCCB
USI0000KCCB|CABLE|2017|12|22|13|15|34.1115|-117.6876|438.6|8.0||1|FM15-METAR|223|ICAO-KCCB|-17.0||1|FM15-METAR|223|ICAO-KCCB|||||||||||||999|C-Calm|9|FM15-METAR|223|ICAO-KCCB|0.0|C-Calm|1|FM15-METAR|223|ICAO-KCCB|||||||||||||15|Derived||FM15-METAR|223|ICAO-KCCB|||||||||||||||||||||||||||||||||||||||||||||||||||||||||||||||||||||||||1023.7||1|FM15-METAR|223|ICAO-KCCB|||||||||||||||||||||||||||||||||||||||||||MET062METAR KCCB 221315Z AUTO 00000KT 10SM CLR 08/M17 A3023 RMK AO2=||F||223|ICAO-KCCB
USI0000KCCB|CABLE|2017|12|22|13|35|34.1115|-117.6876|438.6|6.0||1|FM15-METAR|223|ICAO-KCCB|-14.0||1|FM15-METAR|223|ICAO-KCCB|||||||||||||999|C-Calm|9|FM15-METAR|223|ICAO-KCCB|0.0|C-Calm|1|FM15-METAR|223|ICAO-KCCB|||||||||||||22|Derived||FM15-METAR|223|ICAO-KCCB|||||||||||||||||||||||||||||||||||||||||||||||||||||||||||||||||||||||||1024.0||1|FM15-METAR|223|ICAO-KCCB|||||||||||||||||||||||||||||||||||||||||||MET062METAR KCCB 221335Z AUTO 00000KT 10SM CLR 06/M14 A3024 RMK AO2=||F||223|ICAO-KCCB
USI0000KCCB|CABLE|2017|12|22|13|55|34.1115|-117.6876|438.6|7.0||1|FM15-METAR|223|ICAO-KCCB|-16.0||1|FM15-METAR|223|ICAO-KCCB|||||||||||||320|N-Normal|1|FM15-METAR|223|ICAO-KCCB|2.6|N-Normal|1|FM15-METAR|223|ICAO-KCCB|||||||||||||18|Derived||FM15-METAR|223|ICAO-KCCB|||||||||||||||||||||||||||||||||||||||||||||||||||||||||||||||||||||||||1024.4||1|FM15-METAR|223|ICAO-KCCB|||||||||||||||||||||||||||||||||||||||||||MET062METAR KCCB 221355Z AUTO 32005KT 10SM CLR 07/M16 A3025 RMK AO2=||F||223|ICAO-KCCB
USI0000KCCB|CABLE|2017|12|22|14|15|34.1115|-117.6876|438.6|7.0||1|FM15-METAR|223|ICAO-KCCB|-16.0||1|FM15-METAR|223|ICAO-KCCB|||||||||||||320|N-Normal|1|FM15-METAR|223|ICAO-KCCB|2.6|N-Normal|1|FM15-METAR|223|ICAO-KCCB|||||||||||||18|Derived||FM15-METAR|223|ICAO-KCCB|||||||||||||||||||||||||||||||||||||||||||||||||||||||||||||||||||||||||1024.7||1|FM15-METAR|223|ICAO-KCCB|||||||||||||||||||||||||||||||||||||||||||MET062METAR KCCB 221415Z AUTO 32005KT 10SM CLR 07/M16 A3026 RMK AO2=||F||223|ICAO-KCCB
USI0000KCCB|CABLE|2017|12|22|14|35|34.1115|-117.6876|438.6|8.0||1|FM15-METAR|223|ICAO-KCCB|-16.0||1|FM15-METAR|223|ICAO-KCCB|||||||||||||310|N-Normal|1|FM15-METAR|223|ICAO-KCCB|2.1|N-Normal|1|FM15-METAR|223|ICAO-KCCB|||||||||||||17|Derived||FM15-METAR|223|ICAO-KCCB|||||||||||||||||||||||||||||||||||||||||||||||||||||||||||||||||||||||||1024.4||1|FM15-METAR|223|ICAO-KCCB|||||||||||||||||||||||||||||||||||||||||||MET062METAR KCCB 221435Z AUTO 31004KT 10SM CLR 08/M16 A3025 RMK AO2=||F||223|ICAO-KCCB
USI0000KCCB|CABLE|2017|12|22|14|55|34.1115|-117.6876|438.6|7.0||1|FM15-METAR|223|ICAO-KCCB|-15.0||1|FM15-METAR|223|ICAO-KCCB|||||||||||||999|C-Calm|9|FM15-METAR|223|ICAO-KCCB|0.0|C-Calm|1|FM15-METAR|223|ICAO-KCCB|||||||||||||19|Derived||FM15-METAR|223|ICAO-KCCB|||||||||||||||||||||||||||||||||||||||||||||||||||||||||||||||||||||||||1024.4||1|FM15-METAR|223|ICAO-KCCB|||||||||||||||||||||||||||||||||||||||||||MET062METAR KCCB 221455Z AUTO 00000KT 10SM CLR 07/M15 A3025 RMK AO2=||F||223|ICAO-KCCB
USI0000KCCB|CABLE|2017|12|22|15|15|34.1115|-117.6876|438.6|6.0||1|FM15-METAR|223|ICAO-KCCB|-14.0||1|FM15-METAR|223|ICAO-KCCB|||||||||||||999|C-Calm|9|FM15-METAR|223|ICAO-KCCB|0.0|C-Calm|1|FM15-METAR|223|ICAO-KCCB|||||||||||||22|Derived||FM15-METAR|223|ICAO-KCCB|||||||||||||||||||||||||||||||||||||||||||||||||||||||||||||||||||||||||1024.7||1|FM15-METAR|223|ICAO-KCCB|||||||||||||||||||||||||||||||||||||||||||MET062METAR KCCB 221515Z AUTO 00000KT 10SM CLR 06/M14 A3026 RMK AO2=||F||223|ICAO-KCCB
USI0000KCCB|CABLE|2017|12|22|15|35|34.1115|-117.6876|438.6|7.0||1|FM15-METAR|223|ICAO-KCCB|-14.0||1|FM15-METAR|223|ICAO-KCCB|||||||||||||080|N-Normal|1|FM15-METAR|223|ICAO-KCCB|1.5|N-Normal|1|FM15-METAR|223|ICAO-KCCB|||||||||||||21|Derived||FM15-METAR|223|ICAO-KCCB|||||||||||||||||||||||||||||||||||||||||||||||||||||||||||||||||||||||||1025.1||1|FM15-METAR|223|ICAO-KCCB|||||||||||||||||||||||||||||||||||||||||||MET062METAR KCCB 221535Z AUTO 08003KT 10SM CLR 07/M14 A3027 RMK AO2=||F||223|ICAO-KCCB
USI0000KCCB|CABLE|2017|12|22|15|55|34.1115|-117.6876|438.6|9.0||1|FM15-METAR|223|ICAO-KCCB|-14.0||1|FM15-METAR|223|ICAO-KCCB|||||||||||||080|N-Normal|1|FM15-METAR|223|ICAO-KCCB|2.6|N-Normal|1|FM15-METAR|223|ICAO-KCCB|||||||||||||18|Derived||FM15-METAR|223|ICAO-KCCB|||||||||||||||||||||||||||||||||||||||||||||||||||||||||||||||||||||||||1025.4||1|FM15-METAR|223|ICAO-KCCB|||||||||||||||||||||||||||||||||||||||||||MET062METAR KCCB 221555Z AUTO 08005KT 10SM CLR 09/M14 A3028 RMK AO2=||F||223|ICAO-KCCB
USI0000KCCB|CABLE|2017|12|22|16|15|34.1115|-117.6876|438.6|9.0||1|FM15-METAR|223|ICAO-KCCB|-14.0||1|FM15-METAR|223|ICAO-KCCB|||||||||||||080|N-Normal|1|FM15-METAR|223|ICAO-KCCB|2.6|N-Normal|1|FM15-METAR|223|ICAO-KCCB|||||||||||||18|Derived||FM15-METAR|223|ICAO-KCCB|||||||||||||||||||||||||||||||||||||||||||||||||||||||||||||||||||||||||1025.7||1|FM15-METAR|223|ICAO-KCCB|||||||||||||||||||||||||||||||||||||||||||MET062METAR KCCB 221615Z AUTO 08005KT 10SM CLR 09/M14 A3029 RMK AO2=||F||223|ICAO-KCCB
USI0000KCCB|CABLE|2017|12|22|16|35|34.1115|-117.6876|438.6|10.0||1|FM15-METAR|223|ICAO-KCCB|-14.0||1|FM15-METAR|223|ICAO-KCCB|||||||||||||060|N-Normal|1|FM15-METAR|223|ICAO-KCCB|3.1|N-Normal|1|FM15-METAR|223|ICAO-KCCB|||||||||||||17|Derived||FM15-METAR|223|ICAO-KCCB|||||||||||||||||||||||||||||||||||||||||||||||||||||||||||||||||||||||||1025.7||1|FM15-METAR|223|ICAO-KCCB|||||||||||||||||||||||||||||||||||||||||||MET062METAR KCCB 221635Z AUTO 06006KT 10SM CLR 10/M14 A3029 RMK AO2=||F||223|ICAO-KCCB
USI0000KCCB|CABLE|2017|12|22|16|55|34.1115|-117.6876|438.6|11.0||1|FM15-METAR|223|ICAO-KCCB|-15.0||1|FM15-METAR|223|ICAO-KCCB|||||||||||||090|N-Normal|1|FM15-METAR|223|ICAO-KCCB|2.6|N-Normal|1|FM15-METAR|223|ICAO-KCCB|||||||||||||15|Derived||FM15-METAR|223|ICAO-KCCB|||||||||||||||||||||||||||||||||||||||||||||||||||||||||||||||||||||||||1025.7||1|FM15-METAR|223|ICAO-KCCB|||||||||||||||||||||||||||||||||||||||||||MET062METAR KCCB 221655Z AUTO 09005KT 10SM CLR 11/M15 A3029 RMK AO2=||F||223|ICAO-KCCB
USI0000KCCB|CABLE|2017|12|22|17|15|34.1115|-117.6876|438.6|12.0||1|FM15-METAR|223|ICAO-KCCB|-16.0||1|FM15-METAR|223|ICAO-KCCB|||||||||||||090|N-Normal|1|FM15-METAR|223|ICAO-KCCB|2.1|N-Normal|1|FM15-METAR|223|ICAO-KCCB|||||||||||||13|Derived||FM15-METAR|223|ICAO-KCCB|||||||||||||||||||||||||||||||||||||||||||||||||||||||||||||||||||||||||1026.4||1|FM15-METAR|223|ICAO-KCCB|||||||||||||||||||||||||||||||||||||||||||MET062METAR KCCB 221715Z AUTO 09004KT 10SM CLR 12/M16 A3031 RMK AO2=||F||223|ICAO-KCCB
USI0000KCCB|CABLE|2017|12|22|17|35|34.1115|-117.6876|438.6|12.0||1|FM15-METAR|223|ICAO-KCCB|-15.0||1|FM15-METAR|223|ICAO-KCCB|||||||||||||090|N-Normal|1|FM15-METAR|223|ICAO-KCCB|2.1|N-Normal|1|FM15-METAR|223|ICAO-KCCB|||||||||||||14|Derived||FM15-METAR|223|ICAO-KCCB|||||||||||||||||||||||||||||||||||||||||||||||||||||||||||||||||||||||||1026.4||1|FM15-METAR|223|ICAO-KCCB|||||||||||||||||||||||||||||||||||||||||||MET062METAR KCCB 221735Z AUTO 09004KT 10SM CLR 12/M15 A3031 RMK AO2=||F||223|ICAO-KCCB
USI0000KCCB|CABLE|2017|12|22|17|55|34.1115|-117.6876|438.6|13.0||1|FM15-METAR|223|ICAO-KCCB|-16.0||1|FM15-METAR|223|ICAO-KCCB|||||||||||||120|N-Normal|1|FM15-METAR|223|ICAO-KCCB|2.1|N-Normal|1|FM15-METAR|223|ICAO-KCCB|||||||||||||12|Derived||FM15-METAR|223|ICAO-KCCB|||||||||||||||||||||||||||||||||||||||||||||||||||||||||||||||||||||||||1026.7||1|FM15-METAR|223|ICAO-KCCB|||||||||||||||||||||||||||||||||||||||||||MET062METAR KCCB 221755Z AUTO 12004KT 10SM CLR 13/M16 A3032 RMK AO2=||F||223|ICAO-KCCB
USI0000KCCB|CABLE|2017|12|22|18|15|34.1115|-117.6876|438.6|13.0||1|FM15-METAR|223|ICAO-KCCB|-16.0||1|FM15-METAR|223|ICAO-KCCB|||||||||||||999|C-Calm|9|FM15-METAR|223|ICAO-KCCB|0.0|C-Calm|1|FM15-METAR|223|ICAO-KCCB|||||||||||||12|Derived||FM15-METAR|223|ICAO-KCCB|||||||||||||||||||||||||||||||||||||||||||||||||||||||||||||||||||||||||1026.7||1|FM15-METAR|223|ICAO-KCCB|||||||||||||||||||||||||||||||||||||||||||MET062METAR KCCB 221815Z AUTO 00000KT 10SM CLR 13/M16 A3032 RMK AO2=||F||223|ICAO-KCCB
USI0000KCCB|CABLE|2017|12|22|18|35|34.1115|-117.6876|438.6|13.0||1|FM15-METAR|223|ICAO-KCCB|-15.0||1|FM15-METAR|223|ICAO-KCCB|||||||||||||999|C-Calm|9|FM15-METAR|223|ICAO-KCCB|0.0|C-Calm|1|FM15-METAR|223|ICAO-KCCB|||||||||||||13|Derived||FM15-METAR|223|ICAO-KCCB|||||||||||||||||||||||||||||||||||||||||||||||||||||||||||||||||||||||||1026.4||1|FM15-METAR|223|ICAO-KCCB|||||||||||||||||||||||||||||||||||||||||||MET062METAR KCCB 221835Z AUTO 00000KT 10SM CLR 13/M15 A3031 RMK AO2=||F||223|ICAO-KCCB
USI0000KCCB|CABLE|2017|12|22|18|55|34.1115|-117.6876|438.6|14.0||1|FM15-METAR|223|ICAO-KCCB|-15.0||1|FM15-METAR|223|ICAO-KCCB|||||||||||||999|C-Calm|9|FM15-METAR|223|ICAO-KCCB|0.0|C-Calm|1|FM15-METAR|223|ICAO-KCCB|||||||||||||12|Derived||FM15-METAR|223|ICAO-KCCB|||||||||||||||||||||||||||||||||||||||||||||||||||||||||||||||||||||||||1025.7||1|FM15-METAR|223|ICAO-KCCB|||||||||||||||||||||||||||||||||||||||||||MET062METAR KCCB 221855Z AUTO 00000KT 10SM CLR 14/M15 A3029 RMK AO2=||F||223|ICAO-KCCB
USI0000KCCB|CABLE|2017|12|22|19|15|34.1115|-117.6876|438.6|14.0||1|FM15-METAR|223|ICAO-KCCB|-15.0||1|FM15-METAR|223|ICAO-KCCB|||||||||||||999|V-Variable|9|FM15-METAR|223|ICAO-KCCB|1.5|V-Variable|1|FM15-METAR|223|ICAO-KCCB|||||||||||||12|Derived||FM15-METAR|223|ICAO-KCCB|||||||||||||||||||||||||||||||||||||||||||||||||||||||||||||||||||||||||1025.1||1|FM15-METAR|223|ICAO-KCCB|||||||||||||||||||||||||||||||||||||||||||MET062METAR KCCB 221915Z AUTO VRB03KT 10SM CLR 14/M15 A3027 RMK AO2=||F||223|ICAO-KCCB
USI0000KCCB|CABLE|2017|12|22|19|35|34.1115|-117.6876|438.6|14.0||1|FM15-METAR|223|ICAO-KCCB|-15.0||1|FM15-METAR|223|ICAO-KCCB|||||||||||||999|C-Calm|9|FM15-METAR|223|ICAO-KCCB|0.0|C-Calm|1|FM15-METAR|223|ICAO-KCCB|||||||||||||12|Derived||FM15-METAR|223|ICAO-KCCB|||||||||||||||||||||||||||||||||||||||||||||||||||||||||||||||||||||||||1024.7||1|FM15-METAR|223|ICAO-KCCB|||||||||||||||||||||||||||||||||||||||||||MET062METAR KCCB 221935Z AUTO 00000KT 10SM CLR 14/M15 A3026 RMK AO2=||F||223|ICAO-KCCB
USI0000KCCB|CABLE|2017|12|22|19|55|34.1115|-117.6876|438.6|15.0||1|FM15-METAR|223|ICAO-KCCB|-15.0||1|FM15-METAR|223|ICAO-KCCB|||||||||||||999|C-Calm|9|FM15-METAR|223|ICAO-KCCB|0.0|C-Calm|1|FM15-METAR|223|ICAO-KCCB|||||||||||||11|Derived||FM15-METAR|223|ICAO-KCCB|||||||||||||||||||||||||||||||||||||||||||||||||||||||||||||||||||||||||1024.4||1|FM15-METAR|223|ICAO-KCCB|||||||||||||||||||||||||||||||||||||||||||MET062METAR KCCB 221955Z AUTO 00000KT 10SM CLR 15/M15 A3025 RMK AO2=||F||223|ICAO-KCCB
USI0000KCCB|CABLE|2017|12|22|20|15|34.1115|-117.6876|438.6|15.0||1|FM15-METAR|223|ICAO-KCCB|-15.0||1|FM15-METAR|223|ICAO-KCCB|||||||||||||999|C-Calm|9|FM15-METAR|223|ICAO-KCCB|0.0|C-Calm|1|FM15-METAR|223|ICAO-KCCB|||||||||||||11|Derived||FM15-METAR|223|ICAO-KCCB|||||||||||||||||||||||||||||||||||||||||||||||||||||||||||||||||||||||||1024.0||1|FM15-METAR|223|ICAO-KCCB|||||||||||||||||||||||||||||||||||||||||||MET062METAR KCCB 222015Z AUTO 00000KT 10SM CLR 15/M15 A3024 RMK AO2=||F||223|ICAO-KCCB
USI0000KCCB|CABLE|2017|12|22|20|35|34.1115|-117.6876|438.6|15.0||1|FM15-METAR|223|ICAO-KCCB|-15.0||1|FM15-METAR|223|ICAO-KCCB|||||||||||||200|N-Normal|1|FM15-METAR|223|ICAO-KCCB|1.5|N-Normal|1|FM15-METAR|223|ICAO-KCCB|||||||||||||11|Derived||FM15-METAR|223|ICAO-KCCB|||||||||||||||||||||||||||||||||||||||||||||||||||||||||||||||||||||||||1023.7||1|FM15-METAR|223|ICAO-KCCB|||||||||||||||||||||||||||||||||||||||||||MET062METAR KCCB 222035Z AUTO 20003KT 10SM CLR 15/M15 A3023 RMK AO2=||F||223|ICAO-KCCB
USI0000KCCB|CABLE|2017|12|22|20|55|34.1115|-117.6876|438.6|16.0||1|FM15-METAR|223|ICAO-KCCB|-15.0||1|FM15-METAR|223|ICAO-KCCB|||||||||||||210|N-Normal|1|FM15-METAR|223|ICAO-KCCB|2.1|N-Normal|1|FM15-METAR|223|ICAO-KCCB|||||||||||||11|Derived||FM15-METAR|223|ICAO-KCCB|||||||||||||||||||||||||||||||||||||||||||||||||||||||||||||||||||||||||1023.7||1|FM15-METAR|223|ICAO-KCCB|||||||||||||||||||||||||||||||||||||||||||MET062METAR KCCB 222055Z AUTO 21004KT 10SM CLR 16/M15 A3023 RMK AO2=||F||223|ICAO-KCCB
USI0000KCCB|CABLE|2017|12|22|21|15|34.1115|-117.6876|438.6|16.0||1|FM15-METAR|223|ICAO-KCCB|-15.0||1|FM15-METAR|223|ICAO-KCCB|||||||||||||999|V-Variable|9|FM15-METAR|223|ICAO-KCCB|2.1|V-Variable|1|FM15-METAR|223|ICAO-KCCB|||||||||||||11|Derived||FM15-METAR|223|ICAO-KCCB|||||||||||||||||||||||||||||||||||||||||||||||||||||||||||||||||||||||||1023.7||1|FM15-METAR|223|ICAO-KCCB|||||||||||||||||||||||||||||||||||||||||||MET062METAR KCCB 222115Z AUTO VRB04KT 10SM CLR 16/M15 A3023 RMK AO2=||F||223|ICAO-KCCB
USI0000KCCB|CABLE|2017|12|22|21|35|34.1115|-117.6876|438.6|16.0||1|FM15-METAR|223|ICAO-KCCB|-16.0||1|FM15-METAR|223|ICAO-KCCB|||||||||||||999|C-Calm|9|FM15-METAR|223|ICAO-KCCB|0.0|C-Calm|1|FM15-METAR|223|ICAO-KCCB|||||||||||||10|Derived||FM15-METAR|223|ICAO-KCCB|||||||||||||||||||||||||||||||||||||||||||||||||||||||||||||||||||||||||1023.4||1|FM15-METAR|223|ICAO-KCCB|||||||||||||||||||||||||||||||||||||||||||MET062METAR KCCB 222135Z AUTO 00000KT 10SM CLR 16/M16 A3022 RMK AO2=||F||223|ICAO-KCCB
USI0000KCCB|CABLE|2017|12|22|21|55|34.1115|-117.6876|438.6|16.0||1|FM15-METAR|223|ICAO-KCCB|-17.0||1|FM15-METAR|223|ICAO-KCCB|||||||||||||999|V-Variable|9|FM15-METAR|223|ICAO-KCCB|2.1|V-Variable|1|FM15-METAR|223|ICAO-KCCB|||||||||||||9|Derived||FM15-METAR|223|ICAO-KCCB|||||||||||||||||||||||||||||||||||||||||||||||||||||||||||||||||||||||||1023.4||1|FM15-METAR|223|ICAO-KCCB|||||||||||||||||||||||||||||||||||||||||||MET062METAR KCCB 222155Z AUTO VRB04KT 10SM CLR 16/M17 A3022 RMK AO2=||F||223|ICAO-KCCB
USI0000KCCB|CABLE|2017|12|22|22|15|34.1115|-117.6876|438.6|16.0||1|FM15-METAR|223|ICAO-KCCB|-17.0||1|FM15-METAR|223|ICAO-KCCB|||||||||||||999|C-Calm|9|FM15-METAR|223|ICAO-KCCB|0.0|C-Calm|1|FM15-METAR|223|ICAO-KCCB|||||||||||||9|Derived||FM15-METAR|223|ICAO-KCCB|||||||||||||||||||||||||||||||||||||||||||||||||||||||||||||||||||||||||1023.0||1|FM15-METAR|223|ICAO-KCCB|||||||||||||||||||||||||||||||||||||||||||MET062METAR KCCB 222215Z AUTO 00000KT 10SM CLR 16/M17 A3021 RMK AO2=||F||223|ICAO-KCCB
USI0000KCCB|CABLE|2017|12|22|22|35|34.1115|-117.6876|438.6|17.0||1|FM15-METAR|223|ICAO-KCCB|-16.0||1|FM15-METAR|223|ICAO-KCCB|||||||||||||999|C-Calm|9|FM15-METAR|223|ICAO-KCCB|0.0|C-Calm|1|FM15-METAR|223|ICAO-KCCB|||||||||||||9|Derived||FM15-METAR|223|ICAO-KCCB|||||||||||||||||||||||||||||||||||||||||||||||||||||||||||||||||||||||||1022.7||1|FM15-METAR|223|ICAO-KCCB|||||||||||||||||||||||||||||||||||||||||||MET062METAR KCCB 222235Z AUTO 00000KT 10SM CLR 17/M16 A3020 RMK AO2=||F||223|ICAO-KCCB
USI0000KCCB|CABLE|2017|12|22|22|55|34.1115|-117.6876|438.6|17.0||1|FM15-METAR|223|ICAO-KCCB|-17.0||1|FM15-METAR|223|ICAO-KCCB|||||||||||||240|N-Normal|1|FM15-METAR|223|ICAO-KCCB|2.1|N-Normal|1|FM15-METAR|223|ICAO-KCCB|||||||||||||8|Derived||FM15-METAR|223|ICAO-KCCB|||||||||||||||||||||||||||||||||||||||||||||||||||||||||||||||||||||||||1022.7||1|FM15-METAR|223|ICAO-KCCB|||||||||||||||||||||||||||||||||||||||||||MET062METAR KCCB 222255Z AUTO 24004KT 10SM CLR 17/M17 A3020 RMK AO2=||F||223|ICAO-KCCB
USI0000KCCB|CABLE|2017|12|22|23|15|34.1115|-117.6876|438.6|17.0||1|FM15-METAR|223|ICAO-KCCB|-17.0||1|FM15-METAR|223|ICAO-KCCB|||||||||||||999|C-Calm|9|FM15-METAR|223|ICAO-KCCB|0.0|C-Calm|1|FM15-METAR|223|ICAO-KCCB|||||||||||||8|Derived||FM15-METAR|223|ICAO-KCCB|||||||||||||||||||||||||||||||||||||||||||||||||||||||||||||||||||||||||1023.0||1|FM15-METAR|223|ICAO-KCCB|||||||||||||||||||||||||||||||||||||||||||MET062METAR KCCB 222315Z AUTO 00000KT 10SM CLR 17/M17 A3021 RMK AO2=||F||223|ICAO-KCCB
USI0000KCCB|CABLE|2017|12|22|23|35|34.1115|-117.6876|438.6|17.0||1|FM15-METAR|223|ICAO-KCCB|-18.0||1|FM15-METAR|223|ICAO-KCCB|||||||||||||999|C-Calm|9|FM15-METAR|223|ICAO-KCCB|0.0|C-Calm|1|FM15-METAR|223|ICAO-KCCB|||||||||||||8|Derived||FM15-METAR|223|ICAO-KCCB|||||||||||||||||||||||||||||||||||||||||||||||||||||||||||||||||||||||||1023.4||1|FM15-METAR|223|ICAO-KCCB|||||||||||||||||||||||||||||||||||||||||||MET062METAR KCCB 222335Z AUTO 00000KT 10SM CLR 17/M18 A3022 RMK AO2=||F||223|ICAO-KCCB
USI0000KCCB|CABLE|2017|12|22|23|55|34.1115|-117.6876|438.6|17.0||1|FM15-METAR|223|ICAO-KCCB|-18.0||1|FM15-METAR|223|ICAO-KCCB|||||||||||||999|C-Calm|9|FM15-METAR|223|ICAO-KCCB|0.0|C-Calm|1|FM15-METAR|223|ICAO-KCCB|||||||||||||8|Derived||FM15-METAR|223|ICAO-KCCB|||||||||||||||||||||||||||||||||||||||||||||||||||||||||||||||||||||||||1023.4||1|FM15-METAR|223|ICAO-KCCB|||||||||||||||||||||||||||||||||||||||||||MET062METAR KCCB 222355Z AUTO 00000KT 10SM CLR 17/M18 A3022 RMK AO2=||F||223|ICAO-KCCB
USI0000KCCB|CABLE|2017|12|23|00|15|34.1115|-117.6876|438.6|17.0||1|FM15-METAR|223|ICAO-KCCB|-18.0||1|FM15-METAR|223|ICAO-KCCB|||||||||||||999|C-Calm|9|FM15-METAR|223|ICAO-KCCB|0.0|C-Calm|1|FM15-METAR|223|ICAO-KCCB|||||||||||||8|Derived||FM15-METAR|223|ICAO-KCCB|||||||||||||||||||||||||||||||||||||||||||||||||||||||||||||||||||||||||1023.0||1|FM15-METAR|223|ICAO-KCCB|||||||||||||||||||||||||||||||||||||||||||MET062METAR KCCB 230015Z AUTO 00000KT 10SM CLR 17/M18 A3021 RMK AO2=||F||223|ICAO-KCCB
USI0000KCCB|CABLE|2017|12|23|00|35|34.1115|-117.6876|438.6|16.0||1|FM15-METAR|223|ICAO-KCCB|-18.0||1|FM15-METAR|223|ICAO-KCCB|||||||||||||999|C-Calm|9|FM15-METAR|223|ICAO-KCCB|0.0|C-Calm|1|FM15-METAR|223|ICAO-KCCB|||||||||||||8|Derived||FM15-METAR|223|ICAO-KCCB|||||||||||||||||||||||||||||||||||||||||||||||||||||||||||||||||||||||||1023.4||1|FM15-METAR|223|ICAO-KCCB|||||||||||||||||||||||||||||||||||||||||||MET062METAR KCCB 230035Z AUTO 00000KT 10SM CLR 16/M18 A3022 RMK AO2=||F||223|ICAO-KCCB
USI0000KCCB|CABLE|2017|12|23|00|55|34.1115|-117.6876|438.6|16.0||1|FM15-METAR|223|ICAO-KCCB|-15.0||1|FM15-METAR|223|ICAO-KCCB|||||||||||||280|N-Normal|1|FM15-METAR|223|ICAO-KCCB|2.1|N-Normal|1|FM15-METAR|223|ICAO-KCCB|||||||||||||11|Derived||FM15-METAR|223|ICAO-KCCB|||||||||||||||||||||||||||||||||||||||||||||||||||||||||||||||||||||||||1023.4||1|FM15-METAR|223|ICAO-KCCB|||||||||||||||||||||||||||||||||||||||||||MET062METAR KCCB 230055Z AUTO 28004KT 10SM CLR 16/M15 A3022 RMK AO2=||F||223|ICAO-KCCB
USI0000KCCB|CABLE|2017|12|23|01|15|34.1115|-117.6876|438.6|15.0||1|FM15-METAR|223|ICAO-KCCB|-15.0||1|FM15-METAR|223|ICAO-KCCB|||||||||||||320|N-Normal|1|FM15-METAR|223|ICAO-KCCB|2.1|N-Normal|1|FM15-METAR|223|ICAO-KCCB|||||||||||||11|Derived||FM15-METAR|223|ICAO-KCCB|||||||||||||||||||||||||||||||||||||||||||||||||||||||||||||||||||||||||1023.7||1|FM15-METAR|223|ICAO-KCCB|||||||||||||||||||||||||||||||||||||||||||MET062METAR KCCB 230115Z AUTO 32004KT 10SM CLR 15/M15 A3023 RMK AO2=||F||223|ICAO-KCCB
USI0000KCCB|CABLE|2017|12|23|01|35|34.1115|-117.6876|438.6|13.0||1|FM15-METAR|223|ICAO-KCCB|-14.0||1|FM15-METAR|223|ICAO-KCCB|||||||||||||340|N-Normal|1|FM15-METAR|223|ICAO-KCCB|2.1|N-Normal|1|FM15-METAR|223|ICAO-KCCB|||||||||||||14|Derived||FM15-METAR|223|ICAO-KCCB|||||||||||||||||||||||||||||||||||||||||||||||||||||||||||||||||||||||||1023.7||1|FM15-METAR|223|ICAO-KCCB|||||||||||||||||||||||||||||||||||||||||||MET058METAR KCCB 230135Z AUTO 34004KT 10SM 13/M14 A3023 RMK AO2=||F||223|ICAO-KCCB
USI0000KCCB|CABLE|2017|12|23|01|55|34.1115|-117.6876|438.6|13.0||1|FM15-METAR|223|ICAO-KCCB|-14.0||1|FM15-METAR|223|ICAO-KCCB|||||||||||||350|N-Normal|1|FM15-METAR|223|ICAO-KCCB|2.6|N-Normal|1|FM15-METAR|223|ICAO-KCCB|||||||||||||14|Derived||FM15-METAR|223|ICAO-KCCB|||||||||||||||||||||||||||||||||||||||||||||||||||||||||||||||||||||||||1023.7||1|FM15-METAR|223|ICAO-KCCB|||||||||||||||||||||||||||||||||||||||||||MET065METAR KCCB 230155Z AUTO 35005KT 10SM FEW033 13/M14 A3023 RMK AO2=||F||223|ICAO-KCCB
USI0000KCCB|CABLE|2017|12|23|02|15|34.1115|-117.6876|438.6|13.0||1|FM15-METAR|223|ICAO-KCCB|-14.0||1|FM15-METAR|223|ICAO-KCCB|||||||||||||320|N-Normal|1|FM15-METAR|223|ICAO-KCCB|3.1|N-Normal|1|FM15-METAR|223|ICAO-KCCB|||||||||||||14|Derived||FM15-METAR|223|ICAO-KCCB|||||||||||||||||||||||||||||||||||||||||||||||||||||||||||||||||||||||||1024.0||1|FM15-METAR|223|ICAO-KCCB|||||||||||||||||||||||||||||||||||||||||||MET062METAR KCCB 230215Z AUTO 32006KT 10SM CLR 13/M14 A3024 RMK AO2=||F||223|ICAO-KCCB
USI0000KCCB|CABLE|2017|12|23|02|35|34.1115|-117.6876|438.6|13.0||1|FM15-METAR|223|ICAO-KCCB|-14.0||1|FM15-METAR|223|ICAO-KCCB|||||||||||||350|N-Normal|1|FM15-METAR|223|ICAO-KCCB|2.6|N-Normal|1|FM15-METAR|223|ICAO-KCCB|||||||||||||14|Derived||FM15-METAR|223|ICAO-KCCB|||||||||||||||||||||||||||||||||||||||||||||||||||||||||||||||||||||||||1024.0||1|FM15-METAR|223|ICAO-KCCB|||||||||||||||||||||||||||||||||||||||||||MET062METAR KCCB 230235Z AUTO 35005KT 10SM CLR 13/M14 A3024 RMK AO2=||F||223|ICAO-KCCB
USI0000KCCB|CABLE|2017|12|23|02|55|34.1115|-117.6876|438.6|12.0||1|FM15-METAR|223|ICAO-KCCB|-14.0||1|FM15-METAR|223|ICAO-KCCB|||||||||||||010|N-Normal|1|FM15-METAR|223|ICAO-KCCB|2.6|N-Normal|1|FM15-METAR|223|ICAO-KCCB|||||||||||||15|Derived||FM15-METAR|223|ICAO-KCCB|||||||||||||||||||||||||||||||||||||||||||||||||||||||||||||||||||||||||1023.7||1|FM15-METAR|223|ICAO-KCCB|||||||||||||||||||||||||||||||||||||||||||MET062METAR KCCB 230255Z AUTO 01005KT 10SM CLR 12/M14 A3023 RMK AO2=||F||223|ICAO-KCCB
USI0000KCCB|CABLE|2017|12|23|03|15|34.1115|-117.6876|438.6|13.0||1|FM15-METAR|223|ICAO-KCCB|-14.0||1|FM15-METAR|223|ICAO-KCCB|||||||||||||010|N-Normal|1|FM15-METAR|223|ICAO-KCCB|3.1|N-Normal|1|FM15-METAR|223|ICAO-KCCB|||||||||||||14|Derived||FM15-METAR|223|ICAO-KCCB|||||||||||||||||||||||||||||||||||||||||||||||||||||||||||||||||||||||||1023.7||1|FM15-METAR|223|ICAO-KCCB|||||||||||||||||||||||||||||||||||||||||||MET062METAR KCCB 230315Z AUTO 01006KT 10SM CLR 13/M14 A3023 RMK AO2=||F||223|ICAO-KCCB
USI0000KCCB|CABLE|2017|12|23|03|35|34.1115|-117.6876|438.6|14.0||1|FM15-METAR|223|ICAO-KCCB|-14.0||1|FM15-METAR|223|ICAO-KCCB|||||||||||||020|N-Normal|1|FM15-METAR|223|ICAO-KCCB|4.1|N-Normal|1|FM15-METAR|223|ICAO-KCCB|||||||||||||13|Derived||FM15-METAR|223|ICAO-KCCB|||||||||||||||||||||||||||||||||||||||||||||||||||||||||||||||||||||||||1024.0||1|FM15-METAR|223|ICAO-KCCB|||||||||||||||||||||||||||||||||||||||||||MET062METAR KCCB 230335Z AUTO 02008KT 10SM CLR 14/M14 A3024 RMK AO2=||F||223|ICAO-KCCB
USI0000KCCB|CABLE|2017|12|23|03|55|34.1115|-117.6876|438.6|11.0||1|FM15-METAR|223|ICAO-KCCB|-12.0||1|FM15-METAR|223|ICAO-KCCB|||||||||||||100|N-Normal|1|FM15-METAR|223|ICAO-KCCB|2.6|N-Normal|1|FM15-METAR|223|ICAO-KCCB|||||||||||||19|Derived||FM15-METAR|223|ICAO-KCCB|||||||||||||||||||||||||||||||||||||||||||||||||||||||||||||||||||||||||1024.0||1|FM15-METAR|223|ICAO-KCCB|||||||||||||||||||||||||||||||||||||||||||MET062METAR KCCB 230355Z AUTO 10005KT 10SM CLR 11/M12 A3024 RMK AO2=||F||223|ICAO-KCCB
USI0000KCCB|CABLE|2017|12|23|04|15|34.1115|-117.6876|438.6|12.0||1|FM15-METAR|223|ICAO-KCCB|-13.0||1|FM15-METAR|223|ICAO-KCCB|||||||||||||070|N-Normal|1|FM15-METAR|223|ICAO-KCCB|3.1|N-Normal|1|FM15-METAR|223|ICAO-KCCB|||||||||||||16|Derived||FM15-METAR|223|ICAO-KCCB|||||||||||||||||||||||||||||||||||||||||||||||||||||||||||||||||||||||||1024.0||1|FM15-METAR|223|ICAO-KCCB|||||||||||||||||||||||||||||||||||||||||||MET062METAR KCCB 230415Z AUTO 07006KT 10SM CLR 12/M13 A3024 RMK AO2=||F||223|ICAO-KCCB
USI0000KCCB|CABLE|2017|12|23|04|35|34.1115|-117.6876|438.6|12.0||1|FM15-METAR|223|ICAO-KCCB|-14.0||1|FM15-METAR|223|ICAO-KCCB|||||||||||||060|N-Normal|1|FM15-METAR|223|ICAO-KCCB|2.1|N-Normal|1|FM15-METAR|223|ICAO-KCCB|||||||||||||15|Derived||FM15-METAR|223|ICAO-KCCB|||||||||||||||||||||||||||||||||||||||||||||||||||||||||||||||||||||||||1024.0||1|FM15-METAR|223|ICAO-KCCB|||||||||||||||||||||||||||||||||||||||||||MET062METAR KCCB 230435Z AUTO 06004KT 10SM CLR 12/M14 A3024 RMK AO2=||F||223|ICAO-KCCB
USI0000KCCB|CABLE|2017|12|23|04|55|34.1115|-117.6876|438.6|12.0||1|FM15-METAR|223|ICAO-KCCB|-14.0||1|FM15-METAR|223|ICAO-KCCB|||||||||||||040|N-Normal|1|FM15-METAR|223|ICAO-KCCB|2.6|N-Normal|1|FM15-METAR|223|ICAO-KCCB|||||||||||||15|Derived||FM15-METAR|223|ICAO-KCCB|||||||||||||||||||||||||||||||||||||||||||||||||||||||||||||||||||||||||1024.4||1|FM15-METAR|223|ICAO-KCCB|||||||||||||||||||||||||||||||||||||||||||MET062METAR KCCB 230455Z AUTO 04005KT 10SM CLR 12/M14 A3025 RMK AO2=||F||223|ICAO-KCCB
USI0000KCCB|CABLE|2017|12|23|05|15|34.1115|-117.6876|438.6|11.0||1|FM15-METAR|223|ICAO-KCCB|-13.0||1|FM15-METAR|223|ICAO-KCCB|||||||||||||050|N-Normal|1|FM15-METAR|223|ICAO-KCCB|1.5|N-Normal|1|FM15-METAR|223|ICAO-KCCB|||||||||||||17|Derived||FM15-METAR|223|ICAO-KCCB|||||||||||||||||||||||||||||||||||||||||||||||||||||||||||||||||||||||||1024.4||1|FM15-METAR|223|ICAO-KCCB|||||||||||||||||||||||||||||||||||||||||||MET062METAR KCCB 230515Z AUTO 05003KT 10SM CLR 11/M13 A3025 RMK AO2=||F||223|ICAO-KCCB
USI0000KCCB|CABLE|2017|12|23|05|35|34.1115|-117.6876|438.6|12.0||1|FM15-METAR|223|ICAO-KCCB|-14.0||1|FM15-METAR|223|ICAO-KCCB|||||||||||||050|N-Normal|1|FM15-METAR|223|ICAO-KCCB|3.1|N-Normal|1|FM15-METAR|223|ICAO-KCCB|||||||||||||15|Derived||FM15-METAR|223|ICAO-KCCB|||||||||||||||||||||||||||||||||||||||||||||||||||||||||||||||||||||||||1024.4||1|FM15-METAR|223|ICAO-KCCB|||||||||||||||||||||||||||||||||||||||||||MET062METAR KCCB 230535Z AUTO 05006KT 10SM CLR 12/M14 A3025 RMK AO2=||F||223|ICAO-KCCB
USI0000KCCB|CABLE|2017|12|23|05|55|34.1115|-117.6876|438.6|11.0||1|FM15-METAR|223|ICAO-KCCB|-13.0||1|FM15-METAR|223|ICAO-KCCB|||||||||||||060|N-Normal|1|FM15-METAR|223|ICAO-KCCB|2.6|N-Normal|1|FM15-METAR|223|ICAO-KCCB|||||||||||||17|Derived||FM15-METAR|223|ICAO-KCCB|||||||||||||||||||||||||||||||||||||||||||||||||||||||||||||||||||||||||1024.4||1|FM15-METAR|223|ICAO-KCCB|||||||||||||||||||||||||||||||||||||||||||MET062METAR KCCB 230555Z AUTO 06005KT 10SM CLR 11/M13 A3025 RMK AO2=||F||223|ICAO-KCCB
USI0000KCCB|CABLE|2017|12|23|06|15|34.1115|-117.6876|438.6|12.0||1|FM15-METAR|223|ICAO-KCCB|-14.0||1|FM15-METAR|223|ICAO-KCCB|||||||||||||050|N-Normal|1|FM15-METAR|223|ICAO-KCCB|2.6|N-Normal|1|FM15-METAR|223|ICAO-KCCB|||||||||||||15|Derived||FM15-METAR|223|ICAO-KCCB|||||||||||||||||||||||||||||||||||||||||||||||||||||||||||||||||||||||||1024.4||1|FM15-METAR|223|ICAO-KCCB|||||||||||||||||||||||||||||||||||||||||||MET062METAR KCCB 230615Z AUTO 05005KT 10SM CLR 12/M14 A3025 RMK AO2=||F||223|ICAO-KCCB
USI0000KCCB|CABLE|2017|12|23|06|35|34.1115|-117.6876|438.6|12.0||1|FM15-METAR|223|ICAO-KCCB|-14.0||1|FM15-METAR|223|ICAO-KCCB|||||||||||||060|N-Normal|1|FM15-METAR|223|ICAO-KCCB|2.6|N-Normal|1|FM15-METAR|223|ICAO-KCCB|||||||||||||15|Derived||FM15-METAR|223|ICAO-KCCB|||||||||||||||||||||||||||||||||||||||||||||||||||||||||||||||||||||||||1024.4||1|FM15-METAR|223|ICAO-KCCB|||||||||||||||||||||||||||||||||||||||||||MET062METAR KCCB 230635Z AUTO 06005KT 10SM CLR 12/M14 A3025 RMK AO2=||F||223|ICAO-KCCB
USI0000KCCB|CABLE|2017|12|23|06|55|34.1115|-117.6876|438.6|11.0||1|FM15-METAR|223|ICAO-KCCB|-14.0||1|FM15-METAR|223|ICAO-KCCB|||||||||||||070|N-Normal|1|FM15-METAR|223|ICAO-KCCB|2.6|N-Normal|1|FM15-METAR|223|ICAO-KCCB|||||||||||||16|Derived||FM15-METAR|223|ICAO-KCCB|||||||||||||||||||||||||||||||||||||||||||||||||||||||||||||||||||||||||1024.4||1|FM15-METAR|223|ICAO-KCCB|||||||||||||||||||||||||||||||||||||||||||MET062METAR KCCB 230655Z AUTO 07005KT 10SM CLR 11/M14 A3025 RMK AO2=||F||223|ICAO-KCCB
USI0000KCCB|CABLE|2017|12|23|07|15|34.1115|-117.6876|438.6|11.0||1|FM15-METAR|223|ICAO-KCCB|-13.0||1|FM15-METAR|223|ICAO-KCCB|||||||||||||050|N-Normal|1|FM15-METAR|223|ICAO-KCCB|2.1|N-Normal|1|FM15-METAR|223|ICAO-KCCB|||||||||||||17|Derived||FM15-METAR|223|ICAO-KCCB|||||||||||||||||||||||||||||||||||||||||||||||||||||||||||||||||||||||||1024.4||1|FM15-METAR|223|ICAO-KCCB|||||||||||||||||||||||||||||||||||||||||||MET062METAR KCCB 230715Z AUTO 05004KT 10SM CLR 11/M13 A3025 RMK AO2=||F||223|ICAO-KCCB
USI0000KCCB|CABLE|2017|12|23|07|35|34.1115|-117.6876|438.6|11.0||1|FM15-METAR|223|ICAO-KCCB|-13.0||1|FM15-METAR|223|ICAO-KCCB|||||||||||||060|N-Normal|1|FM15-METAR|223|ICAO-KCCB|1.5|N-Normal|1|FM15-METAR|223|ICAO-KCCB|||||||||||||17|Derived||FM15-METAR|223|ICAO-KCCB|||||||||||||||||||||||||||||||||||||||||||||||||||||||||||||||||||||||||1024.0||1|FM15-METAR|223|ICAO-KCCB|||||||||||||||||||||||||||||||||||||||||||MET062METAR KCCB 230735Z AUTO 06003KT 10SM CLR 11/M13 A3024 RMK AO2=||F||223|ICAO-KCCB
USI0000KCCB|CABLE|2017|12|23|07|55|34.1115|-117.6876|438.6|12.0||1|FM15-METAR|223|ICAO-KCCB|-14.0||1|FM15-METAR|223|ICAO-KCCB|||||||||||||040|N-Normal|1|FM15-METAR|223|ICAO-KCCB|2.1|N-Normal|1|FM15-METAR|223|ICAO-KCCB|||||||||||||15|Derived||FM15-METAR|223|ICAO-KCCB|||||||||||||||||||||||||||||||||||||||||||||||||||||||||||||||||||||||||1024.0||1|FM15-METAR|223|ICAO-KCCB|||||||||||||||||||||||||||||||||||||||||||MET062METAR KCCB 230755Z AUTO 04004KT 10SM CLR 12/M14 A3024 RMK AO2=||F||223|ICAO-KCCB
USI0000KCCB|CABLE|2017|12|23|08|15|34.1115|-117.6876|438.6|11.0||1|FM15-METAR|223|ICAO-KCCB|-13.0||1|FM15-METAR|223|ICAO-KCCB|||||||||||||020|N-Normal|1|FM15-METAR|223|ICAO-KCCB|1.5|N-Normal|1|FM15-METAR|223|ICAO-KCCB|||||||||||||17|Derived||FM15-METAR|223|ICAO-KCCB|||||||||||||||||||||||||||||||||||||||||||||||||||||||||||||||||||||||||1024.0||1|FM15-METAR|223|ICAO-KCCB|||||||||||||||||||||||||||||||||||||||||||MET062METAR KCCB 230815Z AUTO 02003KT 10SM CLR 11/M13 A3024 RMK AO2=||F||223|ICAO-KCCB
USI0000KCCB|CABLE|2017|12|23|08|35|34.1115|-117.6876|438.6|11.0||1|FM15-METAR|223|ICAO-KCCB|-13.0||1|FM15-METAR|223|ICAO-KCCB|||||||||||||999|C-Calm|9|FM15-METAR|223|ICAO-KCCB|0.0|C-Calm|1|FM15-METAR|223|ICAO-KCCB|||||||||||||17|Derived||FM15-METAR|223|ICAO-KCCB|||||||||||||||||||||||||||||||||||||||||||||||||||||||||||||||||||||||||1024.0||1|FM15-METAR|223|ICAO-KCCB|||||||||||||||||||||||||||||||||||||||||||MET062METAR KCCB 230835Z AUTO 00000KT 10SM CLR 11/M13 A3024 RMK AO2=||F||223|ICAO-KCCB
USI0000KCCB|CABLE|2017|12|23|08|55|34.1115|-117.6876|438.6|10.0||1|FM15-METAR|223|ICAO-KCCB|-11.0||1|FM15-METAR|223|ICAO-KCCB|||||||||||||070|N-Normal|1|FM15-METAR|223|ICAO-KCCB|2.1|N-Normal|1|FM15-METAR|223|ICAO-KCCB|||||||||||||22|Derived||FM15-METAR|223|ICAO-KCCB|||||||||||||||||||||||||||||||||||||||||||||||||||||||||||||||||||||||||1024.0||1|FM15-METAR|223|ICAO-KCCB|||||||||||||||||||||||||||||||||||||||||||MET062METAR KCCB 230855Z AUTO 07004KT 10SM CLR 10/M11 A3024 RMK AO2=||F||223|ICAO-KCCB
USI0000KCCB|CABLE|2017|12|23|09|15|34.1115|-117.6876|438.6|10.0||1|FM15-METAR|223|ICAO-KCCB|-13.0||1|FM15-METAR|223|ICAO-KCCB|||||||||||||050|N-Normal|1|FM15-METAR|223|ICAO-KCCB|3.1|N-Normal|1|FM15-METAR|223|ICAO-KCCB|||||||||||||19|Derived||FM15-METAR|223|ICAO-KCCB|||||||||||||||||||||||||||||||||||||||||||||||||||||||||||||||||||||||||1024.0||1|FM15-METAR|223|ICAO-KCCB|||||||||||||||||||||||||||||||||||||||||||MET062METAR KCCB 230915Z AUTO 05006KT 10SM CLR 10/M13 A3024 RMK AO2=||F||223|ICAO-KCCB
USI0000KCCB|CABLE|2017|12|23|09|35|34.1115|-117.6876|438.6|9.0||1|FM15-METAR|223|ICAO-KCCB|-13.0||1|FM15-METAR|223|ICAO-KCCB|||||||||||||050|N-Normal|1|FM15-METAR|223|ICAO-KCCB|2.1|N-Normal|1|FM15-METAR|223|ICAO-KCCB|||||||||||||20|Derived||FM15-METAR|223|ICAO-KCCB|||||||||||||||||||||||||||||||||||||||||||||||||||||||||||||||||||||||||1024.0||1|FM15-METAR|223|ICAO-KCCB|||||||||||||||||||||||||||||||||||||||||||MET062METAR KCCB 230935Z AUTO 05004KT 10SM CLR 09/M13 A3024 RMK AO2=||F||223|ICAO-KCCB
USI0000KCCB|CABLE|2017|12|23|09|55|34.1115|-117.6876|438.6|10.0||1|FM15-METAR|223|ICAO-KCCB|-14.0||1|FM15-METAR|223|ICAO-KCCB|||||||||||||050|N-Normal|1|FM15-METAR|223|ICAO-KCCB|2.1|N-Normal|1|FM15-METAR|223|ICAO-KCCB|||||||||||||17|Derived||FM15-METAR|223|ICAO-KCCB|||||||||||||||||||||||||||||||||||||||||||||||||||||||||||||||||||||||||1023.7||1|FM15-METAR|223|ICAO-KCCB|||||||||||||||||||||||||||||||||||||||||||MET062METAR KCCB 230955Z AUTO 05004KT 10SM CLR 10/M14 A3023 RMK AO2=||F||223|ICAO-KCCB
USI0000KCCB|CABLE|2017|12|23|10|15|34.1115|-117.6876|438.6|10.0||1|FM15-METAR|223|ICAO-KCCB|-14.0||1|FM15-METAR|223|ICAO-KCCB|||||||||||||030|N-Normal|1|FM15-METAR|223|ICAO-KCCB|2.1|N-Normal|1|FM15-METAR|223|ICAO-KCCB|||||||||||||17|Derived||FM15-METAR|223|ICAO-KCCB|||||||||||||||||||||||||||||||||||||||||||||||||||||||||||||||||||||||||1023.7||1|FM15-METAR|223|ICAO-KCCB|||||||||||||||||||||||||||||||||||||||||||MET062METAR KCCB 231015Z AUTO 03004KT 10SM CLR 10/M14 A3023 RMK AO2=||F||223|ICAO-KCCB
USI0000KCCB|CABLE|2017|12|23|10|35|34.1115|-117.6876|438.6|9.0||1|FM15-METAR|223|ICAO-KCCB|-13.0||1|FM15-METAR|223|ICAO-KCCB|||||||||||||040|N-Normal|1|FM15-METAR|223|ICAO-KCCB|2.1|N-Normal|1|FM15-METAR|223|ICAO-KCCB|||||||||||||20|Derived||FM15-METAR|223|ICAO-KCCB|||||||||||||||||||||||||||||||||||||||||||||||||||||||||||||||||||||||||1023.4||1|FM15-METAR|223|ICAO-KCCB|||||||||||||||||||||||||||||||||||||||||||MET062METAR KCCB 231035Z AUTO 04004KT 10SM CLR 09/M13 A3022 RMK AO2=||F||223|ICAO-KCCB
USI0000KCCB|CABLE|2017|12|23|10|55|34.1115|-117.6876|438.6|10.0||1|FM15-METAR|223|ICAO-KCCB|-14.0||1|FM15-METAR|223|ICAO-KCCB|||||||||||||030|N-Normal|1|FM15-METAR|223|ICAO-KCCB|1.5|N-Normal|1|FM15-METAR|223|ICAO-KCCB|||||||||||||17|Derived||FM15-METAR|223|ICAO-KCCB|||||||||||||||||||||||||||||||||||||||||||||||||||||||||||||||||||||||||1023.0||1|FM15-METAR|223|ICAO-KCCB|||||||||||||||||||||||||||||||||||||||||||MET062METAR KCCB 231055Z AUTO 03003KT 10SM CLR 10/M14 A3021 RMK AO2=||F||223|ICAO-KCCB
USI0000KCCB|CABLE|2017|12|23|11|15|34.1115|-117.6876|438.6|9.0||1|FM15-METAR|223|ICAO-KCCB|-13.0||1|FM15-METAR|223|ICAO-KCCB|||||||||||||060|N-Normal|1|FM15-METAR|223|ICAO-KCCB|1.5|N-Normal|1|FM15-METAR|223|ICAO-KCCB|||||||||||||20|Derived||FM15-METAR|223|ICAO-KCCB|||||||||||||||||||||||||||||||||||||||||||||||||||||||||||||||||||||||||1022.7||1|FM15-METAR|223|ICAO-KCCB|||||||||||||||||||||||||||||||||||||||||||MET062METAR KCCB 231115Z AUTO 06003KT 10SM CLR 09/M13 A3020 RMK AO2=||F||223|ICAO-KCCB
USI0000KCCB|CABLE|2017|12|23|11|35|34.1115|-117.6876|438.6|10.0||1|FM15-METAR|223|ICAO-KCCB|-14.0||1|FM15-METAR|223|ICAO-KCCB|||||||||||||060|N-Normal|1|FM15-METAR|223|ICAO-KCCB|1.5|N-Normal|1|FM15-METAR|223|ICAO-KCCB|||||||||||||17|Derived||FM15-METAR|223|ICAO-KCCB|||||||||||||||||||||||||||||||||||||||||||||||||||||||||||||||||||||||||1022.3||1|FM15-METAR|223|ICAO-KCCB|||||||||||||||||||||||||||||||||||||||||||MET062METAR KCCB 231135Z AUTO 06003KT 10SM CLR 10/M14 A3019 RMK AO2=||F||223|ICAO-KCCB
USI0000KCCB|CABLE|2017|12|23|11|55|34.1115|-117.6876|438.6|10.0||1|FM15-METAR|223|ICAO-KCCB|-13.0||1|FM15-METAR|223|ICAO-KCCB|||||||||||||050|N-Normal|1|FM15-METAR|223|ICAO-KCCB|1.5|N-Normal|1|FM15-METAR|223|ICAO-KCCB|||||||||||||19|Derived||FM15-METAR|223|ICAO-KCCB|||||||||||||||||||||||||||||||||||||||||||||||||||||||||||||||||||||||||1022.3||1|FM15-METAR|223|ICAO-KCCB|||||||||||||||||||||||||||||||||||||||||||MET062METAR KCCB 231155Z AUTO 05003KT 10SM CLR 10/M13 A3019 RMK AO2=||F||223|ICAO-KCCB
USI0000KCCB|CABLE|2017|12|23|12|15|34.1115|-117.6876|438.6|10.0||1|FM15-METAR|223|ICAO-KCCB|-13.0||1|FM15-METAR|223|ICAO-KCCB|||||||||||||070|N-Normal|1|FM15-METAR|223|ICAO-KCCB|1.5|N-Normal|1|FM15-METAR|223|ICAO-KCCB|||||||||||||19|Derived||FM15-METAR|223|ICAO-KCCB|||||||||||||||||||||||||||||||||||||||||||||||||||||||||||||||||||||||||1022.3||1|FM15-METAR|223|ICAO-KCCB|||||||||||||||||||||||||||||||||||||||||||MET062METAR KCCB 231215Z AUTO 07003KT 10SM CLR 10/M13 A3019 RMK AO2=||F||223|ICAO-KCCB
USI0000KCCB|CABLE|2017|12|23|12|35|34.1115|-117.6876|438.6|10.0||1|FM15-METAR|223|ICAO-KCCB|-14.0||1|FM15-METAR|223|ICAO-KCCB|||||||||||||060|N-Normal|1|FM15-METAR|223|ICAO-KCCB|2.6|N-Normal|1|FM15-METAR|223|ICAO-KCCB|||||||||||||17|Derived||FM15-METAR|223|ICAO-KCCB|||||||||||||||||||||||||||||||||||||||||||||||||||||||||||||||||||||||||1022.0||1|FM15-METAR|223|ICAO-KCCB|||||||||||||||||||||||||||||||||||||||||||MET062METAR KCCB 231235Z AUTO 06005KT 10SM CLR 10/M14 A3018 RMK AO2=||F||223|ICAO-KCCB
USI0000KCCB|CABLE|2017|12|23|12|55|34.1115|-117.6876|438.6|10.0||1|FM15-METAR|223|ICAO-KCCB|-14.0||1|FM15-METAR|223|ICAO-KCCB|||||||||||||060|N-Normal|1|FM15-METAR|223|ICAO-KCCB|2.6|N-Normal|1|FM15-METAR|223|ICAO-KCCB|||||||||||||17|Derived||FM15-METAR|223|ICAO-KCCB|||||||||||||||||||||||||||||||||||||||||||||||||||||||||||||||||||||||||1022.0||1|FM15-METAR|223|ICAO-KCCB|||||||||||||||||||||||||||||||||||||||||||MET062METAR KCCB 231255Z AUTO 06005KT 10SM CLR 10/M14 A3018 RMK AO2=||F||223|ICAO-KCCB
USI0000KCCB|CABLE|2017|12|23|13|15|34.1115|-117.6876|438.6|11.0||1|FM15-METAR|223|ICAO-KCCB|-15.0||1|FM15-METAR|223|ICAO-KCCB|||||||||||||050|N-Normal|1|FM15-METAR|223|ICAO-KCCB|2.6|N-Normal|1|FM15-METAR|223|ICAO-KCCB|||||||||||||15|Derived||FM15-METAR|223|ICAO-KCCB|||||||||||||||||||||||||||||||||||||||||||||||||||||||||||||||||||||||||1022.0||1|FM15-METAR|223|ICAO-KCCB|||||||||||||||||||||||||||||||||||||||||||MET062METAR KCCB 231315Z AUTO 05005KT 10SM CLR 11/M15 A3018 RMK AO2=||F||223|ICAO-KCCB
USI0000KCCB|CABLE|2017|12|23|13|35|34.1115|-117.6876|438.6|10.0||1|FM15-METAR|223|ICAO-KCCB|-14.0||1|FM15-METAR|223|ICAO-KCCB|||||||||||||040|N-Normal|1|FM15-METAR|223|ICAO-KCCB|2.6|N-Normal|1|FM15-METAR|223|ICAO-KCCB|||||||||||||17|Derived||FM15-METAR|223|ICAO-KCCB|||||||||||||||||||||||||||||||||||||||||||||||||||||||||||||||||||||||||1022.3||1|FM15-METAR|223|ICAO-KCCB|||||||||||||||||||||||||||||||||||||||||||MET062METAR KCCB 231335Z AUTO 04005KT 10SM CLR 10/M14 A3019 RMK AO2=||F||223|ICAO-KCCB
USI0000KCCB|CABLE|2017|12|23|13|55|34.1115|-117.6876|438.6|10.0||1|FM15-METAR|223|ICAO-KCCB|-15.0||1|FM15-METAR|223|ICAO-KCCB|||||||||||||040|N-Normal|1|FM15-METAR|223|ICAO-KCCB|1.5|N-Normal|1|FM15-METAR|223|ICAO-KCCB|||||||||||||16|Derived||FM15-METAR|223|ICAO-KCCB|||||||||||||||||||||||||||||||||||||||||||||||||||||||||||||||||||||||||1022.3||1|FM15-METAR|223|ICAO-KCCB|||||||||||||||||||||||||||||||||||||||||||MET062METAR KCCB 231355Z AUTO 04003KT 10SM CLR 10/M15 A3019 RMK AO2=||F||223|ICAO-KCCB
USI0000KCCB|CABLE|2017|12|23|14|15|34.1115|-117.6876|438.6|10.0||1|FM15-METAR|223|ICAO-KCCB|-15.0||1|FM15-METAR|223|ICAO-KCCB|||||||||||||060|N-Normal|1|FM15-METAR|223|ICAO-KCCB|2.6|N-Normal|1|FM15-METAR|223|ICAO-KCCB|||||||||||||16|Derived||FM15-METAR|223|ICAO-KCCB|||||||||||||||||||||||||||||||||||||||||||||||||||||||||||||||||||||||||1022.3||1|FM15-METAR|223|ICAO-KCCB|||||||||||||||||||||||||||||||||||||||||||MET062METAR KCCB 231415Z AUTO 06005KT 10SM CLR 10/M15 A3019 RMK AO2=||F||223|ICAO-KCCB
USI0000KCCB|CABLE|2017|12|23|14|35|34.1115|-117.6876|438.6|10.0||1|FM15-METAR|223|ICAO-KCCB|-15.0||1|FM15-METAR|223|ICAO-KCCB|||||||||||||020|N-Normal|1|FM15-METAR|223|ICAO-KCCB|2.6|N-Normal|1|FM15-METAR|223|ICAO-KCCB|||||||||||||16|Derived||FM15-METAR|223|ICAO-KCCB|||||||||||||||||||||||||||||||||||||||||||||||||||||||||||||||||||||||||1022.3||1|FM15-METAR|223|ICAO-KCCB|||||||||||||||||||||||||||||||||||||||||||MET062METAR KCCB 231435Z AUTO 02005KT 10SM CLR 10/M15 A3019 RMK AO2=||F||223|ICAO-KCCB
USI0000KCCB|CABLE|2017|12|23|14|55|34.1115|-117.6876|438.6|11.0||1|FM15-METAR|223|ICAO-KCCB|-15.0||1|FM15-METAR|223|ICAO-KCCB|||||||||||||040|N-Normal|1|FM15-METAR|223|ICAO-KCCB|2.6|N-Normal|1|FM15-METAR|223|ICAO-KCCB|||||||||||||15|Derived||FM15-METAR|223|ICAO-KCCB|||||||||||||||||||||||||||||||||||||||||||||||||||||||||||||||||||||||||1022.0||1|FM15-METAR|223|ICAO-KCCB|||||||||||||||||||||||||||||||||||||||||||MET062METAR KCCB 231455Z AUTO 04005KT 10SM CLR 11/M15 A3018 RMK AO2=||F||223|ICAO-KCCB
USI0000KCCB|CABLE|2017|12|23|15|15|34.1115|-117.6876|438.6|11.0||1|FM15-METAR|223|ICAO-KCCB|-16.0||1|FM15-METAR|223|ICAO-KCCB|||||||||||||060|N-Normal|1|FM15-METAR|223|ICAO-KCCB|1.5|N-Normal|1|FM15-METAR|223|ICAO-KCCB|||||||||||||13|Derived||FM15-METAR|223|ICAO-KCCB|||||||||||||||||||||||||||||||||||||||||||||||||||||||||||||||||||||||||1022.0||1|FM15-METAR|223|ICAO-KCCB|||||||||||||||||||||||||||||||||||||||||||MET062METAR KCCB 231515Z AUTO 06003KT 10SM CLR 11/M16 A3018 RMK AO2=||F||223|ICAO-KCCB
USI0000KCCB|CABLE|2017|12|23|15|35|34.1115|-117.6876|438.6|11.0||1|FM15-METAR|223|ICAO-KCCB|-15.0||1|FM15-METAR|223|ICAO-KCCB|||||||||||||999|C-Calm|9|FM15-METAR|223|ICAO-KCCB|0.0|C-Calm|1|FM15-METAR|223|ICAO-KCCB|||||||||||||15|Derived||FM15-METAR|223|ICAO-KCCB|||||||||||||||||||||||||||||||||||||||||||||||||||||||||||||||||||||||||1022.0||1|FM15-METAR|223|ICAO-KCCB|||||||||||||||||||||||||||||||||||||||||||MET062METAR KCCB 231535Z AUTO 00000KT 10SM CLR 11/M15 A3018 RMK AO2=||F||223|ICAO-KCCB
USI0000KCCB|CABLE|2017|12|23|15|55|34.1115|-117.6876|438.6|11.0||1|FM15-METAR|223|ICAO-KCCB|-15.0||1|FM15-METAR|223|ICAO-KCCB|||||||||||||080|N-Normal|1|FM15-METAR|223|ICAO-KCCB|2.1|N-Normal|1|FM15-METAR|223|ICAO-KCCB|||||||||||||15|Derived||FM15-METAR|223|ICAO-KCCB|||||||||||||||||||||||||||||||||||||||||||||||||||||||||||||||||||||||||1022.0||1|FM15-METAR|223|ICAO-KCCB|||||||||||||||||||||||||||||||||||||||||||MET062METAR KCCB 231555Z AUTO 08004KT 10SM CLR 11/M15 A3018 RMK AO2=||F||223|ICAO-KCCB
USI0000KCCB|CABLE|2017|12|23|16|15|34.1115|-117.6876|438.6|11.0||1|FM15-METAR|223|ICAO-KCCB|-13.0||1|FM15-METAR|223|ICAO-KCCB|||||||||||||050|N-Normal|1|FM15-METAR|223|ICAO-KCCB|2.6|N-Normal|1|FM15-METAR|223|ICAO-KCCB|||||||||||||17|Derived||FM15-METAR|223|ICAO-KCCB|||||||||||||||||||||||||||||||||||||||||||||||||||||||||||||||||||||||||1022.3||1|FM15-METAR|223|ICAO-KCCB|||||||||||||||||||||||||||||||||||||||||||MET062METAR KCCB 231615Z AUTO 05005KT 10SM CLR 11/M13 A3019 RMK AO2=||F||223|ICAO-KCCB
USI0000KCCB|CABLE|2017|12|23|16|35|34.1115|-117.6876|438.6|12.0||1|FM15-METAR|223|ICAO-KCCB|-14.0||1|FM15-METAR|223|ICAO-KCCB|||||||||||||070|N-Normal|1|FM15-METAR|223|ICAO-KCCB|2.1|N-Normal|1|FM15-METAR|223|ICAO-KCCB|||||||||||||15|Derived||FM15-METAR|223|ICAO-KCCB|||||||||||||||||||||||||||||||||||||||||||||||||||||||||||||||||||||||||1022.7||1|FM15-METAR|223|ICAO-KCCB|||||||||||||||||||||||||||||||||||||||||||MET062METAR KCCB 231635Z AUTO 07004KT 10SM CLR 12/M14 A3020 RMK AO2=||F||223|ICAO-KCCB
USI0000KCCB|CABLE|2017|12|23|16|55|34.1115|-117.6876|438.6|13.0||1|FM15-METAR|223|ICAO-KCCB|-14.0||1|FM15-METAR|223|ICAO-KCCB|||||||||||||060|N-Normal|1|FM15-METAR|223|ICAO-KCCB|2.1|N-Normal|1|FM15-METAR|223|ICAO-KCCB|||||||||||||14|Derived||FM15-METAR|223|ICAO-KCCB|||||||||||||||||||||||||||||||||||||||||||||||||||||||||||||||||||||||||1022.7||1|FM15-METAR|223|ICAO-KCCB|||||||||||||||||||||||||||||||||||||||||||MET062METAR KCCB 231655Z AUTO 06004KT 10SM CLR 13/M14 A3020 RMK AO2=||F||223|ICAO-KCCB
USI0000KCCB|CABLE|2017|12|23|17|15|34.1115|-117.6876|438.6|14.0||1|FM15-METAR|223|ICAO-KCCB|-16.0||1|FM15-METAR|223|ICAO-KCCB|||||||||||||050|N-Normal|1|FM15-METAR|223|ICAO-KCCB|2.6|N-Normal|1|FM15-METAR|223|ICAO-KCCB|||||||||||||11|Derived||FM15-METAR|223|ICAO-KCCB|||||||||||||||||||||||||||||||||||||||||||||||||||||||||||||||||||||||||1023.0||1|FM15-METAR|223|ICAO-KCCB|||||||||||||||||||||||||||||||||||||||||||MET062METAR KCCB 231715Z AUTO 05005KT 10SM CLR 14/M16 A3021 RMK AO2=||F||223|ICAO-KCCB
USI0000KCCB|CABLE|2017|12|23|17|35|34.1115|-117.6876|438.6|16.0||1|FM15-METAR|223|ICAO-KCCB|-15.0||1|FM15-METAR|223|ICAO-KCCB|||||||||||||999|C-Calm|9|FM15-METAR|223|ICAO-KCCB|0.0|C-Calm|1|FM15-METAR|223|ICAO-KCCB|||||||||||||11|Derived||FM15-METAR|223|ICAO-KCCB|||||||||||||||||||||||||||||||||||||||||||||||||||||||||||||||||||||||||1022.7||1|FM15-METAR|223|ICAO-KCCB|||||||||||||||||||||||||||||||||||||||||||MET062METAR KCCB 231735Z AUTO 00000KT 10SM CLR 16/M15 A3020 RMK AO2=||F||223|ICAO-KCCB
USI0000KCCB|CABLE|2017|12|23|17|55|34.1115|-117.6876|438.6|16.0||1|FM15-METAR|223|ICAO-KCCB|-13.0||1|FM15-METAR|223|ICAO-KCCB|||||||||||||999|C-Calm|9|FM15-METAR|223|ICAO-KCCB|0.0|C-Calm|1|FM15-METAR|223|ICAO-KCCB|||||||||||||12|Derived||FM15-METAR|223|ICAO-KCCB|||||||||||||||||||||||||||||||||||||||||||||||||||||||||||||||||||||||||1023.0||1|FM15-METAR|223|ICAO-KCCB|||||||||||||||||||||||||||||||||||||||||||MET062METAR KCCB 231755Z AUTO 00000KT 10SM CLR 16/M13 A3021 RMK AO2=||F||223|ICAO-KCCB
USI0000KCCB|CABLE|2017|12|23|18|15|34.1115|-117.6876|438.6|15.0||1|FM15-METAR|223|ICAO-KCCB|-14.0||1|FM15-METAR|223|ICAO-KCCB|||||||||||||110|N-Normal|1|FM15-METAR|223|ICAO-KCCB|2.6|N-Normal|1|FM15-METAR|223|ICAO-KCCB|||||||||||||12|Derived||FM15-METAR|223|ICAO-KCCB|||||||||||||||||||||||||||||||||||||||||||||||||||||||||||||||||||||||||1022.7||1|FM15-METAR|223|ICAO-KCCB|||||||||||||||||||||||||||||||||||||||||||MET062METAR KCCB 231815Z AUTO 11005KT 10SM CLR 15/M14 A3020 RMK AO2=||F||223|ICAO-KCCB
USI0000KCCB|CABLE|2017|12|23|18|35|34.1115|-117.6876|438.6|16.0||1|FM15-METAR|223|ICAO-KCCB|-16.0||1|FM15-METAR|223|ICAO-KCCB|||||||||||||999|C-Calm|9|FM15-METAR|223|ICAO-KCCB|0.0|C-Calm|1|FM15-METAR|223|ICAO-KCCB|||||||||||||10|Derived||FM15-METAR|223|ICAO-KCCB|||||||||||||||||||||||||||||||||||||||||||||||||||||||||||||||||||||||||1022.7||1|FM15-METAR|223|ICAO-KCCB|||||||||||||||||||||||||||||||||||||||||||MET062METAR KCCB 231835Z AUTO 00000KT 10SM CLR 16/M16 A3020 RMK AO2=||F||223|ICAO-KCCB
USI0000KCCB|CABLE|2017|12|23|18|55|34.1115|-117.6876|438.6|16.0||1|FM15-METAR|223|ICAO-KCCB|-16.0||1|FM15-METAR|223|ICAO-KCCB|||||||||||||999|C-Calm|9|FM15-METAR|223|ICAO-KCCB|0.0|C-Calm|1|FM15-METAR|223|ICAO-KCCB|||||||||||||10|Derived||FM15-METAR|223|ICAO-KCCB|||||||||||||||||||||||||||||||||||||||||||||||||||||||||||||||||||||||||1022.7||1|FM15-METAR|223|ICAO-KCCB|||||||||||||||||||||||||||||||||||||||||||MET062METAR KCCB 231855Z AUTO 00000KT 10SM CLR 16/M16 A3020 RMK AO2=||F||223|ICAO-KCCB
USI0000KCCB|CABLE|2017|12|23|19|15|34.1115|-117.6876|438.6|16.0||1|FM15-METAR|223|ICAO-KCCB|-15.0||1|FM15-METAR|223|ICAO-KCCB|||||||||||||999|C-Calm|9|FM15-METAR|223|ICAO-KCCB|0.0|C-Calm|1|FM15-METAR|223|ICAO-KCCB|||||||||||||11|Derived||FM15-METAR|223|ICAO-KCCB|||||||||||||||||||||||||||||||||||||||||||||||||||||||||||||||||||||||||1022.3||1|FM15-METAR|223|ICAO-KCCB|||||||||||||||||||||||||||||||||||||||||||MET062METAR KCCB 231915Z AUTO 00000KT 10SM CLR 16/M15 A3019 RMK AO2=||F||223|ICAO-KCCB
USI0000KCCB|CABLE|2017|12|23|19|35|34.1115|-117.6876|438.6|17.0||1|FM15-METAR|223|ICAO-KCCB|-16.0||1|FM15-METAR|223|ICAO-KCCB|||||||||||||999|C-Calm|9|FM15-METAR|223|ICAO-KCCB|0.0|C-Calm|1|FM15-METAR|223|ICAO-KCCB|||||||||||||9|Derived||FM15-METAR|223|ICAO-KCCB|||||||||||||||||||||||||||||||||||||||||||||||||||||||||||||||||||||||||1022.0||1|FM15-METAR|223|ICAO-KCCB|||||||||||||||||||||||||||||||||||||||||||MET062METAR KCCB 231935Z AUTO 00000KT 10SM CLR 17/M16 A3018 RMK AO2=||F||223|ICAO-KCCB
USI0000KCCB|CABLE|2017|12|23|19|55|34.1115|-117.6876|438.6|18.0||1|FM15-METAR|223|ICAO-KCCB|-17.0||1|FM15-METAR|223|ICAO-KCCB|||||||||||||999|C-Calm|9|FM15-METAR|223|ICAO-KCCB|0.0|C-Calm|1|FM15-METAR|223|ICAO-KCCB|||||||||||||8|Derived||FM15-METAR|223|ICAO-KCCB|||||||||||||||||||||||||||||||||||||||||||||||||||||||||||||||||||||||||1021.7||1|FM15-METAR|223|ICAO-KCCB|||||||||||||||||||||||||||||||||||||||||||MET062METAR KCCB 231955Z AUTO 00000KT 10SM CLR 18/M17 A3017 RMK AO2=||F||223|ICAO-KCCB
USI0000KCCB|CABLE|2017|12|23|20|15|34.1115|-117.6876|438.6|18.0||1|FM15-METAR|223|ICAO-KCCB|-18.0||1|FM15-METAR|223|ICAO-KCCB|||||||||||||220|N-Normal|1|FM15-METAR|223|ICAO-KCCB|2.1|N-Normal|1|FM15-METAR|223|ICAO-KCCB|||||||||||||7|Derived||FM15-METAR|223|ICAO-KCCB|||||||||||||||||||||||||||||||||||||||||||||||||||||||||||||||||||||||||1021.7||1|FM15-METAR|223|ICAO-KCCB|||||||||||||||||||||||||||||||||||||||||||MET062METAR KCCB 232015Z AUTO 22004KT 10SM CLR 18/M18 A3017 RMK AO2=||F||223|ICAO-KCCB
USI0000KCCB|CABLE|2017|12|23|20|35|34.1115|-117.6876|438.6|18.0||1|FM15-METAR|223|ICAO-KCCB|-15.0||1|FM15-METAR|223|ICAO-KCCB|||||||||||||999|C-Calm|9|FM15-METAR|223|ICAO-KCCB|0.0|C-Calm|1|FM15-METAR|223|ICAO-KCCB|||||||||||||9|Derived||FM15-METAR|223|ICAO-KCCB|||||||||||||||||||||||||||||||||||||||||||||||||||||||||||||||||||||||||1021.3||1|FM15-METAR|223|ICAO-KCCB|||||||||||||||||||||||||||||||||||||||||||MET062METAR KCCB 232035Z AUTO 00000KT 10SM CLR 18/M15 A3016 RMK AO2=||F||223|ICAO-KCCB
USI0000KCCB|CABLE|2017|12|23|20|55|34.1115|-117.6876|438.6|18.0||1|FM15-METAR|223|ICAO-KCCB|-15.0||1|FM15-METAR|223|ICAO-KCCB|||||||||||||220|N-Normal|1|FM15-METAR|223|ICAO-KCCB|2.1|N-Normal|1|FM15-METAR|223|ICAO-KCCB|||||||||||||9|Derived||FM15-METAR|223|ICAO-KCCB|||||||||||||||||||||||||||||||||||||||||||||||||||||||||||||||||||||||||1021.0||1|FM15-METAR|223|ICAO-KCCB|||||||||||||||||||||||||||||||||||||||||||MET062METAR KCCB 232055Z AUTO 22004KT 10SM CLR 18/M15 A3015 RMK AO2=||F||223|ICAO-KCCB
USI0000KCCB|CABLE|2017|12|23|21|15|34.1115|-117.6876|438.6|18.0||1|FM15-METAR|223|ICAO-KCCB|-15.0||1|FM15-METAR|223|ICAO-KCCB|||||||||||||240|N-Normal|1|FM15-METAR|223|ICAO-KCCB|2.1|N-Normal|1|FM15-METAR|223|ICAO-KCCB|||||||||||||9|Derived||FM15-METAR|223|ICAO-KCCB|||||||||||||||||||||||||||||||||||||||||||||||||||||||||||||||||||||||||1021.0||1|FM15-METAR|223|ICAO-KCCB|||||||||||||||||||||||||||||||||||||||||||MET062METAR KCCB 232115Z AUTO 24004KT 10SM CLR 18/M15 A3015 RMK AO2=||F||223|ICAO-KCCB
USI0000KCCB|CABLE|2017|12|23|21|35|34.1115|-117.6876|438.6|18.0||1|FM15-METAR|223|ICAO-KCCB|-16.0||1|FM15-METAR|223|ICAO-KCCB|||||||||||||240|N-Normal|1|FM15-METAR|223|ICAO-KCCB|2.1|N-Normal|1|FM15-METAR|223|ICAO-KCCB|||||||||||||8|Derived||FM15-METAR|223|ICAO-KCCB|||||||||||||||||||||||||||||||||||||||||||||||||||||||||||||||||||||||||1020.7||1|FM15-METAR|223|ICAO-KCCB|||||||||||||||||||||||||||||||||||||||||||MET062METAR KCCB 232135Z AUTO 24004KT 10SM CLR 18/M16 A3014 RMK AO2=||F||223|ICAO-KCCB
USI0000KCCB|CABLE|2017|12|23|21|55|34.1115|-117.6876|438.6|18.0||1|FM15-METAR|223|ICAO-KCCB|-16.0||1|FM15-METAR|223|ICAO-KCCB|||||||||||||250|N-Normal|1|FM15-METAR|223|ICAO-KCCB|2.6|N-Normal|1|FM15-METAR|223|ICAO-KCCB|||||||||||||8|Derived||FM15-METAR|223|ICAO-KCCB|||||||||||||||||||||||||||||||||||||||||||||||||||||||||||||||||||||||||1020.7||1|FM15-METAR|223|ICAO-KCCB|||||||||||||||||||||||||||||||||||||||||||MET062METAR KCCB 232155Z AUTO 25005KT 10SM CLR 18/M16 A3014 RMK AO2=||F||223|ICAO-KCCB
USI0000KCCB|CABLE|2017|12|23|22|15|34.1115|-117.6876|438.6|18.0||1|FM15-METAR|223|ICAO-KCCB|-18.0||1|FM15-METAR|223|ICAO-KCCB|||||||||||||270|N-Normal|1|FM15-METAR|223|ICAO-KCCB|3.1|N-Normal|1|FM15-METAR|223|ICAO-KCCB|||||||||||||7|Derived||FM15-METAR|223|ICAO-KCCB|||||||||||||||||||||||||||||||||||||||||||||||||||||||||||||||||||||||||1020.7||1|FM15-METAR|223|ICAO-KCCB|||||||||||||||||||||||||||||||||||||||||||MET062METAR KCCB 232215Z AUTO 27006KT 10SM CLR 18/M18 A3014 RMK AO2=||F||223|ICAO-KCCB
USI0000KCCB|CABLE|2017|12|23|22|35|34.1115|-117.6876|438.6|18.0||1|FM15-METAR|223|ICAO-KCCB|-16.0||1|FM15-METAR|223|ICAO-KCCB|||||||||||||280|N-Normal|1|FM15-METAR|223|ICAO-KCCB|2.6|N-Normal|1|FM15-METAR|223|ICAO-KCCB|||||||||||||8|Derived||FM15-METAR|223|ICAO-KCCB|||||||||||||||||||||||||||||||||||||||||||||||||||||||||||||||||||||||||1020.7||1|FM15-METAR|223|ICAO-KCCB|||||||||||||||||||||||||||||||||||||||||||MET062METAR KCCB 232235Z AUTO 28005KT 10SM CLR 18/M16 A3014 RMK AO2=||F||223|ICAO-KCCB
USI0000KCCB|CABLE|2017|12|23|22|55|34.1115|-117.6876|438.6|18.0||1|FM15-METAR|223|ICAO-KCCB|-17.0||1|FM15-METAR|223|ICAO-KCCB|||||||||||||250|N-Normal|1|FM15-METAR|223|ICAO-KCCB|2.6|N-Normal|1|FM15-METAR|223|ICAO-KCCB|||||||||||||8|Derived||FM15-METAR|223|ICAO-KCCB|||||||||||||||||||||||||||||||||||||||||||||||||||||||||||||||||||||||||1020.3||1|FM15-METAR|223|ICAO-KCCB|||||||||||||||||||||||||||||||||||||||||||MET062METAR KCCB 232255Z AUTO 25005KT 10SM CLR 18/M17 A3013 RMK AO2=||F||223|ICAO-KCCB
USI0000KCCB|CABLE|2017|12|23|23|15|34.1115|-117.6876|438.6|18.0||1|FM15-METAR|223|ICAO-KCCB|-18.0||1|FM15-METAR|223|ICAO-KCCB|||||||||||||250|N-Normal|1|FM15-METAR|223|ICAO-KCCB|1.5|N-Normal|1|FM15-METAR|223|ICAO-KCCB|||||||||||||7|Derived||FM15-METAR|223|ICAO-KCCB|||||||||||||||||||||||||||||||||||||||||||||||||||||||||||||||||||||||||1020.7||1|FM15-METAR|223|ICAO-KCCB|||||||||||||||||||||||||||||||||||||||||||MET062METAR KCCB 232315Z AUTO 25003KT 10SM CLR 18/M18 A3014 RMK AO2=||F||223|ICAO-KCCB
USI0000KCCB|CABLE|2017|12|23|23|35|34.1115|-117.6876|438.6|18.0||1|FM15-METAR|223|ICAO-KCCB|-17.0||1|FM15-METAR|223|ICAO-KCCB|||||||||||||999|C-Calm|9|FM15-METAR|223|ICAO-KCCB|0.0|C-Calm|1|FM15-METAR|223|ICAO-KCCB|||||||||||||8|Derived||FM15-METAR|223|ICAO-KCCB|||||||||||||||||||||||||||||||||||||||||||||||||||||||||||||||||||||||||1020.7||1|FM15-METAR|223|ICAO-KCCB|||||||||||||||||||||||||||||||||||||||||||MET062METAR KCCB 232335Z AUTO 00000KT 10SM CLR 18/M17 A3014 RMK AO2=||F||223|ICAO-KCCB
USI0000KCCB|CABLE|2017|12|23|23|55|34.1115|-117.6876|438.6|18.0||1|FM15-METAR|223|ICAO-KCCB|-14.0||1|FM15-METAR|223|ICAO-KCCB|||||||||||||250|N-Normal|1|FM15-METAR|223|ICAO-KCCB|2.1|N-Normal|1|FM15-METAR|223|ICAO-KCCB|||||||||||||10|Derived||FM15-METAR|223|ICAO-KCCB|||||||||||||||||||||||||||||||||||||||||||||||||||||||||||||||||||||||||1020.7||1|FM15-METAR|223|ICAO-KCCB|||||||||||||||||||||||||||||||||||||||||||MET062METAR KCCB 232355Z AUTO 25004KT 10SM CLR 18/M14 A3014 RMK AO2=||F||223|ICAO-KCCB
USI0000KCCB|CABLE|2017|12|24|00|15|34.1115|-117.6876|438.6|18.0||1|FM15-METAR|223|ICAO-KCCB|-12.0||1|FM15-METAR|223|ICAO-KCCB|||||||||||||270|N-Normal|1|FM15-METAR|223|ICAO-KCCB|2.1|N-Normal|1|FM15-METAR|223|ICAO-KCCB|||||||||||||12|Derived||FM15-METAR|223|ICAO-KCCB|||||||||||||||||||||||||||||||||||||||||||||||||||||||||||||||||||||||||1020.7||1|FM15-METAR|223|ICAO-KCCB|||||||||||||||||||||||||||||||||||||||||||MET062METAR KCCB 240015Z AUTO 27004KT 10SM CLR 18/M12 A3014 RMK AO2=||F||223|ICAO-KCCB
USI0000KCCB|CABLE|2017|12|24|00|35|34.1115|-117.6876|438.6|17.0||1|FM15-METAR|223|ICAO-KCCB|-11.0||1|FM15-METAR|223|ICAO-KCCB|||||||||||||260|N-Normal|1|FM15-METAR|223|ICAO-KCCB|2.1|N-Normal|1|FM15-METAR|223|ICAO-KCCB|||||||||||||14|Derived||FM15-METAR|223|ICAO-KCCB|||||||||||||||||||||||||||||||||||||||||||||||||||||||||||||||||||||||||1020.3||1|FM15-METAR|223|ICAO-KCCB|||||||||||||||||||||||||||||||||||||||||||MET062METAR KCCB 240035Z AUTO 26004KT 10SM CLR 17/M11 A3013 RMK AO2=||F||223|ICAO-KCCB
USI0000KCCB|CABLE|2017|12|24|00|55|34.1115|-117.6876|438.6|16.0||1|FM15-METAR|223|ICAO-KCCB|-11.0||1|FM15-METAR|223|ICAO-KCCB|||||||||||||280|N-Normal|1|FM15-METAR|223|ICAO-KCCB|2.6|N-Normal|1|FM15-METAR|223|ICAO-KCCB|||||||||||||15|Derived||FM15-METAR|223|ICAO-KCCB|||||||||||||||||||||||||||||||||||||||||||||||||||||||||||||||||||||||||1020.7||1|FM15-METAR|223|ICAO-KCCB|||||||||||||||||||||||||||||||||||||||||||MET062METAR KCCB 240055Z AUTO 28005KT 10SM CLR 16/M11 A3014 RMK AO2=||F||223|ICAO-KCCB
USI0000KCCB|CABLE|2017|12|24|01|15|34.1115|-117.6876|438.6|16.0||1|FM15-METAR|223|ICAO-KCCB|-11.0||1|FM15-METAR|223|ICAO-KCCB|||||||||||||999|C-Calm|9|FM15-METAR|223|ICAO-KCCB|0.0|C-Calm|1|FM15-METAR|223|ICAO-KCCB|||||||||||||15|Derived||FM15-METAR|223|ICAO-KCCB|||||||||||||||||||||||||||||||||||||||||||||||||||||||||||||||||||||||||1020.3||1|FM15-METAR|223|ICAO-KCCB|||||||||||||||||||||||||||||||||||||||||||MET062METAR KCCB 240115Z AUTO 00000KT 10SM CLR 16/M11 A3013 RMK AO2=||F||223|ICAO-KCCB
USI0000KCCB|CABLE|2017|12|24|01|35|34.1115|-117.6876|438.6|15.0||1|FM15-METAR|223|ICAO-KCCB|-11.0||1|FM15-METAR|223|ICAO-KCCB|||||||||||||999|C-Calm|9|FM15-METAR|223|ICAO-KCCB|0.0|C-Calm|1|FM15-METAR|223|ICAO-KCCB|||||||||||||16|Derived||FM15-METAR|223|ICAO-KCCB|||||||||||||||||||||||||||||||||||||||||||||||||||||||||||||||||||||||||1020.3||1|FM15-METAR|223|ICAO-KCCB|||||||||||||||||||||||||||||||||||||||||||MET062METAR KCCB 240135Z AUTO 00000KT 10SM CLR 15/M11 A3013 RMK AO2=||F||223|ICAO-KCCB
USI0000KCCB|CABLE|2017|12|24|01|55|34.1115|-117.6876|438.6|15.0||1|FM15-METAR|223|ICAO-KCCB|-9.0||1|FM15-METAR|223|ICAO-KCCB|||||||||||||350|N-Normal|1|FM15-METAR|223|ICAO-KCCB|1.5|N-Normal|1|FM15-METAR|223|ICAO-KCCB|||||||||||||18|Derived||FM15-METAR|223|ICAO-KCCB|||||||||||||||||||||||||||||||||||||||||||||||||||||||||||||||||||||||||1020.3||1|FM15-METAR|223|ICAO-KCCB|||||||||||||||||||||||||||||||||||||||||||MET062METAR KCCB 240155Z AUTO 35003KT 10SM CLR 15/M09 A3013 RMK AO2=||F||223|ICAO-KCCB
USI0000KCCB|CABLE|2017|12|24|02|15|34.1115|-117.6876|438.6|14.0||1|FM15-METAR|223|ICAO-KCCB|-11.0||1|FM15-METAR|223|ICAO-KCCB|||||||||||||040|N-Normal|1|FM15-METAR|223|ICAO-KCCB|1.5|N-Normal|1|FM15-METAR|223|ICAO-KCCB|||||||||||||17|Derived||FM15-METAR|223|ICAO-KCCB|||||||||||||||||||||||||||||||||||||||||||||||||||||||||||||||||||||||||1020.3||1|FM15-METAR|223|ICAO-KCCB|||||||||||||||||||||||||||||||||||||||||||MET062METAR KCCB 240215Z AUTO 04003KT 10SM CLR 14/M11 A3013 RMK AO2=||F||223|ICAO-KCCB
USI0000KCCB|CABLE|2017|12|24|02|35|34.1115|-117.6876|438.6|14.0||1|FM15-METAR|223|ICAO-KCCB|-11.0||1|FM15-METAR|223|ICAO-KCCB|||||||||||||010|N-Normal|1|FM15-METAR|223|ICAO-KCCB|2.1|N-Normal|1|FM15-METAR|223|ICAO-KCCB|||||||||||||17|Derived||FM15-METAR|223|ICAO-KCCB|||||||||||||||||||||||||||||||||||||||||||||||||||||||||||||||||||||||||1020.3||1|FM15-METAR|223|ICAO-KCCB|||||||||||||||||||||||||||||||||||||||||||MET062METAR KCCB 240235Z AUTO 01004KT 10SM CLR 14/M11 A3013 RMK AO2=||F||223|ICAO-KCCB
USI0000KCCB|CABLE|2017|12|24|02|55|34.1115|-117.6876|438.6|14.0||1|FM15-METAR|223|ICAO-KCCB|-12.0||1|FM15-METAR|223|ICAO-KCCB|||||||||||||999|C-Calm|9|FM15-METAR|223|ICAO-KCCB|0.0|C-Calm|1|FM15-METAR|223|ICAO-KCCB|||||||||||||15|Derived||FM15-METAR|223|ICAO-KCCB|||||||||||||||||||||||||||||||||||||||||||||||||||||||||||||||||||||||||1020.7||1|FM15-METAR|223|ICAO-KCCB|||||||||||||||||||||||||||||||||||||||||||MET062METAR KCCB 240255Z AUTO 00000KT 10SM CLR 14/M12 A3014 RMK AO2=||F||223|ICAO-KCCB
USI0000KCCB|CABLE|2017|12|24|03|15|34.1115|-117.6876|438.6|14.0||1|FM15-METAR|223|ICAO-KCCB|-12.0||1|FM15-METAR|223|ICAO-KCCB|||||||||||||999|C-Calm|9|FM15-METAR|223|ICAO-KCCB|0.0|C-Calm|1|FM15-METAR|223|ICAO-KCCB|||||||||||||15|Derived||FM15-METAR|223|ICAO-KCCB|||||||||||||||||||||||||||||||||||||||||||||||||||||||||||||||||||||||||1020.7||1|FM15-METAR|223|ICAO-KCCB|||||||||||||||||||||||||||||||||||||||||||MET062METAR KCCB 240315Z AUTO 00000KT 10SM CLR 14/M12 A3014 RMK AO2=||F||223|ICAO-KCCB
USI0000KCCB|CABLE|2017|12|24|03|35|34.1115|-117.6876|438.6|14.0||1|FM15-METAR|223|ICAO-KCCB|-12.0||1|FM15-METAR|223|ICAO-KCCB|||||||||||||999|C-Calm|9|FM15-METAR|223|ICAO-KCCB|0.0|C-Calm|1|FM15-METAR|223|ICAO-KCCB|||||||||||||15|Derived||FM15-METAR|223|ICAO-KCCB|||||||||||||||||||||||||||||||||||||||||||||||||||||||||||||||||||||||||1020.7||1|FM15-METAR|223|ICAO-KCCB|||||||||||||||||||||||||||||||||||||||||||MET062METAR KCCB 240335Z AUTO 00000KT 10SM CLR 14/M12 A3014 RMK AO2=||F||223|ICAO-KCCB
USI0000KCCB|CABLE|2017|12|24|03|55|34.1115|-117.6876|438.6|14.0||1|FM15-METAR|223|ICAO-KCCB|-13.0||1|FM15-METAR|223|ICAO-KCCB|||||||||||||999|C-Calm|9|FM15-METAR|223|ICAO-KCCB|0.0|C-Calm|1|FM15-METAR|223|ICAO-KCCB|||||||||||||14|Derived||FM15-METAR|223|ICAO-KCCB|||||||||||||||||||||||||||||||||||||||||||||||||||||||||||||||||||||||||1021.0||1|FM15-METAR|223|ICAO-KCCB|||||||||||||||||||||||||||||||||||||||||||MET062METAR KCCB 240355Z AUTO 00000KT 10SM CLR 14/M13 A3015 RMK AO2=||F||223|ICAO-KCCB
USI0000KCCB|CABLE|2017|12|24|04|15|34.1115|-117.6876|438.6|14.0||1|FM15-METAR|223|ICAO-KCCB|-12.0||1|FM15-METAR|223|ICAO-KCCB|||||||||||||040|N-Normal|1|FM15-METAR|223|ICAO-KCCB|2.1|N-Normal|1|FM15-METAR|223|ICAO-KCCB|||||||||||||15|Derived||FM15-METAR|223|ICAO-KCCB|||||||||||||||||||||||||||||||||||||||||||||||||||||||||||||||||||||||||1021.0||1|FM15-METAR|223|ICAO-KCCB|||||||||||||||||||||||||||||||||||||||||||MET062METAR KCCB 240415Z AUTO 04004KT 10SM CLR 14/M12 A3015 RMK AO2=||F||223|ICAO-KCCB
USI0000KCCB|CABLE|2017|12|24|04|35|34.1115|-117.6876|438.6|14.0||1|FM15-METAR|223|ICAO-KCCB|-12.0||1|FM15-METAR|223|ICAO-KCCB|||||||||||||050|N-Normal|1|FM15-METAR|223|ICAO-KCCB|2.1|N-Normal|1|FM15-METAR|223|ICAO-KCCB|||||||||||||15|Derived||FM15-METAR|223|ICAO-KCCB|||||||||||||||||||||||||||||||||||||||||||||||||||||||||||||||||||||||||1021.3||1|FM15-METAR|223|ICAO-KCCB|||||||||||||||||||||||||||||||||||||||||||MET062METAR KCCB 240435Z AUTO 05004KT 10SM CLR 14/M12 A3016 RMK AO2=||F||223|ICAO-KCCB
USI0000KCCB|CABLE|2017|12|24|04|55|34.1115|-117.6876|438.6|14.0||1|FM15-METAR|223|ICAO-KCCB|-13.0||1|FM15-METAR|223|ICAO-KCCB|||||||||||||030|N-Normal|1|FM15-METAR|223|ICAO-KCCB|2.6|N-Normal|1|FM15-METAR|223|ICAO-KCCB|||||||||||||14|Derived||FM15-METAR|223|ICAO-KCCB|||||||||||||||||||||||||||||||||||||||||||||||||||||||||||||||||||||||||1021.3||1|FM15-METAR|223|ICAO-KCCB|||||||||||||||||||||||||||||||||||||||||||MET062METAR KCCB 240455Z AUTO 03005KT 10SM CLR 14/M13 A3016 RMK AO2=||F||223|ICAO-KCCB
USI0000KCCB|CABLE|2017|12|24|05|15|34.1115|-117.6876|438.6|14.0||1|FM15-METAR|223|ICAO-KCCB|-13.0||1|FM15-METAR|223|ICAO-KCCB|||||||||||||040|N-Normal|1|FM15-METAR|223|ICAO-KCCB|2.1|N-Normal|1|FM15-METAR|223|ICAO-KCCB|||||||||||||14|Derived||FM15-METAR|223|ICAO-KCCB|||||||||||||||||||||||||||||||||||||||||||||||||||||||||||||||||||||||||1021.3||1|FM15-METAR|223|ICAO-KCCB|||||||||||||||||||||||||||||||||||||||||||MET062METAR KCCB 240515Z AUTO 04004KT 10SM CLR 14/M13 A3016 RMK AO2=||F||223|ICAO-KCCB
USI0000KCCB|CABLE|2017|12|24|05|35|34.1115|-117.6876|438.6|14.0||1|FM15-METAR|223|ICAO-KCCB|-13.0||1|FM15-METAR|223|ICAO-KCCB|||||||||||||020|N-Normal|1|FM15-METAR|223|ICAO-KCCB|1.5|N-Normal|1|FM15-METAR|223|ICAO-KCCB|||||||||||||14|Derived||FM15-METAR|223|ICAO-KCCB|||||||||||||||||||||||||||||||||||||||||||||||||||||||||||||||||||||||||1021.3||1|FM15-METAR|223|ICAO-KCCB|||||||||||||||||||||||||||||||||||||||||||MET062METAR KCCB 240535Z AUTO 02003KT 10SM CLR 14/M13 A3016 RMK AO2=||F||223|ICAO-KCCB
USI0000KCCB|CABLE|2017|12|24|05|55|34.1115|-117.6876|438.6|14.0||1|FM15-METAR|223|ICAO-KCCB|-14.0||1|FM15-METAR|223|ICAO-KCCB|||||||||||||999|C-Calm|9|FM15-METAR|223|ICAO-KCCB|0.0|C-Calm|1|FM15-METAR|223|ICAO-KCCB|||||||||||||13|Derived||FM15-METAR|223|ICAO-KCCB|||||||||||||||||||||||||||||||||||||||||||||||||||||||||||||||||||||||||1021.3||1|FM15-METAR|223|ICAO-KCCB|||||||||||||||||||||||||||||||||||||||||||MET062METAR KCCB 240555Z AUTO 00000KT 10SM CLR 14/M14 A3016 RMK AO2=||F||223|ICAO-KCCB
USI0000KCCB|CABLE|2017|12|24|06|15|34.1115|-117.6876|438.6|12.0||1|FM15-METAR|223|ICAO-KCCB|-13.0||1|FM15-METAR|223|ICAO-KCCB|||||||||||||999|C-Calm|9|FM15-METAR|223|ICAO-KCCB|0.0|C-Calm|1|FM15-METAR|223|ICAO-KCCB|||||||||||||16|Derived||FM15-METAR|223|ICAO-KCCB|||||||||||||||||||||||||||||||||||||||||||||||||||||||||||||||||||||||||1021.7||1|FM15-METAR|223|ICAO-KCCB|||||||||||||||||||||||||||||||||||||||||||MET062METAR KCCB 240615Z AUTO 00000KT 10SM CLR 12/M13 A3017 RMK AO2=||F||223|ICAO-KCCB
USI0000KCCB|CABLE|2017|12|24|06|35|34.1115|-117.6876|438.6|13.0||1|FM15-METAR|223|ICAO-KCCB|-13.0||1|FM15-METAR|223|ICAO-KCCB|||||||||||||060|N-Normal|1|FM15-METAR|223|ICAO-KCCB|1.5|N-Normal|1|FM15-METAR|223|ICAO-KCCB|||||||||||||15|Derived||FM15-METAR|223|ICAO-KCCB|||||||||||||||||||||||||||||||||||||||||||||||||||||||||||||||||||||||||1021.7||1|FM15-METAR|223|ICAO-KCCB|||||||||||||||||||||||||||||||||||||||||||MET062METAR KCCB 240635Z AUTO 06003KT 10SM CLR 13/M13 A3017 RMK AO2=||F||223|ICAO-KCCB
USI0000KCCB|CABLE|2017|12|24|06|55|34.1115|-117.6876|438.6|13.0||1|FM15-METAR|223|ICAO-KCCB|-13.0||1|FM15-METAR|223|ICAO-KCCB|||||||||||||070|N-Normal|1|FM15-METAR|223|ICAO-KCCB|2.6|N-Normal|1|FM15-METAR|223|ICAO-KCCB|||||||||||||15|Derived||FM15-METAR|223|ICAO-KCCB|||||||||||||||||||||||||||||||||||||||||||||||||||||||||||||||||||||||||1021.7||1|FM15-METAR|223|ICAO-KCCB|||||||||||||||||||||||||||||||||||||||||||MET062METAR KCCB 240655Z AUTO 07005KT 10SM CLR 13/M13 A3017 RMK AO2=||F||223|ICAO-KCCB
USI0000KCCB|CABLE|2017|12|24|07|15|34.1115|-117.6876|438.6|12.0||1|FM15-METAR|223|ICAO-KCCB|-12.0||1|FM15-METAR|223|ICAO-KCCB|||||||||||||060|N-Normal|1|FM15-METAR|223|ICAO-KCCB|1.5|N-Normal|1|FM15-METAR|223|ICAO-KCCB|||||||||||||18|Derived||FM15-METAR|223|ICAO-KCCB|||||||||||||||||||||||||||||||||||||||||||||||||||||||||||||||||||||||||1021.3||1|FM15-METAR|223|ICAO-KCCB|||||||||||||||||||||||||||||||||||||||||||MET062METAR KCCB 240715Z AUTO 06003KT 10SM CLR 12/M12 A3016 RMK AO2=||F||223|ICAO-KCCB
USI0000KCCB|CABLE|2017|12|24|07|35|34.1115|-117.6876|438.6|13.0||1|FM15-METAR|223|ICAO-KCCB|-12.0||1|FM15-METAR|223|ICAO-KCCB|||||||||||||050|N-Normal|1|FM15-METAR|223|ICAO-KCCB|2.1|N-Normal|1|FM15-METAR|223|ICAO-KCCB|||||||||||||16|Derived||FM15-METAR|223|ICAO-KCCB|||||||||||||||||||||||||||||||||||||||||||||||||||||||||||||||||||||||||1021.3||1|FM15-METAR|223|ICAO-KCCB|||||||||||||||||||||||||||||||||||||||||||MET062METAR KCCB 240735Z AUTO 05004KT 10SM CLR 13/M12 A3016 RMK AO2=||F||223|ICAO-KCCB
USI0000KCCB|CABLE|2017|12|24|07|55|34.1115|-117.6876|438.6|13.0||1|FM15-METAR|223|ICAO-KCCB|-13.0||1|FM15-METAR|223|ICAO-KCCB|||||||||||||050|N-Normal|1|FM15-METAR|223|ICAO-KCCB|1.5|N-Normal|1|FM15-METAR|223|ICAO-KCCB|||||||||||||15|Derived||FM15-METAR|223|ICAO-KCCB|||||||||||||||||||||||||||||||||||||||||||||||||||||||||||||||||||||||||1021.0||1|FM15-METAR|223|ICAO-KCCB|||||||||||||||||||||||||||||||||||||||||||MET062METAR KCCB 240755Z AUTO 05003KT 10SM CLR 13/M13 A3015 RMK AO2=||F||223|ICAO-KCCB
USI0000KCCB|CABLE|2017|12|24|08|15|34.1115|-117.6876|438.6|12.0||1|FM15-METAR|223|ICAO-KCCB|-13.0||1|FM15-METAR|223|ICAO-KCCB|||||||||||||040|N-Normal|1|FM15-METAR|223|ICAO-KCCB|2.1|N-Normal|1|FM15-METAR|223|ICAO-KCCB|||||||||||||16|Derived||FM15-METAR|223|ICAO-KCCB|||||||||||||||||||||||||||||||||||||||||||||||||||||||||||||||||||||||||1021.3||1|FM15-METAR|223|ICAO-KCCB|||||||||||||||||||||||||||||||||||||||||||MET062METAR KCCB 240815Z AUTO 04004KT 10SM CLR 12/M13 A3016 RMK AO2=||F||223|ICAO-KCCB
USI0000KCCB|CABLE|2017|12|24|08|35|34.1115|-117.6876|438.6|14.0||1|FM15-METAR|223|ICAO-KCCB|-14.0||1|FM15-METAR|223|ICAO-KCCB|||||||||||||050|N-Normal|1|FM15-METAR|223|ICAO-KCCB|3.1|N-Normal|1|FM15-METAR|223|ICAO-KCCB|||||||||||||13|Derived||FM15-METAR|223|ICAO-KCCB|||||||||||||||||||||||||||||||||||||||||||||||||||||||||||||||||||||||||1021.0||1|FM15-METAR|223|ICAO-KCCB|||||||||||||||||||||||||||||||||||||||||||MET062METAR KCCB 240835Z AUTO 05006KT 10SM CLR 14/M14 A3015 RMK AO2=||F||223|ICAO-KCCB
USI0000KCCB|CABLE|2017|12|24|08|55|34.1115|-117.6876|438.6|14.0||1|FM15-METAR|223|ICAO-KCCB|-14.0||1|FM15-METAR|223|ICAO-KCCB|||||||||||||060|N-Normal|1|FM15-METAR|223|ICAO-KCCB|2.6|N-Normal|1|FM15-METAR|223|ICAO-KCCB|||||||||||||13|Derived||FM15-METAR|223|ICAO-KCCB|||||||||||||||||||||||||||||||||||||||||||||||||||||||||||||||||||||||||1020.7||1|FM15-METAR|223|ICAO-KCCB|||||||||||||||||||||||||||||||||||||||||||MET062METAR KCCB 240855Z AUTO 06005KT 10SM CLR 14/M14 A3014 RMK AO2=||F||223|ICAO-KCCB
USI0000KCCB|CABLE|2017|12|24|09|15|34.1115|-117.6876|438.6|14.0||1|FM15-METAR|223|ICAO-KCCB|-14.0||1|FM15-METAR|223|ICAO-KCCB|||||||||||||999|C-Calm|9|FM15-METAR|223|ICAO-KCCB|0.0|C-Calm|1|FM15-METAR|223|ICAO-KCCB|||||||||||||13|Derived||FM15-METAR|223|ICAO-KCCB|||||||||||||||||||||||||||||||||||||||||||||||||||||||||||||||||||||||||1021.0||1|FM15-METAR|223|ICAO-KCCB|||||||||||||||||||||||||||||||||||||||||||MET062METAR KCCB 240915Z AUTO 00000KT 10SM CLR 14/M14 A3015 RMK AO2=||F||223|ICAO-KCCB
USI0000KCCB|CABLE|2017|12|24|09|35|34.1115|-117.6876|438.6|14.0||1|FM15-METAR|223|ICAO-KCCB|-14.0||1|FM15-METAR|223|ICAO-KCCB|||||||||||||060|N-Normal|1|FM15-METAR|223|ICAO-KCCB|2.1|N-Normal|1|FM15-METAR|223|ICAO-KCCB|||||||||||||13|Derived||FM15-METAR|223|ICAO-KCCB|||||||||||||||||||||||||||||||||||||||||||||||||||||||||||||||||||||||||1021.0||1|FM15-METAR|223|ICAO-KCCB|||||||||||||||||||||||||||||||||||||||||||MET062METAR KCCB 240935Z AUTO 06004KT 10SM CLR 14/M14 A3015 RMK AO2=||F||223|ICAO-KCCB
USI0000KCCB|CABLE|2017|12|24|09|55|34.1115|-117.6876|438.6|14.0||1|FM15-METAR|223|ICAO-KCCB|-13.0||1|FM15-METAR|223|ICAO-KCCB|||||||||||||040|N-Normal|1|FM15-METAR|223|ICAO-KCCB|2.1|N-Normal|1|FM15-METAR|223|ICAO-KCCB|||||||||||||14|Derived||FM15-METAR|223|ICAO-KCCB|||||||||||||||||||||||||||||||||||||||||||||||||||||||||||||||||||||||||1021.0||1|FM15-METAR|223|ICAO-KCCB|||||||||||||||||||||||||||||||||||||||||||MET062METAR KCCB 240955Z AUTO 04004KT 10SM CLR 14/M13 A3015 RMK AO2=||F||223|ICAO-KCCB
USI0000KCCB|CABLE|2017|12|24|10|15|34.1115|-117.6876|438.6|14.0||1|FM15-METAR|223|ICAO-KCCB|-14.0||1|FM15-METAR|223|ICAO-KCCB|||||||||||||999|C-Calm|9|FM15-METAR|223|ICAO-KCCB|0.0|C-Calm|1|FM15-METAR|223|ICAO-KCCB|||||||||||||13|Derived||FM15-METAR|223|ICAO-KCCB|||||||||||||||||||||||||||||||||||||||||||||||||||||||||||||||||||||||||1021.0||1|FM15-METAR|223|ICAO-KCCB|||||||||||||||||||||||||||||||||||||||||||MET062METAR KCCB 241015Z AUTO 00000KT 10SM CLR 14/M14 A3015 RMK AO2=||F||223|ICAO-KCCB
USI0000KCCB|CABLE|2017|12|24|10|35|34.1115|-117.6876|438.6|13.0||1|FM15-METAR|223|ICAO-KCCB|-13.0||1|FM15-METAR|223|ICAO-KCCB|||||||||||||030|N-Normal|1|FM15-METAR|223|ICAO-KCCB|1.5|N-Normal|1|FM15-METAR|223|ICAO-KCCB|||||||||||||15|Derived||FM15-METAR|223|ICAO-KCCB|||||||||||||||||||||||||||||||||||||||||||||||||||||||||||||||||||||||||1020.7||1|FM15-METAR|223|ICAO-KCCB|||||||||||||||||||||||||||||||||||||||||||MET062METAR KCCB 241035Z AUTO 03003KT 10SM CLR 13/M13 A3014 RMK AO2=||F||223|ICAO-KCCB
USI0000KCCB|CABLE|2017|12|24|10|55|34.1115|-117.6876|438.6|13.0||1|FM15-METAR|223|ICAO-KCCB|-15.0||1|FM15-METAR|223|ICAO-KCCB|||||||||||||999|C-Calm|9|FM15-METAR|223|ICAO-KCCB|0.0|C-Calm|1|FM15-METAR|223|ICAO-KCCB|||||||||||||13|Derived||FM15-METAR|223|ICAO-KCCB|||||||||||||||||||||||||||||||||||||||||||||||||||||||||||||||||||||||||1020.7||1|FM15-METAR|223|ICAO-KCCB|||||||||||||||||||||||||||||||||||||||||||MET062METAR KCCB 241055Z AUTO 00000KT 10SM CLR 13/M15 A3014 RMK AO2=||F||223|ICAO-KCCB
USI0000KCCB|CABLE|2017|12|24|11|15|34.1115|-117.6876|438.6|13.0||1|FM15-METAR|223|ICAO-KCCB|-15.0||1|FM15-METAR|223|ICAO-KCCB|||||||||||||280|N-Normal|1|FM15-METAR|223|ICAO-KCCB|1.5|N-Normal|1|FM15-METAR|223|ICAO-KCCB|||||||||||||13|Derived||FM15-METAR|223|ICAO-KCCB|||||||||||||||||||||||||||||||||||||||||||||||||||||||||||||||||||||||||1020.7||1|FM15-METAR|223|ICAO-KCCB|||||||||||||||||||||||||||||||||||||||||||MET062METAR KCCB 241115Z AUTO 28003KT 10SM CLR 13/M15 A3014 RMK AO2=||F||223|ICAO-KCCB
USI0000KCCB|CABLE|2017|12|24|11|35|34.1115|-117.6876|438.6|13.0||1|FM15-METAR|223|ICAO-KCCB|-16.0||1|FM15-METAR|223|ICAO-KCCB|||||||||||||999|C-Calm|9|FM15-METAR|223|ICAO-KCCB|0.0|C-Calm|1|FM15-METAR|223|ICAO-KCCB|||||||||||||12|Derived||FM15-METAR|223|ICAO-KCCB|||||||||||||||||||||||||||||||||||||||||||||||||||||||||||||||||||||||||1020.7||1|FM15-METAR|223|ICAO-KCCB|||||||||||||||||||||||||||||||||||||||||||MET062METAR KCCB 241135Z AUTO 00000KT 10SM CLR 13/M16 A3014 RMK AO2=||F||223|ICAO-KCCB
USI0000KCCB|CABLE|2017|12|24|11|55|34.1115|-117.6876|438.6|12.0||1|FM15-METAR|223|ICAO-KCCB|-16.0||1|FM15-METAR|223|ICAO-KCCB|||||||||||||999|C-Calm|9|FM15-METAR|223|ICAO-KCCB|0.0|C-Calm|1|FM15-METAR|223|ICAO-KCCB|||||||||||||13|Derived||FM15-METAR|223|ICAO-KCCB|||||||||||||||||||||||||||||||||||||||||||||||||||||||||||||||||||||||||1020.7||1|FM15-METAR|223|ICAO-KCCB|||||||||||||||||||||||||||||||||||||||||||MET062METAR KCCB 241155Z AUTO 00000KT 10SM CLR 12/M16 A3014 RMK AO2=||F||223|ICAO-KCCB
USI0000KCCB|CABLE|2017|12|24|12|15|34.1115|-117.6876|438.6|11.0||1|FM15-METAR|223|ICAO-KCCB|-15.0||1|FM15-METAR|223|ICAO-KCCB|||||||||||||010|N-Normal|1|FM15-METAR|223|ICAO-KCCB|2.1|N-Normal|1|FM15-METAR|223|ICAO-KCCB|||||||||||||15|Derived||FM15-METAR|223|ICAO-KCCB|||||||||||||||||||||||||||||||||||||||||||||||||||||||||||||||||||||||||1020.7||1|FM15-METAR|223|ICAO-KCCB|||||||||||||||||||||||||||||||||||||||||||MET062METAR KCCB 241215Z AUTO 01004KT 10SM CLR 11/M15 A3014 RMK AO2=||F||223|ICAO-KCCB
USI0000KCCB|CABLE|2017|12|24|12|35|34.1115|-117.6876|438.6|11.0||1|FM15-METAR|223|ICAO-KCCB|-14.0||1|FM15-METAR|223|ICAO-KCCB|||||||||||||020|N-Normal|1|FM15-METAR|223|ICAO-KCCB|2.1|N-Normal|1|FM15-METAR|223|ICAO-KCCB|||||||||||||16|Derived||FM15-METAR|223|ICAO-KCCB|||||||||||||||||||||||||||||||||||||||||||||||||||||||||||||||||||||||||1020.3||1|FM15-METAR|223|ICAO-KCCB|||||||||||||||||||||||||||||||||||||||||||MET062METAR KCCB 241235Z AUTO 02004KT 10SM CLR 11/M14 A3013 RMK AO2=||F||223|ICAO-KCCB
USI0000KCCB|CABLE|2017|12|24|12|55|34.1115|-117.6876|438.6|11.0||1|FM15-METAR|223|ICAO-KCCB|-14.0||1|FM15-METAR|223|ICAO-KCCB|||||||||||||010|N-Normal|1|FM15-METAR|223|ICAO-KCCB|1.5|N-Normal|1|FM15-METAR|223|ICAO-KCCB|||||||||||||16|Derived||FM15-METAR|223|ICAO-KCCB|||||||||||||||||||||||||||||||||||||||||||||||||||||||||||||||||||||||||1020.3||1|FM15-METAR|223|ICAO-KCCB|||||||||||||||||||||||||||||||||||||||||||MET062METAR KCCB 241255Z AUTO 01003KT 10SM CLR 11/M14 A3013 RMK AO2=||F||223|ICAO-KCCB
USI0000KCCB|CABLE|2017|12|24|13|15|34.1115|-117.6876|438.6|12.0||1|FM15-METAR|223|ICAO-KCCB|-15.0||1|FM15-METAR|223|ICAO-KCCB|||||||||||||999|C-Calm|9|FM15-METAR|223|ICAO-KCCB|0.0|C-Calm|1|FM15-METAR|223|ICAO-KCCB|||||||||||||14|Derived||FM15-METAR|223|ICAO-KCCB|||||||||||||||||||||||||||||||||||||||||||||||||||||||||||||||||||||||||1020.3||1|FM15-METAR|223|ICAO-KCCB|||||||||||||||||||||||||||||||||||||||||||MET062METAR KCCB 241315Z AUTO 00000KT 10SM CLR 12/M15 A3013 RMK AO2=||F||223|ICAO-KCCB
USI0000KCCB|CABLE|2017|12|24|13|35|34.1115|-117.6876|438.6|11.0||1|FM15-METAR|223|ICAO-KCCB|-15.0||1|FM15-METAR|223|ICAO-KCCB|||||||||||||999|C-Calm|9|FM15-METAR|223|ICAO-KCCB|0.0|C-Calm|1|FM15-METAR|223|ICAO-KCCB|||||||||||||15|Derived||FM15-METAR|223|ICAO-KCCB|||||||||||||||||||||||||||||||||||||||||||||||||||||||||||||||||||||||||1020.3||1|FM15-METAR|223|ICAO-KCCB|||||||||||||||||||||||||||||||||||||||||||MET062METAR KCCB 241335Z AUTO 00000KT 10SM CLR 11/M15 A3013 RMK AO2=||F||223|ICAO-KCCB
USI0000KCCB|CABLE|2017|12|24|13|55|34.1115|-117.6876|438.6|11.0||1|FM15-METAR|223|ICAO-KCCB|-14.0||1|FM15-METAR|223|ICAO-KCCB|||||||||||||040|N-Normal|1|FM15-METAR|223|ICAO-KCCB|2.6|N-Normal|1|FM15-METAR|223|ICAO-KCCB|||||||||||||16|Derived||FM15-METAR|223|ICAO-KCCB|||||||||||||||||||||||||||||||||||||||||||||||||||||||||||||||||||||||||1020.0||1|FM15-METAR|223|ICAO-KCCB|||||||||||||||||||||||||||||||||||||||||||MET062METAR KCCB 241355Z AUTO 04005KT 10SM CLR 11/M14 A3012 RMK AO2=||F||223|ICAO-KCCB
USI0000KCCB|CABLE|2017|12|24|14|15|34.1115|-117.6876|438.6|11.0||1|FM15-METAR|223|ICAO-KCCB|-13.0||1|FM15-METAR|223|ICAO-KCCB|||||||||||||070|N-Normal|1|FM15-METAR|223|ICAO-KCCB|2.6|N-Normal|1|FM15-METAR|223|ICAO-KCCB|||||||||||||17|Derived||FM15-METAR|223|ICAO-KCCB|||||||||||||||||||||||||||||||||||||||||||||||||||||||||||||||||||||||||1020.0||1|FM15-METAR|223|ICAO-KCCB|||||||||||||||||||||||||||||||||||||||||||MET062METAR KCCB 241415Z AUTO 07005KT 10SM CLR 11/M13 A3012 RMK AO2=||F||223|ICAO-KCCB
USI0000KCCB|CABLE|2017|12|24|14|35|34.1115|-117.6876|438.6|11.0||1|FM15-METAR|223|ICAO-KCCB|-13.0||1|FM15-METAR|223|ICAO-KCCB|||||||||||||060|N-Normal|1|FM15-METAR|223|ICAO-KCCB|2.6|N-Normal|1|FM15-METAR|223|ICAO-KCCB|||||||||||||17|Derived||FM15-METAR|223|ICAO-KCCB|||||||||||||||||||||||||||||||||||||||||||||||||||||||||||||||||||||||||1020.0||1|FM15-METAR|223|ICAO-KCCB|||||||||||||||||||||||||||||||||||||||||||MET062METAR KCCB 241435Z AUTO 06005KT 10SM CLR 11/M13 A3012 RMK AO2=||F||223|ICAO-KCCB
USI0000KCCB|CABLE|2017|12|24|14|55|34.1115|-117.6876|438.6|11.0||1|FM15-METAR|223|ICAO-KCCB|-14.0||1|FM15-METAR|223|ICAO-KCCB|||||||||||||040|N-Normal|1|FM15-METAR|223|ICAO-KCCB|2.6|N-Normal|1|FM15-METAR|223|ICAO-KCCB|||||||||||||16|Derived||FM15-METAR|223|ICAO-KCCB|||||||||||||||||||||||||||||||||||||||||||||||||||||||||||||||||||||||||1020.3||1|FM15-METAR|223|ICAO-KCCB|||||||||||||||||||||||||||||||||||||||||||MET062METAR KCCB 241455Z AUTO 04005KT 10SM CLR 11/M14 A3013 RMK AO2=||F||223|ICAO-KCCB
USI0000KCCB|CABLE|2017|12|24|15|15|34.1115|-117.6876|438.6|12.0||1|FM15-METAR|223|ICAO-KCCB|-15.0||1|FM15-METAR|223|ICAO-KCCB|||||||||||||040|N-Normal|1|FM15-METAR|223|ICAO-KCCB|3.1|N-Normal|1|FM15-METAR|223|ICAO-KCCB|||||||||||||14|Derived||FM15-METAR|223|ICAO-KCCB|||||||||||||||||||||||||||||||||||||||||||||||||||||||||||||||||||||||||1020.3||1|FM15-METAR|223|ICAO-KCCB|||||||||||||||||||||||||||||||||||||||||||MET062METAR KCCB 241515Z AUTO 04006KT 10SM CLR 12/M15 A3013 RMK AO2=||F||223|ICAO-KCCB
USI0000KCCB|CABLE|2017|12|24|15|35|34.1115|-117.6876|438.6|13.0||1|FM15-METAR|223|ICAO-KCCB|-14.0||1|FM15-METAR|223|ICAO-KCCB|||||||||||||050|N-Normal|1|FM15-METAR|223|ICAO-KCCB|1.5|N-Normal|1|FM15-METAR|223|ICAO-KCCB|||||||||||||14|Derived||FM15-METAR|223|ICAO-KCCB|||||||||||||||||||||||||||||||||||||||||||||||||||||||||||||||||||||||||1020.7||1|FM15-METAR|223|ICAO-KCCB|||||||||||||||||||||||||||||||||||||||||||MET062METAR KCCB 241535Z AUTO 05003KT 10SM CLR 13/M14 A3014 RMK AO2=||F||223|ICAO-KCCB
USI0000KCCB|CABLE|2017|12|24|15|55|34.1115|-117.6876|438.6|14.0||1|FM15-METAR|223|ICAO-KCCB|-14.0||1|FM15-METAR|223|ICAO-KCCB|||||||||||||999|C-Calm|9|FM15-METAR|223|ICAO-KCCB|0.0|C-Calm|1|FM15-METAR|223|ICAO-KCCB|||||||||||||13|Derived||FM15-METAR|223|ICAO-KCCB|||||||||||||||||||||||||||||||||||||||||||||||||||||||||||||||||||||||||1020.7||1|FM15-METAR|223|ICAO-KCCB|||||||||||||||||||||||||||||||||||||||||||MET062METAR KCCB 241555Z AUTO 00000KT 10SM CLR 14/M14 A3014 RMK AO2=||F||223|ICAO-KCCB
USI0000KCCB|CABLE|2017|12|24|16|15|34.1115|-117.6876|438.6|14.0||1|FM15-METAR|223|ICAO-KCCB|-12.0||1|FM15-METAR|223|ICAO-KCCB|||||||||||||999|C-Calm|9|FM15-METAR|223|ICAO-KCCB|0.0|C-Calm|1|FM15-METAR|223|ICAO-KCCB|||||||||||||15|Derived||FM15-METAR|223|ICAO-KCCB|||||||||||||||||||||||||||||||||||||||||||||||||||||||||||||||||||||||||1020.7||1|FM15-METAR|223|ICAO-KCCB|||||||||||||||||||||||||||||||||||||||||||MET062METAR KCCB 241615Z AUTO 00000KT 10SM CLR 14/M12 A3014 RMK AO2=||F||223|ICAO-KCCB
USI0000KCCB|CABLE|2017|12|24|16|35|34.1115|-117.6876|438.6|16.0||1|FM15-METAR|223|ICAO-KCCB|-10.0||1|FM15-METAR|223|ICAO-KCCB|||||||||||||999|C-Calm|9|FM15-METAR|223|ICAO-KCCB|0.0|C-Calm|1|FM15-METAR|223|ICAO-KCCB|||||||||||||16|Derived||FM15-METAR|223|ICAO-KCCB|||||||||||||||||||||||||||||||||||||||||||||||||||||||||||||||||||||||||1021.0||1|FM15-METAR|223|ICAO-KCCB|||||||||||||||||||||||||||||||||||||||||||MET062METAR KCCB 241635Z AUTO 00000KT 10SM CLR 16/M10 A3015 RMK AO2=||F||223|ICAO-KCCB
USI0000KCCB|CABLE|2017|12|24|16|55|34.1115|-117.6876|438.6|17.0||1|FM15-METAR|223|ICAO-KCCB|-15.0||1|FM15-METAR|223|ICAO-KCCB|||||||||||||100|N-Normal|1|FM15-METAR|223|ICAO-KCCB|1.5|N-Normal|1|FM15-METAR|223|ICAO-KCCB|||||||||||||10|Derived||FM15-METAR|223|ICAO-KCCB|||||||||||||||||||||||||||||||||||||||||||||||||||||||||||||||||||||||||1021.3||1|FM15-METAR|223|ICAO-KCCB|||||||||||||||||||||||||||||||||||||||||||MET062METAR KCCB 241655Z AUTO 10003KT 10SM CLR 17/M15 A3016 RMK AO2=||F||223|ICAO-KCCB
USI0000KCCB|CABLE|2017|12|24|17|15|34.1115|-117.6876|438.6|17.0||1|FM15-METAR|223|ICAO-KCCB|-17.0||1|FM15-METAR|223|ICAO-KCCB|||||||||||||110|N-Normal|1|FM15-METAR|223|ICAO-KCCB|2.1|N-Normal|1|FM15-METAR|223|ICAO-KCCB|||||||||||||8|Derived||FM15-METAR|223|ICAO-KCCB|||||||||||||||||||||||||||||||||||||||||||||||||||||||||||||||||||||||||1021.7||1|FM15-METAR|223|ICAO-KCCB|||||||||||||||||||||||||||||||||||||||||||MET062METAR KCCB 241715Z AUTO 11004KT 10SM CLR 17/M17 A3017 RMK AO2=||F||223|ICAO-KCCB
USI0000KCCB|CABLE|2017|12|24|17|35|34.1115|-117.6876|438.6|18.0||1|FM15-METAR|223|ICAO-KCCB|-17.0||1|FM15-METAR|223|ICAO-KCCB|||||||||||||110|N-Normal|1|FM15-METAR|223|ICAO-KCCB|2.6|N-Normal|1|FM15-METAR|223|ICAO-KCCB|||||||||||||8|Derived||FM15-METAR|223|ICAO-KCCB|||||||||||||||||||||||||||||||||||||||||||||||||||||||||||||||||||||||||1021.7||1|FM15-METAR|223|ICAO-KCCB|||||||||||||||||||||||||||||||||||||||||||MET062METAR KCCB 241735Z AUTO 11005KT 10SM CLR 18/M17 A3017 RMK AO2=||F||223|ICAO-KCCB
USI0000KCCB|CABLE|2017|12|24|17|55|34.1115|-117.6876|438.6|18.0||1|FM15-METAR|223|ICAO-KCCB|-18.0||1|FM15-METAR|223|ICAO-KCCB|||||||||||||110|N-Normal|1|FM15-METAR|223|ICAO-KCCB|3.1|N-Normal|1|FM15-METAR|223|ICAO-KCCB|||||||||||||7|Derived||FM15-METAR|223|ICAO-KCCB|||||||||||||||||||||||||||||||||||||||||||||||||||||||||||||||||||||||||1021.3||1|FM15-METAR|223|ICAO-KCCB|||||||||||||||||||||||||||||||||||||||||||MET062METAR KCCB 241755Z AUTO 11006KT 10SM CLR 18/M18 A3016 RMK AO2=||F||223|ICAO-KCCB
USI0000KCCB|CABLE|2017|12|24|18|15|34.1115|-117.6876|438.6|19.0||1|FM15-METAR|223|ICAO-KCCB|-17.0||1|FM15-METAR|223|ICAO-KCCB|||||||||||||999|C-Calm|9|FM15-METAR|223|ICAO-KCCB|0.0|C-Calm|1|FM15-METAR|223|ICAO-KCCB|||||||||||||7|Derived||FM15-METAR|223|ICAO-KCCB|||||||||||||||||||||||||||||||||||||||||||||||||||||||||||||||||||||||||1021.3||1|FM15-METAR|223|ICAO-KCCB|||||||||||||||||||||||||||||||||||||||||||MET062METAR KCCB 241815Z AUTO 00000KT 10SM CLR 19/M17 A3016 RMK AO2=||F||223|ICAO-KCCB
USI0000KCCB|CABLE|2017|12|24|18|35|34.1115|-117.6876|438.6|20.0||1|FM15-METAR|223|ICAO-KCCB|-18.0||1|FM15-METAR|223|ICAO-KCCB|||||||||||||100|N-Normal|1|FM15-METAR|223|ICAO-KCCB|2.1|N-Normal|1|FM15-METAR|223|ICAO-KCCB|||||||||||||6|Derived||FM15-METAR|223|ICAO-KCCB|||||||||||||||||||||||||||||||||||||||||||||||||||||||||||||||||||||||||1021.0||1|FM15-METAR|223|ICAO-KCCB|||||||||||||||||||||||||||||||||||||||||||MET062METAR KCCB 241835Z AUTO 10004KT 10SM CLR 20/M18 A3015 RMK AO2=||F||223|ICAO-KCCB
USI0000KCCB|CABLE|2017|12|24|18|55|34.1115|-117.6876|438.6|21.0||1|FM15-METAR|223|ICAO-KCCB|-18.0||1|FM15-METAR|223|ICAO-KCCB|||||||||||||999|C-Calm|9|FM15-METAR|223|ICAO-KCCB|0.0|C-Calm|1|FM15-METAR|223|ICAO-KCCB|||||||||||||6|Derived||FM15-METAR|223|ICAO-KCCB|||||||||||||||||||||||||||||||||||||||||||||||||||||||||||||||||||||||||1021.0||1|FM15-METAR|223|ICAO-KCCB|||||||||||||||||||||||||||||||||||||||||||MET062METAR KCCB 241855Z AUTO 00000KT 10SM CLR 21/M18 A3015 RMK AO2=||F||223|ICAO-KCCB
USI0000KCCB|CABLE|2017|12|24|19|15|34.1115|-117.6876|438.6|21.0||1|FM15-METAR|223|ICAO-KCCB|-20.0||1|FM15-METAR|223|ICAO-KCCB|||||||||||||150|N-Normal|1|FM15-METAR|223|ICAO-KCCB|1.5|N-Normal|1|FM15-METAR|223|ICAO-KCCB|||||||||||||5|Derived||FM15-METAR|223|ICAO-KCCB|||||||||||||||||||||||||||||||||||||||||||||||||||||||||||||||||||||||||1020.3||1|FM15-METAR|223|ICAO-KCCB|||||||||||||||||||||||||||||||||||||||||||MET062METAR KCCB 241915Z AUTO 15003KT 10SM CLR 21/M20 A3013 RMK AO2=||F||223|ICAO-KCCB
USI0000KCCB|CABLE|2017|12|24|19|35|34.1115|-117.6876|438.6|21.0||1|FM15-METAR|223|ICAO-KCCB|-19.0||1|FM15-METAR|223|ICAO-KCCB|||||||||||||999|C-Calm|9|FM15-METAR|223|ICAO-KCCB|0.0|C-Calm|1|FM15-METAR|223|ICAO-KCCB|||||||||||||5|Derived||FM15-METAR|223|ICAO-KCCB|||||||||||||||||||||||||||||||||||||||||||||||||||||||||||||||||||||||||1020.0||1|FM15-METAR|223|ICAO-KCCB|||||||||||||||||||||||||||||||||||||||||||MET062METAR KCCB 241935Z AUTO 00000KT 10SM CLR 21/M19 A3012 RMK AO2=||F||223|ICAO-KCCB
USI0000KCCB|CABLE|2017|12|24|19|55|34.1115|-117.6876|438.6|22.0||1|FM15-METAR|223|ICAO-KCCB|-20.0||1|FM15-METAR|223|ICAO-KCCB|||||||||||||999|V-Variable|9|FM15-METAR|223|ICAO-KCCB|1.5|V-Variable|1|FM15-METAR|223|ICAO-KCCB|||||||||||||5|Derived||FM15-METAR|223|ICAO-KCCB|||||||||||||||||||||||||||||||||||||||||||||||||||||||||||||||||||||||||1019.6||1|FM15-METAR|223|ICAO-KCCB|||||||||||||||||||||||||||||||||||||||||||MET062METAR KCCB 241955Z AUTO VRB03KT 10SM CLR 22/M20 A3011 RMK AO2=||F||223|ICAO-KCCB
USI0000KCCB|CABLE|2017|12|24|20|15|34.1115|-117.6876|438.6|22.0||1|FM15-METAR|223|ICAO-KCCB|-20.0||1|FM15-METAR|223|ICAO-KCCB|||||||||||||180|N-Normal|1|FM15-METAR|223|ICAO-KCCB|1.5|N-Normal|1|FM15-METAR|223|ICAO-KCCB|||||||||||||5|Derived||FM15-METAR|223|ICAO-KCCB|||||||||||||||||||||||||||||||||||||||||||||||||||||||||||||||||||||||||1019.3||1|FM15-METAR|223|ICAO-KCCB|||||||||||||||||||||||||||||||||||||||||||MET062METAR KCCB 242015Z AUTO 18003KT 10SM CLR 22/M20 A3010 RMK AO2=||F||223|ICAO-KCCB
USI0000KCCB|CABLE|2017|12|24|20|35|34.1115|-117.6876|438.6|22.0||1|FM15-METAR|223|ICAO-KCCB|-19.0||1|FM15-METAR|223|ICAO-KCCB|||||||||||||999|C-Calm|9|FM15-METAR|223|ICAO-KCCB|0.0|C-Calm|1|FM15-METAR|223|ICAO-KCCB|||||||||||||5|Derived||FM15-METAR|223|ICAO-KCCB|||||||||||||||||||||||||||||||||||||||||||||||||||||||||||||||||||||||||1019.3||1|FM15-METAR|223|ICAO-KCCB|||||||||||||||||||||||||||||||||||||||||||MET062METAR KCCB 242035Z AUTO 00000KT 10SM CLR 22/M19 A3010 RMK AO2=||F||223|ICAO-KCCB
USI0000KCCB|CABLE|2017|12|24|20|55|34.1115|-117.6876|438.6|23.0||1|FM15-METAR|223|ICAO-KCCB|-19.0||1|FM15-METAR|223|ICAO-KCCB|||||||||||||999|V-Variable|9|FM15-METAR|223|ICAO-KCCB|2.1|V-Variable|1|FM15-METAR|223|ICAO-KCCB|||||||||||||5|Derived||FM15-METAR|223|ICAO-KCCB|||||||||||||||||||||||||||||||||||||||||||||||||||||||||||||||||||||||||1019.0||1|FM15-METAR|223|ICAO-KCCB|||||||||||||||||||||||||||||||||||||||||||MET062METAR KCCB 242055Z AUTO VRB04KT 10SM CLR 23/M19 A3009 RMK AO2=||F||223|ICAO-KCCB
USI0000KCCB|CABLE|2017|12|24|21|15|34.1115|-117.6876|438.6|23.0||1|FM15-METAR|223|ICAO-KCCB|-19.0||1|FM15-METAR|223|ICAO-KCCB|||||||||||||999|C-Calm|9|FM15-METAR|223|ICAO-KCCB|0.0|C-Calm|1|FM15-METAR|223|ICAO-KCCB|||||||||||||5|Derived||FM15-METAR|223|ICAO-KCCB|||||||||||||||||||||||||||||||||||||||||||||||||||||||||||||||||||||||||1018.6||1|FM15-METAR|223|ICAO-KCCB|||||||||||||||||||||||||||||||||||||||||||MET062METAR KCCB 242115Z AUTO 00000KT 10SM CLR 23/M19 A3008 RMK AO2=||F||223|ICAO-KCCB
USI0000KCCB|CABLE|2017|12|24|21|35|34.1115|-117.6876|438.6|23.0||1|FM15-METAR|223|ICAO-KCCB|-22.0||1|FM15-METAR|223|ICAO-KCCB|||||||||||||999|V-Variable|9|FM15-METAR|223|ICAO-KCCB|2.1|V-Variable|1|FM15-METAR|223|ICAO-KCCB|||||||||||||4|Derived||FM15-METAR|223|ICAO-KCCB|||||||||||||||||||||||||||||||||||||||||||||||||||||||||||||||||||||||||1018.6||1|FM15-METAR|223|ICAO-KCCB|||||||||||||||||||||||||||||||||||||||||||MET062METAR KCCB 242135Z AUTO VRB04KT 10SM CLR 23/M22 A3008 RMK AO2=||F||223|ICAO-KCCB
USI0000KCCB|CABLE|2017|12|24|21|55|34.1115|-117.6876|438.6|23.0||1|FM15-METAR|223|ICAO-KCCB|-22.0||1|FM15-METAR|223|ICAO-KCCB|||||||||||||190|N-Normal|1|FM15-METAR|223|ICAO-KCCB|2.1|N-Normal|1|FM15-METAR|223|ICAO-KCCB|||||||||||||4|Derived||FM15-METAR|223|ICAO-KCCB|||||||||||||||||||||||||||||||||||||||||||||||||||||||||||||||||||||||||1018.6||1|FM15-METAR|223|ICAO-KCCB|||||||||||||||||||||||||||||||||||||||||||MET062METAR KCCB 242155Z AUTO 19004KT 10SM CLR 23/M22 A3008 RMK AO2=||F||223|ICAO-KCCB
USI0000KCCB|CABLE|2017|12|24|22|15|34.1115|-117.6876|438.6|23.0||1|FM15-METAR|223|ICAO-KCCB|-20.0||1|FM15-METAR|223|ICAO-KCCB|||||||||||||220|N-Normal|1|FM15-METAR|223|ICAO-KCCB|3.1|N-Normal|1|FM15-METAR|223|ICAO-KCCB|||||||||||||4|Derived||FM15-METAR|223|ICAO-KCCB|||||||||||||||||||||||||||||||||||||||||||||||||||||||||||||||||||||||||1019.0||1|FM15-METAR|223|ICAO-KCCB|||||||||||||||||||||||||||||||||||||||||||MET062METAR KCCB 242215Z AUTO 22006KT 10SM CLR 23/M20 A3009 RMK AO2=||F||223|ICAO-KCCB
USI0000KCCB|CABLE|2017|12|24|22|35|34.1115|-117.6876|438.6|23.0||1|FM15-METAR|223|ICAO-KCCB|-20.0||1|FM15-METAR|223|ICAO-KCCB|||||||||||||999|V-Variable|9|FM15-METAR|223|ICAO-KCCB|3.1|V-Variable|1|FM15-METAR|223|ICAO-KCCB|||||||||||||4|Derived||FM15-METAR|223|ICAO-KCCB|||||||||||||||||||||||||||||||||||||||||||||||||||||||||||||||||||||||||1019.0||1|FM15-METAR|223|ICAO-KCCB|||||||||||||||||||||||||||||||||||||||||||MET062METAR KCCB 242235Z AUTO VRB06KT 10SM CLR 23/M20 A3009 RMK AO2=||F||223|ICAO-KCCB
USI0000KCCB|CABLE|2017|12|24|22|55|34.1115|-117.6876|438.6|23.0||1|FM15-METAR|223|ICAO-KCCB|-15.0||1|FM15-METAR|223|ICAO-KCCB|||||||||||||260|N-Normal|1|FM15-METAR|223|ICAO-KCCB|4.1|N-Normal|1|FM15-METAR|223|ICAO-KCCB|||||||||||||7|Derived||FM15-METAR|223|ICAO-KCCB|||||||||||||||||||||||||||||||||||||||||||||||||||||||||||||||||||||||||1019.0||1|FM15-METAR|223|ICAO-KCCB|||||||||||||||||||||||||||||||||||||||||||MET062METAR KCCB 242255Z AUTO 26008KT 10SM CLR 23/M15 A3009 RMK AO2=||F||223|ICAO-KCCB
USI0000KCCB|CABLE|2017|12|24|23|15|34.1115|-117.6876|438.6|22.0||1|FM15-METAR|223|ICAO-KCCB|-11.0||1|FM15-METAR|223|ICAO-KCCB|||||||||||||270|N-Normal|1|FM15-METAR|223|ICAO-KCCB|5.1|N-Normal|1|FM15-METAR|223|ICAO-KCCB|||||||||||||10|Derived||FM15-METAR|223|ICAO-KCCB|||||||||||||||||||||||||||||||||||||||||||||||||||||||||||||||||||||||||1019.0||1|FM15-METAR|223|ICAO-KCCB|||||||||||||||||||||||||||||||||||||||||||MET062METAR KCCB 242315Z AUTO 27010KT 10SM CLR 22/M11 A3009 RMK AO2=||F||223|ICAO-KCCB
USI0000KCCB|CABLE|2017|12|24|23|35|34.1115|-117.6876|438.6|22.0||1|FM15-METAR|223|ICAO-KCCB|-9.0||1|FM15-METAR|223|ICAO-KCCB|||||||||||||240|N-Normal|1|FM15-METAR|223|ICAO-KCCB|5.1|N-Normal|1|FM15-METAR|223|ICAO-KCCB|||||||||||||12|Derived||FM15-METAR|223|ICAO-KCCB|||||||||||||||||||||||||||||||||||||||||||||||||||||||||||||||||||||||||1018.6||1|FM15-METAR|223|ICAO-KCCB|||||||||||||||||||||||||||||||||||||||||||MET062METAR KCCB 242335Z AUTO 24010KT 10SM CLR 22/M09 A3008 RMK AO2=||F||223|ICAO-KCCB
USI0000KCCB|CABLE|2017|12|24|23|55|34.1115|-117.6876|438.6|21.0||1|FM15-METAR|223|ICAO-KCCB|-9.0||1|FM15-METAR|223|ICAO-KCCB|||||||||||||240|N-Normal|1|FM15-METAR|223|ICAO-KCCB|4.1|N-Normal|1|FM15-METAR|223|ICAO-KCCB|||||||||||||12|Derived||FM15-METAR|223|ICAO-KCCB|||||||||||||||||||||||||||||||||||||||||||||||||||||||||||||||||||||||||1018.6||1|FM15-METAR|223|ICAO-KCCB|||||||||||||||||||||||||||||||||||||||||||MET062METAR KCCB 242355Z AUTO 24008KT 10SM CLR 21/M09 A3008 RMK AO2=||F||223|ICAO-KCCB
USI0000KCCB|CABLE|2017|12|25|00|15|34.1115|-117.6876|438.6|20.0||1|FM15-METAR|223|ICAO-KCCB|-9.0||1|FM15-METAR|223|ICAO-KCCB|||||||||||||240|N-Normal|1|FM15-METAR|223|ICAO-KCCB|3.1|N-Normal|1|FM15-METAR|223|ICAO-KCCB|||||||||||||13|Derived||FM15-METAR|223|ICAO-KCCB|||||||||||||||||||||||||||||||||||||||||||||||||||||||||||||||||||||||||1019.0||1|FM15-METAR|223|ICAO-KCCB|||||||||||||||||||||||||||||||||||||||||||MET062METAR KCCB 250015Z AUTO 24006KT 10SM CLR 20/M09 A3009 RMK AO2=||F||223|ICAO-KCCB
USI0000KCCB|CABLE|2017|12|25|00|35|34.1115|-117.6876|438.6|19.0||1|FM15-METAR|223|ICAO-KCCB|-8.0||1|FM15-METAR|223|ICAO-KCCB|||||||||||||260|N-Normal|1|FM15-METAR|223|ICAO-KCCB|2.1|N-Normal|1|FM15-METAR|223|ICAO-KCCB|||||||||||||15|Derived||FM15-METAR|223|ICAO-KCCB|||||||||||||||||||||||||||||||||||||||||||||||||||||||||||||||||||||||||1019.0||1|FM15-METAR|223|ICAO-KCCB|||||||||||||||||||||||||||||||||||||||||||MET061METAR KCCB 250035Z AUTO 26004KT 9SM CLR 19/M08 A3009 RMK AO2=||F||223|ICAO-KCCB
USI0000KCCB|CABLE|2017|12|25|00|55|34.1115|-117.6876|438.6|18.0||1|FM15-METAR|223|ICAO-KCCB|-8.0||1|FM15-METAR|223|ICAO-KCCB|||||||||||||250|N-Normal|1|FM15-METAR|223|ICAO-KCCB|2.1|N-Normal|1|FM15-METAR|223|ICAO-KCCB|||||||||||||16|Derived||FM15-METAR|223|ICAO-KCCB|||||||||||||||||||||||||||||||||||||||||||||||||||||||||||||||||||||||||1019.0||1|FM15-METAR|223|ICAO-KCCB|||||||||||||||||||||||||||||||||||||||||||MET062METAR KCCB 250055Z AUTO 25004KT 10SM CLR 18/M08 A3009 RMK AO2=||F||223|ICAO-KCCB
USI0000KCCB|CABLE|2017|12|25|01|15|34.1115|-117.6876|438.6|18.0||1|FM15-METAR|223|ICAO-KCCB|-5.0||1|FM15-METAR|223|ICAO-KCCB|||||||||||||270|N-Normal|1|FM15-METAR|223|ICAO-KCCB|3.1|N-Normal|1|FM15-METAR|223|ICAO-KCCB|||||||||||||21|Derived||FM15-METAR|223|ICAO-KCCB|||||||||||||||||||||||||||||||||||||||||||||||||||||||||||||||||||||||||1019.0||1|FM15-METAR|223|ICAO-KCCB|||||||||||||||||||||||||||||||||||||||||||MET062METAR KCCB 250115Z AUTO 27006KT 10SM CLR 18/M05 A3009 RMK AO2=||F||223|ICAO-KCCB
USI0000KCCB|CABLE|2017|12|25|01|35|34.1115|-117.6876|438.6|17.0||1|FM15-METAR|223|ICAO-KCCB|-3.0||1|FM15-METAR|223|ICAO-KCCB|||||||||||||270|N-Normal|1|FM15-METAR|223|ICAO-KCCB|2.6|N-Normal|1|FM15-METAR|223|ICAO-KCCB|||||||||||||25|Derived||FM15-METAR|223|ICAO-KCCB|||||||||||||||||||||||||||||||||||||||||||||||||||||||||||||||||||||||||1019.0||1|FM15-METAR|223|ICAO-KCCB|||||||||||||||||||||||||||||||||||||||||||MET062METAR KCCB 250135Z AUTO 27005KT 10SM CLR 17/M03 A3009 RMK AO2=||F||223|ICAO-KCCB
USI0000KCCB|CABLE|2017|12|25|01|55|34.1115|-117.6876|438.6|16.0||1|FM15-METAR|223|ICAO-KCCB|-1.0||1|FM15-METAR|223|ICAO-KCCB|||||||||||||280|N-Normal|1|FM15-METAR|223|ICAO-KCCB|2.6|N-Normal|1|FM15-METAR|223|ICAO-KCCB|||||||||||||31|Derived||FM15-METAR|223|ICAO-KCCB|||||||||||||||||||||||||||||||||||||||||||||||||||||||||||||||||||||||||1019.0||1|FM15-METAR|223|ICAO-KCCB|||||||||||||||||||||||||||||||||||||||||||MET062METAR KCCB 250155Z AUTO 28005KT 10SM CLR 16/M01 A3009 RMK AO2=||F||223|ICAO-KCCB
USI0000KCCB|CABLE|2017|12|25|02|15|34.1115|-117.6876|438.6|15.0||1|FM15-METAR|223|ICAO-KCCB|-1.0||1|FM15-METAR|223|ICAO-KCCB|||||||||||||280|N-Normal|1|FM15-METAR|223|ICAO-KCCB|2.1|N-Normal|1|FM15-METAR|223|ICAO-KCCB|||||||||||||34|Derived||FM15-METAR|223|ICAO-KCCB|||||||||||||||||||||||||||||||||||||||||||||||||||||||||||||||||||||||||1019.0||1|FM15-METAR|223|ICAO-KCCB|||||||||||||||||||||||||||||||||||||||||||MET058METAR KCCB 250215Z AUTO 28004KT 10SM 15/M01 A3009 RMK AO2=||F||223|ICAO-KCCB
USI0000KCCB|CABLE|2017|12|25|02|35|34.1115|-117.6876|438.6|15.0||1|FM15-METAR|223|ICAO-KCCB|-3.0||1|FM15-METAR|223|ICAO-KCCB|||||||||||||999|C-Calm|9|FM15-METAR|223|ICAO-KCCB|0.0|C-Calm|1|FM15-METAR|223|ICAO-KCCB|||||||||||||29|Derived||FM15-METAR|223|ICAO-KCCB|||||||||||||||||||||||||||||||||||||||||||||||||||||||||||||||||||||||||1019.3||1|FM15-METAR|223|ICAO-KCCB|||||||||||||||||||||||||||||||||||||||||||MET062METAR KCCB 250235Z AUTO 00000KT 10SM CLR 15/M03 A3010 RMK AO2=||F||223|ICAO-KCCB
USI0000KCCB|CABLE|2017|12|25|02|55|34.1115|-117.6876|438.6|14.0||1|FM15-METAR|223|ICAO-KCCB|-4.0||1|FM15-METAR|223|ICAO-KCCB|||||||||||||999|C-Calm|9|FM15-METAR|223|ICAO-KCCB|0.0|C-Calm|1|FM15-METAR|223|ICAO-KCCB|||||||||||||29|Derived||FM15-METAR|223|ICAO-KCCB|||||||||||||||||||||||||||||||||||||||||||||||||||||||||||||||||||||||||1019.0||1|FM15-METAR|223|ICAO-KCCB|||||||||||||||||||||||||||||||||||||||||||MET062METAR KCCB 250255Z AUTO 00000KT 10SM CLR 14/M04 A3009 RMK AO2=||F||223|ICAO-KCCB
USI0000KCCB|CABLE|2017|12|25|03|15|34.1115|-117.6876|438.6|14.0||1|FM15-METAR|223|ICAO-KCCB|-7.0||1|FM15-METAR|223|ICAO-KCCB|||||||||||||340|N-Normal|1|FM15-METAR|223|ICAO-KCCB|1.5|N-Normal|1|FM15-METAR|223|ICAO-KCCB|||||||||||||23|Derived||FM15-METAR|223|ICAO-KCCB|||||||||||||||||||||||||||||||||||||||||||||||||||||||||||||||||||||||||1019.3||1|FM15-METAR|223|ICAO-KCCB|||||||||||||||||||||||||||||||||||||||||||MET062METAR KCCB 250315Z AUTO 34003KT 10SM CLR 14/M07 A3010 RMK AO2=||F||223|ICAO-KCCB
USI0000KCCB|CABLE|2017|12|25|03|35|34.1115|-117.6876|438.6|15.0||1|FM15-METAR|223|ICAO-KCCB|-11.0||1|FM15-METAR|223|ICAO-KCCB|||||||||||||030|N-Normal|1|FM15-METAR|223|ICAO-KCCB|3.1|N-Normal|1|FM15-METAR|223|ICAO-KCCB|||||||||||||16|Derived||FM15-METAR|223|ICAO-KCCB|||||||||||||||||||||||||||||||||||||||||||||||||||||||||||||||||||||||||1019.3||1|FM15-METAR|223|ICAO-KCCB|||||||||||||||||||||||||||||||||||||||||||MET062METAR KCCB 250335Z AUTO 03006KT 10SM CLR 15/M11 A3010 RMK AO2=||F||223|ICAO-KCCB
USI0000KCCB|CABLE|2017|12|25|03|55|34.1115|-117.6876|438.6|16.0||1|FM15-METAR|223|ICAO-KCCB|-14.0||1|FM15-METAR|223|ICAO-KCCB|||||||||||||050|N-Normal|1|FM15-METAR|223|ICAO-KCCB|2.1|N-Normal|1|FM15-METAR|223|ICAO-KCCB|||||||||||||11|Derived||FM15-METAR|223|ICAO-KCCB|||||||||||||||||||||||||||||||||||||||||||||||||||||||||||||||||||||||||1019.3||1|FM15-METAR|223|ICAO-KCCB|||||||||||||||||||||||||||||||||||||||||||MET062METAR KCCB 250355Z AUTO 05004KT 10SM CLR 16/M14 A3010 RMK AO2=||F||223|ICAO-KCCB
USI0000KCCB|CABLE|2017|12|25|04|15|34.1115|-117.6876|438.6|15.0||1|FM15-METAR|223|ICAO-KCCB|-12.0||1|FM15-METAR|223|ICAO-KCCB|||||||||||||999|C-Calm|9|FM15-METAR|223|ICAO-KCCB|0.0|C-Calm|1|FM15-METAR|223|ICAO-KCCB|||||||||||||14|Derived||FM15-METAR|223|ICAO-KCCB|||||||||||||||||||||||||||||||||||||||||||||||||||||||||||||||||||||||||1019.3||1|FM15-METAR|223|ICAO-KCCB|||||||||||||||||||||||||||||||||||||||||||MET062METAR KCCB 250415Z AUTO 00000KT 10SM CLR 15/M12 A3010 RMK AO2=||F||223|ICAO-KCCB
USI0000KCCB|CABLE|2017|12|25|04|35|34.1115|-117.6876|438.6|15.0||1|FM15-METAR|223|ICAO-KCCB|-13.0||1|FM15-METAR|223|ICAO-KCCB|||||||||||||040|N-Normal|1|FM15-METAR|223|ICAO-KCCB|1.5|N-Normal|1|FM15-METAR|223|ICAO-KCCB|||||||||||||13|Derived||FM15-METAR|223|ICAO-KCCB|||||||||||||||||||||||||||||||||||||||||||||||||||||||||||||||||||||||||1019.3||1|FM15-METAR|223|ICAO-KCCB|||||||||||||||||||||||||||||||||||||||||||MET062METAR KCCB 250435Z AUTO 04003KT 10SM CLR 15/M13 A3010 RMK AO2=||F||223|ICAO-KCCB
USI0000KCCB|CABLE|2017|12|25|04|55|34.1115|-117.6876|438.6|14.0||1|FM15-METAR|223|ICAO-KCCB|-13.0||1|FM15-METAR|223|ICAO-KCCB|||||||||||||030|N-Normal|1|FM15-METAR|223|ICAO-KCCB|2.1|N-Normal|1|FM15-METAR|223|ICAO-KCCB|||||||||||||14|Derived||FM15-METAR|223|ICAO-KCCB|||||||||||||||||||||||||||||||||||||||||||||||||||||||||||||||||||||||||1019.3||1|FM15-METAR|223|ICAO-KCCB|||||||||||||||||||||||||||||||||||||||||||MET062METAR KCCB 250455Z AUTO 03004KT 10SM CLR 14/M13 A3010 RMK AO2=||F||223|ICAO-KCCB
USI0000KCCB|CABLE|2017|12|25|05|15|34.1115|-117.6876|438.6|14.0||1|FM15-METAR|223|ICAO-KCCB|-14.0||1|FM15-METAR|223|ICAO-KCCB|||||||||||||020|N-Normal|1|FM15-METAR|223|ICAO-KCCB|2.1|N-Normal|1|FM15-METAR|223|ICAO-KCCB|||||||||||||13|Derived||FM15-METAR|223|ICAO-KCCB|||||||||||||||||||||||||||||||||||||||||||||||||||||||||||||||||||||||||1019.3||1|FM15-METAR|223|ICAO-KCCB|||||||||||||||||||||||||||||||||||||||||||MET062METAR KCCB 250515Z AUTO 02004KT 10SM CLR 14/M14 A3010 RMK AO2=||F||223|ICAO-KCCB
USI0000KCCB|CABLE|2017|12|25|05|35|34.1115|-117.6876|438.6|15.0||1|FM15-METAR|223|ICAO-KCCB|-15.0||1|FM15-METAR|223|ICAO-KCCB|||||||||||||999|C-Calm|9|FM15-METAR|223|ICAO-KCCB|0.0|C-Calm|1|FM15-METAR|223|ICAO-KCCB|||||||||||||11|Derived||FM15-METAR|223|ICAO-KCCB|||||||||||||||||||||||||||||||||||||||||||||||||||||||||||||||||||||||||1019.3||1|FM15-METAR|223|ICAO-KCCB|||||||||||||||||||||||||||||||||||||||||||MET062METAR KCCB 250535Z AUTO 00000KT 10SM CLR 15/M15 A3010 RMK AO2=||F||223|ICAO-KCCB
USI0000KCCB|CABLE|2017|12|25|05|55|34.1115|-117.6876|438.6|15.0||1|FM15-METAR|223|ICAO-KCCB|-14.0||1|FM15-METAR|223|ICAO-KCCB|||||||||||||999|C-Calm|9|FM15-METAR|223|ICAO-KCCB|0.0|C-Calm|1|FM15-METAR|223|ICAO-KCCB|||||||||||||12|Derived||FM15-METAR|223|ICAO-KCCB|||||||||||||||||||||||||||||||||||||||||||||||||||||||||||||||||||||||||1019.6||1|FM15-METAR|223|ICAO-KCCB|||||||||||||||||||||||||||||||||||||||||||MET062METAR KCCB 250555Z AUTO 00000KT 10SM CLR 15/M14 A3011 RMK AO2=||F||223|ICAO-KCCB
USI0000KCCB|CABLE|2017|12|25|06|15|34.1115|-117.6876|438.6|14.0||1|FM15-METAR|223|ICAO-KCCB|-14.0||1|FM15-METAR|223|ICAO-KCCB|||||||||||||080|N-Normal|1|FM15-METAR|223|ICAO-KCCB|1.5|N-Normal|1|FM15-METAR|223|ICAO-KCCB|||||||||||||13|Derived||FM15-METAR|223|ICAO-KCCB|||||||||||||||||||||||||||||||||||||||||||||||||||||||||||||||||||||||||1019.6||1|FM15-METAR|223|ICAO-KCCB|||||||||||||||||||||||||||||||||||||||||||MET062METAR KCCB 250615Z AUTO 08003KT 10SM CLR 14/M14 A3011 RMK AO2=||F||223|ICAO-KCCB
USI0000KCCB|CABLE|2017|12|25|06|35|34.1115|-117.6876|438.6|14.0||1|FM15-METAR|223|ICAO-KCCB|-13.0||1|FM15-METAR|223|ICAO-KCCB|||||||||||||030|N-Normal|1|FM15-METAR|223|ICAO-KCCB|2.1|N-Normal|1|FM15-METAR|223|ICAO-KCCB|||||||||||||14|Derived||FM15-METAR|223|ICAO-KCCB|||||||||||||||||||||||||||||||||||||||||||||||||||||||||||||||||||||||||1020.0||1|FM15-METAR|223|ICAO-KCCB|||||||||||||||||||||||||||||||||||||||||||MET062METAR KCCB 250635Z AUTO 03004KT 10SM CLR 14/M13 A3012 RMK AO2=||F||223|ICAO-KCCB
USI0000KCCB|CABLE|2017|12|25|06|55|34.1115|-117.6876|438.6|14.0||1|FM15-METAR|223|ICAO-KCCB|-13.0||1|FM15-METAR|223|ICAO-KCCB|||||||||||||999|C-Calm|9|FM15-METAR|223|ICAO-KCCB|0.0|C-Calm|1|FM15-METAR|223|ICAO-KCCB|||||||||||||14|Derived||FM15-METAR|223|ICAO-KCCB|||||||||||||||||||||||||||||||||||||||||||||||||||||||||||||||||||||||||1020.0||1|FM15-METAR|223|ICAO-KCCB|||||||||||||||||||||||||||||||||||||||||||MET062METAR KCCB 250655Z AUTO 00000KT 10SM CLR 14/M13 A3012 RMK AO2=||F||223|ICAO-KCCB
USI0000KCCB|CABLE|2017|12|25|07|15|34.1115|-117.6876|438.6|13.0||1|FM15-METAR|223|ICAO-KCCB|-13.0||1|FM15-METAR|223|ICAO-KCCB|||||||||||||999|C-Calm|9|FM15-METAR|223|ICAO-KCCB|0.0|C-Calm|1|FM15-METAR|223|ICAO-KCCB|||||||||||||15|Derived||FM15-METAR|223|ICAO-KCCB|||||||||||||||||||||||||||||||||||||||||||||||||||||||||||||||||||||||||1020.0||1|FM15-METAR|223|ICAO-KCCB|||||||||||||||||||||||||||||||||||||||||||MET062METAR KCCB 250715Z AUTO 00000KT 10SM CLR 13/M13 A3012 RMK AO2=||F||223|ICAO-KCCB
USI0000KCCB|CABLE|2017|12|25|07|35|34.1115|-117.6876|438.6|13.0||1|FM15-METAR|223|ICAO-KCCB|-15.0||1|FM15-METAR|223|ICAO-KCCB|||||||||||||999|C-Calm|9|FM15-METAR|223|ICAO-KCCB|0.0|C-Calm|1|FM15-METAR|223|ICAO-KCCB|||||||||||||13|Derived||FM15-METAR|223|ICAO-KCCB|||||||||||||||||||||||||||||||||||||||||||||||||||||||||||||||||||||||||1019.6||1|FM15-METAR|223|ICAO-KCCB|||||||||||||||||||||||||||||||||||||||||||MET062METAR KCCB 250735Z AUTO 00000KT 10SM CLR 13/M15 A3011 RMK AO2=||F||223|ICAO-KCCB
USI0000KCCB|CABLE|2017|12|25|07|55|34.1115|-117.6876|438.6|13.0||1|FM15-METAR|223|ICAO-KCCB|-14.0||1|FM15-METAR|223|ICAO-KCCB|||||||||||||010|N-Normal|1|FM15-METAR|223|ICAO-KCCB|2.6|N-Normal|1|FM15-METAR|223|ICAO-KCCB|||||||||||||14|Derived||FM15-METAR|223|ICAO-KCCB|||||||||||||||||||||||||||||||||||||||||||||||||||||||||||||||||||||||||1019.6||1|FM15-METAR|223|ICAO-KCCB|||||||||||||||||||||||||||||||||||||||||||MET062METAR KCCB 250755Z AUTO 01005KT 10SM CLR 13/M14 A3011 RMK AO2=||F||223|ICAO-KCCB
USI0000KCCB|CABLE|2017|12|25|08|15|34.1115|-117.6876|438.6|13.0||1|FM15-METAR|223|ICAO-KCCB|-14.0||1|FM15-METAR|223|ICAO-KCCB|||||||||||||999|C-Calm|9|FM15-METAR|223|ICAO-KCCB|0.0|C-Calm|1|FM15-METAR|223|ICAO-KCCB|||||||||||||14|Derived||FM15-METAR|223|ICAO-KCCB|||||||||||||||||||||||||||||||||||||||||||||||||||||||||||||||||||||||||1019.6||1|FM15-METAR|223|ICAO-KCCB|||||||||||||||||||||||||||||||||||||||||||MET062METAR KCCB 250815Z AUTO 00000KT 10SM CLR 13/M14 A3011 RMK AO2=||F||223|ICAO-KCCB
USI0000KCCB|CABLE|2017|12|25|08|35|34.1115|-117.6876|438.6|12.0||1|FM15-METAR|223|ICAO-KCCB|-13.0||1|FM15-METAR|223|ICAO-KCCB|||||||||||||999|C-Calm|9|FM15-METAR|223|ICAO-KCCB|0.0|C-Calm|1|FM15-METAR|223|ICAO-KCCB|||||||||||||16|Derived||FM15-METAR|223|ICAO-KCCB|||||||||||||||||||||||||||||||||||||||||||||||||||||||||||||||||||||||||1020.0||1|FM15-METAR|223|ICAO-KCCB|||||||||||||||||||||||||||||||||||||||||||MET062METAR KCCB 250835Z AUTO 00000KT 10SM CLR 12/M13 A3012 RMK AO2=||F||223|ICAO-KCCB
USI0000KCCB|CABLE|2017|12|25|08|55|34.1115|-117.6876|438.6|12.0||1|FM15-METAR|223|ICAO-KCCB|-12.0||1|FM15-METAR|223|ICAO-KCCB|||||||||||||360|N-Normal|1|FM15-METAR|223|ICAO-KCCB|1.5|N-Normal|1|FM15-METAR|223|ICAO-KCCB|||||||||||||18|Derived||FM15-METAR|223|ICAO-KCCB|||||||||||||||||||||||||||||||||||||||||||||||||||||||||||||||||||||||||1019.6||1|FM15-METAR|223|ICAO-KCCB|||||||||||||||||||||||||||||||||||||||||||MET062METAR KCCB 250855Z AUTO 36003KT 10SM CLR 12/M12 A3011 RMK AO2=||F||223|ICAO-KCCB
USI0000KCCB|CABLE|2017|12|25|09|15|34.1115|-117.6876|438.6|12.0||1|FM15-METAR|223|ICAO-KCCB|-12.0||1|FM15-METAR|223|ICAO-KCCB|||||||||||||999|C-Calm|9|FM15-METAR|223|ICAO-KCCB|0.0|C-Calm|1|FM15-METAR|223|ICAO-KCCB|||||||||||||18|Derived||FM15-METAR|223|ICAO-KCCB|||||||||||||||||||||||||||||||||||||||||||||||||||||||||||||||||||||||||1019.6||1|FM15-METAR|223|ICAO-KCCB|||||||||||||||||||||||||||||||||||||||||||MET062METAR KCCB 250915Z AUTO 00000KT 10SM CLR 12/M12 A3011 RMK AO2=||F||223|ICAO-KCCB
USI0000KCCB|CABLE|2017|12|25|09|35|34.1115|-117.6876|438.6|12.0||1|FM15-METAR|223|ICAO-KCCB|-12.0||1|FM15-METAR|223|ICAO-KCCB|||||||||||||999|C-Calm|9|FM15-METAR|223|ICAO-KCCB|0.0|C-Calm|1|FM15-METAR|223|ICAO-KCCB|||||||||||||18|Derived||FM15-METAR|223|ICAO-KCCB|||||||||||||||||||||||||||||||||||||||||||||||||||||||||||||||||||||||||1019.6||1|FM15-METAR|223|ICAO-KCCB|||||||||||||||||||||||||||||||||||||||||||MET062METAR KCCB 250935Z AUTO 00000KT 10SM CLR 12/M12 A3011 RMK AO2=||F||223|ICAO-KCCB
USI0000KCCB|CABLE|2017|12|25|09|55|34.1115|-117.6876|438.6|12.0||1|FM15-METAR|223|ICAO-KCCB|-12.0||1|FM15-METAR|223|ICAO-KCCB|||||||||||||999|C-Calm|9|FM15-METAR|223|ICAO-KCCB|0.0|C-Calm|1|FM15-METAR|223|ICAO-KCCB|||||||||||||18|Derived||FM15-METAR|223|ICAO-KCCB|||||||||||||||||||||||||||||||||||||||||||||||||||||||||||||||||||||||||1020.0||1|FM15-METAR|223|ICAO-KCCB|||||||||||||||||||||||||||||||||||||||||||MET062METAR KCCB 250955Z AUTO 00000KT 10SM CLR 12/M12 A3012 RMK AO2=||F||223|ICAO-KCCB
USI0000KCCB|CABLE|2017|12|25|10|15|34.1115|-117.6876|438.6|12.0||1|FM15-METAR|223|ICAO-KCCB|-11.0||1|FM15-METAR|223|ICAO-KCCB|||||||||||||999|C-Calm|9|FM15-METAR|223|ICAO-KCCB|0.0|C-Calm|1|FM15-METAR|223|ICAO-KCCB|||||||||||||19|Derived||FM15-METAR|223|ICAO-KCCB|||||||||||||||||||||||||||||||||||||||||||||||||||||||||||||||||||||||||1019.6||1|FM15-METAR|223|ICAO-KCCB|||||||||||||||||||||||||||||||||||||||||||MET062METAR KCCB 251015Z AUTO 00000KT 10SM CLR 12/M11 A3011 RMK AO2=||F||223|ICAO-KCCB
USI0000KCCB|CABLE|2017|12|25|10|35|34.1115|-117.6876|438.6|11.0||1|FM15-METAR|223|ICAO-KCCB|-10.0||1|FM15-METAR|223|ICAO-KCCB|||||||||||||040|N-Normal|1|FM15-METAR|223|ICAO-KCCB|1.5|N-Normal|1|FM15-METAR|223|ICAO-KCCB|||||||||||||22|Derived||FM15-METAR|223|ICAO-KCCB|||||||||||||||||||||||||||||||||||||||||||||||||||||||||||||||||||||||||1019.3||1|FM15-METAR|223|ICAO-KCCB|||||||||||||||||||||||||||||||||||||||||||MET062METAR KCCB 251035Z AUTO 04003KT 10SM CLR 11/M10 A3010 RMK AO2=||F||223|ICAO-KCCB
USI0000KCCB|CABLE|2017|12|25|10|55|34.1115|-117.6876|438.6|12.0||1|FM15-METAR|223|ICAO-KCCB|-10.0||1|FM15-METAR|223|ICAO-KCCB|||||||||||||999|C-Calm|9|FM15-METAR|223|ICAO-KCCB|0.0|C-Calm|1|FM15-METAR|223|ICAO-KCCB|||||||||||||21|Derived||FM15-METAR|223|ICAO-KCCB|||||||||||||||||||||||||||||||||||||||||||||||||||||||||||||||||||||||||1019.3||1|FM15-METAR|223|ICAO-KCCB|||||||||||||||||||||||||||||||||||||||||||MET062METAR KCCB 251055Z AUTO 00000KT 10SM CLR 12/M10 A3010 RMK AO2=||F||223|ICAO-KCCB
USI0000KCCB|CABLE|2017|12|25|11|15|34.1115|-117.6876|438.6|11.0||1|FM15-METAR|223|ICAO-KCCB|-10.0||1|FM15-METAR|223|ICAO-KCCB|||||||||||||030|N-Normal|1|FM15-METAR|223|ICAO-KCCB|3.1|N-Normal|1|FM15-METAR|223|ICAO-KCCB|||||||||||||22|Derived||FM15-METAR|223|ICAO-KCCB|||||||||||||||||||||||||||||||||||||||||||||||||||||||||||||||||||||||||1019.3||1|FM15-METAR|223|ICAO-KCCB|||||||||||||||||||||||||||||||||||||||||||MET062METAR KCCB 251115Z AUTO 03006KT 10SM CLR 11/M10 A3010 RMK AO2=||F||223|ICAO-KCCB
USI0000KCCB|CABLE|2017|12|25|11|35|34.1115|-117.6876|438.6|12.0||1|FM15-METAR|223|ICAO-KCCB|-8.0||1|FM15-METAR|223|ICAO-KCCB|||||||||||||030|N-Normal|1|FM15-METAR|223|ICAO-KCCB|2.1|N-Normal|1|FM15-METAR|223|ICAO-KCCB|||||||||||||24|Derived||FM15-METAR|223|ICAO-KCCB|||||||||||||||||||||||||||||||||||||||||||||||||||||||||||||||||||||||||1019.0||1|FM15-METAR|223|ICAO-KCCB|||||||||||||||||||||||||||||||||||||||||||MET062METAR KCCB 251135Z AUTO 03004KT 10SM CLR 12/M08 A3009 RMK AO2=||F||223|ICAO-KCCB
USI0000KCCB|CABLE|2017|12|25|11|55|34.1115|-117.6876|438.6|11.0||1|FM15-METAR|223|ICAO-KCCB|-9.0||1|FM15-METAR|223|ICAO-KCCB|||||||||||||999|C-Calm|9|FM15-METAR|223|ICAO-KCCB|0.0|C-Calm|1|FM15-METAR|223|ICAO-KCCB|||||||||||||24|Derived||FM15-METAR|223|ICAO-KCCB|||||||||||||||||||||||||||||||||||||||||||||||||||||||||||||||||||||||||1019.0||1|FM15-METAR|223|ICAO-KCCB|||||||||||||||||||||||||||||||||||||||||||MET062METAR KCCB 251155Z AUTO 00000KT 10SM CLR 11/M09 A3009 RMK AO2=||F||223|ICAO-KCCB
USI0000KCCB|CABLE|2017|12|25|12|15|34.1115|-117.6876|438.6|12.0||1|FM15-METAR|223|ICAO-KCCB|-11.0||1|FM15-METAR|223|ICAO-KCCB|||||||||||||999|C-Calm|9|FM15-METAR|223|ICAO-KCCB|0.0|C-Calm|1|FM15-METAR|223|ICAO-KCCB|||||||||||||19|Derived||FM15-METAR|223|ICAO-KCCB|||||||||||||||||||||||||||||||||||||||||||||||||||||||||||||||||||||||||1019.0||1|FM15-METAR|223|ICAO-KCCB|||||||||||||||||||||||||||||||||||||||||||MET062METAR KCCB 251215Z AUTO 00000KT 10SM CLR 12/M11 A3009 RMK AO2=||F||223|ICAO-KCCB
USI0000KCCB|CABLE|2017|12|25|12|35|34.1115|-117.6876|438.6|11.0||1|FM15-METAR|223|ICAO-KCCB|-11.0||1|FM15-METAR|223|ICAO-KCCB|||||||||||||040|N-Normal|1|FM15-METAR|223|ICAO-KCCB|1.5|N-Normal|1|FM15-METAR|223|ICAO-KCCB|||||||||||||20|Derived||FM15-METAR|223|ICAO-KCCB|||||||||||||||||||||||||||||||||||||||||||||||||||||||||||||||||||||||||1019.0||1|FM15-METAR|223|ICAO-KCCB|||||||||||||||||||||||||||||||||||||||||||MET062METAR KCCB 251235Z AUTO 04003KT 10SM CLR 11/M11 A3009 RMK AO2=||F||223|ICAO-KCCB
USI0000KCCB|CABLE|2017|12|25|12|55|34.1115|-117.6876|438.6|11.0||1|FM15-METAR|223|ICAO-KCCB|-11.0||1|FM15-METAR|223|ICAO-KCCB|||||||||||||040|N-Normal|1|FM15-METAR|223|ICAO-KCCB|1.5|N-Normal|1|FM15-METAR|223|ICAO-KCCB|||||||||||||20|Derived||FM15-METAR|223|ICAO-KCCB|||||||||||||||||||||||||||||||||||||||||||||||||||||||||||||||||||||||||1019.0||1|FM15-METAR|223|ICAO-KCCB|||||||||||||||||||||||||||||||||||||||||||MET062METAR KCCB 251255Z AUTO 04003KT 10SM CLR 11/M11 A3009 RMK AO2=||F||223|ICAO-KCCB
USI0000KCCB|CABLE|2017|12|25|13|15|34.1115|-117.6876|438.6|12.0||1|FM15-METAR|223|ICAO-KCCB|-12.0||1|FM15-METAR|223|ICAO-KCCB|||||||||||||030|N-Normal|1|FM15-METAR|223|ICAO-KCCB|2.6|N-Normal|1|FM15-METAR|223|ICAO-KCCB|||||||||||||18|Derived||FM15-METAR|223|ICAO-KCCB|||||||||||||||||||||||||||||||||||||||||||||||||||||||||||||||||||||||||1019.0||1|FM15-METAR|223|ICAO-KCCB|||||||||||||||||||||||||||||||||||||||||||MET062METAR KCCB 251315Z AUTO 03005KT 10SM CLR 12/M12 A3009 RMK AO2=||F||223|ICAO-KCCB
USI0000KCCB|CABLE|2017|12|25|13|35|34.1115|-117.6876|438.6|12.0||1|FM15-METAR|223|ICAO-KCCB|-12.0||1|FM15-METAR|223|ICAO-KCCB|||||||||||||999|C-Calm|9|FM15-METAR|223|ICAO-KCCB|0.0|C-Calm|1|FM15-METAR|223|ICAO-KCCB|||||||||||||18|Derived||FM15-METAR|223|ICAO-KCCB|||||||||||||||||||||||||||||||||||||||||||||||||||||||||||||||||||||||||1019.0||1|FM15-METAR|223|ICAO-KCCB|||||||||||||||||||||||||||||||||||||||||||MET062METAR KCCB 251335Z AUTO 00000KT 10SM CLR 12/M12 A3009 RMK AO2=||F||223|ICAO-KCCB
USI0000KCCB|CABLE|2017|12|25|13|55|34.1115|-117.6876|438.6|12.0||1|FM15-METAR|223|ICAO-KCCB|-12.0||1|FM15-METAR|223|ICAO-KCCB|||||||||||||050|N-Normal|1|FM15-METAR|223|ICAO-KCCB|2.1|N-Normal|1|FM15-METAR|223|ICAO-KCCB|||||||||||||18|Derived||FM15-METAR|223|ICAO-KCCB|||||||||||||||||||||||||||||||||||||||||||||||||||||||||||||||||||||||||1019.3||1|FM15-METAR|223|ICAO-KCCB|||||||||||||||||||||||||||||||||||||||||||MET062METAR KCCB 251355Z AUTO 05004KT 10SM CLR 12/M12 A3010 RMK AO2=||F||223|ICAO-KCCB
USI0000KCCB|CABLE|2017|12|25|14|15|34.1115|-117.6876|438.6|11.0||1|FM15-METAR|223|ICAO-KCCB|-12.0||1|FM15-METAR|223|ICAO-KCCB|||||||||||||999|C-Calm|9|FM15-METAR|223|ICAO-KCCB|0.0|C-Calm|1|FM15-METAR|223|ICAO-KCCB|||||||||||||19|Derived||FM15-METAR|223|ICAO-KCCB|||||||||||||||||||||||||||||||||||||||||||||||||||||||||||||||||||||||||1019.6||1|FM15-METAR|223|ICAO-KCCB|||||||||||||||||||||||||||||||||||||||||||MET062METAR KCCB 251415Z AUTO 00000KT 10SM CLR 11/M12 A3011 RMK AO2=||F||223|ICAO-KCCB
USI0000KCCB|CABLE|2017|12|25|14|35|34.1115|-117.6876|438.6|11.0||1|FM15-METAR|223|ICAO-KCCB|-12.0||1|FM15-METAR|223|ICAO-KCCB|||||||||||||999|C-Calm|9|FM15-METAR|223|ICAO-KCCB|0.0|C-Calm|1|FM15-METAR|223|ICAO-KCCB|||||||||||||19|Derived||FM15-METAR|223|ICAO-KCCB|||||||||||||||||||||||||||||||||||||||||||||||||||||||||||||||||||||||||1019.6||1|FM15-METAR|223|ICAO-KCCB|||||||||||||||||||||||||||||||||||||||||||MET062METAR KCCB 251435Z AUTO 00000KT 10SM CLR 11/M12 A3011 RMK AO2=||F||223|ICAO-KCCB
USI0000KCCB|CABLE|2017|12|25|14|55|34.1115|-117.6876|438.6|10.0||1|FM15-METAR|223|ICAO-KCCB|-10.0||1|FM15-METAR|223|ICAO-KCCB|||||||||||||100|N-Normal|1|FM15-METAR|223|ICAO-KCCB|2.1|N-Normal|1|FM15-METAR|223|ICAO-KCCB|||||||||||||24|Derived||FM15-METAR|223|ICAO-KCCB|||||||||||||||||||||||||||||||||||||||||||||||||||||||||||||||||||||||||1019.6||1|FM15-METAR|223|ICAO-KCCB|||||||||||||||||||||||||||||||||||||||||||MET062METAR KCCB 251455Z AUTO 10004KT 10SM CLR 10/M10 A3011 RMK AO2=||F||223|ICAO-KCCB
USI0000KCCB|CABLE|2017|12|25|15|15|34.1115|-117.6876|438.6|11.0||1|FM15-METAR|223|ICAO-KCCB|-10.0||1|FM15-METAR|223|ICAO-KCCB|||||||||||||050|N-Normal|1|FM15-METAR|223|ICAO-KCCB|2.1|N-Normal|1|FM15-METAR|223|ICAO-KCCB|||||||||||||22|Derived||FM15-METAR|223|ICAO-KCCB|||||||||||||||||||||||||||||||||||||||||||||||||||||||||||||||||||||||||1020.0||1|FM15-METAR|223|ICAO-KCCB|||||||||||||||||||||||||||||||||||||||||||MET062METAR KCCB 251515Z AUTO 05004KT 10SM CLR 11/M10 A3012 RMK AO2=||F||223|ICAO-KCCB
USI0000KCCB|CABLE|2017|12|25|15|35|34.1115|-117.6876|438.6|11.0||1|FM15-METAR|223|ICAO-KCCB|-12.0||1|FM15-METAR|223|ICAO-KCCB|||||||||||||010|N-Normal|1|FM15-METAR|223|ICAO-KCCB|2.1|N-Normal|1|FM15-METAR|223|ICAO-KCCB|||||||||||||19|Derived||FM15-METAR|223|ICAO-KCCB|||||||||||||||||||||||||||||||||||||||||||||||||||||||||||||||||||||||||1020.0||1|FM15-METAR|223|ICAO-KCCB|||||||||||||||||||||||||||||||||||||||||||MET062METAR KCCB 251535Z AUTO 01004KT 10SM CLR 11/M12 A3012 RMK AO2=||F||223|ICAO-KCCB
USI0000KCCB|CABLE|2017|12|25|15|55|34.1115|-117.6876|438.6|12.0||1|FM15-METAR|223|ICAO-KCCB|-12.0||1|FM15-METAR|223|ICAO-KCCB|||||||||||||999|C-Calm|9|FM15-METAR|223|ICAO-KCCB|0.0|C-Calm|1|FM15-METAR|223|ICAO-KCCB|||||||||||||18|Derived||FM15-METAR|223|ICAO-KCCB|||||||||||||||||||||||||||||||||||||||||||||||||||||||||||||||||||||||||1020.0||1|FM15-METAR|223|ICAO-KCCB|||||||||||||||||||||||||||||||||||||||||||MET062METAR KCCB 251555Z AUTO 00000KT 10SM CLR 12/M12 A3012 RMK AO2=||F||223|ICAO-KCCB
USI0000KCCB|CABLE|2017|12|25|16|15|34.1115|-117.6876|438.6|13.0||1|FM15-METAR|223|ICAO-KCCB|-12.0||1|FM15-METAR|223|ICAO-KCCB|||||||||||||999|C-Calm|9|FM15-METAR|223|ICAO-KCCB|0.0|C-Calm|1|FM15-METAR|223|ICAO-KCCB|||||||||||||16|Derived||FM15-METAR|223|ICAO-KCCB|||||||||||||||||||||||||||||||||||||||||||||||||||||||||||||||||||||||||1020.0||1|FM15-METAR|223|ICAO-KCCB|||||||||||||||||||||||||||||||||||||||||||MET062METAR KCCB 251615Z AUTO 00000KT 10SM CLR 13/M12 A3012 RMK AO2=||F||223|ICAO-KCCB
USI0000KCCB|CABLE|2017|12|25|16|35|34.1115|-117.6876|438.6|13.0||1|FM15-METAR|223|ICAO-KCCB|-10.0||1|FM15-METAR|223|ICAO-KCCB|||||||||||||999|C-Calm|9|FM15-METAR|223|ICAO-KCCB|0.0|C-Calm|1|FM15-METAR|223|ICAO-KCCB|||||||||||||19|Derived||FM15-METAR|223|ICAO-KCCB|||||||||||||||||||||||||||||||||||||||||||||||||||||||||||||||||||||||||1020.3||1|FM15-METAR|223|ICAO-KCCB|||||||||||||||||||||||||||||||||||||||||||MET062METAR KCCB 251635Z AUTO 00000KT 10SM CLR 13/M10 A3013 RMK AO2=||F||223|ICAO-KCCB
USI0000KCCB|CABLE|2017|12|25|16|55|34.1115|-117.6876|438.6|14.0||1|FM15-METAR|223|ICAO-KCCB|-8.0||1|FM15-METAR|223|ICAO-KCCB|||||||||||||999|C-Calm|9|FM15-METAR|223|ICAO-KCCB|0.0|C-Calm|1|FM15-METAR|223|ICAO-KCCB|||||||||||||21|Derived||FM15-METAR|223|ICAO-KCCB|||||||||||||||||||||||||||||||||||||||||||||||||||||||||||||||||||||||||1020.3||1|FM15-METAR|223|ICAO-KCCB|||||||||||||||||||||||||||||||||||||||||||MET062METAR KCCB 251655Z AUTO 00000KT 10SM CLR 14/M08 A3013 RMK AO2=||F||223|ICAO-KCCB
USI0000KCCB|CABLE|2017|12|25|17|15|34.1115|-117.6876|438.6|15.0||1|FM15-METAR|223|ICAO-KCCB|-8.0||1|FM15-METAR|223|ICAO-KCCB|||||||||||||999|C-Calm|9|FM15-METAR|223|ICAO-KCCB|0.0|C-Calm|1|FM15-METAR|223|ICAO-KCCB|||||||||||||20|Derived||FM15-METAR|223|ICAO-KCCB|||||||||||||||||||||||||||||||||||||||||||||||||||||||||||||||||||||||||1020.7||1|FM15-METAR|223|ICAO-KCCB|||||||||||||||||||||||||||||||||||||||||||MET062METAR KCCB 251715Z AUTO 00000KT 10SM CLR 15/M08 A3014 RMK AO2=||F||223|ICAO-KCCB
USI0000KCCB|CABLE|2017|12|25|17|35|34.1115|-117.6876|438.6|16.0||1|FM15-METAR|223|ICAO-KCCB|-9.0||1|FM15-METAR|223|ICAO-KCCB|||||||||||||999|C-Calm|9|FM15-METAR|223|ICAO-KCCB|0.0|C-Calm|1|FM15-METAR|223|ICAO-KCCB|||||||||||||17|Derived||FM15-METAR|223|ICAO-KCCB|||||||||||||||||||||||||||||||||||||||||||||||||||||||||||||||||||||||||1020.7||1|FM15-METAR|223|ICAO-KCCB|||||||||||||||||||||||||||||||||||||||||||MET062METAR KCCB 251735Z AUTO 00000KT 10SM CLR 16/M09 A3014 RMK AO2=||F||223|ICAO-KCCB
USI0000KCCB|CABLE|2017|12|25|17|55|34.1115|-117.6876|438.6|16.0||1|FM15-METAR|223|ICAO-KCCB|-8.0||1|FM15-METAR|223|ICAO-KCCB|||||||||||||999|C-Calm|9|FM15-METAR|223|ICAO-KCCB|0.0|C-Calm|1|FM15-METAR|223|ICAO-KCCB|||||||||||||19|Derived||FM15-METAR|223|ICAO-KCCB|||||||||||||||||||||||||||||||||||||||||||||||||||||||||||||||||||||||||1020.7||1|FM15-METAR|223|ICAO-KCCB|||||||||||||||||||||||||||||||||||||||||||MET062METAR KCCB 251755Z AUTO 00000KT 10SM CLR 16/M08 A3014 RMK AO2=||F||223|ICAO-KCCB
USI0000KCCB|CABLE|2017|12|25|18|15|34.1115|-117.6876|438.6|17.0||1|FM15-METAR|223|ICAO-KCCB|-7.0||1|FM15-METAR|223|ICAO-KCCB|||||||||||||999|C-Calm|9|FM15-METAR|223|ICAO-KCCB|0.0|C-Calm|1|FM15-METAR|223|ICAO-KCCB|||||||||||||19|Derived||FM15-METAR|223|ICAO-KCCB|||||||||||||||||||||||||||||||||||||||||||||||||||||||||||||||||||||||||1020.3||1|FM15-METAR|223|ICAO-KCCB|||||||||||||||||||||||||||||||||||||||||||MET061METAR KCCB 251815Z AUTO 00000KT 9SM CLR 17/M07 A3013 RMK AO2=||F||223|ICAO-KCCB
USI0000KCCB|CABLE|2017|12|25|18|35|34.1115|-117.6876|438.6|18.0||1|FM15-METAR|223|ICAO-KCCB|-8.0||1|FM15-METAR|223|ICAO-KCCB|||||||||||||999|C-Calm|9|FM15-METAR|223|ICAO-KCCB|0.0|C-Calm|1|FM15-METAR|223|ICAO-KCCB|||||||||||||16|Derived||FM15-METAR|223|ICAO-KCCB|||||||||||||||||||||||||||||||||||||||||||||||||||||||||||||||||||||||||1020.3||1|FM15-METAR|223|ICAO-KCCB|||||||||||||||||||||||||||||||||||||||||||MET062METAR KCCB 251835Z AUTO 00000KT 10SM CLR 18/M08 A3013 RMK AO2=||F||223|ICAO-KCCB
USI0000KCCB|CABLE|2017|12|25|18|55|34.1115|-117.6876|438.6|17.0||1|FM15-METAR|223|ICAO-KCCB|-7.0||1|FM15-METAR|223|ICAO-KCCB|||||||||||||999|C-Calm|9|FM15-METAR|223|ICAO-KCCB|0.0|C-Calm|1|FM15-METAR|223|ICAO-KCCB|||||||||||||19|Derived||FM15-METAR|223|ICAO-KCCB|||||||||||||||||||||||||||||||||||||||||||||||||||||||||||||||||||||||||1020.3||1|FM15-METAR|223|ICAO-KCCB|||||||||||||||||||||||||||||||||||||||||||MET062METAR KCCB 251855Z AUTO 00000KT 10SM CLR 17/M07 A3013 RMK AO2=||F||223|ICAO-KCCB
USI0000KCCB|CABLE|2017|12|25|19|15|34.1115|-117.6876|438.6|18.0||1|FM15-METAR|223|ICAO-KCCB|-8.0||1|FM15-METAR|223|ICAO-KCCB|||||||||||||999|C-Calm|9|FM15-METAR|223|ICAO-KCCB|0.0|C-Calm|1|FM15-METAR|223|ICAO-KCCB|||||||||||||16|Derived||FM15-METAR|223|ICAO-KCCB|||||||||||||||||||||||||||||||||||||||||||||||||||||||||||||||||||||||||1020.0||1|FM15-METAR|223|ICAO-KCCB|||||||||||||||||||||||||||||||||||||||||||MET062METAR KCCB 251915Z AUTO 00000KT 10SM CLR 18/M08 A3012 RMK AO2=||F||223|ICAO-KCCB
USI0000KCCB|CABLE|2017|12|25|19|35|34.1115|-117.6876|438.6|19.0||1|FM15-METAR|223|ICAO-KCCB|-7.0||1|FM15-METAR|223|ICAO-KCCB|||||||||||||999|C-Calm|9|FM15-METAR|223|ICAO-KCCB|0.0|C-Calm|1|FM15-METAR|223|ICAO-KCCB|||||||||||||17|Derived||FM15-METAR|223|ICAO-KCCB|||||||||||||||||||||||||||||||||||||||||||||||||||||||||||||||||||||||||1019.6||1|FM15-METAR|223|ICAO-KCCB|||||||||||||||||||||||||||||||||||||||||||MET062METAR KCCB 251935Z AUTO 00000KT 10SM CLR 19/M07 A3011 RMK AO2=||F||223|ICAO-KCCB
USI0000KCCB|CABLE|2017|12|25|19|55|34.1115|-117.6876|438.6|19.0||1|FM15-METAR|223|ICAO-KCCB|-9.0||1|FM15-METAR|223|ICAO-KCCB|||||||||||||999|V-Variable|9|FM15-METAR|223|ICAO-KCCB|1.5|V-Variable|1|FM15-METAR|223|ICAO-KCCB|||||||||||||14|Derived||FM15-METAR|223|ICAO-KCCB|||||||||||||||||||||||||||||||||||||||||||||||||||||||||||||||||||||||||1019.3||1|FM15-METAR|223|ICAO-KCCB|||||||||||||||||||||||||||||||||||||||||||MET062METAR KCCB 251955Z AUTO VRB03KT 10SM CLR 19/M09 A3010 RMK AO2=||F||223|ICAO-KCCB
USI0000KCCB|CABLE|2017|12|25|20|15|34.1115|-117.6876|438.6|19.0||1|FM15-METAR|223|ICAO-KCCB|-11.0||1|FM15-METAR|223|ICAO-KCCB|||||||||||||999|C-Calm|9|FM15-METAR|223|ICAO-KCCB|0.0|C-Calm|1|FM15-METAR|223|ICAO-KCCB|||||||||||||12|Derived||FM15-METAR|223|ICAO-KCCB|||||||||||||||||||||||||||||||||||||||||||||||||||||||||||||||||||||||||1019.0||1|FM15-METAR|223|ICAO-KCCB|||||||||||||||||||||||||||||||||||||||||||MET062METAR KCCB 252015Z AUTO 00000KT 10SM CLR 19/M11 A3009 RMK AO2=||F||223|ICAO-KCCB
USI0000KCCB|CABLE|2017|12|25|20|35|34.1115|-117.6876|438.6|19.0||1|FM15-METAR|223|ICAO-KCCB|-11.0||1|FM15-METAR|223|ICAO-KCCB|||||||||||||220|N-Normal|1|FM15-METAR|223|ICAO-KCCB|2.1|N-Normal|1|FM15-METAR|223|ICAO-KCCB|||||||||||||12|Derived||FM15-METAR|223|ICAO-KCCB|||||||||||||||||||||||||||||||||||||||||||||||||||||||||||||||||||||||||1018.6||1|FM15-METAR|223|ICAO-KCCB|||||||||||||||||||||||||||||||||||||||||||MET062METAR KCCB 252035Z AUTO 22004KT 10SM CLR 19/M11 A3008 RMK AO2=||F||223|ICAO-KCCB
USI0000KCCB|CABLE|2017|12|25|20|55|34.1115|-117.6876|438.6|20.0||1|FM15-METAR|223|ICAO-KCCB|-11.0||1|FM15-METAR|223|ICAO-KCCB|||||||||||||999|C-Calm|9|FM15-METAR|223|ICAO-KCCB|0.0|C-Calm|1|FM15-METAR|223|ICAO-KCCB|||||||||||||11|Derived||FM15-METAR|223|ICAO-KCCB|||||||||||||||||||||||||||||||||||||||||||||||||||||||||||||||||||||||||1018.3||1|FM15-METAR|223|ICAO-KCCB|||||||||||||||||||||||||||||||||||||||||||MET062METAR KCCB 252055Z AUTO 00000KT 10SM CLR 20/M11 A3007 RMK AO2=||F||223|ICAO-KCCB
USI0000KCCB|CABLE|2017|12|25|21|15|34.1115|-117.6876|438.6|20.0||1|FM15-METAR|223|ICAO-KCCB|-11.0||1|FM15-METAR|223|ICAO-KCCB|||||||||||||210|N-Normal|1|FM15-METAR|223|ICAO-KCCB|2.1|N-Normal|1|FM15-METAR|223|ICAO-KCCB|||||||||||||11|Derived||FM15-METAR|223|ICAO-KCCB|||||||||||||||||||||||||||||||||||||||||||||||||||||||||||||||||||||||||1018.3||1|FM15-METAR|223|ICAO-KCCB|||||||||||||||||||||||||||||||||||||||||||MET062METAR KCCB 252115Z AUTO 21004KT 10SM CLR 20/M11 A3007 RMK AO2=||F||223|ICAO-KCCB
USI0000KCCB|CABLE|2017|12|25|21|35|34.1115|-117.6876|438.6|20.0||1|FM15-METAR|223|ICAO-KCCB|-11.0||1|FM15-METAR|223|ICAO-KCCB|||||||||||||999|C-Calm|9|FM15-METAR|223|ICAO-KCCB|0.0|C-Calm|1|FM15-METAR|223|ICAO-KCCB|||||||||||||11|Derived||FM15-METAR|223|ICAO-KCCB|||||||||||||||||||||||||||||||||||||||||||||||||||||||||||||||||||||||||1018.3||1|FM15-METAR|223|ICAO-KCCB|||||||||||||||||||||||||||||||||||||||||||MET062METAR KCCB 252135Z AUTO 00000KT 10SM CLR 20/M11 A3007 RMK AO2=||F||223|ICAO-KCCB
USI0000KCCB|CABLE|2017|12|25|21|55|34.1115|-117.6876|438.6|21.0||1|FM15-METAR|223|ICAO-KCCB|-12.0||1|FM15-METAR|223|ICAO-KCCB|||||||||||||999|V-Variable|9|FM15-METAR|223|ICAO-KCCB|1.5|V-Variable|1|FM15-METAR|223|ICAO-KCCB|||||||||||||10|Derived||FM15-METAR|223|ICAO-KCCB|||||||||||||||||||||||||||||||||||||||||||||||||||||||||||||||||||||||||1017.9||1|FM15-METAR|223|ICAO-KCCB|||||||||||||||||||||||||||||||||||||||||||MET062METAR KCCB 252155Z AUTO VRB03KT 10SM CLR 21/M12 A3006 RMK AO2=||F||223|ICAO-KCCB
USI0000KCCB|CABLE|2017|12|25|22|15|34.1115|-117.6876|438.6|20.0||1|FM15-METAR|223|ICAO-KCCB|-14.0||1|FM15-METAR|223|ICAO-KCCB|||||||||||||999|C-Calm|9|FM15-METAR|223|ICAO-KCCB|0.0|C-Calm|1|FM15-METAR|223|ICAO-KCCB|||||||||||||9|Derived||FM15-METAR|223|ICAO-KCCB|||||||||||||||||||||||||||||||||||||||||||||||||||||||||||||||||||||||||1017.9||1|FM15-METAR|223|ICAO-KCCB|||||||||||||||||||||||||||||||||||||||||||MET062METAR KCCB 252215Z AUTO 00000KT 10SM CLR 20/M14 A3006 RMK AO2=||F||223|ICAO-KCCB
USI0000KCCB|CABLE|2017|12|25|22|35|34.1115|-117.6876|438.6|20.0||1|FM15-METAR|223|ICAO-KCCB|-13.0||1|FM15-METAR|223|ICAO-KCCB|||||||||||||250|N-Normal|1|FM15-METAR|223|ICAO-KCCB|2.1|N-Normal|1|FM15-METAR|223|ICAO-KCCB|||||||||||||10|Derived||FM15-METAR|223|ICAO-KCCB|||||||||||||||||||||||||||||||||||||||||||||||||||||||||||||||||||||||||1017.9||1|FM15-METAR|223|ICAO-KCCB|||||||||||||||||||||||||||||||||||||||||||MET062METAR KCCB 252235Z AUTO 25004KT 10SM CLR 20/M13 A3006 RMK AO2=||F||223|ICAO-KCCB
USI0000KCCB|CABLE|2017|12|25|22|55|34.1115|-117.6876|438.6|20.0||1|FM15-METAR|223|ICAO-KCCB|-12.0||1|FM15-METAR|223|ICAO-KCCB|||||||||||||230|N-Normal|1|FM15-METAR|223|ICAO-KCCB|1.5|N-Normal|1|FM15-METAR|223|ICAO-KCCB|||||||||||||10|Derived||FM15-METAR|223|ICAO-KCCB|||||||||||||||||||||||||||||||||||||||||||||||||||||||||||||||||||||||||1017.9||1|FM15-METAR|223|ICAO-KCCB|||||||||||||||||||||||||||||||||||||||||||MET062METAR KCCB 252255Z AUTO 23003KT 10SM CLR 20/M12 A3006 RMK AO2=||F||223|ICAO-KCCB
USI0000KCCB|CABLE|2017|12|25|23|15|34.1115|-117.6876|438.6|20.0||1|FM15-METAR|223|ICAO-KCCB|-4.0||2|FM15-METAR|223|ICAO-KCCB|||||||||||||280|N-Normal|1|FM15-METAR|223|ICAO-KCCB|2.6|N-Normal|1|FM15-METAR|223|ICAO-KCCB|||||||||||||20|Derived|f|FM15-METAR|223|ICAO-KCCB|||||||||||||||||||||||||||||||||||||||||||||||||||||||||||||||||||||||||1017.9||1|FM15-METAR|223|ICAO-KCCB|||||||||||||||||||||||||||||||||||||||||||MET061METAR KCCB 252315Z AUTO 28005KT 9SM CLR 20/M04 A3006 RMK AO2=||F||223|ICAO-KCCB
USI0000KCCB|CABLE|2017|12|25|23|35|34.1115|-117.6876|438.6|20.0||1|FM15-METAR|223|ICAO-KCCB|-4.0||1|FM15-METAR|223|ICAO-KCCB|||||||||||||270|N-Normal|1|FM15-METAR|223|ICAO-KCCB|3.1|N-Normal|1|FM15-METAR|223|ICAO-KCCB|||||||||||||20|Derived||FM15-METAR|223|ICAO-KCCB|||||||||||||||||||||||||||||||||||||||||||||||||||||||||||||||||||||||||1017.9||1|FM15-METAR|223|ICAO-KCCB|||||||||||||||||||||||||||||||||||||||||||MET061METAR KCCB 252335Z AUTO 27006KT 8SM CLR 20/M04 A3006 RMK AO2=||F||223|ICAO-KCCB
USI0000KCCB|CABLE|2017|12|25|23|55|34.1115|-117.6876|438.6|19.0||1|FM15-METAR|223|ICAO-KCCB|-4.0||1|FM15-METAR|223|ICAO-KCCB|||||||||||||270|N-Normal|1|FM15-METAR|223|ICAO-KCCB|3.1|N-Normal|1|FM15-METAR|223|ICAO-KCCB|||||||||||||21|Derived||FM15-METAR|223|ICAO-KCCB|||||||||||||||||||||||||||||||||||||||||||||||||||||||||||||||||||||||||1017.9||1|FM15-METAR|223|ICAO-KCCB|||||||||||||||||||||||||||||||||||||||||||MET061METAR KCCB 252355Z AUTO 27006KT 8SM CLR 19/M04 A3006 RMK AO2=||F||223|ICAO-KCCB
USI0000KCCB|CABLE|2017|12|26|00|15|34.1115|-117.6876|438.6|19.0||1|FM15-METAR|223|ICAO-KCCB|-4.0||1|FM15-METAR|223|ICAO-KCCB|||||||||||||290|N-Normal|1|FM15-METAR|223|ICAO-KCCB|2.6|N-Normal|1|FM15-METAR|223|ICAO-KCCB|||||||||||||21|Derived||FM15-METAR|223|ICAO-KCCB|||||||||||||||||||||||||||||||||||||||||||||||||||||||||||||||||||||||||1017.9||1|FM15-METAR|223|ICAO-KCCB|||||||||||||||||||||||||||||||||||||||||||MET061METAR KCCB 260015Z AUTO 29005KT 8SM CLR 19/M04 A3006 RMK AO2=||F||223|ICAO-KCCB
USI0000KCCB|CABLE|2017|12|26|00|35|34.1115|-117.6876|438.6|18.0||1|FM15-METAR|223|ICAO-KCCB|-4.0||1|FM15-METAR|223|ICAO-KCCB|||||||||||||999|C-Calm|9|FM15-METAR|223|ICAO-KCCB|0.0|C-Calm|1|FM15-METAR|223|ICAO-KCCB|||||||||||||22|Derived||FM15-METAR|223|ICAO-KCCB|||||||||||||||||||||||||||||||||||||||||||||||||||||||||||||||||||||||||1017.9||1|FM15-METAR|223|ICAO-KCCB|||||||||||||||||||||||||||||||||||||||||||MET061METAR KCCB 260035Z AUTO 00000KT 7SM CLR 18/M04 A3006 RMK AO2=||F||223|ICAO-KCCB
USI0000KCCB|CABLE|2017|12|26|00|55|34.1115|-117.6876|438.6|18.0||1|FM15-METAR|223|ICAO-KCCB|-4.0||1|FM15-METAR|223|ICAO-KCCB|||||||||||||999|C-Calm|9|FM15-METAR|223|ICAO-KCCB|0.0|C-Calm|1|FM15-METAR|223|ICAO-KCCB|||||||||||||22|Derived||FM15-METAR|223|ICAO-KCCB|||||||||||||||||||||||||||||||||||||||||||||||||||||||||||||||||||||||||1017.9||1|FM15-METAR|223|ICAO-KCCB|||||||||||||||||||||||||||||||||||||||||||MET061METAR KCCB 260055Z AUTO 00000KT 7SM CLR 18/M04 A3006 RMK AO2=||F||223|ICAO-KCCB
USI0000KCCB|CABLE|2017|12|26|01|15|34.1115|-117.6876|438.6|17.0||1|FM15-METAR|223|ICAO-KCCB|-3.0||1|FM15-METAR|223|ICAO-KCCB|||||||||||||999|C-Calm|9|FM15-METAR|223|ICAO-KCCB|0.0|C-Calm|1|FM15-METAR|223|ICAO-KCCB|||||||||||||25|Derived||FM15-METAR|223|ICAO-KCCB|||||||||||||||||||||||||||||||||||||||||||||||||||||||||||||||||||||||||1017.9||1|FM15-METAR|223|ICAO-KCCB|||||||||||||||||||||||||||||||||||||||||||MET061METAR KCCB 260115Z AUTO 00000KT 9SM CLR 17/M03 A3006 RMK AO2=||F||223|ICAO-KCCB
USI0000KCCB|CABLE|2017|12|26|01|35|34.1115|-117.6876|438.6|16.0||1|FM15-METAR|223|ICAO-KCCB|-4.0||1|FM15-METAR|223|ICAO-KCCB|||||||||||||999|C-Calm|9|FM15-METAR|223|ICAO-KCCB|0.0|C-Calm|1|FM15-METAR|223|ICAO-KCCB|||||||||||||25|Derived||FM15-METAR|223|ICAO-KCCB|||||||||||||||||||||||||||||||||||||||||||||||||||||||||||||||||||||||||1017.9||1|FM15-METAR|223|ICAO-KCCB|||||||||||||||||||||||||||||||||||||||||||MET061METAR KCCB 260135Z AUTO 00000KT 9SM CLR 16/M04 A3006 RMK AO2=||F||223|ICAO-KCCB
USI0000KCCB|CABLE|2017|12|26|01|55|34.1115|-117.6876|438.6|16.0||1|FM15-METAR|223|ICAO-KCCB|-4.0||1|FM15-METAR|223|ICAO-KCCB|||||||||||||360|N-Normal|1|FM15-METAR|223|ICAO-KCCB|1.5|N-Normal|1|FM15-METAR|223|ICAO-KCCB|||||||||||||25|Derived||FM15-METAR|223|ICAO-KCCB|||||||||||||||||||||||||||||||||||||||||||||||||||||||||||||||||||||||||1017.9||1|FM15-METAR|223|ICAO-KCCB|||||||||||||||||||||||||||||||||||||||||||MET062METAR KCCB 260155Z AUTO 36003KT 10SM CLR 16/M04 A3006 RMK AO2=||F||223|ICAO-KCCB
USI0000KCCB|CABLE|2017|12|26|02|15|34.1115|-117.6876|438.6|16.0||1|FM15-METAR|223|ICAO-KCCB|-5.0||1|FM15-METAR|223|ICAO-KCCB|||||||||||||020|N-Normal|1|FM15-METAR|223|ICAO-KCCB|2.6|N-Normal|1|FM15-METAR|223|ICAO-KCCB|||||||||||||23|Derived||FM15-METAR|223|ICAO-KCCB|||||||||||||||||||||||||||||||||||||||||||||||||||||||||||||||||||||||||1017.9||1|FM15-METAR|223|ICAO-KCCB|||||||||||||||||||||||||||||||||||||||||||MET062METAR KCCB 260215Z AUTO 02005KT 10SM CLR 16/M05 A3006 RMK AO2=||F||223|ICAO-KCCB
USI0000KCCB|CABLE|2017|12|26|02|35|34.1115|-117.6876|438.6|16.0||1|FM15-METAR|223|ICAO-KCCB|-7.0||1|FM15-METAR|223|ICAO-KCCB|||||||||||||030|N-Normal|1|FM15-METAR|223|ICAO-KCCB|2.1|N-Normal|1|FM15-METAR|223|ICAO-KCCB|||||||||||||20|Derived||FM15-METAR|223|ICAO-KCCB|||||||||||||||||||||||||||||||||||||||||||||||||||||||||||||||||||||||||1017.9||1|FM15-METAR|223|ICAO-KCCB|||||||||||||||||||||||||||||||||||||||||||MET062METAR KCCB 260235Z AUTO 03004KT 10SM CLR 16/M07 A3006 RMK AO2=||F||223|ICAO-KCCB
USI0000KCCB|CABLE|2017|12|26|02|55|34.1115|-117.6876|438.6|16.0||1|FM15-METAR|223|ICAO-KCCB|-8.0||1|FM15-METAR|223|ICAO-KCCB|||||||||||||999|C-Calm|9|FM15-METAR|223|ICAO-KCCB|0.0|C-Calm|1|FM15-METAR|223|ICAO-KCCB|||||||||||||19|Derived||FM15-METAR|223|ICAO-KCCB|||||||||||||||||||||||||||||||||||||||||||||||||||||||||||||||||||||||||1017.9||1|FM15-METAR|223|ICAO-KCCB|||||||||||||||||||||||||||||||||||||||||||MET062METAR KCCB 260255Z AUTO 00000KT 10SM CLR 16/M08 A3006 RMK AO2=||F||223|ICAO-KCCB
USI0000KCCB|CABLE|2017|12|26|03|15|34.1115|-117.6876|438.6|15.0||1|FM15-METAR|223|ICAO-KCCB|-8.0||1|FM15-METAR|223|ICAO-KCCB|||||||||||||999|C-Calm|9|FM15-METAR|223|ICAO-KCCB|0.0|C-Calm|1|FM15-METAR|223|ICAO-KCCB|||||||||||||20|Derived||FM15-METAR|223|ICAO-KCCB|||||||||||||||||||||||||||||||||||||||||||||||||||||||||||||||||||||||||1017.9||1|FM15-METAR|223|ICAO-KCCB|||||||||||||||||||||||||||||||||||||||||||MET062METAR KCCB 260315Z AUTO 00000KT 10SM CLR 15/M08 A3006 RMK AO2=||F||223|ICAO-KCCB
USI0000KCCB|CABLE|2017|12|26|03|35|34.1115|-117.6876|438.6|16.0||1|FM15-METAR|223|ICAO-KCCB|-9.0||1|FM15-METAR|223|ICAO-KCCB|||||||||||||999|C-Calm|9|FM15-METAR|223|ICAO-KCCB|0.0|C-Calm|1|FM15-METAR|223|ICAO-KCCB|||||||||||||17|Derived||FM15-METAR|223|ICAO-KCCB|||||||||||||||||||||||||||||||||||||||||||||||||||||||||||||||||||||||||1018.3||1|FM15-METAR|223|ICAO-KCCB|||||||||||||||||||||||||||||||||||||||||||MET062METAR KCCB 260335Z AUTO 00000KT 10SM CLR 16/M09 A3007 RMK AO2=||F||223|ICAO-KCCB
USI0000KCCB|CABLE|2017|12|26|03|55|34.1115|-117.6876|438.6|15.0||1|FM15-METAR|223|ICAO-KCCB|-9.0||1|FM15-METAR|223|ICAO-KCCB|||||||||||||020|N-Normal|1|FM15-METAR|223|ICAO-KCCB|2.1|N-Normal|1|FM15-METAR|223|ICAO-KCCB|||||||||||||18|Derived||FM15-METAR|223|ICAO-KCCB|||||||||||||||||||||||||||||||||||||||||||||||||||||||||||||||||||||||||1018.3||1|FM15-METAR|223|ICAO-KCCB|||||||||||||||||||||||||||||||||||||||||||MET062METAR KCCB 260355Z AUTO 02004KT 10SM CLR 15/M09 A3007 RMK AO2=||F||223|ICAO-KCCB
USI0000KCCB|CABLE|2017|12|26|04|15|34.1115|-117.6876|438.6|15.0||1|FM15-METAR|223|ICAO-KCCB|-9.0||1|FM15-METAR|223|ICAO-KCCB|||||||||||||360|N-Normal|1|FM15-METAR|223|ICAO-KCCB|3.1|N-Normal|1|FM15-METAR|223|ICAO-KCCB|||||||||||||18|Derived||FM15-METAR|223|ICAO-KCCB|||||||||||||||||||||||||||||||||||||||||||||||||||||||||||||||||||||||||1018.3||1|FM15-METAR|223|ICAO-KCCB|||||||||||||||||||||||||||||||||||||||||||MET062METAR KCCB 260415Z AUTO 36006KT 10SM CLR 15/M09 A3007 RMK AO2=||F||223|ICAO-KCCB
USI0000KCCB|CABLE|2017|12|26|04|35|34.1115|-117.6876|438.6|15.0||1|FM15-METAR|223|ICAO-KCCB|-11.0||1|FM15-METAR|223|ICAO-KCCB|||||||||||||360|N-Normal|1|FM15-METAR|223|ICAO-KCCB|2.1|N-Normal|1|FM15-METAR|223|ICAO-KCCB|||||||||||||16|Derived||FM15-METAR|223|ICAO-KCCB|||||||||||||||||||||||||||||||||||||||||||||||||||||||||||||||||||||||||1018.6||1|FM15-METAR|223|ICAO-KCCB|||||||||||||||||||||||||||||||||||||||||||MET062METAR KCCB 260435Z AUTO 36004KT 10SM CLR 15/M11 A3008 RMK AO2=||F||223|ICAO-KCCB
USI0000KCCB|CABLE|2017|12|26|04|55|34.1115|-117.6876|438.6|15.0||1|FM15-METAR|223|ICAO-KCCB|-12.0||1|FM15-METAR|223|ICAO-KCCB|||||||||||||999|C-Calm|9|FM15-METAR|223|ICAO-KCCB|0.0|C-Calm|1|FM15-METAR|223|ICAO-KCCB|||||||||||||14|Derived||FM15-METAR|223|ICAO-KCCB|||||||||||||||||||||||||||||||||||||||||||||||||||||||||||||||||||||||||1019.0||1|FM15-METAR|223|ICAO-KCCB|||||||||||||||||||||||||||||||||||||||||||MET062METAR KCCB 260455Z AUTO 00000KT 10SM CLR 15/M12 A3009 RMK AO2=||F||223|ICAO-KCCB
USI0000KCCB|CABLE|2017|12|26|05|15|34.1115|-117.6876|438.6|14.0||1|FM15-METAR|223|ICAO-KCCB|-12.0||1|FM15-METAR|223|ICAO-KCCB|||||||||||||010|N-Normal|1|FM15-METAR|223|ICAO-KCCB|2.1|N-Normal|1|FM15-METAR|223|ICAO-KCCB|||||||||||||15|Derived||FM15-METAR|223|ICAO-KCCB|||||||||||||||||||||||||||||||||||||||||||||||||||||||||||||||||||||||||1018.6||1|FM15-METAR|223|ICAO-KCCB|||||||||||||||||||||||||||||||||||||||||||MET058METAR KCCB 260515Z AUTO 01004KT 10SM 14/M12 A3008 RMK AO2=||F||223|ICAO-KCCB
USI0000KCCB|CABLE|2017|12|26|05|35|34.1115|-117.6876|438.6|14.0||1|FM15-METAR|223|ICAO-KCCB|-12.0||1|FM15-METAR|223|ICAO-KCCB|||||||||||||020|N-Normal|1|FM15-METAR|223|ICAO-KCCB|1.5|N-Normal|1|FM15-METAR|223|ICAO-KCCB|||||||||||||15|Derived||FM15-METAR|223|ICAO-KCCB|||||||||||||||||||||||||||||||||||||||||||||||||||||||||||||||||||||||||1019.0||1|FM15-METAR|223|ICAO-KCCB|||||||||||||||||||||||||||||||||||||||||||MET062METAR KCCB 260535Z AUTO 02003KT 10SM CLR 14/M12 A3009 RMK AO2=||F||223|ICAO-KCCB
USI0000KCCB|CABLE|2017|12|26|05|55|34.1115|-117.6876|438.6|14.0||1|FM15-METAR|223|ICAO-KCCB|-11.0||1|FM15-METAR|223|ICAO-KCCB|||||||||||||999|V-Variable|9|FM15-METAR|223|ICAO-KCCB|1.5|V-Variable|1|FM15-METAR|223|ICAO-KCCB|||||||||||||17|Derived||FM15-METAR|223|ICAO-KCCB|||||||||||||||||||||||||||||||||||||||||||||||||||||||||||||||||||||||||1019.0||1|FM15-METAR|223|ICAO-KCCB|||||||||||||||||||||||||||||||||||||||||||MET062METAR KCCB 260555Z AUTO VRB03KT 10SM CLR 14/M11 A3009 RMK AO2=||F||223|ICAO-KCCB
USI0000KCCB|CABLE|2017|12|26|06|15|34.1115|-117.6876|438.6|14.0||1|FM15-METAR|223|ICAO-KCCB|-11.0||1|FM15-METAR|223|ICAO-KCCB|||||||||||||050|N-Normal|1|FM15-METAR|223|ICAO-KCCB|2.6|N-Normal|1|FM15-METAR|223|ICAO-KCCB|||||||||||||17|Derived||FM15-METAR|223|ICAO-KCCB|||||||||||||||||||||||||||||||||||||||||||||||||||||||||||||||||||||||||1019.0||1|FM15-METAR|223|ICAO-KCCB|||||||||||||||||||||||||||||||||||||||||||MET062METAR KCCB 260615Z AUTO 05005KT 10SM CLR 14/M11 A3009 RMK AO2=||F||223|ICAO-KCCB
USI0000KCCB|CABLE|2017|12|26|06|35|34.1115|-117.6876|438.6|14.0||1|FM15-METAR|223|ICAO-KCCB|-10.0||1|FM15-METAR|223|ICAO-KCCB|||||||||||||090|N-Normal|1|FM15-METAR|223|ICAO-KCCB|1.5|N-Normal|1|FM15-METAR|223|ICAO-KCCB|||||||||||||18|Derived||FM15-METAR|223|ICAO-KCCB|||||||||||||||||||||||||||||||||||||||||||||||||||||||||||||||||||||||||1019.0||1|FM15-METAR|223|ICAO-KCCB|||||||||||||||||||||||||||||||||||||||||||MET062METAR KCCB 260635Z AUTO 09003KT 10SM CLR 14/M10 A3009 RMK AO2=||F||223|ICAO-KCCB
USI0000KCCB|CABLE|2017|12|26|06|55|34.1115|-117.6876|438.6|13.0||1|FM15-METAR|223|ICAO-KCCB|-9.0||1|FM15-METAR|223|ICAO-KCCB|||||||||||||030|N-Normal|1|FM15-METAR|223|ICAO-KCCB|2.1|N-Normal|1|FM15-METAR|223|ICAO-KCCB|||||||||||||21|Derived||FM15-METAR|223|ICAO-KCCB|||||||||||||||||||||||||||||||||||||||||||||||||||||||||||||||||||||||||1019.0||1|FM15-METAR|223|ICAO-KCCB|||||||||||||||||||||||||||||||||||||||||||MET062METAR KCCB 260655Z AUTO 03004KT 10SM CLR 13/M09 A3009 RMK AO2=||F||223|ICAO-KCCB
USI0000KCCB|CABLE|2017|12|26|07|15|34.1115|-117.6876|438.6|13.0||1|FM15-METAR|223|ICAO-KCCB|-10.0||1|FM15-METAR|223|ICAO-KCCB|||||||||||||999|C-Calm|9|FM15-METAR|223|ICAO-KCCB|0.0|C-Calm|1|FM15-METAR|223|ICAO-KCCB|||||||||||||19|Derived||FM15-METAR|223|ICAO-KCCB|||||||||||||||||||||||||||||||||||||||||||||||||||||||||||||||||||||||||1019.0||1|FM15-METAR|223|ICAO-KCCB|||||||||||||||||||||||||||||||||||||||||||MET062METAR KCCB 260715Z AUTO 00000KT 10SM CLR 13/M10 A3009 RMK AO2=||F||223|ICAO-KCCB
USI0000KCCB|CABLE|2017|12|26|07|35|34.1115|-117.6876|438.6|12.0||1|FM15-METAR|223|ICAO-KCCB|-9.0||1|FM15-METAR|223|ICAO-KCCB|||||||||||||030|N-Normal|1|FM15-METAR|223|ICAO-KCCB|1.5|N-Normal|1|FM15-METAR|223|ICAO-KCCB|||||||||||||22|Derived||FM15-METAR|223|ICAO-KCCB|||||||||||||||||||||||||||||||||||||||||||||||||||||||||||||||||||||||||1019.0||1|FM15-METAR|223|ICAO-KCCB|||||||||||||||||||||||||||||||||||||||||||MET062METAR KCCB 260735Z AUTO 03003KT 10SM CLR 12/M09 A3009 RMK AO2=||F||223|ICAO-KCCB
USI0000KCCB|CABLE|2017|12|26|07|55|34.1115|-117.6876|438.6|13.0||1|FM15-METAR|223|ICAO-KCCB|-10.0||1|FM15-METAR|223|ICAO-KCCB|||||||||||||060|N-Normal|1|FM15-METAR|223|ICAO-KCCB|1.5|N-Normal|1|FM15-METAR|223|ICAO-KCCB|||||||||||||19|Derived||FM15-METAR|223|ICAO-KCCB|||||||||||||||||||||||||||||||||||||||||||||||||||||||||||||||||||||||||1018.6||1|FM15-METAR|223|ICAO-KCCB|||||||||||||||||||||||||||||||||||||||||||MET062METAR KCCB 260755Z AUTO 06003KT 10SM CLR 13/M10 A3008 RMK AO2=||F||223|ICAO-KCCB
USI0000KCCB|CABLE|2017|12|26|08|15|34.1115|-117.6876|438.6|13.0||1|FM15-METAR|223|ICAO-KCCB|-10.0||1|FM15-METAR|223|ICAO-KCCB|||||||||||||070|N-Normal|1|FM15-METAR|223|ICAO-KCCB|1.5|N-Normal|1|FM15-METAR|223|ICAO-KCCB|||||||||||||19|Derived||FM15-METAR|223|ICAO-KCCB|||||||||||||||||||||||||||||||||||||||||||||||||||||||||||||||||||||||||1018.6||1|FM15-METAR|223|ICAO-KCCB|||||||||||||||||||||||||||||||||||||||||||MET062METAR KCCB 260815Z AUTO 07003KT 10SM CLR 13/M10 A3008 RMK AO2=||F||223|ICAO-KCCB
USI0000KCCB|CABLE|2017|12|26|08|35|34.1115|-117.6876|438.6|13.0||1|FM15-METAR|223|ICAO-KCCB|-10.0||1|FM15-METAR|223|ICAO-KCCB|||||||||||||040|N-Normal|1|FM15-METAR|223|ICAO-KCCB|2.1|N-Normal|1|FM15-METAR|223|ICAO-KCCB|||||||||||||19|Derived||FM15-METAR|223|ICAO-KCCB|||||||||||||||||||||||||||||||||||||||||||||||||||||||||||||||||||||||||1018.6||1|FM15-METAR|223|ICAO-KCCB|||||||||||||||||||||||||||||||||||||||||||MET062METAR KCCB 260835Z AUTO 04004KT 10SM CLR 13/M10 A3008 RMK AO2=||F||223|ICAO-KCCB
USI0000KCCB|CABLE|2017|12|26|08|55|34.1115|-117.6876|438.6|13.0||1|FM15-METAR|223|ICAO-KCCB|-10.0||1|FM15-METAR|223|ICAO-KCCB|||||||||||||020|N-Normal|1|FM15-METAR|223|ICAO-KCCB|2.6|N-Normal|1|FM15-METAR|223|ICAO-KCCB|||||||||||||19|Derived||FM15-METAR|223|ICAO-KCCB|||||||||||||||||||||||||||||||||||||||||||||||||||||||||||||||||||||||||1018.6||1|FM15-METAR|223|ICAO-KCCB|||||||||||||||||||||||||||||||||||||||||||MET062METAR KCCB 260855Z AUTO 02005KT 10SM CLR 13/M10 A3008 RMK AO2=||F||223|ICAO-KCCB
USI0000KCCB|CABLE|2017|12|26|09|15|34.1115|-117.6876|438.6|13.0||1|FM15-METAR|223|ICAO-KCCB|-10.0||1|FM15-METAR|223|ICAO-KCCB|||||||||||||020|N-Normal|1|FM15-METAR|223|ICAO-KCCB|1.5|N-Normal|1|FM15-METAR|223|ICAO-KCCB|||||||||||||19|Derived||FM15-METAR|223|ICAO-KCCB|||||||||||||||||||||||||||||||||||||||||||||||||||||||||||||||||||||||||1019.0||1|FM15-METAR|223|ICAO-KCCB|||||||||||||||||||||||||||||||||||||||||||MET062METAR KCCB 260915Z AUTO 02003KT 10SM CLR 13/M10 A3009 RMK AO2=||F||223|ICAO-KCCB
USI0000KCCB|CABLE|2017|12|26|09|35|34.1115|-117.6876|438.6|13.0||1|FM15-METAR|223|ICAO-KCCB|-10.0||1|FM15-METAR|223|ICAO-KCCB|||||||||||||020|N-Normal|1|FM15-METAR|223|ICAO-KCCB|1.5|N-Normal|1|FM15-METAR|223|ICAO-KCCB|||||||||||||19|Derived||FM15-METAR|223|ICAO-KCCB|||||||||||||||||||||||||||||||||||||||||||||||||||||||||||||||||||||||||1019.0||1|FM15-METAR|223|ICAO-KCCB|||||||||||||||||||||||||||||||||||||||||||MET062METAR KCCB 260935Z AUTO 02003KT 10SM CLR 13/M10 A3009 RMK AO2=||F||223|ICAO-KCCB
USI0000KCCB|CABLE|2017|12|26|09|55|34.1115|-117.6876|438.6|12.0||1|FM15-METAR|223|ICAO-KCCB|-10.0||1|FM15-METAR|223|ICAO-KCCB|||||||||||||999|C-Calm|9|FM15-METAR|223|ICAO-KCCB|0.0|C-Calm|1|FM15-METAR|223|ICAO-KCCB|||||||||||||21|Derived||FM15-METAR|223|ICAO-KCCB|||||||||||||||||||||||||||||||||||||||||||||||||||||||||||||||||||||||||1019.3||1|FM15-METAR|223|ICAO-KCCB|||||||||||||||||||||||||||||||||||||||||||MET062METAR KCCB 260955Z AUTO 00000KT 10SM CLR 12/M10 A3010 RMK AO2=||F||223|ICAO-KCCB
USI0000KCCB|CABLE|2017|12|26|10|15|34.1115|-117.6876|438.6|12.0||1|FM15-METAR|223|ICAO-KCCB|-9.0||1|FM15-METAR|223|ICAO-KCCB|||||||||||||999|C-Calm|9|FM15-METAR|223|ICAO-KCCB|0.0|C-Calm|1|FM15-METAR|223|ICAO-KCCB|||||||||||||22|Derived||FM15-METAR|223|ICAO-KCCB|||||||||||||||||||||||||||||||||||||||||||||||||||||||||||||||||||||||||1019.3||1|FM15-METAR|223|ICAO-KCCB|||||||||||||||||||||||||||||||||||||||||||MET062METAR KCCB 261015Z AUTO 00000KT 10SM CLR 12/M09 A3010 RMK AO2=||F||223|ICAO-KCCB
USI0000KCCB|CABLE|2017|12|26|10|35|34.1115|-117.6876|438.6|11.0||1|FM15-METAR|223|ICAO-KCCB|-9.0||1|FM15-METAR|223|ICAO-KCCB|||||||||||||999|C-Calm|9|FM15-METAR|223|ICAO-KCCB|0.0|C-Calm|1|FM15-METAR|223|ICAO-KCCB|||||||||||||24|Derived||FM15-METAR|223|ICAO-KCCB|||||||||||||||||||||||||||||||||||||||||||||||||||||||||||||||||||||||||1019.6||1|FM15-METAR|223|ICAO-KCCB|||||||||||||||||||||||||||||||||||||||||||MET062METAR KCCB 261035Z AUTO 00000KT 10SM CLR 11/M09 A3011 RMK AO2=||F||223|ICAO-KCCB
USI0000KCCB|CABLE|2017|12|26|10|55|34.1115|-117.6876|438.6|11.0||1|FM15-METAR|223|ICAO-KCCB|-9.0||1|FM15-METAR|223|ICAO-KCCB|||||||||||||360|N-Normal|1|FM15-METAR|223|ICAO-KCCB|2.6|N-Normal|1|FM15-METAR|223|ICAO-KCCB|||||||||||||24|Derived||FM15-METAR|223|ICAO-KCCB|||||||||||||||||||||||||||||||||||||||||||||||||||||||||||||||||||||||||1019.6||1|FM15-METAR|223|ICAO-KCCB|||||||||||||||||||||||||||||||||||||||||||MET065METAR KCCB 261055Z AUTO 36005KT 10SM FEW043 11/M09 A3011 RMK AO2=||F||223|ICAO-KCCB
USI0000KCCB|CABLE|2017|12|26|11|15|34.1115|-117.6876|438.6|11.0||1|FM15-METAR|223|ICAO-KCCB|-10.0||1|FM15-METAR|223|ICAO-KCCB|||||||||||||010|N-Normal|1|FM15-METAR|223|ICAO-KCCB|1.5|N-Normal|1|FM15-METAR|223|ICAO-KCCB|||||||||||||22|Derived||FM15-METAR|223|ICAO-KCCB|||||||||||||||||||||||||||||||||||||||||||||||||||||||||||||||||||||||||1019.6||1|FM15-METAR|223|ICAO-KCCB|||||||||||||||||||||||||||||||||||||||||||MET065METAR KCCB 261115Z AUTO 01003KT 10SM SCT046 11/M10 A3011 RMK AO2=||F||223|ICAO-KCCB
USI0000KCCB|CABLE|2017|12|26|11|35|34.1115|-117.6876|438.6|11.0||1|FM15-METAR|223|ICAO-KCCB|-9.0||1|FM15-METAR|223|ICAO-KCCB|||||||||||||999|C-Calm|9|FM15-METAR|223|ICAO-KCCB|0.0|C-Calm|1|FM15-METAR|223|ICAO-KCCB|||||||||||||24|Derived||FM15-METAR|223|ICAO-KCCB|||||||||||||||||||||||||||||||||||||||||||||||||||||||||||||||||||||||||1019.3||1|FM15-METAR|223|ICAO-KCCB|||||||||||||||||||||||||||||||||||||||||||MET062METAR KCCB 261135Z AUTO 00000KT 10SM CLR 11/M09 A3010 RMK AO2=||F||223|ICAO-KCCB
USI0000KCCB|CABLE|2017|12|26|11|55|34.1115|-117.6876|438.6|11.0||1|FM15-METAR|223|ICAO-KCCB|-8.0||1|FM15-METAR|223|ICAO-KCCB|||||||||||||020|N-Normal|1|FM15-METAR|223|ICAO-KCCB|2.1|N-Normal|1|FM15-METAR|223|ICAO-KCCB|||||||||||||26|Derived||FM15-METAR|223|ICAO-KCCB|||||||||||||||||||||||||||||||||||||||||||||||||||||||||||||||||||||||||1019.3||1|FM15-METAR|223|ICAO-KCCB|||||||||||||||||||||||||||||||||||||||||||MET062METAR KCCB 261155Z AUTO 02004KT 10SM CLR 11/M08 A3010 RMK AO2=||F||223|ICAO-KCCB
USI0000KCCB|CABLE|2017|12|26|12|15|34.1115|-117.6876|438.6|11.0||1|FM15-METAR|223|ICAO-KCCB|-8.0||1|FM15-METAR|223|ICAO-KCCB|||||||||||||999|C-Calm|9|FM15-METAR|223|ICAO-KCCB|0.0|C-Calm|1|FM15-METAR|223|ICAO-KCCB|||||||||||||26|Derived||FM15-METAR|223|ICAO-KCCB|||||||||||||||||||||||||||||||||||||||||||||||||||||||||||||||||||||||||1019.0||1|FM15-METAR|223|ICAO-KCCB|||||||||||||||||||||||||||||||||||||||||||MET062METAR KCCB 261215Z AUTO 00000KT 10SM CLR 11/M08 A3009 RMK AO2=||F||223|ICAO-KCCB
USI0000KCCB|CABLE|2017|12|26|12|35|34.1115|-117.6876|438.6|10.0||1|FM15-METAR|223|ICAO-KCCB|-8.0||1|FM15-METAR|223|ICAO-KCCB|||||||||||||050|N-Normal|1|FM15-METAR|223|ICAO-KCCB|1.5|N-Normal|1|FM15-METAR|223|ICAO-KCCB|||||||||||||28|Derived||FM15-METAR|223|ICAO-KCCB|||||||||||||||||||||||||||||||||||||||||||||||||||||||||||||||||||||||||1019.0||1|FM15-METAR|223|ICAO-KCCB|||||||||||||||||||||||||||||||||||||||||||MET062METAR KCCB 261235Z AUTO 05003KT 10SM CLR 10/M08 A3009 RMK AO2=||F||223|ICAO-KCCB
USI0000KCCB|CABLE|2017|12|26|12|55|34.1115|-117.6876|438.6|10.0||1|FM15-METAR|223|ICAO-KCCB|-8.0||1|FM15-METAR|223|ICAO-KCCB|||||||||||||080|N-Normal|1|FM15-METAR|223|ICAO-KCCB|2.1|N-Normal|1|FM15-METAR|223|ICAO-KCCB|||||||||||||28|Derived||FM15-METAR|223|ICAO-KCCB|||||||||||||||||||||||||||||||||||||||||||||||||||||||||||||||||||||||||1019.0||1|FM15-METAR|223|ICAO-KCCB|||||||||||||||||||||||||||||||||||||||||||MET062METAR KCCB 261255Z AUTO 08004KT 10SM CLR 10/M08 A3009 RMK AO2=||F||223|ICAO-KCCB
USI0000KCCB|CABLE|2017|12|26|13|15|34.1115|-117.6876|438.6|10.0||1|FM15-METAR|223|ICAO-KCCB|-8.0||1|FM15-METAR|223|ICAO-KCCB|||||||||||||070|N-Normal|1|FM15-METAR|223|ICAO-KCCB|1.5|N-Normal|1|FM15-METAR|223|ICAO-KCCB|||||||||||||28|Derived||FM15-METAR|223|ICAO-KCCB|||||||||||||||||||||||||||||||||||||||||||||||||||||||||||||||||||||||||1019.0||1|FM15-METAR|223|ICAO-KCCB|||||||||||||||||||||||||||||||||||||||||||MET062METAR KCCB 261315Z AUTO 07003KT 10SM CLR 10/M08 A3009 RMK AO2=||F||223|ICAO-KCCB
USI0000KCCB|CABLE|2017|12|26|13|35|34.1115|-117.6876|438.6|10.0||1|FM15-METAR|223|ICAO-KCCB|-7.0||1|FM15-METAR|223|ICAO-KCCB|||||||||||||070|N-Normal|1|FM15-METAR|223|ICAO-KCCB|2.6|N-Normal|1|FM15-METAR|223|ICAO-KCCB|||||||||||||30|Derived||FM15-METAR|223|ICAO-KCCB|||||||||||||||||||||||||||||||||||||||||||||||||||||||||||||||||||||||||1019.3||1|FM15-METAR|223|ICAO-KCCB|||||||||||||||||||||||||||||||||||||||||||MET062METAR KCCB 261335Z AUTO 07005KT 10SM CLR 10/M07 A3010 RMK AO2=||F||223|ICAO-KCCB
USI0000KCCB|CABLE|2017|12|26|13|55|34.1115|-117.6876|438.6|10.0||1|FM15-METAR|223|ICAO-KCCB|-8.0||1|FM15-METAR|223|ICAO-KCCB|||||||||||||060|N-Normal|1|FM15-METAR|223|ICAO-KCCB|2.6|N-Normal|1|FM15-METAR|223|ICAO-KCCB|||||||||||||28|Derived||FM15-METAR|223|ICAO-KCCB|||||||||||||||||||||||||||||||||||||||||||||||||||||||||||||||||||||||||1019.3||1|FM15-METAR|223|ICAO-KCCB|||||||||||||||||||||||||||||||||||||||||||MET062METAR KCCB 261355Z AUTO 06005KT 10SM CLR 10/M08 A3010 RMK AO2=||F||223|ICAO-KCCB
USI0000KCCB|CABLE|2017|12|26|14|15|34.1115|-117.6876|438.6|11.0||1|FM15-METAR|223|ICAO-KCCB|-8.0||1|FM15-METAR|223|ICAO-KCCB|||||||||||||060|N-Normal|1|FM15-METAR|223|ICAO-KCCB|2.6|N-Normal|1|FM15-METAR|223|ICAO-KCCB|||||||||||||26|Derived||FM15-METAR|223|ICAO-KCCB|||||||||||||||||||||||||||||||||||||||||||||||||||||||||||||||||||||||||1019.3||1|FM15-METAR|223|ICAO-KCCB|||||||||||||||||||||||||||||||||||||||||||MET062METAR KCCB 261415Z AUTO 06005KT 10SM CLR 11/M08 A3010 RMK AO2=||F||223|ICAO-KCCB
USI0000KCCB|CABLE|2017|12|26|14|35|34.1115|-117.6876|438.6|11.0||1|FM15-METAR|223|ICAO-KCCB|-8.0||1|FM15-METAR|223|ICAO-KCCB|||||||||||||060|N-Normal|1|FM15-METAR|223|ICAO-KCCB|3.1|N-Normal|1|FM15-METAR|223|ICAO-KCCB|||||||||||||26|Derived||FM15-METAR|223|ICAO-KCCB|||||||||||||||||||||||||||||||||||||||||||||||||||||||||||||||||||||||||1019.3||1|FM15-METAR|223|ICAO-KCCB|||||||||||||||||||||||||||||||||||||||||||MET062METAR KCCB 261435Z AUTO 06006KT 10SM CLR 11/M08 A3010 RMK AO2=||F||223|ICAO-KCCB
USI0000KCCB|CABLE|2017|12|26|14|55|34.1115|-117.6876|438.6|11.0||1|FM15-METAR|223|ICAO-KCCB|-8.0||1|FM15-METAR|223|ICAO-KCCB|||||||||||||050|N-Normal|1|FM15-METAR|223|ICAO-KCCB|3.1|N-Normal|1|FM15-METAR|223|ICAO-KCCB|||||||||||||26|Derived||FM15-METAR|223|ICAO-KCCB|||||||||||||||||||||||||||||||||||||||||||||||||||||||||||||||||||||||||1019.3||1|FM15-METAR|223|ICAO-KCCB|||||||||||||||||||||||||||||||||||||||||||MET061METAR KCCB 261455Z AUTO 05006KT 9SM CLR 11/M08 A3010 RMK AO2=||F||223|ICAO-KCCB
USI0000KCCB|CABLE|2017|12|26|15|15|34.1115|-117.6876|438.6|12.0||1|FM15-METAR|223|ICAO-KCCB|-7.0||1|FM15-METAR|223|ICAO-KCCB|||||||||||||040|N-Normal|1|FM15-METAR|223|ICAO-KCCB|2.6|N-Normal|1|FM15-METAR|223|ICAO-KCCB|||||||||||||26|Derived||FM15-METAR|223|ICAO-KCCB|||||||||||||||||||||||||||||||||||||||||||||||||||||||||||||||||||||||||1019.6||1|FM15-METAR|223|ICAO-KCCB|||||||||||||||||||||||||||||||||||||||||||MET062METAR KCCB 261515Z AUTO 04005KT 10SM CLR 12/M07 A3011 RMK AO2=||F||223|ICAO-KCCB
USI0000KCCB|CABLE|2017|12|26|15|35|34.1115|-117.6876|438.6|12.0||1|FM15-METAR|223|ICAO-KCCB|-6.0||1|FM15-METAR|223|ICAO-KCCB|||||||||||||060|N-Normal|1|FM15-METAR|223|ICAO-KCCB|2.1|N-Normal|1|FM15-METAR|223|ICAO-KCCB|||||||||||||28|Derived||FM15-METAR|223|ICAO-KCCB|||||||||||||||||||||||||||||||||||||||||||||||||||||||||||||||||||||||||1019.3||1|FM15-METAR|223|ICAO-KCCB|||||||||||||||||||||||||||||||||||||||||||MET061METAR KCCB 261535Z AUTO 06004KT 8SM CLR 12/M06 A3010 RMK AO2=||F||223|ICAO-KCCB
USI0000KCCB|CABLE|2017|12|26|15|55|34.1115|-117.6876|438.6|13.0||1|FM15-METAR|223|ICAO-KCCB|-5.0||1|FM15-METAR|223|ICAO-KCCB|||||||||||||090|N-Normal|1|FM15-METAR|223|ICAO-KCCB|1.5|N-Normal|1|FM15-METAR|223|ICAO-KCCB|||||||||||||28|Derived||FM15-METAR|223|ICAO-KCCB|||||||||||||||||||||||||||||||||||||||||||||||||||||||||||||||||||||||||1019.6||1|FM15-METAR|223|ICAO-KCCB|||||||||||||||||||||||||||||||||||||||||||MET064METAR KCCB 261555Z AUTO 09003KT 6SM HZ CLR 13/M05 A3011 RMK AO2=||F||223|ICAO-KCCB
USI0000KCCB|CABLE|2017|12|26|16|15|34.1115|-117.6876|438.6|13.0||1|FM15-METAR|223|ICAO-KCCB|-6.0||1|FM15-METAR|223|ICAO-KCCB|||||||||||||060|N-Normal|1|FM15-METAR|223|ICAO-KCCB|2.1|N-Normal|1|FM15-METAR|223|ICAO-KCCB|||||||||||||26|Derived||FM15-METAR|223|ICAO-KCCB|||||||||||||||||||||||||||||||||||||||||||||||||||||||||||||||||||||||||1019.6||1|FM15-METAR|223|ICAO-KCCB|||||||||||||||||||||||||||||||||||||||||||MET061METAR KCCB 261615Z AUTO 06004KT 9SM CLR 13/M06 A3011 RMK AO2=||F||223|ICAO-KCCB
USI0000KCCB|CABLE|2017|12|26|16|35|34.1115|-117.6876|438.6|14.0||1|FM15-METAR|223|ICAO-KCCB|-8.0||1|FM15-METAR|223|ICAO-KCCB|||||||||||||060|N-Normal|1|FM15-METAR|223|ICAO-KCCB|1.5|N-Normal|1|FM15-METAR|223|ICAO-KCCB|||||||||||||21|Derived||FM15-METAR|223|ICAO-KCCB|||||||||||||||||||||||||||||||||||||||||||||||||||||||||||||||||||||||||1020.0||1|FM15-METAR|223|ICAO-KCCB|||||||||||||||||||||||||||||||||||||||||||MET061METAR KCCB 261635Z AUTO 06003KT 9SM CLR 14/M08 A3012 RMK AO2=||F||223|ICAO-KCCB
USI0000KCCB|CABLE|2017|12|26|16|55|34.1115|-117.6876|438.6|14.0||1|FM15-METAR|223|ICAO-KCCB|-7.0||1|FM15-METAR|223|ICAO-KCCB|||||||||||||020|N-Normal|1|FM15-METAR|223|ICAO-KCCB|1.5|N-Normal|1|FM15-METAR|223|ICAO-KCCB|||||||||||||23|Derived||FM15-METAR|223|ICAO-KCCB|||||||||||||||||||||||||||||||||||||||||||||||||||||||||||||||||||||||||1020.3||1|FM15-METAR|223|ICAO-KCCB|||||||||||||||||||||||||||||||||||||||||||MET062METAR KCCB 261655Z AUTO 02003KT 10SM CLR 14/M07 A3013 RMK AO2=||F||223|ICAO-KCCB
USI0000KCCB|CABLE|2017|12|26|17|15|34.1115|-117.6876|438.6|16.0||1|FM15-METAR|223|ICAO-KCCB|-8.0||1|FM15-METAR|223|ICAO-KCCB|||||||||||||999|C-Calm|9|FM15-METAR|223|ICAO-KCCB|0.0|C-Calm|1|FM15-METAR|223|ICAO-KCCB|||||||||||||19|Derived||FM15-METAR|223|ICAO-KCCB|||||||||||||||||||||||||||||||||||||||||||||||||||||||||||||||||||||||||1020.3||1|FM15-METAR|223|ICAO-KCCB|||||||||||||||||||||||||||||||||||||||||||MET062METAR KCCB 261715Z AUTO 00000KT 10SM CLR 16/M08 A3013 RMK AO2=||F||223|ICAO-KCCB
USI0000KCCB|CABLE|2017|12|26|17|35|34.1115|-117.6876|438.6|16.0||1|FM15-METAR|223|ICAO-KCCB|-10.0||1|FM15-METAR|223|ICAO-KCCB|||||||||||||999|C-Calm|9|FM15-METAR|223|ICAO-KCCB|0.0|C-Calm|1|FM15-METAR|223|ICAO-KCCB|||||||||||||16|Derived||FM15-METAR|223|ICAO-KCCB|||||||||||||||||||||||||||||||||||||||||||||||||||||||||||||||||||||||||1020.7||1|FM15-METAR|223|ICAO-KCCB|||||||||||||||||||||||||||||||||||||||||||MET062METAR KCCB 261735Z AUTO 00000KT 10SM CLR 16/M10 A3014 RMK AO2=||F||223|ICAO-KCCB
USI0000KCCB|CABLE|2017|12|26|17|55|34.1115|-117.6876|438.6|18.0||1|FM15-METAR|223|ICAO-KCCB|-11.0||1|FM15-METAR|223|ICAO-KCCB|||||||||||||999|C-Calm|9|FM15-METAR|223|ICAO-KCCB|0.0|C-Calm|1|FM15-METAR|223|ICAO-KCCB|||||||||||||13|Derived||FM15-METAR|223|ICAO-KCCB|||||||||||||||||||||||||||||||||||||||||||||||||||||||||||||||||||||||||1020.7||1|FM15-METAR|223|ICAO-KCCB|||||||||||||||||||||||||||||||||||||||||||MET062METAR KCCB 261755Z AUTO 00000KT 10SM CLR 18/M11 A3014 RMK AO2=||F||223|ICAO-KCCB
USI0000KCCB|CABLE|2017|12|26|18|15|34.1115|-117.6876|438.6|18.0||1|FM15-METAR|223|ICAO-KCCB|-12.0||1|FM15-METAR|223|ICAO-KCCB|||||||||||||040|N-Normal|1|FM15-METAR|223|ICAO-KCCB|1.5|N-Normal|1|FM15-METAR|223|ICAO-KCCB|||||||||||||12|Derived||FM15-METAR|223|ICAO-KCCB|||||||||||||||||||||||||||||||||||||||||||||||||||||||||||||||||||||||||1020.7||1|FM15-METAR|223|ICAO-KCCB|||||||||||||||||||||||||||||||||||||||||||MET062METAR KCCB 261815Z AUTO 04003KT 10SM CLR 18/M12 A3014 RMK AO2=||F||223|ICAO-KCCB
USI0000KCCB|CABLE|2017|12|26|18|35|34.1115|-117.6876|438.6|18.0||1|FM15-METAR|223|ICAO-KCCB|-11.0||1|FM15-METAR|223|ICAO-KCCB|||||||||||||999|C-Calm|9|FM15-METAR|223|ICAO-KCCB|0.0|C-Calm|1|FM15-METAR|223|ICAO-KCCB|||||||||||||13|Derived||FM15-METAR|223|ICAO-KCCB|||||||||||||||||||||||||||||||||||||||||||||||||||||||||||||||||||||||||1020.3||1|FM15-METAR|223|ICAO-KCCB|||||||||||||||||||||||||||||||||||||||||||MET062METAR KCCB 261835Z AUTO 00000KT 10SM CLR 18/M11 A3013 RMK AO2=||F||223|ICAO-KCCB
USI0000KCCB|CABLE|2017|12|26|18|55|34.1115|-117.6876|438.6|19.0||1|FM15-METAR|223|ICAO-KCCB|-11.0||1|FM15-METAR|223|ICAO-KCCB|||||||||||||999|C-Calm|9|FM15-METAR|223|ICAO-KCCB|0.0|C-Calm|1|FM15-METAR|223|ICAO-KCCB|||||||||||||12|Derived||FM15-METAR|223|ICAO-KCCB|||||||||||||||||||||||||||||||||||||||||||||||||||||||||||||||||||||||||1020.3||1|FM15-METAR|223|ICAO-KCCB|||||||||||||||||||||||||||||||||||||||||||MET062METAR KCCB 261855Z AUTO 00000KT 10SM CLR 19/M11 A3013 RMK AO2=||F||223|ICAO-KCCB
USI0000KCCB|CABLE|2017|12|26|19|15|34.1115|-117.6876|438.6|19.0||1|FM15-METAR|223|ICAO-KCCB|-9.0||1|FM15-METAR|223|ICAO-KCCB|||||||||||||999|C-Calm|9|FM15-METAR|223|ICAO-KCCB|0.0|C-Calm|1|FM15-METAR|223|ICAO-KCCB|||||||||||||14|Derived||FM15-METAR|223|ICAO-KCCB|||||||||||||||||||||||||||||||||||||||||||||||||||||||||||||||||||||||||1020.3||1|FM15-METAR|223|ICAO-KCCB|||||||||||||||||||||||||||||||||||||||||||MET061METAR KCCB 261915Z AUTO 00000KT 9SM CLR 19/M09 A3013 RMK AO2=||F||223|ICAO-KCCB
USI0000KCCB|CABLE|2017|12|26|19|35|34.1115|-117.6876|438.6|18.0||1|FM15-METAR|223|ICAO-KCCB|-8.0||1|FM15-METAR|223|ICAO-KCCB|||||||||||||210|N-Normal|1|FM15-METAR|223|ICAO-KCCB|2.6|N-Normal|1|FM15-METAR|223|ICAO-KCCB|||||||||||||16|Derived||FM15-METAR|223|ICAO-KCCB|||||||||||||||||||||||||||||||||||||||||||||||||||||||||||||||||||||||||1020.0||1|FM15-METAR|223|ICAO-KCCB|||||||||||||||||||||||||||||||||||||||||||MET062METAR KCCB 261935Z AUTO 21005KT 10SM CLR 18/M08 A3012 RMK AO2=||F||223|ICAO-KCCB
USI0000KCCB|CABLE|2017|12|26|19|55|34.1115|-117.6876|438.6|18.0||1|FM15-METAR|223|ICAO-KCCB|-9.0||1|FM15-METAR|223|ICAO-KCCB|||||||||||||230|N-Normal|1|FM15-METAR|223|ICAO-KCCB|2.1|N-Normal|1|FM15-METAR|223|ICAO-KCCB|||||||||||||15|Derived||FM15-METAR|223|ICAO-KCCB|||||||||||||||||||||||||||||||||||||||||||||||||||||||||||||||||||||||||1019.6||1|FM15-METAR|223|ICAO-KCCB|||||||||||||||||||||||||||||||||||||||||||MET062METAR KCCB 261955Z AUTO 23004KT 10SM CLR 18/M09 A3011 RMK AO2=||F||223|ICAO-KCCB
USI0000KCCB|CABLE|2017|12|26|20|15|34.1115|-117.6876|438.6|19.0||1|FM15-METAR|223|ICAO-KCCB|-8.0||1|FM15-METAR|223|ICAO-KCCB|||||||||||||999|C-Calm|9|FM15-METAR|223|ICAO-KCCB|0.0|C-Calm|1|FM15-METAR|223|ICAO-KCCB|||||||||||||15|Derived||FM15-METAR|223|ICAO-KCCB|||||||||||||||||||||||||||||||||||||||||||||||||||||||||||||||||||||||||1019.3||1|FM15-METAR|223|ICAO-KCCB|||||||||||||||||||||||||||||||||||||||||||MET062METAR KCCB 262015Z AUTO 00000KT 10SM CLR 19/M08 A3010 RMK AO2=||F||223|ICAO-KCCB
USI0000KCCB|CABLE|2017|12|26|20|35|34.1115|-117.6876|438.6|19.0||1|FM15-METAR|223|ICAO-KCCB|-8.0||1|FM15-METAR|223|ICAO-KCCB|||||||||||||999|C-Calm|9|FM15-METAR|223|ICAO-KCCB|0.0|C-Calm|1|FM15-METAR|223|ICAO-KCCB|||||||||||||15|Derived||FM15-METAR|223|ICAO-KCCB|||||||||||||||||||||||||||||||||||||||||||||||||||||||||||||||||||||||||1019.0||1|FM15-METAR|223|ICAO-KCCB|||||||||||||||||||||||||||||||||||||||||||MET062METAR KCCB 262035Z AUTO 00000KT 10SM CLR 19/M08 A3009 RMK AO2=||F||223|ICAO-KCCB
USI0000KCCB|CABLE|2017|12|26|20|55|34.1115|-117.6876|438.6|19.0||1|FM15-METAR|223|ICAO-KCCB|-7.0||1|FM15-METAR|223|ICAO-KCCB|||||||||||||240|N-Normal|1|FM15-METAR|223|ICAO-KCCB|2.1|N-Normal|1|FM15-METAR|223|ICAO-KCCB|||||||||||||17|Derived||FM15-METAR|223|ICAO-KCCB|||||||||||||||||||||||||||||||||||||||||||||||||||||||||||||||||||||||||1019.0||1|FM15-METAR|223|ICAO-KCCB|||||||||||||||||||||||||||||||||||||||||||MET062METAR KCCB 262055Z AUTO 24004KT 10SM CLR 19/M07 A3009 RMK AO2=||F||223|ICAO-KCCB
USI0000KCCB|CABLE|2017|12|26|21|15|34.1115|-117.6876|438.6|19.0||1|FM15-METAR|223|ICAO-KCCB|-6.0||1|FM15-METAR|223|ICAO-KCCB|||||||||||||999|C-Calm|9|FM15-METAR|223|ICAO-KCCB|0.0|C-Calm|1|FM15-METAR|223|ICAO-KCCB|||||||||||||18|Derived||FM15-METAR|223|ICAO-KCCB|||||||||||||||||||||||||||||||||||||||||||||||||||||||||||||||||||||||||1019.0||1|FM15-METAR|223|ICAO-KCCB|||||||||||||||||||||||||||||||||||||||||||MET062METAR KCCB 262115Z AUTO 00000KT 10SM CLR 19/M06 A3009 RMK AO2=||F||223|ICAO-KCCB
USI0000KCCB|CABLE|2017|12|26|21|35|34.1115|-117.6876|438.6|19.0||1|FM15-METAR|223|ICAO-KCCB|-6.0||1|FM15-METAR|223|ICAO-KCCB|||||||||||||999|C-Calm|9|FM15-METAR|223|ICAO-KCCB|0.0|C-Calm|1|FM15-METAR|223|ICAO-KCCB|||||||||||||18|Derived||FM15-METAR|223|ICAO-KCCB|||||||||||||||||||||||||||||||||||||||||||||||||||||||||||||||||||||||||1018.6||1|FM15-METAR|223|ICAO-KCCB|||||||||||||||||||||||||||||||||||||||||||MET062METAR KCCB 262135Z AUTO 00000KT 10SM CLR 19/M06 A3008 RMK AO2=||F||223|ICAO-KCCB
USI0000KCCB|CABLE|2017|12|26|21|55|34.1115|-117.6876|438.6|19.0||1|FM15-METAR|223|ICAO-KCCB|-6.0||1|FM15-METAR|223|ICAO-KCCB|||||||||||||999|C-Calm|9|FM15-METAR|223|ICAO-KCCB|0.0|C-Calm|1|FM15-METAR|223|ICAO-KCCB|||||||||||||18|Derived||FM15-METAR|223|ICAO-KCCB|||||||||||||||||||||||||||||||||||||||||||||||||||||||||||||||||||||||||1018.6||1|FM15-METAR|223|ICAO-KCCB|||||||||||||||||||||||||||||||||||||||||||MET061METAR KCCB 262155Z AUTO 00000KT 9SM CLR 19/M06 A3008 RMK AO2=||F||223|ICAO-KCCB
USI0000KCCB|CABLE|2017|12|26|22|15|34.1115|-117.6876|438.6|19.0||1|FM15-METAR|223|ICAO-KCCB|-6.0||1|FM15-METAR|223|ICAO-KCCB|||||||||||||999|C-Calm|9|FM15-METAR|223|ICAO-KCCB|0.0|C-Calm|1|FM15-METAR|223|ICAO-KCCB|||||||||||||18|Derived||FM15-METAR|223|ICAO-KCCB|||||||||||||||||||||||||||||||||||||||||||||||||||||||||||||||||||||||||1018.6||1|FM15-METAR|223|ICAO-KCCB|||||||||||||||||||||||||||||||||||||||||||MET062METAR KCCB 262215Z AUTO 00000KT 10SM CLR 19/M06 A3008 RMK AO2=||F||223|ICAO-KCCB
USI0000KCCB|CABLE|2017|12|26|22|35|34.1115|-117.6876|438.6|19.0||1|FM15-METAR|223|ICAO-KCCB|-4.0||1|FM15-METAR|223|ICAO-KCCB|||||||||||||270|N-Normal|1|FM15-METAR|223|ICAO-KCCB|1.5|N-Normal|1|FM15-METAR|223|ICAO-KCCB|||||||||||||21|Derived||FM15-METAR|223|ICAO-KCCB|||||||||||||||||||||||||||||||||||||||||||||||||||||||||||||||||||||||||1019.0||1|FM15-METAR|223|ICAO-KCCB|||||||||||||||||||||||||||||||||||||||||||MET061METAR KCCB 262235Z AUTO 27003KT 9SM CLR 19/M04 A3009 RMK AO2=||F||223|ICAO-KCCB
USI0000KCCB|CABLE|2017|12|26|22|55|34.1115|-117.6876|438.6|20.0||1|FM15-METAR|223|ICAO-KCCB|-5.0||1|FM15-METAR|223|ICAO-KCCB|||||||||||||999|C-Calm|9|FM15-METAR|223|ICAO-KCCB|0.0|C-Calm|1|FM15-METAR|223|ICAO-KCCB|||||||||||||18|Derived||FM15-METAR|223|ICAO-KCCB|||||||||||||||||||||||||||||||||||||||||||||||||||||||||||||||||||||||||1018.6||1|FM15-METAR|223|ICAO-KCCB|||||||||||||||||||||||||||||||||||||||||||MET061METAR KCCB 262255Z AUTO 00000KT 9SM CLR 20/M05 A3008 RMK AO2=||F||223|ICAO-KCCB
USI0000KCCB|CABLE|2017|12|26|23|15|34.1115|-117.6876|438.6|20.0||1|FM15-METAR|223|ICAO-KCCB|-5.0||1|FM15-METAR|223|ICAO-KCCB|||||||||||||999|C-Calm|9|FM15-METAR|223|ICAO-KCCB|0.0|C-Calm|1|FM15-METAR|223|ICAO-KCCB|||||||||||||18|Derived||FM15-METAR|223|ICAO-KCCB|||||||||||||||||||||||||||||||||||||||||||||||||||||||||||||||||||||||||1018.6||1|FM15-METAR|223|ICAO-KCCB|||||||||||||||||||||||||||||||||||||||||||MET061METAR KCCB 262315Z AUTO 00000KT 9SM CLR 20/M05 A3008 RMK AO2=||F||223|ICAO-KCCB
USI0000KCCB|CABLE|2017|12|26|23|35|34.1115|-117.6876|438.6|20.0||1|FM15-METAR|223|ICAO-KCCB|-4.0||1|FM15-METAR|223|ICAO-KCCB|||||||||||||260|N-Normal|1|FM15-METAR|223|ICAO-KCCB|2.1|N-Normal|1|FM15-METAR|223|ICAO-KCCB|||||||||||||20|Derived||FM15-METAR|223|ICAO-KCCB|||||||||||||||||||||||||||||||||||||||||||||||||||||||||||||||||||||||||1019.0||1|FM15-METAR|223|ICAO-KCCB|||||||||||||||||||||||||||||||||||||||||||MET061METAR KCCB 262335Z AUTO 26004KT 9SM CLR 20/M04 A3009 RMK AO2=||F||223|ICAO-KCCB
USI0000KCCB|CABLE|2017|12|26|23|55|34.1115|-117.6876|438.6|19.0||1|FM15-METAR|223|ICAO-KCCB|-4.0||1|FM15-METAR|223|ICAO-KCCB|||||||||||||999|C-Calm|9|FM15-METAR|223|ICAO-KCCB|0.0|C-Calm|1|FM15-METAR|223|ICAO-KCCB|||||||||||||21|Derived||FM15-METAR|223|ICAO-KCCB|||||||||||||||||||||||||||||||||||||||||||||||||||||||||||||||||||||||||1019.0||1|FM15-METAR|223|ICAO-KCCB|||||||||||||||||||||||||||||||||||||||||||MET061METAR KCCB 262355Z AUTO 00000KT 7SM CLR 19/M04 A3009 RMK AO2=||F||223|ICAO-KCCB
USI0000KCCB|CABLE|2017|12|27|00|15|34.1115|-117.6876|438.6|19.0||1|FM15-METAR|223|ICAO-KCCB|-4.0||1|FM15-METAR|223|ICAO-KCCB|||||||||||||260|N-Normal|1|FM15-METAR|223|ICAO-KCCB|2.1|N-Normal|1|FM15-METAR|223|ICAO-KCCB|||||||||||||21|Derived||FM15-METAR|223|ICAO-KCCB|||||||||||||||||||||||||||||||||||||||||||||||||||||||||||||||||||||||||1019.0||1|FM15-METAR|223|ICAO-KCCB|||||||||||||||||||||||||||||||||||||||||||MET061METAR KCCB 270015Z AUTO 26004KT 9SM CLR 19/M04 A3009 RMK AO2=||F||223|ICAO-KCCB
USI0000KCCB|CABLE|2017|12|27|00|35|34.1115|-117.6876|438.6|18.0||1|FM15-METAR|223|ICAO-KCCB|-3.0||1|FM15-METAR|223|ICAO-KCCB|||||||||||||230|N-Normal|1|FM15-METAR|223|ICAO-KCCB|1.5|N-Normal|1|FM15-METAR|223|ICAO-KCCB|||||||||||||24|Derived||FM15-METAR|223|ICAO-KCCB|||||||||||||||||||||||||||||||||||||||||||||||||||||||||||||||||||||||||1019.0||1|FM15-METAR|223|ICAO-KCCB|||||||||||||||||||||||||||||||||||||||||||MET061METAR KCCB 270035Z AUTO 23003KT 7SM CLR 18/M03 A3009 RMK AO2=||F||223|ICAO-KCCB
USI0000KCCB|CABLE|2017|12|27|00|55|34.1115|-117.6876|438.6|18.0||1|FM15-METAR|223|ICAO-KCCB|-2.0||1|FM15-METAR|223|ICAO-KCCB|||||||||||||220|N-Normal|1|FM15-METAR|223|ICAO-KCCB|1.5|N-Normal|1|FM15-METAR|223|ICAO-KCCB|||||||||||||26|Derived||FM15-METAR|223|ICAO-KCCB|||||||||||||||||||||||||||||||||||||||||||||||||||||||||||||||||||||||||1019.3||1|FM15-METAR|223|ICAO-KCCB|||||||||||||||||||||||||||||||||||||||||||MET064METAR KCCB 270055Z AUTO 22003KT 6SM HZ CLR 18/M02 A3010 RMK AO2=||F||223|ICAO-KCCB
USI0000KCCB|CABLE|2017|12|27|01|15|34.1115|-117.6876|438.6|17.0||1|FM15-METAR|223|ICAO-KCCB|-2.0||1|FM15-METAR|223|ICAO-KCCB|||||||||||||340|N-Normal|1|FM15-METAR|223|ICAO-KCCB|1.5|N-Normal|1|FM15-METAR|223|ICAO-KCCB|||||||||||||27|Derived||FM15-METAR|223|ICAO-KCCB|||||||||||||||||||||||||||||||||||||||||||||||||||||||||||||||||||||||||1019.3||1|FM15-METAR|223|ICAO-KCCB|||||||||||||||||||||||||||||||||||||||||||MET061METAR KCCB 270115Z AUTO 34003KT 7SM CLR 17/M02 A3010 RMK AO2=||F||223|ICAO-KCCB
USI0000KCCB|CABLE|2017|12|27|01|35|34.1115|-117.6876|438.6|16.0||1|FM15-METAR|223|ICAO-KCCB|-2.0||1|FM15-METAR|223|ICAO-KCCB|||||||||||||999|C-Calm|9|FM15-METAR|223|ICAO-KCCB|0.0|C-Calm|1|FM15-METAR|223|ICAO-KCCB|||||||||||||29|Derived||FM15-METAR|223|ICAO-KCCB|||||||||||||||||||||||||||||||||||||||||||||||||||||||||||||||||||||||||1019.6||1|FM15-METAR|223|ICAO-KCCB|||||||||||||||||||||||||||||||||||||||||||MET057METAR KCCB 270135Z AUTO 00000KT 9SM 16/M02 A3011 RMK AO2=||F||223|ICAO-KCCB
USI0000KCCB|CABLE|2017|12|27|01|55|34.1115|-117.6876|438.6|16.0||1|FM15-METAR|223|ICAO-KCCB|-2.0||1|FM15-METAR|223|ICAO-KCCB|||||||||||||999|C-Calm|9|FM15-METAR|223|ICAO-KCCB|0.0|C-Calm|1|FM15-METAR|223|ICAO-KCCB|||||||||||||29|Derived||FM15-METAR|223|ICAO-KCCB|||||||||||||||||||||||||||||||||||||||||||||||||||||||||||||||||||||||||1019.6||1|FM15-METAR|223|ICAO-KCCB|||||||||||||||||||||||||||||||||||||||||||MET057METAR KCCB 270155Z AUTO 00000KT 8SM 16/M02 A3011 RMK AO2=||F||223|ICAO-KCCB
USI0000KCCB|CABLE|2017|12|27|02|15|34.1115|-117.6876|438.6|16.0||1|FM15-METAR|223|ICAO-KCCB|-3.0||1|FM15-METAR|223|ICAO-KCCB|||||||||||||999|C-Calm|9|FM15-METAR|223|ICAO-KCCB|0.0|C-Calm|1|FM15-METAR|223|ICAO-KCCB|||||||||||||27|Derived||FM15-METAR|223|ICAO-KCCB|||||||||||||||||||||||||||||||||||||||||||||||||||||||||||||||||||||||||1020.0||1|FM15-METAR|223|ICAO-KCCB|||||||||||||||||||||||||||||||||||||||||||MET061METAR KCCB 270215Z AUTO 00000KT 8SM CLR 16/M03 A3012 RMK AO2=||F||223|ICAO-KCCB
USI0000KCCB|CABLE|2017|12|27|02|35|34.1115|-117.6876|438.6|15.0||1|FM15-METAR|223|ICAO-KCCB|-3.0||1|FM15-METAR|223|ICAO-KCCB|||||||||||||999|C-Calm|9|FM15-METAR|223|ICAO-KCCB|0.0|C-Calm|1|FM15-METAR|223|ICAO-KCCB|||||||||||||29|Derived||FM15-METAR|223|ICAO-KCCB|||||||||||||||||||||||||||||||||||||||||||||||||||||||||||||||||||||||||1020.0||1|FM15-METAR|223|ICAO-KCCB|||||||||||||||||||||||||||||||||||||||||||MET062METAR KCCB 270235Z AUTO 00000KT 10SM CLR 15/M03 A3012 RMK AO2=||F||223|ICAO-KCCB
USI0000KCCB|CABLE|2017|12|27|02|55|34.1115|-117.6876|438.6|15.0||1|FM15-METAR|223|ICAO-KCCB|-3.0||1|FM15-METAR|223|ICAO-KCCB|||||||||||||060|N-Normal|1|FM15-METAR|223|ICAO-KCCB|2.1|N-Normal|1|FM15-METAR|223|ICAO-KCCB|||||||||||||29|Derived||FM15-METAR|223|ICAO-KCCB|||||||||||||||||||||||||||||||||||||||||||||||||||||||||||||||||||||||||1020.0||1|FM15-METAR|223|ICAO-KCCB|||||||||||||||||||||||||||||||||||||||||||MET062METAR KCCB 270255Z AUTO 06004KT 10SM CLR 15/M03 A3012 RMK AO2=||F||223|ICAO-KCCB
USI0000KCCB|CABLE|2017|12|27|03|15|34.1115|-117.6876|438.6|16.0||1|FM15-METAR|223|ICAO-KCCB|-3.0||1|FM15-METAR|223|ICAO-KCCB|||||||||||||050|N-Normal|1|FM15-METAR|223|ICAO-KCCB|2.1|N-Normal|1|FM15-METAR|223|ICAO-KCCB|||||||||||||27|Derived||FM15-METAR|223|ICAO-KCCB|||||||||||||||||||||||||||||||||||||||||||||||||||||||||||||||||||||||||1020.3||1|FM15-METAR|223|ICAO-KCCB|||||||||||||||||||||||||||||||||||||||||||MET058METAR KCCB 270315Z AUTO 05004KT 10SM 16/M03 A3013 RMK AO2=||F||223|ICAO-KCCB
USI0000KCCB|CABLE|2017|12|27|03|35|34.1115|-117.6876|438.6|15.0||1|FM15-METAR|223|ICAO-KCCB|-3.0||1|FM15-METAR|223|ICAO-KCCB|||||||||||||040|N-Normal|1|FM15-METAR|223|ICAO-KCCB|2.1|N-Normal|1|FM15-METAR|223|ICAO-KCCB|||||||||||||29|Derived||FM15-METAR|223|ICAO-KCCB|||||||||||||||||||||||||||||||||||||||||||||||||||||||||||||||||||||||||1020.3||1|FM15-METAR|223|ICAO-KCCB|||||||||||||||||||||||||||||||||||||||||||MET062METAR KCCB 270335Z AUTO 04004KT 10SM CLR 15/M03 A3013 RMK AO2=||F||223|ICAO-KCCB
USI0000KCCB|CABLE|2017|12|27|03|55|34.1115|-117.6876|438.6|15.0||1|FM15-METAR|223|ICAO-KCCB|-4.0||1|FM15-METAR|223|ICAO-KCCB|||||||||||||040|N-Normal|1|FM15-METAR|223|ICAO-KCCB|2.1|N-Normal|1|FM15-METAR|223|ICAO-KCCB|||||||||||||27|Derived||FM15-METAR|223|ICAO-KCCB|||||||||||||||||||||||||||||||||||||||||||||||||||||||||||||||||||||||||1020.3||1|FM15-METAR|223|ICAO-KCCB|||||||||||||||||||||||||||||||||||||||||||MET058METAR KCCB 270355Z AUTO 04004KT 10SM 15/M04 A3013 RMK AO2=||F||223|ICAO-KCCB
USI0000KCCB|CABLE|2017|12|27|04|15|34.1115|-117.6876|438.6|15.0||1|FM15-METAR|223|ICAO-KCCB|-4.0||1|FM15-METAR|223|ICAO-KCCB|||||||||||||020|N-Normal|1|FM15-METAR|223|ICAO-KCCB|2.1|N-Normal|1|FM15-METAR|223|ICAO-KCCB|||||||||||||27|Derived||FM15-METAR|223|ICAO-KCCB|||||||||||||||||||||||||||||||||||||||||||||||||||||||||||||||||||||||||1020.3||1|FM15-METAR|223|ICAO-KCCB|||||||||||||||||||||||||||||||||||||||||||MET062METAR KCCB 270415Z AUTO 02004KT 10SM CLR 15/M04 A3013 RMK AO2=||F||223|ICAO-KCCB
USI0000KCCB|CABLE|2017|12|27|04|35|34.1115|-117.6876|438.6|15.0||1|FM15-METAR|223|ICAO-KCCB|-5.0||1|FM15-METAR|223|ICAO-KCCB|||||||||||||030|N-Normal|1|FM15-METAR|223|ICAO-KCCB|2.1|N-Normal|1|FM15-METAR|223|ICAO-KCCB|||||||||||||25|Derived||FM15-METAR|223|ICAO-KCCB|||||||||||||||||||||||||||||||||||||||||||||||||||||||||||||||||||||||||1020.3||1|FM15-METAR|223|ICAO-KCCB|||||||||||||||||||||||||||||||||||||||||||MET062METAR KCCB 270435Z AUTO 03004KT 10SM CLR 15/M05 A3013 RMK AO2=||F||223|ICAO-KCCB
USI0000KCCB|CABLE|2017|12|27|04|55|34.1115|-117.6876|438.6|15.0||1|FM15-METAR|223|ICAO-KCCB|-5.0||1|FM15-METAR|223|ICAO-KCCB|||||||||||||999|C-Calm|9|FM15-METAR|223|ICAO-KCCB|0.0|C-Calm|1|FM15-METAR|223|ICAO-KCCB|||||||||||||25|Derived||FM15-METAR|223|ICAO-KCCB|||||||||||||||||||||||||||||||||||||||||||||||||||||||||||||||||||||||||1020.3||1|FM15-METAR|223|ICAO-KCCB|||||||||||||||||||||||||||||||||||||||||||MET062METAR KCCB 270455Z AUTO 00000KT 10SM CLR 15/M05 A3013 RMK AO2=||F||223|ICAO-KCCB
USI0000KCCB|CABLE|2017|12|27|05|15|34.1115|-117.6876|438.6|14.0||1|FM15-METAR|223|ICAO-KCCB|-4.0||1|FM15-METAR|223|ICAO-KCCB|||||||||||||050|N-Normal|1|FM15-METAR|223|ICAO-KCCB|1.5|N-Normal|1|FM15-METAR|223|ICAO-KCCB|||||||||||||29|Derived||FM15-METAR|223|ICAO-KCCB|||||||||||||||||||||||||||||||||||||||||||||||||||||||||||||||||||||||||1020.7||1|FM15-METAR|223|ICAO-KCCB|||||||||||||||||||||||||||||||||||||||||||MET062METAR KCCB 270515Z AUTO 05003KT 10SM CLR 14/M04 A3014 RMK AO2=||F||223|ICAO-KCCB
USI0000KCCB|CABLE|2017|12|27|05|35|34.1115|-117.6876|438.6|15.0||1|FM15-METAR|223|ICAO-KCCB|-4.0||1|FM15-METAR|223|ICAO-KCCB|||||||||||||999|C-Calm|9|FM15-METAR|223|ICAO-KCCB|0.0|C-Calm|1|FM15-METAR|223|ICAO-KCCB|||||||||||||27|Derived||FM15-METAR|223|ICAO-KCCB|||||||||||||||||||||||||||||||||||||||||||||||||||||||||||||||||||||||||1020.7||1|FM15-METAR|223|ICAO-KCCB|||||||||||||||||||||||||||||||||||||||||||MET062METAR KCCB 270535Z AUTO 00000KT 10SM CLR 15/M04 A3014 RMK AO2=||F||223|ICAO-KCCB
USI0000KCCB|CABLE|2017|12|27|05|55|34.1115|-117.6876|438.6|14.0||1|FM15-METAR|223|ICAO-KCCB|-4.0||1|FM15-METAR|223|ICAO-KCCB|||||||||||||060|N-Normal|1|FM15-METAR|223|ICAO-KCCB|1.5|N-Normal|1|FM15-METAR|223|ICAO-KCCB|||||||||||||29|Derived||FM15-METAR|223|ICAO-KCCB|||||||||||||||||||||||||||||||||||||||||||||||||||||||||||||||||||||||||1021.0||1|FM15-METAR|223|ICAO-KCCB|||||||||||||||||||||||||||||||||||||||||||MET062METAR KCCB 270555Z AUTO 06003KT 10SM CLR 14/M04 A3015 RMK AO2=||F||223|ICAO-KCCB
USI0000KCCB|CABLE|2017|12|27|06|15|34.1115|-117.6876|438.6|14.0||1|FM15-METAR|223|ICAO-KCCB|-4.0||1|FM15-METAR|223|ICAO-KCCB|||||||||||||050|N-Normal|1|FM15-METAR|223|ICAO-KCCB|1.5|N-Normal|1|FM15-METAR|223|ICAO-KCCB|||||||||||||29|Derived||FM15-METAR|223|ICAO-KCCB|||||||||||||||||||||||||||||||||||||||||||||||||||||||||||||||||||||||||1021.0||1|FM15-METAR|223|ICAO-KCCB|||||||||||||||||||||||||||||||||||||||||||MET062METAR KCCB 270615Z AUTO 05003KT 10SM CLR 14/M04 A3015 RMK AO2=||F||223|ICAO-KCCB
USI0000KCCB|CABLE|2017|12|27|06|35|34.1115|-117.6876|438.6|13.0||1|FM15-METAR|223|ICAO-KCCB|-4.0||1|FM15-METAR|223|ICAO-KCCB|||||||||||||050|N-Normal|1|FM15-METAR|223|ICAO-KCCB|2.6|N-Normal|1|FM15-METAR|223|ICAO-KCCB|||||||||||||31|Derived||FM15-METAR|223|ICAO-KCCB|||||||||||||||||||||||||||||||||||||||||||||||||||||||||||||||||||||||||1021.0||1|FM15-METAR|223|ICAO-KCCB|||||||||||||||||||||||||||||||||||||||||||MET062METAR KCCB 270635Z AUTO 05005KT 10SM CLR 13/M04 A3015 RMK AO2=||F||223|ICAO-KCCB
USI0000KCCB|CABLE|2017|12|27|06|55|34.1115|-117.6876|438.6|14.0||1|FM15-METAR|223|ICAO-KCCB|-4.0||1|FM15-METAR|223|ICAO-KCCB|||||||||||||050|N-Normal|1|FM15-METAR|223|ICAO-KCCB|2.6|N-Normal|1|FM15-METAR|223|ICAO-KCCB|||||||||||||29|Derived||FM15-METAR|223|ICAO-KCCB|||||||||||||||||||||||||||||||||||||||||||||||||||||||||||||||||||||||||1021.0||1|FM15-METAR|223|ICAO-KCCB|||||||||||||||||||||||||||||||||||||||||||MET062METAR KCCB 270655Z AUTO 05005KT 10SM CLR 14/M04 A3015 RMK AO2=||F||223|ICAO-KCCB
USI0000KCCB|CABLE|2017|12|27|07|15|34.1115|-117.6876|438.6|15.0||1|FM15-METAR|223|ICAO-KCCB|-4.0||1|FM15-METAR|223|ICAO-KCCB|||||||||||||030|N-Normal|1|FM15-METAR|223|ICAO-KCCB|3.1|N-Normal|1|FM15-METAR|223|ICAO-KCCB|||||||||||||27|Derived||FM15-METAR|223|ICAO-KCCB|||||||||||||||||||||||||||||||||||||||||||||||||||||||||||||||||||||||||1020.7||1|FM15-METAR|223|ICAO-KCCB|||||||||||||||||||||||||||||||||||||||||||MET062METAR KCCB 270715Z AUTO 03006KT 10SM CLR 15/M04 A3014 RMK AO2=||F||223|ICAO-KCCB
USI0000KCCB|CABLE|2017|12|27|07|35|34.1115|-117.6876|438.6|14.0||1|FM15-METAR|223|ICAO-KCCB|-4.0||1|FM15-METAR|223|ICAO-KCCB|||||||||||||020|N-Normal|1|FM15-METAR|223|ICAO-KCCB|2.1|N-Normal|1|FM15-METAR|223|ICAO-KCCB|||||||||||||29|Derived||FM15-METAR|223|ICAO-KCCB|||||||||||||||||||||||||||||||||||||||||||||||||||||||||||||||||||||||||1020.7||1|FM15-METAR|223|ICAO-KCCB|||||||||||||||||||||||||||||||||||||||||||MET062METAR KCCB 270735Z AUTO 02004KT 10SM CLR 14/M04 A3014 RMK AO2=||F||223|ICAO-KCCB
USI0000KCCB|CABLE|2017|12|27|07|55|34.1115|-117.6876|438.6|14.0||1|FM15-METAR|223|ICAO-KCCB|-3.0||1|FM15-METAR|223|ICAO-KCCB|||||||||||||020|N-Normal|1|FM15-METAR|223|ICAO-KCCB|1.5|N-Normal|1|FM15-METAR|223|ICAO-KCCB|||||||||||||31|Derived||FM15-METAR|223|ICAO-KCCB|||||||||||||||||||||||||||||||||||||||||||||||||||||||||||||||||||||||||1020.7||1|FM15-METAR|223|ICAO-KCCB|||||||||||||||||||||||||||||||||||||||||||MET062METAR KCCB 270755Z AUTO 02003KT 10SM CLR 14/M03 A3014 RMK AO2=||F||223|ICAO-KCCB
USI0000KCCB|CABLE|2017|12|27|08|15|34.1115|-117.6876|438.6|14.0||1|FM15-METAR|223|ICAO-KCCB|-3.0||1|FM15-METAR|223|ICAO-KCCB|||||||||||||010|N-Normal|1|FM15-METAR|223|ICAO-KCCB|2.1|N-Normal|1|FM15-METAR|223|ICAO-KCCB|||||||||||||31|Derived||FM15-METAR|223|ICAO-KCCB|||||||||||||||||||||||||||||||||||||||||||||||||||||||||||||||||||||||||1020.7||1|FM15-METAR|223|ICAO-KCCB|||||||||||||||||||||||||||||||||||||||||||MET062METAR KCCB 270815Z AUTO 01004KT 10SM CLR 14/M03 A3014 RMK AO2=||F||223|ICAO-KCCB
USI0000KCCB|CABLE|2017|12|27|08|35|34.1115|-117.6876|438.6|14.0||1|FM15-METAR|223|ICAO-KCCB|-4.0||1|FM15-METAR|223|ICAO-KCCB|||||||||||||010|N-Normal|1|FM15-METAR|223|ICAO-KCCB|1.5|N-Normal|1|FM15-METAR|223|ICAO-KCCB|||||||||||||29|Derived||FM15-METAR|223|ICAO-KCCB|||||||||||||||||||||||||||||||||||||||||||||||||||||||||||||||||||||||||1020.7||1|FM15-METAR|223|ICAO-KCCB|||||||||||||||||||||||||||||||||||||||||||MET062METAR KCCB 270835Z AUTO 01003KT 10SM CLR 14/M04 A3014 RMK AO2=||F||223|ICAO-KCCB
USI0000KCCB|CABLE|2017|12|27|08|55|34.1115|-117.6876|438.6|14.0||1|FM15-METAR|223|ICAO-KCCB|-4.0||1|FM15-METAR|223|ICAO-KCCB|||||||||||||999|C-Calm|9|FM15-METAR|223|ICAO-KCCB|0.0|C-Calm|1|FM15-METAR|223|ICAO-KCCB|||||||||||||29|Derived||FM15-METAR|223|ICAO-KCCB|||||||||||||||||||||||||||||||||||||||||||||||||||||||||||||||||||||||||1020.7||1|FM15-METAR|223|ICAO-KCCB|||||||||||||||||||||||||||||||||||||||||||MET062METAR KCCB 270855Z AUTO 00000KT 10SM CLR 14/M04 A3014 RMK AO2=||F||223|ICAO-KCCB
USI0000KCCB|CABLE|2017|12|27|09|15|34.1115|-117.6876|438.6|14.0||1|FM15-METAR|223|ICAO-KCCB|-5.0||1|FM15-METAR|223|ICAO-KCCB|||||||||||||999|C-Calm|9|FM15-METAR|223|ICAO-KCCB|0.0|C-Calm|1|FM15-METAR|223|ICAO-KCCB|||||||||||||27|Derived||FM15-METAR|223|ICAO-KCCB|||||||||||||||||||||||||||||||||||||||||||||||||||||||||||||||||||||||||1020.7||1|FM15-METAR|223|ICAO-KCCB|||||||||||||||||||||||||||||||||||||||||||MET062METAR KCCB 270915Z AUTO 00000KT 10SM CLR 14/M05 A3014 RMK AO2=||F||223|ICAO-KCCB
USI0000KCCB|CABLE|2017|12|27|09|35|34.1115|-117.6876|438.6|13.0||1|FM15-METAR|223|ICAO-KCCB|-4.0||1|FM15-METAR|223|ICAO-KCCB|||||||||||||999|C-Calm|9|FM15-METAR|223|ICAO-KCCB|0.0|C-Calm|1|FM15-METAR|223|ICAO-KCCB|||||||||||||31|Derived||FM15-METAR|223|ICAO-KCCB|||||||||||||||||||||||||||||||||||||||||||||||||||||||||||||||||||||||||1020.7||1|FM15-METAR|223|ICAO-KCCB|||||||||||||||||||||||||||||||||||||||||||MET062METAR KCCB 270935Z AUTO 00000KT 10SM CLR 13/M04 A3014 RMK AO2=||F||223|ICAO-KCCB
USI0000KCCB|CABLE|2017|12|27|09|55|34.1115|-117.6876|438.6|13.0||1|FM15-METAR|223|ICAO-KCCB|-4.0||1|FM15-METAR|223|ICAO-KCCB|||||||||||||030|N-Normal|1|FM15-METAR|223|ICAO-KCCB|2.1|N-Normal|1|FM15-METAR|223|ICAO-KCCB|||||||||||||31|Derived||FM15-METAR|223|ICAO-KCCB|||||||||||||||||||||||||||||||||||||||||||||||||||||||||||||||||||||||||1020.3||1|FM15-METAR|223|ICAO-KCCB|||||||||||||||||||||||||||||||||||||||||||MET062METAR KCCB 270955Z AUTO 03004KT 10SM CLR 13/M04 A3013 RMK AO2=||F||223|ICAO-KCCB
USI0000KCCB|CABLE|2017|12|27|10|15|34.1115|-117.6876|438.6|14.0||1|FM15-METAR|223|ICAO-KCCB|-4.0||1|FM15-METAR|223|ICAO-KCCB|||||||||||||030|N-Normal|1|FM15-METAR|223|ICAO-KCCB|1.5|N-Normal|1|FM15-METAR|223|ICAO-KCCB|||||||||||||29|Derived||FM15-METAR|223|ICAO-KCCB|||||||||||||||||||||||||||||||||||||||||||||||||||||||||||||||||||||||||1020.3||1|FM15-METAR|223|ICAO-KCCB|||||||||||||||||||||||||||||||||||||||||||MET062METAR KCCB 271015Z AUTO 03003KT 10SM CLR 14/M04 A3013 RMK AO2=||F||223|ICAO-KCCB
USI0000KCCB|CABLE|2017|12|27|10|35|34.1115|-117.6876|438.6|14.0||1|FM15-METAR|223|ICAO-KCCB|-4.0||1|FM15-METAR|223|ICAO-KCCB|||||||||||||999|C-Calm|9|FM15-METAR|223|ICAO-KCCB|0.0|C-Calm|1|FM15-METAR|223|ICAO-KCCB|||||||||||||29|Derived||FM15-METAR|223|ICAO-KCCB|||||||||||||||||||||||||||||||||||||||||||||||||||||||||||||||||||||||||1020.3||1|FM15-METAR|223|ICAO-KCCB|||||||||||||||||||||||||||||||||||||||||||MET062METAR KCCB 271035Z AUTO 00000KT 10SM CLR 14/M04 A3013 RMK AO2=||F||223|ICAO-KCCB
USI0000KCCB|CABLE|2017|12|27|10|55|34.1115|-117.6876|438.6|13.0||1|FM15-METAR|223|ICAO-KCCB|-2.0||1|FM15-METAR|223|ICAO-KCCB|||||||||||||999|C-Calm|9|FM15-METAR|223|ICAO-KCCB|0.0|C-Calm|1|FM15-METAR|223|ICAO-KCCB|||||||||||||36|Derived||FM15-METAR|223|ICAO-KCCB|||||||||||||||||||||||||||||||||||||||||||||||||||||||||||||||||||||||||1020.3||1|FM15-METAR|223|ICAO-KCCB|||||||||||||||||||||||||||||||||||||||||||MET062METAR KCCB 271055Z AUTO 00000KT 10SM CLR 13/M02 A3013 RMK AO2=||F||223|ICAO-KCCB
USI0000KCCB|CABLE|2017|12|27|11|15|34.1115|-117.6876|438.6|13.0||1|FM15-METAR|223|ICAO-KCCB|-3.0||1|FM15-METAR|223|ICAO-KCCB|||||||||||||060|N-Normal|1|FM15-METAR|223|ICAO-KCCB|1.5|N-Normal|1|FM15-METAR|223|ICAO-KCCB|||||||||||||33|Derived||FM15-METAR|223|ICAO-KCCB|||||||||||||||||||||||||||||||||||||||||||||||||||||||||||||||||||||||||1020.3||1|FM15-METAR|223|ICAO-KCCB|||||||||||||||||||||||||||||||||||||||||||MET062METAR KCCB 271115Z AUTO 06003KT 10SM CLR 13/M03 A3013 RMK AO2=||F||223|ICAO-KCCB
USI0000KCCB|CABLE|2017|12|27|11|35|34.1115|-117.6876|438.6|13.0||1|FM15-METAR|223|ICAO-KCCB|-3.0||1|FM15-METAR|223|ICAO-KCCB|||||||||||||999|C-Calm|9|FM15-METAR|223|ICAO-KCCB|0.0|C-Calm|1|FM15-METAR|223|ICAO-KCCB|||||||||||||33|Derived||FM15-METAR|223|ICAO-KCCB|||||||||||||||||||||||||||||||||||||||||||||||||||||||||||||||||||||||||1020.3||1|FM15-METAR|223|ICAO-KCCB|||||||||||||||||||||||||||||||||||||||||||MET062METAR KCCB 271135Z AUTO 00000KT 10SM CLR 13/M03 A3013 RMK AO2=||F||223|ICAO-KCCB
USI0000KCCB|CABLE|2017|12|27|11|55|34.1115|-117.6876|438.6|14.0||1|FM15-METAR|223|ICAO-KCCB|-4.0||1|FM15-METAR|223|ICAO-KCCB|||||||||||||060|N-Normal|1|FM15-METAR|223|ICAO-KCCB|2.1|N-Normal|1|FM15-METAR|223|ICAO-KCCB|||||||||||||29|Derived||FM15-METAR|223|ICAO-KCCB|||||||||||||||||||||||||||||||||||||||||||||||||||||||||||||||||||||||||1020.0||1|FM15-METAR|223|ICAO-KCCB|||||||||||||||||||||||||||||||||||||||||||MET062METAR KCCB 271155Z AUTO 06004KT 10SM CLR 14/M04 A3012 RMK AO2=||F||223|ICAO-KCCB
USI0000KCCB|CABLE|2017|12|27|12|15|34.1115|-117.6876|438.6|13.0||1|FM15-METAR|223|ICAO-KCCB|-4.0||1|FM15-METAR|223|ICAO-KCCB|||||||||||||040|N-Normal|1|FM15-METAR|223|ICAO-KCCB|2.6|N-Normal|1|FM15-METAR|223|ICAO-KCCB|||||||||||||31|Derived||FM15-METAR|223|ICAO-KCCB|||||||||||||||||||||||||||||||||||||||||||||||||||||||||||||||||||||||||1020.0||1|FM15-METAR|223|ICAO-KCCB|||||||||||||||||||||||||||||||||||||||||||MET062METAR KCCB 271215Z AUTO 04005KT 10SM CLR 13/M04 A3012 RMK AO2=||F||223|ICAO-KCCB
USI0000KCCB|CABLE|2017|12|27|12|35|34.1115|-117.6876|438.6|13.0||1|FM15-METAR|223|ICAO-KCCB|-5.0||1|FM15-METAR|223|ICAO-KCCB|||||||||||||040|N-Normal|1|FM15-METAR|223|ICAO-KCCB|2.6|N-Normal|1|FM15-METAR|223|ICAO-KCCB|||||||||||||28|Derived||FM15-METAR|223|ICAO-KCCB|||||||||||||||||||||||||||||||||||||||||||||||||||||||||||||||||||||||||1020.3||1|FM15-METAR|223|ICAO-KCCB|||||||||||||||||||||||||||||||||||||||||||MET062METAR KCCB 271235Z AUTO 04005KT 10SM CLR 13/M05 A3013 RMK AO2=||F||223|ICAO-KCCB
USI0000KCCB|CABLE|2017|12|27|12|55|34.1115|-117.6876|438.6|13.0||1|FM15-METAR|223|ICAO-KCCB|-5.0||1|FM15-METAR|223|ICAO-KCCB|||||||||||||040|N-Normal|1|FM15-METAR|223|ICAO-KCCB|2.1|N-Normal|1|FM15-METAR|223|ICAO-KCCB|||||||||||||28|Derived||FM15-METAR|223|ICAO-KCCB|||||||||||||||||||||||||||||||||||||||||||||||||||||||||||||||||||||||||1020.3||1|FM15-METAR|223|ICAO-KCCB|||||||||||||||||||||||||||||||||||||||||||MET062METAR KCCB 271255Z AUTO 04004KT 10SM CLR 13/M05 A3013 RMK AO2=||F||223|ICAO-KCCB
USI0000KCCB|CABLE|2017|12|27|13|15|34.1115|-117.6876|438.6|13.0||1|FM15-METAR|223|ICAO-KCCB|-4.0||1|FM15-METAR|223|ICAO-KCCB|||||||||||||999|C-Calm|9|FM15-METAR|223|ICAO-KCCB|0.0|C-Calm|1|FM15-METAR|223|ICAO-KCCB|||||||||||||31|Derived||FM15-METAR|223|ICAO-KCCB|||||||||||||||||||||||||||||||||||||||||||||||||||||||||||||||||||||||||1020.3||1|FM15-METAR|223|ICAO-KCCB|||||||||||||||||||||||||||||||||||||||||||MET062METAR KCCB 271315Z AUTO 00000KT 10SM CLR 13/M04 A3013 RMK AO2=||F||223|ICAO-KCCB
USI0000KCCB|CABLE|2017|12|27|13|35|34.1115|-117.6876|438.6|13.0||1|FM15-METAR|223|ICAO-KCCB|-4.0||1|FM15-METAR|223|ICAO-KCCB|||||||||||||050|N-Normal|1|FM15-METAR|223|ICAO-KCCB|2.1|N-Normal|1|FM15-METAR|223|ICAO-KCCB|||||||||||||31|Derived||FM15-METAR|223|ICAO-KCCB|||||||||||||||||||||||||||||||||||||||||||||||||||||||||||||||||||||||||1020.7||1|FM15-METAR|223|ICAO-KCCB|||||||||||||||||||||||||||||||||||||||||||MET062METAR KCCB 271335Z AUTO 05004KT 10SM CLR 13/M04 A3014 RMK AO2=||F||223|ICAO-KCCB
USI0000KCCB|CABLE|2017|12|27|13|55|34.1115|-117.6876|438.6|13.0||1|FM15-METAR|223|ICAO-KCCB|-4.0||1|FM15-METAR|223|ICAO-KCCB|||||||||||||030|N-Normal|1|FM15-METAR|223|ICAO-KCCB|2.6|N-Normal|1|FM15-METAR|223|ICAO-KCCB|||||||||||||31|Derived||FM15-METAR|223|ICAO-KCCB|||||||||||||||||||||||||||||||||||||||||||||||||||||||||||||||||||||||||1021.0||1|FM15-METAR|223|ICAO-KCCB|||||||||||||||||||||||||||||||||||||||||||MET062METAR KCCB 271355Z AUTO 03005KT 10SM CLR 13/M04 A3015 RMK AO2=||F||223|ICAO-KCCB
USI0000KCCB|CABLE|2017|12|27|14|15|34.1115|-117.6876|438.6|13.0||1|FM15-METAR|223|ICAO-KCCB|-5.0||1|FM15-METAR|223|ICAO-KCCB|||||||||||||030|N-Normal|1|FM15-METAR|223|ICAO-KCCB|2.6|N-Normal|1|FM15-METAR|223|ICAO-KCCB|||||||||||||28|Derived||FM15-METAR|223|ICAO-KCCB|||||||||||||||||||||||||||||||||||||||||||||||||||||||||||||||||||||||||1021.0||1|FM15-METAR|223|ICAO-KCCB|||||||||||||||||||||||||||||||||||||||||||MET062METAR KCCB 271415Z AUTO 03005KT 10SM CLR 13/M05 A3015 RMK AO2=||F||223|ICAO-KCCB
USI0000KCCB|CABLE|2017|12|27|14|35|34.1115|-117.6876|438.6|13.0||1|FM15-METAR|223|ICAO-KCCB|-4.0||1|FM15-METAR|223|ICAO-KCCB|||||||||||||010|N-Normal|1|FM15-METAR|223|ICAO-KCCB|3.1|N-Normal|1|FM15-METAR|223|ICAO-KCCB|||||||||||||31|Derived||FM15-METAR|223|ICAO-KCCB|||||||||||||||||||||||||||||||||||||||||||||||||||||||||||||||||||||||||1021.0||1|FM15-METAR|223|ICAO-KCCB|||||||||||||||||||||||||||||||||||||||||||MET062METAR KCCB 271435Z AUTO 01006KT 10SM CLR 13/M04 A3015 RMK AO2=||F||223|ICAO-KCCB
USI0000KCCB|CABLE|2017|12|27|14|55|34.1115|-117.6876|438.6|13.0||1|FM15-METAR|223|ICAO-KCCB|-4.0||1|FM15-METAR|223|ICAO-KCCB|||||||||||||010|N-Normal|1|FM15-METAR|223|ICAO-KCCB|3.1|N-Normal|1|FM15-METAR|223|ICAO-KCCB|||||||||||||31|Derived||FM15-METAR|223|ICAO-KCCB|||||||||||||||||||||||||||||||||||||||||||||||||||||||||||||||||||||||||1021.0||1|FM15-METAR|223|ICAO-KCCB|||||||||||||||||||||||||||||||||||||||||||MET062METAR KCCB 271455Z AUTO 01006KT 10SM CLR 13/M04 A3015 RMK AO2=||F||223|ICAO-KCCB
USI0000KCCB|CABLE|2017|12|27|15|15|34.1115|-117.6876|438.6|14.0||1|FM15-METAR|223|ICAO-KCCB|-4.0||1|FM15-METAR|223|ICAO-KCCB|||||||||||||010|N-Normal|1|FM15-METAR|223|ICAO-KCCB|2.1|N-Normal|1|FM15-METAR|223|ICAO-KCCB|||||||||||||29|Derived||FM15-METAR|223|ICAO-KCCB|||||||||||||||||||||||||||||||||||||||||||||||||||||||||||||||||||||||||1021.3||1|FM15-METAR|223|ICAO-KCCB|||||||||||||||||||||||||||||||||||||||||||MET062METAR KCCB 271515Z AUTO 01004KT 10SM CLR 14/M04 A3016 RMK AO2=||F||223|ICAO-KCCB
USI0000KCCB|CABLE|2017|12|27|15|35|34.1115|-117.6876|438.6|14.0||1|FM15-METAR|223|ICAO-KCCB|-3.0||1|FM15-METAR|223|ICAO-KCCB|||||||||||||999|C-Calm|9|FM15-METAR|223|ICAO-KCCB|0.0|C-Calm|1|FM15-METAR|223|ICAO-KCCB|||||||||||||31|Derived||FM15-METAR|223|ICAO-KCCB|||||||||||||||||||||||||||||||||||||||||||||||||||||||||||||||||||||||||1021.3||1|FM15-METAR|223|ICAO-KCCB|||||||||||||||||||||||||||||||||||||||||||MET062METAR KCCB 271535Z AUTO 00000KT 10SM CLR 14/M03 A3016 RMK AO2=||F||223|ICAO-KCCB
USI0000KCCB|CABLE|2017|12|27|15|55|34.1115|-117.6876|438.6|15.0||1|FM15-METAR|223|ICAO-KCCB|-3.0||1|FM15-METAR|223|ICAO-KCCB|||||||||||||999|C-Calm|9|FM15-METAR|223|ICAO-KCCB|0.0|C-Calm|1|FM15-METAR|223|ICAO-KCCB|||||||||||||29|Derived||FM15-METAR|223|ICAO-KCCB|||||||||||||||||||||||||||||||||||||||||||||||||||||||||||||||||||||||||1021.7||1|FM15-METAR|223|ICAO-KCCB|||||||||||||||||||||||||||||||||||||||||||MET062METAR KCCB 271555Z AUTO 00000KT 10SM CLR 15/M03 A3017 RMK AO2=||F||223|ICAO-KCCB
USI0000KCCB|CABLE|2017|12|27|16|15|34.1115|-117.6876|438.6|16.0||1|FM15-METAR|223|ICAO-KCCB|-3.0||1|FM15-METAR|223|ICAO-KCCB|||||||||||||999|C-Calm|9|FM15-METAR|223|ICAO-KCCB|0.0|C-Calm|1|FM15-METAR|223|ICAO-KCCB|||||||||||||27|Derived||FM15-METAR|223|ICAO-KCCB|||||||||||||||||||||||||||||||||||||||||||||||||||||||||||||||||||||||||1021.7||1|FM15-METAR|223|ICAO-KCCB|||||||||||||||||||||||||||||||||||||||||||MET062METAR KCCB 271615Z AUTO 00000KT 10SM CLR 16/M03 A3017 RMK AO2=||F||223|ICAO-KCCB
USI0000KCCB|CABLE|2017|12|27|16|35|34.1115|-117.6876|438.6|18.0||1|FM15-METAR|223|ICAO-KCCB|-4.0||1|FM15-METAR|223|ICAO-KCCB|||||||||||||999|C-Calm|9|FM15-METAR|223|ICAO-KCCB|0.0|C-Calm|1|FM15-METAR|223|ICAO-KCCB|||||||||||||22|Derived||FM15-METAR|223|ICAO-KCCB|||||||||||||||||||||||||||||||||||||||||||||||||||||||||||||||||||||||||1022.0||1|FM15-METAR|223|ICAO-KCCB|||||||||||||||||||||||||||||||||||||||||||MET062METAR KCCB 271635Z AUTO 00000KT 10SM CLR 18/M04 A3018 RMK AO2=||F||223|ICAO-KCCB
USI0000KCCB|CABLE|2017|12|27|16|55|34.1115|-117.6876|438.6|19.0||1|FM15-METAR|223|ICAO-KCCB|-6.0||1|FM15-METAR|223|ICAO-KCCB|||||||||||||999|C-Calm|9|FM15-METAR|223|ICAO-KCCB|0.0|C-Calm|1|FM15-METAR|223|ICAO-KCCB|||||||||||||18|Derived||FM15-METAR|223|ICAO-KCCB|||||||||||||||||||||||||||||||||||||||||||||||||||||||||||||||||||||||||1022.0||1|FM15-METAR|223|ICAO-KCCB|||||||||||||||||||||||||||||||||||||||||||MET062METAR KCCB 271655Z AUTO 00000KT 10SM CLR 19/M06 A3018 RMK AO2=||F||223|ICAO-KCCB
USI0000KCCB|CABLE|2017|12|27|17|15|34.1115|-117.6876|438.6|19.0||1|FM15-METAR|223|ICAO-KCCB|-5.0||1|FM15-METAR|223|ICAO-KCCB|||||||||||||120|N-Normal|1|FM15-METAR|223|ICAO-KCCB|2.1|N-Normal|1|FM15-METAR|223|ICAO-KCCB|||||||||||||19|Derived||FM15-METAR|223|ICAO-KCCB|||||||||||||||||||||||||||||||||||||||||||||||||||||||||||||||||||||||||1022.3||1|FM15-METAR|223|ICAO-KCCB|||||||||||||||||||||||||||||||||||||||||||MET062METAR KCCB 271715Z AUTO 12004KT 10SM CLR 19/M05 A3019 RMK AO2=||F||223|ICAO-KCCB
USI0000KCCB|CABLE|2017|12|27|17|35|34.1115|-117.6876|438.6|20.0||1|FM15-METAR|223|ICAO-KCCB|-6.0||1|FM15-METAR|223|ICAO-KCCB|||||||||||||130|N-Normal|1|FM15-METAR|223|ICAO-KCCB|2.1|N-Normal|1|FM15-METAR|223|ICAO-KCCB|||||||||||||17|Derived||FM15-METAR|223|ICAO-KCCB|||||||||||||||||||||||||||||||||||||||||||||||||||||||||||||||||||||||||1022.3||1|FM15-METAR|223|ICAO-KCCB|||||||||||||||||||||||||||||||||||||||||||MET062METAR KCCB 271735Z AUTO 13004KT 10SM CLR 20/M06 A3019 RMK AO2=||F||223|ICAO-KCCB
USI0000KCCB|CABLE|2017|12|27|17|55|34.1115|-117.6876|438.6|20.0||1|FM15-METAR|223|ICAO-KCCB|-6.0||1|FM15-METAR|223|ICAO-KCCB|||||||||||||999|V-Variable|9|FM15-METAR|223|ICAO-KCCB|1.5|V-Variable|1|FM15-METAR|223|ICAO-KCCB|||||||||||||17|Derived||FM15-METAR|223|ICAO-KCCB|||||||||||||||||||||||||||||||||||||||||||||||||||||||||||||||||||||||||1022.3||1|FM15-METAR|223|ICAO-KCCB|||||||||||||||||||||||||||||||||||||||||||MET062METAR KCCB 271755Z AUTO VRB03KT 10SM CLR 20/M06 A3019 RMK AO2=||F||223|ICAO-KCCB
USI0000KCCB|CABLE|2017|12|27|18|15|34.1115|-117.6876|438.6|21.0||1|FM15-METAR|223|ICAO-KCCB|-6.0||1|FM15-METAR|223|ICAO-KCCB|||||||||||||999|C-Calm|9|FM15-METAR|223|ICAO-KCCB|0.0|C-Calm|1|FM15-METAR|223|ICAO-KCCB|||||||||||||16|Derived||FM15-METAR|223|ICAO-KCCB|||||||||||||||||||||||||||||||||||||||||||||||||||||||||||||||||||||||||1022.0||1|FM15-METAR|223|ICAO-KCCB|||||||||||||||||||||||||||||||||||||||||||MET062METAR KCCB 271815Z AUTO 00000KT 10SM CLR 21/M06 A3018 RMK AO2=||F||223|ICAO-KCCB
USI0000KCCB|CABLE|2017|12|27|18|35|34.1115|-117.6876|438.6|21.0||1|FM15-METAR|223|ICAO-KCCB|-7.0||1|FM15-METAR|223|ICAO-KCCB|||||||||||||999|C-Calm|9|FM15-METAR|223|ICAO-KCCB|0.0|C-Calm|1|FM15-METAR|223|ICAO-KCCB|||||||||||||15|Derived||FM15-METAR|223|ICAO-KCCB|||||||||||||||||||||||||||||||||||||||||||||||||||||||||||||||||||||||||1022.0||1|FM15-METAR|223|ICAO-KCCB|||||||||||||||||||||||||||||||||||||||||||MET062METAR KCCB 271835Z AUTO 00000KT 10SM CLR 21/M07 A3018 RMK AO2=||F||223|ICAO-KCCB
USI0000KCCB|CABLE|2017|12|27|18|55|34.1115|-117.6876|438.6|22.0||1|FM15-METAR|223|ICAO-KCCB|-6.0||1|FM15-METAR|223|ICAO-KCCB|||||||||||||250|N-Normal|1|FM15-METAR|223|ICAO-KCCB|1.5|N-Normal|1|FM15-METAR|223|ICAO-KCCB|||||||||||||15|Derived||FM15-METAR|223|ICAO-KCCB|||||||||||||||||||||||||||||||||||||||||||||||||||||||||||||||||||||||||1021.7||1|FM15-METAR|223|ICAO-KCCB|||||||||||||||||||||||||||||||||||||||||||MET062METAR KCCB 271855Z AUTO 25003KT 10SM CLR 22/M06 A3017 RMK AO2=||F||223|ICAO-KCCB
USI0000KCCB|CABLE|2017|12|27|19|15|34.1115|-117.6876|438.6|22.0||1|FM15-METAR|223|ICAO-KCCB|-6.0||1|FM15-METAR|223|ICAO-KCCB|||||||||||||240|N-Normal|1|FM15-METAR|223|ICAO-KCCB|2.1|N-Normal|1|FM15-METAR|223|ICAO-KCCB|||||||||||||15|Derived||FM15-METAR|223|ICAO-KCCB|||||||||||||||||||||||||||||||||||||||||||||||||||||||||||||||||||||||||1021.3||1|FM15-METAR|223|ICAO-KCCB|||||||||||||||||||||||||||||||||||||||||||MET062METAR KCCB 271915Z AUTO 24004KT 10SM CLR 22/M06 A3016 RMK AO2=||F||223|ICAO-KCCB
USI0000KCCB|CABLE|2017|12|27|19|35|34.1115|-117.6876|438.6|23.0||1|FM15-METAR|223|ICAO-KCCB|-4.0||1|FM15-METAR|223|ICAO-KCCB|||||||||||||240|N-Normal|1|FM15-METAR|223|ICAO-KCCB|1.5|N-Normal|1|FM15-METAR|223|ICAO-KCCB|||||||||||||16|Derived||FM15-METAR|223|ICAO-KCCB|||||||||||||||||||||||||||||||||||||||||||||||||||||||||||||||||||||||||1021.0||1|FM15-METAR|223|ICAO-KCCB|||||||||||||||||||||||||||||||||||||||||||MET062METAR KCCB 271935Z AUTO 24003KT 10SM CLR 23/M04 A3015 RMK AO2=||F||223|ICAO-KCCB
USI0000KCCB|CABLE|2017|12|27|19|55|34.1115|-117.6876|438.6|23.0||1|FM15-METAR|223|ICAO-KCCB|-3.0||1|FM15-METAR|223|ICAO-KCCB|||||||||||||230|N-Normal|1|FM15-METAR|223|ICAO-KCCB|2.1|N-Normal|1|FM15-METAR|223|ICAO-KCCB|||||||||||||17|Derived||FM15-METAR|223|ICAO-KCCB|||||||||||||||||||||||||||||||||||||||||||||||||||||||||||||||||||||||||1020.7||1|FM15-METAR|223|ICAO-KCCB|||||||||||||||||||||||||||||||||||||||||||MET062METAR KCCB 271955Z AUTO 23004KT 10SM CLR 23/M03 A3014 RMK AO2=||F||223|ICAO-KCCB
USI0000KCCB|CABLE|2017|12|27|20|15|34.1115|-117.6876|438.6|23.0||1|FM15-METAR|223|ICAO-KCCB|-5.0||1|FM15-METAR|223|ICAO-KCCB|||||||||||||220|N-Normal|1|FM15-METAR|223|ICAO-KCCB|2.6|N-Normal|1|FM15-METAR|223|ICAO-KCCB|||||||||||||15|Derived||FM15-METAR|223|ICAO-KCCB|||||||||||||||||||||||||||||||||||||||||||||||||||||||||||||||||||||||||1020.3||1|FM15-METAR|223|ICAO-KCCB|||||||||||||||||||||||||||||||||||||||||||MET062METAR KCCB 272015Z AUTO 22005KT 10SM CLR 23/M05 A3013 RMK AO2=||F||223|ICAO-KCCB
USI0000KCCB|CABLE|2017|12|27|20|35|34.1115|-117.6876|438.6|23.0||1|FM15-METAR|223|ICAO-KCCB|-5.0||1|FM15-METAR|223|ICAO-KCCB|||||||||||||230|N-Normal|1|FM15-METAR|223|ICAO-KCCB|2.6|N-Normal|1|FM15-METAR|223|ICAO-KCCB|||||||||||||15|Derived||FM15-METAR|223|ICAO-KCCB|||||||||||||||||||||||||||||||||||||||||||||||||||||||||||||||||||||||||1020.3||1|FM15-METAR|223|ICAO-KCCB|||||||||||||||||||||||||||||||||||||||||||MET062METAR KCCB 272035Z AUTO 23005KT 10SM CLR 23/M05 A3013 RMK AO2=||F||223|ICAO-KCCB
USI0000KCCB|CABLE|2017|12|27|20|55|34.1115|-117.6876|438.6|23.0||1|FM15-METAR|223|ICAO-KCCB|-5.0||1|FM15-METAR|223|ICAO-KCCB|||||||||||||220|N-Normal|1|FM15-METAR|223|ICAO-KCCB|2.1|N-Normal|1|FM15-METAR|223|ICAO-KCCB|||||||||||||15|Derived||FM15-METAR|223|ICAO-KCCB|||||||||||||||||||||||||||||||||||||||||||||||||||||||||||||||||||||||||1020.0||1|FM15-METAR|223|ICAO-KCCB|||||||||||||||||||||||||||||||||||||||||||MET062METAR KCCB 272055Z AUTO 22004KT 10SM CLR 23/M05 A3012 RMK AO2=||F||223|ICAO-KCCB
USI0000KCCB|CABLE|2017|12|27|21|15|34.1115|-117.6876|438.6|24.0||1|FM15-METAR|223|ICAO-KCCB|-6.0||1|FM15-METAR|223|ICAO-KCCB|||||||||||||260|N-Normal|1|FM15-METAR|223|ICAO-KCCB|2.6|N-Normal|1|FM15-METAR|223|ICAO-KCCB|||||||||||||13|Derived||FM15-METAR|223|ICAO-KCCB|||||||||||||||||||||||||||||||||||||||||||||||||||||||||||||||||||||||||1019.6||1|FM15-METAR|223|ICAO-KCCB|||||||||||||||||||||||||||||||||||||||||||MET062METAR KCCB 272115Z AUTO 26005KT 10SM CLR 24/M06 A3011 RMK AO2=||F||223|ICAO-KCCB
USI0000KCCB|CABLE|2017|12|27|21|35|34.1115|-117.6876|438.6|24.0||1|FM15-METAR|223|ICAO-KCCB|-6.0||1|FM15-METAR|223|ICAO-KCCB|||||||||||||250|N-Normal|1|FM15-METAR|223|ICAO-KCCB|3.6|N-Normal|1|FM15-METAR|223|ICAO-KCCB|||||||||||||13|Derived||FM15-METAR|223|ICAO-KCCB|||||||||||||||||||||||||||||||||||||||||||||||||||||||||||||||||||||||||1019.3||1|FM15-METAR|223|ICAO-KCCB|||||||||||||||||||||||||||||||||||||||||||MET062METAR KCCB 272135Z AUTO 25007KT 10SM CLR 24/M06 A3010 RMK AO2=||F||223|ICAO-KCCB
USI0000KCCB|CABLE|2017|12|27|21|55|34.1115|-117.6876|438.6|25.0||1|FM15-METAR|223|ICAO-KCCB|-6.0||1|FM15-METAR|223|ICAO-KCCB|||||||||||||230|N-Normal|1|FM15-METAR|223|ICAO-KCCB|2.6|N-Normal|1|FM15-METAR|223|ICAO-KCCB|||||||||||||12|Derived||FM15-METAR|223|ICAO-KCCB|||||||||||||||||||||||||||||||||||||||||||||||||||||||||||||||||||||||||1019.3||1|FM15-METAR|223|ICAO-KCCB|||||||||||||||||||||||||||||||||||||||||||MET062METAR KCCB 272155Z AUTO 23005KT 10SM CLR 25/M06 A3010 RMK AO2=||F||223|ICAO-KCCB
USI0000KCCB|CABLE|2017|12|27|22|15|34.1115|-117.6876|438.6|25.0||1|FM15-METAR|223|ICAO-KCCB|-6.0||1|FM15-METAR|223|ICAO-KCCB|||||||||||||260|N-Normal|1|FM15-METAR|223|ICAO-KCCB|3.1|N-Normal|1|FM15-METAR|223|ICAO-KCCB|||||||||||||12|Derived||FM15-METAR|223|ICAO-KCCB|||||||||||||||||||||||||||||||||||||||||||||||||||||||||||||||||||||||||1019.0||1|FM15-METAR|223|ICAO-KCCB|||||||||||||||||||||||||||||||||||||||||||MET062METAR KCCB 272215Z AUTO 26006KT 10SM CLR 25/M06 A3009 RMK AO2=||F||223|ICAO-KCCB
USI0000KCCB|CABLE|2017|12|27|22|35|34.1115|-117.6876|438.6|25.0||1|FM15-METAR|223|ICAO-KCCB|-5.0||1|FM15-METAR|223|ICAO-KCCB|||||||||||||240|N-Normal|1|FM15-METAR|223|ICAO-KCCB|3.1|N-Normal|1|FM15-METAR|223|ICAO-KCCB|||||||||||||13|Derived||FM15-METAR|223|ICAO-KCCB|||||||||||||||||||||||||||||||||||||||||||||||||||||||||||||||||||||||||1019.0||1|FM15-METAR|223|ICAO-KCCB|||||||||||||||||||||||||||||||||||||||||||MET062METAR KCCB 272235Z AUTO 24006KT 10SM CLR 25/M05 A3009 RMK AO2=||F||223|ICAO-KCCB
USI0000KCCB|CABLE|2017|12|27|22|55|34.1115|-117.6876|438.6|25.0||1|FM15-METAR|223|ICAO-KCCB|-6.0||1|FM15-METAR|223|ICAO-KCCB|||||||||||||260|N-Normal|1|FM15-METAR|223|ICAO-KCCB|4.1|N-Normal|1|FM15-METAR|223|ICAO-KCCB|||||||||||||12|Derived||FM15-METAR|223|ICAO-KCCB|||||||||||||||||||||||||||||||||||||||||||||||||||||||||||||||||||||||||1019.0||1|FM15-METAR|223|ICAO-KCCB|||||||||||||||||||||||||||||||||||||||||||MET062METAR KCCB 272255Z AUTO 26008KT 10SM CLR 25/M06 A3009 RMK AO2=||F||223|ICAO-KCCB
USI0000KCCB|CABLE|2017|12|27|23|15|34.1115|-117.6876|438.6|25.0||1|FM15-METAR|223|ICAO-KCCB|-6.0||1|FM15-METAR|223|ICAO-KCCB|||||||||||||280|N-Normal|1|FM15-METAR|223|ICAO-KCCB|3.6|N-Normal|1|FM15-METAR|223|ICAO-KCCB|||||||||||||12|Derived||FM15-METAR|223|ICAO-KCCB|||||||||||||||||||||||||||||||||||||||||||||||||||||||||||||||||||||||||1019.0||1|FM15-METAR|223|ICAO-KCCB|||||||||||||||||||||||||||||||||||||||||||MET062METAR KCCB 272315Z AUTO 28007KT 10SM CLR 25/M06 A3009 RMK AO2=||F||223|ICAO-KCCB
USI0000KCCB|CABLE|2017|12|27|23|35|34.1115|-117.6876|438.6|24.0||1|FM15-METAR|223|ICAO-KCCB|-5.0||1|FM15-METAR|223|ICAO-KCCB|||||||||||||270|N-Normal|1|FM15-METAR|223|ICAO-KCCB|3.6|N-Normal|1|FM15-METAR|223|ICAO-KCCB|||||||||||||14|Derived||FM15-METAR|223|ICAO-KCCB|||||||||||||||||||||||||||||||||||||||||||||||||||||||||||||||||||||||||1019.0||1|FM15-METAR|223|ICAO-KCCB|||||||||||||||||||||||||||||||||||||||||||MET062METAR KCCB 272335Z AUTO 27007KT 10SM CLR 24/M05 A3009 RMK AO2=||F||223|ICAO-KCCB
USI0000KCCB|CABLE|2017|12|27|23|55|34.1115|-117.6876|438.6|24.0||1|FM15-METAR|223|ICAO-KCCB|-5.0||1|FM15-METAR|223|ICAO-KCCB|||||||||||||260|N-Normal|1|FM15-METAR|223|ICAO-KCCB|3.1|N-Normal|1|FM15-METAR|223|ICAO-KCCB|||||||||||||14|Derived||FM15-METAR|223|ICAO-KCCB|||||||||||||||||||||||||||||||||||||||||||||||||||||||||||||||||||||||||1019.0||1|FM15-METAR|223|ICAO-KCCB|||||||||||||||||||||||||||||||||||||||||||MET062METAR KCCB 272355Z AUTO 26006KT 10SM CLR 24/M05 A3009 RMK AO2=||F||223|ICAO-KCCB
USI0000KCCB|CABLE|2017|12|28|00|15|34.1115|-117.6876|438.6|24.0||1|FM15-METAR|223|ICAO-KCCB|-5.0||1|FM15-METAR|223|ICAO-KCCB|||||||||||||260|N-Normal|1|FM15-METAR|223|ICAO-KCCB|2.6|N-Normal|1|FM15-METAR|223|ICAO-KCCB|||||||||||||14|Derived||FM15-METAR|223|ICAO-KCCB|||||||||||||||||||||||||||||||||||||||||||||||||||||||||||||||||||||||||1019.0||1|FM15-METAR|223|ICAO-KCCB|||||||||||||||||||||||||||||||||||||||||||MET062METAR KCCB 280015Z AUTO 26005KT 10SM CLR 24/M05 A3009 RMK AO2=||F||223|ICAO-KCCB
USI0000KCCB|CABLE|2017|12|28|00|35|34.1115|-117.6876|438.6|23.0||1|FM15-METAR|223|ICAO-KCCB|-5.0||1|FM15-METAR|223|ICAO-KCCB|||||||||||||270|N-Normal|1|FM15-METAR|223|ICAO-KCCB|1.5|N-Normal|1|FM15-METAR|223|ICAO-KCCB|||||||||||||15|Derived||FM15-METAR|223|ICAO-KCCB|||||||||||||||||||||||||||||||||||||||||||||||||||||||||||||||||||||||||1019.3||1|FM15-METAR|223|ICAO-KCCB|||||||||||||||||||||||||||||||||||||||||||MET062METAR KCCB 280035Z AUTO 27003KT 10SM CLR 23/M05 A3010 RMK AO2=||F||223|ICAO-KCCB
USI0000KCCB|CABLE|2017|12|28|00|55|34.1115|-117.6876|438.6|22.0||1|FM15-METAR|223|ICAO-KCCB|-4.0||1|FM15-METAR|223|ICAO-KCCB|||||||||||||290|N-Normal|1|FM15-METAR|223|ICAO-KCCB|2.1|N-Normal|1|FM15-METAR|223|ICAO-KCCB|||||||||||||17|Derived||FM15-METAR|223|ICAO-KCCB|||||||||||||||||||||||||||||||||||||||||||||||||||||||||||||||||||||||||1019.3||1|FM15-METAR|223|ICAO-KCCB|||||||||||||||||||||||||||||||||||||||||||MET062METAR KCCB 280055Z AUTO 29004KT 10SM CLR 22/M04 A3010 RMK AO2=||F||223|ICAO-KCCB
USI0000KCCB|CABLE|2017|12|28|01|15|34.1115|-117.6876|438.6|21.0||1|FM15-METAR|223|ICAO-KCCB|-4.0||1|FM15-METAR|223|ICAO-KCCB|||||||||||||340|N-Normal|1|FM15-METAR|223|ICAO-KCCB|2.1|N-Normal|1|FM15-METAR|223|ICAO-KCCB|||||||||||||18|Derived||FM15-METAR|223|ICAO-KCCB|||||||||||||||||||||||||||||||||||||||||||||||||||||||||||||||||||||||||1019.3||1|FM15-METAR|223|ICAO-KCCB|||||||||||||||||||||||||||||||||||||||||||MET062METAR KCCB 280115Z AUTO 34004KT 10SM CLR 21/M04 A3010 RMK AO2=||F||223|ICAO-KCCB
USI0000KCCB|CABLE|2017|12|28|01|35|34.1115|-117.6876|438.6|20.0||1|FM15-METAR|223|ICAO-KCCB|-5.0||1|FM15-METAR|223|ICAO-KCCB|||||||||||||340|N-Normal|1|FM15-METAR|223|ICAO-KCCB|2.6|N-Normal|1|FM15-METAR|223|ICAO-KCCB|||||||||||||18|Derived||FM15-METAR|223|ICAO-KCCB|||||||||||||||||||||||||||||||||||||||||||||||||||||||||||||||||||||||||1019.6||1|FM15-METAR|223|ICAO-KCCB|||||||||||||||||||||||||||||||||||||||||||MET062METAR KCCB 280135Z AUTO 34005KT 10SM CLR 20/M05 A3011 RMK AO2=||F||223|ICAO-KCCB
USI0000KCCB|CABLE|2017|12|28|01|55|34.1115|-117.6876|438.6|20.0||1|FM15-METAR|223|ICAO-KCCB|-5.0||1|FM15-METAR|223|ICAO-KCCB|||||||||||||330|N-Normal|1|FM15-METAR|223|ICAO-KCCB|2.1|N-Normal|1|FM15-METAR|223|ICAO-KCCB|||||||||||||18|Derived||FM15-METAR|223|ICAO-KCCB|||||||||||||||||||||||||||||||||||||||||||||||||||||||||||||||||||||||||1019.6||1|FM15-METAR|223|ICAO-KCCB|||||||||||||||||||||||||||||||||||||||||||MET062METAR KCCB 280155Z AUTO 33004KT 10SM CLR 20/M05 A3011 RMK AO2=||F||223|ICAO-KCCB
USI0000KCCB|CABLE|2017|12|28|02|15|34.1115|-117.6876|438.6|19.0||1|FM15-METAR|223|ICAO-KCCB|-7.0||1|FM15-METAR|223|ICAO-KCCB|||||||||||||350|N-Normal|1|FM15-METAR|223|ICAO-KCCB|2.6|N-Normal|1|FM15-METAR|223|ICAO-KCCB|||||||||||||17|Derived||FM15-METAR|223|ICAO-KCCB|||||||||||||||||||||||||||||||||||||||||||||||||||||||||||||||||||||||||1019.6||1|FM15-METAR|223|ICAO-KCCB|||||||||||||||||||||||||||||||||||||||||||MET062METAR KCCB 280215Z AUTO 35005KT 10SM CLR 19/M07 A3011 RMK AO2=||F||223|ICAO-KCCB
USI0000KCCB|CABLE|2017|12|28|02|35|34.1115|-117.6876|438.6|20.0||1|FM15-METAR|223|ICAO-KCCB|-7.0||1|FM15-METAR|223|ICAO-KCCB|||||||||||||010|N-Normal|1|FM15-METAR|223|ICAO-KCCB|2.6|N-Normal|1|FM15-METAR|223|ICAO-KCCB|||||||||||||16|Derived||FM15-METAR|223|ICAO-KCCB|||||||||||||||||||||||||||||||||||||||||||||||||||||||||||||||||||||||||1019.6||1|FM15-METAR|223|ICAO-KCCB|||||||||||||||||||||||||||||||||||||||||||MET062METAR KCCB 280235Z AUTO 01005KT 10SM CLR 20/M07 A3011 RMK AO2=||F||223|ICAO-KCCB
USI0000KCCB|CABLE|2017|12|28|02|55|34.1115|-117.6876|438.6|20.0||1|FM15-METAR|223|ICAO-KCCB|-7.0||1|FM15-METAR|223|ICAO-KCCB|||||||||||||010|N-Normal|1|FM15-METAR|223|ICAO-KCCB|2.6|N-Normal|1|FM15-METAR|223|ICAO-KCCB|||||||||||||16|Derived||FM15-METAR|223|ICAO-KCCB|||||||||||||||||||||||||||||||||||||||||||||||||||||||||||||||||||||||||1019.6||1|FM15-METAR|223|ICAO-KCCB|||||||||||||||||||||||||||||||||||||||||||MET062METAR KCCB 280255Z AUTO 01005KT 10SM CLR 20/M07 A3011 RMK AO2=||F||223|ICAO-KCCB
USI0000KCCB|CABLE|2017|12|28|03|15|34.1115|-117.6876|438.6|20.0||1|FM15-METAR|223|ICAO-KCCB|-7.0||1|FM15-METAR|223|ICAO-KCCB|||||||||||||010|N-Normal|1|FM15-METAR|223|ICAO-KCCB|3.6|N-Normal|1|FM15-METAR|223|ICAO-KCCB|||||||||||||16|Derived||FM15-METAR|223|ICAO-KCCB|||||||||||||||||||||||||||||||||||||||||||||||||||||||||||||||||||||||||1019.6||1|FM15-METAR|223|ICAO-KCCB|||||||||||||||||||||||||||||||||||||||||||MET062METAR KCCB 280315Z AUTO 01007KT 10SM CLR 20/M07 A3011 RMK AO2=||F||223|ICAO-KCCB
USI0000KCCB|CABLE|2017|12|28|03|35|34.1115|-117.6876|438.6|18.0||1|FM15-METAR|223|ICAO-KCCB|-6.0||1|FM15-METAR|223|ICAO-KCCB|||||||||||||999|C-Calm|9|FM15-METAR|223|ICAO-KCCB|0.0|C-Calm|1|FM15-METAR|223|ICAO-KCCB|||||||||||||19|Derived||FM15-METAR|223|ICAO-KCCB|||||||||||||||||||||||||||||||||||||||||||||||||||||||||||||||||||||||||1020.0||1|FM15-METAR|223|ICAO-KCCB|||||||||||||||||||||||||||||||||||||||||||MET062METAR KCCB 280335Z AUTO 00000KT 10SM CLR 18/M06 A3012 RMK AO2=||F||223|ICAO-KCCB
USI0000KCCB|CABLE|2017|12|28|03|55|34.1115|-117.6876|438.6|18.0||1|FM15-METAR|223|ICAO-KCCB|-6.0||1|FM15-METAR|223|ICAO-KCCB|||||||||||||290|N-Normal|1|FM15-METAR|223|ICAO-KCCB|2.6|N-Normal|1|FM15-METAR|223|ICAO-KCCB|||||||||||||19|Derived||FM15-METAR|223|ICAO-KCCB|||||||||||||||||||||||||||||||||||||||||||||||||||||||||||||||||||||||||1020.3||1|FM15-METAR|223|ICAO-KCCB|||||||||||||||||||||||||||||||||||||||||||MET062METAR KCCB 280355Z AUTO 29005KT 10SM CLR 18/M06 A3013 RMK AO2=||F||223|ICAO-KCCB
USI0000KCCB|CABLE|2017|12|28|04|15|34.1115|-117.6876|438.6|18.0||1|FM15-METAR|223|ICAO-KCCB|-6.0||1|FM15-METAR|223|ICAO-KCCB|||||||||||||999|C-Calm|9|FM15-METAR|223|ICAO-KCCB|0.0|C-Calm|1|FM15-METAR|223|ICAO-KCCB|||||||||||||19|Derived||FM15-METAR|223|ICAO-KCCB|||||||||||||||||||||||||||||||||||||||||||||||||||||||||||||||||||||||||1020.3||1|FM15-METAR|223|ICAO-KCCB|||||||||||||||||||||||||||||||||||||||||||MET058METAR KCCB 280415Z AUTO 00000KT 10SM 18/M06 A3013 RMK AO2=||F||223|ICAO-KCCB
USI0000KCCB|CABLE|2017|12|28|04|35|34.1115|-117.6876|438.6|17.0||1|FM15-METAR|223|ICAO-KCCB|-6.0||1|FM15-METAR|223|ICAO-KCCB|||||||||||||999|C-Calm|9|FM15-METAR|223|ICAO-KCCB|0.0|C-Calm|1|FM15-METAR|223|ICAO-KCCB|||||||||||||20|Derived||FM15-METAR|223|ICAO-KCCB|||||||||||||||||||||||||||||||||||||||||||||||||||||||||||||||||||||||||1020.3||1|FM15-METAR|223|ICAO-KCCB|||||||||||||||||||||||||||||||||||||||||||MET062METAR KCCB 280435Z AUTO 00000KT 10SM CLR 17/M06 A3013 RMK AO2=||F||223|ICAO-KCCB
USI0000KCCB|CABLE|2017|12|28|04|55|34.1115|-117.6876|438.6|17.0||1|FM15-METAR|223|ICAO-KCCB|-5.0||1|FM15-METAR|223|ICAO-KCCB|||||||||||||999|C-Calm|9|FM15-METAR|223|ICAO-KCCB|0.0|C-Calm|1|FM15-METAR|223|ICAO-KCCB|||||||||||||22|Derived||FM15-METAR|223|ICAO-KCCB|||||||||||||||||||||||||||||||||||||||||||||||||||||||||||||||||||||||||1020.3||1|FM15-METAR|223|ICAO-KCCB|||||||||||||||||||||||||||||||||||||||||||MET062METAR KCCB 280455Z AUTO 00000KT 10SM CLR 17/M05 A3013 RMK AO2=||F||223|ICAO-KCCB
USI0000KCCB|CABLE|2017|12|28|05|15|34.1115|-117.6876|438.6|16.0||1|FM15-METAR|223|ICAO-KCCB|-5.0||1|FM15-METAR|223|ICAO-KCCB|||||||||||||999|C-Calm|9|FM15-METAR|223|ICAO-KCCB|0.0|C-Calm|1|FM15-METAR|223|ICAO-KCCB|||||||||||||23|Derived||FM15-METAR|223|ICAO-KCCB|||||||||||||||||||||||||||||||||||||||||||||||||||||||||||||||||||||||||1020.7||1|FM15-METAR|223|ICAO-KCCB|||||||||||||||||||||||||||||||||||||||||||MET062METAR KCCB 280515Z AUTO 00000KT 10SM CLR 16/M05 A3014 RMK AO2=||F||223|ICAO-KCCB
USI0000KCCB|CABLE|2017|12|28|05|35|34.1115|-117.6876|438.6|16.0||1|FM15-METAR|223|ICAO-KCCB|-5.0||1|FM15-METAR|223|ICAO-KCCB|||||||||||||999|C-Calm|9|FM15-METAR|223|ICAO-KCCB|0.0|C-Calm|1|FM15-METAR|223|ICAO-KCCB|||||||||||||23|Derived||FM15-METAR|223|ICAO-KCCB|||||||||||||||||||||||||||||||||||||||||||||||||||||||||||||||||||||||||1020.7||1|FM15-METAR|223|ICAO-KCCB|||||||||||||||||||||||||||||||||||||||||||MET058METAR KCCB 280535Z AUTO 00000KT 10SM 16/M05 A3014 RMK AO2=||F||223|ICAO-KCCB
USI0000KCCB|CABLE|2017|12|28|05|55|34.1115|-117.6876|438.6|16.0||1|FM15-METAR|223|ICAO-KCCB|-5.0||1|FM15-METAR|223|ICAO-KCCB|||||||||||||070|N-Normal|1|FM15-METAR|223|ICAO-KCCB|2.1|N-Normal|1|FM15-METAR|223|ICAO-KCCB|||||||||||||23|Derived||FM15-METAR|223|ICAO-KCCB|||||||||||||||||||||||||||||||||||||||||||||||||||||||||||||||||||||||||1020.7||1|FM15-METAR|223|ICAO-KCCB|||||||||||||||||||||||||||||||||||||||||||MET058METAR KCCB 280555Z AUTO 07004KT 10SM 16/M05 A3014 RMK AO2=||F||223|ICAO-KCCB
USI0000KCCB|CABLE|2017|12|28|06|15|34.1115|-117.6876|438.6|15.0||1|FM15-METAR|223|ICAO-KCCB|-5.0||1|FM15-METAR|223|ICAO-KCCB|||||||||||||050|N-Normal|1|FM15-METAR|223|ICAO-KCCB|3.1|N-Normal|1|FM15-METAR|223|ICAO-KCCB|||||||||||||25|Derived||FM15-METAR|223|ICAO-KCCB|||||||||||||||||||||||||||||||||||||||||||||||||||||||||||||||||||||||||1021.0||1|FM15-METAR|223|ICAO-KCCB|||||||||||||||||||||||||||||||||||||||||||MET062METAR KCCB 280615Z AUTO 05006KT 10SM CLR 15/M05 A3015 RMK AO2=||F||223|ICAO-KCCB
USI0000KCCB|CABLE|2017|12|28|06|35|34.1115|-117.6876|438.6|16.0||1|FM15-METAR|223|ICAO-KCCB|-4.0||1|FM15-METAR|223|ICAO-KCCB|||||||||||||040|N-Normal|1|FM15-METAR|223|ICAO-KCCB|3.1|N-Normal|1|FM15-METAR|223|ICAO-KCCB|||||||||||||25|Derived||FM15-METAR|223|ICAO-KCCB|||||||||||||||||||||||||||||||||||||||||||||||||||||||||||||||||||||||||1021.0||1|FM15-METAR|223|ICAO-KCCB|||||||||||||||||||||||||||||||||||||||||||MET062METAR KCCB 280635Z AUTO 04006KT 10SM CLR 16/M04 A3015 RMK AO2=||F||223|ICAO-KCCB
USI0000KCCB|CABLE|2017|12|28|06|55|34.1115|-117.6876|438.6|17.0||1|FM15-METAR|223|ICAO-KCCB|-4.0||1|FM15-METAR|223|ICAO-KCCB|||||||||||||050|N-Normal|1|FM15-METAR|223|ICAO-KCCB|3.1|N-Normal|1|FM15-METAR|223|ICAO-KCCB|||||||||||||24|Derived||FM15-METAR|223|ICAO-KCCB|||||||||||||||||||||||||||||||||||||||||||||||||||||||||||||||||||||||||1020.7||1|FM15-METAR|223|ICAO-KCCB|||||||||||||||||||||||||||||||||||||||||||MET062METAR KCCB 280655Z AUTO 05006KT 10SM CLR 17/M04 A3014 RMK AO2=||F||223|ICAO-KCCB
USI0000KCCB|CABLE|2017|12|28|07|15|34.1115|-117.6876|438.6|17.0||1|FM15-METAR|223|ICAO-KCCB|-4.0||1|FM15-METAR|223|ICAO-KCCB|||||||||||||060|N-Normal|1|FM15-METAR|223|ICAO-KCCB|2.6|N-Normal|1|FM15-METAR|223|ICAO-KCCB|||||||||||||24|Derived||FM15-METAR|223|ICAO-KCCB|||||||||||||||||||||||||||||||||||||||||||||||||||||||||||||||||||||||||1020.7||1|FM15-METAR|223|ICAO-KCCB|||||||||||||||||||||||||||||||||||||||||||MET062METAR KCCB 280715Z AUTO 06005KT 10SM CLR 17/M04 A3014 RMK AO2=||F||223|ICAO-KCCB
USI0000KCCB|CABLE|2017|12|28|07|35|34.1115|-117.6876|438.6|17.0||1|FM15-METAR|223|ICAO-KCCB|-4.0||1|FM15-METAR|223|ICAO-KCCB|||||||||||||060|N-Normal|1|FM15-METAR|223|ICAO-KCCB|3.1|N-Normal|1|FM15-METAR|223|ICAO-KCCB|||||||||||||24|Derived||FM15-METAR|223|ICAO-KCCB|||||||||||||||||||||||||||||||||||||||||||||||||||||||||||||||||||||||||1020.7||1|FM15-METAR|223|ICAO-KCCB|||||||||||||||||||||||||||||||||||||||||||MET062METAR KCCB 280735Z AUTO 06006KT 10SM CLR 17/M04 A3014 RMK AO2=||F||223|ICAO-KCCB
USI0000KCCB|CABLE|2017|12|28|07|55|34.1115|-117.6876|438.6|16.0||1|FM15-METAR|223|ICAO-KCCB|-4.0||1|FM15-METAR|223|ICAO-KCCB|||||||||||||050|N-Normal|1|FM15-METAR|223|ICAO-KCCB|2.1|N-Normal|1|FM15-METAR|223|ICAO-KCCB|||||||||||||25|Derived||FM15-METAR|223|ICAO-KCCB|||||||||||||||||||||||||||||||||||||||||||||||||||||||||||||||||||||||||1020.7||1|FM15-METAR|223|ICAO-KCCB|||||||||||||||||||||||||||||||||||||||||||MET062METAR KCCB 280755Z AUTO 05004KT 10SM CLR 16/M04 A3014 RMK AO2=||F||223|ICAO-KCCB
USI0000KCCB|CABLE|2017|12|28|08|15|34.1115|-117.6876|438.6|16.0||1|FM15-METAR|223|ICAO-KCCB|-4.0||1|FM15-METAR|223|ICAO-KCCB|||||||||||||040|N-Normal|1|FM15-METAR|223|ICAO-KCCB|2.6|N-Normal|1|FM15-METAR|223|ICAO-KCCB|||||||||||||25|Derived||FM15-METAR|223|ICAO-KCCB|||||||||||||||||||||||||||||||||||||||||||||||||||||||||||||||||||||||||1020.7||1|FM15-METAR|223|ICAO-KCCB|||||||||||||||||||||||||||||||||||||||||||MET062METAR KCCB 280815Z AUTO 04005KT 10SM CLR 16/M04 A3014 RMK AO2=||F||223|ICAO-KCCB
USI0000KCCB|CABLE|2017|12|28|08|35|34.1115|-117.6876|438.6|16.0||1|FM15-METAR|223|ICAO-KCCB|-4.0||1|FM15-METAR|223|ICAO-KCCB|||||||||||||060|N-Normal|1|FM15-METAR|223|ICAO-KCCB|2.6|N-Normal|1|FM15-METAR|223|ICAO-KCCB|||||||||||||25|Derived||FM15-METAR|223|ICAO-KCCB|||||||||||||||||||||||||||||||||||||||||||||||||||||||||||||||||||||||||1020.7||1|FM15-METAR|223|ICAO-KCCB|||||||||||||||||||||||||||||||||||||||||||MET062METAR KCCB 280835Z AUTO 06005KT 10SM CLR 16/M04 A3014 RMK AO2=||F||223|ICAO-KCCB
USI0000KCCB|CABLE|2017|12|28|08|55|34.1115|-117.6876|438.6|16.0||1|FM15-METAR|223|ICAO-KCCB|-4.0||1|FM15-METAR|223|ICAO-KCCB|||||||||||||040|N-Normal|1|FM15-METAR|223|ICAO-KCCB|2.6|N-Normal|1|FM15-METAR|223|ICAO-KCCB|||||||||||||25|Derived||FM15-METAR|223|ICAO-KCCB|||||||||||||||||||||||||||||||||||||||||||||||||||||||||||||||||||||||||1020.7||1|FM15-METAR|223|ICAO-KCCB|||||||||||||||||||||||||||||||||||||||||||MET062METAR KCCB 280855Z AUTO 04005KT 10SM CLR 16/M04 A3014 RMK AO2=||F||223|ICAO-KCCB
USI0000KCCB|CABLE|2017|12|28|09|15|34.1115|-117.6876|438.6|16.0||1|FM15-METAR|223|ICAO-KCCB|-4.0||1|FM15-METAR|223|ICAO-KCCB|||||||||||||040|N-Normal|1|FM15-METAR|223|ICAO-KCCB|2.6|N-Normal|1|FM15-METAR|223|ICAO-KCCB|||||||||||||25|Derived||FM15-METAR|223|ICAO-KCCB|||||||||||||||||||||||||||||||||||||||||||||||||||||||||||||||||||||||||1021.0||1|FM15-METAR|223|ICAO-KCCB|||||||||||||||||||||||||||||||||||||||||||MET062METAR KCCB 280915Z AUTO 04005KT 10SM CLR 16/M04 A3015 RMK AO2=||F||223|ICAO-KCCB
USI0000KCCB|CABLE|2017|12|28|09|35|34.1115|-117.6876|438.6|15.0||1|FM15-METAR|223|ICAO-KCCB|-4.0||1|FM15-METAR|223|ICAO-KCCB|||||||||||||050|N-Normal|1|FM15-METAR|223|ICAO-KCCB|2.1|N-Normal|1|FM15-METAR|223|ICAO-KCCB|||||||||||||27|Derived||FM15-METAR|223|ICAO-KCCB|||||||||||||||||||||||||||||||||||||||||||||||||||||||||||||||||||||||||1020.7||1|FM15-METAR|223|ICAO-KCCB|||||||||||||||||||||||||||||||||||||||||||MET058METAR KCCB 280935Z AUTO 05004KT 10SM 15/M04 A3014 RMK AO2=||F||223|ICAO-KCCB
USI0000KCCB|CABLE|2017|12|28|09|55|34.1115|-117.6876|438.6|16.0||1|FM15-METAR|223|ICAO-KCCB|-4.0||1|FM15-METAR|223|ICAO-KCCB|||||||||||||050|N-Normal|1|FM15-METAR|223|ICAO-KCCB|1.5|N-Normal|1|FM15-METAR|223|ICAO-KCCB|||||||||||||25|Derived||FM15-METAR|223|ICAO-KCCB|||||||||||||||||||||||||||||||||||||||||||||||||||||||||||||||||||||||||1020.7||1|FM15-METAR|223|ICAO-KCCB|||||||||||||||||||||||||||||||||||||||||||MET062METAR KCCB 280955Z AUTO 05003KT 10SM CLR 16/M04 A3014 RMK AO2=||F||223|ICAO-KCCB
USI0000KCCB|CABLE|2017|12|28|10|15|34.1115|-117.6876|438.6|16.0||1|FM15-METAR|223|ICAO-KCCB|-5.0||1|FM15-METAR|223|ICAO-KCCB|||||||||||||050|N-Normal|1|FM15-METAR|223|ICAO-KCCB|1.5|N-Normal|1|FM15-METAR|223|ICAO-KCCB|||||||||||||23|Derived||FM15-METAR|223|ICAO-KCCB|||||||||||||||||||||||||||||||||||||||||||||||||||||||||||||||||||||||||1020.7||1|FM15-METAR|223|ICAO-KCCB|||||||||||||||||||||||||||||||||||||||||||MET062METAR KCCB 281015Z AUTO 05003KT 10SM CLR 16/M05 A3014 RMK AO2=||F||223|ICAO-KCCB
USI0000KCCB|CABLE|2017|12|28|10|35|34.1115|-117.6876|438.6|14.0||1|FM15-METAR|223|ICAO-KCCB|-4.0||1|FM15-METAR|223|ICAO-KCCB|||||||||||||010|N-Normal|1|FM15-METAR|223|ICAO-KCCB|1.5|N-Normal|1|FM15-METAR|223|ICAO-KCCB|||||||||||||29|Derived||FM15-METAR|223|ICAO-KCCB|||||||||||||||||||||||||||||||||||||||||||||||||||||||||||||||||||||||||1021.0||1|FM15-METAR|223|ICAO-KCCB|||||||||||||||||||||||||||||||||||||||||||MET062METAR KCCB 281035Z AUTO 01003KT 10SM CLR 14/M04 A3015 RMK AO2=||F||223|ICAO-KCCB
USI0000KCCB|CABLE|2017|12|28|10|55|34.1115|-117.6876|438.6|15.0||1|FM15-METAR|223|ICAO-KCCB|-4.0||1|FM15-METAR|223|ICAO-KCCB|||||||||||||050|N-Normal|1|FM15-METAR|223|ICAO-KCCB|1.5|N-Normal|1|FM15-METAR|223|ICAO-KCCB|||||||||||||27|Derived||FM15-METAR|223|ICAO-KCCB|||||||||||||||||||||||||||||||||||||||||||||||||||||||||||||||||||||||||1020.7||1|FM15-METAR|223|ICAO-KCCB|||||||||||||||||||||||||||||||||||||||||||MET062METAR KCCB 281055Z AUTO 05003KT 10SM CLR 15/M04 A3014 RMK AO2=||F||223|ICAO-KCCB
USI0000KCCB|CABLE|2017|12|28|11|15|34.1115|-117.6876|438.6|14.0||1|FM15-METAR|223|ICAO-KCCB|-5.0||1|FM15-METAR|223|ICAO-KCCB|||||||||||||050|N-Normal|1|FM15-METAR|223|ICAO-KCCB|2.6|N-Normal|1|FM15-METAR|223|ICAO-KCCB|||||||||||||27|Derived||FM15-METAR|223|ICAO-KCCB|||||||||||||||||||||||||||||||||||||||||||||||||||||||||||||||||||||||||1020.7||1|FM15-METAR|223|ICAO-KCCB|||||||||||||||||||||||||||||||||||||||||||MET062METAR KCCB 281115Z AUTO 05005KT 10SM CLR 14/M05 A3014 RMK AO2=||F||223|ICAO-KCCB
USI0000KCCB|CABLE|2017|12|28|11|35|34.1115|-117.6876|438.6|14.0||1|FM15-METAR|223|ICAO-KCCB|-5.0||1|FM15-METAR|223|ICAO-KCCB|||||||||||||999|C-Calm|9|FM15-METAR|223|ICAO-KCCB|0.0|C-Calm|1|FM15-METAR|223|ICAO-KCCB|||||||||||||27|Derived||FM15-METAR|223|ICAO-KCCB|||||||||||||||||||||||||||||||||||||||||||||||||||||||||||||||||||||||||1020.3||1|FM15-METAR|223|ICAO-KCCB|||||||||||||||||||||||||||||||||||||||||||MET062METAR KCCB 281135Z AUTO 00000KT 10SM CLR 14/M05 A3013 RMK AO2=||F||223|ICAO-KCCB
USI0000KCCB|CABLE|2017|12|28|11|55|34.1115|-117.6876|438.6|15.0||1|FM15-METAR|223|ICAO-KCCB|-5.0||1|FM15-METAR|223|ICAO-KCCB|||||||||||||040|N-Normal|1|FM15-METAR|223|ICAO-KCCB|2.6|N-Normal|1|FM15-METAR|223|ICAO-KCCB|||||||||||||25|Derived||FM15-METAR|223|ICAO-KCCB|||||||||||||||||||||||||||||||||||||||||||||||||||||||||||||||||||||||||1020.0||1|FM15-METAR|223|ICAO-KCCB|||||||||||||||||||||||||||||||||||||||||||MET062METAR KCCB 281155Z AUTO 04005KT 10SM CLR 15/M05 A3012 RMK AO2=||F||223|ICAO-KCCB
USI0000KCCB|CABLE|2017|12|28|12|15|34.1115|-117.6876|438.6|15.0||1|FM15-METAR|223|ICAO-KCCB|-5.0||1|FM15-METAR|223|ICAO-KCCB|||||||||||||070|N-Normal|1|FM15-METAR|223|ICAO-KCCB|2.1|N-Normal|1|FM15-METAR|223|ICAO-KCCB|||||||||||||25|Derived||FM15-METAR|223|ICAO-KCCB|||||||||||||||||||||||||||||||||||||||||||||||||||||||||||||||||||||||||1020.0||1|FM15-METAR|223|ICAO-KCCB|||||||||||||||||||||||||||||||||||||||||||MET062METAR KCCB 281215Z AUTO 07004KT 10SM CLR 15/M05 A3012 RMK AO2=||F||223|ICAO-KCCB
USI0000KCCB|CABLE|2017|12|28|12|35|34.1115|-117.6876|438.6|15.0||1|FM15-METAR|223|ICAO-KCCB|-5.0||1|FM15-METAR|223|ICAO-KCCB|||||||||||||070|N-Normal|1|FM15-METAR|223|ICAO-KCCB|2.1|N-Normal|1|FM15-METAR|223|ICAO-KCCB|||||||||||||25|Derived||FM15-METAR|223|ICAO-KCCB|||||||||||||||||||||||||||||||||||||||||||||||||||||||||||||||||||||||||1020.0||1|FM15-METAR|223|ICAO-KCCB|||||||||||||||||||||||||||||||||||||||||||MET062METAR KCCB 281235Z AUTO 07004KT 10SM CLR 15/M05 A3012 RMK AO2=||F||223|ICAO-KCCB
USI0000KCCB|CABLE|2017|12|28|12|55|34.1115|-117.6876|438.6|14.0||1|FM15-METAR|223|ICAO-KCCB|-5.0||1|FM15-METAR|223|ICAO-KCCB|||||||||||||040|N-Normal|1|FM15-METAR|223|ICAO-KCCB|2.1|N-Normal|1|FM15-METAR|223|ICAO-KCCB|||||||||||||27|Derived||FM15-METAR|223|ICAO-KCCB|||||||||||||||||||||||||||||||||||||||||||||||||||||||||||||||||||||||||1020.0||1|FM15-METAR|223|ICAO-KCCB|||||||||||||||||||||||||||||||||||||||||||MET062METAR KCCB 281255Z AUTO 04004KT 10SM CLR 14/M05 A3012 RMK AO2=||F||223|ICAO-KCCB
USI0000KCCB|CABLE|2017|12|28|13|15|34.1115|-117.6876|438.6|14.0||1|FM15-METAR|223|ICAO-KCCB|-4.0||1|FM15-METAR|223|ICAO-KCCB|||||||||||||040|N-Normal|1|FM15-METAR|223|ICAO-KCCB|1.5|N-Normal|1|FM15-METAR|223|ICAO-KCCB|||||||||||||29|Derived||FM15-METAR|223|ICAO-KCCB|||||||||||||||||||||||||||||||||||||||||||||||||||||||||||||||||||||||||1020.0||1|FM15-METAR|223|ICAO-KCCB|||||||||||||||||||||||||||||||||||||||||||MET062METAR KCCB 281315Z AUTO 04003KT 10SM CLR 14/M04 A3012 RMK AO2=||F||223|ICAO-KCCB
USI0000KCCB|CABLE|2017|12|28|13|35|34.1115|-117.6876|438.6|15.0||1|FM15-METAR|223|ICAO-KCCB|-4.0||1|FM15-METAR|223|ICAO-KCCB|||||||||||||060|N-Normal|1|FM15-METAR|223|ICAO-KCCB|1.5|N-Normal|1|FM15-METAR|223|ICAO-KCCB|||||||||||||27|Derived||FM15-METAR|223|ICAO-KCCB|||||||||||||||||||||||||||||||||||||||||||||||||||||||||||||||||||||||||1020.3||1|FM15-METAR|223|ICAO-KCCB|||||||||||||||||||||||||||||||||||||||||||MET062METAR KCCB 281335Z AUTO 06003KT 10SM CLR 15/M04 A3013 RMK AO2=||F||223|ICAO-KCCB
USI0000KCCB|CABLE|2017|12|28|13|55|34.1115|-117.6876|438.6|15.0||1|FM15-METAR|223|ICAO-KCCB|-4.0||1|FM15-METAR|223|ICAO-KCCB|||||||||||||999|C-Calm|9|FM15-METAR|223|ICAO-KCCB|0.0|C-Calm|1|FM15-METAR|223|ICAO-KCCB|||||||||||||27|Derived||FM15-METAR|223|ICAO-KCCB|||||||||||||||||||||||||||||||||||||||||||||||||||||||||||||||||||||||||1020.7||1|FM15-METAR|223|ICAO-KCCB|||||||||||||||||||||||||||||||||||||||||||MET062METAR KCCB 281355Z AUTO 00000KT 10SM CLR 15/M04 A3014 RMK AO2=||F||223|ICAO-KCCB
USI0000KCCB|CABLE|2017|12|28|14|15|34.1115|-117.6876|438.6|15.0||1|FM15-METAR|223|ICAO-KCCB|-4.0||1|FM15-METAR|223|ICAO-KCCB|||||||||||||010|N-Normal|1|FM15-METAR|223|ICAO-KCCB|2.1|N-Normal|1|FM15-METAR|223|ICAO-KCCB|||||||||||||27|Derived||FM15-METAR|223|ICAO-KCCB|||||||||||||||||||||||||||||||||||||||||||||||||||||||||||||||||||||||||1020.7||1|FM15-METAR|223|ICAO-KCCB|||||||||||||||||||||||||||||||||||||||||||MET062METAR KCCB 281415Z AUTO 01004KT 10SM CLR 15/M04 A3014 RMK AO2=||F||223|ICAO-KCCB
USI0000KCCB|CABLE|2017|12|28|14|35|34.1115|-117.6876|438.6|14.0||1|FM15-METAR|223|ICAO-KCCB|-6.0||1|FM15-METAR|223|ICAO-KCCB|||||||||||||999|C-Calm|9|FM15-METAR|223|ICAO-KCCB|0.0|C-Calm|1|FM15-METAR|223|ICAO-KCCB|||||||||||||25|Derived||FM15-METAR|223|ICAO-KCCB|||||||||||||||||||||||||||||||||||||||||||||||||||||||||||||||||||||||||1020.7||1|FM15-METAR|223|ICAO-KCCB|||||||||||||||||||||||||||||||||||||||||||MET062METAR KCCB 281435Z AUTO 00000KT 10SM CLR 14/M06 A3014 RMK AO2=||F||223|ICAO-KCCB
USI0000KCCB|CABLE|2017|12|28|14|55|34.1115|-117.6876|438.6|14.0||1|FM15-METAR|223|ICAO-KCCB|-6.0||1|FM15-METAR|223|ICAO-KCCB|||||||||||||010|N-Normal|1|FM15-METAR|223|ICAO-KCCB|1.5|N-Normal|1|FM15-METAR|223|ICAO-KCCB|||||||||||||25|Derived||FM15-METAR|223|ICAO-KCCB|||||||||||||||||||||||||||||||||||||||||||||||||||||||||||||||||||||||||1020.7||1|FM15-METAR|223|ICAO-KCCB|||||||||||||||||||||||||||||||||||||||||||MET062METAR KCCB 281455Z AUTO 01003KT 10SM CLR 14/M06 A3014 RMK AO2=||F||223|ICAO-KCCB
USI0000KCCB|CABLE|2017|12|28|15|15|34.1115|-117.6876|438.6|13.0||1|FM15-METAR|223|ICAO-KCCB|-6.0||1|FM15-METAR|223|ICAO-KCCB|||||||||||||999|C-Calm|9|FM15-METAR|223|ICAO-KCCB|0.0|C-Calm|1|FM15-METAR|223|ICAO-KCCB|||||||||||||26|Derived||FM15-METAR|223|ICAO-KCCB|||||||||||||||||||||||||||||||||||||||||||||||||||||||||||||||||||||||||1021.0||1|FM15-METAR|223|ICAO-KCCB|||||||||||||||||||||||||||||||||||||||||||MET062METAR KCCB 281515Z AUTO 00000KT 10SM CLR 13/M06 A3015 RMK AO2=||F||223|ICAO-KCCB
USI0000KCCB|CABLE|2017|12|28|15|35|34.1115|-117.6876|438.6|14.0||1|FM15-METAR|223|ICAO-KCCB|-5.0||1|FM15-METAR|223|ICAO-KCCB|||||||||||||999|C-Calm|9|FM15-METAR|223|ICAO-KCCB|0.0|C-Calm|1|FM15-METAR|223|ICAO-KCCB|||||||||||||27|Derived||FM15-METAR|223|ICAO-KCCB|||||||||||||||||||||||||||||||||||||||||||||||||||||||||||||||||||||||||1021.0||1|FM15-METAR|223|ICAO-KCCB|||||||||||||||||||||||||||||||||||||||||||MET062METAR KCCB 281535Z AUTO 00000KT 10SM CLR 14/M05 A3015 RMK AO2=||F||223|ICAO-KCCB
USI0000KCCB|CABLE|2017|12|28|15|55|34.1115|-117.6876|438.6|15.0||1|FM15-METAR|223|ICAO-KCCB|-5.0||1|FM15-METAR|223|ICAO-KCCB|||||||||||||010|N-Normal|1|FM15-METAR|223|ICAO-KCCB|2.6|N-Normal|1|FM15-METAR|223|ICAO-KCCB|||||||||||||25|Derived||FM15-METAR|223|ICAO-KCCB|||||||||||||||||||||||||||||||||||||||||||||||||||||||||||||||||||||||||1021.0||1|FM15-METAR|223|ICAO-KCCB|||||||||||||||||||||||||||||||||||||||||||MET062METAR KCCB 281555Z AUTO 01005KT 10SM CLR 15/M05 A3015 RMK AO2=||F||223|ICAO-KCCB
USI0000KCCB|CABLE|2017|12|28|16|15|34.1115|-117.6876|438.6|17.0||1|FM15-METAR|223|ICAO-KCCB|-4.0||1|FM15-METAR|223|ICAO-KCCB|||||||||||||999|C-Calm|9|FM15-METAR|223|ICAO-KCCB|0.0|C-Calm|1|FM15-METAR|223|ICAO-KCCB|||||||||||||24|Derived||FM15-METAR|223|ICAO-KCCB|||||||||||||||||||||||||||||||||||||||||||||||||||||||||||||||||||||||||1021.0||1|FM15-METAR|223|ICAO-KCCB|||||||||||||||||||||||||||||||||||||||||||MET062METAR KCCB 281615Z AUTO 00000KT 10SM CLR 17/M04 A3015 RMK AO2=||F||223|ICAO-KCCB
USI0000KCCB|CABLE|2017|12|28|16|35|34.1115|-117.6876|438.6|18.0||1|FM15-METAR|223|ICAO-KCCB|-5.0||1|FM15-METAR|223|ICAO-KCCB|||||||||||||999|C-Calm|9|FM15-METAR|223|ICAO-KCCB|0.0|C-Calm|1|FM15-METAR|223|ICAO-KCCB|||||||||||||21|Derived||FM15-METAR|223|ICAO-KCCB|||||||||||||||||||||||||||||||||||||||||||||||||||||||||||||||||||||||||1021.3||1|FM15-METAR|223|ICAO-KCCB|||||||||||||||||||||||||||||||||||||||||||MET062METAR KCCB 281635Z AUTO 00000KT 10SM CLR 18/M05 A3016 RMK AO2=||F||223|ICAO-KCCB
USI0000KCCB|CABLE|2017|12|28|16|55|34.1115|-117.6876|438.6|19.0||1|FM15-METAR|223|ICAO-KCCB|-6.0||1|FM15-METAR|223|ICAO-KCCB|||||||||||||999|C-Calm|9|FM15-METAR|223|ICAO-KCCB|0.0|C-Calm|1|FM15-METAR|223|ICAO-KCCB|||||||||||||18|Derived||FM15-METAR|223|ICAO-KCCB|||||||||||||||||||||||||||||||||||||||||||||||||||||||||||||||||||||||||1021.3||1|FM15-METAR|223|ICAO-KCCB|||||||||||||||||||||||||||||||||||||||||||MET062METAR KCCB 281655Z AUTO 00000KT 10SM CLR 19/M06 A3016 RMK AO2=||F||223|ICAO-KCCB
USI0000KCCB|CABLE|2017|12|28|17|15|34.1115|-117.6876|438.6|19.0||1|FM15-METAR|223|ICAO-KCCB|-5.0||1|FM15-METAR|223|ICAO-KCCB|||||||||||||999|C-Calm|9|FM15-METAR|223|ICAO-KCCB|0.0|C-Calm|1|FM15-METAR|223|ICAO-KCCB|||||||||||||19|Derived||FM15-METAR|223|ICAO-KCCB|||||||||||||||||||||||||||||||||||||||||||||||||||||||||||||||||||||||||1021.7||1|FM15-METAR|223|ICAO-KCCB|||||||||||||||||||||||||||||||||||||||||||MET062METAR KCCB 281715Z AUTO 00000KT 10SM CLR 19/M05 A3017 RMK AO2=||F||223|ICAO-KCCB
USI0000KCCB|CABLE|2017|12|28|17|35|34.1115|-117.6876|438.6|19.0||1|FM15-METAR|223|ICAO-KCCB|-6.0||1|FM15-METAR|223|ICAO-KCCB|||||||||||||999|C-Calm|9|FM15-METAR|223|ICAO-KCCB|0.0|C-Calm|1|FM15-METAR|223|ICAO-KCCB|||||||||||||18|Derived||FM15-METAR|223|ICAO-KCCB|||||||||||||||||||||||||||||||||||||||||||||||||||||||||||||||||||||||||1021.7||1|FM15-METAR|223|ICAO-KCCB|||||||||||||||||||||||||||||||||||||||||||MET064METAR KCCB 281735Z AUTO 00000KT 6SM HZ CLR 19/M06 A3017 RMK AO2=||F||223|ICAO-KCCB
USI0000KCCB|CABLE|2017|12|28|17|55|34.1115|-117.6876|438.6|20.0||1|FM15-METAR|223|ICAO-KCCB|-6.0||1|FM15-METAR|223|ICAO-KCCB|||||||||||||999|C-Calm|9|FM15-METAR|223|ICAO-KCCB|0.0|C-Calm|1|FM15-METAR|223|ICAO-KCCB|||||||||||||17|Derived||FM15-METAR|223|ICAO-KCCB|||||||||||||||||||||||||||||||||||||||||||||||||||||||||||||||||||||||||1021.7||1|FM15-METAR|223|ICAO-KCCB|||||||||||||||||||||||||||||||||||||||||||MET062METAR KCCB 281755Z AUTO 00000KT 10SM CLR 20/M06 A3017 RMK AO2=||F||223|ICAO-KCCB
USI0000KCCB|CABLE|2017|12|28|18|15|34.1115|-117.6876|438.6|21.0||1|FM15-METAR|223|ICAO-KCCB|-6.0||1|FM15-METAR|223|ICAO-KCCB|||||||||||||999|C-Calm|9|FM15-METAR|223|ICAO-KCCB|0.0|C-Calm|1|FM15-METAR|223|ICAO-KCCB|||||||||||||16|Derived||FM15-METAR|223|ICAO-KCCB|||||||||||||||||||||||||||||||||||||||||||||||||||||||||||||||||||||||||1021.7||1|FM15-METAR|223|ICAO-KCCB|||||||||||||||||||||||||||||||||||||||||||MET062METAR KCCB 281815Z AUTO 00000KT 10SM CLR 21/M06 A3017 RMK AO2=||F||223|ICAO-KCCB
USI0000KCCB|CABLE|2017|12|28|18|35|34.1115|-117.6876|438.6|22.0||1|FM15-METAR|223|ICAO-KCCB|-6.0||1|FM15-METAR|223|ICAO-KCCB|||||||||||||999|C-Calm|9|FM15-METAR|223|ICAO-KCCB|0.0|C-Calm|1|FM15-METAR|223|ICAO-KCCB|||||||||||||15|Derived||FM15-METAR|223|ICAO-KCCB|||||||||||||||||||||||||||||||||||||||||||||||||||||||||||||||||||||||||1021.7||1|FM15-METAR|223|ICAO-KCCB|||||||||||||||||||||||||||||||||||||||||||MET062METAR KCCB 281835Z AUTO 00000KT 10SM CLR 22/M06 A3017 RMK AO2=||F||223|ICAO-KCCB
USI0000KCCB|CABLE|2017|12|28|18|55|34.1115|-117.6876|438.6|22.0||1|FM15-METAR|223|ICAO-KCCB|-6.0||1|FM15-METAR|223|ICAO-KCCB|||||||||||||999|C-Calm|9|FM15-METAR|223|ICAO-KCCB|0.0|C-Calm|1|FM15-METAR|223|ICAO-KCCB|||||||||||||15|Derived||FM15-METAR|223|ICAO-KCCB|||||||||||||||||||||||||||||||||||||||||||||||||||||||||||||||||||||||||1021.3||1|FM15-METAR|223|ICAO-KCCB|||||||||||||||||||||||||||||||||||||||||||MET062METAR KCCB 281855Z AUTO 00000KT 10SM CLR 22/M06 A3016 RMK AO2=||F||223|ICAO-KCCB
USI0000KCCB|CABLE|2017|12|28|19|15|34.1115|-117.6876|438.6|23.0||1|FM15-METAR|223|ICAO-KCCB|-7.0||1|FM15-METAR|223|ICAO-KCCB|||||||||||||999|C-Calm|9|FM15-METAR|223|ICAO-KCCB|0.0|C-Calm|1|FM15-METAR|223|ICAO-KCCB|||||||||||||13|Derived||FM15-METAR|223|ICAO-KCCB|||||||||||||||||||||||||||||||||||||||||||||||||||||||||||||||||||||||||1021.0||1|FM15-METAR|223|ICAO-KCCB|||||||||||||||||||||||||||||||||||||||||||MET062METAR KCCB 281915Z AUTO 00000KT 10SM CLR 23/M07 A3015 RMK AO2=||F||223|ICAO-KCCB
USI0000KCCB|CABLE|2017|12|28|19|35|34.1115|-117.6876|438.6|23.0||1|FM15-METAR|223|ICAO-KCCB|-6.0||1|FM15-METAR|223|ICAO-KCCB|||||||||||||230|N-Normal|1|FM15-METAR|223|ICAO-KCCB|2.1|N-Normal|1|FM15-METAR|223|ICAO-KCCB|||||||||||||14|Derived||FM15-METAR|223|ICAO-KCCB|||||||||||||||||||||||||||||||||||||||||||||||||||||||||||||||||||||||||1020.7||1|FM15-METAR|223|ICAO-KCCB|||||||||||||||||||||||||||||||||||||||||||MET062METAR KCCB 281935Z AUTO 23004KT 10SM CLR 23/M06 A3014 RMK AO2=||F||223|ICAO-KCCB
USI0000KCCB|CABLE|2017|12|28|19|55|34.1115|-117.6876|438.6|24.0||1|FM15-METAR|223|ICAO-KCCB|-6.0||1|FM15-METAR|223|ICAO-KCCB|||||||||||||999|C-Calm|9|FM15-METAR|223|ICAO-KCCB|0.0|C-Calm|1|FM15-METAR|223|ICAO-KCCB|||||||||||||13|Derived||FM15-METAR|223|ICAO-KCCB|||||||||||||||||||||||||||||||||||||||||||||||||||||||||||||||||||||||||1020.3||1|FM15-METAR|223|ICAO-KCCB|||||||||||||||||||||||||||||||||||||||||||MET062METAR KCCB 281955Z AUTO 00000KT 10SM CLR 24/M06 A3013 RMK AO2=||F||223|ICAO-KCCB
USI0000KCCB|CABLE|2017|12|28|20|15|34.1115|-117.6876|438.6|24.0||1|FM15-METAR|223|ICAO-KCCB|-6.0||1|FM15-METAR|223|ICAO-KCCB|||||||||||||230|N-Normal|1|FM15-METAR|223|ICAO-KCCB|1.5|N-Normal|1|FM15-METAR|223|ICAO-KCCB|||||||||||||13|Derived||FM15-METAR|223|ICAO-KCCB|||||||||||||||||||||||||||||||||||||||||||||||||||||||||||||||||||||||||1020.0||1|FM15-METAR|223|ICAO-KCCB|||||||||||||||||||||||||||||||||||||||||||MET062METAR KCCB 282015Z AUTO 23003KT 10SM CLR 24/M06 A3012 RMK AO2=||F||223|ICAO-KCCB
USI0000KCCB|CABLE|2017|12|28|20|35|34.1115|-117.6876|438.6|25.0||1|FM15-METAR|223|ICAO-KCCB|-6.0||1|FM15-METAR|223|ICAO-KCCB|||||||||||||999|V-Variable|9|FM15-METAR|223|ICAO-KCCB|1.5|V-Variable|1|FM15-METAR|223|ICAO-KCCB|||||||||||||12|Derived||FM15-METAR|223|ICAO-KCCB|||||||||||||||||||||||||||||||||||||||||||||||||||||||||||||||||||||||||1020.0||1|FM15-METAR|223|ICAO-KCCB|||||||||||||||||||||||||||||||||||||||||||MET062METAR KCCB 282035Z AUTO VRB03KT 10SM CLR 25/M06 A3012 RMK AO2=||F||223|ICAO-KCCB
USI0000KCCB|CABLE|2017|12|28|20|55|34.1115|-117.6876|438.6|25.0||1|FM15-METAR|223|ICAO-KCCB|-6.0||1|FM15-METAR|223|ICAO-KCCB|||||||||||||250|N-Normal|1|FM15-METAR|223|ICAO-KCCB|2.1|N-Normal|1|FM15-METAR|223|ICAO-KCCB|||||||||||||12|Derived||FM15-METAR|223|ICAO-KCCB|||||||||||||||||||||||||||||||||||||||||||||||||||||||||||||||||||||||||1019.6||1|FM15-METAR|223|ICAO-KCCB|||||||||||||||||||||||||||||||||||||||||||MET062METAR KCCB 282055Z AUTO 25004KT 10SM CLR 25/M06 A3011 RMK AO2=||F||223|ICAO-KCCB
USI0000KCCB|CABLE|2017|12|28|21|15|34.1115|-117.6876|438.6|26.0||1|FM15-METAR|223|ICAO-KCCB|-7.0||1|FM15-METAR|223|ICAO-KCCB|||||||||||||230|N-Normal|1|FM15-METAR|223|ICAO-KCCB|1.5|N-Normal|1|FM15-METAR|223|ICAO-KCCB|||||||||||||11|Derived||FM15-METAR|223|ICAO-KCCB|||||||||||||||||||||||||||||||||||||||||||||||||||||||||||||||||||||||||1019.3||1|FM15-METAR|223|ICAO-KCCB|||||||||||||||||||||||||||||||||||||||||||MET062METAR KCCB 282115Z AUTO 23003KT 10SM CLR 26/M07 A3010 RMK AO2=||F||223|ICAO-KCCB
USI0000KCCB|CABLE|2017|12|28|21|35|34.1115|-117.6876|438.6|27.0||1|FM15-METAR|223|ICAO-KCCB|-7.0||1|FM15-METAR|223|ICAO-KCCB|||||||||||||999|V-Variable|9|FM15-METAR|223|ICAO-KCCB|2.1|V-Variable|1|FM15-METAR|223|ICAO-KCCB|||||||||||||10|Derived||FM15-METAR|223|ICAO-KCCB|||||||||||||||||||||||||||||||||||||||||||||||||||||||||||||||||||||||||1019.0||1|FM15-METAR|223|ICAO-KCCB|||||||||||||||||||||||||||||||||||||||||||MET062METAR KCCB 282135Z AUTO VRB04KT 10SM CLR 27/M07 A3009 RMK AO2=||F||223|ICAO-KCCB
USI0000KCCB|CABLE|2017|12|28|21|55|34.1115|-117.6876|438.6|27.0||1|FM15-METAR|223|ICAO-KCCB|-7.0||1|FM15-METAR|223|ICAO-KCCB|||||||||||||260|N-Normal|1|FM15-METAR|223|ICAO-KCCB|2.6|N-Normal|1|FM15-METAR|223|ICAO-KCCB|||||||||||||10|Derived||FM15-METAR|223|ICAO-KCCB|||||||||||||||||||||||||||||||||||||||||||||||||||||||||||||||||||||||||1019.0||1|FM15-METAR|223|ICAO-KCCB|||||||||||||||||||||||||||||||||||||||||||MET062METAR KCCB 282155Z AUTO 26005KT 10SM CLR 27/M07 A3009 RMK AO2=||F||223|ICAO-KCCB
USI0000KCCB|CABLE|2017|12|28|22|15|34.1115|-117.6876|438.6|27.0||1|FM15-METAR|223|ICAO-KCCB|-7.0||1|FM15-METAR|223|ICAO-KCCB|||||||||||||999|C-Calm|9|FM15-METAR|223|ICAO-KCCB|0.0|C-Calm|1|FM15-METAR|223|ICAO-KCCB|||||||||||||10|Derived||FM15-METAR|223|ICAO-KCCB|||||||||||||||||||||||||||||||||||||||||||||||||||||||||||||||||||||||||1019.0||1|FM15-METAR|223|ICAO-KCCB|||||||||||||||||||||||||||||||||||||||||||MET062METAR KCCB 282215Z AUTO 00000KT 10SM CLR 27/M07 A3009 RMK AO2=||F||223|ICAO-KCCB
USI0000KCCB|CABLE|2017|12|28|22|35|34.1115|-117.6876|438.6|27.0||1|FM15-METAR|223|ICAO-KCCB|-7.0||1|FM15-METAR|223|ICAO-KCCB|||||||||||||999|C-Calm|9|FM15-METAR|223|ICAO-KCCB|0.0|C-Calm|1|FM15-METAR|223|ICAO-KCCB|||||||||||||10|Derived||FM15-METAR|223|ICAO-KCCB|||||||||||||||||||||||||||||||||||||||||||||||||||||||||||||||||||||||||1019.0||1|FM15-METAR|223|ICAO-KCCB|||||||||||||||||||||||||||||||||||||||||||MET062METAR KCCB 282235Z AUTO 00000KT 10SM CLR 27/M07 A3009 RMK AO2=||F||223|ICAO-KCCB
USI0000KCCB|CABLE|2017|12|28|22|55|34.1115|-117.6876|438.6|27.0||1|FM15-METAR|223|ICAO-KCCB|-7.0||1|FM15-METAR|223|ICAO-KCCB|||||||||||||999|C-Calm|9|FM15-METAR|223|ICAO-KCCB|0.0|C-Calm|1|FM15-METAR|223|ICAO-KCCB|||||||||||||10|Derived||FM15-METAR|223|ICAO-KCCB|||||||||||||||||||||||||||||||||||||||||||||||||||||||||||||||||||||||||1019.0||1|FM15-METAR|223|ICAO-KCCB|||||||||||||||||||||||||||||||||||||||||||MET062METAR KCCB 282255Z AUTO 00000KT 10SM CLR 27/M07 A3009 RMK AO2=||F||223|ICAO-KCCB
USI0000KCCB|CABLE|2017|12|28|23|15|34.1115|-117.6876|438.6|27.0||1|FM15-METAR|223|ICAO-KCCB|-7.0||1|FM15-METAR|223|ICAO-KCCB|||||||||||||999|C-Calm|9|FM15-METAR|223|ICAO-KCCB|0.0|C-Calm|1|FM15-METAR|223|ICAO-KCCB|||||||||||||10|Derived||FM15-METAR|223|ICAO-KCCB|||||||||||||||||||||||||||||||||||||||||||||||||||||||||||||||||||||||||1019.0||1|FM15-METAR|223|ICAO-KCCB|||||||||||||||||||||||||||||||||||||||||||MET062METAR KCCB 282315Z AUTO 00000KT 10SM CLR 27/M07 A3009 RMK AO2=||F||223|ICAO-KCCB
USI0000KCCB|CABLE|2017|12|28|23|35|34.1115|-117.6876|438.6|27.0||1|FM15-METAR|223|ICAO-KCCB|-7.0||1|FM15-METAR|223|ICAO-KCCB|||||||||||||250|N-Normal|1|FM15-METAR|223|ICAO-KCCB|2.1|N-Normal|1|FM15-METAR|223|ICAO-KCCB|||||||||||||10|Derived||FM15-METAR|223|ICAO-KCCB|||||||||||||||||||||||||||||||||||||||||||||||||||||||||||||||||||||||||1019.0||1|FM15-METAR|223|ICAO-KCCB|||||||||||||||||||||||||||||||||||||||||||MET062METAR KCCB 282335Z AUTO 25004KT 10SM CLR 27/M07 A3009 RMK AO2=||F||223|ICAO-KCCB
USI0000KCCB|CABLE|2017|12|28|23|55|34.1115|-117.6876|438.6|27.0||1|FM15-METAR|223|ICAO-KCCB|-6.0||1|FM15-METAR|223|ICAO-KCCB|||||||||||||250|N-Normal|1|FM15-METAR|223|ICAO-KCCB|2.1|N-Normal|1|FM15-METAR|223|ICAO-KCCB|||||||||||||11|Derived||FM15-METAR|223|ICAO-KCCB|||||||||||||||||||||||||||||||||||||||||||||||||||||||||||||||||||||||||1019.0||1|FM15-METAR|223|ICAO-KCCB|||||||||||||||||||||||||||||||||||||||||||MET062METAR KCCB 282355Z AUTO 25004KT 10SM CLR 27/M06 A3009 RMK AO2=||F||223|ICAO-KCCB
USI0000KCCB|CABLE|2017|12|29|00|15|34.1115|-117.6876|438.6|26.0||1|FM15-METAR|223|ICAO-KCCB|-6.0||1|FM15-METAR|223|ICAO-KCCB|||||||||||||260|N-Normal|1|FM15-METAR|223|ICAO-KCCB|2.1|N-Normal|1|FM15-METAR|223|ICAO-KCCB|||||||||||||12|Derived||FM15-METAR|223|ICAO-KCCB|||||||||||||||||||||||||||||||||||||||||||||||||||||||||||||||||||||||||1019.0||1|FM15-METAR|223|ICAO-KCCB|||||||||||||||||||||||||||||||||||||||||||MET062METAR KCCB 290015Z AUTO 26004KT 10SM CLR 26/M06 A3009 RMK AO2=||F||223|ICAO-KCCB
USI0000KCCB|CABLE|2017|12|29|00|35|34.1115|-117.6876|438.6|26.0||1|FM15-METAR|223|ICAO-KCCB|-5.0||1|FM15-METAR|223|ICAO-KCCB|||||||||||||290|N-Normal|1|FM15-METAR|223|ICAO-KCCB|1.5|N-Normal|1|FM15-METAR|223|ICAO-KCCB|||||||||||||12|Derived||FM15-METAR|223|ICAO-KCCB|||||||||||||||||||||||||||||||||||||||||||||||||||||||||||||||||||||||||1019.0||1|FM15-METAR|223|ICAO-KCCB|||||||||||||||||||||||||||||||||||||||||||MET062METAR KCCB 290035Z AUTO 29003KT 10SM CLR 26/M05 A3009 RMK AO2=||F||223|ICAO-KCCB
USI0000KCCB|CABLE|2017|12|29|00|55|34.1115|-117.6876|438.6|24.0||1|FM15-METAR|223|ICAO-KCCB|-5.0||1|FM15-METAR|223|ICAO-KCCB|||||||||||||280|N-Normal|1|FM15-METAR|223|ICAO-KCCB|2.1|N-Normal|1|FM15-METAR|223|ICAO-KCCB|||||||||||||14|Derived||FM15-METAR|223|ICAO-KCCB|||||||||||||||||||||||||||||||||||||||||||||||||||||||||||||||||||||||||1019.0||1|FM15-METAR|223|ICAO-KCCB|||||||||||||||||||||||||||||||||||||||||||MET062METAR KCCB 290055Z AUTO 28004KT 10SM CLR 24/M05 A3009 RMK AO2=||F||223|ICAO-KCCB
USI0000KCCB|CABLE|2017|12|29|01|15|34.1115|-117.6876|438.6|23.0||1|FM15-METAR|223|ICAO-KCCB|-5.0||1|FM15-METAR|223|ICAO-KCCB|||||||||||||350|N-Normal|1|FM15-METAR|223|ICAO-KCCB|2.6|N-Normal|1|FM15-METAR|223|ICAO-KCCB|||||||||||||15|Derived||FM15-METAR|223|ICAO-KCCB|||||||||||||||||||||||||||||||||||||||||||||||||||||||||||||||||||||||||1019.0||1|FM15-METAR|223|ICAO-KCCB|||||||||||||||||||||||||||||||||||||||||||MET061METAR KCCB 290115Z AUTO 35005KT 9SM CLR 23/M05 A3009 RMK AO2=||F||223|ICAO-KCCB
USI0000KCCB|CABLE|2017|12|29|01|35|34.1115|-117.6876|438.6|22.0||1|FM15-METAR|223|ICAO-KCCB|-6.0||1|FM15-METAR|223|ICAO-KCCB|||||||||||||350|N-Normal|1|FM15-METAR|223|ICAO-KCCB|2.6|N-Normal|1|FM15-METAR|223|ICAO-KCCB|||||||||||||15|Derived||FM15-METAR|223|ICAO-KCCB|||||||||||||||||||||||||||||||||||||||||||||||||||||||||||||||||||||||||1019.0||1|FM15-METAR|223|ICAO-KCCB|||||||||||||||||||||||||||||||||||||||||||MET062METAR KCCB 290135Z AUTO 35005KT 10SM CLR 22/M06 A3009 RMK AO2=||F||223|ICAO-KCCB
USI0000KCCB|CABLE|2017|12|29|01|55|34.1115|-117.6876|438.6|23.0||1|FM15-METAR|223|ICAO-KCCB|-7.0||1|FM15-METAR|223|ICAO-KCCB|||||||||||||360|N-Normal|1|FM15-METAR|223|ICAO-KCCB|3.6|N-Normal|1|FM15-METAR|223|ICAO-KCCB|||||||||||||13|Derived||FM15-METAR|223|ICAO-KCCB|||||||||||||||||||||||||||||||||||||||||||||||||||||||||||||||||||||||||1019.0||1|FM15-METAR|223|ICAO-KCCB|||||||||||||||||||||||||||||||||||||||||||MET062METAR KCCB 290155Z AUTO 36007KT 10SM CLR 23/M07 A3009 RMK AO2=||F||223|ICAO-KCCB
USI0000KCCB|CABLE|2017|12|29|02|15|34.1115|-117.6876|438.6|23.0||1|FM15-METAR|223|ICAO-KCCB|-7.0||1|FM15-METAR|223|ICAO-KCCB|||||||||||||360|N-Normal|1|FM15-METAR|223|ICAO-KCCB|3.6|N-Normal|1|FM15-METAR|223|ICAO-KCCB|||||||||||||13|Derived||FM15-METAR|223|ICAO-KCCB|||||||||||||||||||||||||||||||||||||||||||||||||||||||||||||||||||||||||1019.3||1|FM15-METAR|223|ICAO-KCCB|||||||||||||||||||||||||||||||||||||||||||MET062METAR KCCB 290215Z AUTO 36007KT 10SM CLR 23/M07 A3010 RMK AO2=||F||223|ICAO-KCCB
USI0000KCCB|CABLE|2017|12|29|02|35|34.1115|-117.6876|438.6|23.0||1|FM15-METAR|223|ICAO-KCCB|-8.0||1|FM15-METAR|223|ICAO-KCCB|||||||||||||010|N-Normal|1|FM15-METAR|223|ICAO-KCCB|3.1|N-Normal|1|FM15-METAR|223|ICAO-KCCB|||||||||||||12|Derived||FM15-METAR|223|ICAO-KCCB|||||||||||||||||||||||||||||||||||||||||||||||||||||||||||||||||||||||||1019.3||1|FM15-METAR|223|ICAO-KCCB|||||||||||||||||||||||||||||||||||||||||||MET062METAR KCCB 290235Z AUTO 01006KT 10SM CLR 23/M08 A3010 RMK AO2=||F||223|ICAO-KCCB
USI0000KCCB|CABLE|2017|12|29|02|55|34.1115|-117.6876|438.6|23.0||1|FM15-METAR|223|ICAO-KCCB|-8.0||1|FM15-METAR|223|ICAO-KCCB|||||||||||||010|N-Normal|1|FM15-METAR|223|ICAO-KCCB|3.1|N-Normal|1|FM15-METAR|223|ICAO-KCCB|||||||||||||12|Derived||FM15-METAR|223|ICAO-KCCB|||||||||||||||||||||||||||||||||||||||||||||||||||||||||||||||||||||||||1019.6||1|FM15-METAR|223|ICAO-KCCB|||||||||||||||||||||||||||||||||||||||||||MET062METAR KCCB 290255Z AUTO 01006KT 10SM CLR 23/M08 A3011 RMK AO2=||F||223|ICAO-KCCB
USI0000KCCB|CABLE|2017|12|29|03|15|34.1115|-117.6876|438.6|22.0||1|FM15-METAR|223|ICAO-KCCB|-7.0||1|FM15-METAR|223|ICAO-KCCB|||||||||||||090|N-Normal|1|FM15-METAR|223|ICAO-KCCB|2.6|N-Normal|1|FM15-METAR|223|ICAO-KCCB|||||||||||||14|Derived||FM15-METAR|223|ICAO-KCCB|||||||||||||||||||||||||||||||||||||||||||||||||||||||||||||||||||||||||1019.6||1|FM15-METAR|223|ICAO-KCCB|||||||||||||||||||||||||||||||||||||||||||MET062METAR KCCB 290315Z AUTO 09005KT 10SM CLR 22/M07 A3011 RMK AO2=||F||223|ICAO-KCCB
USI0000KCCB|CABLE|2017|12|29|03|35|34.1115|-117.6876|438.6|21.0||1|FM15-METAR|223|ICAO-KCCB|-7.0||1|FM15-METAR|223|ICAO-KCCB|||||||||||||050|N-Normal|1|FM15-METAR|223|ICAO-KCCB|2.6|N-Normal|1|FM15-METAR|223|ICAO-KCCB|||||||||||||15|Derived||FM15-METAR|223|ICAO-KCCB|||||||||||||||||||||||||||||||||||||||||||||||||||||||||||||||||||||||||1019.6||1|FM15-METAR|223|ICAO-KCCB|||||||||||||||||||||||||||||||||||||||||||MET062METAR KCCB 290335Z AUTO 05005KT 10SM CLR 21/M07 A3011 RMK AO2=||F||223|ICAO-KCCB
USI0000KCCB|CABLE|2017|12|29|03|55|34.1115|-117.6876|438.6|21.0||1|FM15-METAR|223|ICAO-KCCB|-8.0||1|FM15-METAR|223|ICAO-KCCB|||||||||||||050|N-Normal|1|FM15-METAR|223|ICAO-KCCB|2.6|N-Normal|1|FM15-METAR|223|ICAO-KCCB|||||||||||||13|Derived||FM15-METAR|223|ICAO-KCCB|||||||||||||||||||||||||||||||||||||||||||||||||||||||||||||||||||||||||1020.0||1|FM15-METAR|223|ICAO-KCCB|||||||||||||||||||||||||||||||||||||||||||MET062METAR KCCB 290355Z AUTO 05005KT 10SM CLR 21/M08 A3012 RMK AO2=||F||223|ICAO-KCCB
USI0000KCCB|CABLE|2017|12|29|04|15|34.1115|-117.6876|438.6|21.0||1|FM15-METAR|223|ICAO-KCCB|-7.0||1|FM15-METAR|223|ICAO-KCCB|||||||||||||060|N-Normal|1|FM15-METAR|223|ICAO-KCCB|2.1|N-Normal|1|FM15-METAR|223|ICAO-KCCB|||||||||||||15|Derived||FM15-METAR|223|ICAO-KCCB|||||||||||||||||||||||||||||||||||||||||||||||||||||||||||||||||||||||||1020.3||1|FM15-METAR|223|ICAO-KCCB|||||||||||||||||||||||||||||||||||||||||||MET062METAR KCCB 290415Z AUTO 06004KT 10SM CLR 21/M07 A3013 RMK AO2=||F||223|ICAO-KCCB
USI0000KCCB|CABLE|2017|12|29|04|35|34.1115|-117.6876|438.6|20.0||1|FM15-METAR|223|ICAO-KCCB|-6.0||1|FM15-METAR|223|ICAO-KCCB|||||||||||||050|N-Normal|1|FM15-METAR|223|ICAO-KCCB|3.1|N-Normal|1|FM15-METAR|223|ICAO-KCCB|||||||||||||17|Derived||FM15-METAR|223|ICAO-KCCB|||||||||||||||||||||||||||||||||||||||||||||||||||||||||||||||||||||||||1020.3||1|FM15-METAR|223|ICAO-KCCB|||||||||||||||||||||||||||||||||||||||||||MET062METAR KCCB 290435Z AUTO 05006KT 10SM CLR 20/M06 A3013 RMK AO2=||F||223|ICAO-KCCB
USI0000KCCB|CABLE|2017|12|29|04|55|34.1115|-117.6876|438.6|20.0||1|FM15-METAR|223|ICAO-KCCB|-6.0||1|FM15-METAR|223|ICAO-KCCB|||||||||||||070|N-Normal|1|FM15-METAR|223|ICAO-KCCB|2.6|N-Normal|1|FM15-METAR|223|ICAO-KCCB|||||||||||||17|Derived||FM15-METAR|223|ICAO-KCCB|||||||||||||||||||||||||||||||||||||||||||||||||||||||||||||||||||||||||1020.3||1|FM15-METAR|223|ICAO-KCCB|||||||||||||||||||||||||||||||||||||||||||MET062METAR KCCB 290455Z AUTO 07005KT 10SM CLR 20/M06 A3013 RMK AO2=||F||223|ICAO-KCCB
USI0000KCCB|CABLE|2017|12|29|05|15|34.1115|-117.6876|438.6|19.0||1|FM15-METAR|223|ICAO-KCCB|-6.0||1|FM15-METAR|223|ICAO-KCCB|||||||||||||030|N-Normal|1|FM15-METAR|223|ICAO-KCCB|2.1|N-Normal|1|FM15-METAR|223|ICAO-KCCB|||||||||||||18|Derived||FM15-METAR|223|ICAO-KCCB|||||||||||||||||||||||||||||||||||||||||||||||||||||||||||||||||||||||||1020.3||1|FM15-METAR|223|ICAO-KCCB|||||||||||||||||||||||||||||||||||||||||||MET062METAR KCCB 290515Z AUTO 03004KT 10SM CLR 19/M06 A3013 RMK AO2=||F||223|ICAO-KCCB
USI0000KCCB|CABLE|2017|12|29|05|35|34.1115|-117.6876|438.6|19.0||1|FM15-METAR|223|ICAO-KCCB|-6.0||1|FM15-METAR|223|ICAO-KCCB|||||||||||||030|N-Normal|1|FM15-METAR|223|ICAO-KCCB|2.1|N-Normal|1|FM15-METAR|223|ICAO-KCCB|||||||||||||18|Derived||FM15-METAR|223|ICAO-KCCB|||||||||||||||||||||||||||||||||||||||||||||||||||||||||||||||||||||||||1020.3||1|FM15-METAR|223|ICAO-KCCB|||||||||||||||||||||||||||||||||||||||||||MET062METAR KCCB 290535Z AUTO 03004KT 10SM CLR 19/M06 A3013 RMK AO2=||F||223|ICAO-KCCB
USI0000KCCB|CABLE|2017|12|29|05|55|34.1115|-117.6876|438.6|19.0||1|FM15-METAR|223|ICAO-KCCB|-7.0||1|FM15-METAR|223|ICAO-KCCB|||||||||||||040|N-Normal|1|FM15-METAR|223|ICAO-KCCB|2.1|N-Normal|1|FM15-METAR|223|ICAO-KCCB|||||||||||||17|Derived||FM15-METAR|223|ICAO-KCCB|||||||||||||||||||||||||||||||||||||||||||||||||||||||||||||||||||||||||1020.3||1|FM15-METAR|223|ICAO-KCCB|||||||||||||||||||||||||||||||||||||||||||MET062METAR KCCB 290555Z AUTO 04004KT 10SM CLR 19/M07 A3013 RMK AO2=||F||223|ICAO-KCCB
USI0000KCCB|CABLE|2017|12|29|06|15|34.1115|-117.6876|438.6|19.0||1|FM15-METAR|223|ICAO-KCCB|-7.0||1|FM15-METAR|223|ICAO-KCCB|||||||||||||020|N-Normal|1|FM15-METAR|223|ICAO-KCCB|2.6|N-Normal|1|FM15-METAR|223|ICAO-KCCB|||||||||||||17|Derived||FM15-METAR|223|ICAO-KCCB|||||||||||||||||||||||||||||||||||||||||||||||||||||||||||||||||||||||||1020.3||1|FM15-METAR|223|ICAO-KCCB|||||||||||||||||||||||||||||||||||||||||||MET062METAR KCCB 290615Z AUTO 02005KT 10SM CLR 19/M07 A3013 RMK AO2=||F||223|ICAO-KCCB
USI0000KCCB|CABLE|2017|12|29|06|35|34.1115|-117.6876|438.6|19.0||1|FM15-METAR|223|ICAO-KCCB|-7.0||1|FM15-METAR|223|ICAO-KCCB|||||||||||||020|N-Normal|1|FM15-METAR|223|ICAO-KCCB|2.6|N-Normal|1|FM15-METAR|223|ICAO-KCCB|||||||||||||17|Derived||FM15-METAR|223|ICAO-KCCB|||||||||||||||||||||||||||||||||||||||||||||||||||||||||||||||||||||||||1020.7||1|FM15-METAR|223|ICAO-KCCB|||||||||||||||||||||||||||||||||||||||||||MET062METAR KCCB 290635Z AUTO 02005KT 10SM CLR 19/M07 A3014 RMK AO2=||F||223|ICAO-KCCB
USI0000KCCB|CABLE|2017|12|29|06|55|34.1115|-117.6876|438.6|19.0||1|FM15-METAR|223|ICAO-KCCB|-7.0||1|FM15-METAR|223|ICAO-KCCB|||||||||||||010|N-Normal|1|FM15-METAR|223|ICAO-KCCB|3.6|N-Normal|1|FM15-METAR|223|ICAO-KCCB|||||||||||||17|Derived||FM15-METAR|223|ICAO-KCCB|||||||||||||||||||||||||||||||||||||||||||||||||||||||||||||||||||||||||1020.7||1|FM15-METAR|223|ICAO-KCCB|||||||||||||||||||||||||||||||||||||||||||MET062METAR KCCB 290655Z AUTO 01007KT 10SM CLR 19/M07 A3014 RMK AO2=||F||223|ICAO-KCCB
USI0000KCCB|CABLE|2017|12|29|07|15|34.1115|-117.6876|438.6|20.0||1|FM15-METAR|223|ICAO-KCCB|-9.0||1|FM15-METAR|223|ICAO-KCCB|||||||||||||020|N-Normal|1|FM15-METAR|223|ICAO-KCCB|2.6|N-Normal|1|FM15-METAR|223|ICAO-KCCB|||||||||||||13|Derived||FM15-METAR|223|ICAO-KCCB|||||||||||||||||||||||||||||||||||||||||||||||||||||||||||||||||||||||||1020.7||1|FM15-METAR|223|ICAO-KCCB|||||||||||||||||||||||||||||||||||||||||||MET062METAR KCCB 290715Z AUTO 02005KT 10SM CLR 20/M09 A3014 RMK AO2=||F||223|ICAO-KCCB
USI0000KCCB|CABLE|2017|12|29|07|35|34.1115|-117.6876|438.6|20.0||1|FM15-METAR|223|ICAO-KCCB|-9.0||1|FM15-METAR|223|ICAO-KCCB|||||||||||||020|N-Normal|1|FM15-METAR|223|ICAO-KCCB|2.6|N-Normal|1|FM15-METAR|223|ICAO-KCCB|||||||||||||13|Derived||FM15-METAR|223|ICAO-KCCB|||||||||||||||||||||||||||||||||||||||||||||||||||||||||||||||||||||||||1020.7||1|FM15-METAR|223|ICAO-KCCB|||||||||||||||||||||||||||||||||||||||||||MET062METAR KCCB 290735Z AUTO 02005KT 10SM CLR 20/M09 A3014 RMK AO2=||F||223|ICAO-KCCB
USI0000KCCB|CABLE|2017|12|29|07|55|34.1115|-117.6876|438.6|21.0||1|FM15-METAR|223|ICAO-KCCB|-9.0||1|FM15-METAR|223|ICAO-KCCB|||||||||||||010|N-Normal|1|FM15-METAR|223|ICAO-KCCB|3.6|N-Normal|1|FM15-METAR|223|ICAO-KCCB|||||||||||||12|Derived||FM15-METAR|223|ICAO-KCCB|||||||||||||||||||||||||||||||||||||||||||||||||||||||||||||||||||||||||1020.3||1|FM15-METAR|223|ICAO-KCCB|||||||||||||||||||||||||||||||||||||||||||MET062METAR KCCB 290755Z AUTO 01007KT 10SM CLR 21/M09 A3013 RMK AO2=||F||223|ICAO-KCCB
USI0000KCCB|CABLE|2017|12|29|08|15|34.1115|-117.6876|438.6|20.0||1|FM15-METAR|223|ICAO-KCCB|-9.0||1|FM15-METAR|223|ICAO-KCCB|||||||||||||010|N-Normal|1|FM15-METAR|223|ICAO-KCCB|3.6|N-Normal|1|FM15-METAR|223|ICAO-KCCB|||||||||||||13|Derived||FM15-METAR|223|ICAO-KCCB|||||||||||||||||||||||||||||||||||||||||||||||||||||||||||||||||||||||||1020.3||1|FM15-METAR|223|ICAO-KCCB|||||||||||||||||||||||||||||||||||||||||||MET062METAR KCCB 290815Z AUTO 01007KT 10SM CLR 20/M09 A3013 RMK AO2=||F||223|ICAO-KCCB
USI0000KCCB|CABLE|2017|12|29|08|35|34.1115|-117.6876|438.6|20.0||1|FM15-METAR|223|ICAO-KCCB|-10.0||1|FM15-METAR|223|ICAO-KCCB|||||||||||||010|N-Normal|1|FM15-METAR|223|ICAO-KCCB|2.6|N-Normal|1|FM15-METAR|223|ICAO-KCCB|||||||||||||12|Derived||FM15-METAR|223|ICAO-KCCB|||||||||||||||||||||||||||||||||||||||||||||||||||||||||||||||||||||||||1020.3||1|FM15-METAR|223|ICAO-KCCB|||||||||||||||||||||||||||||||||||||||||||MET062METAR KCCB 290835Z AUTO 01005KT 10SM CLR 20/M10 A3013 RMK AO2=||F||223|ICAO-KCCB
USI0000KCCB|CABLE|2017|12|29|08|55|34.1115|-117.6876|438.6|20.0||1|FM15-METAR|223|ICAO-KCCB|-10.0||1|FM15-METAR|223|ICAO-KCCB|||||||||||||999|V-Variable|9|FM15-METAR|223|ICAO-KCCB|2.1|V-Variable|1|FM15-METAR|223|ICAO-KCCB|||||||||||||12|Derived||FM15-METAR|223|ICAO-KCCB|||||||||||||||||||||||||||||||||||||||||||||||||||||||||||||||||||||||||1020.3||1|FM15-METAR|223|ICAO-KCCB|||||||||||||||||||||||||||||||||||||||||||MET062METAR KCCB 290855Z AUTO VRB04KT 10SM CLR 20/M10 A3013 RMK AO2=||F||223|ICAO-KCCB
USI0000KCCB|CABLE|2017|12|29|09|15|34.1115|-117.6876|438.6|18.0||1|FM15-METAR|223|ICAO-KCCB|-9.0||1|FM15-METAR|223|ICAO-KCCB|||||||||||||999|C-Calm|9|FM15-METAR|223|ICAO-KCCB|0.0|C-Calm|1|FM15-METAR|223|ICAO-KCCB|||||||||||||15|Derived||FM15-METAR|223|ICAO-KCCB|||||||||||||||||||||||||||||||||||||||||||||||||||||||||||||||||||||||||1020.3||1|FM15-METAR|223|ICAO-KCCB|||||||||||||||||||||||||||||||||||||||||||MET062METAR KCCB 290915Z AUTO 00000KT 10SM CLR 18/M09 A3013 RMK AO2=||F||223|ICAO-KCCB
USI0000KCCB|CABLE|2017|12|29|09|35|34.1115|-117.6876|438.6|19.0||1|FM15-METAR|223|ICAO-KCCB|-8.0||1|FM15-METAR|223|ICAO-KCCB|||||||||||||999|C-Calm|9|FM15-METAR|223|ICAO-KCCB|0.0|C-Calm|1|FM15-METAR|223|ICAO-KCCB|||||||||||||15|Derived||FM15-METAR|223|ICAO-KCCB|||||||||||||||||||||||||||||||||||||||||||||||||||||||||||||||||||||||||1020.3||1|FM15-METAR|223|ICAO-KCCB|||||||||||||||||||||||||||||||||||||||||||MET062METAR KCCB 290935Z AUTO 00000KT 10SM CLR 19/M08 A3013 RMK AO2=||F||223|ICAO-KCCB
USI0000KCCB|CABLE|2017|12|29|09|55|34.1115|-117.6876|438.6|19.0||1|FM15-METAR|223|ICAO-KCCB|-10.0||1|FM15-METAR|223|ICAO-KCCB|||||||||||||030|N-Normal|1|FM15-METAR|223|ICAO-KCCB|1.5|N-Normal|1|FM15-METAR|223|ICAO-KCCB|||||||||||||13|Derived||FM15-METAR|223|ICAO-KCCB|||||||||||||||||||||||||||||||||||||||||||||||||||||||||||||||||||||||||1020.0||1|FM15-METAR|223|ICAO-KCCB|||||||||||||||||||||||||||||||||||||||||||MET062METAR KCCB 290955Z AUTO 03003KT 10SM CLR 19/M10 A3012 RMK AO2=||F||223|ICAO-KCCB
USI0000KCCB|CABLE|2017|12|29|10|15|34.1115|-117.6876|438.6|17.0||1|FM15-METAR|223|ICAO-KCCB|-9.0||1|FM15-METAR|223|ICAO-KCCB|||||||||||||999|C-Calm|9|FM15-METAR|223|ICAO-KCCB|0.0|C-Calm|1|FM15-METAR|223|ICAO-KCCB|||||||||||||16|Derived||FM15-METAR|223|ICAO-KCCB|||||||||||||||||||||||||||||||||||||||||||||||||||||||||||||||||||||||||1020.0||1|FM15-METAR|223|ICAO-KCCB|||||||||||||||||||||||||||||||||||||||||||MET062METAR KCCB 291015Z AUTO 00000KT 10SM CLR 17/M09 A3012 RMK AO2=||F||223|ICAO-KCCB
USI0000KCCB|CABLE|2017|12|29|10|35|34.1115|-117.6876|438.6|17.0||1|FM15-METAR|223|ICAO-KCCB|-9.0||1|FM15-METAR|223|ICAO-KCCB|||||||||||||999|C-Calm|9|FM15-METAR|223|ICAO-KCCB|0.0|C-Calm|1|FM15-METAR|223|ICAO-KCCB|||||||||||||16|Derived||FM15-METAR|223|ICAO-KCCB|||||||||||||||||||||||||||||||||||||||||||||||||||||||||||||||||||||||||1020.3||1|FM15-METAR|223|ICAO-KCCB|||||||||||||||||||||||||||||||||||||||||||MET062METAR KCCB 291035Z AUTO 00000KT 10SM CLR 17/M09 A3013 RMK AO2=||F||223|ICAO-KCCB
USI0000KCCB|CABLE|2017|12|29|10|55|34.1115|-117.6876|438.6|17.0||1|FM15-METAR|223|ICAO-KCCB|-9.0||1|FM15-METAR|223|ICAO-KCCB|||||||||||||999|C-Calm|9|FM15-METAR|223|ICAO-KCCB|0.0|C-Calm|1|FM15-METAR|223|ICAO-KCCB|||||||||||||16|Derived||FM15-METAR|223|ICAO-KCCB|||||||||||||||||||||||||||||||||||||||||||||||||||||||||||||||||||||||||1020.3||1|FM15-METAR|223|ICAO-KCCB|||||||||||||||||||||||||||||||||||||||||||MET062METAR KCCB 291055Z AUTO 00000KT 10SM CLR 17/M09 A3013 RMK AO2=||F||223|ICAO-KCCB
USI0000KCCB|CABLE|2017|12|29|11|15|34.1115|-117.6876|438.6|16.0||1|FM15-METAR|223|ICAO-KCCB|-9.0||1|FM15-METAR|223|ICAO-KCCB|||||||||||||999|C-Calm|9|FM15-METAR|223|ICAO-KCCB|0.0|C-Calm|1|FM15-METAR|223|ICAO-KCCB|||||||||||||17|Derived||FM15-METAR|223|ICAO-KCCB|||||||||||||||||||||||||||||||||||||||||||||||||||||||||||||||||||||||||1020.0||1|FM15-METAR|223|ICAO-KCCB|||||||||||||||||||||||||||||||||||||||||||MET062METAR KCCB 291115Z AUTO 00000KT 10SM CLR 16/M09 A3012 RMK AO2=||F||223|ICAO-KCCB
USI0000KCCB|CABLE|2017|12|29|11|35|34.1115|-117.6876|438.6|17.0||1|FM15-METAR|223|ICAO-KCCB|-10.0||1|FM15-METAR|223|ICAO-KCCB|||||||||||||999|C-Calm|9|FM15-METAR|223|ICAO-KCCB|0.0|C-Calm|1|FM15-METAR|223|ICAO-KCCB|||||||||||||15|Derived||FM15-METAR|223|ICAO-KCCB|||||||||||||||||||||||||||||||||||||||||||||||||||||||||||||||||||||||||1019.6||1|FM15-METAR|223|ICAO-KCCB|||||||||||||||||||||||||||||||||||||||||||MET062METAR KCCB 291135Z AUTO 00000KT 10SM CLR 17/M10 A3011 RMK AO2=||F||223|ICAO-KCCB
USI0000KCCB|CABLE|2017|12|29|11|55|34.1115|-117.6876|438.6|19.0||1|FM15-METAR|223|ICAO-KCCB|-11.0||1|FM15-METAR|223|ICAO-KCCB|||||||||||||010|N-Normal|1|FM15-METAR|223|ICAO-KCCB|3.6|N-Normal|1|FM15-METAR|223|ICAO-KCCB|||||||||||||12|Derived||FM15-METAR|223|ICAO-KCCB|||||||||||||||||||||||||||||||||||||||||||||||||||||||||||||||||||||||||1019.3||1|FM15-METAR|223|ICAO-KCCB|||||||||||||||||||||||||||||||||||||||||||MET062METAR KCCB 291155Z AUTO 01007KT 10SM CLR 19/M11 A3010 RMK AO2=||F||223|ICAO-KCCB
USI0000KCCB|CABLE|2017|12|29|12|15|34.1115|-117.6876|438.6|17.0||1|FM15-METAR|223|ICAO-KCCB|-10.0||1|FM15-METAR|223|ICAO-KCCB|||||||||||||999|C-Calm|9|FM15-METAR|223|ICAO-KCCB|0.0|C-Calm|1|FM15-METAR|223|ICAO-KCCB|||||||||||||15|Derived||FM15-METAR|223|ICAO-KCCB|||||||||||||||||||||||||||||||||||||||||||||||||||||||||||||||||||||||||1019.3||1|FM15-METAR|223|ICAO-KCCB|||||||||||||||||||||||||||||||||||||||||||MET062METAR KCCB 291215Z AUTO 00000KT 10SM CLR 17/M10 A3010 RMK AO2=||F||223|ICAO-KCCB
USI0000KCCB|CABLE|2017|12|29|12|35|34.1115|-117.6876|438.6|16.0||1|FM15-METAR|223|ICAO-KCCB|-10.0||1|FM15-METAR|223|ICAO-KCCB|||||||||||||999|C-Calm|9|FM15-METAR|223|ICAO-KCCB|0.0|C-Calm|1|FM15-METAR|223|ICAO-KCCB|||||||||||||16|Derived||FM15-METAR|223|ICAO-KCCB|||||||||||||||||||||||||||||||||||||||||||||||||||||||||||||||||||||||||1019.3||1|FM15-METAR|223|ICAO-KCCB|||||||||||||||||||||||||||||||||||||||||||MET062METAR KCCB 291235Z AUTO 00000KT 10SM CLR 16/M10 A3010 RMK AO2=||F||223|ICAO-KCCB
USI0000KCCB|CABLE|2017|12|29|12|55|34.1115|-117.6876|438.6|15.0||1|FM15-METAR|223|ICAO-KCCB|-8.0||1|FM15-METAR|223|ICAO-KCCB|||||||||||||060|N-Normal|1|FM15-METAR|223|ICAO-KCCB|1.5|N-Normal|1|FM15-METAR|223|ICAO-KCCB|||||||||||||20|Derived||FM15-METAR|223|ICAO-KCCB|||||||||||||||||||||||||||||||||||||||||||||||||||||||||||||||||||||||||1019.6||1|FM15-METAR|223|ICAO-KCCB|||||||||||||||||||||||||||||||||||||||||||MET062METAR KCCB 291255Z AUTO 06003KT 10SM CLR 15/M08 A3011 RMK AO2=||F||223|ICAO-KCCB
USI0000KCCB|CABLE|2017|12|29|13|15|34.1115|-117.6876|438.6|15.0||1|FM15-METAR|223|ICAO-KCCB|-8.0||1|FM15-METAR|223|ICAO-KCCB|||||||||||||080|N-Normal|1|FM15-METAR|223|ICAO-KCCB|2.6|N-Normal|1|FM15-METAR|223|ICAO-KCCB|||||||||||||20|Derived||FM15-METAR|223|ICAO-KCCB|||||||||||||||||||||||||||||||||||||||||||||||||||||||||||||||||||||||||1019.6||1|FM15-METAR|223|ICAO-KCCB|||||||||||||||||||||||||||||||||||||||||||MET062METAR KCCB 291315Z AUTO 08005KT 10SM CLR 15/M08 A3011 RMK AO2=||F||223|ICAO-KCCB
USI0000KCCB|CABLE|2017|12|29|13|35|34.1115|-117.6876|438.6|15.0||1|FM15-METAR|223|ICAO-KCCB|-8.0||1|FM15-METAR|223|ICAO-KCCB|||||||||||||999|C-Calm|9|FM15-METAR|223|ICAO-KCCB|0.0|C-Calm|1|FM15-METAR|223|ICAO-KCCB|||||||||||||20|Derived||FM15-METAR|223|ICAO-KCCB|||||||||||||||||||||||||||||||||||||||||||||||||||||||||||||||||||||||||1019.6||1|FM15-METAR|223|ICAO-KCCB|||||||||||||||||||||||||||||||||||||||||||MET062METAR KCCB 291335Z AUTO 00000KT 10SM CLR 15/M08 A3011 RMK AO2=||F||223|ICAO-KCCB
USI0000KCCB|CABLE|2017|12|29|13|55|34.1115|-117.6876|438.6|16.0||1|FM15-METAR|223|ICAO-KCCB|-9.0||1|FM15-METAR|223|ICAO-KCCB|||||||||||||060|N-Normal|1|FM15-METAR|223|ICAO-KCCB|1.5|N-Normal|1|FM15-METAR|223|ICAO-KCCB|||||||||||||17|Derived||FM15-METAR|223|ICAO-KCCB|||||||||||||||||||||||||||||||||||||||||||||||||||||||||||||||||||||||||1020.0||1|FM15-METAR|223|ICAO-KCCB|||||||||||||||||||||||||||||||||||||||||||MET062METAR KCCB 291355Z AUTO 06003KT 10SM CLR 16/M09 A3012 RMK AO2=||F||223|ICAO-KCCB
USI0000KCCB|CABLE|2017|12|29|14|15|34.1115|-117.6876|438.6|16.0||1|FM15-METAR|223|ICAO-KCCB|-9.0||1|FM15-METAR|223|ICAO-KCCB|||||||||||||999|C-Calm|9|FM15-METAR|223|ICAO-KCCB|0.0|C-Calm|1|FM15-METAR|223|ICAO-KCCB|||||||||||||17|Derived||FM15-METAR|223|ICAO-KCCB|||||||||||||||||||||||||||||||||||||||||||||||||||||||||||||||||||||||||1020.0||1|FM15-METAR|223|ICAO-KCCB|||||||||||||||||||||||||||||||||||||||||||MET062METAR KCCB 291415Z AUTO 00000KT 10SM CLR 16/M09 A3012 RMK AO2=||F||223|ICAO-KCCB
USI0000KCCB|CABLE|2017|12|29|14|35|34.1115|-117.6876|438.6|17.0||1|FM15-METAR|223|ICAO-KCCB|-10.0||1|FM15-METAR|223|ICAO-KCCB|||||||||||||999|C-Calm|9|FM15-METAR|223|ICAO-KCCB|0.0|C-Calm|1|FM15-METAR|223|ICAO-KCCB|||||||||||||15|Derived||FM15-METAR|223|ICAO-KCCB|||||||||||||||||||||||||||||||||||||||||||||||||||||||||||||||||||||||||1020.0||1|FM15-METAR|223|ICAO-KCCB|||||||||||||||||||||||||||||||||||||||||||MET062METAR KCCB 291435Z AUTO 00000KT 10SM CLR 17/M10 A3012 RMK AO2=||F||223|ICAO-KCCB
USI0000KCCB|CABLE|2017|12|29|14|55|34.1115|-117.6876|438.6|16.0||1|FM15-METAR|223|ICAO-KCCB|-10.0||1|FM15-METAR|223|ICAO-KCCB|||||||||||||999|C-Calm|9|FM15-METAR|223|ICAO-KCCB|0.0|C-Calm|1|FM15-METAR|223|ICAO-KCCB|||||||||||||16|Derived||FM15-METAR|223|ICAO-KCCB|||||||||||||||||||||||||||||||||||||||||||||||||||||||||||||||||||||||||1020.3||1|FM15-METAR|223|ICAO-KCCB|||||||||||||||||||||||||||||||||||||||||||MET062METAR KCCB 291455Z AUTO 00000KT 10SM CLR 16/M10 A3013 RMK AO2=||F||223|ICAO-KCCB
USI0000KCCB|CABLE|2017|12|29|15|15|34.1115|-117.6876|438.6|15.0||1|FM15-METAR|223|ICAO-KCCB|-8.0||1|FM15-METAR|223|ICAO-KCCB|||||||||||||999|C-Calm|9|FM15-METAR|223|ICAO-KCCB|0.0|C-Calm|1|FM15-METAR|223|ICAO-KCCB|||||||||||||20|Derived||FM15-METAR|223|ICAO-KCCB|||||||||||||||||||||||||||||||||||||||||||||||||||||||||||||||||||||||||1020.3||1|FM15-METAR|223|ICAO-KCCB|||||||||||||||||||||||||||||||||||||||||||MET062METAR KCCB 291515Z AUTO 00000KT 10SM CLR 15/M08 A3013 RMK AO2=||F||223|ICAO-KCCB
USI0000KCCB|CABLE|2017|12|29|15|35|34.1115|-117.6876|438.6|16.0||1|FM15-METAR|223|ICAO-KCCB|-9.0||1|FM15-METAR|223|ICAO-KCCB|||||||||||||999|C-Calm|9|FM15-METAR|223|ICAO-KCCB|0.0|C-Calm|1|FM15-METAR|223|ICAO-KCCB|||||||||||||17|Derived||FM15-METAR|223|ICAO-KCCB|||||||||||||||||||||||||||||||||||||||||||||||||||||||||||||||||||||||||1020.7||1|FM15-METAR|223|ICAO-KCCB|||||||||||||||||||||||||||||||||||||||||||MET062METAR KCCB 291535Z AUTO 00000KT 10SM CLR 16/M09 A3014 RMK AO2=||F||223|ICAO-KCCB
USI0000KCCB|CABLE|2017|12|29|15|55|34.1115|-117.6876|438.6|17.0||1|FM15-METAR|223|ICAO-KCCB|-7.0||1|FM15-METAR|223|ICAO-KCCB|||||||||||||070|N-Normal|1|FM15-METAR|223|ICAO-KCCB|1.5|N-Normal|1|FM15-METAR|223|ICAO-KCCB|||||||||||||19|Derived||FM15-METAR|223|ICAO-KCCB|||||||||||||||||||||||||||||||||||||||||||||||||||||||||||||||||||||||||1020.7||1|FM15-METAR|223|ICAO-KCCB|||||||||||||||||||||||||||||||||||||||||||MET062METAR KCCB 291555Z AUTO 07003KT 10SM CLR 17/M07 A3014 RMK AO2=||F||223|ICAO-KCCB
USI0000KCCB|CABLE|2017|12|29|16|15|34.1115|-117.6876|438.6|18.0||1|FM15-METAR|223|ICAO-KCCB|-8.0||1|FM15-METAR|223|ICAO-KCCB|||||||||||||040|N-Normal|1|FM15-METAR|223|ICAO-KCCB|1.5|N-Normal|1|FM15-METAR|223|ICAO-KCCB|||||||||||||16|Derived||FM15-METAR|223|ICAO-KCCB|||||||||||||||||||||||||||||||||||||||||||||||||||||||||||||||||||||||||1021.0||1|FM15-METAR|223|ICAO-KCCB|||||||||||||||||||||||||||||||||||||||||||MET062METAR KCCB 291615Z AUTO 04003KT 10SM CLR 18/M08 A3015 RMK AO2=||F||223|ICAO-KCCB
USI0000KCCB|CABLE|2017|12|29|16|35|34.1115|-117.6876|438.6|20.0||1|FM15-METAR|223|ICAO-KCCB|-8.0||1|FM15-METAR|223|ICAO-KCCB|||||||||||||999|C-Calm|9|FM15-METAR|223|ICAO-KCCB|0.0|C-Calm|1|FM15-METAR|223|ICAO-KCCB|||||||||||||14|Derived||FM15-METAR|223|ICAO-KCCB|||||||||||||||||||||||||||||||||||||||||||||||||||||||||||||||||||||||||1021.0||1|FM15-METAR|223|ICAO-KCCB|||||||||||||||||||||||||||||||||||||||||||MET062METAR KCCB 291635Z AUTO 00000KT 10SM CLR 20/M08 A3015 RMK AO2=||F||223|ICAO-KCCB
USI0000KCCB|CABLE|2017|12|29|16|55|34.1115|-117.6876|438.6|20.0||1|FM15-METAR|223|ICAO-KCCB|-8.0||1|FM15-METAR|223|ICAO-KCCB|||||||||||||120|N-Normal|1|FM15-METAR|223|ICAO-KCCB|2.1|N-Normal|1|FM15-METAR|223|ICAO-KCCB|||||||||||||14|Derived||FM15-METAR|223|ICAO-KCCB|||||||||||||||||||||||||||||||||||||||||||||||||||||||||||||||||||||||||1021.3||1|FM15-METAR|223|ICAO-KCCB|||||||||||||||||||||||||||||||||||||||||||MET062METAR KCCB 291655Z AUTO 12004KT 10SM CLR 20/M08 A3016 RMK AO2=||F||223|ICAO-KCCB
USI0000KCCB|CABLE|2017|12|29|17|15|34.1115|-117.6876|438.6|21.0||1|FM15-METAR|223|ICAO-KCCB|-8.0||1|FM15-METAR|223|ICAO-KCCB|||||||||||||090|N-Normal|1|FM15-METAR|223|ICAO-KCCB|2.1|N-Normal|1|FM15-METAR|223|ICAO-KCCB|||||||||||||13|Derived||FM15-METAR|223|ICAO-KCCB|||||||||||||||||||||||||||||||||||||||||||||||||||||||||||||||||||||||||1021.3||1|FM15-METAR|223|ICAO-KCCB|||||||||||||||||||||||||||||||||||||||||||MET062METAR KCCB 291715Z AUTO 09004KT 10SM CLR 21/M08 A3016 RMK AO2=||F||223|ICAO-KCCB
USI0000KCCB|CABLE|2017|12|29|17|35|34.1115|-117.6876|438.6|22.0||1|FM15-METAR|223|ICAO-KCCB|-8.0||1|FM15-METAR|223|ICAO-KCCB|||||||||||||140|N-Normal|1|FM15-METAR|223|ICAO-KCCB|1.5|N-Normal|1|FM15-METAR|223|ICAO-KCCB|||||||||||||13|Derived||FM15-METAR|223|ICAO-KCCB|||||||||||||||||||||||||||||||||||||||||||||||||||||||||||||||||||||||||1021.7||1|FM15-METAR|223|ICAO-KCCB|||||||||||||||||||||||||||||||||||||||||||MET062METAR KCCB 291735Z AUTO 14003KT 10SM CLR 22/M08 A3017 RMK AO2=||F||223|ICAO-KCCB
USI0000KCCB|CABLE|2017|12|29|17|55|34.1115|-117.6876|438.6|23.0||1|FM15-METAR|223|ICAO-KCCB|-8.0||1|FM15-METAR|223|ICAO-KCCB|||||||||||||999|V-Variable|9|FM15-METAR|223|ICAO-KCCB|1.5|V-Variable|1|FM15-METAR|223|ICAO-KCCB|||||||||||||12|Derived||FM15-METAR|223|ICAO-KCCB|||||||||||||||||||||||||||||||||||||||||||||||||||||||||||||||||||||||||1021.7||1|FM15-METAR|223|ICAO-KCCB|||||||||||||||||||||||||||||||||||||||||||MET062METAR KCCB 291755Z AUTO VRB03KT 10SM CLR 23/M08 A3017 RMK AO2=||F||223|ICAO-KCCB
USI0000KCCB|CABLE|2017|12|29|18|15|34.1115|-117.6876|438.6|24.0||1|FM15-METAR|223|ICAO-KCCB|-9.0||1|FM15-METAR|223|ICAO-KCCB|||||||||||||999|C-Calm|9|FM15-METAR|223|ICAO-KCCB|0.0|C-Calm|1|FM15-METAR|223|ICAO-KCCB|||||||||||||10|Derived||FM15-METAR|223|ICAO-KCCB|||||||||||||||||||||||||||||||||||||||||||||||||||||||||||||||||||||||||1021.7||1|FM15-METAR|223|ICAO-KCCB|||||||||||||||||||||||||||||||||||||||||||MET062METAR KCCB 291815Z AUTO 00000KT 10SM CLR 24/M09 A3017 RMK AO2=||F||223|ICAO-KCCB
USI0000KCCB|CABLE|2017|12|29|18|35|34.1115|-117.6876|438.6|25.0||1|FM15-METAR|223|ICAO-KCCB|-9.0||1|FM15-METAR|223|ICAO-KCCB|||||||||||||999|C-Calm|9|FM15-METAR|223|ICAO-KCCB|0.0|C-Calm|1|FM15-METAR|223|ICAO-KCCB|||||||||||||10|Derived||FM15-METAR|223|ICAO-KCCB|||||||||||||||||||||||||||||||||||||||||||||||||||||||||||||||||||||||||1021.7||1|FM15-METAR|223|ICAO-KCCB|||||||||||||||||||||||||||||||||||||||||||MET062METAR KCCB 291835Z AUTO 00000KT 10SM CLR 25/M09 A3017 RMK AO2=||F||223|ICAO-KCCB
USI0000KCCB|CABLE|2017|12|29|18|55|34.1115|-117.6876|438.6|25.0||1|FM15-METAR|223|ICAO-KCCB|-9.0||1|FM15-METAR|223|ICAO-KCCB|||||||||||||160|N-Normal|1|FM15-METAR|223|ICAO-KCCB|1.5|N-Normal|1|FM15-METAR|223|ICAO-KCCB|||||||||||||10|Derived||FM15-METAR|223|ICAO-KCCB|||||||||||||||||||||||||||||||||||||||||||||||||||||||||||||||||||||||||1021.3||1|FM15-METAR|223|ICAO-KCCB|||||||||||||||||||||||||||||||||||||||||||MET062METAR KCCB 291855Z AUTO 16003KT 10SM CLR 25/M09 A3016 RMK AO2=||F||223|ICAO-KCCB
USI0000KCCB|CABLE|2017|12|29|19|15|34.1115|-117.6876|438.6|25.0||1|FM15-METAR|223|ICAO-KCCB|-8.0||1|FM15-METAR|223|ICAO-KCCB|||||||||||||999|V-Variable|9|FM15-METAR|223|ICAO-KCCB|1.5|V-Variable|1|FM15-METAR|223|ICAO-KCCB|||||||||||||11|Derived||FM15-METAR|223|ICAO-KCCB|||||||||||||||||||||||||||||||||||||||||||||||||||||||||||||||||||||||||1021.0||1|FM15-METAR|223|ICAO-KCCB|||||||||||||||||||||||||||||||||||||||||||MET062METAR KCCB 291915Z AUTO VRB03KT 10SM CLR 25/M08 A3015 RMK AO2=||F||223|ICAO-KCCB
USI0000KCCB|CABLE|2017|12|29|19|35|34.1115|-117.6876|438.6|26.0||1|FM15-METAR|223|ICAO-KCCB|-8.0||1|FM15-METAR|223|ICAO-KCCB|||||||||||||999|C-Calm|9|FM15-METAR|223|ICAO-KCCB|0.0|C-Calm|1|FM15-METAR|223|ICAO-KCCB|||||||||||||10|Derived||FM15-METAR|223|ICAO-KCCB|||||||||||||||||||||||||||||||||||||||||||||||||||||||||||||||||||||||||1020.7||1|FM15-METAR|223|ICAO-KCCB|||||||||||||||||||||||||||||||||||||||||||MET062METAR KCCB 291935Z AUTO 00000KT 10SM CLR 26/M08 A3014 RMK AO2=||F||223|ICAO-KCCB
USI0000KCCB|CABLE|2017|12|29|19|55|34.1115|-117.6876|438.6|26.0||1|FM15-METAR|223|ICAO-KCCB|-9.0||1|FM15-METAR|223|ICAO-KCCB|||||||||||||170|N-Normal|1|FM15-METAR|223|ICAO-KCCB|2.1|N-Normal|1|FM15-METAR|223|ICAO-KCCB|||||||||||||9|Derived||FM15-METAR|223|ICAO-KCCB|||||||||||||||||||||||||||||||||||||||||||||||||||||||||||||||||||||||||1020.3||1|FM15-METAR|223|ICAO-KCCB|||||||||||||||||||||||||||||||||||||||||||MET062METAR KCCB 291955Z AUTO 17004KT 10SM CLR 26/M09 A3013 RMK AO2=||F||223|ICAO-KCCB
USI0000KCCB|CABLE|2017|12|29|20|15|34.1115|-117.6876|438.6|27.0||1|FM15-METAR|223|ICAO-KCCB|-9.0||1|FM15-METAR|223|ICAO-KCCB|||||||||||||999|C-Calm|9|FM15-METAR|223|ICAO-KCCB|0.0|C-Calm|1|FM15-METAR|223|ICAO-KCCB|||||||||||||9|Derived||FM15-METAR|223|ICAO-KCCB|||||||||||||||||||||||||||||||||||||||||||||||||||||||||||||||||||||||||1020.0||1|FM15-METAR|223|ICAO-KCCB|||||||||||||||||||||||||||||||||||||||||||MET062METAR KCCB 292015Z AUTO 00000KT 10SM CLR 27/M09 A3012 RMK AO2=||F||223|ICAO-KCCB
USI0000KCCB|CABLE|2017|12|29|20|35|34.1115|-117.6876|438.6|27.0||1|FM15-METAR|223|ICAO-KCCB|-10.0||1|FM15-METAR|223|ICAO-KCCB|||||||||||||230|N-Normal|1|FM15-METAR|223|ICAO-KCCB|2.1|N-Normal|1|FM15-METAR|223|ICAO-KCCB|||||||||||||8|Derived||FM15-METAR|223|ICAO-KCCB|||||||||||||||||||||||||||||||||||||||||||||||||||||||||||||||||||||||||1019.6||1|FM15-METAR|223|ICAO-KCCB|||||||||||||||||||||||||||||||||||||||||||MET062METAR KCCB 292035Z AUTO 23004KT 10SM CLR 27/M10 A3011 RMK AO2=||F||223|ICAO-KCCB
USI0000KCCB|CABLE|2017|12|29|20|55|34.1115|-117.6876|438.6|27.0||1|FM15-METAR|223|ICAO-KCCB|-10.0||1|FM15-METAR|223|ICAO-KCCB|||||||||||||999|C-Calm|9|FM15-METAR|223|ICAO-KCCB|0.0|C-Calm|1|FM15-METAR|223|ICAO-KCCB|||||||||||||8|Derived||FM15-METAR|223|ICAO-KCCB|||||||||||||||||||||||||||||||||||||||||||||||||||||||||||||||||||||||||1019.3||1|FM15-METAR|223|ICAO-KCCB|||||||||||||||||||||||||||||||||||||||||||MET062METAR KCCB 292055Z AUTO 00000KT 10SM CLR 27/M10 A3010 RMK AO2=||F||223|ICAO-KCCB
USI0000KCCB|CABLE|2017|12|29|21|15|34.1115|-117.6876|438.6|27.0||1|FM15-METAR|223|ICAO-KCCB|-10.0||1|FM15-METAR|223|ICAO-KCCB|||||||||||||220|N-Normal|1|FM15-METAR|223|ICAO-KCCB|2.1|N-Normal|1|FM15-METAR|223|ICAO-KCCB|||||||||||||8|Derived||FM15-METAR|223|ICAO-KCCB|||||||||||||||||||||||||||||||||||||||||||||||||||||||||||||||||||||||||1019.3||1|FM15-METAR|223|ICAO-KCCB|||||||||||||||||||||||||||||||||||||||||||MET062METAR KCCB 292115Z AUTO 22004KT 10SM CLR 27/M10 A3010 RMK AO2=||F||223|ICAO-KCCB
USI0000KCCB|CABLE|2017|12|29|21|35|34.1115|-117.6876|438.6|28.0||1|FM15-METAR|223|ICAO-KCCB|-10.0||1|FM15-METAR|223|ICAO-KCCB|||||||||||||210|N-Normal|1|FM15-METAR|223|ICAO-KCCB|2.6|N-Normal|1|FM15-METAR|223|ICAO-KCCB|||||||||||||7|Derived||FM15-METAR|223|ICAO-KCCB|||||||||||||||||||||||||||||||||||||||||||||||||||||||||||||||||||||||||1019.0||1|FM15-METAR|223|ICAO-KCCB|||||||||||||||||||||||||||||||||||||||||||MET062METAR KCCB 292135Z AUTO 21005KT 10SM CLR 28/M10 A3009 RMK AO2=||F||223|ICAO-KCCB
USI0000KCCB|CABLE|2017|12|29|21|55|34.1115|-117.6876|438.6|28.0||1|FM15-METAR|223|ICAO-KCCB|-11.0||1|FM15-METAR|223|ICAO-KCCB|||||||||||||260|N-Normal|1|FM15-METAR|223|ICAO-KCCB|3.1|N-Normal|1|FM15-METAR|223|ICAO-KCCB|||||||||||||7|Derived||FM15-METAR|223|ICAO-KCCB|||||||||||||||||||||||||||||||||||||||||||||||||||||||||||||||||||||||||1019.0||1|FM15-METAR|223|ICAO-KCCB|||||||||||||||||||||||||||||||||||||||||||MET062METAR KCCB 292155Z AUTO 26006KT 10SM CLR 28/M11 A3009 RMK AO2=||F||223|ICAO-KCCB
USI0000KCCB|CABLE|2017|12|29|22|15|34.1115|-117.6876|438.6|28.0||1|FM15-METAR|223|ICAO-KCCB|-12.0||1|FM15-METAR|223|ICAO-KCCB|||||||||||||260|N-Normal|1|FM15-METAR|223|ICAO-KCCB|2.6|N-Normal|1|FM15-METAR|223|ICAO-KCCB|||||||||||||6|Derived||FM15-METAR|223|ICAO-KCCB|||||||||||||||||||||||||||||||||||||||||||||||||||||||||||||||||||||||||1019.0||1|FM15-METAR|223|ICAO-KCCB|||||||||||||||||||||||||||||||||||||||||||MET062METAR KCCB 292215Z AUTO 26005KT 10SM CLR 28/M12 A3009 RMK AO2=||F||223|ICAO-KCCB
USI0000KCCB|CABLE|2017|12|29|22|35|34.1115|-117.6876|438.6|28.0||1|FM15-METAR|223|ICAO-KCCB|-11.0||1|FM15-METAR|223|ICAO-KCCB|||||||||||||250|N-Normal|1|FM15-METAR|223|ICAO-KCCB|3.1|N-Normal|1|FM15-METAR|223|ICAO-KCCB|||||||||||||7|Derived||FM15-METAR|223|ICAO-KCCB|||||||||||||||||||||||||||||||||||||||||||||||||||||||||||||||||||||||||1018.6||1|FM15-METAR|223|ICAO-KCCB|||||||||||||||||||||||||||||||||||||||||||MET062METAR KCCB 292235Z AUTO 25006KT 10SM CLR 28/M11 A3008 RMK AO2=||F||223|ICAO-KCCB
USI0000KCCB|CABLE|2017|12|29|22|55|34.1115|-117.6876|438.6|28.0||1|FM15-METAR|223|ICAO-KCCB|-11.0||1|FM15-METAR|223|ICAO-KCCB|||||||||||||250|N-Normal|1|FM15-METAR|223|ICAO-KCCB|3.1|N-Normal|1|FM15-METAR|223|ICAO-KCCB|||||||||||||7|Derived||FM15-METAR|223|ICAO-KCCB|||||||||||||||||||||||||||||||||||||||||||||||||||||||||||||||||||||||||1018.6||1|FM15-METAR|223|ICAO-KCCB|||||||||||||||||||||||||||||||||||||||||||MET061METAR KCCB 292255Z AUTO 25006KT 9SM CLR 28/M11 A3008 RMK AO2=||F||223|ICAO-KCCB
USI0000KCCB|CABLE|2017|12|29|23|15|34.1115|-117.6876|438.6|28.0||1|FM15-METAR|223|ICAO-KCCB|-9.0||1|FM15-METAR|223|ICAO-KCCB|||||||||||||280|N-Normal|1|FM15-METAR|223|ICAO-KCCB|3.6|N-Normal|1|FM15-METAR|223|ICAO-KCCB|||||||||||||8|Derived||FM15-METAR|223|ICAO-KCCB|||||||||||||||||||||||||||||||||||||||||||||||||||||||||||||||||||||||||1018.6||1|FM15-METAR|223|ICAO-KCCB|||||||||||||||||||||||||||||||||||||||||||MET062METAR KCCB 292315Z AUTO 28007KT 10SM CLR 28/M09 A3008 RMK AO2=||F||223|ICAO-KCCB
USI0000KCCB|CABLE|2017|12|29|23|35|34.1115|-117.6876|438.6|27.0||1|FM15-METAR|223|ICAO-KCCB|-8.0||1|FM15-METAR|223|ICAO-KCCB|||||||||||||270|N-Normal|1|FM15-METAR|223|ICAO-KCCB|3.1|N-Normal|1|FM15-METAR|223|ICAO-KCCB|||||||||||||9|Derived||FM15-METAR|223|ICAO-KCCB|||||||||||||||||||||||||||||||||||||||||||||||||||||||||||||||||||||||||1019.0||1|FM15-METAR|223|ICAO-KCCB|||||||||||||||||||||||||||||||||||||||||||MET062METAR KCCB 292335Z AUTO 27006KT 10SM CLR 27/M08 A3009 RMK AO2=||F||223|ICAO-KCCB
USI0000KCCB|CABLE|2017|12|29|23|55|34.1115|-117.6876|438.6|27.0||1|FM15-METAR|223|ICAO-KCCB|-8.0||1|FM15-METAR|223|ICAO-KCCB|||||||||||||270|N-Normal|1|FM15-METAR|223|ICAO-KCCB|3.6|N-Normal|1|FM15-METAR|223|ICAO-KCCB|||||||||||||9|Derived||FM15-METAR|223|ICAO-KCCB|||||||||||||||||||||||||||||||||||||||||||||||||||||||||||||||||||||||||1019.0||1|FM15-METAR|223|ICAO-KCCB|||||||||||||||||||||||||||||||||||||||||||MET062METAR KCCB 292355Z AUTO 27007KT 10SM CLR 27/M08 A3009 RMK AO2=||F||223|ICAO-KCCB
USI0000KCCB|CABLE|2017|12|30|00|15|34.1115|-117.6876|438.6|26.0||1|FM15-METAR|223|ICAO-KCCB|-6.0||1|FM15-METAR|223|ICAO-KCCB|||||||||||||270|N-Normal|1|FM15-METAR|223|ICAO-KCCB|3.6|N-Normal|1|FM15-METAR|223|ICAO-KCCB|||||||||||||12|Derived||FM15-METAR|223|ICAO-KCCB|||||||||||||||||||||||||||||||||||||||||||||||||||||||||||||||||||||||||1019.0||1|FM15-METAR|223|ICAO-KCCB|||||||||||||||||||||||||||||||||||||||||||MET062METAR KCCB 300015Z AUTO 27007KT 10SM CLR 26/M06 A3009 RMK AO2=||F||223|ICAO-KCCB
USI0000KCCB|CABLE|2017|12|30|00|35|34.1115|-117.6876|438.6|25.0||1|FM15-METAR|223|ICAO-KCCB|-5.0||1|FM15-METAR|223|ICAO-KCCB|||||||||||||280|N-Normal|1|FM15-METAR|223|ICAO-KCCB|3.6|N-Normal|1|FM15-METAR|223|ICAO-KCCB|||||||||||||13|Derived||FM15-METAR|223|ICAO-KCCB|||||||||||||||||||||||||||||||||||||||||||||||||||||||||||||||||||||||||1019.0||1|FM15-METAR|223|ICAO-KCCB|||||||||||||||||||||||||||||||||||||||||||MET062METAR KCCB 300035Z AUTO 28007KT 10SM CLR 25/M05 A3009 RMK AO2=||F||223|ICAO-KCCB
USI0000KCCB|CABLE|2017|12|30|00|55|34.1115|-117.6876|438.6|24.0||1|FM15-METAR|223|ICAO-KCCB|-4.0||1|FM15-METAR|223|ICAO-KCCB|||||||||||||290|N-Normal|1|FM15-METAR|223|ICAO-KCCB|2.1|N-Normal|1|FM15-METAR|223|ICAO-KCCB|||||||||||||15|Derived||FM15-METAR|223|ICAO-KCCB|||||||||||||||||||||||||||||||||||||||||||||||||||||||||||||||||||||||||1019.3||1|FM15-METAR|223|ICAO-KCCB|||||||||||||||||||||||||||||||||||||||||||MET062METAR KCCB 300055Z AUTO 29004KT 10SM CLR 24/M04 A3010 RMK AO2=||F||223|ICAO-KCCB
USI0000KCCB|CABLE|2017|12|30|01|15|34.1115|-117.6876|438.6|23.0||1|FM15-METAR|223|ICAO-KCCB|-4.0||1|FM15-METAR|223|ICAO-KCCB|||||||||||||290|N-Normal|1|FM15-METAR|223|ICAO-KCCB|2.1|N-Normal|1|FM15-METAR|223|ICAO-KCCB|||||||||||||16|Derived||FM15-METAR|223|ICAO-KCCB|||||||||||||||||||||||||||||||||||||||||||||||||||||||||||||||||||||||||1019.3||1|FM15-METAR|223|ICAO-KCCB|||||||||||||||||||||||||||||||||||||||||||MET062METAR KCCB 300115Z AUTO 29004KT 10SM CLR 23/M04 A3010 RMK AO2=||F||223|ICAO-KCCB
USI0000KCCB|CABLE|2017|12|30|01|35|34.1115|-117.6876|438.6|22.0||1|FM15-METAR|223|ICAO-KCCB|-4.0||1|FM15-METAR|223|ICAO-KCCB|||||||||||||350|N-Normal|1|FM15-METAR|223|ICAO-KCCB|1.5|N-Normal|1|FM15-METAR|223|ICAO-KCCB|||||||||||||17|Derived||FM15-METAR|223|ICAO-KCCB|||||||||||||||||||||||||||||||||||||||||||||||||||||||||||||||||||||||||1019.3||1|FM15-METAR|223|ICAO-KCCB|||||||||||||||||||||||||||||||||||||||||||MET062METAR KCCB 300135Z AUTO 35003KT 10SM CLR 22/M04 A3010 RMK AO2=||F||223|ICAO-KCCB
USI0000KCCB|CABLE|2017|12|30|01|55|34.1115|-117.6876|438.6|21.0||1|FM15-METAR|223|ICAO-KCCB|-5.0||1|FM15-METAR|223|ICAO-KCCB|||||||||||||340|N-Normal|1|FM15-METAR|223|ICAO-KCCB|2.1|N-Normal|1|FM15-METAR|223|ICAO-KCCB|||||||||||||17|Derived||FM15-METAR|223|ICAO-KCCB|||||||||||||||||||||||||||||||||||||||||||||||||||||||||||||||||||||||||1019.3||1|FM15-METAR|223|ICAO-KCCB|||||||||||||||||||||||||||||||||||||||||||MET062METAR KCCB 300155Z AUTO 34004KT 10SM CLR 21/M05 A3010 RMK AO2=||F||223|ICAO-KCCB
USI0000KCCB|CABLE|2017|12|30|02|15|34.1115|-117.6876|438.6|20.0||1|FM15-METAR|223|ICAO-KCCB|-7.0||1|FM15-METAR|223|ICAO-KCCB|||||||||||||360|N-Normal|1|FM15-METAR|223|ICAO-KCCB|2.1|N-Normal|1|FM15-METAR|223|ICAO-KCCB|||||||||||||16|Derived||FM15-METAR|223|ICAO-KCCB|||||||||||||||||||||||||||||||||||||||||||||||||||||||||||||||||||||||||1019.3||1|FM15-METAR|223|ICAO-KCCB|||||||||||||||||||||||||||||||||||||||||||MET062METAR KCCB 300215Z AUTO 36004KT 10SM CLR 20/M07 A3010 RMK AO2=||F||223|ICAO-KCCB
USI0000KCCB|CABLE|2017|12|30|02|35|34.1115|-117.6876|438.6|21.0||1|FM15-METAR|223|ICAO-KCCB|-9.0||1|FM15-METAR|223|ICAO-KCCB|||||||||||||010|N-Normal|1|FM15-METAR|223|ICAO-KCCB|2.6|N-Normal|1|FM15-METAR|223|ICAO-KCCB|||||||||||||12|Derived||FM15-METAR|223|ICAO-KCCB|||||||||||||||||||||||||||||||||||||||||||||||||||||||||||||||||||||||||1019.3||1|FM15-METAR|223|ICAO-KCCB|||||||||||||||||||||||||||||||||||||||||||MET062METAR KCCB 300235Z AUTO 01005KT 10SM CLR 21/M09 A3010 RMK AO2=||F||223|ICAO-KCCB
USI0000KCCB|CABLE|2017|12|30|02|55|34.1115|-117.6876|438.6|22.0||1|FM15-METAR|223|ICAO-KCCB|-9.0||1|FM15-METAR|223|ICAO-KCCB|||||||||||||360|N-Normal|1|FM15-METAR|223|ICAO-KCCB|3.1|N-Normal|1|FM15-METAR|223|ICAO-KCCB|||||||||||||12|Derived||FM15-METAR|223|ICAO-KCCB|||||||||||||||||||||||||||||||||||||||||||||||||||||||||||||||||||||||||1019.3||1|FM15-METAR|223|ICAO-KCCB|||||||||||||||||||||||||||||||||||||||||||MET062METAR KCCB 300255Z AUTO 36006KT 10SM CLR 22/M09 A3010 RMK AO2=||F||223|ICAO-KCCB
USI0000KCCB|CABLE|2017|12|30|03|15|34.1115|-117.6876|438.6|22.0||1|FM15-METAR|223|ICAO-KCCB|-10.0||1|FM15-METAR|223|ICAO-KCCB|||||||||||||010|N-Normal|1|FM15-METAR|223|ICAO-KCCB|2.1|N-Normal|1|FM15-METAR|223|ICAO-KCCB|||||||||||||11|Derived||FM15-METAR|223|ICAO-KCCB|||||||||||||||||||||||||||||||||||||||||||||||||||||||||||||||||||||||||1019.3||1|FM15-METAR|223|ICAO-KCCB|||||||||||||||||||||||||||||||||||||||||||MET062METAR KCCB 300315Z AUTO 01004KT 10SM CLR 22/M10 A3010 RMK AO2=||F||223|ICAO-KCCB
USI0000KCCB|CABLE|2017|12|30|03|35|34.1115|-117.6876|438.6|21.0||1|FM15-METAR|223|ICAO-KCCB|-10.0||1|FM15-METAR|223|ICAO-KCCB|||||||||||||020|N-Normal|1|FM15-METAR|223|ICAO-KCCB|2.6|N-Normal|1|FM15-METAR|223|ICAO-KCCB|||||||||||||12|Derived||FM15-METAR|223|ICAO-KCCB|||||||||||||||||||||||||||||||||||||||||||||||||||||||||||||||||||||||||1019.3||1|FM15-METAR|223|ICAO-KCCB|||||||||||||||||||||||||||||||||||||||||||MET062METAR KCCB 300335Z AUTO 02005KT 10SM CLR 21/M10 A3010 RMK AO2=||F||223|ICAO-KCCB
USI0000KCCB|CABLE|2017|12|30|03|55|34.1115|-117.6876|438.6|20.0||1|FM15-METAR|223|ICAO-KCCB|-9.0||1|FM15-METAR|223|ICAO-KCCB|||||||||||||050|N-Normal|1|FM15-METAR|223|ICAO-KCCB|2.6|N-Normal|1|FM15-METAR|223|ICAO-KCCB|||||||||||||13|Derived||FM15-METAR|223|ICAO-KCCB|||||||||||||||||||||||||||||||||||||||||||||||||||||||||||||||||||||||||1019.6||1|FM15-METAR|223|ICAO-KCCB|||||||||||||||||||||||||||||||||||||||||||MET062METAR KCCB 300355Z AUTO 05005KT 10SM CLR 20/M09 A3011 RMK AO2=||F||223|ICAO-KCCB
USI0000KCCB|CABLE|2017|12|30|04|15|34.1115|-117.6876|438.6|20.0||1|FM15-METAR|223|ICAO-KCCB|-8.0||1|FM15-METAR|223|ICAO-KCCB|||||||||||||060|N-Normal|1|FM15-METAR|223|ICAO-KCCB|2.6|N-Normal|1|FM15-METAR|223|ICAO-KCCB|||||||||||||14|Derived||FM15-METAR|223|ICAO-KCCB|||||||||||||||||||||||||||||||||||||||||||||||||||||||||||||||||||||||||1019.6||1|FM15-METAR|223|ICAO-KCCB|||||||||||||||||||||||||||||||||||||||||||MET062METAR KCCB 300415Z AUTO 06005KT 10SM CLR 20/M08 A3011 RMK AO2=||F||223|ICAO-KCCB
USI0000KCCB|CABLE|2017|12|30|04|35|34.1115|-117.6876|438.6|20.0||1|FM15-METAR|223|ICAO-KCCB|-8.0||1|FM15-METAR|223|ICAO-KCCB|||||||||||||060|N-Normal|1|FM15-METAR|223|ICAO-KCCB|3.1|N-Normal|1|FM15-METAR|223|ICAO-KCCB|||||||||||||14|Derived||FM15-METAR|223|ICAO-KCCB|||||||||||||||||||||||||||||||||||||||||||||||||||||||||||||||||||||||||1019.6||1|FM15-METAR|223|ICAO-KCCB|||||||||||||||||||||||||||||||||||||||||||MET062METAR KCCB 300435Z AUTO 06006KT 10SM CLR 20/M08 A3011 RMK AO2=||F||223|ICAO-KCCB
USI0000KCCB|CABLE|2017|12|30|04|55|34.1115|-117.6876|438.6|20.0||1|FM15-METAR|223|ICAO-KCCB|-7.0||1|FM15-METAR|223|ICAO-KCCB|||||||||||||060|N-Normal|1|FM15-METAR|223|ICAO-KCCB|2.6|N-Normal|1|FM15-METAR|223|ICAO-KCCB|||||||||||||16|Derived||FM15-METAR|223|ICAO-KCCB|||||||||||||||||||||||||||||||||||||||||||||||||||||||||||||||||||||||||1019.6||1|FM15-METAR|223|ICAO-KCCB|||||||||||||||||||||||||||||||||||||||||||MET062METAR KCCB 300455Z AUTO 06005KT 10SM CLR 20/M07 A3011 RMK AO2=||F||223|ICAO-KCCB
USI0000KCCB|CABLE|2017|12|30|05|15|34.1115|-117.6876|438.6|20.0||1|FM15-METAR|223|ICAO-KCCB|-7.0||1|FM15-METAR|223|ICAO-KCCB|||||||||||||050|N-Normal|1|FM15-METAR|223|ICAO-KCCB|3.6|N-Normal|1|FM15-METAR|223|ICAO-KCCB|||||||||||||16|Derived||FM15-METAR|223|ICAO-KCCB|||||||||||||||||||||||||||||||||||||||||||||||||||||||||||||||||||||||||1019.6||1|FM15-METAR|223|ICAO-KCCB|||||||||||||||||||||||||||||||||||||||||||MET062METAR KCCB 300515Z AUTO 05007KT 10SM CLR 20/M07 A3011 RMK AO2=||F||223|ICAO-KCCB
USI0000KCCB|CABLE|2017|12|30|05|35|34.1115|-117.6876|438.6|20.0||1|FM15-METAR|223|ICAO-KCCB|-7.0||1|FM15-METAR|223|ICAO-KCCB|||||||||||||050|N-Normal|1|FM15-METAR|223|ICAO-KCCB|3.6|N-Normal|1|FM15-METAR|223|ICAO-KCCB|||||||||||||16|Derived||FM15-METAR|223|ICAO-KCCB|||||||||||||||||||||||||||||||||||||||||||||||||||||||||||||||||||||||||1020.0||1|FM15-METAR|223|ICAO-KCCB|||||||||||||||||||||||||||||||||||||||||||MET062METAR KCCB 300535Z AUTO 05007KT 10SM CLR 20/M07 A3012 RMK AO2=||F||223|ICAO-KCCB
USI0000KCCB|CABLE|2017|12|30|05|55|34.1115|-117.6876|438.6|19.0||1|FM15-METAR|223|ICAO-KCCB|-7.0||1|FM15-METAR|223|ICAO-KCCB|||||||||||||060|N-Normal|1|FM15-METAR|223|ICAO-KCCB|2.6|N-Normal|1|FM15-METAR|223|ICAO-KCCB|||||||||||||17|Derived||FM15-METAR|223|ICAO-KCCB|||||||||||||||||||||||||||||||||||||||||||||||||||||||||||||||||||||||||1020.0||1|FM15-METAR|223|ICAO-KCCB|||||||||||||||||||||||||||||||||||||||||||MET062METAR KCCB 300555Z AUTO 06005KT 10SM CLR 19/M07 A3012 RMK AO2=||F||223|ICAO-KCCB
USI0000KCCB|CABLE|2017|12|30|06|15|34.1115|-117.6876|438.6|18.0||1|FM15-METAR|223|ICAO-KCCB|-8.0||1|FM15-METAR|223|ICAO-KCCB|||||||||||||060|N-Normal|1|FM15-METAR|223|ICAO-KCCB|2.1|N-Normal|1|FM15-METAR|223|ICAO-KCCB|||||||||||||16|Derived||FM15-METAR|223|ICAO-KCCB|||||||||||||||||||||||||||||||||||||||||||||||||||||||||||||||||||||||||1020.3||1|FM15-METAR|223|ICAO-KCCB|||||||||||||||||||||||||||||||||||||||||||MET062METAR KCCB 300615Z AUTO 06004KT 10SM CLR 18/M08 A3013 RMK AO2=||F||223|ICAO-KCCB
USI0000KCCB|CABLE|2017|12|30|06|35|34.1115|-117.6876|438.6|18.0||1|FM15-METAR|223|ICAO-KCCB|-8.0||1|FM15-METAR|223|ICAO-KCCB|||||||||||||060|N-Normal|1|FM15-METAR|223|ICAO-KCCB|2.1|N-Normal|1|FM15-METAR|223|ICAO-KCCB|||||||||||||16|Derived||FM15-METAR|223|ICAO-KCCB|||||||||||||||||||||||||||||||||||||||||||||||||||||||||||||||||||||||||1020.3||1|FM15-METAR|223|ICAO-KCCB|||||||||||||||||||||||||||||||||||||||||||MET062METAR KCCB 300635Z AUTO 06004KT 10SM CLR 18/M08 A3013 RMK AO2=||F||223|ICAO-KCCB
USI0000KCCB|CABLE|2017|12|30|06|55|34.1115|-117.6876|438.6|18.0||1|FM15-METAR|223|ICAO-KCCB|-7.0||1|FM15-METAR|223|ICAO-KCCB|||||||||||||070|N-Normal|1|FM15-METAR|223|ICAO-KCCB|1.5|N-Normal|1|FM15-METAR|223|ICAO-KCCB|||||||||||||18|Derived||FM15-METAR|223|ICAO-KCCB|||||||||||||||||||||||||||||||||||||||||||||||||||||||||||||||||||||||||1020.0||1|FM15-METAR|223|ICAO-KCCB|||||||||||||||||||||||||||||||||||||||||||MET062METAR KCCB 300655Z AUTO 07003KT 10SM CLR 18/M07 A3012 RMK AO2=||F||223|ICAO-KCCB
USI0000KCCB|CABLE|2017|12|30|07|15|34.1115|-117.6876|438.6|18.0||1|FM15-METAR|223|ICAO-KCCB|-7.0||1|FM15-METAR|223|ICAO-KCCB|||||||||||||999|C-Calm|9|FM15-METAR|223|ICAO-KCCB|0.0|C-Calm|1|FM15-METAR|223|ICAO-KCCB|||||||||||||18|Derived||FM15-METAR|223|ICAO-KCCB|||||||||||||||||||||||||||||||||||||||||||||||||||||||||||||||||||||||||1020.0||1|FM15-METAR|223|ICAO-KCCB|||||||||||||||||||||||||||||||||||||||||||MET062METAR KCCB 300715Z AUTO 00000KT 10SM CLR 18/M07 A3012 RMK AO2=||F||223|ICAO-KCCB
USI0000KCCB|CABLE|2017|12|30|07|35|34.1115|-117.6876|438.6|18.0||1|FM15-METAR|223|ICAO-KCCB|-8.0||1|FM15-METAR|223|ICAO-KCCB|||||||||||||999|C-Calm|9|FM15-METAR|223|ICAO-KCCB|0.0|C-Calm|1|FM15-METAR|223|ICAO-KCCB|||||||||||||16|Derived||FM15-METAR|223|ICAO-KCCB|||||||||||||||||||||||||||||||||||||||||||||||||||||||||||||||||||||||||1020.0||1|FM15-METAR|223|ICAO-KCCB|||||||||||||||||||||||||||||||||||||||||||MET062METAR KCCB 300735Z AUTO 00000KT 10SM CLR 18/M08 A3012 RMK AO2=||F||223|ICAO-KCCB
USI0000KCCB|CABLE|2017|12|30|07|55|34.1115|-117.6876|438.6|18.0||1|FM15-METAR|223|ICAO-KCCB|-7.0||1|FM15-METAR|223|ICAO-KCCB|||||||||||||999|C-Calm|9|FM15-METAR|223|ICAO-KCCB|0.0|C-Calm|1|FM15-METAR|223|ICAO-KCCB|||||||||||||18|Derived||FM15-METAR|223|ICAO-KCCB|||||||||||||||||||||||||||||||||||||||||||||||||||||||||||||||||||||||||1020.0||1|FM15-METAR|223|ICAO-KCCB|||||||||||||||||||||||||||||||||||||||||||MET062METAR KCCB 300755Z AUTO 00000KT 10SM CLR 18/M07 A3012 RMK AO2=||F||223|ICAO-KCCB
USI0000KCCB|CABLE|2017|12|30|08|15|34.1115|-117.6876|438.6|16.0||1|FM15-METAR|223|ICAO-KCCB|-7.0||1|FM15-METAR|223|ICAO-KCCB|||||||||||||320|N-Normal|1|FM15-METAR|223|ICAO-KCCB|2.1|N-Normal|1|FM15-METAR|223|ICAO-KCCB|||||||||||||20|Derived||FM15-METAR|223|ICAO-KCCB|||||||||||||||||||||||||||||||||||||||||||||||||||||||||||||||||||||||||1020.0||1|FM15-METAR|223|ICAO-KCCB|||||||||||||||||||||||||||||||||||||||||||MET062METAR KCCB 300815Z AUTO 32004KT 10SM CLR 16/M07 A3012 RMK AO2=||F||223|ICAO-KCCB
USI0000KCCB|CABLE|2017|12|30|08|35|34.1115|-117.6876|438.6|17.0||1|FM15-METAR|223|ICAO-KCCB|-8.0||1|FM15-METAR|223|ICAO-KCCB|||||||||||||340|N-Normal|1|FM15-METAR|223|ICAO-KCCB|2.6|N-Normal|1|FM15-METAR|223|ICAO-KCCB|||||||||||||17|Derived||FM15-METAR|223|ICAO-KCCB|||||||||||||||||||||||||||||||||||||||||||||||||||||||||||||||||||||||||1020.0||1|FM15-METAR|223|ICAO-KCCB|||||||||||||||||||||||||||||||||||||||||||MET062METAR KCCB 300835Z AUTO 34005KT 10SM CLR 17/M08 A3012 RMK AO2=||F||223|ICAO-KCCB
USI0000KCCB|CABLE|2017|12|30|08|55|34.1115|-117.6876|438.6|17.0||1|FM15-METAR|223|ICAO-KCCB|-10.0||1|FM15-METAR|223|ICAO-KCCB|||||||||||||340|N-Normal|1|FM15-METAR|223|ICAO-KCCB|2.6|N-Normal|1|FM15-METAR|223|ICAO-KCCB|||||||||||||15|Derived||FM15-METAR|223|ICAO-KCCB|||||||||||||||||||||||||||||||||||||||||||||||||||||||||||||||||||||||||1020.0||1|FM15-METAR|223|ICAO-KCCB|||||||||||||||||||||||||||||||||||||||||||MET062METAR KCCB 300855Z AUTO 34005KT 10SM CLR 17/M10 A3012 RMK AO2=||F||223|ICAO-KCCB
USI0000KCCB|CABLE|2017|12|30|09|15|34.1115|-117.6876|438.6|16.0||1|FM15-METAR|223|ICAO-KCCB|-10.0||1|FM15-METAR|223|ICAO-KCCB|||||||||||||350|N-Normal|1|FM15-METAR|223|ICAO-KCCB|3.1|N-Normal|1|FM15-METAR|223|ICAO-KCCB|||||||||||||16|Derived||FM15-METAR|223|ICAO-KCCB|||||||||||||||||||||||||||||||||||||||||||||||||||||||||||||||||||||||||1020.0||1|FM15-METAR|223|ICAO-KCCB|||||||||||||||||||||||||||||||||||||||||||MET062METAR KCCB 300915Z AUTO 35006KT 10SM CLR 16/M10 A3012 RMK AO2=||F||223|ICAO-KCCB
USI0000KCCB|CABLE|2017|12|30|09|35|34.1115|-117.6876|438.6|16.0||1|FM15-METAR|223|ICAO-KCCB|-9.0||1|FM15-METAR|223|ICAO-KCCB|||||||||||||350|N-Normal|1|FM15-METAR|223|ICAO-KCCB|2.6|N-Normal|1|FM15-METAR|223|ICAO-KCCB|||||||||||||17|Derived||FM15-METAR|223|ICAO-KCCB|||||||||||||||||||||||||||||||||||||||||||||||||||||||||||||||||||||||||1020.0||1|FM15-METAR|223|ICAO-KCCB|||||||||||||||||||||||||||||||||||||||||||MET062METAR KCCB 300935Z AUTO 35005KT 10SM CLR 16/M09 A3012 RMK AO2=||F||223|ICAO-KCCB
USI0000KCCB|CABLE|2017|12|30|09|55|34.1115|-117.6876|438.6|16.0||1|FM15-METAR|223|ICAO-KCCB|-7.0||1|FM15-METAR|223|ICAO-KCCB|||||||||||||360|N-Normal|1|FM15-METAR|223|ICAO-KCCB|2.6|N-Normal|1|FM15-METAR|223|ICAO-KCCB|||||||||||||20|Derived||FM15-METAR|223|ICAO-KCCB|||||||||||||||||||||||||||||||||||||||||||||||||||||||||||||||||||||||||1020.0||1|FM15-METAR|223|ICAO-KCCB|||||||||||||||||||||||||||||||||||||||||||MET062METAR KCCB 300955Z AUTO 36005KT 10SM CLR 16/M07 A3012 RMK AO2=||F||223|ICAO-KCCB
USI0000KCCB|CABLE|2017|12|30|10|15|34.1115|-117.6876|438.6|17.0||1|FM15-METAR|223|ICAO-KCCB|-9.0||1|FM15-METAR|223|ICAO-KCCB|||||||||||||350|N-Normal|1|FM15-METAR|223|ICAO-KCCB|1.5|N-Normal|1|FM15-METAR|223|ICAO-KCCB|||||||||||||16|Derived||FM15-METAR|223|ICAO-KCCB|||||||||||||||||||||||||||||||||||||||||||||||||||||||||||||||||||||||||1019.6||1|FM15-METAR|223|ICAO-KCCB|||||||||||||||||||||||||||||||||||||||||||MET062METAR KCCB 301015Z AUTO 35003KT 10SM CLR 17/M09 A3011 RMK AO2=||F||223|ICAO-KCCB
USI0000KCCB|CABLE|2017|12|30|10|35|34.1115|-117.6876|438.6|15.0||1|FM15-METAR|223|ICAO-KCCB|-7.0||1|FM15-METAR|223|ICAO-KCCB|||||||||||||999|C-Calm|9|FM15-METAR|223|ICAO-KCCB|0.0|C-Calm|1|FM15-METAR|223|ICAO-KCCB|||||||||||||21|Derived||FM15-METAR|223|ICAO-KCCB|||||||||||||||||||||||||||||||||||||||||||||||||||||||||||||||||||||||||1020.0||1|FM15-METAR|223|ICAO-KCCB|||||||||||||||||||||||||||||||||||||||||||MET062METAR KCCB 301035Z AUTO 00000KT 10SM CLR 15/M07 A3012 RMK AO2=||F||223|ICAO-KCCB
USI0000KCCB|CABLE|2017|12|30|10|55|34.1115|-117.6876|438.6|15.0||1|FM15-METAR|223|ICAO-KCCB|-9.0||1|FM15-METAR|223|ICAO-KCCB|||||||||||||999|C-Calm|9|FM15-METAR|223|ICAO-KCCB|0.0|C-Calm|1|FM15-METAR|223|ICAO-KCCB|||||||||||||18|Derived||FM15-METAR|223|ICAO-KCCB|||||||||||||||||||||||||||||||||||||||||||||||||||||||||||||||||||||||||1020.0||1|FM15-METAR|223|ICAO-KCCB|||||||||||||||||||||||||||||||||||||||||||MET062METAR KCCB 301055Z AUTO 00000KT 10SM CLR 15/M09 A3012 RMK AO2=||F||223|ICAO-KCCB
USI0000KCCB|CABLE|2017|12|30|11|15|34.1115|-117.6876|438.6|14.0||1|FM15-METAR|223|ICAO-KCCB|-8.0||1|FM15-METAR|223|ICAO-KCCB|||||||||||||999|C-Calm|9|FM15-METAR|223|ICAO-KCCB|0.0|C-Calm|1|FM15-METAR|223|ICAO-KCCB|||||||||||||21|Derived||FM15-METAR|223|ICAO-KCCB|||||||||||||||||||||||||||||||||||||||||||||||||||||||||||||||||||||||||1020.0||1|FM15-METAR|223|ICAO-KCCB|||||||||||||||||||||||||||||||||||||||||||MET062METAR KCCB 301115Z AUTO 00000KT 10SM CLR 14/M08 A3012 RMK AO2=||F||223|ICAO-KCCB
USI0000KCCB|CABLE|2017|12|30|11|35|34.1115|-117.6876|438.6|13.0||1|FM15-METAR|223|ICAO-KCCB|-8.0||1|FM15-METAR|223|ICAO-KCCB|||||||||||||010|N-Normal|1|FM15-METAR|223|ICAO-KCCB|2.6|N-Normal|1|FM15-METAR|223|ICAO-KCCB|||||||||||||23|Derived||FM15-METAR|223|ICAO-KCCB|||||||||||||||||||||||||||||||||||||||||||||||||||||||||||||||||||||||||1020.3||1|FM15-METAR|223|ICAO-KCCB|||||||||||||||||||||||||||||||||||||||||||MET062METAR KCCB 301135Z AUTO 01005KT 10SM CLR 13/M08 A3013 RMK AO2=||F||223|ICAO-KCCB
USI0000KCCB|CABLE|2017|12|30|11|55|34.1115|-117.6876|438.6|14.0||1|FM15-METAR|223|ICAO-KCCB|-8.0||1|FM15-METAR|223|ICAO-KCCB|||||||||||||030|N-Normal|1|FM15-METAR|223|ICAO-KCCB|2.6|N-Normal|1|FM15-METAR|223|ICAO-KCCB|||||||||||||21|Derived||FM15-METAR|223|ICAO-KCCB|||||||||||||||||||||||||||||||||||||||||||||||||||||||||||||||||||||||||1020.0||1|FM15-METAR|223|ICAO-KCCB|||||||||||||||||||||||||||||||||||||||||||MET062METAR KCCB 301155Z AUTO 03005KT 10SM CLR 14/M08 A3012 RMK AO2=||F||223|ICAO-KCCB
USI0000KCCB|CABLE|2017|12|30|12|15|34.1115|-117.6876|438.6|15.0||1|FM15-METAR|223|ICAO-KCCB|-9.0||1|FM15-METAR|223|ICAO-KCCB|||||||||||||010|N-Normal|1|FM15-METAR|223|ICAO-KCCB|2.6|N-Normal|1|FM15-METAR|223|ICAO-KCCB|||||||||||||18|Derived||FM15-METAR|223|ICAO-KCCB|||||||||||||||||||||||||||||||||||||||||||||||||||||||||||||||||||||||||1019.6||1|FM15-METAR|223|ICAO-KCCB|||||||||||||||||||||||||||||||||||||||||||MET062METAR KCCB 301215Z AUTO 01005KT 10SM CLR 15/M09 A3011 RMK AO2=||F||223|ICAO-KCCB
USI0000KCCB|CABLE|2017|12|30|12|35|34.1115|-117.6876|438.6|15.0||1|FM15-METAR|223|ICAO-KCCB|-9.0||1|FM15-METAR|223|ICAO-KCCB|||||||||||||040|N-Normal|1|FM15-METAR|223|ICAO-KCCB|2.6|N-Normal|1|FM15-METAR|223|ICAO-KCCB|||||||||||||18|Derived||FM15-METAR|223|ICAO-KCCB|||||||||||||||||||||||||||||||||||||||||||||||||||||||||||||||||||||||||1019.3||1|FM15-METAR|223|ICAO-KCCB|||||||||||||||||||||||||||||||||||||||||||MET062METAR KCCB 301235Z AUTO 04005KT 10SM CLR 15/M09 A3010 RMK AO2=||F||223|ICAO-KCCB
USI0000KCCB|CABLE|2017|12|30|12|55|34.1115|-117.6876|438.6|16.0||1|FM15-METAR|223|ICAO-KCCB|-8.0||1|FM15-METAR|223|ICAO-KCCB|||||||||||||050|N-Normal|1|FM15-METAR|223|ICAO-KCCB|2.1|N-Normal|1|FM15-METAR|223|ICAO-KCCB|||||||||||||19|Derived||FM15-METAR|223|ICAO-KCCB|||||||||||||||||||||||||||||||||||||||||||||||||||||||||||||||||||||||||1019.3||1|FM15-METAR|223|ICAO-KCCB|||||||||||||||||||||||||||||||||||||||||||MET062METAR KCCB 301255Z AUTO 05004KT 10SM CLR 16/M08 A3010 RMK AO2=||F||223|ICAO-KCCB
USI0000KCCB|CABLE|2017|12|30|13|15|34.1115|-117.6876|438.6|14.0||1|FM15-METAR|223|ICAO-KCCB|-7.0||1|FM15-METAR|223|ICAO-KCCB|||||||||||||070|N-Normal|1|FM15-METAR|223|ICAO-KCCB|2.6|N-Normal|1|FM15-METAR|223|ICAO-KCCB|||||||||||||23|Derived||FM15-METAR|223|ICAO-KCCB|||||||||||||||||||||||||||||||||||||||||||||||||||||||||||||||||||||||||1019.6||1|FM15-METAR|223|ICAO-KCCB|||||||||||||||||||||||||||||||||||||||||||MET062METAR KCCB 301315Z AUTO 07005KT 10SM CLR 14/M07 A3011 RMK AO2=||F||223|ICAO-KCCB
USI0000KCCB|CABLE|2017|12|30|13|35|34.1115|-117.6876|438.6|15.0||1|FM15-METAR|223|ICAO-KCCB|-7.0||1|FM15-METAR|223|ICAO-KCCB|||||||||||||060|N-Normal|1|FM15-METAR|223|ICAO-KCCB|3.1|N-Normal|1|FM15-METAR|223|ICAO-KCCB|||||||||||||21|Derived||FM15-METAR|223|ICAO-KCCB|||||||||||||||||||||||||||||||||||||||||||||||||||||||||||||||||||||||||1019.3||1|FM15-METAR|223|ICAO-KCCB|||||||||||||||||||||||||||||||||||||||||||MET062METAR KCCB 301335Z AUTO 06006KT 10SM CLR 15/M07 A3010 RMK AO2=||F||223|ICAO-KCCB
USI0000KCCB|CABLE|2017|12|30|13|55|34.1115|-117.6876|438.6|15.0||1|FM15-METAR|223|ICAO-KCCB|-7.0||1|FM15-METAR|223|ICAO-KCCB|||||||||||||070|N-Normal|1|FM15-METAR|223|ICAO-KCCB|2.6|N-Normal|1|FM15-METAR|223|ICAO-KCCB|||||||||||||21|Derived||FM15-METAR|223|ICAO-KCCB|||||||||||||||||||||||||||||||||||||||||||||||||||||||||||||||||||||||||1019.3||1|FM15-METAR|223|ICAO-KCCB|||||||||||||||||||||||||||||||||||||||||||MET062METAR KCCB 301355Z AUTO 07005KT 10SM CLR 15/M07 A3010 RMK AO2=||F||223|ICAO-KCCB
USI0000KCCB|CABLE|2017|12|30|14|15|34.1115|-117.6876|438.6|14.0||1|FM15-METAR|223|ICAO-KCCB|-7.0||1|FM15-METAR|223|ICAO-KCCB|||||||||||||050|N-Normal|1|FM15-METAR|223|ICAO-KCCB|1.5|N-Normal|1|FM15-METAR|223|ICAO-KCCB|||||||||||||23|Derived||FM15-METAR|223|ICAO-KCCB|||||||||||||||||||||||||||||||||||||||||||||||||||||||||||||||||||||||||1019.3||1|FM15-METAR|223|ICAO-KCCB|||||||||||||||||||||||||||||||||||||||||||MET062METAR KCCB 301415Z AUTO 05003KT 10SM CLR 14/M07 A3010 RMK AO2=||F||223|ICAO-KCCB
USI0000KCCB|CABLE|2017|12|30|14|35|34.1115|-117.6876|438.6|13.0||1|FM15-METAR|223|ICAO-KCCB|-7.0||1|FM15-METAR|223|ICAO-KCCB|||||||||||||050|N-Normal|1|FM15-METAR|223|ICAO-KCCB|2.1|N-Normal|1|FM15-METAR|223|ICAO-KCCB|||||||||||||24|Derived||FM15-METAR|223|ICAO-KCCB|||||||||||||||||||||||||||||||||||||||||||||||||||||||||||||||||||||||||1019.3||1|FM15-METAR|223|ICAO-KCCB|||||||||||||||||||||||||||||||||||||||||||MET062METAR KCCB 301435Z AUTO 05004KT 10SM CLR 13/M07 A3010 RMK AO2=||F||223|ICAO-KCCB
USI0000KCCB|CABLE|2017|12|30|14|55|34.1115|-117.6876|438.6|14.0||1|FM15-METAR|223|ICAO-KCCB|-7.0||1|FM15-METAR|223|ICAO-KCCB|||||||||||||030|N-Normal|1|FM15-METAR|223|ICAO-KCCB|2.6|N-Normal|1|FM15-METAR|223|ICAO-KCCB|||||||||||||23|Derived||FM15-METAR|223|ICAO-KCCB|||||||||||||||||||||||||||||||||||||||||||||||||||||||||||||||||||||||||1019.3||1|FM15-METAR|223|ICAO-KCCB|||||||||||||||||||||||||||||||||||||||||||MET062METAR KCCB 301455Z AUTO 03005KT 10SM CLR 14/M07 A3010 RMK AO2=||F||223|ICAO-KCCB
USI0000KCCB|CABLE|2017|12|30|15|15|34.1115|-117.6876|438.6|14.0||1|FM15-METAR|223|ICAO-KCCB|-8.0||1|FM15-METAR|223|ICAO-KCCB|||||||||||||040|N-Normal|1|FM15-METAR|223|ICAO-KCCB|2.6|N-Normal|1|FM15-METAR|223|ICAO-KCCB|||||||||||||21|Derived||FM15-METAR|223|ICAO-KCCB|||||||||||||||||||||||||||||||||||||||||||||||||||||||||||||||||||||||||1019.3||1|FM15-METAR|223|ICAO-KCCB|||||||||||||||||||||||||||||||||||||||||||MET062METAR KCCB 301515Z AUTO 04005KT 10SM CLR 14/M08 A3010 RMK AO2=||F||223|ICAO-KCCB
USI0000KCCB|CABLE|2017|12|30|15|35|34.1115|-117.6876|438.6|15.0||1|FM15-METAR|223|ICAO-KCCB|-8.0||1|FM15-METAR|223|ICAO-KCCB|||||||||||||040|N-Normal|1|FM15-METAR|223|ICAO-KCCB|2.6|N-Normal|1|FM15-METAR|223|ICAO-KCCB|||||||||||||20|Derived||FM15-METAR|223|ICAO-KCCB|||||||||||||||||||||||||||||||||||||||||||||||||||||||||||||||||||||||||1019.3||1|FM15-METAR|223|ICAO-KCCB|||||||||||||||||||||||||||||||||||||||||||MET062METAR KCCB 301535Z AUTO 04005KT 10SM CLR 15/M08 A3010 RMK AO2=||F||223|ICAO-KCCB
USI0000KCCB|CABLE|2017|12|30|15|55|34.1115|-117.6876|438.6|16.0||1|FM15-METAR|223|ICAO-KCCB|-8.0||1|FM15-METAR|223|ICAO-KCCB|||||||||||||040|N-Normal|1|FM15-METAR|223|ICAO-KCCB|1.5|N-Normal|1|FM15-METAR|223|ICAO-KCCB|||||||||||||19|Derived||FM15-METAR|223|ICAO-KCCB|||||||||||||||||||||||||||||||||||||||||||||||||||||||||||||||||||||||||1019.6||1|FM15-METAR|223|ICAO-KCCB|||||||||||||||||||||||||||||||||||||||||||MET062METAR KCCB 301555Z AUTO 04003KT 10SM CLR 16/M08 A3011 RMK AO2=||F||223|ICAO-KCCB
USI0000KCCB|CABLE|2017|12|30|16|15|34.1115|-117.6876|438.6|17.0||1|FM15-METAR|223|ICAO-KCCB|-8.0||1|FM15-METAR|223|ICAO-KCCB|||||||||||||999|C-Calm|9|FM15-METAR|223|ICAO-KCCB|0.0|C-Calm|1|FM15-METAR|223|ICAO-KCCB|||||||||||||17|Derived||FM15-METAR|223|ICAO-KCCB|||||||||||||||||||||||||||||||||||||||||||||||||||||||||||||||||||||||||1019.6||1|FM15-METAR|223|ICAO-KCCB|||||||||||||||||||||||||||||||||||||||||||MET062METAR KCCB 301615Z AUTO 00000KT 10SM CLR 17/M08 A3011 RMK AO2=||F||223|ICAO-KCCB
USI0000KCCB|CABLE|2017|12|30|16|35|34.1115|-117.6876|438.6|19.0||1|FM15-METAR|223|ICAO-KCCB|-7.0||1|FM15-METAR|223|ICAO-KCCB|||||||||||||999|C-Calm|9|FM15-METAR|223|ICAO-KCCB|0.0|C-Calm|1|FM15-METAR|223|ICAO-KCCB|||||||||||||17|Derived||FM15-METAR|223|ICAO-KCCB|||||||||||||||||||||||||||||||||||||||||||||||||||||||||||||||||||||||||1020.0||1|FM15-METAR|223|ICAO-KCCB|||||||||||||||||||||||||||||||||||||||||||MET062METAR KCCB 301635Z AUTO 00000KT 10SM CLR 19/M07 A3012 RMK AO2=||F||223|ICAO-KCCB
USI0000KCCB|CABLE|2017|12|30|16|55|34.1115|-117.6876|438.6|18.0||1|FM15-METAR|223|ICAO-KCCB|-6.0||1|FM15-METAR|223|ICAO-KCCB|||||||||||||130|N-Normal|1|FM15-METAR|223|ICAO-KCCB|2.1|N-Normal|1|FM15-METAR|223|ICAO-KCCB|||||||||||||19|Derived||FM15-METAR|223|ICAO-KCCB|||||||||||||||||||||||||||||||||||||||||||||||||||||||||||||||||||||||||1020.0||1|FM15-METAR|223|ICAO-KCCB|||||||||||||||||||||||||||||||||||||||||||MET062METAR KCCB 301655Z AUTO 13004KT 10SM CLR 18/M06 A3012 RMK AO2=||F||223|ICAO-KCCB
USI0000KCCB|CABLE|2017|12|30|17|15|34.1115|-117.6876|438.6|19.0||1|FM15-METAR|223|ICAO-KCCB|-8.0||1|FM15-METAR|223|ICAO-KCCB|||||||||||||110|N-Normal|1|FM15-METAR|223|ICAO-KCCB|2.1|N-Normal|1|FM15-METAR|223|ICAO-KCCB|||||||||||||15|Derived||FM15-METAR|223|ICAO-KCCB|||||||||||||||||||||||||||||||||||||||||||||||||||||||||||||||||||||||||1020.0||1|FM15-METAR|223|ICAO-KCCB|||||||||||||||||||||||||||||||||||||||||||MET062METAR KCCB 301715Z AUTO 11004KT 10SM CLR 19/M08 A3012 RMK AO2=||F||223|ICAO-KCCB
USI0000KCCB|CABLE|2017|12|30|17|35|34.1115|-117.6876|438.6|19.0||1|FM15-METAR|223|ICAO-KCCB|-7.0||1|FM15-METAR|223|ICAO-KCCB|||||||||||||120|N-Normal|1|FM15-METAR|223|ICAO-KCCB|1.5|N-Normal|1|FM15-METAR|223|ICAO-KCCB|||||||||||||17|Derived||FM15-METAR|223|ICAO-KCCB|||||||||||||||||||||||||||||||||||||||||||||||||||||||||||||||||||||||||1020.0||1|FM15-METAR|223|ICAO-KCCB|||||||||||||||||||||||||||||||||||||||||||MET062METAR KCCB 301735Z AUTO 12003KT 10SM CLR 19/M07 A3012 RMK AO2=||F||223|ICAO-KCCB
USI0000KCCB|CABLE|2017|12|30|17|55|34.1115|-117.6876|438.6|20.0||1|FM15-METAR|223|ICAO-KCCB|-6.0||1|FM15-METAR|223|ICAO-KCCB|||||||||||||999|C-Calm|9|FM15-METAR|223|ICAO-KCCB|0.0|C-Calm|1|FM15-METAR|223|ICAO-KCCB|||||||||||||17|Derived||FM15-METAR|223|ICAO-KCCB|||||||||||||||||||||||||||||||||||||||||||||||||||||||||||||||||||||||||1020.3||1|FM15-METAR|223|ICAO-KCCB|||||||||||||||||||||||||||||||||||||||||||MET062METAR KCCB 301755Z AUTO 00000KT 10SM CLR 20/M06 A3013 RMK AO2=||F||223|ICAO-KCCB
USI0000KCCB|CABLE|2017|12|30|18|15|34.1115|-117.6876|438.6|21.0||1|FM15-METAR|223|ICAO-KCCB|-7.0||1|FM15-METAR|223|ICAO-KCCB|||||||||||||999|C-Calm|9|FM15-METAR|223|ICAO-KCCB|0.0|C-Calm|1|FM15-METAR|223|ICAO-KCCB|||||||||||||15|Derived||FM15-METAR|223|ICAO-KCCB|||||||||||||||||||||||||||||||||||||||||||||||||||||||||||||||||||||||||1020.0||1|FM15-METAR|223|ICAO-KCCB|||||||||||||||||||||||||||||||||||||||||||MET062METAR KCCB 301815Z AUTO 00000KT 10SM CLR 21/M07 A3012 RMK AO2=||F||223|ICAO-KCCB
USI0000KCCB|CABLE|2017|12|30|18|35|34.1115|-117.6876|438.6|21.0||1|FM15-METAR|223|ICAO-KCCB|-8.0||1|FM15-METAR|223|ICAO-KCCB|||||||||||||170|N-Normal|1|FM15-METAR|223|ICAO-KCCB|2.1|N-Normal|1|FM15-METAR|223|ICAO-KCCB|||||||||||||13|Derived||FM15-METAR|223|ICAO-KCCB|||||||||||||||||||||||||||||||||||||||||||||||||||||||||||||||||||||||||1020.0||1|FM15-METAR|223|ICAO-KCCB|||||||||||||||||||||||||||||||||||||||||||MET062METAR KCCB 301835Z AUTO 17004KT 10SM CLR 21/M08 A3012 RMK AO2=||F||223|ICAO-KCCB
USI0000KCCB|CABLE|2017|12|30|18|55|34.1115|-117.6876|438.6|21.0||1|FM15-METAR|223|ICAO-KCCB|-7.0||1|FM15-METAR|223|ICAO-KCCB|||||||||||||999|C-Calm|9|FM15-METAR|223|ICAO-KCCB|0.0|C-Calm|1|FM15-METAR|223|ICAO-KCCB|||||||||||||15|Derived||FM15-METAR|223|ICAO-KCCB|||||||||||||||||||||||||||||||||||||||||||||||||||||||||||||||||||||||||1019.6||1|FM15-METAR|223|ICAO-KCCB|||||||||||||||||||||||||||||||||||||||||||MET062METAR KCCB 301855Z AUTO 00000KT 10SM CLR 21/M07 A3011 RMK AO2=||F||223|ICAO-KCCB
USI0000KCCB|CABLE|2017|12|30|19|15|34.1115|-117.6876|438.6|21.0||1|FM15-METAR|223|ICAO-KCCB|-8.0||1|FM15-METAR|223|ICAO-KCCB|||||||||||||999|C-Calm|9|FM15-METAR|223|ICAO-KCCB|0.0|C-Calm|1|FM15-METAR|223|ICAO-KCCB|||||||||||||13|Derived||FM15-METAR|223|ICAO-KCCB|||||||||||||||||||||||||||||||||||||||||||||||||||||||||||||||||||||||||1019.3||1|FM15-METAR|223|ICAO-KCCB|||||||||||||||||||||||||||||||||||||||||||MET061METAR KCCB 301915Z AUTO 00000KT 8SM CLR 21/M08 A3010 RMK AO2=||F||223|ICAO-KCCB
USI0000KCCB|CABLE|2017|12|30|19|35|34.1115|-117.6876|438.6|22.0||1|FM15-METAR|223|ICAO-KCCB|-7.0||1|FM15-METAR|223|ICAO-KCCB|||||||||||||999|C-Calm|9|FM15-METAR|223|ICAO-KCCB|0.0|C-Calm|1|FM15-METAR|223|ICAO-KCCB|||||||||||||14|Derived||FM15-METAR|223|ICAO-KCCB|||||||||||||||||||||||||||||||||||||||||||||||||||||||||||||||||||||||||1019.0||1|FM15-METAR|223|ICAO-KCCB|||||||||||||||||||||||||||||||||||||||||||MET062METAR KCCB 301935Z AUTO 00000KT 10SM CLR 22/M07 A3009 RMK AO2=||F||223|ICAO-KCCB
USI0000KCCB|CABLE|2017|12|30|19|55|34.1115|-117.6876|438.6|23.0||1|FM15-METAR|223|ICAO-KCCB|-8.0||1|FM15-METAR|223|ICAO-KCCB|||||||||||||999|C-Calm|9|FM15-METAR|223|ICAO-KCCB|0.0|C-Calm|1|FM15-METAR|223|ICAO-KCCB|||||||||||||12|Derived||FM15-METAR|223|ICAO-KCCB|||||||||||||||||||||||||||||||||||||||||||||||||||||||||||||||||||||||||1018.3||1|FM15-METAR|223|ICAO-KCCB|||||||||||||||||||||||||||||||||||||||||||MET062METAR KCCB 301955Z AUTO 00000KT 10SM CLR 23/M08 A3007 RMK AO2=||F||223|ICAO-KCCB
USI0000KCCB|CABLE|2017|12|30|20|15|34.1115|-117.6876|438.6|23.0||1|FM15-METAR|223|ICAO-KCCB|-7.0||1|FM15-METAR|223|ICAO-KCCB|||||||||||||999|V-Variable|9|FM15-METAR|223|ICAO-KCCB|1.5|V-Variable|1|FM15-METAR|223|ICAO-KCCB|||||||||||||13|Derived||FM15-METAR|223|ICAO-KCCB|||||||||||||||||||||||||||||||||||||||||||||||||||||||||||||||||||||||||1018.3||1|FM15-METAR|223|ICAO-KCCB|||||||||||||||||||||||||||||||||||||||||||MET062METAR KCCB 302015Z AUTO VRB03KT 10SM CLR 23/M07 A3007 RMK AO2=||F||223|ICAO-KCCB
USI0000KCCB|CABLE|2017|12|30|20|35|34.1115|-117.6876|438.6|23.0||1|FM15-METAR|223|ICAO-KCCB|-6.0||1|FM15-METAR|223|ICAO-KCCB|||||||||||||210|N-Normal|1|FM15-METAR|223|ICAO-KCCB|2.1|N-Normal|1|FM15-METAR|223|ICAO-KCCB|||||||||||||14|Derived||FM15-METAR|223|ICAO-KCCB|||||||||||||||||||||||||||||||||||||||||||||||||||||||||||||||||||||||||1017.9||1|FM15-METAR|223|ICAO-KCCB|||||||||||||||||||||||||||||||||||||||||||MET062METAR KCCB 302035Z AUTO 21004KT 10SM CLR 23/M06 A3006 RMK AO2=||F||223|ICAO-KCCB
USI0000KCCB|CABLE|2017|12|30|20|55|34.1115|-117.6876|438.6|24.0||1|FM15-METAR|223|ICAO-KCCB|-6.0||1|FM15-METAR|223|ICAO-KCCB|||||||||||||999|V-Variable|9|FM15-METAR|223|ICAO-KCCB|2.6|V-Variable|1|FM15-METAR|223|ICAO-KCCB|||||||||||||13|Derived||FM15-METAR|223|ICAO-KCCB|||||||||||||||||||||||||||||||||||||||||||||||||||||||||||||||||||||||||1017.9||1|FM15-METAR|223|ICAO-KCCB|||||||||||||||||||||||||||||||||||||||||||MET062METAR KCCB 302055Z AUTO VRB05KT 10SM CLR 24/M06 A3006 RMK AO2=||F||223|ICAO-KCCB
USI0000KCCB|CABLE|2017|12|30|21|15|34.1115|-117.6876|438.6|23.0||1|FM15-METAR|223|ICAO-KCCB|-7.0||1|FM15-METAR|223|ICAO-KCCB|||||||||||||230|N-Normal|1|FM15-METAR|223|ICAO-KCCB|3.1|N-Normal|1|FM15-METAR|223|ICAO-KCCB|||||||||||||13|Derived||FM15-METAR|223|ICAO-KCCB|||||||||||||||||||||||||||||||||||||||||||||||||||||||||||||||||||||||||1017.6||1|FM15-METAR|223|ICAO-KCCB|||||||||||||||||||||||||||||||||||||||||||MET062METAR KCCB 302115Z AUTO 23006KT 10SM CLR 23/M07 A3005 RMK AO2=||F||223|ICAO-KCCB
USI0000KCCB|CABLE|2017|12|30|21|35|34.1115|-117.6876|438.6|24.0||1|FM15-METAR|223|ICAO-KCCB|-7.0||1|FM15-METAR|223|ICAO-KCCB|||||||||||||230|N-Normal|1|FM15-METAR|223|ICAO-KCCB|3.1|N-Normal|1|FM15-METAR|223|ICAO-KCCB|||||||||||||12|Derived||FM15-METAR|223|ICAO-KCCB|||||||||||||||||||||||||||||||||||||||||||||||||||||||||||||||||||||||||1017.3||1|FM15-METAR|223|ICAO-KCCB|||||||||||||||||||||||||||||||||||||||||||MET062METAR KCCB 302135Z AUTO 23006KT 10SM CLR 24/M07 A3004 RMK AO2=||F||223|ICAO-KCCB
USI0000KCCB|CABLE|2017|12|30|21|55|34.1115|-117.6876|438.6|24.0||1|FM15-METAR|223|ICAO-KCCB|-6.0||1|FM15-METAR|223|ICAO-KCCB|||||||||||||230|N-Normal|1|FM15-METAR|223|ICAO-KCCB|3.6|N-Normal|1|FM15-METAR|223|ICAO-KCCB|||||||||||||13|Derived||FM15-METAR|223|ICAO-KCCB|||||||||||||||||||||||||||||||||||||||||||||||||||||||||||||||||||||||||1016.9||1|FM15-METAR|223|ICAO-KCCB|||||||||||||||||||||||||||||||||||||||||||MET062METAR KCCB 302155Z AUTO 23007KT 10SM CLR 24/M06 A3003 RMK AO2=||F||223|ICAO-KCCB
USI0000KCCB|CABLE|2017|12|30|22|15|34.1115|-117.6876|438.6|24.0||1|FM15-METAR|223|ICAO-KCCB|-5.0||1|FM15-METAR|223|ICAO-KCCB|||||||||||||240|N-Normal|1|FM15-METAR|223|ICAO-KCCB|2.6|N-Normal|1|FM15-METAR|223|ICAO-KCCB|||||||||||||14|Derived||FM15-METAR|223|ICAO-KCCB|||||||||||||||||||||||||||||||||||||||||||||||||||||||||||||||||||||||||1016.9||1|FM15-METAR|223|ICAO-KCCB|||||||||||||||||||||||||||||||||||||||||||MET062METAR KCCB 302215Z AUTO 24005KT 10SM CLR 24/M05 A3003 RMK AO2=||F||223|ICAO-KCCB
USI0000KCCB|CABLE|2017|12|30|22|35|34.1115|-117.6876|438.6|24.0||1|FM15-METAR|223|ICAO-KCCB|-4.0||1|FM15-METAR|223|ICAO-KCCB|||||||||||||260|N-Normal|1|FM15-METAR|223|ICAO-KCCB|3.1|N-Normal|1|FM15-METAR|223|ICAO-KCCB|||||||||||||15|Derived||FM15-METAR|223|ICAO-KCCB|||||||||||||||||||||||||||||||||||||||||||||||||||||||||||||||||||||||||1016.9||1|FM15-METAR|223|ICAO-KCCB|||||||||||||||||||||||||||||||||||||||||||MET062METAR KCCB 302235Z AUTO 26006KT 10SM CLR 24/M04 A3003 RMK AO2=||F||223|ICAO-KCCB
USI0000KCCB|CABLE|2017|12|30|22|55|34.1115|-117.6876|438.6|24.0||1|FM15-METAR|223|ICAO-KCCB|-4.0||1|FM15-METAR|223|ICAO-KCCB|||||||||||||999|V-Variable|9|FM15-METAR|223|ICAO-KCCB|2.1|V-Variable|1|FM15-METAR|223|ICAO-KCCB|5.1||1|FM15-METAR|223|ICAO-KCCB|||||||15|Derived||FM15-METAR|223|ICAO-KCCB|||||||||||||||||||||||||||||||||||||||||||||||||||||||||||||||||||||||||1016.9||1|FM15-METAR|223|ICAO-KCCB|||||||||||||||||||||||||||||||||||||||||||MET065METAR KCCB 302255Z AUTO VRB04G10KT 10SM CLR 24/M04 A3003 RMK AO2=||F||223|ICAO-KCCB
USI0000KCCB|CABLE|2017|12|30|23|15|34.1115|-117.6876|438.6|23.0||1|FM15-METAR|223|ICAO-KCCB|-3.0||1|FM15-METAR|223|ICAO-KCCB|||||||||||||240|N-Normal|1|FM15-METAR|223|ICAO-KCCB|2.6|N-Normal|1|FM15-METAR|223|ICAO-KCCB|||||||||||||17|Derived||FM15-METAR|223|ICAO-KCCB|||||||||||||||||||||||||||||||||||||||||||||||||||||||||||||||||||||||||1016.9||1|FM15-METAR|223|ICAO-KCCB|||||||||||||||||||||||||||||||||||||||||||MET062METAR KCCB 302315Z AUTO 24005KT 10SM CLR 23/M03 A3003 RMK AO2=||F||223|ICAO-KCCB
USI0000KCCB|CABLE|2017|12|30|23|35|34.1115|-117.6876|438.6|23.0||1|FM15-METAR|223|ICAO-KCCB|-3.0||1|FM15-METAR|223|ICAO-KCCB|||||||||||||270|N-Normal|1|FM15-METAR|223|ICAO-KCCB|3.1|N-Normal|1|FM15-METAR|223|ICAO-KCCB|||||||||||||17|Derived||FM15-METAR|223|ICAO-KCCB|||||||||||||||||||||||||||||||||||||||||||||||||||||||||||||||||||||||||1016.6||1|FM15-METAR|223|ICAO-KCCB|||||||||||||||||||||||||||||||||||||||||||MET062METAR KCCB 302335Z AUTO 27006KT 10SM CLR 23/M03 A3002 RMK AO2=||F||223|ICAO-KCCB
USI0000KCCB|CABLE|2017|12|30|23|55|34.1115|-117.6876|438.6|23.0||1|FM15-METAR|223|ICAO-KCCB|-2.0||1|FM15-METAR|223|ICAO-KCCB|||||||||||||270|N-Normal|1|FM15-METAR|223|ICAO-KCCB|2.6|N-Normal|1|FM15-METAR|223|ICAO-KCCB|||||||||||||19|Derived||FM15-METAR|223|ICAO-KCCB|||||||||||||||||||||||||||||||||||||||||||||||||||||||||||||||||||||||||1016.6||1|FM15-METAR|223|ICAO-KCCB|||||||||||||||||||||||||||||||||||||||||||MET062METAR KCCB 302355Z AUTO 27005KT 10SM CLR 23/M02 A3002 RMK AO2=||F||223|ICAO-KCCB
USI0000KCCB|CABLE|2017|12|31|00|15|34.1115|-117.6876|438.6|22.0||1|FM15-METAR|223|ICAO-KCCB|-1.0||1|FM15-METAR|223|ICAO-KCCB|||||||||||||260|N-Normal|1|FM15-METAR|223|ICAO-KCCB|2.6|N-Normal|1|FM15-METAR|223|ICAO-KCCB|||||||||||||22|Derived||FM15-METAR|223|ICAO-KCCB|||||||||||||||||||||||||||||||||||||||||||||||||||||||||||||||||||||||||1016.6||1|FM15-METAR|223|ICAO-KCCB|||||||||||||||||||||||||||||||||||||||||||MET062METAR KCCB 310015Z AUTO 26005KT 10SM CLR 22/M01 A3002 RMK AO2=||F||223|ICAO-KCCB
USI0000KCCB|CABLE|2017|12|31|00|35|34.1115|-117.6876|438.6|21.0||1|FM15-METAR|223|ICAO-KCCB|-1.0||1|FM15-METAR|223|ICAO-KCCB|||||||||||||270|N-Normal|1|FM15-METAR|223|ICAO-KCCB|2.1|N-Normal|1|FM15-METAR|223|ICAO-KCCB|||||||||||||23|Derived||FM15-METAR|223|ICAO-KCCB|||||||||||||||||||||||||||||||||||||||||||||||||||||||||||||||||||||||||1016.6||1|FM15-METAR|223|ICAO-KCCB|||||||||||||||||||||||||||||||||||||||||||MET062METAR KCCB 310035Z AUTO 27004KT 10SM CLR 21/M01 A3002 RMK AO2=||F||223|ICAO-KCCB
USI0000KCCB|CABLE|2017|12|31|00|55|34.1115|-117.6876|438.6|21.0||1|FM15-METAR|223|ICAO-KCCB|0.0||1|FM15-METAR|223|ICAO-KCCB|||||||||||||240|N-Normal|1|FM15-METAR|223|ICAO-KCCB|2.1|N-Normal|1|FM15-METAR|223|ICAO-KCCB|||||||||||||25|Derived||FM15-METAR|223|ICAO-KCCB|||||||||||||||||||||||||||||||||||||||||||||||||||||||||||||||||||||||||1016.6||1|FM15-METAR|223|ICAO-KCCB|||||||||||||||||||||||||||||||||||||||||||MET061METAR KCCB 310055Z AUTO 24004KT 9SM CLR 21/M00 A3002 RMK AO2=||F||223|ICAO-KCCB
USI0000KCCB|CABLE|2017|12|31|01|15|34.1115|-117.6876|438.6|20.0||1|FM15-METAR|223|ICAO-KCCB|-1.0||1|FM15-METAR|223|ICAO-KCCB|||||||||||||270|N-Normal|1|FM15-METAR|223|ICAO-KCCB|4.1|N-Normal|1|FM15-METAR|223|ICAO-KCCB|||||||||||||24|Derived||FM15-METAR|223|ICAO-KCCB|||||||||||||||||||||||||||||||||||||||||||||||||||||||||||||||||||||||||1017.3||1|FM15-METAR|223|ICAO-KCCB|||||||||||||||||||||||||||||||||||||||||||MET065METAR KCCB 310115Z AUTO 27008KT 10SM FEW019 20/M01 A3004 RMK AO2=||F||223|ICAO-KCCB
USI0000KCCB|CABLE|2017|12|31|01|35|34.1115|-117.6876|438.6|19.0||1|FM15-METAR|223|ICAO-KCCB|1.0||1|FM15-METAR|223|ICAO-KCCB|||||||||||||270|N-Normal|1|FM15-METAR|223|ICAO-KCCB|3.6|N-Normal|1|FM15-METAR|223|ICAO-KCCB|||||||||||||30|Derived||FM15-METAR|223|ICAO-KCCB|||||||||||||||||||||||||||||||||||||||||||||||||||||||||||||||||||||||||1017.3||1|FM15-METAR|223|ICAO-KCCB|||||||||||||||||||||||||||||||||||||||||||MET061METAR KCCB 310135Z AUTO 27007KT 10SM CLR 19/01 A3004 RMK AO2=||F||223|ICAO-KCCB
USI0000KCCB|CABLE|2017|12|31|01|55|34.1115|-117.6876|438.6|18.0||1|FM15-METAR|223|ICAO-KCCB|5.0||1|FM15-METAR|223|ICAO-KCCB|||||||||||||300|N-Normal|1|FM15-METAR|223|ICAO-KCCB|3.1|N-Normal|1|FM15-METAR|223|ICAO-KCCB|||||||||||||43|Derived||FM15-METAR|223|ICAO-KCCB|||||||||||||||||||||||||||||||||||||||||||||||||||||||||||||||||||||||||1017.3||1|FM15-METAR|223|ICAO-KCCB|||||||||||||||||||||||||||||||||||||||||||MET061METAR KCCB 310155Z AUTO 30006KT 10SM CLR 18/05 A3004 RMK AO2=||F||223|ICAO-KCCB
USI0000KCCB|CABLE|2017|12|31|02|15|34.1115|-117.6876|438.6|17.0||1|FM15-METAR|223|ICAO-KCCB|6.0||1|FM15-METAR|223|ICAO-KCCB|||||||||||||300|N-Normal|1|FM15-METAR|223|ICAO-KCCB|2.1|N-Normal|1|FM15-METAR|223|ICAO-KCCB|||||||||||||49|Derived||FM15-METAR|223|ICAO-KCCB|||||||||||||||||||||||||||||||||||||||||||||||||||||||||||||||||||||||||1017.6||1|FM15-METAR|223|ICAO-KCCB|||||||||||||||||||||||||||||||||||||||||||MET061METAR KCCB 310215Z AUTO 30004KT 10SM CLR 17/06 A3005 RMK AO2=||F||223|ICAO-KCCB
USI0000KCCB|CABLE|2017|12|31|02|35|34.1115|-117.6876|438.6|17.0||1|FM15-METAR|223|ICAO-KCCB|4.0||1|FM15-METAR|223|ICAO-KCCB|||||||||||||999|C-Calm|9|FM15-METAR|223|ICAO-KCCB|0.0|C-Calm|1|FM15-METAR|223|ICAO-KCCB|||||||||||||42|Derived||FM15-METAR|223|ICAO-KCCB|||||||||||||||||||||||||||||||||||||||||||||||||||||||||||||||||||||||||1017.6||1|FM15-METAR|223|ICAO-KCCB|||||||||||||||||||||||||||||||||||||||||||MET061METAR KCCB 310235Z AUTO 00000KT 10SM CLR 17/04 A3005 RMK AO2=||F||223|ICAO-KCCB
USI0000KCCB|CABLE|2017|12|31|02|55|34.1115|-117.6876|438.6|16.0||1|FM15-METAR|223|ICAO-KCCB|1.0||1|FM15-METAR|223|ICAO-KCCB|||||||||||||270|N-Normal|1|FM15-METAR|223|ICAO-KCCB|2.6|N-Normal|1|FM15-METAR|223|ICAO-KCCB|||||||||||||36|Derived||FM15-METAR|223|ICAO-KCCB|||||||||||||||||||||||||||||||||||||||||||||||||||||||||||||||||||||||||1017.9||1|FM15-METAR|223|ICAO-KCCB|||||||||||||||||||||||||||||||||||||||||||MET061METAR KCCB 310255Z AUTO 27005KT 10SM CLR 16/01 A3006 RMK AO2=||F||223|ICAO-KCCB
USI0000KCCB|CABLE|2017|12|31|03|15|34.1115|-117.6876|438.6|15.0||1|FM15-METAR|223|ICAO-KCCB|6.0||1|FM15-METAR|223|ICAO-KCCB|||||||||||||290|N-Normal|1|FM15-METAR|223|ICAO-KCCB|2.6|N-Normal|1|FM15-METAR|223|ICAO-KCCB|||||||||||||55|Derived||FM15-METAR|223|ICAO-KCCB|||||||||||||||||||||||||||||||||||||||||||||||||||||||||||||||||||||||||1017.9||1|FM15-METAR|223|ICAO-KCCB|||||||||||||||||||||||||||||||||||||||||||MET061METAR KCCB 310315Z AUTO 29005KT 10SM CLR 15/06 A3006 RMK AO2=||F||223|ICAO-KCCB
USI0000KCCB|CABLE|2017|12|31|03|35|34.1115|-117.6876|438.6|15.0||1|FM15-METAR|223|ICAO-KCCB|3.0||1|FM15-METAR|223|ICAO-KCCB|||||||||||||320|N-Normal|1|FM15-METAR|223|ICAO-KCCB|2.1|N-Normal|1|FM15-METAR|223|ICAO-KCCB|||||||||||||45|Derived||FM15-METAR|223|ICAO-KCCB|||||||||||||||||||||||||||||||||||||||||||||||||||||||||||||||||||||||||1017.9||1|FM15-METAR|223|ICAO-KCCB|||||||||||||||||||||||||||||||||||||||||||MET061METAR KCCB 310335Z AUTO 32004KT 10SM CLR 15/03 A3006 RMK AO2=||F||223|ICAO-KCCB
USI0000KCCB|CABLE|2017|12|31|03|55|34.1115|-117.6876|438.6|15.0||1|FM15-METAR|223|ICAO-KCCB|3.0||1|FM15-METAR|223|ICAO-KCCB|||||||||||||999|C-Calm|9|FM15-METAR|223|ICAO-KCCB|0.0|C-Calm|1|FM15-METAR|223|ICAO-KCCB|||||||||||||45|Derived||FM15-METAR|223|ICAO-KCCB|||||||||||||||||||||||||||||||||||||||||||||||||||||||||||||||||||||||||1017.9||1|FM15-METAR|223|ICAO-KCCB|||||||||||||||||||||||||||||||||||||||||||MET061METAR KCCB 310355Z AUTO 00000KT 10SM CLR 15/03 A3006 RMK AO2=||F||223|ICAO-KCCB
USI0000KCCB|CABLE|2017|12|31|04|15|34.1115|-117.6876|438.6|15.0||1|FM15-METAR|223|ICAO-KCCB|2.0||1|FM15-METAR|223|ICAO-KCCB|||||||||||||999|C-Calm|9|FM15-METAR|223|ICAO-KCCB|0.0|C-Calm|1|FM15-METAR|223|ICAO-KCCB|||||||||||||42|Derived||FM15-METAR|223|ICAO-KCCB|||||||||||||||||||||||||||||||||||||||||||||||||||||||||||||||||||||||||1017.9||1|FM15-METAR|223|ICAO-KCCB|||||||||||||||||||||||||||||||||||||||||||MET061METAR KCCB 310415Z AUTO 00000KT 10SM CLR 15/02 A3006 RMK AO2=||F||223|ICAO-KCCB
USI0000KCCB|CABLE|2017|12|31|04|35|34.1115|-117.6876|438.6|15.0||1|FM15-METAR|223|ICAO-KCCB|-2.0||1|FM15-METAR|223|ICAO-KCCB|||||||||||||050|N-Normal|1|FM15-METAR|223|ICAO-KCCB|1.5|N-Normal|1|FM15-METAR|223|ICAO-KCCB|||||||||||||31|Derived||FM15-METAR|223|ICAO-KCCB|||||||||||||||||||||||||||||||||||||||||||||||||||||||||||||||||||||||||1017.9||1|FM15-METAR|223|ICAO-KCCB|||||||||||||||||||||||||||||||||||||||||||MET062METAR KCCB 310435Z AUTO 05003KT 10SM CLR 15/M02 A3006 RMK AO2=||F||223|ICAO-KCCB
USI0000KCCB|CABLE|2017|12|31|04|55|34.1115|-117.6876|438.6|15.0||1|FM15-METAR|223|ICAO-KCCB|-4.0||1|FM15-METAR|223|ICAO-KCCB|||||||||||||060|N-Normal|1|FM15-METAR|223|ICAO-KCCB|1.5|N-Normal|1|FM15-METAR|223|ICAO-KCCB|||||||||||||27|Derived||FM15-METAR|223|ICAO-KCCB|||||||||||||||||||||||||||||||||||||||||||||||||||||||||||||||||||||||||1018.3||1|FM15-METAR|223|ICAO-KCCB|||||||||||||||||||||||||||||||||||||||||||MET062METAR KCCB 310455Z AUTO 06003KT 10SM CLR 15/M04 A3007 RMK AO2=||F||223|ICAO-KCCB
USI0000KCCB|CABLE|2017|12|31|05|15|34.1115|-117.6876|438.6|15.0||1|FM15-METAR|223|ICAO-KCCB|-4.0||1|FM15-METAR|223|ICAO-KCCB|||||||||||||999|C-Calm|9|FM15-METAR|223|ICAO-KCCB|0.0|C-Calm|1|FM15-METAR|223|ICAO-KCCB|||||||||||||27|Derived||FM15-METAR|223|ICAO-KCCB|||||||||||||||||||||||||||||||||||||||||||||||||||||||||||||||||||||||||1018.3||1|FM15-METAR|223|ICAO-KCCB|||||||||||||||||||||||||||||||||||||||||||MET062METAR KCCB 310515Z AUTO 00000KT 10SM CLR 15/M04 A3007 RMK AO2=||F||223|ICAO-KCCB
USI0000KCCB|CABLE|2017|12|31|05|35|34.1115|-117.6876|438.6|15.0||1|FM15-METAR|223|ICAO-KCCB|-4.0||1|FM15-METAR|223|ICAO-KCCB|||||||||||||020|N-Normal|1|FM15-METAR|223|ICAO-KCCB|1.5|N-Normal|1|FM15-METAR|223|ICAO-KCCB|||||||||||||27|Derived||FM15-METAR|223|ICAO-KCCB|||||||||||||||||||||||||||||||||||||||||||||||||||||||||||||||||||||||||1018.6||1|FM15-METAR|223|ICAO-KCCB|||||||||||||||||||||||||||||||||||||||||||MET062METAR KCCB 310535Z AUTO 02003KT 10SM CLR 15/M04 A3008 RMK AO2=||F||223|ICAO-KCCB
USI0000KCCB|CABLE|2017|12|31|05|55|34.1115|-117.6876|438.6|14.0||1|FM15-METAR|223|ICAO-KCCB|-5.0||1|FM15-METAR|223|ICAO-KCCB|||||||||||||010|N-Normal|1|FM15-METAR|223|ICAO-KCCB|2.1|N-Normal|1|FM15-METAR|223|ICAO-KCCB|||||||||||||27|Derived||FM15-METAR|223|ICAO-KCCB|||||||||||||||||||||||||||||||||||||||||||||||||||||||||||||||||||||||||1018.6||1|FM15-METAR|223|ICAO-KCCB|||||||||||||||||||||||||||||||||||||||||||MET062METAR KCCB 310555Z AUTO 01004KT 10SM CLR 14/M05 A3008 RMK AO2=||F||223|ICAO-KCCB
USI0000KCCB|CABLE|2017|12|31|06|15|34.1115|-117.6876|438.6|14.0||1|FM15-METAR|223|ICAO-KCCB|-5.0||1|FM15-METAR|223|ICAO-KCCB|||||||||||||020|N-Normal|1|FM15-METAR|223|ICAO-KCCB|2.1|N-Normal|1|FM15-METAR|223|ICAO-KCCB|||||||||||||27|Derived||FM15-METAR|223|ICAO-KCCB|||||||||||||||||||||||||||||||||||||||||||||||||||||||||||||||||||||||||1018.6||1|FM15-METAR|223|ICAO-KCCB|||||||||||||||||||||||||||||||||||||||||||MET062METAR KCCB 310615Z AUTO 02004KT 10SM CLR 14/M05 A3008 RMK AO2=||F||223|ICAO-KCCB
USI0000KCCB|CABLE|2017|12|31|06|35|34.1115|-117.6876|438.6|14.0||1|FM15-METAR|223|ICAO-KCCB|-5.0||1|FM15-METAR|223|ICAO-KCCB|||||||||||||020|N-Normal|1|FM15-METAR|223|ICAO-KCCB|2.6|N-Normal|1|FM15-METAR|223|ICAO-KCCB|||||||||||||27|Derived||FM15-METAR|223|ICAO-KCCB|||||||||||||||||||||||||||||||||||||||||||||||||||||||||||||||||||||||||1018.6||1|FM15-METAR|223|ICAO-KCCB|||||||||||||||||||||||||||||||||||||||||||MET062METAR KCCB 310635Z AUTO 02005KT 10SM CLR 14/M05 A3008 RMK AO2=||F||223|ICAO-KCCB
USI0000KCCB|CABLE|2017|12|31|06|55|34.1115|-117.6876|438.6|14.0||1|FM15-METAR|223|ICAO-KCCB|-6.0||1|FM15-METAR|223|ICAO-KCCB|||||||||||||020|N-Normal|1|FM15-METAR|223|ICAO-KCCB|1.5|N-Normal|1|FM15-METAR|223|ICAO-KCCB|||||||||||||25|Derived||FM15-METAR|223|ICAO-KCCB|||||||||||||||||||||||||||||||||||||||||||||||||||||||||||||||||||||||||1018.6||1|FM15-METAR|223|ICAO-KCCB|||||||||||||||||||||||||||||||||||||||||||MET062METAR KCCB 310655Z AUTO 02003KT 10SM CLR 14/M06 A3008 RMK AO2=||F||223|ICAO-KCCB
USI0000KCCB|CABLE|2017|12|31|07|15|34.1115|-117.6876|438.6|14.0||1|FM15-METAR|223|ICAO-KCCB|-7.0||1|FM15-METAR|223|ICAO-KCCB|||||||||||||999|C-Calm|9|FM15-METAR|223|ICAO-KCCB|0.0|C-Calm|1|FM15-METAR|223|ICAO-KCCB|||||||||||||23|Derived||FM15-METAR|223|ICAO-KCCB|||||||||||||||||||||||||||||||||||||||||||||||||||||||||||||||||||||||||1019.0||1|FM15-METAR|223|ICAO-KCCB|||||||||||||||||||||||||||||||||||||||||||MET062METAR KCCB 310715Z AUTO 00000KT 10SM CLR 14/M07 A3009 RMK AO2=||F||223|ICAO-KCCB
USI0000KCCB|CABLE|2017|12|31|07|35|34.1115|-117.6876|438.6|14.0||1|FM15-METAR|223|ICAO-KCCB|-7.0||1|FM15-METAR|223|ICAO-KCCB|||||||||||||030|N-Normal|1|FM15-METAR|223|ICAO-KCCB|2.1|N-Normal|1|FM15-METAR|223|ICAO-KCCB|||||||||||||23|Derived||FM15-METAR|223|ICAO-KCCB|||||||||||||||||||||||||||||||||||||||||||||||||||||||||||||||||||||||||1018.6||1|FM15-METAR|223|ICAO-KCCB|||||||||||||||||||||||||||||||||||||||||||MET062METAR KCCB 310735Z AUTO 03004KT 10SM CLR 14/M07 A3008 RMK AO2=||F||223|ICAO-KCCB
USI0000KCCB|CABLE|2017|12|31|07|55|34.1115|-117.6876|438.6|14.0||1|FM15-METAR|223|ICAO-KCCB|-7.0||1|FM15-METAR|223|ICAO-KCCB|||||||||||||999|C-Calm|9|FM15-METAR|223|ICAO-KCCB|0.0|C-Calm|1|FM15-METAR|223|ICAO-KCCB|||||||||||||23|Derived||FM15-METAR|223|ICAO-KCCB|||||||||||||||||||||||||||||||||||||||||||||||||||||||||||||||||||||||||1018.6||1|FM15-METAR|223|ICAO-KCCB|||||||||||||||||||||||||||||||||||||||||||MET062METAR KCCB 310755Z AUTO 00000KT 10SM CLR 14/M07 A3008 RMK AO2=||F||223|ICAO-KCCB
USI0000KCCB|CABLE|2017|12|31|08|15|34.1115|-117.6876|438.6|13.0||1|FM15-METAR|223|ICAO-KCCB|-5.0||1|FM15-METAR|223|ICAO-KCCB|||||||||||||999|C-Calm|9|FM15-METAR|223|ICAO-KCCB|0.0|C-Calm|1|FM15-METAR|223|ICAO-KCCB|||||||||||||28|Derived||FM15-METAR|223|ICAO-KCCB|||||||||||||||||||||||||||||||||||||||||||||||||||||||||||||||||||||||||1018.6||1|FM15-METAR|223|ICAO-KCCB|||||||||||||||||||||||||||||||||||||||||||MET062METAR KCCB 310815Z AUTO 00000KT 10SM CLR 13/M05 A3008 RMK AO2=||F||223|ICAO-KCCB
USI0000KCCB|CABLE|2017|12|31|08|35|34.1115|-117.6876|438.6|13.0||1|FM15-METAR|223|ICAO-KCCB|-5.0||1|FM15-METAR|223|ICAO-KCCB|||||||||||||999|C-Calm|9|FM15-METAR|223|ICAO-KCCB|0.0|C-Calm|1|FM15-METAR|223|ICAO-KCCB|||||||||||||28|Derived||FM15-METAR|223|ICAO-KCCB|||||||||||||||||||||||||||||||||||||||||||||||||||||||||||||||||||||||||1018.3||1|FM15-METAR|223|ICAO-KCCB|||||||||||||||||||||||||||||||||||||||||||MET065METAR KCCB 310835Z AUTO 00000KT 10SM FEW024 13/M05 A3007 RMK AO2=||F||223|ICAO-KCCB
USI0000KCCB|CABLE|2017|12|31|08|55|34.1115|-117.6876|438.6|14.0||1|FM15-METAR|223|ICAO-KCCB|-4.0||1|FM15-METAR|223|ICAO-KCCB|||||||||||||999|C-Calm|9|FM15-METAR|223|ICAO-KCCB|0.0|C-Calm|1|FM15-METAR|223|ICAO-KCCB|||||||||||||29|Derived||FM15-METAR|223|ICAO-KCCB|||||||||||||||||||||||||||||||||||||||||||||||||||||||||||||||||||||||||1018.3||1|FM15-METAR|223|ICAO-KCCB|||||||||||||||||||||||||||||||||||||||||||MET065METAR KCCB 310855Z AUTO 00000KT 10SM BKN024 14/M04 A3007 RMK AO2=||F||223|ICAO-KCCB
USI0000KCCB|CABLE|2017|12|31|09|15|34.1115|-117.6876|438.6|13.0||1|FM15-METAR|223|ICAO-KCCB|-4.0||1|FM15-METAR|223|ICAO-KCCB|||||||||||||080|N-Normal|1|FM15-METAR|223|ICAO-KCCB|1.5|N-Normal|1|FM15-METAR|223|ICAO-KCCB|||||||||||||31|Derived||FM15-METAR|223|ICAO-KCCB|||||||||||||||||||||||||||||||||||||||||||||||||||||||||||||||||||||||||1018.3||1|FM15-METAR|223|ICAO-KCCB|||||||||||||||||||||||||||||||||||||||||||MET065METAR KCCB 310915Z AUTO 08003KT 10SM SCT024 13/M04 A3007 RMK AO2=||F||223|ICAO-KCCB
USI0000KCCB|CABLE|2017|12|31|09|35|34.1115|-117.6876|438.6|13.0||1|FM15-METAR|223|ICAO-KCCB|-1.0||1|FM15-METAR|223|ICAO-KCCB|||||||||||||060|N-Normal|1|FM15-METAR|223|ICAO-KCCB|2.1|N-Normal|1|FM15-METAR|223|ICAO-KCCB|||||||||||||38|Derived||FM15-METAR|223|ICAO-KCCB|||||||||||||||||||||||||||||||||||||||||||||||||||||||||||||||||||||||||1017.9||1|FM15-METAR|223|ICAO-KCCB|||||||||||||||||||||||||||||||||||||||||||MET062METAR KCCB 310935Z AUTO 06004KT 10SM CLR 13/M01 A3006 RMK AO2=||F||223|ICAO-KCCB
USI0000KCCB|CABLE|2017|12|31|09|55|34.1115|-117.6876|438.6|13.0||1|FM15-METAR|223|ICAO-KCCB|-1.0||1|FM15-METAR|223|ICAO-KCCB|||||||||||||060|N-Normal|1|FM15-METAR|223|ICAO-KCCB|2.1|N-Normal|1|FM15-METAR|223|ICAO-KCCB|||||||||||||38|Derived||FM15-METAR|223|ICAO-KCCB|||||||||||||||||||||||||||||||||||||||||||||||||||||||||||||||||||||||||1017.9||1|FM15-METAR|223|ICAO-KCCB|||||||||||||||||||||||||||||||||||||||||||MET062METAR KCCB 310955Z AUTO 06004KT 10SM CLR 13/M01 A3006 RMK AO2=||F||223|ICAO-KCCB
USI0000KCCB|CABLE|2017|12|31|10|15|34.1115|-117.6876|438.6|13.0||1|FM15-METAR|223|ICAO-KCCB|-1.0||1|FM15-METAR|223|ICAO-KCCB|||||||||||||050|N-Normal|1|FM15-METAR|223|ICAO-KCCB|2.1|N-Normal|1|FM15-METAR|223|ICAO-KCCB|||||||||||||38|Derived||FM15-METAR|223|ICAO-KCCB|||||||||||||||||||||||||||||||||||||||||||||||||||||||||||||||||||||||||1017.6||1|FM15-METAR|223|ICAO-KCCB|||||||||||||||||||||||||||||||||||||||||||MET062METAR KCCB 311015Z AUTO 05004KT 10SM CLR 13/M01 A3005 RMK AO2=||F||223|ICAO-KCCB
USI0000KCCB|CABLE|2017|12|31|10|35|34.1115|-117.6876|438.6|14.0||1|FM15-METAR|223|ICAO-KCCB|-1.0||1|FM15-METAR|223|ICAO-KCCB|||||||||||||030|N-Normal|1|FM15-METAR|223|ICAO-KCCB|2.1|N-Normal|1|FM15-METAR|223|ICAO-KCCB|||||||||||||36|Derived||FM15-METAR|223|ICAO-KCCB|||||||||||||||||||||||||||||||||||||||||||||||||||||||||||||||||||||||||1017.9||1|FM15-METAR|223|ICAO-KCCB|||||||||||||||||||||||||||||||||||||||||||MET062METAR KCCB 311035Z AUTO 03004KT 10SM CLR 14/M01 A3006 RMK AO2=||F||223|ICAO-KCCB
USI0000KCCB|CABLE|2017|12|31|10|55|34.1115|-117.6876|438.6|13.0||1|FM15-METAR|223|ICAO-KCCB|-2.0||1|FM15-METAR|223|ICAO-KCCB|||||||||||||040|N-Normal|1|FM15-METAR|223|ICAO-KCCB|2.6|N-Normal|1|FM15-METAR|223|ICAO-KCCB|||||||||||||36|Derived||FM15-METAR|223|ICAO-KCCB|||||||||||||||||||||||||||||||||||||||||||||||||||||||||||||||||||||||||1017.9||1|FM15-METAR|223|ICAO-KCCB|||||||||||||||||||||||||||||||||||||||||||MET062METAR KCCB 311055Z AUTO 04005KT 10SM CLR 13/M02 A3006 RMK AO2=||F||223|ICAO-KCCB
USI0000KCCB|CABLE|2017|12|31|11|15|34.1115|-117.6876|438.6|14.0||1|FM15-METAR|223|ICAO-KCCB|-1.0||1|FM15-METAR|223|ICAO-KCCB|||||||||||||050|N-Normal|1|FM15-METAR|223|ICAO-KCCB|2.1|N-Normal|1|FM15-METAR|223|ICAO-KCCB|||||||||||||36|Derived||FM15-METAR|223|ICAO-KCCB|||||||||||||||||||||||||||||||||||||||||||||||||||||||||||||||||||||||||1017.6||1|FM15-METAR|223|ICAO-KCCB|||||||||||||||||||||||||||||||||||||||||||MET062METAR KCCB 311115Z AUTO 05004KT 10SM CLR 14/M01 A3005 RMK AO2=||F||223|ICAO-KCCB
USI0000KCCB|CABLE|2017|12|31|11|35|34.1115|-117.6876|438.6|14.0||1|FM15-METAR|223|ICAO-KCCB|-1.0||1|FM15-METAR|223|ICAO-KCCB|||||||||||||060|N-Normal|1|FM15-METAR|223|ICAO-KCCB|2.1|N-Normal|1|FM15-METAR|223|ICAO-KCCB|||||||||||||36|Derived||FM15-METAR|223|ICAO-KCCB|||||||||||||||||||||||||||||||||||||||||||||||||||||||||||||||||||||||||1017.6||1|FM15-METAR|223|ICAO-KCCB|||||||||||||||||||||||||||||||||||||||||||MET062METAR KCCB 311135Z AUTO 06004KT 10SM CLR 14/M01 A3005 RMK AO2=||F||223|ICAO-KCCB
USI0000KCCB|CABLE|2017|12|31|11|55|34.1115|-117.6876|438.6|13.0||1|FM15-METAR|223|ICAO-KCCB|-1.0||1|FM15-METAR|223|ICAO-KCCB|||||||||||||999|C-Calm|9|FM15-METAR|223|ICAO-KCCB|0.0|C-Calm|1|FM15-METAR|223|ICAO-KCCB|||||||||||||38|Derived||FM15-METAR|223|ICAO-KCCB|||||||||||||||||||||||||||||||||||||||||||||||||||||||||||||||||||||||||1017.9||1|FM15-METAR|223|ICAO-KCCB|||||||||||||||||||||||||||||||||||||||||||MET062METAR KCCB 311155Z AUTO 00000KT 10SM CLR 13/M01 A3006 RMK AO2=||F||223|ICAO-KCCB
USI0000KCCB|CABLE|2017|12|31|12|15|34.1115|-117.6876|438.6|14.0||1|FM15-METAR|223|ICAO-KCCB|-1.0||1|FM15-METAR|223|ICAO-KCCB|||||||||||||070|N-Normal|1|FM15-METAR|223|ICAO-KCCB|2.1|N-Normal|1|FM15-METAR|223|ICAO-KCCB|||||||||||||36|Derived||FM15-METAR|223|ICAO-KCCB|||||||||||||||||||||||||||||||||||||||||||||||||||||||||||||||||||||||||1017.6||1|FM15-METAR|223|ICAO-KCCB|||||||||||||||||||||||||||||||||||||||||||MET062METAR KCCB 311215Z AUTO 07004KT 10SM CLR 14/M01 A3005 RMK AO2=||F||223|ICAO-KCCB
USI0000KCCB|CABLE|2017|12|31|12|35|34.1115|-117.6876|438.6|13.0||1|FM15-METAR|223|ICAO-KCCB|0.0||1|FM15-METAR|223|ICAO-KCCB|||||||||||||999|C-Calm|9|FM15-METAR|223|ICAO-KCCB|0.0|C-Calm|1|FM15-METAR|223|ICAO-KCCB|||||||||||||41|Derived||FM15-METAR|223|ICAO-KCCB|||||||||||||||||||||||||||||||||||||||||||||||||||||||||||||||||||||||||1017.9||1|FM15-METAR|223|ICAO-KCCB|||||||||||||||||||||||||||||||||||||||||||MET061METAR KCCB 311235Z AUTO 00000KT 10SM CLR 13/00 A3006 RMK AO2=||F||223|ICAO-KCCB
USI0000KCCB|CABLE|2017|12|31|12|55|34.1115|-117.6876|438.6|13.0||1|FM15-METAR|223|ICAO-KCCB|0.0||1|FM15-METAR|223|ICAO-KCCB|||||||||||||999|C-Calm|9|FM15-METAR|223|ICAO-KCCB|0.0|C-Calm|1|FM15-METAR|223|ICAO-KCCB|||||||||||||41|Derived||FM15-METAR|223|ICAO-KCCB|||||||||||||||||||||||||||||||||||||||||||||||||||||||||||||||||||||||||1017.9||1|FM15-METAR|223|ICAO-KCCB|||||||||||||||||||||||||||||||||||||||||||MET062METAR KCCB 311255Z AUTO 00000KT 10SM CLR 13/M00 A3006 RMK AO2=||F||223|ICAO-KCCB
USI0000KCCB|CABLE|2017|12|31|13|15|34.1115|-117.6876|438.6|13.0||1|FM15-METAR|223|ICAO-KCCB|-1.0||1|FM15-METAR|223|ICAO-KCCB|||||||||||||999|C-Calm|9|FM15-METAR|223|ICAO-KCCB|0.0|C-Calm|1|FM15-METAR|223|ICAO-KCCB|||||||||||||38|Derived||FM15-METAR|223|ICAO-KCCB|||||||||||||||||||||||||||||||||||||||||||||||||||||||||||||||||||||||||1018.3||1|FM15-METAR|223|ICAO-KCCB|||||||||||||||||||||||||||||||||||||||||||MET062METAR KCCB 311315Z AUTO 00000KT 10SM CLR 13/M01 A3007 RMK AO2=||F||223|ICAO-KCCB
USI0000KCCB|CABLE|2017|12|31|13|35|34.1115|-117.6876|438.6|13.0||1|FM15-METAR|223|ICAO-KCCB|-2.0||1|FM15-METAR|223|ICAO-KCCB|||||||||||||999|C-Calm|9|FM15-METAR|223|ICAO-KCCB|0.0|C-Calm|1|FM15-METAR|223|ICAO-KCCB|||||||||||||36|Derived||FM15-METAR|223|ICAO-KCCB|||||||||||||||||||||||||||||||||||||||||||||||||||||||||||||||||||||||||1018.6||1|FM15-METAR|223|ICAO-KCCB|||||||||||||||||||||||||||||||||||||||||||MET062METAR KCCB 311335Z AUTO 00000KT 10SM CLR 13/M02 A3008 RMK AO2=||F||223|ICAO-KCCB
USI0000KCCB|CABLE|2017|12|31|13|55|34.1115|-117.6876|438.6|12.0||1|FM15-METAR|223|ICAO-KCCB|-2.0||1|FM15-METAR|223|ICAO-KCCB|||||||||||||999|C-Calm|9|FM15-METAR|223|ICAO-KCCB|0.0|C-Calm|1|FM15-METAR|223|ICAO-KCCB|||||||||||||38|Derived||FM15-METAR|223|ICAO-KCCB|||||||||||||||||||||||||||||||||||||||||||||||||||||||||||||||||||||||||1018.6||1|FM15-METAR|223|ICAO-KCCB|||||||||||||||||||||||||||||||||||||||||||MET062METAR KCCB 311355Z AUTO 00000KT 10SM CLR 12/M02 A3008 RMK AO2=||F||223|ICAO-KCCB
USI0000KCCB|CABLE|2017|12|31|14|15|34.1115|-117.6876|438.6|12.0||1|FM15-METAR|223|ICAO-KCCB|-2.0||1|FM15-METAR|223|ICAO-KCCB|||||||||||||999|C-Calm|9|FM15-METAR|223|ICAO-KCCB|0.0|C-Calm|1|FM15-METAR|223|ICAO-KCCB|||||||||||||38|Derived||FM15-METAR|223|ICAO-KCCB|||||||||||||||||||||||||||||||||||||||||||||||||||||||||||||||||||||||||1019.0||1|FM15-METAR|223|ICAO-KCCB|||||||||||||||||||||||||||||||||||||||||||MET062METAR KCCB 311415Z AUTO 00000KT 10SM CLR 12/M02 A3009 RMK AO2=||F||223|ICAO-KCCB
USI0000KCCB|CABLE|2017|12|31|14|35|34.1115|-117.6876|438.6|12.0||1|FM15-METAR|223|ICAO-KCCB|-3.0||1|FM15-METAR|223|ICAO-KCCB|||||||||||||330|N-Normal|1|FM15-METAR|223|ICAO-KCCB|1.5|N-Normal|1|FM15-METAR|223|ICAO-KCCB|||||||||||||35|Derived||FM15-METAR|223|ICAO-KCCB|||||||||||||||||||||||||||||||||||||||||||||||||||||||||||||||||||||||||1019.0||1|FM15-METAR|223|ICAO-KCCB|||||||||||||||||||||||||||||||||||||||||||MET062METAR KCCB 311435Z AUTO 33003KT 10SM CLR 12/M03 A3009 RMK AO2=||F||223|ICAO-KCCB
USI0000KCCB|CABLE|2017|12|31|14|55|34.1115|-117.6876|438.6|12.0||1|FM15-METAR|223|ICAO-KCCB|-4.0||1|FM15-METAR|223|ICAO-KCCB|||||||||||||010|N-Normal|1|FM15-METAR|223|ICAO-KCCB|2.1|N-Normal|1|FM15-METAR|223|ICAO-KCCB|||||||||||||33|Derived||FM15-METAR|223|ICAO-KCCB|||||||||||||||||||||||||||||||||||||||||||||||||||||||||||||||||||||||||1019.3||1|FM15-METAR|223|ICAO-KCCB|||||||||||||||||||||||||||||||||||||||||||MET062METAR KCCB 311455Z AUTO 01004KT 10SM CLR 12/M04 A3010 RMK AO2=||F||223|ICAO-KCCB
USI0000KCCB|CABLE|2017|12|31|15|15|34.1115|-117.6876|438.6|12.0||1|FM15-METAR|223|ICAO-KCCB|-3.0||1|FM15-METAR|223|ICAO-KCCB|||||||||||||020|N-Normal|1|FM15-METAR|223|ICAO-KCCB|2.6|N-Normal|1|FM15-METAR|223|ICAO-KCCB|||||||||||||35|Derived||FM15-METAR|223|ICAO-KCCB|||||||||||||||||||||||||||||||||||||||||||||||||||||||||||||||||||||||||1019.3||1|FM15-METAR|223|ICAO-KCCB|||||||||||||||||||||||||||||||||||||||||||MET062METAR KCCB 311515Z AUTO 02005KT 10SM CLR 12/M03 A3010 RMK AO2=||F||223|ICAO-KCCB
USI0000KCCB|CABLE|2017|12|31|15|35|34.1115|-117.6876|438.6|13.0||1|FM15-METAR|223|ICAO-KCCB|-3.0||1|FM15-METAR|223|ICAO-KCCB|||||||||||||040|N-Normal|1|FM15-METAR|223|ICAO-KCCB|2.1|N-Normal|1|FM15-METAR|223|ICAO-KCCB|||||||||||||33|Derived||FM15-METAR|223|ICAO-KCCB|||||||||||||||||||||||||||||||||||||||||||||||||||||||||||||||||||||||||1019.3||1|FM15-METAR|223|ICAO-KCCB|||||||||||||||||||||||||||||||||||||||||||MET062METAR KCCB 311535Z AUTO 04004KT 10SM CLR 13/M03 A3010 RMK AO2=||F||223|ICAO-KCCB
USI0000KCCB|CABLE|2017|12|31|15|55|34.1115|-117.6876|438.6|13.0||1|FM15-METAR|223|ICAO-KCCB|-2.0||1|FM15-METAR|223|ICAO-KCCB|||||||||||||080|N-Normal|1|FM15-METAR|223|ICAO-KCCB|2.1|N-Normal|1|FM15-METAR|223|ICAO-KCCB|||||||||||||36|Derived||FM15-METAR|223|ICAO-KCCB|||||||||||||||||||||||||||||||||||||||||||||||||||||||||||||||||||||||||1019.6||1|FM15-METAR|223|ICAO-KCCB|||||||||||||||||||||||||||||||||||||||||||MET062METAR KCCB 311555Z AUTO 08004KT 10SM CLR 13/M02 A3011 RMK AO2=||F||223|ICAO-KCCB
USI0000KCCB|CABLE|2017|12|31|16|15|34.1115|-117.6876|438.6|13.0||1|FM15-METAR|223|ICAO-KCCB|-1.0||1|FM15-METAR|223|ICAO-KCCB|||||||||||||080|N-Normal|1|FM15-METAR|223|ICAO-KCCB|2.6|N-Normal|1|FM15-METAR|223|ICAO-KCCB|||||||||||||38|Derived||FM15-METAR|223|ICAO-KCCB|||||||||||||||||||||||||||||||||||||||||||||||||||||||||||||||||||||||||1019.6||1|FM15-METAR|223|ICAO-KCCB|||||||||||||||||||||||||||||||||||||||||||MET062METAR KCCB 311615Z AUTO 08005KT 10SM CLR 13/M01 A3011 RMK AO2=||F||223|ICAO-KCCB
USI0000KCCB|CABLE|2017|12|31|16|35|34.1115|-117.6876|438.6|15.0||1|FM15-METAR|223|ICAO-KCCB|-1.0||1|FM15-METAR|223|ICAO-KCCB|||||||||||||080|N-Normal|1|FM15-METAR|223|ICAO-KCCB|1.5|N-Normal|1|FM15-METAR|223|ICAO-KCCB|||||||||||||34|Derived||FM15-METAR|223|ICAO-KCCB|||||||||||||||||||||||||||||||||||||||||||||||||||||||||||||||||||||||||1020.0||1|FM15-METAR|223|ICAO-KCCB|||||||||||||||||||||||||||||||||||||||||||MET061METAR KCCB 311635Z AUTO 08003KT 9SM CLR 15/M01 A3012 RMK AO2=||F||223|ICAO-KCCB
USI0000KCCB|CABLE|2017|12|31|16|55|34.1115|-117.6876|438.6|16.0||1|FM15-METAR|223|ICAO-KCCB|0.0||1|FM15-METAR|223|ICAO-KCCB|||||||||||||080|N-Normal|1|FM15-METAR|223|ICAO-KCCB|2.1|N-Normal|1|FM15-METAR|223|ICAO-KCCB|||||||||||||34|Derived||FM15-METAR|223|ICAO-KCCB|||||||||||||||||||||||||||||||||||||||||||||||||||||||||||||||||||||||||1020.0||1|FM15-METAR|223|ICAO-KCCB|||||||||||||||||||||||||||||||||||||||||||MET062METAR KCCB 311655Z AUTO 08004KT 10SM CLR 16/M00 A3012 RMK AO2=||F||223|ICAO-KCCB
USI0000KCCB|CABLE|2017|12|31|17|15|34.1115|-117.6876|438.6|16.0||1|FM15-METAR|223|ICAO-KCCB|0.0||1|FM15-METAR|223|ICAO-KCCB|||||||||||||999|V-Variable|9|FM15-METAR|223|ICAO-KCCB|2.1|V-Variable|1|FM15-METAR|223|ICAO-KCCB|||||||||||||34|Derived||FM15-METAR|223|ICAO-KCCB|||||||||||||||||||||||||||||||||||||||||||||||||||||||||||||||||||||||||1020.0||1|FM15-METAR|223|ICAO-KCCB|||||||||||||||||||||||||||||||||||||||||||MET060METAR KCCB 311715Z AUTO VRB04KT 9SM CLR 16/00 A3012 RMK AO2=||F||223|ICAO-KCCB
USI0000KCCB|CABLE|2017|12|31|17|35|34.1115|-117.6876|438.6|15.0||1|FM15-METAR|223|ICAO-KCCB|1.0||1|FM15-METAR|223|ICAO-KCCB|||||||||||||999|V-Variable|9|FM15-METAR|223|ICAO-KCCB|1.5|V-Variable|1|FM15-METAR|223|ICAO-KCCB|||||||||||||39|Derived||FM15-METAR|223|ICAO-KCCB|||||||||||||||||||||||||||||||||||||||||||||||||||||||||||||||||||||||||1020.3||1|FM15-METAR|223|ICAO-KCCB|||||||||||||||||||||||||||||||||||||||||||MET060METAR KCCB 311735Z AUTO VRB03KT 9SM CLR 15/01 A3013 RMK AO2=||F||223|ICAO-KCCB
USI0000KCCB|CABLE|2017|12|31|17|55|34.1115|-117.6876|438.6|16.0||1|FM15-METAR|223|ICAO-KCCB|1.0||1|FM15-METAR|223|ICAO-KCCB|||||||||||||999|C-Calm|9|FM15-METAR|223|ICAO-KCCB|0.0|C-Calm|1|FM15-METAR|223|ICAO-KCCB|||||||||||||36|Derived||FM15-METAR|223|ICAO-KCCB|||||||||||||||||||||||||||||||||||||||||||||||||||||||||||||||||||||||||1020.3||1|FM15-METAR|223|ICAO-KCCB|||||||||||||||||||||||||||||||||||||||||||MET060METAR KCCB 311755Z AUTO 00000KT 9SM CLR 16/01 A3013 RMK AO2=||F||223|ICAO-KCCB
USI0000KCCB|CABLE|2017|12|31|18|15|34.1115|-117.6876|438.6|17.0||1|FM15-METAR|223|ICAO-KCCB|0.0||1|FM15-METAR|223|ICAO-KCCB|||||||||||||999|C-Calm|9|FM15-METAR|223|ICAO-KCCB|0.0|C-Calm|1|FM15-METAR|223|ICAO-KCCB|||||||||||||32|Derived||FM15-METAR|223|ICAO-KCCB|||||||||||||||||||||||||||||||||||||||||||||||||||||||||||||||||||||||||1020.3||1|FM15-METAR|223|ICAO-KCCB|||||||||||||||||||||||||||||||||||||||||||MET061METAR KCCB 311815Z AUTO 00000KT 9SM CLR 17/M00 A3013 RMK AO2=||F||223|ICAO-KCCB
USI0000KCCB|CABLE|2017|12|31|18|35|34.1115|-117.6876|438.6|17.0||1|FM15-METAR|223|ICAO-KCCB|-1.0||1|FM15-METAR|223|ICAO-KCCB|||||||||||||999|C-Calm|9|FM15-METAR|223|ICAO-KCCB|0.0|C-Calm|1|FM15-METAR|223|ICAO-KCCB|||||||||||||30|Derived||FM15-METAR|223|ICAO-KCCB|||||||||||||||||||||||||||||||||||||||||||||||||||||||||||||||||||||||||1020.3||1|FM15-METAR|223|ICAO-KCCB|||||||||||||||||||||||||||||||||||||||||||MET061METAR KCCB 311835Z AUTO 00000KT 9SM CLR 17/M01 A3013 RMK AO2=||F||223|ICAO-KCCB
USI0000KCCB|CABLE|2017|12|31|18|55|34.1115|-117.6876|438.6|17.0||1|FM15-METAR|223|ICAO-KCCB|-1.0||1|FM15-METAR|223|ICAO-KCCB|||||||||||||999|C-Calm|9|FM15-METAR|223|ICAO-KCCB|0.0|C-Calm|1|FM15-METAR|223|ICAO-KCCB|||||||||||||30|Derived||FM15-METAR|223|ICAO-KCCB|||||||||||||||||||||||||||||||||||||||||||||||||||||||||||||||||||||||||1020.0||1|FM15-METAR|223|ICAO-KCCB|||||||||||||||||||||||||||||||||||||||||||MET061METAR KCCB 311855Z AUTO 00000KT 9SM CLR 17/M01 A3012 RMK AO2=||F||223|ICAO-KCCB
USI0000KCCB|CABLE|2017|12|31|19|15|34.1115|-117.6876|438.6|19.0||1|FM15-METAR|223|ICAO-KCCB|-1.0||1|FM15-METAR|223|ICAO-KCCB|||||||||||||999|C-Calm|9|FM15-METAR|223|ICAO-KCCB|0.0|C-Calm|1|FM15-METAR|223|ICAO-KCCB|||||||||||||26|Derived||FM15-METAR|223|ICAO-KCCB|||||||||||||||||||||||||||||||||||||||||||||||||||||||||||||||||||||||||1019.6||1|FM15-METAR|223|ICAO-KCCB|||||||||||||||||||||||||||||||||||||||||||MET061METAR KCCB 311915Z AUTO 00000KT 8SM CLR 19/M01 A3011 RMK AO2=||F||223|ICAO-KCCB
USI0000KCCB|CABLE|2017|12|31|19|35|34.1115|-117.6876|438.6|18.0||1|FM15-METAR|223|ICAO-KCCB|-1.0||1|FM15-METAR|223|ICAO-KCCB|||||||||||||170|N-Normal|1|FM15-METAR|223|ICAO-KCCB|2.1|N-Normal|1|FM15-METAR|223|ICAO-KCCB|||||||||||||28|Derived||FM15-METAR|223|ICAO-KCCB|||||||||||||||||||||||||||||||||||||||||||||||||||||||||||||||||||||||||1019.3||1|FM15-METAR|223|ICAO-KCCB|||||||||||||||||||||||||||||||||||||||||||MET061METAR KCCB 311935Z AUTO 17004KT 8SM CLR 18/M01 A3010 RMK AO2=||F||223|ICAO-KCCB
USI0000KCCB|CABLE|2017|12|31|19|55|34.1115|-117.6876|438.6|19.0||1|FM15-METAR|223|ICAO-KCCB|-2.0||1|FM15-METAR|223|ICAO-KCCB|||||||||||||230|N-Normal|1|FM15-METAR|223|ICAO-KCCB|2.6|N-Normal|1|FM15-METAR|223|ICAO-KCCB|||||||||||||24|Derived||FM15-METAR|223|ICAO-KCCB|||||||||||||||||||||||||||||||||||||||||||||||||||||||||||||||||||||||||1019.3||1|FM15-METAR|223|ICAO-KCCB|||||||||||||||||||||||||||||||||||||||||||MET061METAR KCCB 311955Z AUTO 23005KT 9SM CLR 19/M02 A3010 RMK AO2=||F||223|ICAO-KCCB
USI0000KCCB|CABLE|2017|12|31|20|15|34.1115|-117.6876|438.6|19.0||1|FM15-METAR|223|ICAO-KCCB|-3.0||1|FM15-METAR|223|ICAO-KCCB|||||||||||||999|C-Calm|9|FM15-METAR|223|ICAO-KCCB|0.0|C-Calm|1|FM15-METAR|223|ICAO-KCCB|||||||||||||22|Derived||FM15-METAR|223|ICAO-KCCB|||||||||||||||||||||||||||||||||||||||||||||||||||||||||||||||||||||||||1019.0||1|FM15-METAR|223|ICAO-KCCB|||||||||||||||||||||||||||||||||||||||||||MET062METAR KCCB 312015Z AUTO 00000KT 10SM CLR 19/M03 A3009 RMK AO2=||F||223|ICAO-KCCB
USI0000KCCB|CABLE|2017|12|31|20|35|34.1115|-117.6876|438.6|20.0||1|FM15-METAR|223|ICAO-KCCB|-2.0||1|FM15-METAR|223|ICAO-KCCB|||||||||||||240|N-Normal|1|FM15-METAR|223|ICAO-KCCB|2.1|N-Normal|1|FM15-METAR|223|ICAO-KCCB|||||||||||||23|Derived||FM15-METAR|223|ICAO-KCCB|||||||||||||||||||||||||||||||||||||||||||||||||||||||||||||||||||||||||1018.6||1|FM15-METAR|223|ICAO-KCCB|||||||||||||||||||||||||||||||||||||||||||MET062METAR KCCB 312035Z AUTO 24004KT 10SM CLR 20/M02 A3008 RMK AO2=||F||223|ICAO-KCCB
USI0000KCCB|CABLE|2017|12|31|20|55|34.1115|-117.6876|438.6|19.0||1|FM15-METAR|223|ICAO-KCCB|-2.0||1|FM15-METAR|223|ICAO-KCCB|||||||||||||999|C-Calm|9|FM15-METAR|223|ICAO-KCCB|0.0|C-Calm|1|FM15-METAR|223|ICAO-KCCB|||||||||||||24|Derived||FM15-METAR|223|ICAO-KCCB|||||||||||||||||||||||||||||||||||||||||||||||||||||||||||||||||||||||||1018.3||1|FM15-METAR|223|ICAO-KCCB|||||||||||||||||||||||||||||||||||||||||||MET062METAR KCCB 312055Z AUTO 00000KT 10SM CLR 19/M02 A3007 RMK AO2=||F||223|ICAO-KCCB
USI0000KCCB|CABLE|2017|12|31|21|15|34.1115|-117.6876|438.6|20.0||1|FM15-METAR|223|ICAO-KCCB|-2.0||1|FM15-METAR|223|ICAO-KCCB|||||||||||||999|C-Calm|9|FM15-METAR|223|ICAO-KCCB|0.0|C-Calm|1|FM15-METAR|223|ICAO-KCCB|||||||||||||23|Derived||FM15-METAR|223|ICAO-KCCB|||||||||||||||||||||||||||||||||||||||||||||||||||||||||||||||||||||||||1018.3||1|FM15-METAR|223|ICAO-KCCB|||||||||||||||||||||||||||||||||||||||||||MET061METAR KCCB 312115Z AUTO 00000KT 9SM CLR 20/M02 A3007 RMK AO2=||F||223|ICAO-KCCB
USI0000KCCB|CABLE|2017|12|31|21|35|34.1115|-117.6876|438.6|20.0||1|FM15-METAR|223|ICAO-KCCB|-3.0||1|FM15-METAR|223|ICAO-KCCB|||||||||||||999|V-Variable|9|FM15-METAR|223|ICAO-KCCB|2.1|V-Variable|1|FM15-METAR|223|ICAO-KCCB|||||||||||||21|Derived||FM15-METAR|223|ICAO-KCCB|||||||||||||||||||||||||||||||||||||||||||||||||||||||||||||||||||||||||1017.9||1|FM15-METAR|223|ICAO-KCCB|||||||||||||||||||||||||||||||||||||||||||MET062METAR KCCB 312135Z AUTO VRB04KT 10SM CLR 20/M03 A3006 RMK AO2=||F||223|ICAO-KCCB
USI0000KCCB|CABLE|2017|12|31|21|55|34.1115|-117.6876|438.6|20.0||1|FM15-METAR|223|ICAO-KCCB|-3.0||1|FM15-METAR|223|ICAO-KCCB|||||||||||||250|N-Normal|1|FM15-METAR|223|ICAO-KCCB|2.1|N-Normal|1|FM15-METAR|223|ICAO-KCCB|||||||||||||21|Derived||FM15-METAR|223|ICAO-KCCB|||||||||||||||||||||||||||||||||||||||||||||||||||||||||||||||||||||||||1017.9||1|FM15-METAR|223|ICAO-KCCB|||||||||||||||||||||||||||||||||||||||||||MET062METAR KCCB 312155Z AUTO 25004KT 10SM CLR 20/M03 A3006 RMK AO2=||F||223|ICAO-KCCB
USI0000KCCB|CABLE|2017|12|31|22|15|34.1115|-117.6876|438.6|21.0||1|FM15-METAR|223|ICAO-KCCB|-3.0||1|FM15-METAR|223|ICAO-KCCB|||||||||||||220|N-Normal|1|FM15-METAR|223|ICAO-KCCB|2.6|N-Normal|1|FM15-METAR|223|ICAO-KCCB|||||||||||||20|Derived||FM15-METAR|223|ICAO-KCCB|||||||||||||||||||||||||||||||||||||||||||||||||||||||||||||||||||||||||1017.9||1|FM15-METAR|223|ICAO-KCCB|||||||||||||||||||||||||||||||||||||||||||MET062METAR KCCB 312215Z AUTO 22005KT 10SM CLR 21/M03 A3006 RMK AO2=||F||223|ICAO-KCCB
USI0000KCCB|CABLE|2017|12|31|22|35|34.1115|-117.6876|438.6|21.0||1|FM15-METAR|223|ICAO-KCCB|-3.0||1|FM15-METAR|223|ICAO-KCCB|||||||||||||999|V-Variable|9|FM15-METAR|223|ICAO-KCCB|2.1|V-Variable|1|FM15-METAR|223|ICAO-KCCB|||||||||||||20|Derived||FM15-METAR|223|ICAO-KCCB|||||||||||||||||||||||||||||||||||||||||||||||||||||||||||||||||||||||||1017.9||1|FM15-METAR|223|ICAO-KCCB|||||||||||||||||||||||||||||||||||||||||||MET062METAR KCCB 312235Z AUTO VRB04KT 10SM CLR 21/M03 A3006 RMK AO2=||F||223|ICAO-KCCB
USI0000KCCB|CABLE|2017|12|31|22|55|34.1115|-117.6876|438.6|20.0||1|FM15-METAR|223|ICAO-KCCB|0.0||1|FM15-METAR|223|ICAO-KCCB|||||||||||||230|N-Normal|1|FM15-METAR|223|ICAO-KCCB|3.1|N-Normal|1|FM15-METAR|223|ICAO-KCCB|||||||||||||26|Derived||FM15-METAR|223|ICAO-KCCB|||||||||||||||||||||||||||||||||||||||||||||||||||||||||||||||||||||||||1017.9||1|FM15-METAR|223|ICAO-KCCB|||||||||||||||||||||||||||||||||||||||||||MET061METAR KCCB 312255Z AUTO 23006KT 8SM CLR 20/M00 A3006 RMK AO2=||F||223|ICAO-KCCB
USI0000KCCB|CABLE|2017|12|31|23|15|34.1115|-117.6876|438.6|20.0||1|FM15-METAR|223|ICAO-KCCB|0.0||1|FM15-METAR|223|ICAO-KCCB|||||||||||||230|N-Normal|1|FM15-METAR|223|ICAO-KCCB|2.6|N-Normal|1|FM15-METAR|223|ICAO-KCCB|||||||||||||26|Derived||FM15-METAR|223|ICAO-KCCB|||||||||||||||||||||||||||||||||||||||||||||||||||||||||||||||||||||||||1017.9||1|FM15-METAR|223|ICAO-KCCB|||||||||||||||||||||||||||||||||||||||||||MET061METAR KCCB 312315Z AUTO 23005KT 10SM CLR 20/00 A3006 RMK AO2=||F||223|ICAO-KCCB
USI0000KCCB|CABLE|2017|12|31|23|35|34.1115|-117.6876|438.6|20.0||1|FM15-METAR|223|ICAO-KCCB|0.0||1|FM15-METAR|223|ICAO-KCCB|||||||||||||270|N-Normal|1|FM15-METAR|223|ICAO-KCCB|2.1|N-Normal|1|FM15-METAR|223|ICAO-KCCB|||||||||||||26|Derived||FM15-METAR|223|ICAO-KCCB|||||||||||||||||||||||||||||||||||||||||||||||||||||||||||||||||||||||||1017.9||1|FM15-METAR|223|ICAO-KCCB|||||||||||||||||||||||||||||||||||||||||||MET060METAR KCCB 312335Z AUTO 27004KT 9SM CLR 20/00 A3006 RMK AO2=||F||223|ICAO-KCCB
USI0000KCCB|CABLE|2017|12|31|23|55|34.1115|-117.6876|438.6|20.0||1|FM15-METAR|223|ICAO-KCCB|0.0||1|FM15-METAR|223|ICAO-KCCB|||||||||||||250|N-Normal|1|FM15-METAR|223|ICAO-KCCB|2.6|N-Normal|1|FM15-METAR|223|ICAO-KCCB|||||||||||||26|Derived||FM15-METAR|223|ICAO-KCCB|||||||||||||||||||||||||||||||||||||||||||||||||||||||||||||||||||||||||1017.6||1|FM15-METAR|223|ICAO-KCCB|||||||||||||||||||||||||||||||||||||||||||MET061METAR KCCB 312355Z AUTO 25005KT 10SM CLR 20/00 A3005 RMK AO2=||F||223|ICAO-KCCB
