Station_ID|Station_name|Year|Month|Day|Hour|Minute|Latitude|Longitude|Elevation|temperature|temperature_Measurement_Code|temperature_Quality_Code|temperature_Report_Type|temperature_Source_Code|temperature_Source_Station_ID|dew_point_temperature|dew_point_temperature_Measurement_Code|dew_point_temperature_Quality_Code|dew_point_temperature_Report_Type|dew_point_temperature_Source_Code|dew_point_temperature_Source_Station_ID|station_level_pressure|station_level_pressure_Measurement_Code|station_level_pressure_Quality_Code|station_level_pressure_Report_Type|station_level_pressure_Source_Code|station_level_pressure_Source_Station_ID|sea_level_pressure|sea_level_pressure_Measurement_Code|sea_level_pressure_Quality_Code|sea_level_pressure_Report_Type|sea_level_pressure_Source_Code|sea_level_pressure_Source_Station_ID|wind_direction|wind_direction_Measurement_Code|wind_direction_Quality_Code|wind_direction_Report_Type|wind_direction_Source_Code|wind_direction_Source_Station_ID|wind_speed|wind_speed_Measurement_Code|wind_speed_Quality_Code|wind_speed_Report_Type|wind_speed_Source_Code|wind_speed_Source_Station_ID|wind_gust|wind_gust_Measurement_Code|wind_gust_Quality_Code|wind_gust_Report_Type|wind_gust_Source_Code|wind_gust_Source_Station_ID|precipitation|precipitation_Measurement_Code|precipitation_Quality_Code|precipitation_Report_Type|precipitation_Source_Code|precipitation_Source_Station_ID|relative_humidity|relative_humidity_Measurement_Code|relative_humidity_Quality_Code|relative_humidity_Report_Type|relative_humidity_Source_Code|relative_humidity_Source_Station_ID|wet_bulb_temperature|wet_bulb_temperature_Measurement_Code|wet_bulb_temperature_Quality_Code|wet_bulb_temperature_Report_Type|wet_bulb_temperature_Source_Code|wet_bulb_temperature_Source_Station_ID|pres_wx_MW1|pres_wx_MW1_Measurement_Code|pres_wx_MW1_Quality_Code|pres_wx_MW1_Report_Type|pres_wx_MW1_Source_Code|pres_wx_MW1_Source_Station_ID|pres_wx_MW2|pres_wx_MW2_Measurement_Code|pres_wx_MW2_Quality_Code|pres_wx_MW2_Report_Type|pres_wx_MW2_Source_Code|pres_wx_MW2_Source_Station_ID|pres_wx_MW3|pres_wx_MW3_Measurement_Code|pres_wx_MW3_Quality_Code|pres_wx_MW3_Report_Type|pres_wx_MW3_Source_Code|pres_wx_MW3_Source_Station_ID|pres_wx_AU1|pres_wx_AU1_Measurement_Code|pres_wx_AU1_Quality_Code|pres_wx_AU1_Report_Type|pres_wx_AU1_Source_Code|pres_wx_AU1_Source_Station_ID|pres_wx_AU2|pres_wx_AU2_Measurement_Code|pres_wx_AU2_Quality_Code|pres_wx_AU2_Report_Type|pres_wx_AU2_Source_Code|pres_wx_AU2_Source_Station_ID|pres_wx_AU3|pres_wx_AU3_Measurement_Code|pres_wx_AU3_Quality_Code|pres_wx_AU3_Report_Type|pres_wx_AU3_Source_Code|pres_wx_AU3_Source_Station_ID|pres_wx_AW1|pres_wx_AW1_Measurement_Code|pres_wx_AW1_Quality_Code|pres_wx_AW1_Report_Type|pres_wx_AW1_Source_Code|pres_wx_AW1_Source_Station_ID|pres_wx_AW2|pres_wx_AW2_Measurement_Code|pres_wx_AW2_Quality_Code|pres_wx_AW2_Report_Type|pres_wx_AW2_Source_Code|pres_wx_AW2_Source_Station_ID|pres_wx_AW3|pres_wx_AW3_Measurement_Code|pres_wx_AW3_Quality_Code|pres_wx_AW3_Report_Type|pres_wx_AW3_Source_Code|pres_wx_AW3_Source_Station_ID|snow_depth|snow_depth_Measurement_Code|snow_depth_Quality_Code|snow_depth_Report_Type|snow_depth_Source_Code|snow_depth_Source_Station_ID|visibility|visibility_Measurement_Code|visibility_Quality_Code|visibility_Report_Type|visibility_Source_Code|visibility_Source_Station_ID|altimeter|altimeter_Measurement_Code|altimeter_Quality_Code|altimeter_Report_Type|altimeter_Source_Code|altimeter_Source_Station_ID|pressure_3hr_change|pressure_3hr_change_Measurement_Code|pressure_3hr_change_Quality_Code|pressure_3hr_change_Report_Type|pressure_3hr_change_Source_Code|pressure_3hr_change_Source_Station_ID|sky_cover_1|sky_cover_1_Measurement_Code|sky_cover_1_Quality_Code|sky_cover_1_Report_Type|sky_cover_1_Source_Code|sky_cover_1_Source_Station_ID|sky_cover_baseht_1|sky_cover_baseht_1_Measurement_Code|sky_cover_baseht_1_Quality_Code|sky_cover_baseht_1_Report_Type|sky_cover_baseht_1_Source_Code|sky_cover_baseht_1_Source_Station_ID|sky_cover_2|sky_cover_2_Measurement_Code|sky_cover_2_Quality_Code|sky_cover_2_Report_Type|sky_cover_2_Source_Code|sky_cover_2_Source_Station_ID|sky_cover_baseht_2|sky_cover_baseht_2_Measurement_Code|sky_cover_baseht_2_Quality_Code|sky_cover_baseht_2_Report_Type|sky_cover_baseht_2_Source_Code|sky_cover_baseht_2_Source_Station_ID|sky_cover_3|sky_cover_3_Measurement_Code|sky_cover_3_Quality_Code|sky_cover_3_Report_Type|sky_cover_3_Source_Code|sky_cover_3_Source_Station_ID|sky_cover_baseht_3|sky_cover_baseht_3_Measurement_Code|sky_cover_baseht_3_Quality_Code|sky_cover_baseht_3_Report_Type|sky_cover_baseht_3_Source_Code|sky_cover_baseht_3_Source_Station_ID|remarks|remarks_Measurement_Code|remarks_Quality_Code|remarks_Report_Type|remarks_Source_Code|remarks_Source_Station_ID
USI0000KSVE|SUSANVILLE MUNI|2016|12|21|12|55|40.3757|-120.5727|1264.6|0.0||1|FM15-METAR|223|ICAO-KSVE|0.0||1|FM15-METAR|223|ICAO-KSVE|882.4||4|FM15-METAR|223|ICAO-KSVE|||||||999|C-Calm|9|FM15-METAR|223|ICAO-KSVE|0.0|C-Calm|1|FM15-METAR|223|ICAO-KSVE|||||||||||||100|Derived||FM15-METAR|223|ICAO-KSVE|0.0|Derived||FM15-METAR|223|ICAO-KSVE|||||||||||||||||||||||||||||||||||||40|40-Precipi|1|FM15-METAR|223|ICAO-KSVE|||||||||||||||||||||||||1026.7||1|FM15-METAR|223|ICAO-KSVE|||||||||||||||||||||||||||||||||||||||||||MET066METAR KSVE 211255Z AUTO 00000KT 6SM UP OVC025 00/00 A3032 RMK AO2=||F||223|ICAO-KSVE
USI0000KSVE|SUSANVILLE MUNI|2016|12|21|13|15|40.3757|-120.5727|1264.6|0.0||1|FM15-METAR|223|ICAO-KSVE|0.0||1|FM15-METAR|223|ICAO-KSVE|882.4||4|FM15-METAR|223|ICAO-KSVE|||||||||||||||||||||||||||||||100|Derived||FM15-METAR|223|ICAO-KSVE|0.0|Derived||FM15-METAR|223|ICAO-KSVE|||||||||||||||||||||||||||||||||||||BR:10|BR:10-Mist|1|FM15-METAR|223|ICAO-KSVE|||||||||||||||||||||||||1026.7||1|FM15-METAR|223|ICAO-KSVE|||||||||||||||||||||||||||||||||||||||||||MET058METAR KSVE 211315Z AUTO 5SM BR OVC023 00/00 A3032 RMK AO2=||F||223|ICAO-KSVE
USI0000KSVE|SUSANVILLE MUNI|2016|12|21|13|35|40.3757|-120.5727|1264.6|0.0||1|FM15-METAR|223|ICAO-KSVE|0.0||1|FM15-METAR|223|ICAO-KSVE|882.4||4|FM15-METAR|223|ICAO-KSVE|||||||999|C-Calm|9|FM15-METAR|223|ICAO-KSVE|0.0|C-Calm|1|FM15-METAR|223|ICAO-KSVE|||||||||||||100|Derived||FM15-METAR|223|ICAO-KSVE|0.0|Derived||FM15-METAR|223|ICAO-KSVE|||||||||||||||||||||||||||||||||||||BR:10|BR:10-Mist|1|FM15-METAR|223|ICAO-KSVE|||||||||||||||||||||||||1026.7||1|FM15-METAR|223|ICAO-KSVE|||||||||||||||||||||||||||||||||||||||||||MET073METAR KSVE 211335Z AUTO 00000KT 5SM BR BKN023 OVC030 00/00 A3032 RMK AO2=||F||223|ICAO-KSVE
USI0000KSVE|SUSANVILLE MUNI|2016|12|21|13|55|40.3757|-120.5727|1264.6|0.0||1|FM15-METAR|223|ICAO-KSVE|0.0||1|FM15-METAR|223|ICAO-KSVE|882.4||4|FM15-METAR|223|ICAO-KSVE|||||||999|C-Calm|9|FM15-METAR|223|ICAO-KSVE|0.0|C-Calm|1|FM15-METAR|223|ICAO-KSVE|||||||||||||100|Derived||FM15-METAR|223|ICAO-KSVE|0.0|Derived||FM15-METAR|223|ICAO-KSVE|||||||||||||||||||||||||||||||||||||BR:10|BR:10-Mist|1|FM15-METAR|223|ICAO-KSVE|||||||||||||||||||||||||1026.7||1|FM15-METAR|223|ICAO-KSVE|||||||||||||||||||||||||||||||||||||||||||MET066METAR KSVE 211355Z AUTO 00000KT 5SM BR OVC025 00/00 A3032 RMK AO2=||F||223|ICAO-KSVE
USI0000KSVE|SUSANVILLE MUNI|2016|12|21|14|15|40.3757|-120.5727|1264.6|0.0||1|FM15-METAR|223|ICAO-KSVE|0.0||1|FM15-METAR|223|ICAO-KSVE|882.4||4|FM15-METAR|223|ICAO-KSVE|||||||999|C-Calm|9|FM15-METAR|223|ICAO-KSVE|0.0|C-Calm|1|FM15-METAR|223|ICAO-KSVE|||||||||||||100|Derived||FM15-METAR|223|ICAO-KSVE|0.0|Derived||FM15-METAR|223|ICAO-KSVE|||||||||||||||||||||||||||||||||||||BR:10|BR:10-Mist|1|FM15-METAR|223|ICAO-KSVE|||||||||||||||||||||||||1026.7||1|FM15-METAR|223|ICAO-KSVE|||||||||||||||||||||||||||||||||||||||||||MET066METAR KSVE 211415Z AUTO 00000KT 5SM BR OVC025 00/00 A3032 RMK AO2=||F||223|ICAO-KSVE
USI0000KSVE|SUSANVILLE MUNI|2016|12|21|14|35|40.3757|-120.5727|1264.6|0.0||1|FM15-METAR|223|ICAO-KSVE|0.0||1|FM15-METAR|223|ICAO-KSVE|882.8||4|FM15-METAR|223|ICAO-KSVE|||||||290|N-Normal|1|FM15-METAR|223|ICAO-KSVE|1.5|N-Normal|1|FM15-METAR|223|ICAO-KSVE|||||||||||||100|Derived||FM15-METAR|223|ICAO-KSVE|0.0|Derived||FM15-METAR|223|ICAO-KSVE|||||||||||||||||||||||||||||||||||||BR:10|BR:10-Mist|1|FM15-METAR|223|ICAO-KSVE|||||||||||||||||||||||||1027.1||1|FM15-METAR|223|ICAO-KSVE|||||||||||||||||||||||||||||||||||||||||||MET066METAR KSVE 211435Z AUTO 29003KT 4SM BR OVC025 00/00 A3033 RMK AO2=||F||223|ICAO-KSVE
USI0000KSVE|SUSANVILLE MUNI|2016|12|21|14|55|40.3757|-120.5727|1264.6|0.0||1|FM15-METAR|223|ICAO-KSVE|0.0||1|FM15-METAR|223|ICAO-KSVE|882.8||4|FM15-METAR|223|ICAO-KSVE|||||||999|C-Calm|9|FM15-METAR|223|ICAO-KSVE|0.0|C-Calm|1|FM15-METAR|223|ICAO-KSVE|||||||||||||100|Derived||FM15-METAR|223|ICAO-KSVE|0.0|Derived||FM15-METAR|223|ICAO-KSVE|||||||||||||||||||||||||||||||||||||BR:10|BR:10-Mist|1|FM15-METAR|223|ICAO-KSVE|||||||||||||||||||||||||1027.1||1|FM15-METAR|223|ICAO-KSVE|||||||||||||||||||||||||||||||||||||||||||MET066METAR KSVE 211455Z AUTO 00000KT 5SM BR OVC021 00/00 A3033 RMK AO2=||F||223|ICAO-KSVE
USI0000KSVE|SUSANVILLE MUNI|2016|12|21|15|15|40.3757|-120.5727|1264.6|0.0||1|FM15-METAR|223|ICAO-KSVE|0.0||1|FM15-METAR|223|ICAO-KSVE|882.8||4|FM15-METAR|223|ICAO-KSVE|||||||||||||||||||||||||||||||100|Derived||FM15-METAR|223|ICAO-KSVE|0.0|Derived||FM15-METAR|223|ICAO-KSVE|||||||||||||||||||||||||||||||||||||BR:10|BR:10-Mist|1|FM15-METAR|223|ICAO-KSVE|||||||||||||||||||||||||1027.1||1|FM15-METAR|223|ICAO-KSVE|||||||||||||||||||||||||||||||||||||||||||MET058METAR KSVE 211515Z AUTO 5SM BR BKN021 00/00 A3033 RMK AO2=||F||223|ICAO-KSVE
USI0000KSVE|SUSANVILLE MUNI|2016|12|21|15|35|40.3757|-120.5727|1264.6|0.0||1|FM15-METAR|223|ICAO-KSVE|0.0||1|FM15-METAR|223|ICAO-KSVE|882.8||4|FM15-METAR|223|ICAO-KSVE|||||||999|C-Calm|9|FM15-METAR|223|ICAO-KSVE|0.0|C-Calm|1|FM15-METAR|223|ICAO-KSVE|||||||||||||100|Derived||FM15-METAR|223|ICAO-KSVE|0.0|Derived||FM15-METAR|223|ICAO-KSVE|||||||||||||||||||||||||||||||||||||BR:10|BR:10-Mist|1|FM15-METAR|223|ICAO-KSVE|||||||||||||||||||||||||1027.1||1|FM15-METAR|223|ICAO-KSVE|||||||||||||||||||||||||||||||||||||||||||MET073METAR KSVE 211535Z AUTO 00000KT 5SM BR SCT021 BKN036 00/00 A3033 RMK AO2=||F||223|ICAO-KSVE
USI0000KSVE|SUSANVILLE MUNI|2016|12|21|15|55|40.3757|-120.5727|1264.6|0.0||1|FM15-METAR|223|ICAO-KSVE|0.0||1|FM15-METAR|223|ICAO-KSVE|882.8||4|FM15-METAR|223|ICAO-KSVE|||||||999|C-Calm|9|FM15-METAR|223|ICAO-KSVE|0.0|C-Calm|1|FM15-METAR|223|ICAO-KSVE|||||||||||||100|Derived||FM15-METAR|223|ICAO-KSVE|0.0|Derived||FM15-METAR|223|ICAO-KSVE|||||||||||||||||||||||||||||||||||||BR:10|BR:10-Mist|1|FM15-METAR|223|ICAO-KSVE|||||||||||||||||||||||||1027.1||1|FM15-METAR|223|ICAO-KSVE|||||||||||||||||||||||||||||||||||||||||||MET066METAR KSVE 211555Z AUTO 00000KT 3SM BR BKN036 00/00 A3033 RMK AO2=||F||223|ICAO-KSVE
USI0000KSVE|SUSANVILLE MUNI|2016|12|21|16|15|40.3757|-120.5727|1264.6|0.0||1|FM15-METAR|223|ICAO-KSVE|0.0||1|FM15-METAR|223|ICAO-KSVE|882.8||4|FM15-METAR|223|ICAO-KSVE|||||||130|N-Normal|1|FM15-METAR|223|ICAO-KSVE|1.5|N-Normal|1|FM15-METAR|223|ICAO-KSVE|||||||||||||100|Derived||FM15-METAR|223|ICAO-KSVE|0.0|Derived||FM15-METAR|223|ICAO-KSVE|||||||||||||||||||||||||||||||||||||||||||||||||||||||||||||||||||1027.1||1|FM15-METAR|223|ICAO-KSVE|||||||||||||||||||||||||||||||||||||||||||MET063METAR KSVE 211615Z AUTO 13003KT 8SM FEW036 00/00 A3033 RMK AO2=||F||223|ICAO-KSVE
USI0000KSVE|SUSANVILLE MUNI|2016|12|21|16|35|40.3757|-120.5727|1264.6|1.0||1|FM15-METAR|223|ICAO-KSVE|0.0||1|FM15-METAR|223|ICAO-KSVE|883.1||4|FM15-METAR|223|ICAO-KSVE|||||||999|C-Calm|9|FM15-METAR|223|ICAO-KSVE|0.0|C-Calm|1|FM15-METAR|223|ICAO-KSVE|||||||||||||93|Derived||FM15-METAR|223|ICAO-KSVE|0.6|Derived||FM15-METAR|223|ICAO-KSVE|||||||||||||||||||||||||||||||||||||||||||||||||||||||||||||||||||1027.4||1|FM15-METAR|223|ICAO-KSVE|||||||||||||||||||||||||||||||||||||||||||MET061METAR KSVE 211635Z AUTO 00000KT 10SM CLR 01/00 A3034 RMK AO2=||F||223|ICAO-KSVE
USI0000KSVE|SUSANVILLE MUNI|2016|12|21|16|55|40.3757|-120.5727|1264.6|1.0||1|FM15-METAR|223|ICAO-KSVE|0.0||1|FM15-METAR|223|ICAO-KSVE|883.4||4|FM15-METAR|223|ICAO-KSVE|||||||999|C-Calm|9|FM15-METAR|223|ICAO-KSVE|0.0|C-Calm|1|FM15-METAR|223|ICAO-KSVE|||||||||||||93|Derived||FM15-METAR|223|ICAO-KSVE|0.6|Derived||FM15-METAR|223|ICAO-KSVE|||||||||||||||||||||||||||||||||||||||||||||||||||||||||||||||||||1027.8||1|FM15-METAR|223|ICAO-KSVE|||||||||||||||||||||||||||||||||||||||||||MET064METAR KSVE 211655Z AUTO 00000KT 10SM SCT024 01/00 A3035 RMK AO2=||F||223|ICAO-KSVE
USI0000KSVE|SUSANVILLE MUNI|2016|12|21|17|15|40.3757|-120.5727|1264.6|2.0||1|FM15-METAR|223|ICAO-KSVE|-1.0||1|FM15-METAR|223|ICAO-KSVE|883.4||4|FM15-METAR|223|ICAO-KSVE|||||||999|C-Calm|9|FM15-METAR|223|ICAO-KSVE|0.0|C-Calm|1|FM15-METAR|223|ICAO-KSVE|||||||||||||81|Derived||FM15-METAR|223|ICAO-KSVE|0.8|Derived||FM15-METAR|223|ICAO-KSVE|||||||||||||||||||||||||||||||||||||||||||||||||||||||||||||||||||1027.8||1|FM15-METAR|223|ICAO-KSVE|||||||||||||||||||||||||||||||||||||||||||MET065METAR KSVE 211715Z AUTO 00000KT 10SM SCT022 02/M01 A3035 RMK AO2=||F||223|ICAO-KSVE
USI0000KSVE|SUSANVILLE MUNI|2016|12|21|17|35|40.3757|-120.5727|1264.6|1.0||1|FM15-METAR|223|ICAO-KSVE|-1.0||1|FM15-METAR|223|ICAO-KSVE|883.4||4|FM15-METAR|223|ICAO-KSVE|||||||110|N-Normal|1|FM15-METAR|223|ICAO-KSVE|2.1|N-Normal|1|FM15-METAR|223|ICAO-KSVE|||||||||||||87|Derived||FM15-METAR|223|ICAO-KSVE|0.2|Derived||FM15-METAR|223|ICAO-KSVE|||||||||||||||||||||||||||||||||||||||||||||||||||||||||||||||||||1027.8||1|FM15-METAR|223|ICAO-KSVE|||||||||||||||||||||||||||||||||||||||||||MET072METAR KSVE 211735Z AUTO 11004KT 10SM SCT024 SCT036 01/M01 A3035 RMK AO2=||F||223|ICAO-KSVE
USI0000KSVE|SUSANVILLE MUNI|2016|12|21|17|55|40.3757|-120.5727|1264.6|2.0||1|FM15-METAR|223|ICAO-KSVE|0.0||1|FM15-METAR|223|ICAO-KSVE|883.4||4|FM15-METAR|223|ICAO-KSVE|||||||999|C-Calm|9|FM15-METAR|223|ICAO-KSVE|0.0|C-Calm|1|FM15-METAR|223|ICAO-KSVE|||||||||||||87|Derived||FM15-METAR|223|ICAO-KSVE|1.3|Derived||FM15-METAR|223|ICAO-KSVE|||||||||||||||||||||||||||||||||||||||||||||||||||||||||||||||||||1027.8||1|FM15-METAR|223|ICAO-KSVE|||||||||||||||||||||||||||||||||||||||||||MET071METAR KSVE 211755Z AUTO 00000KT 10SM FEW024 OVC036 02/00 A3035 RMK AO2=||F||223|ICAO-KSVE
USI0000KSVE|SUSANVILLE MUNI|2016|12|21|18|15|40.3757|-120.5727|1264.6|2.0||1|FM15-METAR|223|ICAO-KSVE|0.0||1|FM15-METAR|223|ICAO-KSVE|883.4||4|FM15-METAR|223|ICAO-KSVE|||||||080|N-Normal|1|FM15-METAR|223|ICAO-KSVE|2.6|N-Normal|1|FM15-METAR|223|ICAO-KSVE|||||||||||||87|Derived||FM15-METAR|223|ICAO-KSVE|1.3|Derived||FM15-METAR|223|ICAO-KSVE|||||||||||||||||||||||||||||||||||||||||||||||||||||||||||||||||||1027.8||1|FM15-METAR|223|ICAO-KSVE|||||||||||||||||||||||||||||||||||||||||||MET064METAR KSVE 211815Z AUTO 08005KT 10SM BKN034 02/00 A3035 RMK AO2=||F||223|ICAO-KSVE
USI0000KSVE|SUSANVILLE MUNI|2016|12|21|18|35|40.3757|-120.5727|1264.6|3.0||1|FM15-METAR|223|ICAO-KSVE|0.0||1|FM15-METAR|223|ICAO-KSVE|883.4||4|FM15-METAR|223|ICAO-KSVE|||||||110|N-Normal|1|FM15-METAR|223|ICAO-KSVE|4.1|N-Normal|1|FM15-METAR|223|ICAO-KSVE|||||||||||||81|Derived||FM15-METAR|223|ICAO-KSVE|1.6|Derived||FM15-METAR|223|ICAO-KSVE|||||||||||||||||||||||||||||||||||||||||||||||||||||||||||||||||||1027.8||1|FM15-METAR|223|ICAO-KSVE|||||||||||||||||||||||||||||||||||||||||||MET064METAR KSVE 211835Z AUTO 11008KT 10SM SCT034 03/00 A3035 RMK AO2=||F||223|ICAO-KSVE
USI0000KSVE|SUSANVILLE MUNI|2016|12|21|18|55|40.3757|-120.5727|1264.6|3.0||1|FM15-METAR|223|ICAO-KSVE|-1.0||1|FM15-METAR|223|ICAO-KSVE|883.4||4|FM15-METAR|223|ICAO-KSVE|||||||130|N-Normal|1|FM15-METAR|223|ICAO-KSVE|4.1|N-Normal|1|FM15-METAR|223|ICAO-KSVE|||||||||||||75|Derived||FM15-METAR|223|ICAO-KSVE|1.1|Derived||FM15-METAR|223|ICAO-KSVE|||||||||||||||||||||||||||||||||||||||||||||||||||||||||||||||||||1027.8||1|FM15-METAR|223|ICAO-KSVE|||||||||||||||||||||||||||||||||||||||||||MET065METAR KSVE 211855Z AUTO 13008KT 10SM BKN034 03/M01 A3035 RMK AO2=||F||223|ICAO-KSVE
USI0000KSVE|SUSANVILLE MUNI|2016|12|21|19|15|40.3757|-120.5727|1264.6|3.0||1|FM15-METAR|223|ICAO-KSVE|-1.0||1|FM15-METAR|223|ICAO-KSVE|883.1||4|FM15-METAR|223|ICAO-KSVE|||||||100|N-Normal|1|FM15-METAR|223|ICAO-KSVE|6.2|N-Normal|1|FM15-METAR|223|ICAO-KSVE|||||||||||||75|Derived||FM15-METAR|223|ICAO-KSVE|1.1|Derived||FM15-METAR|223|ICAO-KSVE|||||||||||||||||||||||||||||||||||||||||||||||||||||||||||||||||||1027.4||1|FM15-METAR|223|ICAO-KSVE|||||||||||||||||||||||||||||||||||||||||||MET065METAR KSVE 211915Z AUTO 10012KT 10SM OVC038 03/M01 A3034 RMK AO2=||F||223|ICAO-KSVE
USI0000KSVE|SUSANVILLE MUNI|2016|12|21|19|35|40.3757|-120.5727|1264.6|4.0||1|FM15-METAR|223|ICAO-KSVE|-1.0||1|FM15-METAR|223|ICAO-KSVE|882.8||4|FM15-METAR|223|ICAO-KSVE|||||||100|N-Normal|1|FM15-METAR|223|ICAO-KSVE|3.6|N-Normal|1|FM15-METAR|223|ICAO-KSVE|||||||||||||70|Derived||FM15-METAR|223|ICAO-KSVE|1.8|Derived||FM15-METAR|223|ICAO-KSVE|||||||||||||||||||||||||||||||||||||||||||||||||||||||||||||||||||1027.1||1|FM15-METAR|223|ICAO-KSVE|||||||||||||||||||||||||||||||||||||||||||MET065METAR KSVE 211935Z AUTO 10007KT 10SM OVC038 04/M01 A3033 RMK AO2=||F||223|ICAO-KSVE
USI0000KSVE|SUSANVILLE MUNI|2016|12|21|19|55|40.3757|-120.5727|1264.6|4.0||1|FM15-METAR|223|ICAO-KSVE|0.0||1|FM15-METAR|223|ICAO-KSVE|882.4||4|FM15-METAR|223|ICAO-KSVE|||||||150|N-Normal|1|FM15-METAR|223|ICAO-KSVE|1.5|N-Normal|1|FM15-METAR|223|ICAO-KSVE|||||||||||||75|Derived||FM15-METAR|223|ICAO-KSVE|2.2|Derived||FM15-METAR|223|ICAO-KSVE|||||||||||||||||||||||||||||||||||||||||||||||||||||||||||||||||||1026.7||1|FM15-METAR|223|ICAO-KSVE|||||||||||||||||||||||||||||||||||||||||||MET064METAR KSVE 211955Z AUTO 15003KT 10SM OVC038 04/00 A3032 RMK AO2=||F||223|ICAO-KSVE
USI0000KSVE|SUSANVILLE MUNI|2016|12|21|20|15|40.3757|-120.5727|1264.6|4.0||1|FM15-METAR|223|ICAO-KSVE|-1.0||1|FM15-METAR|223|ICAO-KSVE|882.2||4|FM15-METAR|223|ICAO-KSVE|||||||150|N-Normal|1|FM15-METAR|223|ICAO-KSVE|3.1|N-Normal|1|FM15-METAR|223|ICAO-KSVE|||||||||||||70|Derived||FM15-METAR|223|ICAO-KSVE|1.8|Derived||FM15-METAR|223|ICAO-KSVE|||||||||||||||||||||||||||||||||||||||||||||||||||||||||||||||||||1026.4||1|FM15-METAR|223|ICAO-KSVE|||||||||||||||||||||||||||||||||||||||||||MET065METAR KSVE 212015Z AUTO 15006KT 10SM OVC038 04/M01 A3031 RMK AO2=||F||223|ICAO-KSVE
USI0000KSVE|SUSANVILLE MUNI|2016|12|21|20|35|40.3757|-120.5727|1264.6|4.0||1|FM15-METAR|223|ICAO-KSVE|0.0||1|FM15-METAR|223|ICAO-KSVE|881.9||4|FM15-METAR|223|ICAO-KSVE|||||||150|N-Normal|1|FM15-METAR|223|ICAO-KSVE|2.6|N-Normal|1|FM15-METAR|223|ICAO-KSVE|||||||||||||75|Derived||FM15-METAR|223|ICAO-KSVE|2.2|Derived||FM15-METAR|223|ICAO-KSVE|||||||||||||||||||||||||||||||||||||||||||||||||||||||||||||||||||1026.1||1|FM15-METAR|223|ICAO-KSVE|||||||||||||||||||||||||||||||||||||||||||MET064METAR KSVE 212035Z AUTO 15005KT 10SM OVC038 04/00 A3030 RMK AO2=||F||223|ICAO-KSVE
USI0000KSVE|SUSANVILLE MUNI|2016|12|21|20|55|40.3757|-120.5727|1264.6|4.0||1|FM15-METAR|223|ICAO-KSVE|-1.0||1|FM15-METAR|223|ICAO-KSVE|881.6||4|FM15-METAR|223|ICAO-KSVE|||||||130|N-Normal|1|FM15-METAR|223|ICAO-KSVE|2.6|N-Normal|1|FM15-METAR|223|ICAO-KSVE|||||||||||||70|Derived||FM15-METAR|223|ICAO-KSVE|1.8|Derived||FM15-METAR|223|ICAO-KSVE|||||||||||||||||||||||||||||||||||||||||||||||||||||||||||||||||||1025.7||1|FM15-METAR|223|ICAO-KSVE|||||||||||||||||||||||||||||||||||||||||||MET065METAR KSVE 212055Z AUTO 13005KT 10SM OVC036 04/M01 A3029 RMK AO2=||F||223|ICAO-KSVE
USI0000KSVE|SUSANVILLE MUNI|2016|12|21|21|15|40.3757|-120.5727|1264.6|4.0||1|FM15-METAR|223|ICAO-KSVE|-1.0||1|FM15-METAR|223|ICAO-KSVE|881.3||4|FM15-METAR|223|ICAO-KSVE|||||||150|N-Normal|1|FM15-METAR|223|ICAO-KSVE|3.1|N-Normal|1|FM15-METAR|223|ICAO-KSVE|||||||||||||70|Derived||FM15-METAR|223|ICAO-KSVE|1.8|Derived||FM15-METAR|223|ICAO-KSVE|||||||||||||||||||||||||||||||||||||||||||||||||||||||||||||||||||1025.4||1|FM15-METAR|223|ICAO-KSVE|||||||||||||||||||||||||||||||||||||||||||MET065METAR KSVE 212115Z AUTO 15006KT 10SM OVC036 04/M01 A3028 RMK AO2=||F||223|ICAO-KSVE
USI0000KSVE|SUSANVILLE MUNI|2016|12|21|21|35|40.3757|-120.5727|1264.6|4.0||1|FM15-METAR|223|ICAO-KSVE|-1.0||1|FM15-METAR|223|ICAO-KSVE|881.3||4|FM15-METAR|223|ICAO-KSVE|||||||140|N-Normal|1|FM15-METAR|223|ICAO-KSVE|3.6|N-Normal|1|FM15-METAR|223|ICAO-KSVE|||||||||||||70|Derived||FM15-METAR|223|ICAO-KSVE|1.8|Derived||FM15-METAR|223|ICAO-KSVE|||||||||||||||||||||||||||||||||||||||||||||||||||||||||||||||||||1025.4||1|FM15-METAR|223|ICAO-KSVE|||||||||||||||||||||||||||||||||||||||||||MET065METAR KSVE 212135Z AUTO 14007KT 10SM OVC038 04/M01 A3028 RMK AO2=||F||223|ICAO-KSVE
USI0000KSVE|SUSANVILLE MUNI|2016|12|21|21|55|40.3757|-120.5727|1264.6|4.0||1|FM15-METAR|223|ICAO-KSVE|-1.0||1|FM15-METAR|223|ICAO-KSVE|881.0||4|FM15-METAR|223|ICAO-KSVE|||||||140|N-Normal|1|FM15-METAR|223|ICAO-KSVE|3.1|N-Normal|1|FM15-METAR|223|ICAO-KSVE|||||||||||||70|Derived||FM15-METAR|223|ICAO-KSVE|1.8|Derived||FM15-METAR|223|ICAO-KSVE|||||||||||||||||||||||||||||||||||||||||||||||||||||||||||||||||||1025.1||1|FM15-METAR|223|ICAO-KSVE|||||||||||||||||||||||||||||||||||||||||||MET065METAR KSVE 212155Z AUTO 14006KT 10SM OVC038 04/M01 A3027 RMK AO2=||F||223|ICAO-KSVE
USI0000KSVE|SUSANVILLE MUNI|2016|12|21|22|15|40.3757|-120.5727|1264.6|4.0||1|FM15-METAR|223|ICAO-KSVE|-1.0||1|FM15-METAR|223|ICAO-KSVE|880.7||4|FM15-METAR|223|ICAO-KSVE|||||||150|N-Normal|1|FM15-METAR|223|ICAO-KSVE|2.1|N-Normal|1|FM15-METAR|223|ICAO-KSVE|||||||||||||70|Derived||FM15-METAR|223|ICAO-KSVE|1.8|Derived||FM15-METAR|223|ICAO-KSVE|||||||||||||||||||||||||||||||||||||||||||||||||||||||||||||||||||1024.7||1|FM15-METAR|223|ICAO-KSVE|||||||||||||||||||||||||||||||||||||||||||MET072METAR KSVE 212215Z AUTO 15004KT 10SM FEW032 BKN038 04/M01 A3026 RMK AO2=||F||223|ICAO-KSVE
USI0000KSVE|SUSANVILLE MUNI|2016|12|21|22|35|40.3757|-120.5727|1264.6|4.0||1|FM15-METAR|223|ICAO-KSVE|-1.0||1|FM15-METAR|223|ICAO-KSVE|880.7||4|FM15-METAR|223|ICAO-KSVE|||||||150|N-Normal|1|FM15-METAR|223|ICAO-KSVE|2.6|N-Normal|1|FM15-METAR|223|ICAO-KSVE|||||||||||||70|Derived||FM15-METAR|223|ICAO-KSVE|1.8|Derived||FM15-METAR|223|ICAO-KSVE|||||||||||||||||||||||||||||||||||||||||||||||||||||||||||||||||||1024.7||1|FM15-METAR|223|ICAO-KSVE|||||||||||||||||||||||||||||||||||||||||||MET065METAR KSVE 212235Z AUTO 15005KT 10SM SCT038 04/M01 A3026 RMK AO2=||F||223|ICAO-KSVE
USI0000KSVE|SUSANVILLE MUNI|2016|12|21|22|55|40.3757|-120.5727|1264.6|4.0||1|FM15-METAR|223|ICAO-KSVE|-2.0||1|FM15-METAR|223|ICAO-KSVE|880.4||4|FM15-METAR|223|ICAO-KSVE|||||||150|N-Normal|1|FM15-METAR|223|ICAO-KSVE|3.1|N-Normal|1|FM15-METAR|223|ICAO-KSVE|||||||||||||65|Derived||FM15-METAR|223|ICAO-KSVE|1.3|Derived||FM15-METAR|223|ICAO-KSVE|||||||||||||||||||||||||||||||||||||||||||||||||||||||||||||||||||1024.4||1|FM15-METAR|223|ICAO-KSVE|||||||||||||||||||||||||||||||||||||||||||MET065METAR KSVE 212255Z AUTO 15006KT 10SM OVC038 04/M02 A3025 RMK AO2=||F||223|ICAO-KSVE
USI0000KSVE|SUSANVILLE MUNI|2016|12|21|23|15|40.3757|-120.5727|1264.6|4.0||1|FM15-METAR|223|ICAO-KSVE|-2.0||1|FM15-METAR|223|ICAO-KSVE|880.4||4|FM15-METAR|223|ICAO-KSVE|||||||160|N-Normal|1|FM15-METAR|223|ICAO-KSVE|3.1|N-Normal|1|FM15-METAR|223|ICAO-KSVE|||||||||||||65|Derived||FM15-METAR|223|ICAO-KSVE|1.3|Derived||FM15-METAR|223|ICAO-KSVE|||||||||||||||||||||||||||||||||||||||||||||||||||||||||||||||||||1024.4||1|FM15-METAR|223|ICAO-KSVE|||||||||||||||||||||||||||||||||||||||||||MET065METAR KSVE 212315Z AUTO 16006KT 10SM OVC038 04/M02 A3025 RMK AO2=||F||223|ICAO-KSVE
USI0000KSVE|SUSANVILLE MUNI|2016|12|21|23|35|40.3757|-120.5727|1264.6|4.0||1|FM15-METAR|223|ICAO-KSVE|-2.0||1|FM15-METAR|223|ICAO-KSVE|880.4||4|FM15-METAR|223|ICAO-KSVE|||||||140|N-Normal|1|FM15-METAR|223|ICAO-KSVE|2.1|N-Normal|1|FM15-METAR|223|ICAO-KSVE|||||||||||||65|Derived||FM15-METAR|223|ICAO-KSVE|1.3|Derived||FM15-METAR|223|ICAO-KSVE|||||||||||||||||||||||||||||||||||||||||||||||||||||||||||||||||||1024.4||1|FM15-METAR|223|ICAO-KSVE|||||||||||||||||||||||||||||||||||||||||||MET065METAR KSVE 212335Z AUTO 14004KT 10SM OVC038 04/M02 A3025 RMK AO2=||F||223|ICAO-KSVE
USI0000KSVE|SUSANVILLE MUNI|2016|12|21|23|55|40.3757|-120.5727|1264.6|4.0||1|FM15-METAR|223|ICAO-KSVE|-2.0||1|FM15-METAR|223|ICAO-KSVE|880.4||4|FM15-METAR|223|ICAO-KSVE|||||||150|N-Normal|1|FM15-METAR|223|ICAO-KSVE|2.1|N-Normal|1|FM15-METAR|223|ICAO-KSVE|||||||||||||65|Derived||FM15-METAR|223|ICAO-KSVE|1.3|Derived||FM15-METAR|223|ICAO-KSVE|||||||||||||||||||||||||||||||||||||||||||||||||||||||||||||||||||1024.4||1|FM15-METAR|223|ICAO-KSVE|||||||||||||||||||||||||||||||||||||||||||MET065METAR KSVE 212355Z AUTO 15004KT 10SM OVC038 04/M02 A3025 RMK AO2=||F||223|ICAO-KSVE
USI0000KSVE|SUSANVILLE MUNI|2016|12|22|00|15|40.3757|-120.5727|1264.6|3.0||1|FM15-METAR|223|ICAO-KSVE|-2.0||1|FM15-METAR|223|ICAO-KSVE|880.1||4|FM15-METAR|223|ICAO-KSVE|||||||140|N-Normal|1|FM15-METAR|223|ICAO-KSVE|2.1|N-Normal|1|FM15-METAR|223|ICAO-KSVE|||||||||||||70|Derived||FM15-METAR|223|ICAO-KSVE|0.7|Derived||FM15-METAR|223|ICAO-KSVE|||||||||||||||||||||||||||||||||||||||||||||||||||||||||||||||||||1024.0||1|FM15-METAR|223|ICAO-KSVE|||||||||||||||||||||||||||||||||||||||||||MET065METAR KSVE 220015Z AUTO 14004KT 10SM OVC036 03/M02 A3024 RMK AO2=||F||223|ICAO-KSVE
USI0000KSVE|SUSANVILLE MUNI|2016|12|22|00|35|40.3757|-120.5727|1264.6|3.0||1|FM15-METAR|223|ICAO-KSVE|-2.0||1|FM15-METAR|223|ICAO-KSVE|880.1||4|FM15-METAR|223|ICAO-KSVE|||||||120|N-Normal|1|FM15-METAR|223|ICAO-KSVE|2.1|N-Normal|1|FM15-METAR|223|ICAO-KSVE|||||||||||||70|Derived||FM15-METAR|223|ICAO-KSVE|0.7|Derived||FM15-METAR|223|ICAO-KSVE|||||||||||||||||||||||||||||||||||||||||||||||||||||||||||||||||||1024.0||1|FM15-METAR|223|ICAO-KSVE|||||||||||||||||||||||||||||||||||||||||||MET065METAR KSVE 220035Z AUTO 12004KT 10SM OVC036 03/M02 A3024 RMK AO2=||F||223|ICAO-KSVE
USI0000KSVE|SUSANVILLE MUNI|2016|12|22|00|55|40.3757|-120.5727|1264.6|3.0||1|FM15-METAR|223|ICAO-KSVE|-2.0||1|FM15-METAR|223|ICAO-KSVE|880.1||4|FM15-METAR|223|ICAO-KSVE|||||||999|C-Calm|9|FM15-METAR|223|ICAO-KSVE|0.0|C-Calm|1|FM15-METAR|223|ICAO-KSVE|||||||||||||70|Derived||FM15-METAR|223|ICAO-KSVE|0.7|Derived||FM15-METAR|223|ICAO-KSVE|||||||||||||||||||||||||||||||||||||||||||||||||||||||||||||||||||1024.0||1|FM15-METAR|223|ICAO-KSVE|||||||||||||||||||||||||||||||||||||||||||MET065METAR KSVE 220055Z AUTO 00000KT 10SM OVC034 03/M02 A3024 RMK AO2=||F||223|ICAO-KSVE
USI0000KSVE|SUSANVILLE MUNI|2016|12|22|01|15|40.3757|-120.5727|1264.6|2.0||1|FM15-METAR|223|ICAO-KSVE|-1.0||1|FM15-METAR|223|ICAO-KSVE|879.8||4|FM15-METAR|223|ICAO-KSVE|||||||130|N-Normal|1|FM15-METAR|223|ICAO-KSVE|1.5|N-Normal|1|FM15-METAR|223|ICAO-KSVE|||||||||||||81|Derived||FM15-METAR|223|ICAO-KSVE|0.8|Derived||FM15-METAR|223|ICAO-KSVE|||||||||||||||||||||||||||||||||||||||||||||||||||||||||||||||||||1023.7||1|FM15-METAR|223|ICAO-KSVE|||||||||||||||||||||||||||||||||||||||||||MET065METAR KSVE 220115Z AUTO 13003KT 10SM OVC036 02/M01 A3023 RMK AO2=||F||223|ICAO-KSVE
USI0000KSVE|SUSANVILLE MUNI|2016|12|22|01|35|40.3757|-120.5727|1264.6|2.0||1|FM15-METAR|223|ICAO-KSVE|-1.0||1|FM15-METAR|223|ICAO-KSVE|880.1||4|FM15-METAR|223|ICAO-KSVE|||||||050|N-Normal|1|FM15-METAR|223|ICAO-KSVE|2.1|N-Normal|1|FM15-METAR|223|ICAO-KSVE|||||||||||||81|Derived||FM15-METAR|223|ICAO-KSVE|0.8|Derived||FM15-METAR|223|ICAO-KSVE|||||||||||||||||||||||||||||||||||||||||||||||||||||||||||||||||||1024.0||1|FM15-METAR|223|ICAO-KSVE|||||||||||||||||||||||||||||||||||||||||||MET065METAR KSVE 220135Z AUTO 05004KT 10SM OVC036 02/M01 A3024 RMK AO2=||F||223|ICAO-KSVE
USI0000KSVE|SUSANVILLE MUNI|2016|12|22|01|55|40.3757|-120.5727|1264.6|3.0||1|FM15-METAR|223|ICAO-KSVE|-2.0||1|FM15-METAR|223|ICAO-KSVE|880.1||4|FM15-METAR|223|ICAO-KSVE|||||||040|N-Normal|1|FM15-METAR|223|ICAO-KSVE|1.5|N-Normal|1|FM15-METAR|223|ICAO-KSVE|||||||||||||70|Derived||FM15-METAR|223|ICAO-KSVE|0.7|Derived||FM15-METAR|223|ICAO-KSVE|||||||||||||||||||||||||||||||||||||||||||||||||||||||||||||||||||1024.0||1|FM15-METAR|223|ICAO-KSVE|||||||||||||||||||||||||||||||||||||||||||MET065METAR KSVE 220155Z AUTO 04003KT 10SM OVC036 03/M02 A3024 RMK AO2=||F||223|ICAO-KSVE
USI0000KSVE|SUSANVILLE MUNI|2016|12|22|02|15|40.3757|-120.5727|1264.6|2.0||1|FM15-METAR|223|ICAO-KSVE|-2.0||1|FM15-METAR|223|ICAO-KSVE|880.1||4|FM15-METAR|223|ICAO-KSVE|||||||999|C-Calm|9|FM15-METAR|223|ICAO-KSVE|0.0|C-Calm|1|FM15-METAR|223|ICAO-KSVE|||||||||||||75|Derived||FM15-METAR|223|ICAO-KSVE|0.4|Derived||FM15-METAR|223|ICAO-KSVE|||||||||||||||||||||||||||||||||||||||||||||||||||||||||||||||||||1024.0||1|FM15-METAR|223|ICAO-KSVE|||||||||||||||||||||||||||||||||||||||||||MET065METAR KSVE 220215Z AUTO 00000KT 10SM OVC038 02/M02 A3024 RMK AO2=||F||223|ICAO-KSVE
USI0000KSVE|SUSANVILLE MUNI|2016|12|22|02|35|40.3757|-120.5727|1264.6|2.0||1|FM15-METAR|223|ICAO-KSVE|-2.0||1|FM15-METAR|223|ICAO-KSVE|879.8||4|FM15-METAR|223|ICAO-KSVE|||||||050|N-Normal|1|FM15-METAR|223|ICAO-KSVE|1.5|N-Normal|1|FM15-METAR|223|ICAO-KSVE|||||||||||||75|Derived||FM15-METAR|223|ICAO-KSVE|0.4|Derived||FM15-METAR|223|ICAO-KSVE|||||||||||||||||||||||||||||||||||||||||||||||||||||||||||||||||||1023.7||1|FM15-METAR|223|ICAO-KSVE|||||||||||||||||||||||||||||||||||||||||||MET065METAR KSVE 220235Z AUTO 05003KT 10SM OVC038 02/M02 A3023 RMK AO2=||F||223|ICAO-KSVE
USI0000KSVE|SUSANVILLE MUNI|2016|12|22|02|55|40.3757|-120.5727|1264.6|2.0||1|FM15-METAR|223|ICAO-KSVE|-3.0||1|FM15-METAR|223|ICAO-KSVE|879.8||4|FM15-METAR|223|ICAO-KSVE|||||||060|N-Normal|1|FM15-METAR|223|ICAO-KSVE|2.1|N-Normal|1|FM15-METAR|223|ICAO-KSVE|||||||||||||70|Derived||FM15-METAR|223|ICAO-KSVE|0.2|Derived||FM15-METAR|223|ICAO-KSVE|||||||||||||||||||||||||||||||||||||||||||||||||||||||||||||||||||1023.7||1|FM15-METAR|223|ICAO-KSVE|||||||||||||||||||||||||||||||||||||||||||MET065METAR KSVE 220255Z AUTO 06004KT 10SM OVC038 02/M03 A3023 RMK AO2=||F||223|ICAO-KSVE
USI0000KSVE|SUSANVILLE MUNI|2016|12|22|03|15|40.3757|-120.5727|1264.6|2.0||1|FM15-METAR|223|ICAO-KSVE|-3.0||1|FM15-METAR|223|ICAO-KSVE|879.8||4|FM15-METAR|223|ICAO-KSVE|||||||080|N-Normal|1|FM15-METAR|223|ICAO-KSVE|2.6|N-Normal|1|FM15-METAR|223|ICAO-KSVE|||||||||||||70|Derived||FM15-METAR|223|ICAO-KSVE|0.2|Derived||FM15-METAR|223|ICAO-KSVE|||||||||||||||||||||||||||||||||||||||||||||||||||||||||||||||||||1023.7||1|FM15-METAR|223|ICAO-KSVE|||||||||||||||||||||||||||||||||||||||||||MET065METAR KSVE 220315Z AUTO 08005KT 10SM OVC038 02/M03 A3023 RMK AO2=||F||223|ICAO-KSVE
USI0000KSVE|SUSANVILLE MUNI|2016|12|22|03|35|40.3757|-120.5727|1264.6|2.0||1|FM15-METAR|223|ICAO-KSVE|-5.0||1|FM15-METAR|223|ICAO-KSVE|880.1||4|FM15-METAR|223|ICAO-KSVE|||||||060|N-Normal|1|FM15-METAR|223|ICAO-KSVE|2.6|N-Normal|1|FM15-METAR|223|ICAO-KSVE|||||||||||||60|Derived||FM15-METAR|223|ICAO-KSVE|-0.6|Derived||FM15-METAR|223|ICAO-KSVE|||||||||||||||||||||||||||||||||||||||||||||||||||||||||||||||||||1024.0||1|FM15-METAR|223|ICAO-KSVE|||||||||||||||||||||||||||||||||||||||||||MET065METAR KSVE 220335Z AUTO 06005KT 10SM OVC038 02/M05 A3024 RMK AO2=||F||223|ICAO-KSVE
USI0000KSVE|SUSANVILLE MUNI|2016|12|22|03|55|40.3757|-120.5727|1264.6|2.0||1|FM15-METAR|223|ICAO-KSVE|-5.0||1|FM15-METAR|223|ICAO-KSVE|880.1||4|FM15-METAR|223|ICAO-KSVE|||||||120|N-Normal|1|FM15-METAR|223|ICAO-KSVE|2.1|N-Normal|1|FM15-METAR|223|ICAO-KSVE|||||||||||||60|Derived||FM15-METAR|223|ICAO-KSVE|-0.6|Derived||FM15-METAR|223|ICAO-KSVE|||||||||||||||||||||||||||||||||||||||||||||||||||||||||||||||||||1024.0||1|FM15-METAR|223|ICAO-KSVE|||||||||||||||||||||||||||||||||||||||||||MET065METAR KSVE 220355Z AUTO 12004KT 10SM OVC038 02/M05 A3024 RMK AO2=||F||223|ICAO-KSVE
USI0000KSVE|SUSANVILLE MUNI|2016|12|22|04|15|40.3757|-120.5727|1264.6|2.0||1|FM15-METAR|223|ICAO-KSVE|-3.0||1|FM15-METAR|223|ICAO-KSVE|880.1||4|FM15-METAR|223|ICAO-KSVE|||||||999|C-Calm|9|FM15-METAR|223|ICAO-KSVE|0.0|C-Calm|1|FM15-METAR|223|ICAO-KSVE|||||||||||||70|Derived||FM15-METAR|223|ICAO-KSVE|0.2|Derived||FM15-METAR|223|ICAO-KSVE|||||||||||||||||||||||||||||||||||||||||||||||||||||||||||||||||||1024.0||1|FM15-METAR|223|ICAO-KSVE|||||||||||||||||||||||||||||||||||||||||||MET065METAR KSVE 220415Z AUTO 00000KT 10SM OVC038 02/M03 A3024 RMK AO2=||F||223|ICAO-KSVE
USI0000KSVE|SUSANVILLE MUNI|2016|12|22|04|35|40.3757|-120.5727|1264.6|1.0||1|FM15-METAR|223|ICAO-KSVE|-3.0||1|FM15-METAR|223|ICAO-KSVE|880.1||4|FM15-METAR|223|ICAO-KSVE|||||||110|N-Normal|1|FM15-METAR|223|ICAO-KSVE|1.5|N-Normal|1|FM15-METAR|223|ICAO-KSVE|||||||||||||75|Derived||FM15-METAR|223|ICAO-KSVE|-0.4|Derived||FM15-METAR|223|ICAO-KSVE|||||||||||||||||||||||||||||||||||||||||||||||||||||||||||||||||||1024.0||1|FM15-METAR|223|ICAO-KSVE|||||||||||||||||||||||||||||||||||||||||||MET065METAR KSVE 220435Z AUTO 11003KT 10SM OVC038 01/M03 A3024 RMK AO2=||F||223|ICAO-KSVE
USI0000KSVE|SUSANVILLE MUNI|2016|12|22|04|55|40.3757|-120.5727|1264.6|2.0||1|FM15-METAR|223|ICAO-KSVE|-5.0||1|FM15-METAR|223|ICAO-KSVE|880.1||4|FM15-METAR|223|ICAO-KSVE|||||||060|N-Normal|1|FM15-METAR|223|ICAO-KSVE|2.1|N-Normal|1|FM15-METAR|223|ICAO-KSVE|||||||||||||60|Derived||FM15-METAR|223|ICAO-KSVE|-0.6|Derived||FM15-METAR|223|ICAO-KSVE|||||||||||||||||||||||||||||||||||||||||||||||||||||||||||||||||||1024.0||1|FM15-METAR|223|ICAO-KSVE|||||||||||||||||||||||||||||||||||||||||||MET065METAR KSVE 220455Z AUTO 06004KT 10SM OVC038 02/M05 A3024 RMK AO2=||F||223|ICAO-KSVE
USI0000KSVE|SUSANVILLE MUNI|2016|12|22|05|15|40.3757|-120.5727|1264.6|2.0||1|FM15-METAR|223|ICAO-KSVE|-6.0||1|FM15-METAR|223|ICAO-KSVE|880.1||4|FM15-METAR|223|ICAO-KSVE|||||||050|N-Normal|1|FM15-METAR|223|ICAO-KSVE|3.6|N-Normal|1|FM15-METAR|223|ICAO-KSVE|||||||||||||56|Derived||FM15-METAR|223|ICAO-KSVE|-0.9|Derived||FM15-METAR|223|ICAO-KSVE|||||||||||||||||||||||||||||||||||||||||||||||||||||||||||||||||||1024.0||1|FM15-METAR|223|ICAO-KSVE|||||||||||||||||||||||||||||||||||||||||||MET065METAR KSVE 220515Z AUTO 05007KT 10SM OVC036 02/M06 A3024 RMK AO2=||F||223|ICAO-KSVE
USI0000KSVE|SUSANVILLE MUNI|2016|12|22|05|35|40.3757|-120.5727|1264.6|2.0||1|FM15-METAR|223|ICAO-KSVE|-6.0||1|FM15-METAR|223|ICAO-KSVE|880.1||4|FM15-METAR|223|ICAO-KSVE|||||||080|N-Normal|1|FM15-METAR|223|ICAO-KSVE|2.1|N-Normal|1|FM15-METAR|223|ICAO-KSVE|||||||||||||56|Derived||FM15-METAR|223|ICAO-KSVE|-0.9|Derived||FM15-METAR|223|ICAO-KSVE|||||||||||||||||||||||||||||||||||||||||||||||||||||||||||||||||||1024.0||1|FM15-METAR|223|ICAO-KSVE|||||||||||||||||||||||||||||||||||||||||||MET065METAR KSVE 220535Z AUTO 08004KT 10SM OVC036 02/M06 A3024 RMK AO2=||F||223|ICAO-KSVE
USI0000KSVE|SUSANVILLE MUNI|2016|12|22|05|55|40.3757|-120.5727|1264.6|2.0||1|FM15-METAR|223|ICAO-KSVE|-6.0||1|FM15-METAR|223|ICAO-KSVE|880.1||4|FM15-METAR|223|ICAO-KSVE|||||||090|N-Normal|1|FM15-METAR|223|ICAO-KSVE|2.6|N-Normal|1|FM15-METAR|223|ICAO-KSVE|||||||||||||56|Derived||FM15-METAR|223|ICAO-KSVE|-0.9|Derived||FM15-METAR|223|ICAO-KSVE|||||||||||||||||||||||||||||||||||||||||||||||||||||||||||||||||||1024.0||1|FM15-METAR|223|ICAO-KSVE|||||||||||||||||||||||||||||||||||||||||||MET065METAR KSVE 220555Z AUTO 09005KT 10SM OVC036 02/M06 A3024 RMK AO2=||F||223|ICAO-KSVE
USI0000KSVE|SUSANVILLE MUNI|2016|12|22|06|15|40.3757|-120.5727|1264.6|2.0||1|FM15-METAR|223|ICAO-KSVE|-6.0||1|FM15-METAR|223|ICAO-KSVE|880.1||4|FM15-METAR|223|ICAO-KSVE|||||||080|N-Normal|1|FM15-METAR|223|ICAO-KSVE|1.5|N-Normal|1|FM15-METAR|223|ICAO-KSVE|||||||||||||56|Derived||FM15-METAR|223|ICAO-KSVE|-0.9|Derived||FM15-METAR|223|ICAO-KSVE|||||||||||||||||||||||||||||||||||||||||||||||||||||||||||||||||||1024.0||1|FM15-METAR|223|ICAO-KSVE|||||||||||||||||||||||||||||||||||||||||||MET065METAR KSVE 220615Z AUTO 08003KT 10SM BKN036 02/M06 A3024 RMK AO2=||F||223|ICAO-KSVE
USI0000KSVE|SUSANVILLE MUNI|2016|12|22|06|35|40.3757|-120.5727|1264.6|2.0||1|FM15-METAR|223|ICAO-KSVE|-6.0||1|FM15-METAR|223|ICAO-KSVE|880.1||4|FM15-METAR|223|ICAO-KSVE|||||||999|C-Calm|9|FM15-METAR|223|ICAO-KSVE|0.0|C-Calm|1|FM15-METAR|223|ICAO-KSVE|||||||||||||56|Derived||FM15-METAR|223|ICAO-KSVE|-0.9|Derived||FM15-METAR|223|ICAO-KSVE|||||||||||||||||||||||||||||||||||||||||||||||||||||||||||||||||||1024.0||1|FM15-METAR|223|ICAO-KSVE|||||||||||||||||||||||||||||||||||||||||||MET065METAR KSVE 220635Z AUTO 00000KT 10SM BKN034 02/M06 A3024 RMK AO2=||F||223|ICAO-KSVE
USI0000KSVE|SUSANVILLE MUNI|2016|12|22|06|55|40.3757|-120.5727|1264.6|2.0||1|FM15-METAR|223|ICAO-KSVE|-4.0||1|FM15-METAR|223|ICAO-KSVE|879.8||4|FM15-METAR|223|ICAO-KSVE|||||||999|C-Calm|9|FM15-METAR|223|ICAO-KSVE|0.0|C-Calm|1|FM15-METAR|223|ICAO-KSVE|||||||||||||65|Derived||FM15-METAR|223|ICAO-KSVE|-0.2|Derived||FM15-METAR|223|ICAO-KSVE|||||||||||||||||||||||||||||||||||||||||||||||||||||||||||||||||||1023.7||1|FM15-METAR|223|ICAO-KSVE|||||||||||||||||||||||||||||||||||||||||||MET065METAR KSVE 220655Z AUTO 00000KT 10SM BKN034 02/M04 A3023 RMK AO2=||F||223|ICAO-KSVE
USI0000KSVE|SUSANVILLE MUNI|2016|12|22|07|15|40.3757|-120.5727|1264.6|1.0||1|FM15-METAR|223|ICAO-KSVE|-4.0||1|FM15-METAR|223|ICAO-KSVE|879.8||4|FM15-METAR|223|ICAO-KSVE|||||||999|C-Calm|9|FM15-METAR|223|ICAO-KSVE|0.0|C-Calm|1|FM15-METAR|223|ICAO-KSVE|||||||||||||70|Derived||FM15-METAR|223|ICAO-KSVE|-0.8|Derived||FM15-METAR|223|ICAO-KSVE|||||||||||||||||||||||||||||||||||||||||||||||||||||||||||||||||||1023.7||1|FM15-METAR|223|ICAO-KSVE|||||||||||||||||||||||||||||||||||||||||||MET065METAR KSVE 220715Z AUTO 00000KT 10SM SCT034 01/M04 A3023 RMK AO2=||F||223|ICAO-KSVE
USI0000KSVE|SUSANVILLE MUNI|2016|12|22|07|35|40.3757|-120.5727|1264.6|1.0||1|FM15-METAR|223|ICAO-KSVE|-5.0||1|FM15-METAR|223|ICAO-KSVE|879.5||4|FM15-METAR|223|ICAO-KSVE|||||||999|C-Calm|9|FM15-METAR|223|ICAO-KSVE|0.0|C-Calm|1|FM15-METAR|223|ICAO-KSVE|||||||||||||65|Derived||FM15-METAR|223|ICAO-KSVE|-1.2|Derived||FM15-METAR|223|ICAO-KSVE|||||||||||||||||||||||||||||||||||||||||||||||||||||||||||||||||||1023.4||1|FM15-METAR|223|ICAO-KSVE|||||||||||||||||||||||||||||||||||||||||||MET065METAR KSVE 220735Z AUTO 00000KT 10SM BKN034 01/M05 A3022 RMK AO2=||F||223|ICAO-KSVE
USI0000KSVE|SUSANVILLE MUNI|2016|12|22|07|55|40.3757|-120.5727|1264.6|1.0||1|FM15-METAR|223|ICAO-KSVE|-5.0||1|FM15-METAR|223|ICAO-KSVE|879.2||4|FM15-METAR|223|ICAO-KSVE|||||||040|N-Normal|1|FM15-METAR|223|ICAO-KSVE|1.5|N-Normal|1|FM15-METAR|223|ICAO-KSVE|||||||||||||65|Derived||FM15-METAR|223|ICAO-KSVE|-1.2|Derived||FM15-METAR|223|ICAO-KSVE|||||||||||||||||||||||||||||||||||||||||||||||||||||||||||||||||||1023.0||1|FM15-METAR|223|ICAO-KSVE|||||||||||||||||||||||||||||||||||||||||||MET065METAR KSVE 220755Z AUTO 04003KT 10SM BKN034 01/M05 A3021 RMK AO2=||F||223|ICAO-KSVE
USI0000KSVE|SUSANVILLE MUNI|2016|12|22|08|15|40.3757|-120.5727|1264.6|1.0||1|FM15-METAR|223|ICAO-KSVE|-5.0||1|FM15-METAR|223|ICAO-KSVE|878.6||4|FM15-METAR|223|ICAO-KSVE|||||||||||||||||||||||||||||||65|Derived||FM15-METAR|223|ICAO-KSVE|-1.2|Derived||FM15-METAR|223|ICAO-KSVE|||||||||||||||||||||||||||||||||||||||||||||||||||||||||||||||||||1022.3||1|FM15-METAR|223|ICAO-KSVE|||||||||||||||||||||||||||||||||||||||||||MET057METAR KSVE 220815Z AUTO 10SM BKN034 01/M05 A3019 RMK AO2=||F||223|ICAO-KSVE
USI0000KSVE|SUSANVILLE MUNI|2016|12|22|08|35|40.3757|-120.5727|1264.6|1.0||1|FM15-METAR|223|ICAO-KSVE|-5.0||1|FM15-METAR|223|ICAO-KSVE|878.3||4|FM15-METAR|223|ICAO-KSVE|||||||999|C-Calm|9|FM15-METAR|223|ICAO-KSVE|0.0|C-Calm|1|FM15-METAR|223|ICAO-KSVE|||||||||||||65|Derived||FM15-METAR|223|ICAO-KSVE|-1.2|Derived||FM15-METAR|223|ICAO-KSVE|||||||||||||||||||||||||||||||||||||||||||||||||||||||||||||||||||1022.0||1|FM15-METAR|223|ICAO-KSVE|||||||||||||||||||||||||||||||||||||||||||MET065METAR KSVE 220835Z AUTO 00000KT 10SM BKN032 01/M05 A3018 RMK AO2=||F||223|ICAO-KSVE
USI0000KSVE|SUSANVILLE MUNI|2016|12|22|08|55|40.3757|-120.5727|1264.6|1.0||1|FM15-METAR|223|ICAO-KSVE|-4.0||1|FM15-METAR|223|ICAO-KSVE|878.3||4|FM15-METAR|223|ICAO-KSVE|||||||999|C-Calm|9|FM15-METAR|223|ICAO-KSVE|0.0|C-Calm|1|FM15-METAR|223|ICAO-KSVE|||||||||||||70|Derived||FM15-METAR|223|ICAO-KSVE|-0.9|Derived||FM15-METAR|223|ICAO-KSVE|||||||||||||||||||||||||||||||||||||||||||||||||||||||||||||||||||1022.0||1|FM15-METAR|223|ICAO-KSVE|||||||||||||||||||||||||||||||||||||||||||MET065METAR KSVE 220855Z AUTO 00000KT 10SM BKN032 01/M04 A3018 RMK AO2=||F||223|ICAO-KSVE
USI0000KSVE|SUSANVILLE MUNI|2016|12|22|09|15|40.3757|-120.5727|1264.6|1.0||1|FM15-METAR|223|ICAO-KSVE|-5.0||1|FM15-METAR|223|ICAO-KSVE|878.0||4|FM15-METAR|223|ICAO-KSVE|||||||999|C-Calm|9|FM15-METAR|223|ICAO-KSVE|0.0|C-Calm|1|FM15-METAR|223|ICAO-KSVE|||||||||||||65|Derived||FM15-METAR|223|ICAO-KSVE|-1.2|Derived||FM15-METAR|223|ICAO-KSVE|||||||||||||||||||||||||||||||||||||||||||||||||||||||||||||||||||1021.7||1|FM15-METAR|223|ICAO-KSVE|||||||||||||||||||||||||||||||||||||||||||MET065METAR KSVE 220915Z AUTO 00000KT 10SM BKN032 01/M05 A3017 RMK AO2=||F||223|ICAO-KSVE
USI0000KSVE|SUSANVILLE MUNI|2016|12|22|09|35|40.3757|-120.5727|1264.6|1.0||1|FM15-METAR|223|ICAO-KSVE|-3.0||1|FM15-METAR|223|ICAO-KSVE|878.0||4|FM15-METAR|223|ICAO-KSVE|||||||999|C-Calm|9|FM15-METAR|223|ICAO-KSVE|0.0|C-Calm|1|FM15-METAR|223|ICAO-KSVE|||||||||||||75|Derived||FM15-METAR|223|ICAO-KSVE|-0.4|Derived||FM15-METAR|223|ICAO-KSVE|||||||||||||||||||||||||||||||||||||||||||||||||||||||||||||||||||1021.7||1|FM15-METAR|223|ICAO-KSVE|||||||||||||||||||||||||||||||||||||||||||MET065METAR KSVE 220935Z AUTO 00000KT 10SM BKN032 01/M03 A3017 RMK AO2=||F||223|ICAO-KSVE
USI0000KSVE|SUSANVILLE MUNI|2016|12|22|09|55|40.3757|-120.5727|1264.6|1.0||1|FM15-METAR|223|ICAO-KSVE|-4.0||1|FM15-METAR|223|ICAO-KSVE|878.0||4|FM15-METAR|223|ICAO-KSVE|||||||999|C-Calm|9|FM15-METAR|223|ICAO-KSVE|0.0|C-Calm|1|FM15-METAR|223|ICAO-KSVE|||||||||||||70|Derived||FM15-METAR|223|ICAO-KSVE|-0.9|Derived||FM15-METAR|223|ICAO-KSVE|||||||||||||||||||||||||||||||||||||||||||||||||||||||||||||||||||1021.7||1|FM15-METAR|223|ICAO-KSVE|||||||||||||||||||||||||||||||||||||||||||MET065METAR KSVE 220955Z AUTO 00000KT 10SM OVC032 01/M04 A3017 RMK AO2=||F||223|ICAO-KSVE
USI0000KSVE|SUSANVILLE MUNI|2016|12|22|10|15|40.3757|-120.5727|1264.6|1.0||1|FM15-METAR|223|ICAO-KSVE|-3.0||1|FM15-METAR|223|ICAO-KSVE|878.0||4|FM15-METAR|223|ICAO-KSVE|||||||999|C-Calm|9|FM15-METAR|223|ICAO-KSVE|0.0|C-Calm|1|FM15-METAR|223|ICAO-KSVE|||||||||||||75|Derived||FM15-METAR|223|ICAO-KSVE|-0.4|Derived||FM15-METAR|223|ICAO-KSVE|||||||||||||||||||||||||||||||||||||||||||||||||||||||||||||||||||1021.7||1|FM15-METAR|223|ICAO-KSVE|||||||||||||||||||||||||||||||||||||||||||MET065METAR KSVE 221015Z AUTO 00000KT 10SM OVC032 01/M03 A3017 RMK AO2=||F||223|ICAO-KSVE
USI0000KSVE|SUSANVILLE MUNI|2016|12|22|10|35|40.3757|-120.5727|1264.6|1.0||1|FM15-METAR|223|ICAO-KSVE|-2.0||1|FM15-METAR|223|ICAO-KSVE|878.0||4|FM15-METAR|223|ICAO-KSVE|||||||999|C-Calm|9|FM15-METAR|223|ICAO-KSVE|0.0|C-Calm|1|FM15-METAR|223|ICAO-KSVE|||||||||||||81|Derived||FM15-METAR|223|ICAO-KSVE|-0.2|Derived||FM15-METAR|223|ICAO-KSVE|||||||||||||||||||||||||||||||||||||||||||||||||||||||||||||||||||1021.7||1|FM15-METAR|223|ICAO-KSVE|||||||||||||||||||||||||||||||||||||||||||MET065METAR KSVE 221035Z AUTO 00000KT 10SM OVC032 01/M02 A3017 RMK AO2=||F||223|ICAO-KSVE
USI0000KSVE|SUSANVILLE MUNI|2016|12|22|10|55|40.3757|-120.5727|1264.6|1.0||1|FM15-METAR|223|ICAO-KSVE|-3.0||1|FM15-METAR|223|ICAO-KSVE|878.0||4|FM15-METAR|223|ICAO-KSVE|||||||999|C-Calm|9|FM15-METAR|223|ICAO-KSVE|0.0|C-Calm|1|FM15-METAR|223|ICAO-KSVE|||||||||||||75|Derived||FM15-METAR|223|ICAO-KSVE|-0.4|Derived||FM15-METAR|223|ICAO-KSVE|||||||||||||||||||||||||||||||||||||||||||||||||||||||||||||||||||1021.7||1|FM15-METAR|223|ICAO-KSVE|||||||||||||||||||||||||||||||||||||||||||MET065METAR KSVE 221055Z AUTO 00000KT 10SM OVC032 01/M03 A3017 RMK AO2=||F||223|ICAO-KSVE
USI0000KSVE|SUSANVILLE MUNI|2016|12|22|11|15|40.3757|-120.5727|1264.6|1.0||1|FM15-METAR|223|ICAO-KSVE|-2.0||1|FM15-METAR|223|ICAO-KSVE|878.0||4|FM15-METAR|223|ICAO-KSVE|||||||999|C-Calm|9|FM15-METAR|223|ICAO-KSVE|0.0|C-Calm|1|FM15-METAR|223|ICAO-KSVE|||||||||||||81|Derived||FM15-METAR|223|ICAO-KSVE|-0.2|Derived||FM15-METAR|223|ICAO-KSVE|||||||||||||||||||||||||||||||||||||||||||||||||||||||||||||||||||1021.7||1|FM15-METAR|223|ICAO-KSVE|||||||||||||||||||||||||||||||||||||||||||MET065METAR KSVE 221115Z AUTO 00000KT 10SM OVC030 01/M02 A3017 RMK AO2=||F||223|ICAO-KSVE
USI0000KSVE|SUSANVILLE MUNI|2016|12|22|11|35|40.3757|-120.5727|1264.6|0.0||1|FM15-METAR|223|ICAO-KSVE|-2.0||1|FM15-METAR|223|ICAO-KSVE|877.7||4|FM15-METAR|223|ICAO-KSVE|||||||999|C-Calm|9|FM15-METAR|223|ICAO-KSVE|0.0|C-Calm|1|FM15-METAR|223|ICAO-KSVE|||||||||||||87|Derived||FM15-METAR|223|ICAO-KSVE|-0.9|Derived||FM15-METAR|223|ICAO-KSVE|||||||||||||||||||||||||||||||||||||||||||||||||||||||||||||||||||1021.3||1|FM15-METAR|223|ICAO-KSVE|||||||||||||||||||||||||||||||||||||||||||MET065METAR KSVE 221135Z AUTO 00000KT 10SM OVC030 00/M02 A3016 RMK AO2=||F||223|ICAO-KSVE
USI0000KSVE|SUSANVILLE MUNI|2016|12|22|11|55|40.3757|-120.5727|1264.6|1.0||1|FM15-METAR|223|ICAO-KSVE|-2.0||1|FM15-METAR|223|ICAO-KSVE|877.4||4|FM15-METAR|223|ICAO-KSVE|||||||999|C-Calm|9|FM15-METAR|223|ICAO-KSVE|0.0|C-Calm|1|FM15-METAR|223|ICAO-KSVE|||||||||||||81|Derived||FM15-METAR|223|ICAO-KSVE|-0.2|Derived||FM15-METAR|223|ICAO-KSVE|||||||||||||||||||||||||||||||||||||||||||||||||||||||||||||||||||1021.0||1|FM15-METAR|223|ICAO-KSVE|||||||||||||||||||||||||||||||||||||||||||MET065METAR KSVE 221155Z AUTO 00000KT 10SM OVC030 01/M02 A3015 RMK AO2=||F||223|ICAO-KSVE
USI0000KSVE|SUSANVILLE MUNI|2016|12|22|12|15|40.3757|-120.5727|1264.6|1.0||1|FM15-METAR|223|ICAO-KSVE|-3.0||1|FM15-METAR|223|ICAO-KSVE|877.1||4|FM15-METAR|223|ICAO-KSVE|||||||999|C-Calm|9|FM15-METAR|223|ICAO-KSVE|0.0|C-Calm|1|FM15-METAR|223|ICAO-KSVE|||||||||||||75|Derived||FM15-METAR|223|ICAO-KSVE|-0.4|Derived||FM15-METAR|223|ICAO-KSVE|||||||||||||||||||||||||||||||||||||||||||||||||||||||||||||||||||1020.7||1|FM15-METAR|223|ICAO-KSVE|||||||||||||||||||||||||||||||||||||||||||MET065METAR KSVE 221215Z AUTO 00000KT 10SM OVC030 01/M03 A3014 RMK AO2=||F||223|ICAO-KSVE
USI0000KSVE|SUSANVILLE MUNI|2016|12|22|12|35|40.3757|-120.5727|1264.6|1.0||1|FM15-METAR|223|ICAO-KSVE|-3.0||1|FM15-METAR|223|ICAO-KSVE|876.8||4|FM15-METAR|223|ICAO-KSVE|||||||999|C-Calm|9|FM15-METAR|223|ICAO-KSVE|0.0|C-Calm|1|FM15-METAR|223|ICAO-KSVE|||||||||||||75|Derived||FM15-METAR|223|ICAO-KSVE|-0.4|Derived||FM15-METAR|223|ICAO-KSVE|||||||||||||||||||||||||||||||||||||||||||||||||||||||||||||||||||1020.3||1|FM15-METAR|223|ICAO-KSVE|||||||||||||||||||||||||||||||||||||||||||MET065METAR KSVE 221235Z AUTO 00000KT 10SM OVC028 01/M03 A3013 RMK AO2=||F||223|ICAO-KSVE
USI0000KSVE|SUSANVILLE MUNI|2016|12|22|12|55|40.3757|-120.5727|1264.6|1.0||1|FM15-METAR|223|ICAO-KSVE|-3.0||1|FM15-METAR|223|ICAO-KSVE|876.5||4|FM15-METAR|223|ICAO-KSVE|||||||999|C-Calm|9|FM15-METAR|223|ICAO-KSVE|0.0|C-Calm|1|FM15-METAR|223|ICAO-KSVE|||||||||||||75|Derived||FM15-METAR|223|ICAO-KSVE|-0.4|Derived||FM15-METAR|223|ICAO-KSVE|||||||||||||||||||||||||||||||||||||||||||||||||||||||||||||||||||1020.0||1|FM15-METAR|223|ICAO-KSVE|||||||||||||||||||||||||||||||||||||||||||MET065METAR KSVE 221255Z AUTO 00000KT 10SM OVC028 01/M03 A3012 RMK AO2=||F||223|ICAO-KSVE
USI0000KSVE|SUSANVILLE MUNI|2016|12|22|13|15|40.3757|-120.5727|1264.6|1.0||1|FM15-METAR|223|ICAO-KSVE|-2.0||1|FM15-METAR|223|ICAO-KSVE|876.2||4|FM15-METAR|223|ICAO-KSVE|||||||999|C-Calm|9|FM15-METAR|223|ICAO-KSVE|0.0|C-Calm|1|FM15-METAR|223|ICAO-KSVE|||||||||||||81|Derived||FM15-METAR|223|ICAO-KSVE|-0.2|Derived||FM15-METAR|223|ICAO-KSVE|||||||||||||||||||||||||||||||||||||||||||||||||||||||||||||||||||1019.6||1|FM15-METAR|223|ICAO-KSVE|||||||||||||||||||||||||||||||||||||||||||MET065METAR KSVE 221315Z AUTO 00000KT 10SM OVC028 01/M02 A3011 RMK AO2=||F||223|ICAO-KSVE
USI0000KSVE|SUSANVILLE MUNI|2016|12|22|13|35|40.3757|-120.5727|1264.6|1.0||1|FM15-METAR|223|ICAO-KSVE|-2.0||1|FM15-METAR|223|ICAO-KSVE|876.5||4|FM15-METAR|223|ICAO-KSVE|||||||999|C-Calm|9|FM15-METAR|223|ICAO-KSVE|0.0|C-Calm|1|FM15-METAR|223|ICAO-KSVE|||||||||||||81|Derived||FM15-METAR|223|ICAO-KSVE|-0.2|Derived||FM15-METAR|223|ICAO-KSVE|||||||||||||||||||||||||||||||||||||||||||||||||||||||||||||||||||1020.0||1|FM15-METAR|223|ICAO-KSVE|||||||||||||||||||||||||||||||||||||||||||MET065METAR KSVE 221335Z AUTO 00000KT 10SM OVC028 01/M02 A3012 RMK AO2=||F||223|ICAO-KSVE
USI0000KSVE|SUSANVILLE MUNI|2016|12|22|13|55|40.3757|-120.5727|1264.6|1.0||1|FM15-METAR|223|ICAO-KSVE|-2.0||1|FM15-METAR|223|ICAO-KSVE|876.2||4|FM15-METAR|223|ICAO-KSVE|||||||999|C-Calm|9|FM15-METAR|223|ICAO-KSVE|0.0|C-Calm|1|FM15-METAR|223|ICAO-KSVE|||||||||||||81|Derived||FM15-METAR|223|ICAO-KSVE|-0.2|Derived||FM15-METAR|223|ICAO-KSVE|||||||||||||||||||||||||||||||||||||||||||||||||||||||||||||||||||1019.6||1|FM15-METAR|223|ICAO-KSVE|||||||||||||||||||||||||||||||||||||||||||MET065METAR KSVE 221355Z AUTO 00000KT 10SM OVC028 01/M02 A3011 RMK AO2=||F||223|ICAO-KSVE
USI0000KSVE|SUSANVILLE MUNI|2016|12|22|14|15|40.3757|-120.5727|1264.6|0.0||1|FM15-METAR|223|ICAO-KSVE|-2.0||1|FM15-METAR|223|ICAO-KSVE|876.2||4|FM15-METAR|223|ICAO-KSVE|||||||999|C-Calm|9|FM15-METAR|223|ICAO-KSVE|0.0|C-Calm|1|FM15-METAR|223|ICAO-KSVE|||||||||||||87|Derived||FM15-METAR|223|ICAO-KSVE|-0.9|Derived||FM15-METAR|223|ICAO-KSVE|||||||||||||||||||||||||||||||||||||||||||||||||||||||||||||||||||1019.6||1|FM15-METAR|223|ICAO-KSVE|||||||||||||||||||||||||||||||||||||||||||MET065METAR KSVE 221415Z AUTO 00000KT 10SM OVC028 00/M02 A3011 RMK AO2=||F||223|ICAO-KSVE
USI0000KSVE|SUSANVILLE MUNI|2016|12|22|14|35|40.3757|-120.5727|1264.6|1.0||1|FM15-METAR|223|ICAO-KSVE|-2.0||1|FM15-METAR|223|ICAO-KSVE|875.9||4|FM15-METAR|223|ICAO-KSVE|||||||999|C-Calm|9|FM15-METAR|223|ICAO-KSVE|0.0|C-Calm|1|FM15-METAR|223|ICAO-KSVE|||||||||||||81|Derived||FM15-METAR|223|ICAO-KSVE|-0.2|Derived||FM15-METAR|223|ICAO-KSVE|||||||||||||||||||||||||||||||||||||||||||||||||||||||||||||||||||1019.3||1|FM15-METAR|223|ICAO-KSVE|||||||||||||||||||||||||||||||||||||||||||MET065METAR KSVE 221435Z AUTO 00000KT 10SM OVC026 01/M02 A3010 RMK AO2=||F||223|ICAO-KSVE
USI0000KSVE|SUSANVILLE MUNI|2016|12|22|14|55|40.3757|-120.5727|1264.6|1.0||1|FM15-METAR|223|ICAO-KSVE|-3.0||1|FM15-METAR|223|ICAO-KSVE|875.9||4|FM15-METAR|223|ICAO-KSVE|||||||999|C-Calm|9|FM15-METAR|223|ICAO-KSVE|0.0|C-Calm|1|FM15-METAR|223|ICAO-KSVE|||||||||||||75|Derived||FM15-METAR|223|ICAO-KSVE|-0.4|Derived||FM15-METAR|223|ICAO-KSVE|||||||||||||||||||||||||||||||||||||||||||||||||||||||||||||||||||1019.3||1|FM15-METAR|223|ICAO-KSVE|||||||||||||||||||||||||||||||||||||||||||MET065METAR KSVE 221455Z AUTO 00000KT 10SM OVC026 01/M03 A3010 RMK AO2=||F||223|ICAO-KSVE
USI0000KSVE|SUSANVILLE MUNI|2016|12|22|15|15|40.3757|-120.5727|1264.6|1.0||1|FM15-METAR|223|ICAO-KSVE|-2.0||1|FM15-METAR|223|ICAO-KSVE|875.9||4|FM15-METAR|223|ICAO-KSVE|||||||999|C-Calm|9|FM15-METAR|223|ICAO-KSVE|0.0|C-Calm|1|FM15-METAR|223|ICAO-KSVE|||||||||||||81|Derived||FM15-METAR|223|ICAO-KSVE|-0.2|Derived||FM15-METAR|223|ICAO-KSVE|||||||||||||||||||||||||||||||||||||||||||||||||||||||||||||||||||1019.3||1|FM15-METAR|223|ICAO-KSVE|||||||||||||||||||||||||||||||||||||||||||MET065METAR KSVE 221515Z AUTO 00000KT 10SM OVC026 01/M02 A3010 RMK AO2=||F||223|ICAO-KSVE
USI0000KSVE|SUSANVILLE MUNI|2016|12|22|15|35|40.3757|-120.5727|1264.6|0.0||1|FM15-METAR|223|ICAO-KSVE|-2.0||1|FM15-METAR|223|ICAO-KSVE|875.6||4|FM15-METAR|223|ICAO-KSVE|||||||999|C-Calm|9|FM15-METAR|223|ICAO-KSVE|0.0|C-Calm|1|FM15-METAR|223|ICAO-KSVE|||||||||||||87|Derived||FM15-METAR|223|ICAO-KSVE|-0.9|Derived||FM15-METAR|223|ICAO-KSVE|||||||||||||||||||||||||||||||||||||||||||||||||||||||||||||||||||1019.0||1|FM15-METAR|223|ICAO-KSVE|||||||||||||||||||||||||||||||||||||||||||MET065METAR KSVE 221535Z AUTO 00000KT 10SM OVC024 00/M02 A3009 RMK AO2=||F||223|ICAO-KSVE
USI0000KSVE|SUSANVILLE MUNI|2016|12|22|15|55|40.3757|-120.5727|1264.6|1.0||1|FM15-METAR|223|ICAO-KSVE|-2.0||1|FM15-METAR|223|ICAO-KSVE|875.6||4|FM15-METAR|223|ICAO-KSVE|||||||999|C-Calm|9|FM15-METAR|223|ICAO-KSVE|0.0|C-Calm|1|FM15-METAR|223|ICAO-KSVE|||||||||||||81|Derived||FM15-METAR|223|ICAO-KSVE|-0.2|Derived||FM15-METAR|223|ICAO-KSVE|||||||||||||||||||||||||||||||||||||||||||||||||||||||||||||||||||1019.0||1|FM15-METAR|223|ICAO-KSVE|||||||||||||||||||||||||||||||||||||||||||MET065METAR KSVE 221555Z AUTO 00000KT 10SM OVC024 01/M02 A3009 RMK AO2=||F||223|ICAO-KSVE
USI0000KSVE|SUSANVILLE MUNI|2016|12|22|16|15|40.3757|-120.5727|1264.6|1.0||1|FM15-METAR|223|ICAO-KSVE|-2.0||1|FM15-METAR|223|ICAO-KSVE|875.9||4|FM15-METAR|223|ICAO-KSVE|||||||999|C-Calm|9|FM15-METAR|223|ICAO-KSVE|0.0|C-Calm|1|FM15-METAR|223|ICAO-KSVE|||||||||||||81|Derived||FM15-METAR|223|ICAO-KSVE|-0.2|Derived||FM15-METAR|223|ICAO-KSVE|||||||||||||||||||||||||||||||||||||||||||||||||||||||||||||||||||1019.3||1|FM15-METAR|223|ICAO-KSVE|||||||||||||||||||||||||||||||||||||||||||MET065METAR KSVE 221615Z AUTO 00000KT 10SM OVC024 01/M02 A3010 RMK AO2=||F||223|ICAO-KSVE
USI0000KSVE|SUSANVILLE MUNI|2016|12|22|16|35|40.3757|-120.5727|1264.6|1.0||1|FM15-METAR|223|ICAO-KSVE|-2.0||1|FM15-METAR|223|ICAO-KSVE|875.9||4|FM15-METAR|223|ICAO-KSVE|||||||999|C-Calm|9|FM15-METAR|223|ICAO-KSVE|0.0|C-Calm|1|FM15-METAR|223|ICAO-KSVE|||||||||||||81|Derived||FM15-METAR|223|ICAO-KSVE|-0.2|Derived||FM15-METAR|223|ICAO-KSVE|||||||||||||||||||||||||||||||||||||||||||||||||||||||||||||||||||1019.3||1|FM15-METAR|223|ICAO-KSVE|||||||||||||||||||||||||||||||||||||||||||MET065METAR KSVE 221635Z AUTO 00000KT 10SM OVC024 01/M02 A3010 RMK AO2=||F||223|ICAO-KSVE
USI0000KSVE|SUSANVILLE MUNI|2016|12|22|16|55|40.3757|-120.5727|1264.6|1.0||1|FM15-METAR|223|ICAO-KSVE|-2.0||1|FM15-METAR|223|ICAO-KSVE|875.6||4|FM15-METAR|223|ICAO-KSVE|||||||999|C-Calm|9|FM15-METAR|223|ICAO-KSVE|0.0|C-Calm|1|FM15-METAR|223|ICAO-KSVE|||||||||||||81|Derived||FM15-METAR|223|ICAO-KSVE|-0.2|Derived||FM15-METAR|223|ICAO-KSVE|||||||||||||||||||||||||||||||||||||||||||||||||||||||||||||||||||1019.0||1|FM15-METAR|223|ICAO-KSVE|||||||||||||||||||||||||||||||||||||||||||MET064METAR KSVE 221655Z AUTO 00000KT 9SM OVC024 01/M02 A3009 RMK AO2=||F||223|ICAO-KSVE
USI0000KSVE|SUSANVILLE MUNI|2016|12|22|17|15|40.3757|-120.5727|1264.6|1.0||1|FM15-METAR|223|ICAO-KSVE|-3.0||1|FM15-METAR|223|ICAO-KSVE|875.9||4|FM15-METAR|223|ICAO-KSVE|||||||999|C-Calm|9|FM15-METAR|223|ICAO-KSVE|0.0|C-Calm|1|FM15-METAR|223|ICAO-KSVE|||||||||||||75|Derived||FM15-METAR|223|ICAO-KSVE|-0.4|Derived||FM15-METAR|223|ICAO-KSVE|||||||||||||||||||||||||||||||||||||||||||||||||||||||||||||||||||1019.3||1|FM15-METAR|223|ICAO-KSVE|||||||||||||||||||||||||||||||||||||||||||MET065METAR KSVE 221715Z AUTO 00000KT 10SM OVC024 01/M03 A3010 RMK AO2=||F||223|ICAO-KSVE
USI0000KSVE|SUSANVILLE MUNI|2016|12|22|17|35|40.3757|-120.5727|1264.6|2.0||1|FM15-METAR|223|ICAO-KSVE|-5.0||1|FM15-METAR|223|ICAO-KSVE|875.9||4|FM15-METAR|223|ICAO-KSVE|||||||999|C-Calm|9|FM15-METAR|223|ICAO-KSVE|0.0|C-Calm|1|FM15-METAR|223|ICAO-KSVE|||||||||||||60|Derived||FM15-METAR|223|ICAO-KSVE|-0.6|Derived||FM15-METAR|223|ICAO-KSVE|||||||||||||||||||||||||||||||||||||||||||||||||||||||||||||||||||1019.3||1|FM15-METAR|223|ICAO-KSVE|||||||||||||||||||||||||||||||||||||||||||MET065METAR KSVE 221735Z AUTO 00000KT 10SM OVC024 02/M05 A3010 RMK AO2=||F||223|ICAO-KSVE
USI0000KSVE|SUSANVILLE MUNI|2016|12|22|17|55|40.3757|-120.5727|1264.6|2.0||1|FM15-METAR|223|ICAO-KSVE|-6.0||1|FM15-METAR|223|ICAO-KSVE|876.2||4|FM15-METAR|223|ICAO-KSVE|||||||999|C-Calm|9|FM15-METAR|223|ICAO-KSVE|0.0|C-Calm|1|FM15-METAR|223|ICAO-KSVE|||||||||||||56|Derived||FM15-METAR|223|ICAO-KSVE|-1.0|Derived||FM15-METAR|223|ICAO-KSVE|||||||||||||||||||||||||||||||||||||||||||||||||||||||||||||||||||1019.6||1|FM15-METAR|223|ICAO-KSVE|||||||||||||||||||||||||||||||||||||||||||MET065METAR KSVE 221755Z AUTO 00000KT 10SM OVC022 02/M06 A3011 RMK AO2=||F||223|ICAO-KSVE
USI0000KSVE|SUSANVILLE MUNI|2016|12|22|18|15|40.3757|-120.5727|1264.6|2.0||1|FM15-METAR|223|ICAO-KSVE|-5.0||1|FM15-METAR|223|ICAO-KSVE|876.2||4|FM15-METAR|223|ICAO-KSVE|||||||999|C-Calm|9|FM15-METAR|223|ICAO-KSVE|0.0|C-Calm|1|FM15-METAR|223|ICAO-KSVE|||||||||||||60|Derived||FM15-METAR|223|ICAO-KSVE|-0.6|Derived||FM15-METAR|223|ICAO-KSVE|||||||||||||||||||||||||||||||||||||||||||||||||||||||||||||||||||1019.6||1|FM15-METAR|223|ICAO-KSVE|||||||||||||||||||||||||||||||||||||||||||MET065METAR KSVE 221815Z AUTO 00000KT 10SM OVC022 02/M05 A3011 RMK AO2=||F||223|ICAO-KSVE
USI0000KSVE|SUSANVILLE MUNI|2016|12|22|18|35|40.3757|-120.5727|1264.6|2.0||1|FM15-METAR|223|ICAO-KSVE|-5.0||1|FM15-METAR|223|ICAO-KSVE|875.9||4|FM15-METAR|223|ICAO-KSVE|||||||999|C-Calm|9|FM15-METAR|223|ICAO-KSVE|0.0|C-Calm|1|FM15-METAR|223|ICAO-KSVE|||||||||||||60|Derived||FM15-METAR|223|ICAO-KSVE|-0.6|Derived||FM15-METAR|223|ICAO-KSVE|||||||||||||||||||||||||||||||||||||||||||||||||||||||||||||||||||1019.3||1|FM15-METAR|223|ICAO-KSVE|||||||||||||||||||||||||||||||||||||||||||MET065METAR KSVE 221835Z AUTO 00000KT 10SM OVC022 02/M05 A3010 RMK AO2=||F||223|ICAO-KSVE
USI0000KSVE|SUSANVILLE MUNI|2016|12|22|18|55|40.3757|-120.5727|1264.6|3.0||1|FM15-METAR|223|ICAO-KSVE|-4.0||1|FM15-METAR|223|ICAO-KSVE|875.9||4|FM15-METAR|223|ICAO-KSVE|||||||999|C-Calm|9|FM15-METAR|223|ICAO-KSVE|0.0|C-Calm|1|FM15-METAR|223|ICAO-KSVE|||||||||||||60|Derived||FM15-METAR|223|ICAO-KSVE|0.1|Derived||FM15-METAR|223|ICAO-KSVE|||||||||||||||||||||||||||||||||||||||||||||||||||||||||||||||||||1019.3||1|FM15-METAR|223|ICAO-KSVE|||||||||||||||||||||||||||||||||||||||||||MET065METAR KSVE 221855Z AUTO 00000KT 10SM OVC022 03/M04 A3010 RMK AO2=||F||223|ICAO-KSVE
USI0000KSVE|SUSANVILLE MUNI|2016|12|22|19|15|40.3757|-120.5727|1264.6|3.0||1|FM15-METAR|223|ICAO-KSVE|-3.0||1|FM15-METAR|223|ICAO-KSVE|875.6||4|FM15-METAR|223|ICAO-KSVE|||||||300|N-Normal|1|FM15-METAR|223|ICAO-KSVE|1.5|N-Normal|1|FM15-METAR|223|ICAO-KSVE|||||||||||||65|Derived||FM15-METAR|223|ICAO-KSVE|0.5|Derived||FM15-METAR|223|ICAO-KSVE|||||||||||||||||||||||||||||||||||||||||||||||||||||||||||||||||||1019.0||1|FM15-METAR|223|ICAO-KSVE|||||||||||||||||||||||||||||||||||||||||||MET064METAR KSVE 221915Z AUTO 30003KT 9SM OVC022 03/M03 A3009 RMK AO2=||F||223|ICAO-KSVE
USI0000KSVE|SUSANVILLE MUNI|2016|12|22|19|35|40.3757|-120.5727|1264.6|3.0||1|FM15-METAR|223|ICAO-KSVE|-2.0||1|FM15-METAR|223|ICAO-KSVE|875.3||4|FM15-METAR|223|ICAO-KSVE|||||||999|C-Calm|9|FM15-METAR|223|ICAO-KSVE|0.0|C-Calm|1|FM15-METAR|223|ICAO-KSVE|||||||||||||70|Derived||FM15-METAR|223|ICAO-KSVE|0.7|Derived||FM15-METAR|223|ICAO-KSVE|||||||||||||||||||||||||||||||||||||||||||||||||||||||||||||||||||1018.6||1|FM15-METAR|223|ICAO-KSVE|||||||||||||||||||||||||||||||||||||||||||MET065METAR KSVE 221935Z AUTO 00000KT 10SM SCT022 03/M02 A3008 RMK AO2=||F||223|ICAO-KSVE
USI0000KSVE|SUSANVILLE MUNI|2016|12|22|19|55|40.3757|-120.5727|1264.6|3.0||1|FM15-METAR|223|ICAO-KSVE|-2.0||1|FM15-METAR|223|ICAO-KSVE|874.4||4|FM15-METAR|223|ICAO-KSVE|||||||110|N-Normal|1|FM15-METAR|223|ICAO-KSVE|1.5|N-Normal|1|FM15-METAR|223|ICAO-KSVE|||||||||||||70|Derived||FM15-METAR|223|ICAO-KSVE|0.7|Derived||FM15-METAR|223|ICAO-KSVE|||||||||||||||||||||||||||||||||||||||||||||||||||||||||||||||||||1017.6||1|FM15-METAR|223|ICAO-KSVE|||||||||||||||||||||||||||||||||||||||||||MET062METAR KSVE 221955Z AUTO 11003KT 10SM CLR 03/M02 A3005 RMK AO2=||F||223|ICAO-KSVE
USI0000KSVE|SUSANVILLE MUNI|2016|12|22|20|15|40.3757|-120.5727|1264.6|3.0||1|FM15-METAR|223|ICAO-KSVE|-2.0||1|FM15-METAR|223|ICAO-KSVE|874.1||4|FM15-METAR|223|ICAO-KSVE|||||||080|N-Normal|1|FM15-METAR|223|ICAO-KSVE|2.1|N-Normal|1|FM15-METAR|223|ICAO-KSVE|||||||||||||70|Derived||FM15-METAR|223|ICAO-KSVE|0.7|Derived||FM15-METAR|223|ICAO-KSVE|||||||||||||||||||||||||||||||||||||||||||||||||||||||||||||||||||1017.3||1|FM15-METAR|223|ICAO-KSVE|||||||||||||||||||||||||||||||||||||||||||MET062METAR KSVE 222015Z AUTO 08004KT 10SM CLR 03/M02 A3004 RMK AO2=||F||223|ICAO-KSVE
USI0000KSVE|SUSANVILLE MUNI|2016|12|22|20|35|40.3757|-120.5727|1264.6|3.0||1|FM15-METAR|223|ICAO-KSVE|-2.0||1|FM15-METAR|223|ICAO-KSVE|873.8||4|FM15-METAR|223|ICAO-KSVE|||||||999|C-Calm|9|FM15-METAR|223|ICAO-KSVE|0.0|C-Calm|1|FM15-METAR|223|ICAO-KSVE|||||||||||||70|Derived||FM15-METAR|223|ICAO-KSVE|0.7|Derived||FM15-METAR|223|ICAO-KSVE|||||||||||||||||||||||||||||||||||||||||||||||||||||||||||||||||||1016.9||1|FM15-METAR|223|ICAO-KSVE|||||||||||||||||||||||||||||||||||||||||||MET062METAR KSVE 222035Z AUTO 00000KT 10SM CLR 03/M02 A3003 RMK AO2=||F||223|ICAO-KSVE
USI0000KSVE|SUSANVILLE MUNI|2016|12|22|20|55|40.3757|-120.5727|1264.6|4.0||1|FM15-METAR|223|ICAO-KSVE|-2.0||1|FM15-METAR|223|ICAO-KSVE|873.8||4|FM15-METAR|223|ICAO-KSVE|||||||070|N-Normal|1|FM15-METAR|223|ICAO-KSVE|1.5|N-Normal|1|FM15-METAR|223|ICAO-KSVE|||||||||||||65|Derived||FM15-METAR|223|ICAO-KSVE|1.3|Derived||FM15-METAR|223|ICAO-KSVE|||||||||||||||||||||||||||||||||||||||||||||||||||||||||||||||||||1016.9||1|FM15-METAR|223|ICAO-KSVE|||||||||||||||||||||||||||||||||||||||||||MET062METAR KSVE 222055Z AUTO 07003KT 10SM CLR 04/M02 A3003 RMK AO2=||F||223|ICAO-KSVE
USI0000KSVE|SUSANVILLE MUNI|2016|12|22|21|15|40.3757|-120.5727|1264.6|4.0||1|FM15-METAR|223|ICAO-KSVE|-2.0||1|FM15-METAR|223|ICAO-KSVE|873.5||4|FM15-METAR|223|ICAO-KSVE|||||||110|N-Normal|1|FM15-METAR|223|ICAO-KSVE|1.5|N-Normal|1|FM15-METAR|223|ICAO-KSVE|||||||||||||65|Derived||FM15-METAR|223|ICAO-KSVE|1.3|Derived||FM15-METAR|223|ICAO-KSVE|||||||||||||||||||||||||||||||||||||||||||||||||||||||||||||||||||1016.6||1|FM15-METAR|223|ICAO-KSVE|||||||||||||||||||||||||||||||||||||||||||MET062METAR KSVE 222115Z AUTO 11003KT 10SM CLR 04/M02 A3002 RMK AO2=||F||223|ICAO-KSVE
USI0000KSVE|SUSANVILLE MUNI|2016|12|22|21|35|40.3757|-120.5727|1264.6|4.0||1|FM15-METAR|223|ICAO-KSVE|-2.0||1|FM15-METAR|223|ICAO-KSVE|873.2||4|FM15-METAR|223|ICAO-KSVE|||||||999|C-Calm|9|FM15-METAR|223|ICAO-KSVE|0.0|C-Calm|1|FM15-METAR|223|ICAO-KSVE|||||||||||||65|Derived||FM15-METAR|223|ICAO-KSVE|1.3|Derived||FM15-METAR|223|ICAO-KSVE|||||||||||||||||||||||||||||||||||||||||||||||||||||||||||||||||||1016.3||1|FM15-METAR|223|ICAO-KSVE|||||||||||||||||||||||||||||||||||||||||||MET062METAR KSVE 222135Z AUTO 00000KT 10SM CLR 04/M02 A3001 RMK AO2=||F||223|ICAO-KSVE
USI0000KSVE|SUSANVILLE MUNI|2016|12|22|21|55|40.3757|-120.5727|1264.6|4.0||1|FM15-METAR|223|ICAO-KSVE|-2.0||1|FM15-METAR|223|ICAO-KSVE|873.2||4|FM15-METAR|223|ICAO-KSVE|||||||999|C-Calm|9|FM15-METAR|223|ICAO-KSVE|0.0|C-Calm|1|FM15-METAR|223|ICAO-KSVE|||||||||||||65|Derived||FM15-METAR|223|ICAO-KSVE|1.3|Derived||FM15-METAR|223|ICAO-KSVE|||||||||||||||||||||||||||||||||||||||||||||||||||||||||||||||||||1016.3||1|FM15-METAR|223|ICAO-KSVE|||||||||||||||||||||||||||||||||||||||||||MET062METAR KSVE 222155Z AUTO 00000KT 10SM CLR 04/M02 A3001 RMK AO2=||F||223|ICAO-KSVE
USI0000KSVE|SUSANVILLE MUNI|2016|12|22|22|15|40.3757|-120.5727|1264.6|5.0||1|FM15-METAR|223|ICAO-KSVE|-1.0||1|FM15-METAR|223|ICAO-KSVE|872.9||4|FM15-METAR|223|ICAO-KSVE|||||||999|C-Calm|9|FM15-METAR|223|ICAO-KSVE|0.0|C-Calm|1|FM15-METAR|223|ICAO-KSVE|||||||||||||66|Derived||FM15-METAR|223|ICAO-KSVE|2.4|Derived||FM15-METAR|223|ICAO-KSVE|||||||||||||||||||||||||||||||||||||||||||||||||||||||||||||||||||1015.9||1|FM15-METAR|223|ICAO-KSVE|||||||||||||||||||||||||||||||||||||||||||MET062METAR KSVE 222215Z AUTO 00000KT 10SM CLR 05/M01 A3000 RMK AO2=||F||223|ICAO-KSVE
USI0000KSVE|SUSANVILLE MUNI|2016|12|22|22|35|40.3757|-120.5727|1264.6|5.0||1|FM15-METAR|223|ICAO-KSVE|-1.0||1|FM15-METAR|223|ICAO-KSVE|872.6||4|FM15-METAR|223|ICAO-KSVE|||||||080|N-Normal|1|FM15-METAR|223|ICAO-KSVE|1.5|N-Normal|1|FM15-METAR|223|ICAO-KSVE|||||||||||||66|Derived||FM15-METAR|223|ICAO-KSVE|2.4|Derived||FM15-METAR|223|ICAO-KSVE|||||||||||||||||||||||||||||||||||||||||||||||||||||||||||||||||||1015.6||1|FM15-METAR|223|ICAO-KSVE|||||||||||||||||||||||||||||||||||||||||||MET062METAR KSVE 222235Z AUTO 08003KT 10SM CLR 05/M01 A2999 RMK AO2=||F||223|ICAO-KSVE
USI0000KSVE|SUSANVILLE MUNI|2016|12|22|22|55|40.3757|-120.5727|1264.6|4.0||1|FM15-METAR|223|ICAO-KSVE|-1.0||1|FM15-METAR|223|ICAO-KSVE|872.6||4|FM15-METAR|223|ICAO-KSVE|||||||999|C-Calm|9|FM15-METAR|223|ICAO-KSVE|0.0|C-Calm|1|FM15-METAR|223|ICAO-KSVE|||||||||||||70|Derived||FM15-METAR|223|ICAO-KSVE|1.8|Derived||FM15-METAR|223|ICAO-KSVE|||||||||||||||||||||||||||||||||||||||||||||||||||||||||||||||||||1015.6||1|FM15-METAR|223|ICAO-KSVE|||||||||||||||||||||||||||||||||||||||||||MET062METAR KSVE 222255Z AUTO 00000KT 10SM CLR 04/M01 A2999 RMK AO2=||F||223|ICAO-KSVE
USI0000KSVE|SUSANVILLE MUNI|2016|12|22|23|15|40.3757|-120.5727|1264.6|5.0||1|FM15-METAR|223|ICAO-KSVE|-1.0||1|FM15-METAR|223|ICAO-KSVE|872.6||4|FM15-METAR|223|ICAO-KSVE|||||||999|C-Calm|9|FM15-METAR|223|ICAO-KSVE|0.0|C-Calm|1|FM15-METAR|223|ICAO-KSVE|||||||||||||66|Derived||FM15-METAR|223|ICAO-KSVE|2.4|Derived||FM15-METAR|223|ICAO-KSVE|||||||||||||||||||||||||||||||||||||||||||||||||||||||||||||||||||1015.6||1|FM15-METAR|223|ICAO-KSVE|||||||||||||||||||||||||||||||||||||||||||MET062METAR KSVE 222315Z AUTO 00000KT 10SM CLR 05/M01 A2999 RMK AO2=||F||223|ICAO-KSVE
USI0000KSVE|SUSANVILLE MUNI|2016|12|22|23|35|40.3757|-120.5727|1264.6|4.0||1|FM15-METAR|223|ICAO-KSVE|-1.0||1|FM15-METAR|223|ICAO-KSVE|872.3||4|FM15-METAR|223|ICAO-KSVE|||||||120|N-Normal|1|FM15-METAR|223|ICAO-KSVE|1.5|N-Normal|1|FM15-METAR|223|ICAO-KSVE|||||||||||||70|Derived||FM15-METAR|223|ICAO-KSVE|1.8|Derived||FM15-METAR|223|ICAO-KSVE|||||||||||||||||||||||||||||||||||||||||||||||||||||||||||||||||||1015.2||1|FM15-METAR|223|ICAO-KSVE|||||||||||||||||||||||||||||||||||||||||||MET062METAR KSVE 222335Z AUTO 12003KT 10SM CLR 04/M01 A2998 RMK AO2=||F||223|ICAO-KSVE
USI0000KSVE|SUSANVILLE MUNI|2016|12|22|23|55|40.3757|-120.5727|1264.6|4.0||1|FM15-METAR|223|ICAO-KSVE|-1.0||1|FM15-METAR|223|ICAO-KSVE|872.6||4|FM15-METAR|223|ICAO-KSVE|||||||999|C-Calm|9|FM15-METAR|223|ICAO-KSVE|0.0|C-Calm|1|FM15-METAR|223|ICAO-KSVE|||||||||||||70|Derived||FM15-METAR|223|ICAO-KSVE|1.8|Derived||FM15-METAR|223|ICAO-KSVE|||||||||||||||||||||||||||||||||||||||||||||||||||||||||||||||||||1015.6||1|FM15-METAR|223|ICAO-KSVE|||||||||||||||||||||||||||||||||||||||||||MET062METAR KSVE 222355Z AUTO 00000KT 10SM CLR 04/M01 A2999 RMK AO2=||F||223|ICAO-KSVE
USI0000KSVE|SUSANVILLE MUNI|2016|12|23|00|15|40.3757|-120.5727|1264.6|4.0||1|FM15-METAR|223|ICAO-KSVE|-1.0||1|FM15-METAR|223|ICAO-KSVE|872.3||4|FM15-METAR|223|ICAO-KSVE|||||||120|N-Normal|1|FM15-METAR|223|ICAO-KSVE|1.5|N-Normal|1|FM15-METAR|223|ICAO-KSVE|||||||||||||70|Derived||FM15-METAR|223|ICAO-KSVE|1.8|Derived||FM15-METAR|223|ICAO-KSVE|||||||||||||||||||||||||||||||||||||||||||||||||||||||||||||||||||1015.2||1|FM15-METAR|223|ICAO-KSVE|||||||||||||||||||||||||||||||||||||||||||MET062METAR KSVE 230015Z AUTO 12003KT 10SM CLR 04/M01 A2998 RMK AO2=||F||223|ICAO-KSVE
USI0000KSVE|SUSANVILLE MUNI|2016|12|23|00|35|40.3757|-120.5727|1264.6|2.0||1|FM15-METAR|223|ICAO-KSVE|-2.0||1|FM15-METAR|223|ICAO-KSVE|872.3||4|FM15-METAR|223|ICAO-KSVE|||||||999|C-Calm|9|FM15-METAR|223|ICAO-KSVE|0.0|C-Calm|1|FM15-METAR|223|ICAO-KSVE|||||||||||||75|Derived||FM15-METAR|223|ICAO-KSVE|0.4|Derived||FM15-METAR|223|ICAO-KSVE|||||||||||||||||||||||||||||||||||||||||||||||||||||||||||||||||||1015.2||1|FM15-METAR|223|ICAO-KSVE|||||||||||||||||||||||||||||||||||||||||||MET062METAR KSVE 230035Z AUTO 00000KT 10SM CLR 02/M02 A2998 RMK AO2=||F||223|ICAO-KSVE
USI0000KSVE|SUSANVILLE MUNI|2016|12|23|00|55|40.3757|-120.5727|1264.6|1.0||1|FM15-METAR|223|ICAO-KSVE|-2.0||1|FM15-METAR|223|ICAO-KSVE|872.3||4|FM15-METAR|223|ICAO-KSVE|||||||999|C-Calm|9|FM15-METAR|223|ICAO-KSVE|0.0|C-Calm|1|FM15-METAR|223|ICAO-KSVE|||||||||||||81|Derived||FM15-METAR|223|ICAO-KSVE|-0.2|Derived||FM15-METAR|223|ICAO-KSVE|||||||||||||||||||||||||||||||||||||||||||||||||||||||||||||||||||1015.2||1|FM15-METAR|223|ICAO-KSVE|||||||||||||||||||||||||||||||||||||||||||MET062METAR KSVE 230055Z AUTO 00000KT 10SM CLR 01/M02 A2998 RMK AO2=||F||223|ICAO-KSVE
USI0000KSVE|SUSANVILLE MUNI|2016|12|23|01|15|40.3757|-120.5727|1264.6|1.0||1|FM15-METAR|223|ICAO-KSVE|-2.0||1|FM15-METAR|223|ICAO-KSVE|872.6||4|FM15-METAR|223|ICAO-KSVE|||||||200|N-Normal|1|FM15-METAR|223|ICAO-KSVE|1.5|N-Normal|1|FM15-METAR|223|ICAO-KSVE|||||||||||||81|Derived||FM15-METAR|223|ICAO-KSVE|-0.2|Derived||FM15-METAR|223|ICAO-KSVE|||||||||||||||||||||||||||||||||||||||||||||||||||||||||||||||||||1015.6||1|FM15-METAR|223|ICAO-KSVE|||||||||||||||||||||||||||||||||||||||||||MET062METAR KSVE 230115Z AUTO 20003KT 10SM CLR 01/M02 A2999 RMK AO2=||F||223|ICAO-KSVE
USI0000KSVE|SUSANVILLE MUNI|2016|12|23|01|35|40.3757|-120.5727|1264.6|0.0||1|FM15-METAR|223|ICAO-KSVE|-2.0||1|FM15-METAR|223|ICAO-KSVE|872.6||4|FM15-METAR|223|ICAO-KSVE|||||||290|N-Normal|1|FM15-METAR|223|ICAO-KSVE|1.5|N-Normal|1|FM15-METAR|223|ICAO-KSVE|||||||||||||87|Derived||FM15-METAR|223|ICAO-KSVE|-0.9|Derived||FM15-METAR|223|ICAO-KSVE|||||||||||||||||||||||||||||||||||||||||||||||||||||||||||||||||||1015.6||1|FM15-METAR|223|ICAO-KSVE|||||||||||||||||||||||||||||||||||||||||||MET062METAR KSVE 230135Z AUTO 29003KT 10SM CLR 00/M02 A2999 RMK AO2=||F||223|ICAO-KSVE
USI0000KSVE|SUSANVILLE MUNI|2016|12|23|01|55|40.3757|-120.5727|1264.6|0.0||1|FM15-METAR|223|ICAO-KSVE|-2.0||1|FM15-METAR|223|ICAO-KSVE|872.3||4|FM15-METAR|223|ICAO-KSVE|||||||290|N-Normal|1|FM15-METAR|223|ICAO-KSVE|1.5|N-Normal|1|FM15-METAR|223|ICAO-KSVE|||||||||||||87|Derived||FM15-METAR|223|ICAO-KSVE|-0.9|Derived||FM15-METAR|223|ICAO-KSVE|||||||||||||||||||||||||||||||||||||||||||||||||||||||||||||||||||1015.2||1|FM15-METAR|223|ICAO-KSVE|||||||||||||||||||||||||||||||||||||||||||MET062METAR KSVE 230155Z AUTO 29003KT 10SM CLR 00/M02 A2998 RMK AO2=||F||223|ICAO-KSVE
USI0000KSVE|SUSANVILLE MUNI|2016|12|23|02|15|40.3757|-120.5727|1264.6|0.0||1|FM15-METAR|223|ICAO-KSVE|-2.0||1|FM15-METAR|223|ICAO-KSVE|872.3||4|FM15-METAR|223|ICAO-KSVE|||||||290|N-Normal|1|FM15-METAR|223|ICAO-KSVE|2.6|N-Normal|1|FM15-METAR|223|ICAO-KSVE|||||||||||||87|Derived||FM15-METAR|223|ICAO-KSVE|-0.9|Derived||FM15-METAR|223|ICAO-KSVE|||||||||||||||||||||||||||||||||||||||||||||||||||||||||||||||||||1015.2||1|FM15-METAR|223|ICAO-KSVE|||||||||||||||||||||||||||||||||||||||||||MET062METAR KSVE 230215Z AUTO 29005KT 10SM CLR 00/M02 A2998 RMK AO2=||F||223|ICAO-KSVE
USI0000KSVE|SUSANVILLE MUNI|2016|12|23|02|35|40.3757|-120.5727|1264.6|-1.0||1|FM15-METAR|223|ICAO-KSVE|-2.0||1|FM15-METAR|223|ICAO-KSVE|872.3||4|FM15-METAR|223|ICAO-KSVE|||||||280|N-Normal|1|FM15-METAR|223|ICAO-KSVE|1.5|N-Normal|1|FM15-METAR|223|ICAO-KSVE|||||||||||||93|Derived||FM15-METAR|223|ICAO-KSVE|-1.6|Derived||FM15-METAR|223|ICAO-KSVE|||||||||||||||||||||||||||||||||||||||||||||||||||||||||||||||||||1015.2||1|FM15-METAR|223|ICAO-KSVE|||||||||||||||||||||||||||||||||||||||||||MET063METAR KSVE 230235Z AUTO 28003KT 10SM CLR M01/M02 A2998 RMK AO2=||F||223|ICAO-KSVE
USI0000KSVE|SUSANVILLE MUNI|2016|12|23|02|55|40.3757|-120.5727|1264.6|-1.0||1|FM15-METAR|223|ICAO-KSVE|-3.0||1|FM15-METAR|223|ICAO-KSVE|872.6||4|FM15-METAR|223|ICAO-KSVE|||||||270|N-Normal|1|FM15-METAR|223|ICAO-KSVE|2.6|N-Normal|1|FM15-METAR|223|ICAO-KSVE|||||||||||||86|Derived||FM15-METAR|223|ICAO-KSVE|-1.8|Derived||FM15-METAR|223|ICAO-KSVE|||||||||||||||||||||||||||||||||||||||||||||||||||||||||||||||||||1015.6||1|FM15-METAR|223|ICAO-KSVE|||||||||||||||||||||||||||||||||||||||||||MET062METAR KSVE 230255Z AUTO 27005KT 9SM CLR M01/M03 A2999 RMK AO2=||F||223|ICAO-KSVE
USI0000KSVE|SUSANVILLE MUNI|2016|12|23|03|15|40.3757|-120.5727|1264.6|-1.0||1|FM15-METAR|223|ICAO-KSVE|-2.0||1|FM15-METAR|223|ICAO-KSVE|872.3||4|FM15-METAR|223|ICAO-KSVE|||||||999|C-Calm|9|FM15-METAR|223|ICAO-KSVE|0.0|C-Calm|1|FM15-METAR|223|ICAO-KSVE|||||||||||||93|Derived||FM15-METAR|223|ICAO-KSVE|-1.6|Derived||FM15-METAR|223|ICAO-KSVE|||||||||||||||||||||||||||||||||||||||||||||||||||||||||||||||||||1015.2||1|FM15-METAR|223|ICAO-KSVE|||||||||||||||||||||||||||||||||||||||||||MET063METAR KSVE 230315Z AUTO 00000KT 10SM CLR M01/M02 A2998 RMK AO2=||F||223|ICAO-KSVE
USI0000KSVE|SUSANVILLE MUNI|2016|12|23|03|35|40.3757|-120.5727|1264.6|-1.0||1|FM15-METAR|223|ICAO-KSVE|-3.0||1|FM15-METAR|223|ICAO-KSVE|872.3||4|FM15-METAR|223|ICAO-KSVE|||||||260|N-Normal|1|FM15-METAR|223|ICAO-KSVE|1.5|N-Normal|1|FM15-METAR|223|ICAO-KSVE|||||||||||||86|Derived||FM15-METAR|223|ICAO-KSVE|-1.8|Derived||FM15-METAR|223|ICAO-KSVE|||||||||||||||||||||||||||||||||||||||||||||||||||||||||||||||||||1015.2||1|FM15-METAR|223|ICAO-KSVE|||||||||||||||||||||||||||||||||||||||||||MET063METAR KSVE 230335Z AUTO 26003KT 10SM CLR M01/M03 A2998 RMK AO2=||F||223|ICAO-KSVE
USI0000KSVE|SUSANVILLE MUNI|2016|12|23|03|55|40.3757|-120.5727|1264.6|-1.0||1|FM15-METAR|223|ICAO-KSVE|-2.0||1|FM15-METAR|223|ICAO-KSVE|872.3||4|FM15-METAR|223|ICAO-KSVE|||||||280|N-Normal|1|FM15-METAR|223|ICAO-KSVE|2.6|N-Normal|1|FM15-METAR|223|ICAO-KSVE|||||||||||||93|Derived||FM15-METAR|223|ICAO-KSVE|-1.6|Derived||FM15-METAR|223|ICAO-KSVE|||||||||||||||||||||||||||||||||||||||||||||||||||||||||||||||||||1015.2||1|FM15-METAR|223|ICAO-KSVE|||||||||||||||||||||||||||||||||||||||||||MET063METAR KSVE 230355Z AUTO 28005KT 10SM CLR M01/M02 A2998 RMK AO2=||F||223|ICAO-KSVE
USI0000KSVE|SUSANVILLE MUNI|2016|12|23|04|15|40.3757|-120.5727|1264.6|-1.0||1|FM15-METAR|223|ICAO-KSVE|-3.0||1|FM15-METAR|223|ICAO-KSVE|872.3||4|FM15-METAR|223|ICAO-KSVE|||||||280|N-Normal|1|FM15-METAR|223|ICAO-KSVE|2.1|N-Normal|1|FM15-METAR|223|ICAO-KSVE|||||||||||||86|Derived||FM15-METAR|223|ICAO-KSVE|-1.8|Derived||FM15-METAR|223|ICAO-KSVE|||||||||||||||||||||||||||||||||||||||||||||||||||||||||||||||||||1015.2||1|FM15-METAR|223|ICAO-KSVE|||||||||||||||||||||||||||||||||||||||||||MET063METAR KSVE 230415Z AUTO 28004KT 10SM CLR M01/M03 A2998 RMK AO2=||F||223|ICAO-KSVE
USI0000KSVE|SUSANVILLE MUNI|2016|12|23|04|35|40.3757|-120.5727|1264.6|-1.0||1|FM15-METAR|223|ICAO-KSVE|-3.0||1|FM15-METAR|223|ICAO-KSVE|872.3||4|FM15-METAR|223|ICAO-KSVE|||||||340|N-Normal|1|FM15-METAR|223|ICAO-KSVE|1.5|N-Normal|1|FM15-METAR|223|ICAO-KSVE|||||||||||||86|Derived||FM15-METAR|223|ICAO-KSVE|-1.8|Derived||FM15-METAR|223|ICAO-KSVE|||||||||||||||||||||||||||||||||||||||||||||||||||||||||||||||||||1015.2||1|FM15-METAR|223|ICAO-KSVE|||||||||||||||||||||||||||||||||||||||||||MET063METAR KSVE 230435Z AUTO 34003KT 10SM CLR M01/M03 A2998 RMK AO2=||F||223|ICAO-KSVE
USI0000KSVE|SUSANVILLE MUNI|2016|12|23|04|55|40.3757|-120.5727|1264.6|-2.0||1|FM15-METAR|223|ICAO-KSVE|-3.0||1|FM15-METAR|223|ICAO-KSVE|872.0||4|FM15-METAR|223|ICAO-KSVE|||||||999|C-Calm|9|FM15-METAR|223|ICAO-KSVE|0.0|C-Calm|1|FM15-METAR|223|ICAO-KSVE|||||||||||||93|Derived||FM15-METAR|223|ICAO-KSVE|-2.4|Derived||FM15-METAR|223|ICAO-KSVE|||||||||||||||||||||||||||||||||||||||||||||||||||||||||||||||||||1014.9||1|FM15-METAR|223|ICAO-KSVE|||||||||||||||||||||||||||||||||||||||||||MET063METAR KSVE 230455Z AUTO 00000KT 10SM CLR M02/M03 A2997 RMK AO2=||F||223|ICAO-KSVE
USI0000KSVE|SUSANVILLE MUNI|2016|12|23|05|15|40.3757|-120.5727|1264.6|-2.0||1|FM15-METAR|223|ICAO-KSVE|-3.0||1|FM15-METAR|223|ICAO-KSVE|872.0||4|FM15-METAR|223|ICAO-KSVE|||||||310|N-Normal|1|FM15-METAR|223|ICAO-KSVE|1.5|N-Normal|1|FM15-METAR|223|ICAO-KSVE|||||||||||||93|Derived||FM15-METAR|223|ICAO-KSVE|-2.4|Derived||FM15-METAR|223|ICAO-KSVE|||||||||||||||||||||||||||||||||||||||||||||||||||||||||||||||||||1014.9||1|FM15-METAR|223|ICAO-KSVE|||||||||||||||||||||||||||||||||||||||||||MET062METAR KSVE 230515Z AUTO 31003KT 9SM CLR M02/M03 A2997 RMK AO2=||F||223|ICAO-KSVE
USI0000KSVE|SUSANVILLE MUNI|2016|12|23|05|35|40.3757|-120.5727|1264.6|-2.0||1|FM15-METAR|223|ICAO-KSVE|-3.0||1|FM15-METAR|223|ICAO-KSVE|872.0||4|FM15-METAR|223|ICAO-KSVE|||||||290|N-Normal|1|FM15-METAR|223|ICAO-KSVE|2.1|N-Normal|1|FM15-METAR|223|ICAO-KSVE|||||||||||||93|Derived||FM15-METAR|223|ICAO-KSVE|-2.4|Derived||FM15-METAR|223|ICAO-KSVE|||||||||||||||||||||||||||||||||||||||||||||||||||||||||||||||||||1014.9||1|FM15-METAR|223|ICAO-KSVE|||||||||||||||||||||||||||||||||||||||||||MET062METAR KSVE 230535Z AUTO 29004KT 7SM CLR M02/M03 A2997 RMK AO2=||F||223|ICAO-KSVE
USI0000KSVE|SUSANVILLE MUNI|2016|12|23|05|55|40.3757|-120.5727|1264.6|-2.0||1|FM15-METAR|223|ICAO-KSVE|-3.0||1|FM15-METAR|223|ICAO-KSVE|872.0||4|FM15-METAR|223|ICAO-KSVE|||||||290|N-Normal|1|FM15-METAR|223|ICAO-KSVE|1.5|N-Normal|1|FM15-METAR|223|ICAO-KSVE|||||||||||||93|Derived||FM15-METAR|223|ICAO-KSVE|-2.4|Derived||FM15-METAR|223|ICAO-KSVE|||||||||||||||||||||||||||||||||||||||||||||||||||||||||||||||||||1014.9||1|FM15-METAR|223|ICAO-KSVE|||||||||||||||||||||||||||||||||||||||||||MET062METAR KSVE 230555Z AUTO 29003KT 8SM CLR M02/M03 A2997 RMK AO2=||F||223|ICAO-KSVE
USI0000KSVE|SUSANVILLE MUNI|2016|12|23|06|15|40.3757|-120.5727|1264.6|-2.0||1|FM15-METAR|223|ICAO-KSVE|-3.0||1|FM15-METAR|223|ICAO-KSVE|872.0||4|FM15-METAR|223|ICAO-KSVE|||||||300|N-Normal|1|FM15-METAR|223|ICAO-KSVE|1.5|N-Normal|1|FM15-METAR|223|ICAO-KSVE|||||||||||||93|Derived||FM15-METAR|223|ICAO-KSVE|-2.4|Derived||FM15-METAR|223|ICAO-KSVE|||||||||||||||||||||||||||||||||||||||||||||||||||||||||||||||||||1014.9||1|FM15-METAR|223|ICAO-KSVE|||||||||||||||||||||||||||||||||||||||||||MET062METAR KSVE 230615Z AUTO 30003KT 9SM CLR M02/M03 A2997 RMK AO2=||F||223|ICAO-KSVE
USI0000KSVE|SUSANVILLE MUNI|2016|12|23|06|35|40.3757|-120.5727|1264.6|-2.0||1|FM15-METAR|223|ICAO-KSVE|-3.0||1|FM15-METAR|223|ICAO-KSVE|872.0||4|FM15-METAR|223|ICAO-KSVE|||||||240|N-Normal|1|FM15-METAR|223|ICAO-KSVE|1.5|N-Normal|1|FM15-METAR|223|ICAO-KSVE|||||||||||||93|Derived||FM15-METAR|223|ICAO-KSVE|-2.4|Derived||FM15-METAR|223|ICAO-KSVE|||||||||||||||||||||||||||||||||||||||||||||||||||||||||||||||||||1014.9||1|FM15-METAR|223|ICAO-KSVE|||||||||||||||||||||||||||||||||||||||||||MET062METAR KSVE 230635Z AUTO 24003KT 8SM CLR M02/M03 A2997 RMK AO2=||F||223|ICAO-KSVE
USI0000KSVE|SUSANVILLE MUNI|2016|12|23|06|55|40.3757|-120.5727|1264.6|-2.0||1|FM15-METAR|223|ICAO-KSVE|-3.0||1|FM15-METAR|223|ICAO-KSVE|871.4||4|FM15-METAR|223|ICAO-KSVE|||||||999|C-Calm|9|FM15-METAR|223|ICAO-KSVE|0.0|C-Calm|1|FM15-METAR|223|ICAO-KSVE|||||||||||||93|Derived||FM15-METAR|223|ICAO-KSVE|-2.4|Derived||FM15-METAR|223|ICAO-KSVE|||||||||||||||||||||||||||||||||||||||||||||||||||||||||||||||||||1014.2||1|FM15-METAR|223|ICAO-KSVE|||||||||||||||||||||||||||||||||||||||||||MET066METAR KSVE 230655Z AUTO 00000KT 10SM SCT065 M02/M03 A2995 RMK AO2=||F||223|ICAO-KSVE
USI0000KSVE|SUSANVILLE MUNI|2016|12|23|07|15|40.3757|-120.5727|1264.6|-2.0||1|FM15-METAR|223|ICAO-KSVE|-3.0||1|FM15-METAR|223|ICAO-KSVE|871.1||4|FM15-METAR|223|ICAO-KSVE|||||||260|N-Normal|1|FM15-METAR|223|ICAO-KSVE|1.5|N-Normal|1|FM15-METAR|223|ICAO-KSVE|||||||||||||93|Derived||FM15-METAR|223|ICAO-KSVE|-2.4|Derived||FM15-METAR|223|ICAO-KSVE|||||||||||||||||||||||||||||||||||||||||||||||||||||||||||||||||||1013.9||1|FM15-METAR|223|ICAO-KSVE|||||||||||||||||||||||||||||||||||||||||||MET065METAR KSVE 230715Z AUTO 26003KT 9SM OVC065 M02/M03 A2994 RMK AO2=||F||223|ICAO-KSVE
USI0000KSVE|SUSANVILLE MUNI|2016|12|23|07|35|40.3757|-120.5727|1264.6|-2.0||1|FM15-METAR|223|ICAO-KSVE|-3.0||1|FM15-METAR|223|ICAO-KSVE|871.1||4|FM15-METAR|223|ICAO-KSVE|||||||999|C-Calm|9|FM15-METAR|223|ICAO-KSVE|0.0|C-Calm|1|FM15-METAR|223|ICAO-KSVE|||||||||||||93|Derived||FM15-METAR|223|ICAO-KSVE|-2.4|Derived||FM15-METAR|223|ICAO-KSVE|||||||||||||||||||||||||||||||||||||||||||||||||||||||||||||||||||1013.9||1|FM15-METAR|223|ICAO-KSVE|||||||||||||||||||||||||||||||||||||||||||MET065METAR KSVE 230735Z AUTO 00000KT 8SM OVC065 M02/M03 A2994 RMK AO2=||F||223|ICAO-KSVE
USI0000KSVE|SUSANVILLE MUNI|2016|12|23|07|55|40.3757|-120.5727|1264.6|-1.0||1|FM15-METAR|223|ICAO-KSVE|-2.0||1|FM15-METAR|223|ICAO-KSVE|870.8||4|FM15-METAR|223|ICAO-KSVE|||||||999|C-Calm|9|FM15-METAR|223|ICAO-KSVE|0.0|C-Calm|1|FM15-METAR|223|ICAO-KSVE|||||||||||||93|Derived||FM15-METAR|223|ICAO-KSVE|-1.6|Derived||FM15-METAR|223|ICAO-KSVE|||||||||||||||||||||||||||||||||||||||||||||||||||||||||||||||||||1013.5||1|FM15-METAR|223|ICAO-KSVE|||||||||||||||||||||||||||||||||||||||||||MET066METAR KSVE 230755Z AUTO 00000KT 10SM OVC065 M01/M02 A2993 RMK AO2=||F||223|ICAO-KSVE
USI0000KSVE|SUSANVILLE MUNI|2016|12|23|08|15|40.3757|-120.5727|1264.6|-1.0||1|FM15-METAR|223|ICAO-KSVE|-2.0||1|FM15-METAR|223|ICAO-KSVE|870.5||4|FM15-METAR|223|ICAO-KSVE|||||||999|C-Calm|9|FM15-METAR|223|ICAO-KSVE|0.0|C-Calm|1|FM15-METAR|223|ICAO-KSVE|||||||||||||93|Derived||FM15-METAR|223|ICAO-KSVE|-1.6|Derived||FM15-METAR|223|ICAO-KSVE|||||||||||||||||||||||||||||||||||||||||||||||||||||||||||||||||||1013.2||1|FM15-METAR|223|ICAO-KSVE|||||||||||||||||||||||||||||||||||||||||||MET065METAR KSVE 230815Z AUTO 00000KT 9SM BKN065 M01/M02 A2992 RMK AO2=||F||223|ICAO-KSVE
USI0000KSVE|SUSANVILLE MUNI|2016|12|23|08|35|40.3757|-120.5727|1264.6|-2.0||1|FM15-METAR|223|ICAO-KSVE|-3.0||1|FM15-METAR|223|ICAO-KSVE|870.2||4|FM15-METAR|223|ICAO-KSVE|||||||999|C-Calm|9|FM15-METAR|223|ICAO-KSVE|0.0|C-Calm|1|FM15-METAR|223|ICAO-KSVE|||||||||||||93|Derived||FM15-METAR|223|ICAO-KSVE|-2.4|Derived||FM15-METAR|223|ICAO-KSVE|||||||||||||||||||||||||||||||||||||||||||||||||||||||||||||||||||1012.9||1|FM15-METAR|223|ICAO-KSVE|||||||||||||||||||||||||||||||||||||||||||MET065METAR KSVE 230835Z AUTO 00000KT 8SM SCT075 M02/M03 A2991 RMK AO2=||F||223|ICAO-KSVE
USI0000KSVE|SUSANVILLE MUNI|2016|12|23|08|55|40.3757|-120.5727|1264.6|-2.0||1|FM15-METAR|223|ICAO-KSVE|-3.0||1|FM15-METAR|223|ICAO-KSVE|869.9||4|FM15-METAR|223|ICAO-KSVE|||||||||||||||||||||||||||||||93|Derived||FM15-METAR|223|ICAO-KSVE|-2.4|Derived||FM15-METAR|223|ICAO-KSVE|||||||||||||||||||||||||||||||||||||||||||||||||||||||||||||||||||1012.5||1|FM15-METAR|223|ICAO-KSVE|||||||||||||||||||||||||||||||||||||||||||MET057METAR KSVE 230855Z AUTO 7SM FEW075 M02/M03 A2990 RMK AO2=||F||223|ICAO-KSVE
USI0000KSVE|SUSANVILLE MUNI|2016|12|23|09|15|40.3757|-120.5727|1264.6|-2.0||1|FM15-METAR|223|ICAO-KSVE|-3.0||1|FM15-METAR|223|ICAO-KSVE|869.9||4|FM15-METAR|223|ICAO-KSVE|||||||280|N-Normal|1|FM15-METAR|223|ICAO-KSVE|1.5|N-Normal|1|FM15-METAR|223|ICAO-KSVE|||||||||||||93|Derived||FM15-METAR|223|ICAO-KSVE|-2.4|Derived||FM15-METAR|223|ICAO-KSVE|||||||||||||||||||||||||||||||||||||BR:10|BR:10-Mist|1|FM15-METAR|223|ICAO-KSVE|||||||||||||||||||||||||1012.5||1|FM15-METAR|223|ICAO-KSVE|||||||||||||||||||||||||||||||||||||||||||MET065METAR KSVE 230915Z AUTO 28003KT 5SM BR CLR M02/M03 A2990 RMK AO2=||F||223|ICAO-KSVE
USI0000KSVE|SUSANVILLE MUNI|2016|12|23|09|35|40.3757|-120.5727|1264.6|-2.0||1|FM15-METAR|223|ICAO-KSVE|-3.0||1|FM15-METAR|223|ICAO-KSVE|869.6||4|FM15-METAR|223|ICAO-KSVE|||||||300|N-Normal|1|FM15-METAR|223|ICAO-KSVE|2.1|N-Normal|1|FM15-METAR|223|ICAO-KSVE|||||||||||||93|Derived||FM15-METAR|223|ICAO-KSVE|-2.4|Derived||FM15-METAR|223|ICAO-KSVE|||||||||||||||||||||||||||||||||||||||||||||||||||||||||||||||||||1012.2||1|FM15-METAR|223|ICAO-KSVE|||||||||||||||||||||||||||||||||||||||||||MET062METAR KSVE 230935Z AUTO 30004KT 7SM CLR M02/M03 A2989 RMK AO2=||F||223|ICAO-KSVE
USI0000KSVE|SUSANVILLE MUNI|2016|12|23|09|55|40.3757|-120.5727|1264.6|-2.0||1|FM15-METAR|223|ICAO-KSVE|-3.0||1|FM15-METAR|223|ICAO-KSVE|869.3||4|FM15-METAR|223|ICAO-KSVE|||||||999|C-Calm|9|FM15-METAR|223|ICAO-KSVE|0.0|C-Calm|1|FM15-METAR|223|ICAO-KSVE|||||||||||||93|Derived||FM15-METAR|223|ICAO-KSVE|-2.4|Derived||FM15-METAR|223|ICAO-KSVE|||||||||||||||||||||||||||||||||||||||||||||||||||||||||||||||||||1011.8||1|FM15-METAR|223|ICAO-KSVE|||||||||||||||||||||||||||||||||||||||||||MET062METAR KSVE 230955Z AUTO 00000KT 9SM CLR M02/M03 A2988 RMK AO2=||F||223|ICAO-KSVE
USI0000KSVE|SUSANVILLE MUNI|2016|12|23|10|15|40.3757|-120.5727|1264.6|-2.0||1|FM15-METAR|223|ICAO-KSVE|-3.0||1|FM15-METAR|223|ICAO-KSVE|869.0||4|FM15-METAR|223|ICAO-KSVE|||||||999|C-Calm|9|FM15-METAR|223|ICAO-KSVE|0.0|C-Calm|1|FM15-METAR|223|ICAO-KSVE|||||||||||||93|Derived||FM15-METAR|223|ICAO-KSVE|-2.4|Derived||FM15-METAR|223|ICAO-KSVE|||||||||||||||||||||||||||||||||||||||||||||||||||||||||||||||||||1011.5||1|FM15-METAR|223|ICAO-KSVE|||||||||||||||||||||||||||||||||||||||||||MET062METAR KSVE 231015Z AUTO 00000KT 9SM CLR M02/M03 A2987 RMK AO2=||F||223|ICAO-KSVE
USI0000KSVE|SUSANVILLE MUNI|2016|12|23|10|35|40.3757|-120.5727|1264.6|-1.0||1|FM15-METAR|223|ICAO-KSVE|-2.0||1|FM15-METAR|223|ICAO-KSVE|869.3||4|FM15-METAR|223|ICAO-KSVE|||||||300|N-Normal|1|FM15-METAR|223|ICAO-KSVE|1.5|N-Normal|1|FM15-METAR|223|ICAO-KSVE|||||||||||||93|Derived||FM15-METAR|223|ICAO-KSVE|-1.6|Derived||FM15-METAR|223|ICAO-KSVE|||||||||||||||||||||||||||||||||||||||||||||||||||||||||||||||||||1011.8||1|FM15-METAR|223|ICAO-KSVE|||||||||||||||||||||||||||||||||||||||||||MET063METAR KSVE 231035Z AUTO 30003KT 10SM CLR M01/M02 A2988 RMK AO2=||F||223|ICAO-KSVE
USI0000KSVE|SUSANVILLE MUNI|2016|12|23|10|55|40.3757|-120.5727|1264.6|-1.0||1|FM15-METAR|223|ICAO-KSVE|-2.0||1|FM15-METAR|223|ICAO-KSVE|869.0||4|FM15-METAR|223|ICAO-KSVE|||||||999|C-Calm|9|FM15-METAR|223|ICAO-KSVE|0.0|C-Calm|1|FM15-METAR|223|ICAO-KSVE|||||||||||||93|Derived||FM15-METAR|223|ICAO-KSVE|-1.6|Derived||FM15-METAR|223|ICAO-KSVE|||||||||||||||||||||||||||||||||||||SN:71|SN:71-Snow|1|FM15-METAR|223|ICAO-KSVE|||||||||||||||||||||||||1011.5||1|FM15-METAR|223|ICAO-KSVE|||||||||||||||||||||||||||||||||||||||||||MET083METAR KSVE 231055Z AUTO 00000KT 8SM -SN FEW023 BKN030 BKN037 M01/M02 A2987 RMK AO2=||F||223|ICAO-KSVE
USI0000KSVE|SUSANVILLE MUNI|2016|12|23|11|15|40.3757|-120.5727|1264.6|-1.0||1|FM15-METAR|223|ICAO-KSVE|-2.0||1|FM15-METAR|223|ICAO-KSVE|868.7||4|FM15-METAR|223|ICAO-KSVE|||||||310|N-Normal|1|FM15-METAR|223|ICAO-KSVE|3.1|N-Normal|1|FM15-METAR|223|ICAO-KSVE|||||||||||||93|Derived||FM15-METAR|223|ICAO-KSVE|-1.6|Derived||FM15-METAR|223|ICAO-KSVE|||||||||||||||||||||||||||||||||||||BR:10|BR:10-Mist|1|FM15-METAR|223|ICAO-KSVE|||||||||||||||||||||||||1011.2||1|FM15-METAR|223|ICAO-KSVE|||||||||||||||||||||||||||||||||||||||||||MET082METAR KSVE 231115Z AUTO 31006KT 5SM BR BKN023 BKN029 OVC035 M01/M02 A2986 RMK AO2=||F||223|ICAO-KSVE
USI0000KSVE|SUSANVILLE MUNI|2016|12|23|11|35|40.3757|-120.5727|1264.6|0.0||1|FM15-METAR|223|ICAO-KSVE|-2.0||1|FM15-METAR|223|ICAO-KSVE|868.4||4|FM15-METAR|223|ICAO-KSVE|||||||130|N-Normal|1|FM15-METAR|223|ICAO-KSVE|2.6|N-Normal|1|FM15-METAR|223|ICAO-KSVE|||||||||||||87|Derived||FM15-METAR|223|ICAO-KSVE|-0.9|Derived||FM15-METAR|223|ICAO-KSVE|||||||||||||||||||||||||||||||||||||SN:71|SN:71-Snow|1|FM15-METAR|223|ICAO-KSVE|||||||||||||||||||||||||1010.8||1|FM15-METAR|223|ICAO-KSVE|||||||||||||||||||||||||||||||||||||||||||MET075METAR KSVE 231135Z AUTO 13005KT 5SM -SN BKN023 OVC031 00/M02 A2985 RMK AO2=||F||223|ICAO-KSVE
USI0000KSVE|SUSANVILLE MUNI|2016|12|23|11|55|40.3757|-120.5727|1264.6|0.0||1|FM15-METAR|223|ICAO-KSVE|-1.0||1|FM15-METAR|223|ICAO-KSVE|868.1||4|FM15-METAR|223|ICAO-KSVE|||||||190|N-Normal|1|FM15-METAR|223|ICAO-KSVE|2.1|N-Normal|1|FM15-METAR|223|ICAO-KSVE|||||||||||||93|Derived||FM15-METAR|223|ICAO-KSVE|-0.5|Derived||FM15-METAR|223|ICAO-KSVE|||||||||||||||||||||||||||||||||||||||||||||||||||||||||||||||||||1010.5||1|FM15-METAR|223|ICAO-KSVE|||||||||||||||||||||||||||||||||||||||||||MET071METAR KSVE 231155Z AUTO 19004KT 8SM SCT023 OVC031 00/M01 A2984 RMK AO2=||F||223|ICAO-KSVE
USI0000KSVE|SUSANVILLE MUNI|2016|12|23|12|15|40.3757|-120.5727|1264.6|0.0||1|FM15-METAR|223|ICAO-KSVE|-1.0||1|FM15-METAR|223|ICAO-KSVE|868.1||4|FM15-METAR|223|ICAO-KSVE|||||||140|N-Normal|1|FM15-METAR|223|ICAO-KSVE|1.5|N-Normal|1|FM15-METAR|223|ICAO-KSVE|||||||||||||93|Derived||FM15-METAR|223|ICAO-KSVE|-0.5|Derived||FM15-METAR|223|ICAO-KSVE|||||||||||||||||||||||||||||||||||||BR:10|BR:10-Mist|1|FM15-METAR|223|ICAO-KSVE|||||||||||||||||||||||||1010.5||1|FM15-METAR|223|ICAO-KSVE|||||||||||||||||||||||||||||||||||||||||||MET081METAR KSVE 231215Z AUTO 14003KT 5SM BR FEW016 SCT024 BKN032 00/M01 A2984 RMK AO2=||F||223|ICAO-KSVE
USI0000KSVE|SUSANVILLE MUNI|2016|12|23|12|35|40.3757|-120.5727|1264.6|0.0||1|FM15-METAR|223|ICAO-KSVE|-1.0||1|FM15-METAR|223|ICAO-KSVE|867.9||4|FM15-METAR|223|ICAO-KSVE|||||||060|N-Normal|1|FM15-METAR|223|ICAO-KSVE|1.5|N-Normal|1|FM15-METAR|223|ICAO-KSVE|||||||||||||93|Derived||FM15-METAR|223|ICAO-KSVE|-0.5|Derived||FM15-METAR|223|ICAO-KSVE|||||||||||||||||||||||||||||||||||||||||||||||||||||||||||||||||||1010.2||1|FM15-METAR|223|ICAO-KSVE|||||||||||||||||||||||||||||||||||||||||||MET079METAR KSVE 231235Z AUTO 06003KT 10SM FEW019 BKN037 OVC043 00/M01 A2983 RMK AO2=||F||223|ICAO-KSVE
USI0000KSVE|SUSANVILLE MUNI|2016|12|23|12|55|40.3757|-120.5727|1264.6|0.0||1|FM15-METAR|223|ICAO-KSVE|-1.0||1|FM15-METAR|223|ICAO-KSVE|868.1||4|FM15-METAR|223|ICAO-KSVE|||||||999|C-Calm|9|FM15-METAR|223|ICAO-KSVE|0.0|C-Calm|1|FM15-METAR|223|ICAO-KSVE|||||||||||||93|Derived||FM15-METAR|223|ICAO-KSVE|-0.5|Derived||FM15-METAR|223|ICAO-KSVE|||||||||||||||||||||||||||||||||||||SN:71|SN:71-Snow|1|FM15-METAR|223|ICAO-KSVE|||||||||||||||||||||||||1010.5||1|FM15-METAR|223|ICAO-KSVE|||||||||||||||||||||||||||||||||||||||||||MET082METAR KSVE 231255Z AUTO 00000KT 4SM -SN FEW016 BKN021 OVC035 00/M01 A2984 RMK AO2=||F||223|ICAO-KSVE
USI0000KSVE|SUSANVILLE MUNI|2016|12|23|13|15|40.3757|-120.5727|1264.6|1.0||1|FM15-METAR|223|ICAO-KSVE|0.0||1|FM15-METAR|223|ICAO-KSVE|867.9||4|FM15-METAR|223|ICAO-KSVE|||||||320|N-Normal|1|FM15-METAR|223|ICAO-KSVE|3.6|N-Normal|1|FM15-METAR|223|ICAO-KSVE|||||||||||||93|Derived||FM15-METAR|223|ICAO-KSVE|0.6|Derived||FM15-METAR|223|ICAO-KSVE|||||||||||||||||||||||||||||||||||||SN:71|SN:71-Snow|1|FM15-METAR|223|ICAO-KSVE|||||||||||||||||||||||||1010.2||1|FM15-METAR|223|ICAO-KSVE|||||||||||||||||||||||||||||||||||||||||||MET085METAR KSVE 231315Z AUTO 32007KT 2 1/2SM -SN BKN010 BKN016 OVC021 01/00 A2983 RMK AO2=||F||223|ICAO-KSVE
USI0000KSVE|SUSANVILLE MUNI|2016|12|23|13|35|40.3757|-120.5727|1264.6|1.0||1|FM15-METAR|223|ICAO-KSVE|0.0||1|FM15-METAR|223|ICAO-KSVE|867.9||4|FM15-METAR|223|ICAO-KSVE|||||||999|C-Calm|9|FM15-METAR|223|ICAO-KSVE|0.0|C-Calm|1|FM15-METAR|223|ICAO-KSVE|||||||||||||93|Derived||FM15-METAR|223|ICAO-KSVE|0.6|Derived||FM15-METAR|223|ICAO-KSVE|||||||||||||||||||||||||||||||||||||SN:71|SN:71-Snow|1|FM15-METAR|223|ICAO-KSVE|||||||||||||||||||||||||1010.2||1|FM15-METAR|223|ICAO-KSVE|||||||||||||||||||||||||||||||||||||||||||MET074METAR KSVE 231335Z AUTO 00000KT 2SM -SN SCT001 OVC010 01/00 A2983 RMK AO2=||F||223|ICAO-KSVE
USI0000KSVE|SUSANVILLE MUNI|2016|12|23|13|55|40.3757|-120.5727|1264.6|1.0||1|FM15-METAR|223|ICAO-KSVE|0.0||1|FM15-METAR|223|ICAO-KSVE|867.5||4|FM15-METAR|223|ICAO-KSVE|||||||060|N-Normal|1|FM15-METAR|223|ICAO-KSVE|2.6|N-Normal|1|FM15-METAR|223|ICAO-KSVE|||||||||||||93|Derived||FM15-METAR|223|ICAO-KSVE|0.6|Derived||FM15-METAR|223|ICAO-KSVE|||||||||||||||||||||||||||||||||||||SN:71|SN:71-Snow|1|FM15-METAR|223|ICAO-KSVE|||||||||||||||||||||||||1009.8||1|FM15-METAR|223|ICAO-KSVE|||||||||||||||||||||||||||||||||||||||||||MET081METAR KSVE 231355Z AUTO 06005KT 5SM -SN FEW001 SCT010 OVC018 01/00 A2982 RMK AO2=||F||223|ICAO-KSVE
USI0000KSVE|SUSANVILLE MUNI|2016|12|23|14|15|40.3757|-120.5727|1264.6|1.0||1|FM15-METAR|223|ICAO-KSVE|0.0||1|FM15-METAR|223|ICAO-KSVE|866.6||4|FM15-METAR|223|ICAO-KSVE|||||||100|N-Normal|1|FM15-METAR|223|ICAO-KSVE|3.1|N-Normal|1|FM15-METAR|223|ICAO-KSVE|||||||||||||93|Derived||FM15-METAR|223|ICAO-KSVE|0.6|Derived||FM15-METAR|223|ICAO-KSVE|||||||||||||||||||||||||||||||||||||||||||||||||||||||||||||||||||1008.8||1|FM15-METAR|223|ICAO-KSVE|||||||||||||||||||||||||||||||||||||||||||MET070METAR KSVE 231415Z AUTO 10006KT 8SM BKN017 OVC021 01/00 A2979 RMK AO2=||F||223|ICAO-KSVE
USI0000KSVE|SUSANVILLE MUNI|2016|12|23|14|35|40.3757|-120.5727|1264.6|1.0||1|FM15-METAR|223|ICAO-KSVE|0.0||1|FM15-METAR|223|ICAO-KSVE|866.0||4|FM15-METAR|223|ICAO-KSVE|||||||060|N-Normal|1|FM15-METAR|223|ICAO-KSVE|3.6|N-Normal|1|FM15-METAR|223|ICAO-KSVE|||||||||||||93|Derived||FM15-METAR|223|ICAO-KSVE|0.6|Derived||FM15-METAR|223|ICAO-KSVE|||||||||||||||||||||||||||||||||||||||||||||||||||||||||||||||||||1008.1||1|FM15-METAR|223|ICAO-KSVE|||||||||||||||||||||||||||||||||||||||||||MET078METAR KSVE 231435Z AUTO 06007KT 10SM FEW012 BKN019 OVC029 01/00 A2977 RMK AO2=||F||223|ICAO-KSVE
USI0000KSVE|SUSANVILLE MUNI|2016|12|23|14|55|40.3757|-120.5727|1264.6|1.0||1|FM15-METAR|223|ICAO-KSVE|0.0||1|FM15-METAR|223|ICAO-KSVE|866.0||4|FM15-METAR|223|ICAO-KSVE|||||||240|N-Normal|1|FM15-METAR|223|ICAO-KSVE|1.5|N-Normal|1|FM15-METAR|223|ICAO-KSVE|||||||||||||93|Derived||FM15-METAR|223|ICAO-KSVE|0.6|Derived||FM15-METAR|223|ICAO-KSVE|||||||||||||||||||||||||||||||||||||||||||||||||||||||||||||||||||1008.1||1|FM15-METAR|223|ICAO-KSVE|||||||||||||||||||||||||||||||||||||||||||MET078METAR KSVE 231455Z AUTO 24003KT 10SM FEW009 SCT018 BKN028 01/00 A2977 RMK AO2=||F||223|ICAO-KSVE
USI0000KSVE|SUSANVILLE MUNI|2016|12|23|15|15|40.3757|-120.5727|1264.6|2.0||1|FM15-METAR|223|ICAO-KSVE|0.0||1|FM15-METAR|223|ICAO-KSVE|865.7||4|FM15-METAR|223|ICAO-KSVE|||||||040|N-Normal|1|FM15-METAR|223|ICAO-KSVE|2.1|N-Normal|1|FM15-METAR|223|ICAO-KSVE|||||||||||||87|Derived||FM15-METAR|223|ICAO-KSVE|1.3|Derived||FM15-METAR|223|ICAO-KSVE|||||||||||||||||||||||||||||||||||||||||||||||||||||||||||||||||||1007.8||1|FM15-METAR|223|ICAO-KSVE|||||||||||||||||||||||||||||||||||||||||||MET078METAR KSVE 231515Z AUTO 04004KT 10SM FEW011 BKN030 OVC038 02/00 A2976 RMK AO2=||F||223|ICAO-KSVE
USI0000KSVE|SUSANVILLE MUNI|2016|12|23|15|35|40.3757|-120.5727|1264.6|2.0||1|FM15-METAR|223|ICAO-KSVE|0.0||1|FM15-METAR|223|ICAO-KSVE|865.7||4|FM15-METAR|223|ICAO-KSVE|||||||030|N-Normal|1|FM15-METAR|223|ICAO-KSVE|1.5|N-Normal|1|FM15-METAR|223|ICAO-KSVE|||||||||||||87|Derived||FM15-METAR|223|ICAO-KSVE|1.3|Derived||FM15-METAR|223|ICAO-KSVE|||||||||||||||||||||||||||||||||||||||||||||||||||||||||||||||||||1007.8||1|FM15-METAR|223|ICAO-KSVE|||||||||||||||||||||||||||||||||||||||||||MET071METAR KSVE 231535Z AUTO 03003KT 10SM BKN030 BKN038 02/00 A2976 RMK AO2=||F||223|ICAO-KSVE
USI0000KSVE|SUSANVILLE MUNI|2016|12|23|15|55|40.3757|-120.5727|1264.6|2.0||1|FM15-METAR|223|ICAO-KSVE|0.0||1|FM15-METAR|223|ICAO-KSVE|865.7||4|FM15-METAR|223|ICAO-KSVE|||||||270|N-Normal|1|FM15-METAR|223|ICAO-KSVE|1.5|N-Normal|1|FM15-METAR|223|ICAO-KSVE|||||||||||||87|Derived||FM15-METAR|223|ICAO-KSVE|1.3|Derived||FM15-METAR|223|ICAO-KSVE|||||||||||||||||||||||||||||||||||||||||||||||||||||||||||||||||||1007.8||1|FM15-METAR|223|ICAO-KSVE|||||||||||||||||||||||||||||||||||||||||||MET078METAR KSVE 231555Z AUTO 27003KT 10SM SCT019 BKN034 OVC039 02/00 A2976 RMK AO2=||F||223|ICAO-KSVE
USI0000KSVE|SUSANVILLE MUNI|2016|12|23|16|15|40.3757|-120.5727|1264.6|2.0||1|FM15-METAR|223|ICAO-KSVE|0.0||1|FM15-METAR|223|ICAO-KSVE|865.7||4|FM15-METAR|223|ICAO-KSVE|||||||310|N-Normal|1|FM15-METAR|223|ICAO-KSVE|2.1|N-Normal|1|FM15-METAR|223|ICAO-KSVE|||||||||||||87|Derived||FM15-METAR|223|ICAO-KSVE|1.3|Derived||FM15-METAR|223|ICAO-KSVE|||||||||||||||||||||||||||||||||||||||||||||||||||||||||||||||||||1007.8||1|FM15-METAR|223|ICAO-KSVE|||||||||||||||||||||||||||||||||||||||||||MET078METAR KSVE 231615Z AUTO 31004KT 10SM SCT019 BKN029 BKN038 02/00 A2976 RMK AO2=||F||223|ICAO-KSVE
USI0000KSVE|SUSANVILLE MUNI|2016|12|23|16|35|40.3757|-120.5727|1264.6|2.0||1|FM15-METAR|223|ICAO-KSVE|0.0||1|FM15-METAR|223|ICAO-KSVE|865.1||4|FM15-METAR|223|ICAO-KSVE|||||||||||||||||||||||||||||||87|Derived||FM15-METAR|223|ICAO-KSVE|1.3|Derived||FM15-METAR|223|ICAO-KSVE|||||||||||||||||||||||||||||||||||||||||||||||||||||||||||||||||||1007.1||1|FM15-METAR|223|ICAO-KSVE|||||||||||||||||||||||||||||||||||||||||||MET063METAR KSVE 231635Z AUTO 10SM FEW034 SCT042 02/00 A2974 RMK AO2=||F||223|ICAO-KSVE
USI0000KSVE|SUSANVILLE MUNI|2016|12|23|16|55|40.3757|-120.5727|1264.6|2.0||1|FM15-METAR|223|ICAO-KSVE|0.0||1|FM15-METAR|223|ICAO-KSVE|865.4||4|FM15-METAR|223|ICAO-KSVE|||||||999|C-Calm|9|FM15-METAR|223|ICAO-KSVE|0.0|C-Calm|1|FM15-METAR|223|ICAO-KSVE|||||||||||||87|Derived||FM15-METAR|223|ICAO-KSVE|1.3|Derived||FM15-METAR|223|ICAO-KSVE|||||||||||||||||||||||||||||||||||||||||||||||||||||||||||||||||||1007.4||1|FM15-METAR|223|ICAO-KSVE|||||||||||||||||||||||||||||||||||||||||||MET064METAR KSVE 231655Z AUTO 00000KT 10SM FEW034 02/00 A2975 RMK AO2=||F||223|ICAO-KSVE
USI0000KSVE|SUSANVILLE MUNI|2016|12|23|17|15|40.3757|-120.5727|1264.6|2.0||1|FM15-METAR|223|ICAO-KSVE|0.0||1|FM15-METAR|223|ICAO-KSVE|865.4||4|FM15-METAR|223|ICAO-KSVE|||||||290|N-Normal|1|FM15-METAR|223|ICAO-KSVE|1.5|N-Normal|1|FM15-METAR|223|ICAO-KSVE|||||||||||||87|Derived||FM15-METAR|223|ICAO-KSVE|1.3|Derived||FM15-METAR|223|ICAO-KSVE|||||||||||||||||||||||||||||||||||||||||||||||||||||||||||||||||||1007.4||1|FM15-METAR|223|ICAO-KSVE|||||||||||||||||||||||||||||||||||||||||||MET064METAR KSVE 231715Z AUTO 29003KT 10SM FEW034 02/00 A2975 RMK AO2=||F||223|ICAO-KSVE
USI0000KSVE|SUSANVILLE MUNI|2016|12|23|17|35|40.3757|-120.5727|1264.6|2.0||1|FM15-METAR|223|ICAO-KSVE|0.0||1|FM15-METAR|223|ICAO-KSVE|865.4||4|FM15-METAR|223|ICAO-KSVE|||||||250|N-Normal|1|FM15-METAR|223|ICAO-KSVE|2.1|N-Normal|1|FM15-METAR|223|ICAO-KSVE|||||||||||||87|Derived||FM15-METAR|223|ICAO-KSVE|1.3|Derived||FM15-METAR|223|ICAO-KSVE|||||||||||||||||||||||||||||||||||||||||||||||||||||||||||||||||||1007.4||1|FM15-METAR|223|ICAO-KSVE|||||||||||||||||||||||||||||||||||||||||||MET078METAR KSVE 231735Z AUTO 25004KT 10SM FEW018 SCT024 BKN029 02/00 A2975 RMK AO2=||F||223|ICAO-KSVE
USI0000KSVE|SUSANVILLE MUNI|2016|12|23|17|55|40.3757|-120.5727|1264.6|2.0||1|FM15-METAR|223|ICAO-KSVE|0.0||1|FM15-METAR|223|ICAO-KSVE|864.8||4|FM15-METAR|223|ICAO-KSVE|||||||999|C-Calm|9|FM15-METAR|223|ICAO-KSVE|0.0|C-Calm|1|FM15-METAR|223|ICAO-KSVE|||||||||||||87|Derived||FM15-METAR|223|ICAO-KSVE|1.3|Derived||FM15-METAR|223|ICAO-KSVE|||||||||||||||||||||||||||||||||||||||||||||||||||||||||||||||||||1006.8||1|FM15-METAR|223|ICAO-KSVE|||||||||||||||||||||||||||||||||||||||||||MET078METAR KSVE 231755Z AUTO 00000KT 10SM FEW015 SCT024 BKN033 02/00 A2973 RMK AO2=||F||223|ICAO-KSVE
USI0000KSVE|SUSANVILLE MUNI|2016|12|23|18|15|40.3757|-120.5727|1264.6|2.0||1|FM15-METAR|223|ICAO-KSVE|1.0||1|FM15-METAR|223|ICAO-KSVE|864.8||4|FM15-METAR|223|ICAO-KSVE|||||||999|C-Calm|9|FM15-METAR|223|ICAO-KSVE|0.0|C-Calm|1|FM15-METAR|223|ICAO-KSVE|||||||||||||93|Derived||FM15-METAR|223|ICAO-KSVE|1.7|Derived||FM15-METAR|223|ICAO-KSVE|||||||||||||||||||||||||||||||||||||||||||||||||||||||||||||||||||1006.8||1|FM15-METAR|223|ICAO-KSVE|||||||||||||||||||||||||||||||||||||||||||MET064METAR KSVE 231815Z AUTO 00000KT 10SM OVC033 02/01 A2973 RMK AO2=||F||223|ICAO-KSVE
USI0000KSVE|SUSANVILLE MUNI|2016|12|23|18|35|40.3757|-120.5727|1264.6|3.0||1|FM15-METAR|223|ICAO-KSVE|1.0||1|FM15-METAR|223|ICAO-KSVE|864.8||4|FM15-METAR|223|ICAO-KSVE|||||||310|N-Normal|1|FM15-METAR|223|ICAO-KSVE|1.5|N-Normal|1|FM15-METAR|223|ICAO-KSVE|||||||||||||87|Derived||FM15-METAR|223|ICAO-KSVE|2.0|Derived||FM15-METAR|223|ICAO-KSVE|||||||||||||||||||||||||||||||||||||||||||||||||||||||||||||||||||1006.8||1|FM15-METAR|223|ICAO-KSVE|||||||||||||||||||||||||||||||||||||||||||MET064METAR KSVE 231835Z AUTO 31003KT 10SM OVC031 03/01 A2973 RMK AO2=||F||223|ICAO-KSVE
USI0000KSVE|SUSANVILLE MUNI|2016|12|23|18|55|40.3757|-120.5727|1264.6|3.0||1|FM15-METAR|223|ICAO-KSVE|1.0||1|FM15-METAR|223|ICAO-KSVE|864.8||4|FM15-METAR|223|ICAO-KSVE|||||||320|N-Normal|1|FM15-METAR|223|ICAO-KSVE|1.5|N-Normal|1|FM15-METAR|223|ICAO-KSVE|||||||||||||87|Derived||FM15-METAR|223|ICAO-KSVE|2.0|Derived||FM15-METAR|223|ICAO-KSVE|||||||||||||||||||||||||||||||||||||||||||||||||||||||||||||||||||1006.8||1|FM15-METAR|223|ICAO-KSVE|||||||||||||||||||||||||||||||||||||||||||MET071METAR KSVE 231855Z AUTO 32003KT 10SM BKN031 OVC038 03/01 A2973 RMK AO2=||F||223|ICAO-KSVE
USI0000KSVE|SUSANVILLE MUNI|2016|12|23|19|15|40.3757|-120.5727|1264.6|3.0||1|FM15-METAR|223|ICAO-KSVE|1.0||1|FM15-METAR|223|ICAO-KSVE|864.5||4|FM15-METAR|223|ICAO-KSVE|||||||360|N-Normal|1|FM15-METAR|223|ICAO-KSVE|1.5|N-Normal|1|FM15-METAR|223|ICAO-KSVE|||||||||||||87|Derived||FM15-METAR|223|ICAO-KSVE|2.0|Derived||FM15-METAR|223|ICAO-KSVE|||||||||||||||||||||||||||||||||||||||||||||||||||||||||||||||||||1006.4||1|FM15-METAR|223|ICAO-KSVE|||||||||||||||||||||||||||||||||||||||||||MET071METAR KSVE 231915Z AUTO 36003KT 10SM BKN031 OVC036 03/01 A2972 RMK AO2=||F||223|ICAO-KSVE
USI0000KSVE|SUSANVILLE MUNI|2016|12|23|19|35|40.3757|-120.5727|1264.6|4.0||1|FM15-METAR|223|ICAO-KSVE|1.0||1|FM15-METAR|223|ICAO-KSVE|864.2||4|FM15-METAR|223|ICAO-KSVE|||||||330|N-Normal|1|FM15-METAR|223|ICAO-KSVE|3.1|N-Normal|1|FM15-METAR|223|ICAO-KSVE|||||||||||||81|Derived||FM15-METAR|223|ICAO-KSVE|2.6|Derived||FM15-METAR|223|ICAO-KSVE|||||||||||||||||||||||||||||||||||||40|40-Precipi|1|FM15-METAR|223|ICAO-KSVE|||||||||||||||||||||||||1006.1||1|FM15-METAR|223|ICAO-KSVE|||||||||||||||||||||||||||||||||||||||||||MET073METAR KSVE 231935Z AUTO 33006KT 9SM UP BKN031 OVC036 04/01 A2971 RMK AO2=||F||223|ICAO-KSVE
USI0000KSVE|SUSANVILLE MUNI|2016|12|23|19|55|40.3757|-120.5727|1264.6|4.0||1|FM15-METAR|223|ICAO-KSVE|1.0||1|FM15-METAR|223|ICAO-KSVE|864.0||4|FM15-METAR|223|ICAO-KSVE|||||||320|N-Normal|1|FM15-METAR|223|ICAO-KSVE|3.1|N-Normal|1|FM15-METAR|223|ICAO-KSVE|||||||||||||81|Derived||FM15-METAR|223|ICAO-KSVE|2.6|Derived||FM15-METAR|223|ICAO-KSVE|||||||||||||||||||||||||||||||||||||RA:61|RA:61-Rain|1|FM15-METAR|223|ICAO-KSVE|||||||||||||||||||||||||1005.8||1|FM15-METAR|223|ICAO-KSVE|||||||||||||||||||||||||||||||||||||||||||MET074METAR KSVE 231955Z AUTO 32006KT 7SM -RA FEW019 OVC029 04/01 A2970 RMK AO2=||F||223|ICAO-KSVE
USI0000KSVE|SUSANVILLE MUNI|2016|12|23|20|15|40.3757|-120.5727|1264.6|4.0||1|FM15-METAR|223|ICAO-KSVE|2.0||1|FM15-METAR|223|ICAO-KSVE|863.6||4|FM15-METAR|223|ICAO-KSVE|||||||320|N-Normal|1|FM15-METAR|223|ICAO-KSVE|3.1|N-Normal|1|FM15-METAR|223|ICAO-KSVE|||||||||||||87|Derived||FM15-METAR|223|ICAO-KSVE|3.1|Derived||FM15-METAR|223|ICAO-KSVE|||||||||||||||||||||||||||||||||||||||||||||||||||||||||||||||||||1005.4||1|FM15-METAR|223|ICAO-KSVE|||||||||||||||||||||||||||||||||||||||||||MET070METAR KSVE 232015Z AUTO 32006KT 9SM SCT017 OVC026 04/02 A2969 RMK AO2=||F||223|ICAO-KSVE
USI0000KSVE|SUSANVILLE MUNI|2016|12|23|20|35|40.3757|-120.5727|1264.6|6.0||1|FM15-METAR|223|ICAO-KSVE|2.0||1|FM15-METAR|223|ICAO-KSVE|863.0||4|FM15-METAR|223|ICAO-KSVE|||||||330|N-Normal|1|FM15-METAR|223|ICAO-KSVE|5.1|N-Normal|1|FM15-METAR|223|ICAO-KSVE|||||||||||||76|Derived||FM15-METAR|223|ICAO-KSVE|4.3|Derived||FM15-METAR|223|ICAO-KSVE|||||||||||||||||||||||||||||||||||||||||||||||||||||||||||||||||||1004.7||1|FM15-METAR|223|ICAO-KSVE|||||||||||||||||||||||||||||||||||||||||||MET078METAR KSVE 232035Z AUTO 33010KT 10SM BKN022 BKN030 OVC036 06/02 A2967 RMK AO2=||F||223|ICAO-KSVE
USI0000KSVE|SUSANVILLE MUNI|2016|12|23|20|55|40.3757|-120.5727|1264.6|6.0||1|FM15-METAR|223|ICAO-KSVE|2.0||1|FM15-METAR|223|ICAO-KSVE|862.7||4|FM15-METAR|223|ICAO-KSVE|||||||350|N-Normal|1|FM15-METAR|223|ICAO-KSVE|3.6|N-Normal|1|FM15-METAR|223|ICAO-KSVE|||||||||||||76|Derived||FM15-METAR|223|ICAO-KSVE|4.3|Derived||FM15-METAR|223|ICAO-KSVE|||||||||||||||||||||||||||||||||||||||||||||||||||||||||||||||||||1004.4||1|FM15-METAR|223|ICAO-KSVE|||||||||||||||||||||||||||||||||||||||||||MET078METAR KSVE 232055Z AUTO 35007KT 10SM SCT022 BKN034 BKN041 06/02 A2966 RMK AO2=||F||223|ICAO-KSVE
USI0000KSVE|SUSANVILLE MUNI|2016|12|23|21|15|40.3757|-120.5727|1264.6|7.0||1|FM15-METAR|223|ICAO-KSVE|1.0||1|FM15-METAR|223|ICAO-KSVE|862.5||4|FM15-METAR|223|ICAO-KSVE|||||||200|V-Variable|1|FM15-METAR|223|ICAO-KSVE|5.1|V-Variable|1|FM15-METAR|223|ICAO-KSVE|8.8||1|FM15-METAR|223|ICAO-KSVE|||||||66|Derived||FM15-METAR|223|ICAO-KSVE|4.4|Derived||FM15-METAR|223|ICAO-KSVE|||||||||||||||||||||||||||||||||||||||||||||||||||||||||||||||||||1004.1||1|FM15-METAR|223|ICAO-KSVE|||||||||||||||||||||||||||||||||||||||||||MET075METAR KSVE 232115Z AUTO 20010G17KT 030V040 10SM FEW022 07/01 A2965 RMK AO2=||F||223|ICAO-KSVE
USI0000KSVE|SUSANVILLE MUNI|2016|12|23|21|35|40.3757|-120.5727|1264.6|8.0||1|FM15-METAR|223|ICAO-KSVE|0.0||1|FM15-METAR|223|ICAO-KSVE|861.5||4|FM15-METAR|223|ICAO-KSVE|||||||190|N-Normal|1|FM15-METAR|223|ICAO-KSVE|7.7|N-Normal|1|FM15-METAR|223|ICAO-KSVE|12.4||1|FM15-METAR|223|ICAO-KSVE|||||||57|Derived||FM15-METAR|223|ICAO-KSVE|4.2|Derived||FM15-METAR|223|ICAO-KSVE|||||||||||||||||||||||||||||||||||||||||||||||||||||||||||||||||||1003.0||1|FM15-METAR|223|ICAO-KSVE|||||||||||||||||||||||||||||||||||||||||||MET064METAR KSVE 232135Z AUTO 19015G24KT 10SM CLR 08/00 A2962 RMK AO2=||F||223|ICAO-KSVE
USI0000KSVE|SUSANVILLE MUNI|2016|12|23|21|55|40.3757|-120.5727|1264.6|8.0||1|FM15-METAR|223|ICAO-KSVE|0.0||1|FM15-METAR|223|ICAO-KSVE|861.5||4|FM15-METAR|223|ICAO-KSVE|||||||210|N-Normal|1|FM15-METAR|223|ICAO-KSVE|7.2|N-Normal|1|FM15-METAR|223|ICAO-KSVE|10.8||1|FM15-METAR|223|ICAO-KSVE|||||||57|Derived||FM15-METAR|223|ICAO-KSVE|4.2|Derived||FM15-METAR|223|ICAO-KSVE|||||||||||||||||||||||||||||||||||||||||||||||||||||||||||||||||||1003.0||1|FM15-METAR|223|ICAO-KSVE|||||||||||||||||||||||||||||||||||||||||||MET064METAR KSVE 232155Z AUTO 21014G21KT 10SM CLR 08/00 A2962 RMK AO2=||F||223|ICAO-KSVE
USI0000KSVE|SUSANVILLE MUNI|2016|12|23|22|15|40.3757|-120.5727|1264.6|7.0||1|FM15-METAR|223|ICAO-KSVE|-1.0||1|FM15-METAR|223|ICAO-KSVE|861.2||4|FM15-METAR|223|ICAO-KSVE|||||||190|N-Normal|1|FM15-METAR|223|ICAO-KSVE|5.1|N-Normal|1|FM15-METAR|223|ICAO-KSVE|10.8||1|FM15-METAR|223|ICAO-KSVE|||||||57|Derived||FM15-METAR|223|ICAO-KSVE|3.5|Derived||FM15-METAR|223|ICAO-KSVE|||||||||||||||||||||||||||||||||||||||||||||||||||||||||||||||||||1002.7||1|FM15-METAR|223|ICAO-KSVE|||||||||||||||||||||||||||||||||||||||||||MET065METAR KSVE 232215Z AUTO 19010G21KT 10SM CLR 07/M01 A2961 RMK AO2=||F||223|ICAO-KSVE
USI0000KSVE|SUSANVILLE MUNI|2016|12|23|22|35|40.3757|-120.5727|1264.6|7.0||1|FM15-METAR|223|ICAO-KSVE|0.0||1|FM15-METAR|223|ICAO-KSVE|861.2||4|FM15-METAR|223|ICAO-KSVE|||||||200|N-Normal|1|FM15-METAR|223|ICAO-KSVE|5.1|N-Normal|1|FM15-METAR|223|ICAO-KSVE|||||||||||||61|Derived||FM15-METAR|223|ICAO-KSVE|3.9|Derived||FM15-METAR|223|ICAO-KSVE|||||||||||||||||||||||||||||||||||||||||||||||||||||||||||||||||||1002.7||1|FM15-METAR|223|ICAO-KSVE|||||||||||||||||||||||||||||||||||||||||||MET071METAR KSVE 232235Z AUTO 20010KT 10SM FEW020 SCT034 07/00 A2961 RMK AO2=||F||223|ICAO-KSVE
USI0000KSVE|SUSANVILLE MUNI|2016|12|23|22|55|40.3757|-120.5727|1264.6|5.0||1|FM15-METAR|223|ICAO-KSVE|0.0||1|FM15-METAR|223|ICAO-KSVE|861.2||4|FM15-METAR|223|ICAO-KSVE|||||||200|N-Normal|1|FM15-METAR|223|ICAO-KSVE|4.6|N-Normal|1|FM15-METAR|223|ICAO-KSVE|8.8||1|FM15-METAR|223|ICAO-KSVE|||||||70|Derived||FM15-METAR|223|ICAO-KSVE|2.8|Derived||FM15-METAR|223|ICAO-KSVE|||||||||||||||||||||||||||||||||||||FU:05|FU:05-Smok|1|FM15-METAR|223|ICAO-KSVE|||||||||||||||||||||||||1002.7||1|FM15-METAR|223|ICAO-KSVE|||||||||||||||||||||||||||||||||||||||||||MET083METAR KSVE 232255Z AUTO 20009G17KT 5SM HZ FEW002 SCT025 BKN034 05/00 A2961 RMK AO2=||F||223|ICAO-KSVE
USI0000KSVE|SUSANVILLE MUNI|2016|12|23|23|15|40.3757|-120.5727|1264.6|6.0||1|FM15-METAR|223|ICAO-KSVE|0.0||1|FM15-METAR|223|ICAO-KSVE|861.0||4|FM15-METAR|223|ICAO-KSVE|||||||200|N-Normal|1|FM15-METAR|223|ICAO-KSVE|3.1|N-Normal|1|FM15-METAR|223|ICAO-KSVE|||||||||||||66|Derived||FM15-METAR|223|ICAO-KSVE|3.4|Derived||FM15-METAR|223|ICAO-KSVE|||||||||||||||||||||||||||||||||||||||||||||||||||||||||||||||||||1002.4||1|FM15-METAR|223|ICAO-KSVE|||||||||||||||||||||||||||||||||||||||||||MET078METAR KSVE 232315Z AUTO 20006KT 10SM FEW014 SCT032 BKN038 06/00 A2960 RMK AO2=||F||223|ICAO-KSVE
USI0000KSVE|SUSANVILLE MUNI|2016|12|23|23|35|40.3757|-120.5727|1264.6|6.0||1|FM15-METAR|223|ICAO-KSVE|-1.0||1|FM15-METAR|223|ICAO-KSVE|860.6||4|FM15-METAR|223|ICAO-KSVE|||||||180|N-Normal|1|FM15-METAR|223|ICAO-KSVE|8.2|N-Normal|1|FM15-METAR|223|ICAO-KSVE|10.8||1|FM15-METAR|223|ICAO-KSVE|||||||61|Derived||FM15-METAR|223|ICAO-KSVE|2.9|Derived||FM15-METAR|223|ICAO-KSVE|||||||||||||||||||||||||||||||||||||||||||||||||||||||||||||||||||1002.0||1|FM15-METAR|223|ICAO-KSVE|||||||||||||||||||||||||||||||||||||||||||MET075METAR KSVE 232335Z AUTO 18016G21KT 10SM FEW025 BKN036 06/M01 A2959 RMK AO2=||F||223|ICAO-KSVE
USI0000KSVE|SUSANVILLE MUNI|2016|12|23|23|55|40.3757|-120.5727|1264.6|5.0||1|FM15-METAR|223|ICAO-KSVE|0.0||1|FM15-METAR|223|ICAO-KSVE|860.6||4|FM15-METAR|223|ICAO-KSVE|||||||200|V-Variable|1|FM15-METAR|223|ICAO-KSVE|6.2|V-Variable|1|FM15-METAR|223|ICAO-KSVE|8.2||1|FM15-METAR|223|ICAO-KSVE|||||||70|Derived||FM15-METAR|223|ICAO-KSVE|2.8|Derived||FM15-METAR|223|ICAO-KSVE|||||||||||||||||||||||||||||||||||||||||||||||||||||||||||||||||||1002.0||1|FM15-METAR|223|ICAO-KSVE|||||||||||||||||||||||||||||||||||||||||||MET082METAR KSVE 232355Z AUTO 20012G16KT 030V040 10SM FEW020 FEW035 05/00 A2959 RMK AO2=||F||223|ICAO-KSVE
USI0000KSVE|SUSANVILLE MUNI|2016|12|24|00|15|40.3757|-120.5727|1264.6|5.0||1|FM15-METAR|223|ICAO-KSVE|-1.0||1|FM15-METAR|223|ICAO-KSVE|861.0||4|FM15-METAR|223|ICAO-KSVE|||||||190|N-Normal|1|FM15-METAR|223|ICAO-KSVE|8.2|N-Normal|1|FM15-METAR|223|ICAO-KSVE|9.8||1|FM15-METAR|223|ICAO-KSVE|||||||66|Derived||FM15-METAR|223|ICAO-KSVE|2.3|Derived||FM15-METAR|223|ICAO-KSVE|||||||||||||||||||||||||||||||||||||||||||||||||||||||||||||||||||1002.4||1|FM15-METAR|223|ICAO-KSVE|||||||||||||||||||||||||||||||||||||||||||MET075METAR KSVE 240015Z AUTO 19016G19KT 10SM FEW022 FEW032 05/M01 A2960 RMK AO2=||F||223|ICAO-KSVE
USI0000KSVE|SUSANVILLE MUNI|2016|12|24|00|35|40.3757|-120.5727|1264.6|4.0||1|FM15-METAR|223|ICAO-KSVE|0.0||1|FM15-METAR|223|ICAO-KSVE|861.0||4|FM15-METAR|223|ICAO-KSVE|||||||190|N-Normal|1|FM15-METAR|223|ICAO-KSVE|4.6|N-Normal|1|FM15-METAR|223|ICAO-KSVE|||||||||||||75|Derived||FM15-METAR|223|ICAO-KSVE|2.2|Derived||FM15-METAR|223|ICAO-KSVE|||||||||||||||||||||||||||||||||||||||||||||||||||||||||||||||||||1002.4||1|FM15-METAR|223|ICAO-KSVE|||||||||||||||||||||||||||||||||||||||||||MET064METAR KSVE 240035Z AUTO 19009KT 10SM FEW032 04/00 A2960 RMK AO2=||F||223|ICAO-KSVE
USI0000KSVE|SUSANVILLE MUNI|2016|12|24|00|55|40.3757|-120.5727|1264.6|4.0||1|FM15-METAR|223|ICAO-KSVE|0.0||1|FM15-METAR|223|ICAO-KSVE|861.2||4|FM15-METAR|223|ICAO-KSVE|||||||210|N-Normal|1|FM15-METAR|223|ICAO-KSVE|3.6|N-Normal|1|FM15-METAR|223|ICAO-KSVE|7.7||1|FM15-METAR|223|ICAO-KSVE|||||||75|Derived||FM15-METAR|223|ICAO-KSVE|2.2|Derived||FM15-METAR|223|ICAO-KSVE|||||||||||||||||||||||||||||||||||||||||||||||||||||||||||||||||||1002.7||1|FM15-METAR|223|ICAO-KSVE|||||||||||||||||||||||||||||||||||||||||||MET080METAR KSVE 240055Z AUTO 21007G15KT 7SM FEW010 SCT020 BKN029 04/00 A2961 RMK AO2=||F||223|ICAO-KSVE
USI0000KSVE|SUSANVILLE MUNI|2016|12|24|01|15|40.3757|-120.5727|1264.6|4.0||1|FM15-METAR|223|ICAO-KSVE|-1.0||1|FM15-METAR|223|ICAO-KSVE|861.0||4|FM15-METAR|223|ICAO-KSVE|||||||230|N-Normal|1|FM15-METAR|223|ICAO-KSVE|4.1|N-Normal|1|FM15-METAR|223|ICAO-KSVE|7.2||1|FM15-METAR|223|ICAO-KSVE|||||||70|Derived||FM15-METAR|223|ICAO-KSVE|1.7|Derived||FM15-METAR|223|ICAO-KSVE|||||||||||||||||||||||||||||||||||||||||||||||||||||||||||||||||||1002.4||1|FM15-METAR|223|ICAO-KSVE|||||||||||||||||||||||||||||||||||||||||||MET082METAR KSVE 240115Z AUTO 23008G14KT 10SM FEW010 FEW018 SCT022 04/M01 A2960 RMK AO2=||F||223|ICAO-KSVE
USI0000KSVE|SUSANVILLE MUNI|2016|12|24|01|35|40.3757|-120.5727|1264.6|4.0||1|FM15-METAR|223|ICAO-KSVE|-2.0||1|FM15-METAR|223|ICAO-KSVE|861.0||4|FM15-METAR|223|ICAO-KSVE|||||||200|N-Normal|1|FM15-METAR|223|ICAO-KSVE|7.7|N-Normal|1|FM15-METAR|223|ICAO-KSVE|16.5||1|FM15-METAR|223|ICAO-KSVE|||||||65|Derived||FM15-METAR|223|ICAO-KSVE|1.3|Derived||FM15-METAR|223|ICAO-KSVE|||||||||||||||||||||||||||||||||||||||||||||||||||||||||||||||||||1002.4||1|FM15-METAR|223|ICAO-KSVE|||||||||||||||||||||||||||||||||||||||||||MET068METAR KSVE 240135Z AUTO 20015G32KT 10SM FEW029 04/M02 A2960 RMK AO2=||F||223|ICAO-KSVE
USI0000KSVE|SUSANVILLE MUNI|2016|12|24|01|55|40.3757|-120.5727|1264.6|4.0||1|FM15-METAR|223|ICAO-KSVE|-2.0||1|FM15-METAR|223|ICAO-KSVE|861.2||4|FM15-METAR|223|ICAO-KSVE|||||||230|N-Normal|1|FM15-METAR|223|ICAO-KSVE|4.1|N-Normal|1|FM15-METAR|223|ICAO-KSVE|||||||||||||65|Derived||FM15-METAR|223|ICAO-KSVE|1.3|Derived||FM15-METAR|223|ICAO-KSVE|||||||||||||||||||||||||||||||||||||||||||||||||||||||||||||||||||1002.7||1|FM15-METAR|223|ICAO-KSVE|||||||||||||||||||||||||||||||||||||||||||MET065METAR KSVE 240155Z AUTO 23008KT 10SM FEW110 04/M02 A2961 RMK AO2=||F||223|ICAO-KSVE
USI0000KSVE|SUSANVILLE MUNI|2016|12|24|02|15|40.3757|-120.5727|1264.6|4.0||1|FM15-METAR|223|ICAO-KSVE|-1.0||1|FM15-METAR|223|ICAO-KSVE|861.2||4|FM15-METAR|223|ICAO-KSVE|||||||270|N-Normal|1|FM15-METAR|223|ICAO-KSVE|5.1|N-Normal|1|FM15-METAR|223|ICAO-KSVE|7.2||1|FM15-METAR|223|ICAO-KSVE|||||||70|Derived||FM15-METAR|223|ICAO-KSVE|1.7|Derived||FM15-METAR|223|ICAO-KSVE|||||||||||||||||||||||||||||||||||||40|40-Precipi|1|FM15-METAR|223|ICAO-KSVE|||||||||||||||||||||||||1002.7||1|FM15-METAR|223|ICAO-KSVE|||||||||||||||||||||||||||||||||||||||||||MET085METAR KSVE 240215Z AUTO 27010G14KT 10SM UP FEW021 SCT033 BKN040 04/M01 A2961 RMK AO2=||F||223|ICAO-KSVE
USI0000KSVE|SUSANVILLE MUNI|2016|12|24|02|35|40.3757|-120.5727|1264.6|2.0||1|FM15-METAR|223|ICAO-KSVE|0.0||1|FM15-METAR|223|ICAO-KSVE|861.5||4|FM15-METAR|223|ICAO-KSVE|||||||210|N-Normal|1|FM15-METAR|223|ICAO-KSVE|4.1|N-Normal|1|FM15-METAR|223|ICAO-KSVE|||||||||||||87|Derived||FM15-METAR|223|ICAO-KSVE|1.3|Derived||FM15-METAR|223|ICAO-KSVE|||||||||||||||||||||||||||||||||||||40|40-Precipi|1|FM15-METAR|223|ICAO-KSVE|||||||||||||||||||||||||1003.0||1|FM15-METAR|223|ICAO-KSVE|||||||||||||||||||||||||||||||||||||||||||MET080METAR KSVE 240235Z AUTO 21008KT 3SM UP BKN011 BKN018 OVC027 02/00 A2962 RMK AO2=||F||223|ICAO-KSVE
USI0000KSVE|SUSANVILLE MUNI|2016|12|24|02|55|40.3757|-120.5727|1264.6|2.0||1|FM15-METAR|223|ICAO-KSVE|0.0||1|FM15-METAR|223|ICAO-KSVE|861.2||4|FM15-METAR|223|ICAO-KSVE|||||||270|N-Normal|1|FM15-METAR|223|ICAO-KSVE|2.1|N-Normal|1|FM15-METAR|223|ICAO-KSVE|||||||||||||87|Derived||FM15-METAR|223|ICAO-KSVE|1.3|Derived||FM15-METAR|223|ICAO-KSVE|||||||||||||||||||||||||||||||||||||SN:71|SN:71-Snow|1|FM15-METAR|223|ICAO-KSVE|||||||||||||||||||||||||1002.7||1|FM15-METAR|223|ICAO-KSVE|||||||||||||||||||||||||||||||||||||||||||MET081METAR KSVE 240255Z AUTO 27004KT 8SM -SN BKN009 BKN019 OVC036 02/00 A2961 RMK AO2=||F||223|ICAO-KSVE
USI0000KSVE|SUSANVILLE MUNI|2016|12|24|03|15|40.3757|-120.5727|1264.6|2.0||1|FM15-METAR|223|ICAO-KSVE|0.0||1|FM15-METAR|223|ICAO-KSVE|861.2||4|FM15-METAR|223|ICAO-KSVE|||||||280|N-Normal|1|FM15-METAR|223|ICAO-KSVE|2.6|N-Normal|1|FM15-METAR|223|ICAO-KSVE|||||||||||||87|Derived||FM15-METAR|223|ICAO-KSVE|1.3|Derived||FM15-METAR|223|ICAO-KSVE|||||||||||||||||||||||||||||||||||||40|40-Precipi|1|FM15-METAR|223|ICAO-KSVE|||||||||||||||||||||||||1002.7||1|FM15-METAR|223|ICAO-KSVE|||||||||||||||||||||||||||||||||||||||||||MET080METAR KSVE 240315Z AUTO 28005KT 5SM UP FEW011 BKN022 OVC036 02/00 A2961 RMK AO2=||F||223|ICAO-KSVE
USI0000KSVE|SUSANVILLE MUNI|2016|12|24|03|35|40.3757|-120.5727|1264.6|1.0||1|FM15-METAR|223|ICAO-KSVE|0.0||1|FM15-METAR|223|ICAO-KSVE|861.2||4|FM15-METAR|223|ICAO-KSVE|||||||999|C-Calm|9|FM15-METAR|223|ICAO-KSVE|0.0|C-Calm|1|FM15-METAR|223|ICAO-KSVE|||||||||||||93|Derived||FM15-METAR|223|ICAO-KSVE|0.6|Derived||FM15-METAR|223|ICAO-KSVE|||||||||||||||||||||||||||||||||||||||||||||||||||||||||||||||||||1002.7||1|FM15-METAR|223|ICAO-KSVE|||||||||||||||||||||||||||||||||||||||||||MET078METAR KSVE 240335Z AUTO 00000KT 10SM FEW010 SCT027 BKN036 01/00 A2961 RMK AO2=||F||223|ICAO-KSVE
USI0000KSVE|SUSANVILLE MUNI|2016|12|24|03|55|40.3757|-120.5727|1264.6|1.0||1|FM15-METAR|223|ICAO-KSVE|0.0||1|FM15-METAR|223|ICAO-KSVE|861.8||4|FM15-METAR|223|ICAO-KSVE|||||||330|N-Normal|1|FM15-METAR|223|ICAO-KSVE|3.6|N-Normal|1|FM15-METAR|223|ICAO-KSVE|||||||||||||93|Derived||FM15-METAR|223|ICAO-KSVE|0.6|Derived||FM15-METAR|223|ICAO-KSVE|||||||||||||||||||||||||||||||||||||40|40-Precipi|1|FM15-METAR|223|ICAO-KSVE|||||||||||||||||||||||||1003.4||1|FM15-METAR|223|ICAO-KSVE|||||||||||||||||||||||||||||||||||||||||||MET080METAR KSVE 240355Z AUTO 33007KT 9SM UP SCT015 SCT027 BKN039 01/00 A2963 RMK AO2=||F||223|ICAO-KSVE
USI0000KSVE|SUSANVILLE MUNI|2016|12|24|04|15|40.3757|-120.5727|1264.6|1.0||1|FM15-METAR|223|ICAO-KSVE|0.0||1|FM15-METAR|223|ICAO-KSVE|861.8||4|FM15-METAR|223|ICAO-KSVE|||||||270|N-Normal|1|FM15-METAR|223|ICAO-KSVE|4.1|N-Normal|1|FM15-METAR|223|ICAO-KSVE|||||||||||||93|Derived||FM15-METAR|223|ICAO-KSVE|0.6|Derived||FM15-METAR|223|ICAO-KSVE|||||||||||||||||||||||||||||||||||||40|40-Precipi|1|FM15-METAR|223|ICAO-KSVE|||||||||||||||||||||||||1003.4||1|FM15-METAR|223|ICAO-KSVE|||||||||||||||||||||||||||||||||||||||||||MET084METAR KSVE 240415Z AUTO 27008KT 2 1/2SM UP SCT009 BKN016 OVC035 01/00 A2963 RMK AO2=||F||223|ICAO-KSVE
USI0000KSVE|SUSANVILLE MUNI|2016|12|24|04|35|40.3757|-120.5727|1264.6|1.0||1|FM15-METAR|223|ICAO-KSVE|0.0||1|FM15-METAR|223|ICAO-KSVE|862.1||4|FM15-METAR|223|ICAO-KSVE|||||||310|N-Normal|1|FM15-METAR|223|ICAO-KSVE|3.1|N-Normal|1|FM15-METAR|223|ICAO-KSVE|||||||||||||93|Derived||FM15-METAR|223|ICAO-KSVE|0.6|Derived||FM15-METAR|223|ICAO-KSVE|||||||||||||||||||||||||||||||||||||SN:71|SN:71-Snow|1|FM15-METAR|223|ICAO-KSVE|||||||||||||||||||||||||1003.7||1|FM15-METAR|223|ICAO-KSVE|||||||||||||||||||||||||||||||||||||||||||MET081METAR KSVE 240435Z AUTO 31006KT 3SM -SN FEW001 SCT009 BKN018 01/00 A2964 RMK AO2=||F||223|ICAO-KSVE
USI0000KSVE|SUSANVILLE MUNI|2016|12|24|04|55|40.3757|-120.5727|1264.6|1.0||1|FM15-METAR|223|ICAO-KSVE|0.0||1|FM15-METAR|223|ICAO-KSVE|862.1||4|FM15-METAR|223|ICAO-KSVE|||||||330|N-Normal|1|FM15-METAR|223|ICAO-KSVE|2.6|N-Normal|1|FM15-METAR|223|ICAO-KSVE|||||||||||||93|Derived||FM15-METAR|223|ICAO-KSVE|0.6|Derived||FM15-METAR|223|ICAO-KSVE|||||||||||||||||||||||||||||||||||||SN:71|SN:71-Snow|1|FM15-METAR|223|ICAO-KSVE|||||||||||||||||||||||||1003.7||1|FM15-METAR|223|ICAO-KSVE|||||||||||||||||||||||||||||||||||||||||||MET082METAR KSVE 240455Z AUTO 33005KT 10SM -SN FEW001 SCT015 BKN027 01/00 A2964 RMK AO2=||F||223|ICAO-KSVE
USI0000KSVE|SUSANVILLE MUNI|2016|12|24|05|15|40.3757|-120.5727|1264.6|1.0||1|FM15-METAR|223|ICAO-KSVE|-1.0||1|FM15-METAR|223|ICAO-KSVE|862.1||4|FM15-METAR|223|ICAO-KSVE|||||||270|N-Normal|1|FM15-METAR|223|ICAO-KSVE|2.6|N-Normal|1|FM15-METAR|223|ICAO-KSVE|||||||||||||87|Derived||FM15-METAR|223|ICAO-KSVE|0.2|Derived||FM15-METAR|223|ICAO-KSVE|||||||||||||||||||||||||||||||||||||||||||||||||||||||||||||||||||1003.7||1|FM15-METAR|223|ICAO-KSVE|||||||||||||||||||||||||||||||||||||||||||MET078METAR KSVE 240515Z AUTO 27005KT 9SM SCT019 BKN025 OVC032 01/M01 A2964 RMK AO2=||F||223|ICAO-KSVE
USI0000KSVE|SUSANVILLE MUNI|2016|12|24|05|35|40.3757|-120.5727|1264.6|1.0||1|FM15-METAR|223|ICAO-KSVE|-1.0||1|FM15-METAR|223|ICAO-KSVE|862.5||4|FM15-METAR|223|ICAO-KSVE|||||||270|N-Normal|1|FM15-METAR|223|ICAO-KSVE|3.1|N-Normal|1|FM15-METAR|223|ICAO-KSVE|||||||||||||87|Derived||FM15-METAR|223|ICAO-KSVE|0.2|Derived||FM15-METAR|223|ICAO-KSVE|||||||||||||||||||||||||||||||||||||||||||||||||||||||||||||||||||1004.1||1|FM15-METAR|223|ICAO-KSVE|||||||||||||||||||||||||||||||||||||||||||MET079METAR KSVE 240535Z AUTO 27006KT 10SM SCT024 BKN034 BKN050 01/M01 A2965 RMK AO2=||F||223|ICAO-KSVE
USI0000KSVE|SUSANVILLE MUNI|2016|12|24|05|55|40.3757|-120.5727|1264.6|1.0||1|FM15-METAR|223|ICAO-KSVE|-1.0||1|FM15-METAR|223|ICAO-KSVE|862.1||4|FM15-METAR|223|ICAO-KSVE|||||||290|N-Normal|1|FM15-METAR|223|ICAO-KSVE|3.1|N-Normal|1|FM15-METAR|223|ICAO-KSVE|||||||||||||87|Derived||FM15-METAR|223|ICAO-KSVE|0.2|Derived||FM15-METAR|223|ICAO-KSVE|||||||||||||||||||||||||||||||||||||SN:71|SN:71-Snow|1|FM15-METAR|223|ICAO-KSVE|||||||||||||||||||||||||1003.7||1|FM15-METAR|223|ICAO-KSVE|||||||||||||||||||||||||||||||||||||||||||MET086METAR KSVE 240555Z AUTO 29006KT 2 1/2SM -SN FEW010 BKN015 OVC070 01/M01 A2964 RMK AO2=||F||223|ICAO-KSVE
USI0000KSVE|SUSANVILLE MUNI|2016|12|24|06|15|40.3757|-120.5727|1264.6|0.0||1|FM15-METAR|223|ICAO-KSVE|-1.0||1|FM15-METAR|223|ICAO-KSVE|862.1||4|FM15-METAR|223|ICAO-KSVE|||||||330|N-Normal|1|FM15-METAR|223|ICAO-KSVE|1.5|N-Normal|1|FM15-METAR|223|ICAO-KSVE|||||||||||||93|Derived||FM15-METAR|223|ICAO-KSVE|-0.5|Derived||FM15-METAR|223|ICAO-KSVE|||||||||||||||||||||||||||||||||||||||||||||||||||||||||||||||||||1003.7||1|FM15-METAR|223|ICAO-KSVE|||||||||||||||||||||||||||||||||||||||||||MET079METAR KSVE 240615Z AUTO 33003KT 10SM FEW010 SCT015 BKN022 00/M01 A2964 RMK AO2=||F||223|ICAO-KSVE
USI0000KSVE|SUSANVILLE MUNI|2016|12|24|06|35|40.3757|-120.5727|1264.6|0.0||1|FM15-METAR|223|ICAO-KSVE|-1.0||1|FM15-METAR|223|ICAO-KSVE|862.5||4|FM15-METAR|223|ICAO-KSVE|||||||999|C-Calm|9|FM15-METAR|223|ICAO-KSVE|0.0|C-Calm|1|FM15-METAR|223|ICAO-KSVE|||||||||||||93|Derived||FM15-METAR|223|ICAO-KSVE|-0.5|Derived||FM15-METAR|223|ICAO-KSVE|||||||||||||||||||||||||||||||||||||||||||||||||||||||||||||||||||1004.1||1|FM15-METAR|223|ICAO-KSVE|||||||||||||||||||||||||||||||||||||||||||MET079METAR KSVE 240635Z AUTO 00000KT 10SM FEW022 FEW039 SCT100 00/M01 A2965 RMK AO2=||F||223|ICAO-KSVE
USI0000KSVE|SUSANVILLE MUNI|2016|12|24|06|55|40.3757|-120.5727|1264.6|0.0||1|FM15-METAR|223|ICAO-KSVE|-1.0||1|FM15-METAR|223|ICAO-KSVE|862.1||4|FM15-METAR|223|ICAO-KSVE|||||||999|C-Calm|9|FM15-METAR|223|ICAO-KSVE|0.0|C-Calm|1|FM15-METAR|223|ICAO-KSVE|||||||||||||93|Derived||FM15-METAR|223|ICAO-KSVE|-0.5|Derived||FM15-METAR|223|ICAO-KSVE|||||||||||||||||||||||||||||||||||||||||||||||||||||||||||||||||||1003.7||1|FM15-METAR|223|ICAO-KSVE|||||||||||||||||||||||||||||||||||||||||||MET072METAR KSVE 240655Z AUTO 00000KT 10SM BKN048 BKN055 00/M01 A2964 RMK AO2=||F||223|ICAO-KSVE
USI0000KSVE|SUSANVILLE MUNI|2016|12|24|07|15|40.3757|-120.5727|1264.6|0.0||1|FM15-METAR|223|ICAO-KSVE|-1.0||1|FM15-METAR|223|ICAO-KSVE|862.5||4|FM15-METAR|223|ICAO-KSVE|||||||310|N-Normal|1|FM15-METAR|223|ICAO-KSVE|1.5|N-Normal|1|FM15-METAR|223|ICAO-KSVE|||||||||||||93|Derived||FM15-METAR|223|ICAO-KSVE|-0.5|Derived||FM15-METAR|223|ICAO-KSVE|||||||||||||||||||||||||||||||||||||||||||||||||||||||||||||||||||1004.1||1|FM15-METAR|223|ICAO-KSVE|||||||||||||||||||||||||||||||||||||||||||MET065METAR KSVE 240715Z AUTO 31003KT 10SM OVC048 00/M01 A2965 RMK AO2=||F||223|ICAO-KSVE
USI0000KSVE|SUSANVILLE MUNI|2016|12|24|07|35|40.3757|-120.5727|1264.6|0.0||1|FM15-METAR|223|ICAO-KSVE|-2.0||1|FM15-METAR|223|ICAO-KSVE|862.1||4|FM15-METAR|223|ICAO-KSVE|||||||280|N-Normal|1|FM15-METAR|223|ICAO-KSVE|3.1|N-Normal|1|FM15-METAR|223|ICAO-KSVE|||||||||||||87|Derived||FM15-METAR|223|ICAO-KSVE|-0.9|Derived||FM15-METAR|223|ICAO-KSVE|||||||||||||||||||||||||||||||||||||||||||||||||||||||||||||||||||1003.7||1|FM15-METAR|223|ICAO-KSVE|||||||||||||||||||||||||||||||||||||||||||MET072METAR KSVE 240735Z AUTO 28006KT 10SM SCT039 OVC047 00/M02 A2964 RMK AO2=||F||223|ICAO-KSVE
USI0000KSVE|SUSANVILLE MUNI|2016|12|24|07|55|40.3757|-120.5727|1264.6|0.0||1|FM15-METAR|223|ICAO-KSVE|-2.0||1|FM15-METAR|223|ICAO-KSVE|862.5||4|FM15-METAR|223|ICAO-KSVE|||||||310|N-Normal|1|FM15-METAR|223|ICAO-KSVE|2.6|N-Normal|1|FM15-METAR|223|ICAO-KSVE|||||||||||||87|Derived||FM15-METAR|223|ICAO-KSVE|-0.9|Derived||FM15-METAR|223|ICAO-KSVE|||||||||||||||||||||||||||||||||||||||||||||||||||||||||||||||||||1004.1||1|FM15-METAR|223|ICAO-KSVE|||||||||||||||||||||||||||||||||||||||||||MET072METAR KSVE 240755Z AUTO 31005KT 10SM FEW039 BKN047 00/M02 A2965 RMK AO2=||F||223|ICAO-KSVE
USI0000KSVE|SUSANVILLE MUNI|2016|12|24|08|15|40.3757|-120.5727|1264.6|0.0||1|FM15-METAR|223|ICAO-KSVE|-3.0||1|FM15-METAR|223|ICAO-KSVE|862.1||4|FM15-METAR|223|ICAO-KSVE|||||||280|N-Normal|1|FM15-METAR|223|ICAO-KSVE|2.6|N-Normal|1|FM15-METAR|223|ICAO-KSVE|||||||||||||80|Derived||FM15-METAR|223|ICAO-KSVE|-1.1|Derived||FM15-METAR|223|ICAO-KSVE|||||||||||||||||||||||||||||||||||||||||||||||||||||||||||||||||||1003.7||1|FM15-METAR|223|ICAO-KSVE|||||||||||||||||||||||||||||||||||||||||||MET065METAR KSVE 240815Z AUTO 28005KT 10SM FEW046 00/M03 A2964 RMK AO2=||F||223|ICAO-KSVE
USI0000KSVE|SUSANVILLE MUNI|2016|12|24|08|35|40.3757|-120.5727|1264.6|-1.0||1|FM15-METAR|223|ICAO-KSVE|-3.0||1|FM15-METAR|223|ICAO-KSVE|862.5||4|FM15-METAR|223|ICAO-KSVE|||||||300|N-Normal|1|FM15-METAR|223|ICAO-KSVE|2.1|N-Normal|1|FM15-METAR|223|ICAO-KSVE|||||||||||||86|Derived||FM15-METAR|223|ICAO-KSVE|-1.8|Derived||FM15-METAR|223|ICAO-KSVE|||||||||||||||||||||||||||||||||||||||||||||||||||||||||||||||||||1004.1||1|FM15-METAR|223|ICAO-KSVE|||||||||||||||||||||||||||||||||||||||||||MET066METAR KSVE 240835Z AUTO 30004KT 10SM BKN047 M01/M03 A2965 RMK AO2=||F||223|ICAO-KSVE
USI0000KSVE|SUSANVILLE MUNI|2016|12|24|08|55|40.3757|-120.5727|1264.6|0.0||1|FM15-METAR|223|ICAO-KSVE|-3.0||1|FM15-METAR|223|ICAO-KSVE|862.5||4|FM15-METAR|223|ICAO-KSVE|||||||310|N-Normal|1|FM15-METAR|223|ICAO-KSVE|1.5|N-Normal|1|FM15-METAR|223|ICAO-KSVE|||||||||||||80|Derived||FM15-METAR|223|ICAO-KSVE|-1.1|Derived||FM15-METAR|223|ICAO-KSVE|||||||||||||||||||||||||||||||||||||||||||||||||||||||||||||||||||1004.1||1|FM15-METAR|223|ICAO-KSVE|||||||||||||||||||||||||||||||||||||||||||MET072METAR KSVE 240855Z AUTO 31003KT 10SM FEW040 OVC049 00/M03 A2965 RMK AO2=||F||223|ICAO-KSVE
USI0000KSVE|SUSANVILLE MUNI|2016|12|24|09|15|40.3757|-120.5727|1264.6|0.0||1|FM15-METAR|223|ICAO-KSVE|-2.0||1|FM15-METAR|223|ICAO-KSVE|862.5||4|FM15-METAR|223|ICAO-KSVE|||||||999|C-Calm|9|FM15-METAR|223|ICAO-KSVE|0.0|C-Calm|1|FM15-METAR|223|ICAO-KSVE|||||||||||||87|Derived||FM15-METAR|223|ICAO-KSVE|-0.9|Derived||FM15-METAR|223|ICAO-KSVE|||||||||||||||||||||||||||||||||||||||||||||||||||||||||||||||||||1004.1||1|FM15-METAR|223|ICAO-KSVE|||||||||||||||||||||||||||||||||||||||||||MET072METAR KSVE 240915Z AUTO 00000KT 10SM BKN040 OVC049 00/M02 A2965 RMK AO2=||F||223|ICAO-KSVE
USI0000KSVE|SUSANVILLE MUNI|2016|12|24|09|35|40.3757|-120.5727|1264.6|0.0||1|FM15-METAR|223|ICAO-KSVE|-2.0||1|FM15-METAR|223|ICAO-KSVE|862.7||4|FM15-METAR|223|ICAO-KSVE|||||||999|C-Calm|9|FM15-METAR|223|ICAO-KSVE|0.0|C-Calm|1|FM15-METAR|223|ICAO-KSVE|||||||||||||87|Derived||FM15-METAR|223|ICAO-KSVE|-0.9|Derived||FM15-METAR|223|ICAO-KSVE|||||||||||||||||||||||||||||||||||||||||||||||||||||||||||||||||||1004.4||1|FM15-METAR|223|ICAO-KSVE|||||||||||||||||||||||||||||||||||||||||||MET065METAR KSVE 240935Z AUTO 00000KT 10SM OVC040 00/M02 A2966 RMK AO2=||F||223|ICAO-KSVE
USI0000KSVE|SUSANVILLE MUNI|2016|12|24|09|55|40.3757|-120.5727|1264.6|0.0||1|FM15-METAR|223|ICAO-KSVE|-2.0||1|FM15-METAR|223|ICAO-KSVE|862.7||4|FM15-METAR|223|ICAO-KSVE|||||||||||||||||||||||||||||||87|Derived||FM15-METAR|223|ICAO-KSVE|-0.9|Derived||FM15-METAR|223|ICAO-KSVE|||||||||||||||||||||||||||||||||||||||||||||||||||||||||||||||||||1004.4||1|FM15-METAR|223|ICAO-KSVE|||||||||||||||||||||||||||||||||||||||||||MET057METAR KSVE 240955Z AUTO 10SM OVC040 00/M02 A2966 RMK AO2=||F||223|ICAO-KSVE
USI0000KSVE|SUSANVILLE MUNI|2016|12|24|10|15|40.3757|-120.5727|1264.6|0.0||1|FM15-METAR|223|ICAO-KSVE|-2.0||1|FM15-METAR|223|ICAO-KSVE|862.7||4|FM15-METAR|223|ICAO-KSVE|||||||300|N-Normal|1|FM15-METAR|223|ICAO-KSVE|3.1|N-Normal|1|FM15-METAR|223|ICAO-KSVE|||||||||||||87|Derived||FM15-METAR|223|ICAO-KSVE|-0.9|Derived||FM15-METAR|223|ICAO-KSVE|||||||||||||||||||||||||||||||||||||||||||||||||||||||||||||||||||1004.4||1|FM15-METAR|223|ICAO-KSVE|||||||||||||||||||||||||||||||||||||||||||MET072METAR KSVE 241015Z AUTO 30006KT 10SM BKN038 OVC045 00/M02 A2966 RMK AO2=||F||223|ICAO-KSVE
USI0000KSVE|SUSANVILLE MUNI|2016|12|24|10|35|40.3757|-120.5727|1264.6|0.0||1|FM15-METAR|223|ICAO-KSVE|-2.0||1|FM15-METAR|223|ICAO-KSVE|862.7||4|FM15-METAR|223|ICAO-KSVE|||||||280|N-Normal|1|FM15-METAR|223|ICAO-KSVE|4.6|N-Normal|1|FM15-METAR|223|ICAO-KSVE|||||||||||||87|Derived||FM15-METAR|223|ICAO-KSVE|-0.9|Derived||FM15-METAR|223|ICAO-KSVE|||||||||||||||||||||||||||||||||||||SN:71|SN:71-Snow|1|FM15-METAR|223|ICAO-KSVE|||||||||||||||||||||||||1004.4||1|FM15-METAR|223|ICAO-KSVE|||||||||||||||||||||||||||||||||||||||||||MET082METAR KSVE 241035Z AUTO 28009KT 5SM -SN FEW015 BKN040 OVC045 00/M02 A2966 RMK AO2=||F||223|ICAO-KSVE
USI0000KSVE|SUSANVILLE MUNI|2016|12|24|10|55|40.3757|-120.5727|1264.6|0.0||1|FM15-METAR|223|ICAO-KSVE|-1.0||1|FM15-METAR|223|ICAO-KSVE|863.0||4|FM15-METAR|223|ICAO-KSVE|||||||270|N-Normal|1|FM15-METAR|223|ICAO-KSVE|4.6|N-Normal|1|FM15-METAR|223|ICAO-KSVE|||||||||||||93|Derived||FM15-METAR|223|ICAO-KSVE|-0.5|Derived||FM15-METAR|223|ICAO-KSVE|||||||||||||||||||||||||||||||||||||40|40-Precipi|1|FM15-METAR|223|ICAO-KSVE|||||||||||||||||||||||||1004.7||1|FM15-METAR|223|ICAO-KSVE|||||||||||||||||||||||||||||||||||||||||||MET081METAR KSVE 241055Z AUTO 27009KT 3SM UP FEW001 SCT012 BKN017 00/M01 A2967 RMK AO2=||F||223|ICAO-KSVE
USI0000KSVE|SUSANVILLE MUNI|2016|12|24|11|15|40.3757|-120.5727|1264.6|0.0||1|FM15-METAR|223|ICAO-KSVE|-2.0||1|FM15-METAR|223|ICAO-KSVE|863.0||4|FM15-METAR|223|ICAO-KSVE|||||||280|N-Normal|1|FM15-METAR|223|ICAO-KSVE|4.1|N-Normal|1|FM15-METAR|223|ICAO-KSVE|||||||||||||87|Derived||FM15-METAR|223|ICAO-KSVE|-0.9|Derived||FM15-METAR|223|ICAO-KSVE|||||||||||||||||||||||||||||||||||||SN:71|SN:71-Snow|1|FM15-METAR|223|ICAO-KSVE|||||||||||||||||||||||||1004.7||1|FM15-METAR|223|ICAO-KSVE|||||||||||||||||||||||||||||||||||||||||||MET083METAR KSVE 241115Z AUTO 28008KT 10SM -SN FEW011 SCT025 BKN035 00/M02 A2967 RMK AO2=||F||223|ICAO-KSVE
USI0000KSVE|SUSANVILLE MUNI|2016|12|24|11|35|40.3757|-120.5727|1264.6|0.0||1|FM15-METAR|223|ICAO-KSVE|-3.0||1|FM15-METAR|223|ICAO-KSVE|863.0||4|FM15-METAR|223|ICAO-KSVE|||||||280|N-Normal|1|FM15-METAR|223|ICAO-KSVE|4.6|N-Normal|1|FM15-METAR|223|ICAO-KSVE|||||||||||||80|Derived||FM15-METAR|223|ICAO-KSVE|-1.1|Derived||FM15-METAR|223|ICAO-KSVE|||||||||||||||||||||||||||||||||||||||||||||||||||||||||||||||||||1004.7||1|FM15-METAR|223|ICAO-KSVE|||||||||||||||||||||||||||||||||||||||||||MET079METAR KSVE 241135Z AUTO 28009KT 10SM FEW023 FEW034 OVC055 00/M03 A2967 RMK AO2=||F||223|ICAO-KSVE
USI0000KSVE|SUSANVILLE MUNI|2016|12|24|11|55|40.3757|-120.5727|1264.6|0.0||1|FM15-METAR|223|ICAO-KSVE|-3.0||1|FM15-METAR|223|ICAO-KSVE|863.3||4|FM15-METAR|223|ICAO-KSVE|||||||300|N-Normal|1|FM15-METAR|223|ICAO-KSVE|5.7|N-Normal|1|FM15-METAR|223|ICAO-KSVE|7.2||1|FM15-METAR|223|ICAO-KSVE|||||||80|Derived||FM15-METAR|223|ICAO-KSVE|-1.1|Derived||FM15-METAR|223|ICAO-KSVE|||||||||||||||||||||||||||||||||||||||||||||||||||||||||||||||||||1005.1||1|FM15-METAR|223|ICAO-KSVE|||||||||||||||||||||||||||||||||||||||||||MET082METAR KSVE 241155Z AUTO 30011G14KT 10SM FEW033 BKN065 OVC080 00/M03 A2968 RMK AO2=||F||223|ICAO-KSVE
USI0000KSVE|SUSANVILLE MUNI|2016|12|24|12|15|40.3757|-120.5727|1264.6|0.0||1|FM15-METAR|223|ICAO-KSVE|-3.0||1|FM15-METAR|223|ICAO-KSVE|863.3||4|FM15-METAR|223|ICAO-KSVE|||||||290|N-Normal|1|FM15-METAR|223|ICAO-KSVE|3.1|N-Normal|1|FM15-METAR|223|ICAO-KSVE|||||||||||||80|Derived||FM15-METAR|223|ICAO-KSVE|-1.1|Derived||FM15-METAR|223|ICAO-KSVE|||||||||||||||||||||||||||||||||||||||||||||||||||||||||||||||||||1005.1||1|FM15-METAR|223|ICAO-KSVE|||||||||||||||||||||||||||||||||||||||||||MET072METAR KSVE 241215Z AUTO 29006KT 10SM SCT065 OVC080 00/M03 A2968 RMK AO2=||F||223|ICAO-KSVE
USI0000KSVE|SUSANVILLE MUNI|2016|12|24|12|35|40.3757|-120.5727|1264.6|0.0||1|FM15-METAR|223|ICAO-KSVE|-3.0||1|FM15-METAR|223|ICAO-KSVE|863.6||4|FM15-METAR|223|ICAO-KSVE|||||||280|N-Normal|1|FM15-METAR|223|ICAO-KSVE|2.6|N-Normal|1|FM15-METAR|223|ICAO-KSVE|||||||||||||80|Derived||FM15-METAR|223|ICAO-KSVE|-1.1|Derived||FM15-METAR|223|ICAO-KSVE|||||||||||||||||||||||||||||||||||||||||||||||||||||||||||||||||||1005.4||1|FM15-METAR|223|ICAO-KSVE|||||||||||||||||||||||||||||||||||||||||||MET065METAR KSVE 241235Z AUTO 28005KT 10SM BKN080 00/M03 A2969 RMK AO2=||F||223|ICAO-KSVE
USI0000KSVE|SUSANVILLE MUNI|2016|12|24|12|55|40.3757|-120.5727|1264.6|0.0||1|FM15-METAR|223|ICAO-KSVE|-3.0||1|FM15-METAR|223|ICAO-KSVE|864.0||4|FM15-METAR|223|ICAO-KSVE|||||||290|N-Normal|1|FM15-METAR|223|ICAO-KSVE|2.6|N-Normal|1|FM15-METAR|223|ICAO-KSVE|||||||||||||80|Derived||FM15-METAR|223|ICAO-KSVE|-1.1|Derived||FM15-METAR|223|ICAO-KSVE|||||||||||||||||||||||||||||||||||||||||||||||||||||||||||||||||||1005.8||1|FM15-METAR|223|ICAO-KSVE|||||||||||||||||||||||||||||||||||||||||||MET079METAR KSVE 241255Z AUTO 29005KT 10SM FEW035 BKN045 BKN080 00/M03 A2970 RMK AO2=||F||223|ICAO-KSVE
USI0000KSVE|SUSANVILLE MUNI|2016|12|24|13|15|40.3757|-120.5727|1264.6|0.0||1|FM15-METAR|223|ICAO-KSVE|-4.0||1|FM15-METAR|223|ICAO-KSVE|864.0||4|FM15-METAR|223|ICAO-KSVE|||||||300|N-Normal|1|FM15-METAR|223|ICAO-KSVE|3.1|N-Normal|1|FM15-METAR|223|ICAO-KSVE|||||||||||||75|Derived||FM15-METAR|223|ICAO-KSVE|-1.5|Derived||FM15-METAR|223|ICAO-KSVE|||||||||||||||||||||||||||||||||||||||||||||||||||||||||||||||||||1005.8||1|FM15-METAR|223|ICAO-KSVE|||||||||||||||||||||||||||||||||||||||||||MET079METAR KSVE 241315Z AUTO 30006KT 10SM FEW037 SCT045 OVC060 00/M04 A2970 RMK AO2=||F||223|ICAO-KSVE
USI0000KSVE|SUSANVILLE MUNI|2016|12|24|13|35|40.3757|-120.5727|1264.6|0.0||1|FM15-METAR|223|ICAO-KSVE|-4.0||1|FM15-METAR|223|ICAO-KSVE|864.0||4|FM15-METAR|223|ICAO-KSVE|||||||290|N-Normal|1|FM15-METAR|223|ICAO-KSVE|3.6|N-Normal|1|FM15-METAR|223|ICAO-KSVE|||||||||||||75|Derived||FM15-METAR|223|ICAO-KSVE|-1.5|Derived||FM15-METAR|223|ICAO-KSVE|||||||||||||||||||||||||||||||||||||||||||||||||||||||||||||||||||1005.8||1|FM15-METAR|223|ICAO-KSVE|||||||||||||||||||||||||||||||||||||||||||MET072METAR KSVE 241335Z AUTO 29007KT 10SM BKN039 OVC060 00/M04 A2970 RMK AO2=||F||223|ICAO-KSVE
USI0000KSVE|SUSANVILLE MUNI|2016|12|24|13|55|40.3757|-120.5727|1264.6|-1.0||1|FM15-METAR|223|ICAO-KSVE|-4.0||1|FM15-METAR|223|ICAO-KSVE|864.2||4|FM15-METAR|223|ICAO-KSVE|||||||290|N-Normal|1|FM15-METAR|223|ICAO-KSVE|3.6|N-Normal|1|FM15-METAR|223|ICAO-KSVE|||||||||||||80|Derived||FM15-METAR|223|ICAO-KSVE|-2.2|Derived||FM15-METAR|223|ICAO-KSVE|||||||||||||||||||||||||||||||||||||||||||||||||||||||||||||||||||1006.1||1|FM15-METAR|223|ICAO-KSVE|||||||||||||||||||||||||||||||||||||||||||MET066METAR KSVE 241355Z AUTO 29007KT 10SM FEW040 M01/M04 A2971 RMK AO2=||F||223|ICAO-KSVE
USI0000KSVE|SUSANVILLE MUNI|2016|12|24|14|15|40.3757|-120.5727|1264.6|0.0||1|FM15-METAR|223|ICAO-KSVE|-5.0||1|FM15-METAR|223|ICAO-KSVE|864.5||4|FM15-METAR|223|ICAO-KSVE|||||||310|N-Normal|1|FM15-METAR|223|ICAO-KSVE|3.1|N-Normal|1|FM15-METAR|223|ICAO-KSVE|||||||||||||69|Derived||FM15-METAR|223|ICAO-KSVE|-1.9|Derived||FM15-METAR|223|ICAO-KSVE|||||||||||||||||||||||||||||||||||||||||||||||||||||||||||||||||||1006.4||1|FM15-METAR|223|ICAO-KSVE|||||||||||||||||||||||||||||||||||||||||||MET065METAR KSVE 241415Z AUTO 31006KT 10SM SCT034 00/M05 A2972 RMK AO2=||F||223|ICAO-KSVE
USI0000KSVE|SUSANVILLE MUNI|2016|12|24|14|35|40.3757|-120.5727|1264.6|0.0||1|FM15-METAR|223|ICAO-KSVE|-6.0||1|FM15-METAR|223|ICAO-KSVE|864.5||4|FM15-METAR|223|ICAO-KSVE|||||||320|N-Normal|1|FM15-METAR|223|ICAO-KSVE|3.6|N-Normal|1|FM15-METAR|223|ICAO-KSVE|||||||||||||64|Derived||FM15-METAR|223|ICAO-KSVE|-2.3|Derived||FM15-METAR|223|ICAO-KSVE|||||||||||||||||||||||||||||||||||||||||||||||||||||||||||||||||||1006.4||1|FM15-METAR|223|ICAO-KSVE|||||||||||||||||||||||||||||||||||||||||||MET065METAR KSVE 241435Z AUTO 32007KT 10SM SCT034 00/M06 A2972 RMK AO2=||F||223|ICAO-KSVE
USI0000KSVE|SUSANVILLE MUNI|2016|12|24|14|55|40.3757|-120.5727|1264.6|-1.0||1|FM15-METAR|223|ICAO-KSVE|-6.0||1|FM15-METAR|223|ICAO-KSVE|864.5||4|FM15-METAR|223|ICAO-KSVE|||||||310|N-Normal|1|FM15-METAR|223|ICAO-KSVE|4.1|N-Normal|1|FM15-METAR|223|ICAO-KSVE|||||||||||||69|Derived||FM15-METAR|223|ICAO-KSVE|-2.9|Derived||FM15-METAR|223|ICAO-KSVE|||||||||||||||||||||||||||||||||||||||||||||||||||||||||||||||||||1006.4||1|FM15-METAR|223|ICAO-KSVE|||||||||||||||||||||||||||||||||||||||||||MET073METAR KSVE 241455Z AUTO 31008KT 10SM FEW029 FEW055 M01/M06 A2972 RMK AO2=||F||223|ICAO-KSVE
USI0000KSVE|SUSANVILLE MUNI|2016|12|24|15|15|40.3757|-120.5727|1264.6|-1.0||1|FM15-METAR|223|ICAO-KSVE|-5.0||1|FM15-METAR|223|ICAO-KSVE|864.8||4|FM15-METAR|223|ICAO-KSVE|||||||290|N-Normal|1|FM15-METAR|223|ICAO-KSVE|3.1|N-Normal|1|FM15-METAR|223|ICAO-KSVE|||||||||||||75|Derived||FM15-METAR|223|ICAO-KSVE|-2.6|Derived||FM15-METAR|223|ICAO-KSVE|||||||||||||||||||||||||||||||||||||||||||||||||||||||||||||||||||1006.8||1|FM15-METAR|223|ICAO-KSVE|||||||||||||||||||||||||||||||||||||||||||MET063METAR KSVE 241515Z AUTO 29006KT 10SM CLR M01/M05 A2973 RMK AO2=||F||223|ICAO-KSVE
USI0000KSVE|SUSANVILLE MUNI|2016|12|24|15|35|40.3757|-120.5727|1264.6|-2.0||1|FM15-METAR|223|ICAO-KSVE|-6.0||1|FM15-METAR|223|ICAO-KSVE|865.1||4|FM15-METAR|223|ICAO-KSVE|||||||999|C-Calm|9|FM15-METAR|223|ICAO-KSVE|0.0|C-Calm|1|FM15-METAR|223|ICAO-KSVE|||||||||||||74|Derived||FM15-METAR|223|ICAO-KSVE|-3.6|Derived||FM15-METAR|223|ICAO-KSVE|||||||||||||||||||||||||||||||||||||||||||||||||||||||||||||||||||1007.1||1|FM15-METAR|223|ICAO-KSVE|||||||||||||||||||||||||||||||||||||||||||MET073METAR KSVE 241535Z AUTO 00000KT 10SM FEW047 SCT085 M02/M06 A2974 RMK AO2=||F||223|ICAO-KSVE
USI0000KSVE|SUSANVILLE MUNI|2016|12|24|15|55|40.3757|-120.5727|1264.6|-2.0||1|FM15-METAR|223|ICAO-KSVE|-6.0||1|FM15-METAR|223|ICAO-KSVE|865.1||4|FM15-METAR|223|ICAO-KSVE|||||||270|N-Normal|1|FM15-METAR|223|ICAO-KSVE|2.6|N-Normal|1|FM15-METAR|223|ICAO-KSVE|||||||||||||74|Derived||FM15-METAR|223|ICAO-KSVE|-3.6|Derived||FM15-METAR|223|ICAO-KSVE|||||||||||||||||||||||||||||||||||||||||||||||||||||||||||||||||||1007.1||1|FM15-METAR|223|ICAO-KSVE|||||||||||||||||||||||||||||||||||||||||||MET073METAR KSVE 241555Z AUTO 27005KT 10SM SCT032 BKN085 M02/M06 A2974 RMK AO2=||F||223|ICAO-KSVE
USI0000KSVE|SUSANVILLE MUNI|2016|12|24|16|15|40.3757|-120.5727|1264.6|-1.0||1|FM15-METAR|223|ICAO-KSVE|-6.0||1|FM15-METAR|223|ICAO-KSVE|865.4||4|FM15-METAR|223|ICAO-KSVE|||||||300|N-Normal|1|FM15-METAR|223|ICAO-KSVE|3.1|N-Normal|1|FM15-METAR|223|ICAO-KSVE|||||||||||||69|Derived||FM15-METAR|223|ICAO-KSVE|-2.9|Derived||FM15-METAR|223|ICAO-KSVE|||||||||||||||||||||||||||||||||||||||||||||||||||||||||||||||||||1007.4||1|FM15-METAR|223|ICAO-KSVE|||||||||||||||||||||||||||||||||||||||||||MET066METAR KSVE 241615Z AUTO 30006KT 10SM BKN032 M01/M06 A2975 RMK AO2=||F||223|ICAO-KSVE
USI0000KSVE|SUSANVILLE MUNI|2016|12|24|16|55|40.3757|-120.5727|1264.6|0.0||1|FM15-METAR|223|ICAO-KSVE|-6.0||1|FM15-METAR|223|ICAO-KSVE|866.0||4|FM15-METAR|223|ICAO-KSVE|||||||290|N-Normal|1|FM15-METAR|223|ICAO-KSVE|2.6|N-Normal|1|FM15-METAR|223|ICAO-KSVE|||||||||||||64|Derived||FM15-METAR|223|ICAO-KSVE|-2.3|Derived||FM15-METAR|223|ICAO-KSVE|||||||||||||||||||||||||||||||||||||||||||||||||||||||||||||||||||1008.1||1|FM15-METAR|223|ICAO-KSVE|||||||||||||||||||||||||||||||||||||||||||MET072METAR KSVE 241655Z AUTO 29005KT 10SM BKN032 BKN038 00/M06 A2977 RMK AO2=||F||223|ICAO-KSVE
USI0000KSVE|SUSANVILLE MUNI|2016|12|24|17|15|40.3757|-120.5727|1264.6|0.0||1|FM15-METAR|223|ICAO-KSVE|-6.0||1|FM15-METAR|223|ICAO-KSVE|866.0||4|FM15-METAR|223|ICAO-KSVE|||||||280|N-Normal|1|FM15-METAR|223|ICAO-KSVE|2.6|N-Normal|1|FM15-METAR|223|ICAO-KSVE|||||||||||||64|Derived||FM15-METAR|223|ICAO-KSVE|-2.3|Derived||FM15-METAR|223|ICAO-KSVE|||||||||||||||||||||||||||||||||||||||||||||||||||||||||||||||||||1008.1||1|FM15-METAR|223|ICAO-KSVE|||||||||||||||||||||||||||||||||||||||||||MET065METAR KSVE 241715Z AUTO 28005KT 10SM BKN034 00/M06 A2977 RMK AO2=||F||223|ICAO-KSVE
USI0000KSVE|SUSANVILLE MUNI|2016|12|24|17|35|40.3757|-120.5727|1264.6|0.0||1|FM15-METAR|223|ICAO-KSVE|-6.0||1|FM15-METAR|223|ICAO-KSVE|866.3||4|FM15-METAR|223|ICAO-KSVE|||||||270|N-Normal|1|FM15-METAR|223|ICAO-KSVE|4.1|N-Normal|1|FM15-METAR|223|ICAO-KSVE|||||||||||||64|Derived||FM15-METAR|223|ICAO-KSVE|-2.3|Derived||FM15-METAR|223|ICAO-KSVE|||||||||||||||||||||||||||||||||||||||||||||||||||||||||||||||||||1008.5||1|FM15-METAR|223|ICAO-KSVE|||||||||||||||||||||||||||||||||||||||||||MET065METAR KSVE 241735Z AUTO 27008KT 10SM BKN034 00/M06 A2978 RMK AO2=||F||223|ICAO-KSVE
USI0000KSVE|SUSANVILLE MUNI|2016|12|24|17|55|40.3757|-120.5727|1264.6|0.0||1|FM15-METAR|223|ICAO-KSVE|-7.0||1|FM15-METAR|223|ICAO-KSVE|866.6||4|FM15-METAR|223|ICAO-KSVE|||||||330|N-Normal|1|FM15-METAR|223|ICAO-KSVE|2.1|N-Normal|1|FM15-METAR|223|ICAO-KSVE|||||||||||||60|Derived||FM15-METAR|223|ICAO-KSVE|-2.6|Derived||FM15-METAR|223|ICAO-KSVE|||||||||||||||||||||||||||||||||||||||||||||||||||||||||||||||||||1008.8||1|FM15-METAR|223|ICAO-KSVE|||||||||||||||||||||||||||||||||||||||||||MET072METAR KSVE 241755Z AUTO 33004KT 10SM BKN034 BKN039 00/M07 A2979 RMK AO2=||F||223|ICAO-KSVE
USI0000KSVE|SUSANVILLE MUNI|2016|12|24|18|15|40.3757|-120.5727|1264.6|0.0||1|FM15-METAR|223|ICAO-KSVE|-7.0||1|FM15-METAR|223|ICAO-KSVE|866.6||4|FM15-METAR|223|ICAO-KSVE|||||||340|N-Normal|1|FM15-METAR|223|ICAO-KSVE|4.6|N-Normal|1|FM15-METAR|223|ICAO-KSVE|||||||||||||60|Derived||FM15-METAR|223|ICAO-KSVE|-2.6|Derived||FM15-METAR|223|ICAO-KSVE|||||||||||||||||||||||||||||||||||||||||||||||||||||||||||||||||||1008.8||1|FM15-METAR|223|ICAO-KSVE|||||||||||||||||||||||||||||||||||||||||||MET065METAR KSVE 241815Z AUTO 34009KT 10SM BKN034 00/M07 A2979 RMK AO2=||F||223|ICAO-KSVE
USI0000KSVE|SUSANVILLE MUNI|2016|12|24|18|35|40.3757|-120.5727|1264.6|0.0||1|FM15-METAR|223|ICAO-KSVE|-8.0||1|FM15-METAR|223|ICAO-KSVE|866.6||4|FM15-METAR|223|ICAO-KSVE|||||||320|N-Normal|1|FM15-METAR|223|ICAO-KSVE|3.6|N-Normal|1|FM15-METAR|223|ICAO-KSVE|||||||||||||55|Derived||FM15-METAR|223|ICAO-KSVE|-2.8|Derived||FM15-METAR|223|ICAO-KSVE|||||||||||||||||||||||||||||||||||||||||||||||||||||||||||||||||||1008.8||1|FM15-METAR|223|ICAO-KSVE|||||||||||||||||||||||||||||||||||||||||||MET065METAR KSVE 241835Z AUTO 32007KT 10SM BKN036 00/M08 A2979 RMK AO2=||F||223|ICAO-KSVE
USI0000KSVE|SUSANVILLE MUNI|2016|12|24|18|55|40.3757|-120.5727|1264.6|0.0||1|FM15-METAR|223|ICAO-KSVE|-8.0||1|FM15-METAR|223|ICAO-KSVE|866.6||4|FM15-METAR|223|ICAO-KSVE|||||||330|N-Normal|1|FM15-METAR|223|ICAO-KSVE|2.1|N-Normal|1|FM15-METAR|223|ICAO-KSVE|||||||||||||55|Derived||FM15-METAR|223|ICAO-KSVE|-2.8|Derived||FM15-METAR|223|ICAO-KSVE|||||||||||||||||||||||||||||||||||||||||||||||||||||||||||||||||||1008.8||1|FM15-METAR|223|ICAO-KSVE|||||||||||||||||||||||||||||||||||||||||||MET072METAR KSVE 241855Z AUTO 33004KT 10SM FEW036 SCT047 00/M08 A2979 RMK AO2=||F||223|ICAO-KSVE
USI0000KSVE|SUSANVILLE MUNI|2016|12|24|19|15|40.3757|-120.5727|1264.6|0.0||1|FM15-METAR|223|ICAO-KSVE|-8.0||1|FM15-METAR|223|ICAO-KSVE|866.6||4|FM15-METAR|223|ICAO-KSVE|||||||330|N-Normal|1|FM15-METAR|223|ICAO-KSVE|3.1|N-Normal|1|FM15-METAR|223|ICAO-KSVE|||||||||||||55|Derived||FM15-METAR|223|ICAO-KSVE|-2.8|Derived||FM15-METAR|223|ICAO-KSVE|||||||||||||||||||||||||||||||||||||||||||||||||||||||||||||||||||1008.8||1|FM15-METAR|223|ICAO-KSVE|||||||||||||||||||||||||||||||||||||||||||MET065METAR KSVE 241915Z AUTO 33006KT 10SM SCT036 00/M08 A2979 RMK AO2=||F||223|ICAO-KSVE
USI0000KSVE|SUSANVILLE MUNI|2016|12|24|19|35|40.3757|-120.5727|1264.6|0.0||1|FM15-METAR|223|ICAO-KSVE|-7.0||1|FM15-METAR|223|ICAO-KSVE|866.3||4|FM15-METAR|223|ICAO-KSVE|||||||360|N-Normal|1|FM15-METAR|223|ICAO-KSVE|4.1|N-Normal|1|FM15-METAR|223|ICAO-KSVE|||||||||||||60|Derived||FM15-METAR|223|ICAO-KSVE|-2.6|Derived||FM15-METAR|223|ICAO-KSVE|||||||||||||||||||||||||||||||||||||||||||||||||||||||||||||||||||1008.5||1|FM15-METAR|223|ICAO-KSVE|||||||||||||||||||||||||||||||||||||||||||MET065METAR KSVE 241935Z AUTO 36008KT 10SM BKN036 00/M07 A2978 RMK AO2=||F||223|ICAO-KSVE
USI0000KSVE|SUSANVILLE MUNI|2016|12|24|19|55|40.3757|-120.5727|1264.6|1.0||1|FM15-METAR|223|ICAO-KSVE|-7.0||1|FM15-METAR|223|ICAO-KSVE|866.3||4|FM15-METAR|223|ICAO-KSVE|||||||350|N-Normal|1|FM15-METAR|223|ICAO-KSVE|5.1|N-Normal|1|FM15-METAR|223|ICAO-KSVE|||||||||||||56|Derived||FM15-METAR|223|ICAO-KSVE|-2.0|Derived||FM15-METAR|223|ICAO-KSVE|||||||||||||||||||||||||||||||||||||||||||||||||||||||||||||||||||1008.5||1|FM15-METAR|223|ICAO-KSVE|||||||||||||||||||||||||||||||||||||||||||MET065METAR KSVE 241955Z AUTO 35010KT 10SM FEW038 01/M07 A2978 RMK AO2=||F||223|ICAO-KSVE
USI0000KSVE|SUSANVILLE MUNI|2016|12|24|20|15|40.3757|-120.5727|1264.6|0.0||1|FM15-METAR|223|ICAO-KSVE|-7.0||1|FM15-METAR|223|ICAO-KSVE|866.3||4|FM15-METAR|223|ICAO-KSVE|||||||340|N-Normal|1|FM15-METAR|223|ICAO-KSVE|3.6|N-Normal|1|FM15-METAR|223|ICAO-KSVE|||||||||||||60|Derived||FM15-METAR|223|ICAO-KSVE|-2.6|Derived||FM15-METAR|223|ICAO-KSVE|||||||||||||||||||||||||||||||||||||||||||||||||||||||||||||||||||1008.5||1|FM15-METAR|223|ICAO-KSVE|||||||||||||||||||||||||||||||||||||||||||MET065METAR KSVE 242015Z AUTO 34007KT 10SM FEW038 00/M07 A2978 RMK AO2=||F||223|ICAO-KSVE
USI0000KSVE|SUSANVILLE MUNI|2016|12|24|20|35|40.3757|-120.5727|1264.6|0.0||1|FM15-METAR|223|ICAO-KSVE|-8.0||1|FM15-METAR|223|ICAO-KSVE|866.0||4|FM15-METAR|223|ICAO-KSVE|||||||360|N-Normal|1|FM15-METAR|223|ICAO-KSVE|2.6|N-Normal|1|FM15-METAR|223|ICAO-KSVE|||||||||||||55|Derived||FM15-METAR|223|ICAO-KSVE|-2.8|Derived||FM15-METAR|223|ICAO-KSVE|||||||||||||||||||||||||||||||||||||||||||||||||||||||||||||||||||1008.1||1|FM15-METAR|223|ICAO-KSVE|||||||||||||||||||||||||||||||||||||||||||MET065METAR KSVE 242035Z AUTO 36005KT 10SM FEW038 00/M08 A2977 RMK AO2=||F||223|ICAO-KSVE
USI0000KSVE|SUSANVILLE MUNI|2016|12|24|20|55|40.3757|-120.5727|1264.6|1.0||1|FM15-METAR|223|ICAO-KSVE|-7.0||1|FM15-METAR|223|ICAO-KSVE|865.7||4|FM15-METAR|223|ICAO-KSVE|||||||360|N-Normal|1|FM15-METAR|223|ICAO-KSVE|2.6|N-Normal|1|FM15-METAR|223|ICAO-KSVE|||||||||||||56|Derived||FM15-METAR|223|ICAO-KSVE|-2.0|Derived||FM15-METAR|223|ICAO-KSVE|||||||||||||||||||||||||||||||||||||||||||||||||||||||||||||||||||1007.8||1|FM15-METAR|223|ICAO-KSVE|||||||||||||||||||||||||||||||||||||||||||MET065METAR KSVE 242055Z AUTO 36005KT 10SM BKN038 01/M07 A2976 RMK AO2=||F||223|ICAO-KSVE
USI0000KSVE|SUSANVILLE MUNI|2016|12|24|21|15|40.3757|-120.5727|1264.6|0.0||1|FM15-METAR|223|ICAO-KSVE|-8.0||1|FM15-METAR|223|ICAO-KSVE|865.7||4|FM15-METAR|223|ICAO-KSVE|||||||360|N-Normal|1|FM15-METAR|223|ICAO-KSVE|4.1|N-Normal|1|FM15-METAR|223|ICAO-KSVE|||||||||||||55|Derived||FM15-METAR|223|ICAO-KSVE|-2.8|Derived||FM15-METAR|223|ICAO-KSVE|||||||||||||||||||||||||||||||||||||||||||||||||||||||||||||||||||1007.8||1|FM15-METAR|223|ICAO-KSVE|||||||||||||||||||||||||||||||||||||||||||MET072METAR KSVE 242115Z AUTO 36008KT 10SM SCT038 SCT048 00/M08 A2976 RMK AO2=||F||223|ICAO-KSVE
USI0000KSVE|SUSANVILLE MUNI|2016|12|24|21|35|40.3757|-120.5727|1264.6|1.0||1|FM15-METAR|223|ICAO-KSVE|-7.0||1|FM15-METAR|223|ICAO-KSVE|865.7||4|FM15-METAR|223|ICAO-KSVE|||||||360|N-Normal|1|FM15-METAR|223|ICAO-KSVE|3.6|N-Normal|1|FM15-METAR|223|ICAO-KSVE|||||||||||||56|Derived||FM15-METAR|223|ICAO-KSVE|-2.0|Derived||FM15-METAR|223|ICAO-KSVE|||||||||||||||||||||||||||||||||||||||||||||||||||||||||||||||||||1007.8||1|FM15-METAR|223|ICAO-KSVE|||||||||||||||||||||||||||||||||||||||||||MET065METAR KSVE 242135Z AUTO 36007KT 10SM SCT046 01/M07 A2976 RMK AO2=||F||223|ICAO-KSVE
USI0000KSVE|SUSANVILLE MUNI|2016|12|24|21|55|40.3757|-120.5727|1264.6|1.0||1|FM15-METAR|223|ICAO-KSVE|-7.0||1|FM15-METAR|223|ICAO-KSVE|865.7||4|FM15-METAR|223|ICAO-KSVE|||||||350|N-Normal|1|FM15-METAR|223|ICAO-KSVE|5.7|N-Normal|1|FM15-METAR|223|ICAO-KSVE|||||||||||||56|Derived||FM15-METAR|223|ICAO-KSVE|-2.0|Derived||FM15-METAR|223|ICAO-KSVE|||||||||||||||||||||||||||||||||||||||||||||||||||||||||||||||||||1007.8||1|FM15-METAR|223|ICAO-KSVE|||||||||||||||||||||||||||||||||||||||||||MET065METAR KSVE 242155Z AUTO 35011KT 10SM FEW044 01/M07 A2976 RMK AO2=||F||223|ICAO-KSVE
USI0000KSVE|SUSANVILLE MUNI|2016|12|24|22|15|40.3757|-120.5727|1264.6|0.0||1|FM15-METAR|223|ICAO-KSVE|-8.0||1|FM15-METAR|223|ICAO-KSVE|866.0||4|FM15-METAR|223|ICAO-KSVE|||||||360|N-Normal|1|FM15-METAR|223|ICAO-KSVE|4.6|N-Normal|1|FM15-METAR|223|ICAO-KSVE|||||||||||||55|Derived||FM15-METAR|223|ICAO-KSVE|-2.8|Derived||FM15-METAR|223|ICAO-KSVE|||||||||||||||||||||||||||||||||||||||||||||||||||||||||||||||||||1008.1||1|FM15-METAR|223|ICAO-KSVE|||||||||||||||||||||||||||||||||||||||||||MET062METAR KSVE 242215Z AUTO 36009KT 10SM CLR 00/M08 A2977 RMK AO2=||F||223|ICAO-KSVE
USI0000KSVE|SUSANVILLE MUNI|2016|12|24|22|35|40.3757|-120.5727|1264.6|1.0||1|FM15-METAR|223|ICAO-KSVE|-8.0||1|FM15-METAR|223|ICAO-KSVE|866.0||4|FM15-METAR|223|ICAO-KSVE|||||||360|N-Normal|1|FM15-METAR|223|ICAO-KSVE|5.1|N-Normal|1|FM15-METAR|223|ICAO-KSVE|||||||||||||51|Derived||FM15-METAR|223|ICAO-KSVE|-2.1|Derived||FM15-METAR|223|ICAO-KSVE|||||||||||||||||||||||||||||||||||||||||||||||||||||||||||||||||||1008.1||1|FM15-METAR|223|ICAO-KSVE|||||||||||||||||||||||||||||||||||||||||||MET062METAR KSVE 242235Z AUTO 36010KT 10SM CLR 01/M08 A2977 RMK AO2=||F||223|ICAO-KSVE
USI0000KSVE|SUSANVILLE MUNI|2016|12|24|22|55|40.3757|-120.5727|1264.6|1.0||1|FM15-METAR|223|ICAO-KSVE|-8.0||1|FM15-METAR|223|ICAO-KSVE|866.0||4|FM15-METAR|223|ICAO-KSVE|||||||360|N-Normal|1|FM15-METAR|223|ICAO-KSVE|4.1|N-Normal|1|FM15-METAR|223|ICAO-KSVE|||||||||||||51|Derived||FM15-METAR|223|ICAO-KSVE|-2.1|Derived||FM15-METAR|223|ICAO-KSVE|||||||||||||||||||||||||||||||||||||||||||||||||||||||||||||||||||1008.1||1|FM15-METAR|223|ICAO-KSVE|||||||||||||||||||||||||||||||||||||||||||MET062METAR KSVE 242255Z AUTO 36008KT 10SM CLR 01/M08 A2977 RMK AO2=||F||223|ICAO-KSVE
USI0000KSVE|SUSANVILLE MUNI|2016|12|24|23|15|40.3757|-120.5727|1264.6|1.0||1|FM15-METAR|223|ICAO-KSVE|-8.0||1|FM15-METAR|223|ICAO-KSVE|866.3||4|FM15-METAR|223|ICAO-KSVE|||||||360|N-Normal|1|FM15-METAR|223|ICAO-KSVE|5.7|N-Normal|1|FM15-METAR|223|ICAO-KSVE|||||||||||||51|Derived||FM15-METAR|223|ICAO-KSVE|-2.1|Derived||FM15-METAR|223|ICAO-KSVE|||||||||||||||||||||||||||||||||||||||||||||||||||||||||||||||||||1008.5||1|FM15-METAR|223|ICAO-KSVE|||||||||||||||||||||||||||||||||||||||||||MET062METAR KSVE 242315Z AUTO 36011KT 10SM CLR 01/M08 A2978 RMK AO2=||F||223|ICAO-KSVE
USI0000KSVE|SUSANVILLE MUNI|2016|12|24|23|55|40.3757|-120.5727|1264.6|0.0||1|FM15-METAR|223|ICAO-KSVE|-8.0||1|FM15-METAR|223|ICAO-KSVE|866.9||4|FM15-METAR|223|ICAO-KSVE|||||||340|N-Normal|1|FM15-METAR|223|ICAO-KSVE|4.1|N-Normal|1|FM15-METAR|223|ICAO-KSVE|||||||||||||55|Derived||FM15-METAR|223|ICAO-KSVE|-2.8|Derived||FM15-METAR|223|ICAO-KSVE|||||||||||||||||||||||||||||||||||||||||||||||||||||||||||||||||||1009.1||1|FM15-METAR|223|ICAO-KSVE|||||||||||||||||||||||||||||||||||||||||||MET072METAR KSVE 242355Z AUTO 34008KT 10SM FEW041 FEW050 00/M08 A2980 RMK AO2=||F||223|ICAO-KSVE
USI0000KSVE|SUSANVILLE MUNI|2016|12|25|00|15|40.3757|-120.5727|1264.6|0.0||1|FM15-METAR|223|ICAO-KSVE|-8.0||1|FM15-METAR|223|ICAO-KSVE|867.2||4|FM15-METAR|223|ICAO-KSVE|||||||340|N-Normal|1|FM15-METAR|223|ICAO-KSVE|4.6|N-Normal|1|FM15-METAR|223|ICAO-KSVE|||||||||||||55|Derived||FM15-METAR|223|ICAO-KSVE|-2.8|Derived||FM15-METAR|223|ICAO-KSVE|||||||||||||||||||||||||||||||||||||||||||||||||||||||||||||||||||1009.5||1|FM15-METAR|223|ICAO-KSVE|||||||||||||||||||||||||||||||||||||||||||MET072METAR KSVE 250015Z AUTO 34009KT 10SM FEW036 BKN046 00/M08 A2981 RMK AO2=||F||223|ICAO-KSVE
USI0000KSVE|SUSANVILLE MUNI|2016|12|25|00|35|40.3757|-120.5727|1264.6|0.0||1|FM15-METAR|223|ICAO-KSVE|-10.0||1|FM15-METAR|223|ICAO-KSVE|867.2||4|FM15-METAR|223|ICAO-KSVE|||||||340|N-Normal|1|FM15-METAR|223|ICAO-KSVE|2.6|N-Normal|1|FM15-METAR|223|ICAO-KSVE|||||||||||||47|Derived||FM15-METAR|223|ICAO-KSVE|-3.4|Derived||FM15-METAR|223|ICAO-KSVE|||||||||||||||||||||||||||||||||||||||||||||||||||||||||||||||||||1009.5||1|FM15-METAR|223|ICAO-KSVE|||||||||||||||||||||||||||||||||||||||||||MET065METAR KSVE 250035Z AUTO 34005KT 10SM OVC046 00/M10 A2981 RMK AO2=||F||223|ICAO-KSVE
USI0000KSVE|SUSANVILLE MUNI|2016|12|25|00|55|40.3757|-120.5727|1264.6|0.0||1|FM15-METAR|223|ICAO-KSVE|-10.0||1|FM15-METAR|223|ICAO-KSVE|867.2||4|FM15-METAR|223|ICAO-KSVE|||||||310|N-Normal|1|FM15-METAR|223|ICAO-KSVE|1.5|N-Normal|1|FM15-METAR|223|ICAO-KSVE|||||||||||||47|Derived||FM15-METAR|223|ICAO-KSVE|-3.4|Derived||FM15-METAR|223|ICAO-KSVE|||||||||||||||||||||||||||||||||||||||||||||||||||||||||||||||||||1009.5||1|FM15-METAR|223|ICAO-KSVE|||||||||||||||||||||||||||||||||||||||||||MET065METAR KSVE 250055Z AUTO 31003KT 10SM OVC043 00/M10 A2981 RMK AO2=||F||223|ICAO-KSVE
USI0000KSVE|SUSANVILLE MUNI|2016|12|25|01|15|40.3757|-120.5727|1264.6|0.0||1|FM15-METAR|223|ICAO-KSVE|-9.0||1|FM15-METAR|223|ICAO-KSVE|867.5||4|FM15-METAR|223|ICAO-KSVE|||||||320|N-Normal|1|FM15-METAR|223|ICAO-KSVE|3.1|N-Normal|1|FM15-METAR|223|ICAO-KSVE|||||||||||||51|Derived||FM15-METAR|223|ICAO-KSVE|-3.1|Derived||FM15-METAR|223|ICAO-KSVE|||||||||||||||||||||||||||||||||||||||||||||||||||||||||||||||||||1009.8||1|FM15-METAR|223|ICAO-KSVE|||||||||||||||||||||||||||||||||||||||||||MET065METAR KSVE 250115Z AUTO 32006KT 10SM OVC043 00/M09 A2982 RMK AO2=||F||223|ICAO-KSVE
USI0000KSVE|SUSANVILLE MUNI|2016|12|25|01|35|40.3757|-120.5727|1264.6|0.0||1|FM15-METAR|223|ICAO-KSVE|-8.0||1|FM15-METAR|223|ICAO-KSVE|867.9||4|FM15-METAR|223|ICAO-KSVE|||||||360|N-Normal|1|FM15-METAR|223|ICAO-KSVE|4.1|N-Normal|1|FM15-METAR|223|ICAO-KSVE|||||||||||||55|Derived||FM15-METAR|223|ICAO-KSVE|-2.8|Derived||FM15-METAR|223|ICAO-KSVE|||||||||||||||||||||||||||||||||||||||||||||||||||||||||||||||||||1010.2||1|FM15-METAR|223|ICAO-KSVE|||||||||||||||||||||||||||||||||||||||||||MET065METAR KSVE 250135Z AUTO 36008KT 10SM OVC039 00/M08 A2983 RMK AO2=||F||223|ICAO-KSVE
USI0000KSVE|SUSANVILLE MUNI|2016|12|25|01|55|40.3757|-120.5727|1264.6|-1.0||1|FM15-METAR|223|ICAO-KSVE|-9.0||1|FM15-METAR|223|ICAO-KSVE|867.9||4|FM15-METAR|223|ICAO-KSVE|||||||340|N-Normal|1|FM15-METAR|223|ICAO-KSVE|3.1|N-Normal|1|FM15-METAR|223|ICAO-KSVE|||||||||||||55|Derived||FM15-METAR|223|ICAO-KSVE|-3.8|Derived||FM15-METAR|223|ICAO-KSVE|||||||||||||||||||||||||||||||||||||||||||||||||||||||||||||||||||1010.2||1|FM15-METAR|223|ICAO-KSVE|||||||||||||||||||||||||||||||||||||||||||MET066METAR KSVE 250155Z AUTO 34006KT 10SM OVC041 M01/M09 A2983 RMK AO2=||F||223|ICAO-KSVE
USI0000KSVE|SUSANVILLE MUNI|2016|12|25|02|15|40.3757|-120.5727|1264.6|-1.0||1|FM15-METAR|223|ICAO-KSVE|-10.0||1|FM15-METAR|223|ICAO-KSVE|867.9||4|FM15-METAR|223|ICAO-KSVE|||||||999|C-Calm|9|FM15-METAR|223|ICAO-KSVE|0.0|C-Calm|1|FM15-METAR|223|ICAO-KSVE|||||||||||||51|Derived||FM15-METAR|223|ICAO-KSVE|-4.1|Derived||FM15-METAR|223|ICAO-KSVE|||||||||||||||||||||||||||||||||||||||||||||||||||||||||||||||||||1010.2||1|FM15-METAR|223|ICAO-KSVE|||||||||||||||||||||||||||||||||||||||||||MET066METAR KSVE 250215Z AUTO 00000KT 10SM OVC043 M01/M10 A2983 RMK AO2=||F||223|ICAO-KSVE
USI0000KSVE|SUSANVILLE MUNI|2016|12|25|02|35|40.3757|-120.5727|1264.6|-1.0||1|FM15-METAR|223|ICAO-KSVE|-10.0||1|FM15-METAR|223|ICAO-KSVE|868.1||4|FM15-METAR|223|ICAO-KSVE|||||||360|N-Normal|1|FM15-METAR|223|ICAO-KSVE|1.5|N-Normal|1|FM15-METAR|223|ICAO-KSVE|||||||||||||51|Derived||FM15-METAR|223|ICAO-KSVE|-4.1|Derived||FM15-METAR|223|ICAO-KSVE|||||||||||||||||||||||||||||||||||||||||||||||||||||||||||||||||||1010.5||1|FM15-METAR|223|ICAO-KSVE|||||||||||||||||||||||||||||||||||||||||||MET066METAR KSVE 250235Z AUTO 36003KT 10SM OVC043 M01/M10 A2984 RMK AO2=||F||223|ICAO-KSVE
USI0000KSVE|SUSANVILLE MUNI|2016|12|25|02|55|40.3757|-120.5727|1264.6|-1.0||1|FM15-METAR|223|ICAO-KSVE|-10.0||1|FM15-METAR|223|ICAO-KSVE|868.1||4|FM15-METAR|223|ICAO-KSVE|||||||320|N-Normal|1|FM15-METAR|223|ICAO-KSVE|2.1|N-Normal|1|FM15-METAR|223|ICAO-KSVE|||||||||||||51|Derived||FM15-METAR|223|ICAO-KSVE|-4.1|Derived||FM15-METAR|223|ICAO-KSVE|||||||||||||||||||||||||||||||||||||||||||||||||||||||||||||||||||1010.5||1|FM15-METAR|223|ICAO-KSVE|||||||||||||||||||||||||||||||||||||||||||MET066METAR KSVE 250255Z AUTO 32004KT 10SM OVC043 M01/M10 A2984 RMK AO2=||F||223|ICAO-KSVE
USI0000KSVE|SUSANVILLE MUNI|2016|12|25|03|15|40.3757|-120.5727|1264.6|-1.0||1|FM15-METAR|223|ICAO-KSVE|-9.0||1|FM15-METAR|223|ICAO-KSVE|868.4||4|FM15-METAR|223|ICAO-KSVE|||||||350|N-Normal|1|FM15-METAR|223|ICAO-KSVE|2.1|N-Normal|1|FM15-METAR|223|ICAO-KSVE|||||||||||||55|Derived||FM15-METAR|223|ICAO-KSVE|-3.8|Derived||FM15-METAR|223|ICAO-KSVE|||||||||||||||||||||||||||||||||||||||||||||||||||||||||||||||||||1010.8||1|FM15-METAR|223|ICAO-KSVE|||||||||||||||||||||||||||||||||||||||||||MET066METAR KSVE 250315Z AUTO 35004KT 10SM OVC041 M01/M09 A2985 RMK AO2=||F||223|ICAO-KSVE
USI0000KSVE|SUSANVILLE MUNI|2016|12|25|03|35|40.3757|-120.5727|1264.6|-1.0||1|FM15-METAR|223|ICAO-KSVE|-9.0||1|FM15-METAR|223|ICAO-KSVE|868.7||4|FM15-METAR|223|ICAO-KSVE|||||||999|C-Calm|9|FM15-METAR|223|ICAO-KSVE|0.0|C-Calm|1|FM15-METAR|223|ICAO-KSVE|||||||||||||55|Derived||FM15-METAR|223|ICAO-KSVE|-3.8|Derived||FM15-METAR|223|ICAO-KSVE|||||||||||||||||||||||||||||||||||||||||||||||||||||||||||||||||||1011.2||1|FM15-METAR|223|ICAO-KSVE|||||||||||||||||||||||||||||||||||||||||||MET073METAR KSVE 250335Z AUTO 00000KT 10SM SCT041 OVC049 M01/M09 A2986 RMK AO2=||F||223|ICAO-KSVE
USI0000KSVE|SUSANVILLE MUNI|2016|12|25|03|55|40.3757|-120.5727|1264.6|-1.0||1|FM15-METAR|223|ICAO-KSVE|-9.0||1|FM15-METAR|223|ICAO-KSVE|868.7||4|FM15-METAR|223|ICAO-KSVE|||||||999|C-Calm|9|FM15-METAR|223|ICAO-KSVE|0.0|C-Calm|1|FM15-METAR|223|ICAO-KSVE|||||||||||||55|Derived||FM15-METAR|223|ICAO-KSVE|-3.8|Derived||FM15-METAR|223|ICAO-KSVE|||||||||||||||||||||||||||||||||||||||||||||||||||||||||||||||||||1011.2||1|FM15-METAR|223|ICAO-KSVE|||||||||||||||||||||||||||||||||||||||||||MET066METAR KSVE 250355Z AUTO 00000KT 10SM BKN049 M01/M09 A2986 RMK AO2=||F||223|ICAO-KSVE
USI0000KSVE|SUSANVILLE MUNI|2016|12|25|04|15|40.3757|-120.5727|1264.6|-2.0||1|FM15-METAR|223|ICAO-KSVE|-9.0||1|FM15-METAR|223|ICAO-KSVE|868.7||4|FM15-METAR|223|ICAO-KSVE|||||||999|C-Calm|9|FM15-METAR|223|ICAO-KSVE|0.0|C-Calm|1|FM15-METAR|223|ICAO-KSVE|||||||||||||59|Derived||FM15-METAR|223|ICAO-KSVE|-4.5|Derived||FM15-METAR|223|ICAO-KSVE|||||||||||||||||||||||||||||||||||||||||||||||||||||||||||||||||||1011.2||1|FM15-METAR|223|ICAO-KSVE|||||||||||||||||||||||||||||||||||||||||||MET066METAR KSVE 250415Z AUTO 00000KT 10SM FEW049 M02/M09 A2986 RMK AO2=||F||223|ICAO-KSVE
USI0000KSVE|SUSANVILLE MUNI|2016|12|25|04|35|40.3757|-120.5727|1264.6|-3.0||1|FM15-METAR|223|ICAO-KSVE|-8.0||1|FM15-METAR|223|ICAO-KSVE|869.0||4|FM15-METAR|223|ICAO-KSVE|||||||280|N-Normal|1|FM15-METAR|223|ICAO-KSVE|2.1|N-Normal|1|FM15-METAR|223|ICAO-KSVE|||||||||||||69|Derived||FM15-METAR|223|ICAO-KSVE|-4.5|Derived||FM15-METAR|223|ICAO-KSVE|||||||||||||||||||||||||||||||||||||||||||||||||||||||||||||||||||1011.5||1|FM15-METAR|223|ICAO-KSVE|||||||||||||||||||||||||||||||||||||||||||MET066METAR KSVE 250435Z AUTO 28004KT 10SM SCT049 M03/M08 A2987 RMK AO2=||F||223|ICAO-KSVE
USI0000KSVE|SUSANVILLE MUNI|2016|12|25|04|55|40.3757|-120.5727|1264.6|-3.0||1|FM15-METAR|223|ICAO-KSVE|-8.0||1|FM15-METAR|223|ICAO-KSVE|869.0||4|FM15-METAR|223|ICAO-KSVE|||||||250|N-Normal|1|FM15-METAR|223|ICAO-KSVE|2.6|N-Normal|1|FM15-METAR|223|ICAO-KSVE|||||||||||||69|Derived||FM15-METAR|223|ICAO-KSVE|-4.5|Derived||FM15-METAR|223|ICAO-KSVE|||||||||||||||||||||||||||||||||||||||||||||||||||||||||||||||||||1011.5||1|FM15-METAR|223|ICAO-KSVE|||||||||||||||||||||||||||||||||||||||||||MET066METAR KSVE 250455Z AUTO 25005KT 10SM FEW049 M03/M08 A2987 RMK AO2=||F||223|ICAO-KSVE
USI0000KSVE|SUSANVILLE MUNI|2016|12|25|05|15|40.3757|-120.5727|1264.6|-3.0||1|FM15-METAR|223|ICAO-KSVE|-8.0||1|FM15-METAR|223|ICAO-KSVE|869.0||4|FM15-METAR|223|ICAO-KSVE|||||||260|N-Normal|1|FM15-METAR|223|ICAO-KSVE|1.5|N-Normal|1|FM15-METAR|223|ICAO-KSVE|||||||||||||69|Derived||FM15-METAR|223|ICAO-KSVE|-4.5|Derived||FM15-METAR|223|ICAO-KSVE|||||||||||||||||||||||||||||||||||||||||||||||||||||||||||||||||||1011.5||1|FM15-METAR|223|ICAO-KSVE|||||||||||||||||||||||||||||||||||||||||||MET063METAR KSVE 250515Z AUTO 26003KT 10SM CLR M03/M08 A2987 RMK AO2=||F||223|ICAO-KSVE
USI0000KSVE|SUSANVILLE MUNI|2016|12|25|05|35|40.3757|-120.5727|1264.6|-4.0||1|FM15-METAR|223|ICAO-KSVE|-8.0||1|FM15-METAR|223|ICAO-KSVE|869.0||4|FM15-METAR|223|ICAO-KSVE|||||||999|C-Calm|9|FM15-METAR|223|ICAO-KSVE|0.0|C-Calm|1|FM15-METAR|223|ICAO-KSVE|||||||||||||74|Derived||FM15-METAR|223|ICAO-KSVE|-5.2|Derived||FM15-METAR|223|ICAO-KSVE|||||||||||||||||||||||||||||||||||||||||||||||||||||||||||||||||||1011.5||1|FM15-METAR|223|ICAO-KSVE|||||||||||||||||||||||||||||||||||||||||||MET063METAR KSVE 250535Z AUTO 00000KT 10SM CLR M04/M08 A2987 RMK AO2=||F||223|ICAO-KSVE
USI0000KSVE|SUSANVILLE MUNI|2016|12|25|05|55|40.3757|-120.5727|1264.6|-5.0||1|FM15-METAR|223|ICAO-KSVE|-8.0||1|FM15-METAR|223|ICAO-KSVE|869.0||4|FM15-METAR|223|ICAO-KSVE|||||||260|N-Normal|1|FM15-METAR|223|ICAO-KSVE|2.1|N-Normal|1|FM15-METAR|223|ICAO-KSVE|||||||||||||80|Derived||FM15-METAR|223|ICAO-KSVE|-5.9|Derived||FM15-METAR|223|ICAO-KSVE|||||||||||||||||||||||||||||||||||||||||||||||||||||||||||||||||||1011.5||1|FM15-METAR|223|ICAO-KSVE|||||||||||||||||||||||||||||||||||||||||||MET063METAR KSVE 250555Z AUTO 26004KT 10SM CLR M05/M08 A2987 RMK AO2=||F||223|ICAO-KSVE
USI0000KSVE|SUSANVILLE MUNI|2016|12|25|06|15|40.3757|-120.5727|1264.6|-4.0||1|FM15-METAR|223|ICAO-KSVE|-8.0||1|FM15-METAR|223|ICAO-KSVE|869.0||4|FM15-METAR|223|ICAO-KSVE|||||||310|N-Normal|1|FM15-METAR|223|ICAO-KSVE|1.5|N-Normal|1|FM15-METAR|223|ICAO-KSVE|||||||||||||74|Derived||FM15-METAR|223|ICAO-KSVE|-5.2|Derived||FM15-METAR|223|ICAO-KSVE|||||||||||||||||||||||||||||||||||||||||||||||||||||||||||||||||||1011.5||1|FM15-METAR|223|ICAO-KSVE|||||||||||||||||||||||||||||||||||||||||||MET063METAR KSVE 250615Z AUTO 31003KT 10SM CLR M04/M08 A2987 RMK AO2=||F||223|ICAO-KSVE
USI0000KSVE|SUSANVILLE MUNI|2016|12|25|06|35|40.3757|-120.5727|1264.6|-5.0||1|FM15-METAR|223|ICAO-KSVE|-8.0||1|FM15-METAR|223|ICAO-KSVE|869.0||4|FM15-METAR|223|ICAO-KSVE|||||||270|N-Normal|1|FM15-METAR|223|ICAO-KSVE|3.1|N-Normal|1|FM15-METAR|223|ICAO-KSVE|||||||||||||80|Derived||FM15-METAR|223|ICAO-KSVE|-5.9|Derived||FM15-METAR|223|ICAO-KSVE|||||||||||||||||||||||||||||||||||||||||||||||||||||||||||||||||||1011.5||1|FM15-METAR|223|ICAO-KSVE|||||||||||||||||||||||||||||||||||||||||||MET063METAR KSVE 250635Z AUTO 27006KT 10SM CLR M05/M08 A2987 RMK AO2=||F||223|ICAO-KSVE
USI0000KSVE|SUSANVILLE MUNI|2016|12|25|06|55|40.3757|-120.5727|1264.6|-5.0||1|FM15-METAR|223|ICAO-KSVE|-8.0||1|FM15-METAR|223|ICAO-KSVE|869.3||4|FM15-METAR|223|ICAO-KSVE|||||||280|N-Normal|1|FM15-METAR|223|ICAO-KSVE|3.1|N-Normal|1|FM15-METAR|223|ICAO-KSVE|||||||||||||80|Derived||FM15-METAR|223|ICAO-KSVE|-5.9|Derived||FM15-METAR|223|ICAO-KSVE|||||||||||||||||||||||||||||||||||||||||||||||||||||||||||||||||||1011.8||1|FM15-METAR|223|ICAO-KSVE|||||||||||||||||||||||||||||||||||||||||||MET063METAR KSVE 250655Z AUTO 28006KT 10SM CLR M05/M08 A2988 RMK AO2=||F||223|ICAO-KSVE
USI0000KSVE|SUSANVILLE MUNI|2016|12|25|07|15|40.3757|-120.5727|1264.6|-5.0||1|FM15-METAR|223|ICAO-KSVE|-8.0||1|FM15-METAR|223|ICAO-KSVE|869.3||4|FM15-METAR|223|ICAO-KSVE|||||||310|N-Normal|1|FM15-METAR|223|ICAO-KSVE|2.6|N-Normal|1|FM15-METAR|223|ICAO-KSVE|||||||||||||80|Derived||FM15-METAR|223|ICAO-KSVE|-5.9|Derived||FM15-METAR|223|ICAO-KSVE|||||||||||||||||||||||||||||||||||||||||||||||||||||||||||||||||||1011.8||1|FM15-METAR|223|ICAO-KSVE|||||||||||||||||||||||||||||||||||||||||||MET063METAR KSVE 250715Z AUTO 31005KT 10SM CLR M05/M08 A2988 RMK AO2=||F||223|ICAO-KSVE
USI0000KSVE|SUSANVILLE MUNI|2016|12|25|07|35|40.3757|-120.5727|1264.6|-5.0||1|FM15-METAR|223|ICAO-KSVE|-8.0||1|FM15-METAR|223|ICAO-KSVE|869.6||4|FM15-METAR|223|ICAO-KSVE|||||||310|N-Normal|1|FM15-METAR|223|ICAO-KSVE|2.1|N-Normal|1|FM15-METAR|223|ICAO-KSVE|||||||||||||80|Derived||FM15-METAR|223|ICAO-KSVE|-5.9|Derived||FM15-METAR|223|ICAO-KSVE|||||||||||||||||||||||||||||||||||||||||||||||||||||||||||||||||||1012.2||1|FM15-METAR|223|ICAO-KSVE|||||||||||||||||||||||||||||||||||||||||||MET063METAR KSVE 250735Z AUTO 31004KT 10SM CLR M05/M08 A2989 RMK AO2=||F||223|ICAO-KSVE
USI0000KSVE|SUSANVILLE MUNI|2016|12|25|07|55|40.3757|-120.5727|1264.6|-5.0||1|FM15-METAR|223|ICAO-KSVE|-8.0||1|FM15-METAR|223|ICAO-KSVE|869.6||4|FM15-METAR|223|ICAO-KSVE|||||||300|N-Normal|1|FM15-METAR|223|ICAO-KSVE|2.1|N-Normal|1|FM15-METAR|223|ICAO-KSVE|||||||||||||80|Derived||FM15-METAR|223|ICAO-KSVE|-5.9|Derived||FM15-METAR|223|ICAO-KSVE|||||||||||||||||||||||||||||||||||||||||||||||||||||||||||||||||||1012.2||1|FM15-METAR|223|ICAO-KSVE|||||||||||||||||||||||||||||||||||||||||||MET063METAR KSVE 250755Z AUTO 30004KT 10SM CLR M05/M08 A2989 RMK AO2=||F||223|ICAO-KSVE
USI0000KSVE|SUSANVILLE MUNI|2016|12|25|08|15|40.3757|-120.5727|1264.6|-6.0||1|FM15-METAR|223|ICAO-KSVE|-9.0||1|FM15-METAR|223|ICAO-KSVE|869.3||4|FM15-METAR|223|ICAO-KSVE|||||||310|N-Normal|1|FM15-METAR|223|ICAO-KSVE|2.6|N-Normal|1|FM15-METAR|223|ICAO-KSVE|||||||||||||80|Derived||FM15-METAR|223|ICAO-KSVE|-7.0|Derived||FM15-METAR|223|ICAO-KSVE|||||||||||||||||||||||||||||||||||||||||||||||||||||||||||||||||||1011.8||1|FM15-METAR|223|ICAO-KSVE|||||||||||||||||||||||||||||||||||||||||||MET063METAR KSVE 250815Z AUTO 31005KT 10SM CLR M06/M09 A2988 RMK AO2=||F||223|ICAO-KSVE
USI0000KSVE|SUSANVILLE MUNI|2016|12|25|08|35|40.3757|-120.5727|1264.6|-6.0||1|FM15-METAR|223|ICAO-KSVE|-9.0||1|FM15-METAR|223|ICAO-KSVE|869.6||4|FM15-METAR|223|ICAO-KSVE|||||||330|N-Normal|1|FM15-METAR|223|ICAO-KSVE|2.6|N-Normal|1|FM15-METAR|223|ICAO-KSVE|||||||||||||80|Derived||FM15-METAR|223|ICAO-KSVE|-7.0|Derived||FM15-METAR|223|ICAO-KSVE|||||||||||||||||||||||||||||||||||||||||||||||||||||||||||||||||||1012.2||1|FM15-METAR|223|ICAO-KSVE|||||||||||||||||||||||||||||||||||||||||||MET066METAR KSVE 250835Z AUTO 33005KT 10SM FEW044 M06/M09 A2989 RMK AO2=||F||223|ICAO-KSVE
USI0000KSVE|SUSANVILLE MUNI|2016|12|25|08|55|40.3757|-120.5727|1264.6|-6.0||1|FM15-METAR|223|ICAO-KSVE|-10.0||1|FM15-METAR|223|ICAO-KSVE|869.9||4|FM15-METAR|223|ICAO-KSVE|||||||999|C-Calm|9|FM15-METAR|223|ICAO-KSVE|0.0|C-Calm|1|FM15-METAR|223|ICAO-KSVE|||||||||||||74|Derived||FM15-METAR|223|ICAO-KSVE|-7.3|Derived||FM15-METAR|223|ICAO-KSVE|||||||||||||||||||||||||||||||||||||||||||||||||||||||||||||||||||1012.5||1|FM15-METAR|223|ICAO-KSVE|||||||||||||||||||||||||||||||||||||||||||MET066METAR KSVE 250855Z AUTO 00000KT 10SM FEW044 M06/M10 A2990 RMK AO2=||F||223|ICAO-KSVE
USI0000KSVE|SUSANVILLE MUNI|2016|12|25|09|15|40.3757|-120.5727|1264.6|-6.0||1|FM15-METAR|223|ICAO-KSVE|-10.0||1|FM15-METAR|223|ICAO-KSVE|869.9||4|FM15-METAR|223|ICAO-KSVE|||||||320|N-Normal|1|FM15-METAR|223|ICAO-KSVE|2.6|N-Normal|1|FM15-METAR|223|ICAO-KSVE|||||||||||||74|Derived||FM15-METAR|223|ICAO-KSVE|-7.3|Derived||FM15-METAR|223|ICAO-KSVE|||||||||||||||||||||||||||||||||||||||||||||||||||||||||||||||||||1012.5||1|FM15-METAR|223|ICAO-KSVE|||||||||||||||||||||||||||||||||||||||||||MET063METAR KSVE 250915Z AUTO 32005KT 10SM CLR M06/M10 A2990 RMK AO2=||F||223|ICAO-KSVE
USI0000KSVE|SUSANVILLE MUNI|2016|12|25|09|35|40.3757|-120.5727|1264.6|-7.0||1|FM15-METAR|223|ICAO-KSVE|-10.0||1|FM15-METAR|223|ICAO-KSVE|869.9||4|FM15-METAR|223|ICAO-KSVE|||||||300|N-Normal|1|FM15-METAR|223|ICAO-KSVE|1.5|N-Normal|1|FM15-METAR|223|ICAO-KSVE|||||||||||||79|Derived||FM15-METAR|223|ICAO-KSVE|-8.1|Derived||FM15-METAR|223|ICAO-KSVE|||||||||||||||||||||||||||||||||||||||||||||||||||||||||||||||||||1012.5||1|FM15-METAR|223|ICAO-KSVE|||||||||||||||||||||||||||||||||||||||||||MET066METAR KSVE 250935Z AUTO 30003KT 10SM FEW040 M07/M10 A2990 RMK AO2=||F||223|ICAO-KSVE
USI0000KSVE|SUSANVILLE MUNI|2016|12|25|09|55|40.3757|-120.5727|1264.6|-8.0||1|FM15-METAR|223|ICAO-KSVE|-10.0||1|FM15-METAR|223|ICAO-KSVE|870.2||4|FM15-METAR|223|ICAO-KSVE|||||||999|C-Calm|9|FM15-METAR|223|ICAO-KSVE|0.0|C-Calm|1|FM15-METAR|223|ICAO-KSVE|||||||||||||86|Derived||FM15-METAR|223|ICAO-KSVE|-8.5|Derived||FM15-METAR|223|ICAO-KSVE|||||||||||||||||||||||||||||||||||||||||||||||||||||||||||||||||||1012.9||1|FM15-METAR|223|ICAO-KSVE|||||||||||||||||||||||||||||||||||||||||||MET063METAR KSVE 250955Z AUTO 00000KT 10SM CLR M08/M10 A2991 RMK AO2=||F||223|ICAO-KSVE
USI0000KSVE|SUSANVILLE MUNI|2016|12|25|10|15|40.3757|-120.5727|1264.6|-7.0||1|FM15-METAR|223|ICAO-KSVE|-10.0||1|FM15-METAR|223|ICAO-KSVE|870.2||4|FM15-METAR|223|ICAO-KSVE|||||||999|C-Calm|9|FM15-METAR|223|ICAO-KSVE|0.0|C-Calm|1|FM15-METAR|223|ICAO-KSVE|||||||||||||79|Derived||FM15-METAR|223|ICAO-KSVE|-8.1|Derived||FM15-METAR|223|ICAO-KSVE|||||||||||||||||||||||||||||||||||||||||||||||||||||||||||||||||||1012.9||1|FM15-METAR|223|ICAO-KSVE|||||||||||||||||||||||||||||||||||||||||||MET063METAR KSVE 251015Z AUTO 00000KT 10SM CLR M07/M10 A2991 RMK AO2=||F||223|ICAO-KSVE
USI0000KSVE|SUSANVILLE MUNI|2016|12|25|10|35|40.3757|-120.5727|1264.6|-8.0||1|FM15-METAR|223|ICAO-KSVE|-10.0||1|FM15-METAR|223|ICAO-KSVE|870.2||4|FM15-METAR|223|ICAO-KSVE|||||||300|N-Normal|1|FM15-METAR|223|ICAO-KSVE|1.5|N-Normal|1|FM15-METAR|223|ICAO-KSVE|||||||||||||86|Derived||FM15-METAR|223|ICAO-KSVE|-8.5|Derived||FM15-METAR|223|ICAO-KSVE|||||||||||||||||||||||||||||||||||||||||||||||||||||||||||||||||||1012.9||1|FM15-METAR|223|ICAO-KSVE|||||||||||||||||||||||||||||||||||||||||||MET063METAR KSVE 251035Z AUTO 30003KT 10SM CLR M08/M10 A2991 RMK AO2=||F||223|ICAO-KSVE
USI0000KSVE|SUSANVILLE MUNI|2016|12|25|10|55|40.3757|-120.5727|1264.6|-8.0||1|FM15-METAR|223|ICAO-KSVE|-10.0||1|FM15-METAR|223|ICAO-KSVE|870.5||4|FM15-METAR|223|ICAO-KSVE|||||||280|N-Normal|1|FM15-METAR|223|ICAO-KSVE|2.6|N-Normal|1|FM15-METAR|223|ICAO-KSVE|||||||||||||86|Derived||FM15-METAR|223|ICAO-KSVE|-8.5|Derived||FM15-METAR|223|ICAO-KSVE|||||||||||||||||||||||||||||||||||||||||||||||||||||||||||||||||||1013.2||1|FM15-METAR|223|ICAO-KSVE|||||||||||||||||||||||||||||||||||||||||||MET063METAR KSVE 251055Z AUTO 28005KT 10SM CLR M08/M10 A2992 RMK AO2=||F||223|ICAO-KSVE
USI0000KSVE|SUSANVILLE MUNI|2016|12|25|11|15|40.3757|-120.5727|1264.6|-8.0||1|FM15-METAR|223|ICAO-KSVE|-11.0||1|FM15-METAR|223|ICAO-KSVE|870.5||4|FM15-METAR|223|ICAO-KSVE|||||||290|N-Normal|1|FM15-METAR|223|ICAO-KSVE|1.5|N-Normal|1|FM15-METAR|223|ICAO-KSVE|||||||||||||79|Derived||FM15-METAR|223|ICAO-KSVE|-8.8|Derived||FM15-METAR|223|ICAO-KSVE|||||||||||||||||||||||||||||||||||||||||||||||||||||||||||||||||||1013.2||1|FM15-METAR|223|ICAO-KSVE|||||||||||||||||||||||||||||||||||||||||||MET063METAR KSVE 251115Z AUTO 29003KT 10SM CLR M08/M11 A2992 RMK AO2=||F||223|ICAO-KSVE
USI0000KSVE|SUSANVILLE MUNI|2016|12|25|11|35|40.3757|-120.5727|1264.6|-8.0||1|FM15-METAR|223|ICAO-KSVE|-11.0||1|FM15-METAR|223|ICAO-KSVE|870.5||4|FM15-METAR|223|ICAO-KSVE|||||||320|N-Normal|1|FM15-METAR|223|ICAO-KSVE|2.1|N-Normal|1|FM15-METAR|223|ICAO-KSVE|||||||||||||79|Derived||FM15-METAR|223|ICAO-KSVE|-8.8|Derived||FM15-METAR|223|ICAO-KSVE|||||||||||||||||||||||||||||||||||||||||||||||||||||||||||||||||||1013.2||1|FM15-METAR|223|ICAO-KSVE|||||||||||||||||||||||||||||||||||||||||||MET063METAR KSVE 251135Z AUTO 32004KT 10SM CLR M08/M11 A2992 RMK AO2=||F||223|ICAO-KSVE
USI0000KSVE|SUSANVILLE MUNI|2016|12|25|11|55|40.3757|-120.5727|1264.6|-8.0||1|FM15-METAR|223|ICAO-KSVE|-11.0||1|FM15-METAR|223|ICAO-KSVE|870.5||4|FM15-METAR|223|ICAO-KSVE|||||||280|N-Normal|1|FM15-METAR|223|ICAO-KSVE|2.1|N-Normal|1|FM15-METAR|223|ICAO-KSVE|||||||||||||79|Derived||FM15-METAR|223|ICAO-KSVE|-8.8|Derived||FM15-METAR|223|ICAO-KSVE|||||||||||||||||||||||||||||||||||||||||||||||||||||||||||||||||||1013.2||1|FM15-METAR|223|ICAO-KSVE|||||||||||||||||||||||||||||||||||||||||||MET063METAR KSVE 251155Z AUTO 28004KT 10SM CLR M08/M11 A2992 RMK AO2=||F||223|ICAO-KSVE
USI0000KSVE|SUSANVILLE MUNI|2016|12|25|12|15|40.3757|-120.5727|1264.6|-9.0||1|FM15-METAR|223|ICAO-KSVE|-11.0||1|FM15-METAR|223|ICAO-KSVE|870.5||4|FM15-METAR|223|ICAO-KSVE|||||||290|N-Normal|1|FM15-METAR|223|ICAO-KSVE|1.5|N-Normal|1|FM15-METAR|223|ICAO-KSVE|||||||||||||86|Derived||FM15-METAR|223|ICAO-KSVE|-9.5|Derived||FM15-METAR|223|ICAO-KSVE|||||||||||||||||||||||||||||||||||||||||||||||||||||||||||||||||||1013.2||1|FM15-METAR|223|ICAO-KSVE|||||||||||||||||||||||||||||||||||||||||||MET063METAR KSVE 251215Z AUTO 29003KT 10SM CLR M09/M11 A2992 RMK AO2=||F||223|ICAO-KSVE
USI0000KSVE|SUSANVILLE MUNI|2016|12|25|12|35|40.3757|-120.5727|1264.6|-9.0||1|FM15-METAR|223|ICAO-KSVE|-11.0||1|FM15-METAR|223|ICAO-KSVE|870.8||4|FM15-METAR|223|ICAO-KSVE|||||||330|N-Normal|1|FM15-METAR|223|ICAO-KSVE|2.1|N-Normal|1|FM15-METAR|223|ICAO-KSVE|||||||||||||86|Derived||FM15-METAR|223|ICAO-KSVE|-9.5|Derived||FM15-METAR|223|ICAO-KSVE|||||||||||||||||||||||||||||||||||||||||||||||||||||||||||||||||||1013.5||1|FM15-METAR|223|ICAO-KSVE|||||||||||||||||||||||||||||||||||||||||||MET063METAR KSVE 251235Z AUTO 33004KT 10SM CLR M09/M11 A2993 RMK AO2=||F||223|ICAO-KSVE
USI0000KSVE|SUSANVILLE MUNI|2016|12|25|12|55|40.3757|-120.5727|1264.6|-10.0||1|FM15-METAR|223|ICAO-KSVE|-12.0||1|FM15-METAR|223|ICAO-KSVE|870.8||4|FM15-METAR|223|ICAO-KSVE|||||||999|C-Calm|9|FM15-METAR|223|ICAO-KSVE|0.0|C-Calm|1|FM15-METAR|223|ICAO-KSVE|||||||||||||85|Derived||FM15-METAR|223|ICAO-KSVE|-10.6|Derived||FM15-METAR|223|ICAO-KSVE|||||||||||||||||||||||||||||||||||||||||||||||||||||||||||||||||||1013.5||1|FM15-METAR|223|ICAO-KSVE|||||||||||||||||||||||||||||||||||||||||||MET063METAR KSVE 251255Z AUTO 00000KT 10SM CLR M10/M12 A2993 RMK AO2=||F||223|ICAO-KSVE
USI0000KSVE|SUSANVILLE MUNI|2016|12|25|13|15|40.3757|-120.5727|1264.6|-9.0||1|FM15-METAR|223|ICAO-KSVE|-12.0||1|FM15-METAR|223|ICAO-KSVE|871.1||4|FM15-METAR|223|ICAO-KSVE|||||||999|C-Calm|9|FM15-METAR|223|ICAO-KSVE|0.0|C-Calm|1|FM15-METAR|223|ICAO-KSVE|||||||||||||79|Derived||FM15-METAR|223|ICAO-KSVE|-9.8|Derived||FM15-METAR|223|ICAO-KSVE|||||||||||||||||||||||||||||||||||||||||||||||||||||||||||||||||||1013.9||1|FM15-METAR|223|ICAO-KSVE|||||||||||||||||||||||||||||||||||||||||||MET063METAR KSVE 251315Z AUTO 00000KT 10SM CLR M09/M12 A2994 RMK AO2=||F||223|ICAO-KSVE
USI0000KSVE|SUSANVILLE MUNI|2016|12|25|13|35|40.3757|-120.5727|1264.6|-10.0||1|FM15-METAR|223|ICAO-KSVE|-12.0||1|FM15-METAR|223|ICAO-KSVE|871.1||4|FM15-METAR|223|ICAO-KSVE|||||||310|N-Normal|1|FM15-METAR|223|ICAO-KSVE|1.5|N-Normal|1|FM15-METAR|223|ICAO-KSVE|||||||||||||85|Derived||FM15-METAR|223|ICAO-KSVE|-10.6|Derived||FM15-METAR|223|ICAO-KSVE|||||||||||||||||||||||||||||||||||||||||||||||||||||||||||||||||||1013.9||1|FM15-METAR|223|ICAO-KSVE|||||||||||||||||||||||||||||||||||||||||||MET063METAR KSVE 251335Z AUTO 31003KT 10SM CLR M10/M12 A2994 RMK AO2=||F||223|ICAO-KSVE
USI0000KSVE|SUSANVILLE MUNI|2016|12|25|13|55|40.3757|-120.5727|1264.6|-10.0||1|FM15-METAR|223|ICAO-KSVE|-12.0||1|FM15-METAR|223|ICAO-KSVE|871.4||4|FM15-METAR|223|ICAO-KSVE|||||||320|N-Normal|1|FM15-METAR|223|ICAO-KSVE|1.5|N-Normal|1|FM15-METAR|223|ICAO-KSVE|||||||||||||85|Derived||FM15-METAR|223|ICAO-KSVE|-10.6|Derived||FM15-METAR|223|ICAO-KSVE|||||||||||||||||||||||||||||||||||||||||||||||||||||||||||||||||||1014.2||1|FM15-METAR|223|ICAO-KSVE|||||||||||||||||||||||||||||||||||||||||||MET063METAR KSVE 251355Z AUTO 32003KT 10SM CLR M10/M12 A2995 RMK AO2=||F||223|ICAO-KSVE
USI0000KSVE|SUSANVILLE MUNI|2016|12|25|14|15|40.3757|-120.5727|1264.6|-10.0||1|FM15-METAR|223|ICAO-KSVE|-12.0||1|FM15-METAR|223|ICAO-KSVE|871.7||4|FM15-METAR|223|ICAO-KSVE|||||||290|N-Normal|1|FM15-METAR|223|ICAO-KSVE|2.1|N-Normal|1|FM15-METAR|223|ICAO-KSVE|||||||||||||85|Derived||FM15-METAR|223|ICAO-KSVE|-10.6|Derived||FM15-METAR|223|ICAO-KSVE|||||||||||||||||||||||||||||||||||||||||||||||||||||||||||||||||||1014.6||1|FM15-METAR|223|ICAO-KSVE|||||||||||||||||||||||||||||||||||||||||||MET063METAR KSVE 251415Z AUTO 29004KT 10SM CLR M10/M12 A2996 RMK AO2=||F||223|ICAO-KSVE
USI0000KSVE|SUSANVILLE MUNI|2016|12|25|14|35|40.3757|-120.5727|1264.6|-10.0||1|FM15-METAR|223|ICAO-KSVE|-12.0||1|FM15-METAR|223|ICAO-KSVE|872.0||4|FM15-METAR|223|ICAO-KSVE|||||||300|N-Normal|1|FM15-METAR|223|ICAO-KSVE|2.1|N-Normal|1|FM15-METAR|223|ICAO-KSVE|||||||||||||85|Derived||FM15-METAR|223|ICAO-KSVE|-10.6|Derived||FM15-METAR|223|ICAO-KSVE|||||||||||||||||||||||||||||||||||||||||||||||||||||||||||||||||||1014.9||1|FM15-METAR|223|ICAO-KSVE|||||||||||||||||||||||||||||||||||||||||||MET063METAR KSVE 251435Z AUTO 30004KT 10SM CLR M10/M12 A2997 RMK AO2=||F||223|ICAO-KSVE
USI0000KSVE|SUSANVILLE MUNI|2016|12|25|14|55|40.3757|-120.5727|1264.6|-10.0||1|FM15-METAR|223|ICAO-KSVE|-12.0||1|FM15-METAR|223|ICAO-KSVE|872.0||4|FM15-METAR|223|ICAO-KSVE|||||||300|N-Normal|1|FM15-METAR|223|ICAO-KSVE|2.1|N-Normal|1|FM15-METAR|223|ICAO-KSVE|||||||||||||85|Derived||FM15-METAR|223|ICAO-KSVE|-10.6|Derived||FM15-METAR|223|ICAO-KSVE|||||||||||||||||||||||||||||||||||||||||||||||||||||||||||||||||||1014.9||1|FM15-METAR|223|ICAO-KSVE|||||||||||||||||||||||||||||||||||||||||||MET063METAR KSVE 251455Z AUTO 30004KT 10SM CLR M10/M12 A2997 RMK AO2=||F||223|ICAO-KSVE
USI0000KSVE|SUSANVILLE MUNI|2016|12|25|15|15|40.3757|-120.5727|1264.6|-10.0||1|FM15-METAR|223|ICAO-KSVE|-12.0||1|FM15-METAR|223|ICAO-KSVE|872.0||4|FM15-METAR|223|ICAO-KSVE|||||||300|N-Normal|1|FM15-METAR|223|ICAO-KSVE|1.5|N-Normal|1|FM15-METAR|223|ICAO-KSVE|||||||||||||85|Derived||FM15-METAR|223|ICAO-KSVE|-10.6|Derived||FM15-METAR|223|ICAO-KSVE|||||||||||||||||||||||||||||||||||||||||||||||||||||||||||||||||||1014.9||1|FM15-METAR|223|ICAO-KSVE|||||||||||||||||||||||||||||||||||||||||||MET063METAR KSVE 251515Z AUTO 30003KT 10SM CLR M10/M12 A2997 RMK AO2=||F||223|ICAO-KSVE
USI0000KSVE|SUSANVILLE MUNI|2016|12|25|15|35|40.3757|-120.5727|1264.6|-10.0||1|FM15-METAR|223|ICAO-KSVE|-12.0||1|FM15-METAR|223|ICAO-KSVE|872.3||4|FM15-METAR|223|ICAO-KSVE|||||||999|C-Calm|9|FM15-METAR|223|ICAO-KSVE|0.0|C-Calm|1|FM15-METAR|223|ICAO-KSVE|||||||||||||85|Derived||FM15-METAR|223|ICAO-KSVE|-10.6|Derived||FM15-METAR|223|ICAO-KSVE|||||||||||||||||||||||||||||||||||||||||||||||||||||||||||||||||||1015.2||1|FM15-METAR|223|ICAO-KSVE|||||||||||||||||||||||||||||||||||||||||||MET063METAR KSVE 251535Z AUTO 00000KT 10SM CLR M10/M12 A2998 RMK AO2=||F||223|ICAO-KSVE
USI0000KSVE|SUSANVILLE MUNI|2016|12|25|15|55|40.3757|-120.5727|1264.6|-10.0||1|FM15-METAR|223|ICAO-KSVE|-12.0||1|FM15-METAR|223|ICAO-KSVE|872.3||4|FM15-METAR|223|ICAO-KSVE|||||||999|C-Calm|9|FM15-METAR|223|ICAO-KSVE|0.0|C-Calm|1|FM15-METAR|223|ICAO-KSVE|||||||||||||85|Derived||FM15-METAR|223|ICAO-KSVE|-10.6|Derived||FM15-METAR|223|ICAO-KSVE|||||||||||||||||||||||||||||||||||||||||||||||||||||||||||||||||||1015.2||1|FM15-METAR|223|ICAO-KSVE|||||||||||||||||||||||||||||||||||||||||||MET063METAR KSVE 251555Z AUTO 00000KT 10SM CLR M10/M12 A2998 RMK AO2=||F||223|ICAO-KSVE
USI0000KSVE|SUSANVILLE MUNI|2016|12|25|16|15|40.3757|-120.5727|1264.6|-9.0||1|FM15-METAR|223|ICAO-KSVE|-12.0||1|FM15-METAR|223|ICAO-KSVE|872.6||4|FM15-METAR|223|ICAO-KSVE|||||||290|N-Normal|1|FM15-METAR|223|ICAO-KSVE|1.5|N-Normal|1|FM15-METAR|223|ICAO-KSVE|||||||||||||79|Derived||FM15-METAR|223|ICAO-KSVE|-9.8|Derived||FM15-METAR|223|ICAO-KSVE|||||||||||||||||||||||||||||||||||||||||||||||||||||||||||||||||||1015.6||1|FM15-METAR|223|ICAO-KSVE|||||||||||||||||||||||||||||||||||||||||||MET063METAR KSVE 251615Z AUTO 29003KT 10SM CLR M09/M12 A2999 RMK AO2=||F||223|ICAO-KSVE
USI0000KSVE|SUSANVILLE MUNI|2016|12|25|16|35|40.3757|-120.5727|1264.6|-8.0||1|FM15-METAR|223|ICAO-KSVE|-12.0||1|FM15-METAR|223|ICAO-KSVE|872.9||4|FM15-METAR|223|ICAO-KSVE|||||||300|N-Normal|1|FM15-METAR|223|ICAO-KSVE|1.5|N-Normal|1|FM15-METAR|223|ICAO-KSVE|||||||||||||73|Derived||FM15-METAR|223|ICAO-KSVE|-9.1|Derived||FM15-METAR|223|ICAO-KSVE|||||||||||||||||||||||||||||||||||||||||||||||||||||||||||||||||||1015.9||1|FM15-METAR|223|ICAO-KSVE|||||||||||||||||||||||||||||||||||||||||||MET063METAR KSVE 251635Z AUTO 30003KT 10SM CLR M08/M12 A3000 RMK AO2=||F||223|ICAO-KSVE
USI0000KSVE|SUSANVILLE MUNI|2016|12|25|16|55|40.3757|-120.5727|1264.6|-8.0||1|FM15-METAR|223|ICAO-KSVE|-11.0||1|FM15-METAR|223|ICAO-KSVE|872.9||4|FM15-METAR|223|ICAO-KSVE|||||||290|N-Normal|1|FM15-METAR|223|ICAO-KSVE|1.5|N-Normal|1|FM15-METAR|223|ICAO-KSVE|||||||||||||79|Derived||FM15-METAR|223|ICAO-KSVE|-8.8|Derived||FM15-METAR|223|ICAO-KSVE|||||||||||||||||||||||||||||||||||||||||||||||||||||||||||||||||||1015.9||1|FM15-METAR|223|ICAO-KSVE|||||||||||||||||||||||||||||||||||||||||||MET063METAR KSVE 251655Z AUTO 29003KT 10SM CLR M08/M11 A3000 RMK AO2=||F||223|ICAO-KSVE
USI0000KSVE|SUSANVILLE MUNI|2016|12|25|17|15|40.3757|-120.5727|1264.6|-7.0||1|FM15-METAR|223|ICAO-KSVE|-11.0||1|FM15-METAR|223|ICAO-KSVE|873.2||4|FM15-METAR|223|ICAO-KSVE|||||||999|C-Calm|9|FM15-METAR|223|ICAO-KSVE|0.0|C-Calm|1|FM15-METAR|223|ICAO-KSVE|||||||||||||73|Derived||FM15-METAR|223|ICAO-KSVE|-8.4|Derived||FM15-METAR|223|ICAO-KSVE|||||||||||||||||||||||||||||||||||||||||||||||||||||||||||||||||||1016.3||1|FM15-METAR|223|ICAO-KSVE|||||||||||||||||||||||||||||||||||||||||||MET063METAR KSVE 251715Z AUTO 00000KT 10SM CLR M07/M11 A3001 RMK AO2=||F||223|ICAO-KSVE
USI0000KSVE|SUSANVILLE MUNI|2016|12|25|17|35|40.3757|-120.5727|1264.6|-6.0||1|FM15-METAR|223|ICAO-KSVE|-10.0||1|FM15-METAR|223|ICAO-KSVE|873.2||4|FM15-METAR|223|ICAO-KSVE|||||||999|C-Calm|9|FM15-METAR|223|ICAO-KSVE|0.0|C-Calm|1|FM15-METAR|223|ICAO-KSVE|||||||||||||74|Derived||FM15-METAR|223|ICAO-KSVE|-7.3|Derived||FM15-METAR|223|ICAO-KSVE|||||||||||||||||||||||||||||||||||||||||||||||||||||||||||||||||||1016.3||1|FM15-METAR|223|ICAO-KSVE|||||||||||||||||||||||||||||||||||||||||||MET063METAR KSVE 251735Z AUTO 00000KT 10SM CLR M06/M10 A3001 RMK AO2=||F||223|ICAO-KSVE
USI0000KSVE|SUSANVILLE MUNI|2016|12|25|17|55|40.3757|-120.5727|1264.6|-6.0||1|FM15-METAR|223|ICAO-KSVE|-10.0||1|FM15-METAR|223|ICAO-KSVE|873.2||4|FM15-METAR|223|ICAO-KSVE|||||||999|C-Calm|9|FM15-METAR|223|ICAO-KSVE|0.0|C-Calm|1|FM15-METAR|223|ICAO-KSVE|||||||||||||74|Derived||FM15-METAR|223|ICAO-KSVE|-7.3|Derived||FM15-METAR|223|ICAO-KSVE|||||||||||||||||||||||||||||||||||||||||||||||||||||||||||||||||||1016.3||1|FM15-METAR|223|ICAO-KSVE|||||||||||||||||||||||||||||||||||||||||||MET063METAR KSVE 251755Z AUTO 00000KT 10SM CLR M06/M10 A3001 RMK AO2=||F||223|ICAO-KSVE
USI0000KSVE|SUSANVILLE MUNI|2016|12|25|18|15|40.3757|-120.5727|1264.6|-5.0||1|FM15-METAR|223|ICAO-KSVE|-10.0||1|FM15-METAR|223|ICAO-KSVE|873.5||4|FM15-METAR|223|ICAO-KSVE|||||||999|C-Calm|9|FM15-METAR|223|ICAO-KSVE|0.0|C-Calm|1|FM15-METAR|223|ICAO-KSVE|||||||||||||68|Derived||FM15-METAR|223|ICAO-KSVE|-6.6|Derived||FM15-METAR|223|ICAO-KSVE|||||||||||||||||||||||||||||||||||||||||||||||||||||||||||||||||||1016.6||1|FM15-METAR|223|ICAO-KSVE|||||||||||||||||||||||||||||||||||||||||||MET063METAR KSVE 251815Z AUTO 00000KT 10SM CLR M05/M10 A3002 RMK AO2=||F||223|ICAO-KSVE
USI0000KSVE|SUSANVILLE MUNI|2016|12|25|18|35|40.3757|-120.5727|1264.6|-4.0||1|FM15-METAR|223|ICAO-KSVE|-9.0||1|FM15-METAR|223|ICAO-KSVE|873.2||4|FM15-METAR|223|ICAO-KSVE|||||||999|C-Calm|9|FM15-METAR|223|ICAO-KSVE|0.0|C-Calm|1|FM15-METAR|223|ICAO-KSVE|||||||||||||69|Derived||FM15-METAR|223|ICAO-KSVE|-5.5|Derived||FM15-METAR|223|ICAO-KSVE|||||||||||||||||||||||||||||||||||||||||||||||||||||||||||||||||||1016.3||1|FM15-METAR|223|ICAO-KSVE|||||||||||||||||||||||||||||||||||||||||||MET063METAR KSVE 251835Z AUTO 00000KT 10SM CLR M04/M09 A3001 RMK AO2=||F||223|ICAO-KSVE
USI0000KSVE|SUSANVILLE MUNI|2016|12|25|18|55|40.3757|-120.5727|1264.6|-3.0||1|FM15-METAR|223|ICAO-KSVE|-8.0||1|FM15-METAR|223|ICAO-KSVE|873.2||4|FM15-METAR|223|ICAO-KSVE|||||||110|N-Normal|1|FM15-METAR|223|ICAO-KSVE|1.5|N-Normal|1|FM15-METAR|223|ICAO-KSVE|||||||||||||69|Derived||FM15-METAR|223|ICAO-KSVE|-4.5|Derived||FM15-METAR|223|ICAO-KSVE|||||||||||||||||||||||||||||||||||||||||||||||||||||||||||||||||||1016.3||1|FM15-METAR|223|ICAO-KSVE|||||||||||||||||||||||||||||||||||||||||||MET063METAR KSVE 251855Z AUTO 11003KT 10SM CLR M03/M08 A3001 RMK AO2=||F||223|ICAO-KSVE
USI0000KSVE|SUSANVILLE MUNI|2016|12|25|19|15|40.3757|-120.5727|1264.6|-2.0||1|FM15-METAR|223|ICAO-KSVE|-8.0||1|FM15-METAR|223|ICAO-KSVE|873.5||4|FM15-METAR|223|ICAO-KSVE|||||||100|N-Normal|1|FM15-METAR|223|ICAO-KSVE|1.5|N-Normal|1|FM15-METAR|223|ICAO-KSVE|||||||||||||64|Derived||FM15-METAR|223|ICAO-KSVE|-4.2|Derived||FM15-METAR|223|ICAO-KSVE|||||||||||||||||||||||||||||||||||||||||||||||||||||||||||||||||||1016.6||1|FM15-METAR|223|ICAO-KSVE|||||||||||||||||||||||||||||||||||||||||||MET063METAR KSVE 251915Z AUTO 10003KT 10SM CLR M02/M08 A3002 RMK AO2=||F||223|ICAO-KSVE
USI0000KSVE|SUSANVILLE MUNI|2016|12|25|19|35|40.3757|-120.5727|1264.6|-2.0||1|FM15-METAR|223|ICAO-KSVE|-8.0||1|FM15-METAR|223|ICAO-KSVE|873.2||4|FM15-METAR|223|ICAO-KSVE|||||||080|N-Normal|1|FM15-METAR|223|ICAO-KSVE|1.5|N-Normal|1|FM15-METAR|223|ICAO-KSVE|||||||||||||64|Derived||FM15-METAR|223|ICAO-KSVE|-4.2|Derived||FM15-METAR|223|ICAO-KSVE|||||||||||||||||||||||||||||||||||||||||||||||||||||||||||||||||||1016.3||1|FM15-METAR|223|ICAO-KSVE|||||||||||||||||||||||||||||||||||||||||||MET063METAR KSVE 251935Z AUTO 08003KT 10SM CLR M02/M08 A3001 RMK AO2=||F||223|ICAO-KSVE
USI0000KSVE|SUSANVILLE MUNI|2016|12|25|19|55|40.3757|-120.5727|1264.6|-2.0||1|FM15-METAR|223|ICAO-KSVE|-8.0||1|FM15-METAR|223|ICAO-KSVE|873.2||4|FM15-METAR|223|ICAO-KSVE|||||||999|C-Calm|9|FM15-METAR|223|ICAO-KSVE|0.0|C-Calm|1|FM15-METAR|223|ICAO-KSVE|||||||||||||64|Derived||FM15-METAR|223|ICAO-KSVE|-4.2|Derived||FM15-METAR|223|ICAO-KSVE|||||||||||||||||||||||||||||||||||||||||||||||||||||||||||||||||||1016.3||1|FM15-METAR|223|ICAO-KSVE|||||||||||||||||||||||||||||||||||||||||||MET063METAR KSVE 251955Z AUTO 00000KT 10SM CLR M02/M08 A3001 RMK AO2=||F||223|ICAO-KSVE
USI0000KSVE|SUSANVILLE MUNI|2016|12|25|20|15|40.3757|-120.5727|1264.6|-1.0||1|FM15-METAR|223|ICAO-KSVE|-8.0||1|FM15-METAR|223|ICAO-KSVE|872.9||4|FM15-METAR|223|ICAO-KSVE|||||||080|N-Normal|1|FM15-METAR|223|ICAO-KSVE|1.5|N-Normal|1|FM15-METAR|223|ICAO-KSVE|||||||||||||59|Derived||FM15-METAR|223|ICAO-KSVE|-3.5|Derived||FM15-METAR|223|ICAO-KSVE|||||||||||||||||||||||||||||||||||||||||||||||||||||||||||||||||||1015.9||1|FM15-METAR|223|ICAO-KSVE|||||||||||||||||||||||||||||||||||||||||||MET063METAR KSVE 252015Z AUTO 08003KT 10SM CLR M01/M08 A3000 RMK AO2=||F||223|ICAO-KSVE
USI0000KSVE|SUSANVILLE MUNI|2016|12|25|20|35|40.3757|-120.5727|1264.6|-1.0||1|FM15-METAR|223|ICAO-KSVE|-8.0||1|FM15-METAR|223|ICAO-KSVE|872.9||4|FM15-METAR|223|ICAO-KSVE|||||||120|N-Normal|1|FM15-METAR|223|ICAO-KSVE|1.5|N-Normal|1|FM15-METAR|223|ICAO-KSVE|||||||||||||59|Derived||FM15-METAR|223|ICAO-KSVE|-3.5|Derived||FM15-METAR|223|ICAO-KSVE|||||||||||||||||||||||||||||||||||||||||||||||||||||||||||||||||||1015.9||1|FM15-METAR|223|ICAO-KSVE|||||||||||||||||||||||||||||||||||||||||||MET063METAR KSVE 252035Z AUTO 12003KT 10SM CLR M01/M08 A3000 RMK AO2=||F||223|ICAO-KSVE
USI0000KSVE|SUSANVILLE MUNI|2016|12|25|20|55|40.3757|-120.5727|1264.6|-1.0||1|FM15-METAR|223|ICAO-KSVE|-9.0||1|FM15-METAR|223|ICAO-KSVE|872.9||4|FM15-METAR|223|ICAO-KSVE|||||||090|N-Normal|1|FM15-METAR|223|ICAO-KSVE|1.5|N-Normal|1|FM15-METAR|223|ICAO-KSVE|||||||||||||55|Derived||FM15-METAR|223|ICAO-KSVE|-3.8|Derived||FM15-METAR|223|ICAO-KSVE|||||||||||||||||||||||||||||||||||||||||||||||||||||||||||||||||||1015.9||1|FM15-METAR|223|ICAO-KSVE|||||||||||||||||||||||||||||||||||||||||||MET063METAR KSVE 252055Z AUTO 09003KT 10SM CLR M01/M09 A3000 RMK AO2=||F||223|ICAO-KSVE
USI0000KSVE|SUSANVILLE MUNI|2016|12|25|21|15|40.3757|-120.5727|1264.6|0.0||1|FM15-METAR|223|ICAO-KSVE|-8.0||1|FM15-METAR|223|ICAO-KSVE|872.9||4|FM15-METAR|223|ICAO-KSVE|||||||999|C-Calm|9|FM15-METAR|223|ICAO-KSVE|0.0|C-Calm|1|FM15-METAR|223|ICAO-KSVE|||||||||||||55|Derived||FM15-METAR|223|ICAO-KSVE|-2.8|Derived||FM15-METAR|223|ICAO-KSVE|||||||||||||||||||||||||||||||||||||||||||||||||||||||||||||||||||1015.9||1|FM15-METAR|223|ICAO-KSVE|||||||||||||||||||||||||||||||||||||||||||MET062METAR KSVE 252115Z AUTO 00000KT 10SM CLR 00/M08 A3000 RMK AO2=||F||223|ICAO-KSVE
USI0000KSVE|SUSANVILLE MUNI|2016|12|25|21|35|40.3757|-120.5727|1264.6|0.0||1|FM15-METAR|223|ICAO-KSVE|-8.0||1|FM15-METAR|223|ICAO-KSVE|872.9||4|FM15-METAR|223|ICAO-KSVE|||||||999|C-Calm|9|FM15-METAR|223|ICAO-KSVE|0.0|C-Calm|1|FM15-METAR|223|ICAO-KSVE|||||||||||||55|Derived||FM15-METAR|223|ICAO-KSVE|-2.8|Derived||FM15-METAR|223|ICAO-KSVE|||||||||||||||||||||||||||||||||||||||||||||||||||||||||||||||||||1015.9||1|FM15-METAR|223|ICAO-KSVE|||||||||||||||||||||||||||||||||||||||||||MET062METAR KSVE 252135Z AUTO 00000KT 10SM CLR 00/M08 A3000 RMK AO2=||F||223|ICAO-KSVE
USI0000KSVE|SUSANVILLE MUNI|2016|12|25|21|55|40.3757|-120.5727|1264.6|0.0||1|FM15-METAR|223|ICAO-KSVE|-9.0||1|FM15-METAR|223|ICAO-KSVE|872.9||4|FM15-METAR|223|ICAO-KSVE|||||||060|N-Normal|1|FM15-METAR|223|ICAO-KSVE|1.5|N-Normal|1|FM15-METAR|223|ICAO-KSVE|||||||||||||51|Derived||FM15-METAR|223|ICAO-KSVE|-3.1|Derived||FM15-METAR|223|ICAO-KSVE|||||||||||||||||||||||||||||||||||||||||||||||||||||||||||||||||||1015.9||1|FM15-METAR|223|ICAO-KSVE|||||||||||||||||||||||||||||||||||||||||||MET062METAR KSVE 252155Z AUTO 06003KT 10SM CLR 00/M09 A3000 RMK AO2=||F||223|ICAO-KSVE
USI0000KSVE|SUSANVILLE MUNI|2016|12|25|22|15|40.3757|-120.5727|1264.6|0.0||1|FM15-METAR|223|ICAO-KSVE|-8.0||1|FM15-METAR|223|ICAO-KSVE|872.9||4|FM15-METAR|223|ICAO-KSVE|||||||999|C-Calm|9|FM15-METAR|223|ICAO-KSVE|0.0|C-Calm|1|FM15-METAR|223|ICAO-KSVE|||||||||||||55|Derived||FM15-METAR|223|ICAO-KSVE|-2.8|Derived||FM15-METAR|223|ICAO-KSVE|||||||||||||||||||||||||||||||||||||||||||||||||||||||||||||||||||1015.9||1|FM15-METAR|223|ICAO-KSVE|||||||||||||||||||||||||||||||||||||||||||MET062METAR KSVE 252215Z AUTO 00000KT 10SM CLR 00/M08 A3000 RMK AO2=||F||223|ICAO-KSVE
USI0000KSVE|SUSANVILLE MUNI|2016|12|25|22|35|40.3757|-120.5727|1264.6|0.0||1|FM15-METAR|223|ICAO-KSVE|-8.0||1|FM15-METAR|223|ICAO-KSVE|872.9||4|FM15-METAR|223|ICAO-KSVE|||||||100|N-Normal|1|FM15-METAR|223|ICAO-KSVE|1.5|N-Normal|1|FM15-METAR|223|ICAO-KSVE|||||||||||||55|Derived||FM15-METAR|223|ICAO-KSVE|-2.8|Derived||FM15-METAR|223|ICAO-KSVE|||||||||||||||||||||||||||||||||||||||||||||||||||||||||||||||||||1015.9||1|FM15-METAR|223|ICAO-KSVE|||||||||||||||||||||||||||||||||||||||||||MET062METAR KSVE 252235Z AUTO 10003KT 10SM CLR 00/M08 A3000 RMK AO2=||F||223|ICAO-KSVE
USI0000KSVE|SUSANVILLE MUNI|2016|12|25|22|55|40.3757|-120.5727|1264.6|0.0||1|FM15-METAR|223|ICAO-KSVE|-8.0||1|FM15-METAR|223|ICAO-KSVE|873.2||4|FM15-METAR|223|ICAO-KSVE|||||||110|N-Normal|1|FM15-METAR|223|ICAO-KSVE|2.1|N-Normal|1|FM15-METAR|223|ICAO-KSVE|||||||||||||55|Derived||FM15-METAR|223|ICAO-KSVE|-2.8|Derived||FM15-METAR|223|ICAO-KSVE|||||||||||||||||||||||||||||||||||||||||||||||||||||||||||||||||||1016.3||1|FM15-METAR|223|ICAO-KSVE|||||||||||||||||||||||||||||||||||||||||||MET062METAR KSVE 252255Z AUTO 11004KT 10SM CLR 00/M08 A3001 RMK AO2=||F||223|ICAO-KSVE
USI0000KSVE|SUSANVILLE MUNI|2016|12|25|23|15|40.3757|-120.5727|1264.6|0.0||1|FM15-METAR|223|ICAO-KSVE|-8.0||1|FM15-METAR|223|ICAO-KSVE|873.5||4|FM15-METAR|223|ICAO-KSVE|||||||130|N-Normal|1|FM15-METAR|223|ICAO-KSVE|2.1|N-Normal|1|FM15-METAR|223|ICAO-KSVE|||||||||||||55|Derived||FM15-METAR|223|ICAO-KSVE|-2.8|Derived||FM15-METAR|223|ICAO-KSVE|||||||||||||||||||||||||||||||||||||||||||||||||||||||||||||||||||1016.6||1|FM15-METAR|223|ICAO-KSVE|||||||||||||||||||||||||||||||||||||||||||MET062METAR KSVE 252315Z AUTO 13004KT 10SM CLR 00/M08 A3002 RMK AO2=||F||223|ICAO-KSVE
USI0000KSVE|SUSANVILLE MUNI|2016|12|25|23|35|40.3757|-120.5727|1264.6|0.0||1|FM15-METAR|223|ICAO-KSVE|-8.0||1|FM15-METAR|223|ICAO-KSVE|873.5||4|FM15-METAR|223|ICAO-KSVE|||||||130|N-Normal|1|FM15-METAR|223|ICAO-KSVE|2.1|N-Normal|1|FM15-METAR|223|ICAO-KSVE|||||||||||||55|Derived||FM15-METAR|223|ICAO-KSVE|-2.8|Derived||FM15-METAR|223|ICAO-KSVE|||||||||||||||||||||||||||||||||||||||||||||||||||||||||||||||||||1016.6||1|FM15-METAR|223|ICAO-KSVE|||||||||||||||||||||||||||||||||||||||||||MET062METAR KSVE 252335Z AUTO 13004KT 10SM CLR 00/M08 A3002 RMK AO2=||F||223|ICAO-KSVE
USI0000KSVE|SUSANVILLE MUNI|2016|12|25|23|55|40.3757|-120.5727|1264.6|0.0||1|FM15-METAR|223|ICAO-KSVE|-8.0||1|FM15-METAR|223|ICAO-KSVE|873.8||4|FM15-METAR|223|ICAO-KSVE|||||||170|N-Normal|1|FM15-METAR|223|ICAO-KSVE|2.6|N-Normal|1|FM15-METAR|223|ICAO-KSVE|||||||||||||55|Derived||FM15-METAR|223|ICAO-KSVE|-2.8|Derived||FM15-METAR|223|ICAO-KSVE|||||||||||||||||||||||||||||||||||||||||||||||||||||||||||||||||||1016.9||1|FM15-METAR|223|ICAO-KSVE|||||||||||||||||||||||||||||||||||||||||||MET062METAR KSVE 252355Z AUTO 17005KT 10SM CLR 00/M08 A3003 RMK AO2=||F||223|ICAO-KSVE
USI0000KSVE|SUSANVILLE MUNI|2016|12|26|00|15|40.3757|-120.5727|1264.6|-1.0||1|FM15-METAR|223|ICAO-KSVE|-8.0||1|FM15-METAR|223|ICAO-KSVE|873.8||4|FM15-METAR|223|ICAO-KSVE|||||||999|C-Calm|9|FM15-METAR|223|ICAO-KSVE|0.0|C-Calm|1|FM15-METAR|223|ICAO-KSVE|||||||||||||59|Derived||FM15-METAR|223|ICAO-KSVE|-3.5|Derived||FM15-METAR|223|ICAO-KSVE|||||||||||||||||||||||||||||||||||||||||||||||||||||||||||||||||||1016.9||1|FM15-METAR|223|ICAO-KSVE|||||||||||||||||||||||||||||||||||||||||||MET063METAR KSVE 260015Z AUTO 00000KT 10SM CLR M01/M08 A3003 RMK AO2=||F||223|ICAO-KSVE
USI0000KSVE|SUSANVILLE MUNI|2016|12|26|00|35|40.3757|-120.5727|1264.6|-2.0||1|FM15-METAR|223|ICAO-KSVE|-8.0||1|FM15-METAR|223|ICAO-KSVE|873.8||4|FM15-METAR|223|ICAO-KSVE|||||||160|N-Normal|1|FM15-METAR|223|ICAO-KSVE|2.1|N-Normal|1|FM15-METAR|223|ICAO-KSVE|||||||||||||64|Derived||FM15-METAR|223|ICAO-KSVE|-4.2|Derived||FM15-METAR|223|ICAO-KSVE|||||||||||||||||||||||||||||||||||||||||||||||||||||||||||||||||||1016.9||1|FM15-METAR|223|ICAO-KSVE|||||||||||||||||||||||||||||||||||||||||||MET063METAR KSVE 260035Z AUTO 16004KT 10SM CLR M02/M08 A3003 RMK AO2=||F||223|ICAO-KSVE
USI0000KSVE|SUSANVILLE MUNI|2016|12|26|00|55|40.3757|-120.5727|1264.6|-3.0||1|FM15-METAR|223|ICAO-KSVE|-8.0||1|FM15-METAR|223|ICAO-KSVE|874.1||4|FM15-METAR|223|ICAO-KSVE|||||||180|N-Normal|1|FM15-METAR|223|ICAO-KSVE|1.5|N-Normal|1|FM15-METAR|223|ICAO-KSVE|||||||||||||69|Derived||FM15-METAR|223|ICAO-KSVE|-4.5|Derived||FM15-METAR|223|ICAO-KSVE|||||||||||||||||||||||||||||||||||||||||||||||||||||||||||||||||||1017.3||1|FM15-METAR|223|ICAO-KSVE|||||||||||||||||||||||||||||||||||||||||||MET063METAR KSVE 260055Z AUTO 18003KT 10SM CLR M03/M08 A3004 RMK AO2=||F||223|ICAO-KSVE
USI0000KSVE|SUSANVILLE MUNI|2016|12|26|01|15|40.3757|-120.5727|1264.6|-3.0||1|FM15-METAR|223|ICAO-KSVE|-8.0||1|FM15-METAR|223|ICAO-KSVE|874.4||4|FM15-METAR|223|ICAO-KSVE|||||||999|C-Calm|9|FM15-METAR|223|ICAO-KSVE|0.0|C-Calm|1|FM15-METAR|223|ICAO-KSVE|||||||||||||69|Derived||FM15-METAR|223|ICAO-KSVE|-4.5|Derived||FM15-METAR|223|ICAO-KSVE|||||||||||||||||||||||||||||||||||||||||||||||||||||||||||||||||||1017.6||1|FM15-METAR|223|ICAO-KSVE|||||||||||||||||||||||||||||||||||||||||||MET062METAR KSVE 260115Z AUTO 00000KT 9SM CLR M03/M08 A3005 RMK AO2=||F||223|ICAO-KSVE
USI0000KSVE|SUSANVILLE MUNI|2016|12|26|01|35|40.3757|-120.5727|1264.6|-3.0||1|FM15-METAR|223|ICAO-KSVE|-8.0||1|FM15-METAR|223|ICAO-KSVE|874.4||4|FM15-METAR|223|ICAO-KSVE|||||||280|N-Normal|1|FM15-METAR|223|ICAO-KSVE|1.5|N-Normal|1|FM15-METAR|223|ICAO-KSVE|||||||||||||69|Derived||FM15-METAR|223|ICAO-KSVE|-4.5|Derived||FM15-METAR|223|ICAO-KSVE|||||||||||||||||||||||||||||||||||||||||||||||||||||||||||||||||||1017.6||1|FM15-METAR|223|ICAO-KSVE|||||||||||||||||||||||||||||||||||||||||||MET063METAR KSVE 260135Z AUTO 28003KT 10SM CLR M03/M08 A3005 RMK AO2=||F||223|ICAO-KSVE
USI0000KSVE|SUSANVILLE MUNI|2016|12|26|01|55|40.3757|-120.5727|1264.6|-4.0||1|FM15-METAR|223|ICAO-KSVE|-8.0||1|FM15-METAR|223|ICAO-KSVE|874.7||4|FM15-METAR|223|ICAO-KSVE|||||||300|N-Normal|1|FM15-METAR|223|ICAO-KSVE|1.5|N-Normal|1|FM15-METAR|223|ICAO-KSVE|||||||||||||74|Derived||FM15-METAR|223|ICAO-KSVE|-5.2|Derived||FM15-METAR|223|ICAO-KSVE|||||||||||||||||||||||||||||||||||||||||||||||||||||||||||||||||||1017.9||1|FM15-METAR|223|ICAO-KSVE|||||||||||||||||||||||||||||||||||||||||||MET063METAR KSVE 260155Z AUTO 30003KT 10SM CLR M04/M08 A3006 RMK AO2=||F||223|ICAO-KSVE
USI0000KSVE|SUSANVILLE MUNI|2016|12|26|02|15|40.3757|-120.5727|1264.6|-5.0||1|FM15-METAR|223|ICAO-KSVE|-8.0||1|FM15-METAR|223|ICAO-KSVE|875.0||4|FM15-METAR|223|ICAO-KSVE|||||||270|N-Normal|1|FM15-METAR|223|ICAO-KSVE|2.1|N-Normal|1|FM15-METAR|223|ICAO-KSVE|||||||||||||80|Derived||FM15-METAR|223|ICAO-KSVE|-5.9|Derived||FM15-METAR|223|ICAO-KSVE|||||||||||||||||||||||||||||||||||||||||||||||||||||||||||||||||||1018.3||1|FM15-METAR|223|ICAO-KSVE|||||||||||||||||||||||||||||||||||||||||||MET063METAR KSVE 260215Z AUTO 27004KT 10SM CLR M05/M08 A3007 RMK AO2=||F||223|ICAO-KSVE
USI0000KSVE|SUSANVILLE MUNI|2016|12|26|02|35|40.3757|-120.5727|1264.6|-5.0||1|FM15-METAR|223|ICAO-KSVE|-9.0||1|FM15-METAR|223|ICAO-KSVE|875.3||4|FM15-METAR|223|ICAO-KSVE|||||||270|N-Normal|1|FM15-METAR|223|ICAO-KSVE|3.1|N-Normal|1|FM15-METAR|223|ICAO-KSVE|||||||||||||74|Derived||FM15-METAR|223|ICAO-KSVE|-6.3|Derived||FM15-METAR|223|ICAO-KSVE|||||||||||||||||||||||||||||||||||||||||||||||||||||||||||||||||||1018.6||1|FM15-METAR|223|ICAO-KSVE|||||||||||||||||||||||||||||||||||||||||||MET063METAR KSVE 260235Z AUTO 27006KT 10SM CLR M05/M09 A3008 RMK AO2=||F||223|ICAO-KSVE
USI0000KSVE|SUSANVILLE MUNI|2016|12|26|02|55|40.3757|-120.5727|1264.6|-6.0||1|FM15-METAR|223|ICAO-KSVE|-9.0||1|FM15-METAR|223|ICAO-KSVE|875.6||4|FM15-METAR|223|ICAO-KSVE|||||||280|N-Normal|1|FM15-METAR|223|ICAO-KSVE|2.1|N-Normal|1|FM15-METAR|223|ICAO-KSVE|||||||||||||80|Derived||FM15-METAR|223|ICAO-KSVE|-7.0|Derived||FM15-METAR|223|ICAO-KSVE|||||||||||||||||||||||||||||||||||||||||||||||||||||||||||||||||||1019.0||1|FM15-METAR|223|ICAO-KSVE|||||||||||||||||||||||||||||||||||||||||||MET063METAR KSVE 260255Z AUTO 28004KT 10SM CLR M06/M09 A3009 RMK AO2=||F||223|ICAO-KSVE
USI0000KSVE|SUSANVILLE MUNI|2016|12|26|03|15|40.3757|-120.5727|1264.6|-6.0||1|FM15-METAR|223|ICAO-KSVE|-9.0||1|FM15-METAR|223|ICAO-KSVE|875.6||4|FM15-METAR|223|ICAO-KSVE|||||||290|N-Normal|1|FM15-METAR|223|ICAO-KSVE|2.1|N-Normal|1|FM15-METAR|223|ICAO-KSVE|||||||||||||80|Derived||FM15-METAR|223|ICAO-KSVE|-7.0|Derived||FM15-METAR|223|ICAO-KSVE|||||||||||||||||||||||||||||||||||||||||||||||||||||||||||||||||||1019.0||1|FM15-METAR|223|ICAO-KSVE|||||||||||||||||||||||||||||||||||||||||||MET063METAR KSVE 260315Z AUTO 29004KT 10SM CLR M06/M09 A3009 RMK AO2=||F||223|ICAO-KSVE
USI0000KSVE|SUSANVILLE MUNI|2016|12|26|03|35|40.3757|-120.5727|1264.6|-6.0||1|FM15-METAR|223|ICAO-KSVE|-9.0||1|FM15-METAR|223|ICAO-KSVE|875.9||4|FM15-METAR|223|ICAO-KSVE|||||||290|N-Normal|1|FM15-METAR|223|ICAO-KSVE|2.6|N-Normal|1|FM15-METAR|223|ICAO-KSVE|||||||||||||80|Derived||FM15-METAR|223|ICAO-KSVE|-7.0|Derived||FM15-METAR|223|ICAO-KSVE|||||||||||||||||||||||||||||||||||||||||||||||||||||||||||||||||||1019.3||1|FM15-METAR|223|ICAO-KSVE|||||||||||||||||||||||||||||||||||||||||||MET063METAR KSVE 260335Z AUTO 29005KT 10SM CLR M06/M09 A3010 RMK AO2=||F||223|ICAO-KSVE
USI0000KSVE|SUSANVILLE MUNI|2016|12|26|03|55|40.3757|-120.5727|1264.6|-6.0||1|FM15-METAR|223|ICAO-KSVE|-10.0||1|FM15-METAR|223|ICAO-KSVE|876.2||4|FM15-METAR|223|ICAO-KSVE|||||||280|N-Normal|1|FM15-METAR|223|ICAO-KSVE|2.1|N-Normal|1|FM15-METAR|223|ICAO-KSVE|||||||||||||74|Derived||FM15-METAR|223|ICAO-KSVE|-7.3|Derived||FM15-METAR|223|ICAO-KSVE|||||||||||||||||||||||||||||||||||||||||||||||||||||||||||||||||||1019.6||1|FM15-METAR|223|ICAO-KSVE|||||||||||||||||||||||||||||||||||||||||||MET063METAR KSVE 260355Z AUTO 28004KT 10SM CLR M06/M10 A3011 RMK AO2=||F||223|ICAO-KSVE
USI0000KSVE|SUSANVILLE MUNI|2016|12|26|04|15|40.3757|-120.5727|1264.6|-7.0||1|FM15-METAR|223|ICAO-KSVE|-10.0||1|FM15-METAR|223|ICAO-KSVE|876.5||4|FM15-METAR|223|ICAO-KSVE|||||||290|N-Normal|1|FM15-METAR|223|ICAO-KSVE|2.1|N-Normal|1|FM15-METAR|223|ICAO-KSVE|||||||||||||79|Derived||FM15-METAR|223|ICAO-KSVE|-8.1|Derived||FM15-METAR|223|ICAO-KSVE|||||||||||||||||||||||||||||||||||||||||||||||||||||||||||||||||||1020.0||1|FM15-METAR|223|ICAO-KSVE|||||||||||||||||||||||||||||||||||||||||||MET063METAR KSVE 260415Z AUTO 29004KT 10SM CLR M07/M10 A3012 RMK AO2=||F||223|ICAO-KSVE
USI0000KSVE|SUSANVILLE MUNI|2016|12|26|04|35|40.3757|-120.5727|1264.6|-7.0||1|FM15-METAR|223|ICAO-KSVE|-10.0||1|FM15-METAR|223|ICAO-KSVE|876.5||4|FM15-METAR|223|ICAO-KSVE|||||||290|N-Normal|1|FM15-METAR|223|ICAO-KSVE|2.6|N-Normal|1|FM15-METAR|223|ICAO-KSVE|||||||||||||79|Derived||FM15-METAR|223|ICAO-KSVE|-8.1|Derived||FM15-METAR|223|ICAO-KSVE|||||||||||||||||||||||||||||||||||||||||||||||||||||||||||||||||||1020.0||1|FM15-METAR|223|ICAO-KSVE|||||||||||||||||||||||||||||||||||||||||||MET063METAR KSVE 260435Z AUTO 29005KT 10SM CLR M07/M10 A3012 RMK AO2=||F||223|ICAO-KSVE
USI0000KSVE|SUSANVILLE MUNI|2016|12|26|04|55|40.3757|-120.5727|1264.6|-7.0||1|FM15-METAR|223|ICAO-KSVE|-10.0||1|FM15-METAR|223|ICAO-KSVE|876.8||4|FM15-METAR|223|ICAO-KSVE|||||||290|N-Normal|1|FM15-METAR|223|ICAO-KSVE|2.6|N-Normal|1|FM15-METAR|223|ICAO-KSVE|||||||||||||79|Derived||FM15-METAR|223|ICAO-KSVE|-8.1|Derived||FM15-METAR|223|ICAO-KSVE|||||||||||||||||||||||||||||||||||||||||||||||||||||||||||||||||||1020.3||1|FM15-METAR|223|ICAO-KSVE|||||||||||||||||||||||||||||||||||||||||||MET063METAR KSVE 260455Z AUTO 29005KT 10SM CLR M07/M10 A3013 RMK AO2=||F||223|ICAO-KSVE
USI0000KSVE|SUSANVILLE MUNI|2016|12|26|05|15|40.3757|-120.5727|1264.6|-7.0||1|FM15-METAR|223|ICAO-KSVE|-10.0||1|FM15-METAR|223|ICAO-KSVE|877.1||4|FM15-METAR|223|ICAO-KSVE|||||||280|N-Normal|1|FM15-METAR|223|ICAO-KSVE|2.1|N-Normal|1|FM15-METAR|223|ICAO-KSVE|||||||||||||79|Derived||FM15-METAR|223|ICAO-KSVE|-8.1|Derived||FM15-METAR|223|ICAO-KSVE|||||||||||||||||||||||||||||||||||||||||||||||||||||||||||||||||||1020.7||1|FM15-METAR|223|ICAO-KSVE|||||||||||||||||||||||||||||||||||||||||||MET063METAR KSVE 260515Z AUTO 28004KT 10SM CLR M07/M10 A3014 RMK AO2=||F||223|ICAO-KSVE
USI0000KSVE|SUSANVILLE MUNI|2016|12|26|05|35|40.3757|-120.5727|1264.6|-7.0||1|FM15-METAR|223|ICAO-KSVE|-10.0||1|FM15-METAR|223|ICAO-KSVE|877.4||4|FM15-METAR|223|ICAO-KSVE|||||||300|N-Normal|1|FM15-METAR|223|ICAO-KSVE|2.1|N-Normal|1|FM15-METAR|223|ICAO-KSVE|||||||||||||79|Derived||FM15-METAR|223|ICAO-KSVE|-8.1|Derived||FM15-METAR|223|ICAO-KSVE|||||||||||||||||||||||||||||||||||||||||||||||||||||||||||||||||||1021.0||1|FM15-METAR|223|ICAO-KSVE|||||||||||||||||||||||||||||||||||||||||||MET063METAR KSVE 260535Z AUTO 30004KT 10SM CLR M07/M10 A3015 RMK AO2=||F||223|ICAO-KSVE
USI0000KSVE|SUSANVILLE MUNI|2016|12|26|05|55|40.3757|-120.5727|1264.6|-8.0||1|FM15-METAR|223|ICAO-KSVE|-11.0||1|FM15-METAR|223|ICAO-KSVE|877.4||4|FM15-METAR|223|ICAO-KSVE|||||||999|C-Calm|9|FM15-METAR|223|ICAO-KSVE|0.0|C-Calm|1|FM15-METAR|223|ICAO-KSVE|||||||||||||79|Derived||FM15-METAR|223|ICAO-KSVE|-8.8|Derived||FM15-METAR|223|ICAO-KSVE|||||||||||||||||||||||||||||||||||||||||||||||||||||||||||||||||||1021.0||1|FM15-METAR|223|ICAO-KSVE|||||||||||||||||||||||||||||||||||||||||||MET063METAR KSVE 260555Z AUTO 00000KT 10SM CLR M08/M11 A3015 RMK AO2=||F||223|ICAO-KSVE
USI0000KSVE|SUSANVILLE MUNI|2016|12|26|06|15|40.3757|-120.5727|1264.6|-8.0||1|FM15-METAR|223|ICAO-KSVE|-11.0||1|FM15-METAR|223|ICAO-KSVE|877.4||4|FM15-METAR|223|ICAO-KSVE|||||||250|N-Normal|1|FM15-METAR|223|ICAO-KSVE|2.1|N-Normal|1|FM15-METAR|223|ICAO-KSVE|||||||||||||79|Derived||FM15-METAR|223|ICAO-KSVE|-8.8|Derived||FM15-METAR|223|ICAO-KSVE|||||||||||||||||||||||||||||||||||||||||||||||||||||||||||||||||||1021.0||1|FM15-METAR|223|ICAO-KSVE|||||||||||||||||||||||||||||||||||||||||||MET063METAR KSVE 260615Z AUTO 25004KT 10SM CLR M08/M11 A3015 RMK AO2=||F||223|ICAO-KSVE
USI0000KSVE|SUSANVILLE MUNI|2016|12|26|06|35|40.3757|-120.5727|1264.6|-8.0||1|FM15-METAR|223|ICAO-KSVE|-11.0||1|FM15-METAR|223|ICAO-KSVE|877.7||4|FM15-METAR|223|ICAO-KSVE|||||||999|C-Calm|9|FM15-METAR|223|ICAO-KSVE|0.0|C-Calm|1|FM15-METAR|223|ICAO-KSVE|||||||||||||79|Derived||FM15-METAR|223|ICAO-KSVE|-8.8|Derived||FM15-METAR|223|ICAO-KSVE|||||||||||||||||||||||||||||||||||||||||||||||||||||||||||||||||||1021.3||1|FM15-METAR|223|ICAO-KSVE|||||||||||||||||||||||||||||||||||||||||||MET063METAR KSVE 260635Z AUTO 00000KT 10SM CLR M08/M11 A3016 RMK AO2=||F||223|ICAO-KSVE
USI0000KSVE|SUSANVILLE MUNI|2016|12|26|06|55|40.3757|-120.5727|1264.6|-8.0||1|FM15-METAR|223|ICAO-KSVE|-11.0||1|FM15-METAR|223|ICAO-KSVE|878.0||4|FM15-METAR|223|ICAO-KSVE|||||||280|N-Normal|1|FM15-METAR|223|ICAO-KSVE|1.5|N-Normal|1|FM15-METAR|223|ICAO-KSVE|||||||||||||79|Derived||FM15-METAR|223|ICAO-KSVE|-8.8|Derived||FM15-METAR|223|ICAO-KSVE|||||||||||||||||||||||||||||||||||||||||||||||||||||||||||||||||||1021.7||1|FM15-METAR|223|ICAO-KSVE|||||||||||||||||||||||||||||||||||||||||||MET063METAR KSVE 260655Z AUTO 28003KT 10SM CLR M08/M11 A3017 RMK AO2=||F||223|ICAO-KSVE
USI0000KSVE|SUSANVILLE MUNI|2016|12|26|07|15|40.3757|-120.5727|1264.6|-8.0||1|FM15-METAR|223|ICAO-KSVE|-11.0||1|FM15-METAR|223|ICAO-KSVE|878.0||4|FM15-METAR|223|ICAO-KSVE|||||||290|N-Normal|1|FM15-METAR|223|ICAO-KSVE|1.5|N-Normal|1|FM15-METAR|223|ICAO-KSVE|||||||||||||79|Derived||FM15-METAR|223|ICAO-KSVE|-8.8|Derived||FM15-METAR|223|ICAO-KSVE|||||||||||||||||||||||||||||||||||||||||||||||||||||||||||||||||||1021.7||1|FM15-METAR|223|ICAO-KSVE|||||||||||||||||||||||||||||||||||||||||||MET063METAR KSVE 260715Z AUTO 29003KT 10SM CLR M08/M11 A3017 RMK AO2=||F||223|ICAO-KSVE
USI0000KSVE|SUSANVILLE MUNI|2016|12|26|07|35|40.3757|-120.5727|1264.6|-8.0||1|FM15-METAR|223|ICAO-KSVE|-11.0||1|FM15-METAR|223|ICAO-KSVE|878.0||4|FM15-METAR|223|ICAO-KSVE|||||||290|N-Normal|1|FM15-METAR|223|ICAO-KSVE|1.5|N-Normal|1|FM15-METAR|223|ICAO-KSVE|||||||||||||79|Derived||FM15-METAR|223|ICAO-KSVE|-8.8|Derived||FM15-METAR|223|ICAO-KSVE|||||||||||||||||||||||||||||||||||||||||||||||||||||||||||||||||||1021.7||1|FM15-METAR|223|ICAO-KSVE|||||||||||||||||||||||||||||||||||||||||||MET063METAR KSVE 260735Z AUTO 29003KT 10SM CLR M08/M11 A3017 RMK AO2=||F||223|ICAO-KSVE
USI0000KSVE|SUSANVILLE MUNI|2016|12|26|07|55|40.3757|-120.5727|1264.6|-8.0||1|FM15-METAR|223|ICAO-KSVE|-11.0||1|FM15-METAR|223|ICAO-KSVE|878.3||4|FM15-METAR|223|ICAO-KSVE|||||||290|N-Normal|1|FM15-METAR|223|ICAO-KSVE|1.5|N-Normal|1|FM15-METAR|223|ICAO-KSVE|||||||||||||79|Derived||FM15-METAR|223|ICAO-KSVE|-8.8|Derived||FM15-METAR|223|ICAO-KSVE|||||||||||||||||||||||||||||||||||||||||||||||||||||||||||||||||||1022.0||1|FM15-METAR|223|ICAO-KSVE|||||||||||||||||||||||||||||||||||||||||||MET063METAR KSVE 260755Z AUTO 29003KT 10SM CLR M08/M11 A3018 RMK AO2=||F||223|ICAO-KSVE
USI0000KSVE|SUSANVILLE MUNI|2016|12|26|08|15|40.3757|-120.5727|1264.6|-9.0||1|FM15-METAR|223|ICAO-KSVE|-11.0||1|FM15-METAR|223|ICAO-KSVE|878.6||4|FM15-METAR|223|ICAO-KSVE|||||||290|N-Normal|1|FM15-METAR|223|ICAO-KSVE|2.1|N-Normal|1|FM15-METAR|223|ICAO-KSVE|||||||||||||86|Derived||FM15-METAR|223|ICAO-KSVE|-9.5|Derived||FM15-METAR|223|ICAO-KSVE|||||||||||||||||||||||||||||||||||||||||||||||||||||||||||||||||||1022.3||1|FM15-METAR|223|ICAO-KSVE|||||||||||||||||||||||||||||||||||||||||||MET063METAR KSVE 260815Z AUTO 29004KT 10SM CLR M09/M11 A3019 RMK AO2=||F||223|ICAO-KSVE
USI0000KSVE|SUSANVILLE MUNI|2016|12|26|08|35|40.3757|-120.5727|1264.6|-10.0||1|FM15-METAR|223|ICAO-KSVE|-12.0||1|FM15-METAR|223|ICAO-KSVE|878.6||4|FM15-METAR|223|ICAO-KSVE|||||||290|N-Normal|1|FM15-METAR|223|ICAO-KSVE|2.1|N-Normal|1|FM15-METAR|223|ICAO-KSVE|||||||||||||85|Derived||FM15-METAR|223|ICAO-KSVE|-10.6|Derived||FM15-METAR|223|ICAO-KSVE|||||||||||||||||||||||||||||||||||||||||||||||||||||||||||||||||||1022.3||1|FM15-METAR|223|ICAO-KSVE|||||||||||||||||||||||||||||||||||||||||||MET063METAR KSVE 260835Z AUTO 29004KT 10SM CLR M10/M12 A3019 RMK AO2=||F||223|ICAO-KSVE
USI0000KSVE|SUSANVILLE MUNI|2016|12|26|08|55|40.3757|-120.5727|1264.6|-9.0||1|FM15-METAR|223|ICAO-KSVE|-11.0||1|FM15-METAR|223|ICAO-KSVE|878.6||4|FM15-METAR|223|ICAO-KSVE|||||||310|N-Normal|1|FM15-METAR|223|ICAO-KSVE|2.1|N-Normal|1|FM15-METAR|223|ICAO-KSVE|||||||||||||86|Derived||FM15-METAR|223|ICAO-KSVE|-9.5|Derived||FM15-METAR|223|ICAO-KSVE|||||||||||||||||||||||||||||||||||||||||||||||||||||||||||||||||||1022.3||1|FM15-METAR|223|ICAO-KSVE|||||||||||||||||||||||||||||||||||||||||||MET063METAR KSVE 260855Z AUTO 31004KT 10SM CLR M09/M11 A3019 RMK AO2=||F||223|ICAO-KSVE
USI0000KSVE|SUSANVILLE MUNI|2016|12|26|09|15|40.3757|-120.5727|1264.6|-9.0||1|FM15-METAR|223|ICAO-KSVE|-12.0||1|FM15-METAR|223|ICAO-KSVE|878.6||4|FM15-METAR|223|ICAO-KSVE|||||||300|N-Normal|1|FM15-METAR|223|ICAO-KSVE|1.5|N-Normal|1|FM15-METAR|223|ICAO-KSVE|||||||||||||79|Derived||FM15-METAR|223|ICAO-KSVE|-9.8|Derived||FM15-METAR|223|ICAO-KSVE|||||||||||||||||||||||||||||||||||||||||||||||||||||||||||||||||||1022.3||1|FM15-METAR|223|ICAO-KSVE|||||||||||||||||||||||||||||||||||||||||||MET063METAR KSVE 260915Z AUTO 30003KT 10SM CLR M09/M12 A3019 RMK AO2=||F||223|ICAO-KSVE
USI0000KSVE|SUSANVILLE MUNI|2016|12|26|09|35|40.3757|-120.5727|1264.6|-10.0||1|FM15-METAR|223|ICAO-KSVE|-12.0||1|FM15-METAR|223|ICAO-KSVE|878.9||4|FM15-METAR|223|ICAO-KSVE|||||||290|N-Normal|1|FM15-METAR|223|ICAO-KSVE|2.1|N-Normal|1|FM15-METAR|223|ICAO-KSVE|||||||||||||85|Derived||FM15-METAR|223|ICAO-KSVE|-10.6|Derived||FM15-METAR|223|ICAO-KSVE|||||||||||||||||||||||||||||||||||||||||||||||||||||||||||||||||||1022.7||1|FM15-METAR|223|ICAO-KSVE|||||||||||||||||||||||||||||||||||||||||||MET063METAR KSVE 260935Z AUTO 29004KT 10SM CLR M10/M12 A3020 RMK AO2=||F||223|ICAO-KSVE
USI0000KSVE|SUSANVILLE MUNI|2016|12|26|09|55|40.3757|-120.5727|1264.6|-10.0||1|FM15-METAR|223|ICAO-KSVE|-12.0||1|FM15-METAR|223|ICAO-KSVE|879.2||4|FM15-METAR|223|ICAO-KSVE|||||||290|N-Normal|1|FM15-METAR|223|ICAO-KSVE|2.1|N-Normal|1|FM15-METAR|223|ICAO-KSVE|||||||||||||85|Derived||FM15-METAR|223|ICAO-KSVE|-10.6|Derived||FM15-METAR|223|ICAO-KSVE|||||||||||||||||||||||||||||||||||||||||||||||||||||||||||||||||||1023.0||1|FM15-METAR|223|ICAO-KSVE|||||||||||||||||||||||||||||||||||||||||||MET063METAR KSVE 260955Z AUTO 29004KT 10SM CLR M10/M12 A3021 RMK AO2=||F||223|ICAO-KSVE
USI0000KSVE|SUSANVILLE MUNI|2016|12|26|10|15|40.3757|-120.5727|1264.6|-9.0||1|FM15-METAR|223|ICAO-KSVE|-12.0||1|FM15-METAR|223|ICAO-KSVE|879.2||4|FM15-METAR|223|ICAO-KSVE|||||||300|N-Normal|1|FM15-METAR|223|ICAO-KSVE|2.1|N-Normal|1|FM15-METAR|223|ICAO-KSVE|||||||||||||79|Derived||FM15-METAR|223|ICAO-KSVE|-9.8|Derived||FM15-METAR|223|ICAO-KSVE|||||||||||||||||||||||||||||||||||||||||||||||||||||||||||||||||||1023.0||1|FM15-METAR|223|ICAO-KSVE|||||||||||||||||||||||||||||||||||||||||||MET063METAR KSVE 261015Z AUTO 30004KT 10SM CLR M09/M12 A3021 RMK AO2=||F||223|ICAO-KSVE
USI0000KSVE|SUSANVILLE MUNI|2016|12|26|10|35|40.3757|-120.5727|1264.6|-9.0||1|FM15-METAR|223|ICAO-KSVE|-12.0||1|FM15-METAR|223|ICAO-KSVE|879.5||4|FM15-METAR|223|ICAO-KSVE|||||||330|N-Normal|1|FM15-METAR|223|ICAO-KSVE|1.5|N-Normal|1|FM15-METAR|223|ICAO-KSVE|||||||||||||79|Derived||FM15-METAR|223|ICAO-KSVE|-9.8|Derived||FM15-METAR|223|ICAO-KSVE|||||||||||||||||||||||||||||||||||||||||||||||||||||||||||||||||||1023.4||1|FM15-METAR|223|ICAO-KSVE|||||||||||||||||||||||||||||||||||||||||||MET063METAR KSVE 261035Z AUTO 33003KT 10SM CLR M09/M12 A3022 RMK AO2=||F||223|ICAO-KSVE
USI0000KSVE|SUSANVILLE MUNI|2016|12|26|10|55|40.3757|-120.5727|1264.6|-10.0||1|FM15-METAR|223|ICAO-KSVE|-12.0||1|FM15-METAR|223|ICAO-KSVE|879.8||4|FM15-METAR|223|ICAO-KSVE|||||||290|N-Normal|1|FM15-METAR|223|ICAO-KSVE|1.5|N-Normal|1|FM15-METAR|223|ICAO-KSVE|||||||||||||85|Derived||FM15-METAR|223|ICAO-KSVE|-10.6|Derived||FM15-METAR|223|ICAO-KSVE|||||||||||||||||||||||||||||||||||||||||||||||||||||||||||||||||||1023.7||1|FM15-METAR|223|ICAO-KSVE|||||||||||||||||||||||||||||||||||||||||||MET063METAR KSVE 261055Z AUTO 29003KT 10SM CLR M10/M12 A3023 RMK AO2=||F||223|ICAO-KSVE
USI0000KSVE|SUSANVILLE MUNI|2016|12|26|11|15|40.3757|-120.5727|1264.6|-10.0||1|FM15-METAR|223|ICAO-KSVE|-12.0||1|FM15-METAR|223|ICAO-KSVE|879.5||4|FM15-METAR|223|ICAO-KSVE|||||||260|N-Normal|1|FM15-METAR|223|ICAO-KSVE|2.1|N-Normal|1|FM15-METAR|223|ICAO-KSVE|||||||||||||85|Derived||FM15-METAR|223|ICAO-KSVE|-10.6|Derived||FM15-METAR|223|ICAO-KSVE|||||||||||||||||||||||||||||||||||||||||||||||||||||||||||||||||||1023.4||1|FM15-METAR|223|ICAO-KSVE|||||||||||||||||||||||||||||||||||||||||||MET063METAR KSVE 261115Z AUTO 26004KT 10SM CLR M10/M12 A3022 RMK AO2=||F||223|ICAO-KSVE
USI0000KSVE|SUSANVILLE MUNI|2016|12|26|11|35|40.3757|-120.5727|1264.6|-10.0||1|FM15-METAR|223|ICAO-KSVE|-12.0||1|FM15-METAR|223|ICAO-KSVE|879.5||4|FM15-METAR|223|ICAO-KSVE|||||||310|N-Normal|1|FM15-METAR|223|ICAO-KSVE|2.1|N-Normal|1|FM15-METAR|223|ICAO-KSVE|||||||||||||85|Derived||FM15-METAR|223|ICAO-KSVE|-10.6|Derived||FM15-METAR|223|ICAO-KSVE|||||||||||||||||||||||||||||||||||||||||||||||||||||||||||||||||||1023.4||1|FM15-METAR|223|ICAO-KSVE|||||||||||||||||||||||||||||||||||||||||||MET063METAR KSVE 261135Z AUTO 31004KT 10SM CLR M10/M12 A3022 RMK AO2=||F||223|ICAO-KSVE
USI0000KSVE|SUSANVILLE MUNI|2016|12|26|11|55|40.3757|-120.5727|1264.6|-10.0||1|FM15-METAR|223|ICAO-KSVE|-13.0||1|FM15-METAR|223|ICAO-KSVE|879.8||4|FM15-METAR|223|ICAO-KSVE|||||||270|N-Normal|1|FM15-METAR|223|ICAO-KSVE|1.5|N-Normal|1|FM15-METAR|223|ICAO-KSVE|||||||||||||79|Derived||FM15-METAR|223|ICAO-KSVE|-10.8|Derived||FM15-METAR|223|ICAO-KSVE|||||||||||||||||||||||||||||||||||||||||||||||||||||||||||||||||||1023.7||1|FM15-METAR|223|ICAO-KSVE|||||||||||||||||||||||||||||||||||||||||||MET063METAR KSVE 261155Z AUTO 27003KT 10SM CLR M10/M13 A3023 RMK AO2=||F||223|ICAO-KSVE
USI0000KSVE|SUSANVILLE MUNI|2016|12|26|12|15|40.3757|-120.5727|1264.6|-10.0||1|FM15-METAR|223|ICAO-KSVE|-12.0||1|FM15-METAR|223|ICAO-KSVE|879.8||4|FM15-METAR|223|ICAO-KSVE|||||||999|C-Calm|9|FM15-METAR|223|ICAO-KSVE|0.0|C-Calm|1|FM15-METAR|223|ICAO-KSVE|||||||||||||85|Derived||FM15-METAR|223|ICAO-KSVE|-10.6|Derived||FM15-METAR|223|ICAO-KSVE|||||||||||||||||||||||||||||||||||||||||||||||||||||||||||||||||||1023.7||1|FM15-METAR|223|ICAO-KSVE|||||||||||||||||||||||||||||||||||||||||||MET063METAR KSVE 261215Z AUTO 00000KT 10SM CLR M10/M12 A3023 RMK AO2=||F||223|ICAO-KSVE
USI0000KSVE|SUSANVILLE MUNI|2016|12|26|12|35|40.3757|-120.5727|1264.6|-10.0||1|FM15-METAR|223|ICAO-KSVE|-13.0||1|FM15-METAR|223|ICAO-KSVE|879.8||4|FM15-METAR|223|ICAO-KSVE|||||||300|N-Normal|1|FM15-METAR|223|ICAO-KSVE|2.6|N-Normal|1|FM15-METAR|223|ICAO-KSVE|||||||||||||79|Derived||FM15-METAR|223|ICAO-KSVE|-10.8|Derived||FM15-METAR|223|ICAO-KSVE|||||||||||||||||||||||||||||||||||||||||||||||||||||||||||||||||||1023.7||1|FM15-METAR|223|ICAO-KSVE|||||||||||||||||||||||||||||||||||||||||||MET063METAR KSVE 261235Z AUTO 30005KT 10SM CLR M10/M13 A3023 RMK AO2=||F||223|ICAO-KSVE
USI0000KSVE|SUSANVILLE MUNI|2016|12|26|12|55|40.3757|-120.5727|1264.6|-10.0||1|FM15-METAR|223|ICAO-KSVE|-13.0||1|FM15-METAR|223|ICAO-KSVE|879.8||4|FM15-METAR|223|ICAO-KSVE|||||||290|N-Normal|1|FM15-METAR|223|ICAO-KSVE|2.6|N-Normal|1|FM15-METAR|223|ICAO-KSVE|||||||||||||79|Derived||FM15-METAR|223|ICAO-KSVE|-10.8|Derived||FM15-METAR|223|ICAO-KSVE|||||||||||||||||||||||||||||||||||||||||||||||||||||||||||||||||||1023.7||1|FM15-METAR|223|ICAO-KSVE|||||||||||||||||||||||||||||||||||||||||||MET063METAR KSVE 261255Z AUTO 29005KT 10SM CLR M10/M13 A3023 RMK AO2=||F||223|ICAO-KSVE
USI0000KSVE|SUSANVILLE MUNI|2016|12|26|13|15|40.3757|-120.5727|1264.6|-11.0||1|FM15-METAR|223|ICAO-KSVE|-13.0||1|FM15-METAR|223|ICAO-KSVE|880.1||4|FM15-METAR|223|ICAO-KSVE|||||||290|N-Normal|1|FM15-METAR|223|ICAO-KSVE|2.1|N-Normal|1|FM15-METAR|223|ICAO-KSVE|||||||||||||85|Derived||FM15-METAR|223|ICAO-KSVE|-11.6|Derived||FM15-METAR|223|ICAO-KSVE|||||||||||||||||||||||||||||||||||||||||||||||||||||||||||||||||||1024.0||1|FM15-METAR|223|ICAO-KSVE|||||||||||||||||||||||||||||||||||||||||||MET063METAR KSVE 261315Z AUTO 29004KT 10SM CLR M11/M13 A3024 RMK AO2=||F||223|ICAO-KSVE
USI0000KSVE|SUSANVILLE MUNI|2016|12|26|13|35|40.3757|-120.5727|1264.6|-10.0||1|FM15-METAR|223|ICAO-KSVE|-13.0||1|FM15-METAR|223|ICAO-KSVE|880.1||4|FM15-METAR|223|ICAO-KSVE|||||||310|N-Normal|1|FM15-METAR|223|ICAO-KSVE|2.6|N-Normal|1|FM15-METAR|223|ICAO-KSVE|||||||||||||79|Derived||FM15-METAR|223|ICAO-KSVE|-10.8|Derived||FM15-METAR|223|ICAO-KSVE|||||||||||||||||||||||||||||||||||||||||||||||||||||||||||||||||||1024.0||1|FM15-METAR|223|ICAO-KSVE|||||||||||||||||||||||||||||||||||||||||||MET063METAR KSVE 261335Z AUTO 31005KT 10SM CLR M10/M13 A3024 RMK AO2=||F||223|ICAO-KSVE
USI0000KSVE|SUSANVILLE MUNI|2016|12|26|13|55|40.3757|-120.5727|1264.6|-11.0||1|FM15-METAR|223|ICAO-KSVE|-13.0||1|FM15-METAR|223|ICAO-KSVE|880.4||4|FM15-METAR|223|ICAO-KSVE|||||||300|N-Normal|1|FM15-METAR|223|ICAO-KSVE|2.1|N-Normal|1|FM15-METAR|223|ICAO-KSVE|||||||||||||85|Derived||FM15-METAR|223|ICAO-KSVE|-11.6|Derived||FM15-METAR|223|ICAO-KSVE|||||||||||||||||||||||||||||||||||||||||||||||||||||||||||||||||||1024.4||1|FM15-METAR|223|ICAO-KSVE|||||||||||||||||||||||||||||||||||||||||||MET063METAR KSVE 261355Z AUTO 30004KT 10SM CLR M11/M13 A3025 RMK AO2=||F||223|ICAO-KSVE
USI0000KSVE|SUSANVILLE MUNI|2016|12|26|14|15|40.3757|-120.5727|1264.6|-11.0||1|FM15-METAR|223|ICAO-KSVE|-13.0||1|FM15-METAR|223|ICAO-KSVE|880.7||4|FM15-METAR|223|ICAO-KSVE|||||||310|N-Normal|1|FM15-METAR|223|ICAO-KSVE|1.5|N-Normal|1|FM15-METAR|223|ICAO-KSVE|||||||||||||85|Derived||FM15-METAR|223|ICAO-KSVE|-11.6|Derived||FM15-METAR|223|ICAO-KSVE|||||||||||||||||||||||||||||||||||||||||||||||||||||||||||||||||||1024.7||1|FM15-METAR|223|ICAO-KSVE|||||||||||||||||||||||||||||||||||||||||||MET063METAR KSVE 261415Z AUTO 31003KT 10SM CLR M11/M13 A3026 RMK AO2=||F||223|ICAO-KSVE
USI0000KSVE|SUSANVILLE MUNI|2016|12|26|14|35|40.3757|-120.5727|1264.6|-11.0||1|FM15-METAR|223|ICAO-KSVE|-13.0||1|FM15-METAR|223|ICAO-KSVE|880.7||4|FM15-METAR|223|ICAO-KSVE|||||||310|N-Normal|1|FM15-METAR|223|ICAO-KSVE|1.5|N-Normal|1|FM15-METAR|223|ICAO-KSVE|||||||||||||85|Derived||FM15-METAR|223|ICAO-KSVE|-11.6|Derived||FM15-METAR|223|ICAO-KSVE|||||||||||||||||||||||||||||||||||||||||||||||||||||||||||||||||||1024.7||1|FM15-METAR|223|ICAO-KSVE|||||||||||||||||||||||||||||||||||||||||||MET063METAR KSVE 261435Z AUTO 31003KT 10SM CLR M11/M13 A3026 RMK AO2=||F||223|ICAO-KSVE
USI0000KSVE|SUSANVILLE MUNI|2016|12|26|14|55|40.3757|-120.5727|1264.6|-11.0||1|FM15-METAR|223|ICAO-KSVE|-13.0||1|FM15-METAR|223|ICAO-KSVE|881.0||4|FM15-METAR|223|ICAO-KSVE|||||||310|N-Normal|1|FM15-METAR|223|ICAO-KSVE|2.1|N-Normal|1|FM15-METAR|223|ICAO-KSVE|||||||||||||85|Derived||FM15-METAR|223|ICAO-KSVE|-11.6|Derived||FM15-METAR|223|ICAO-KSVE|||||||||||||||||||||||||||||||||||||||||||||||||||||||||||||||||||1025.1||1|FM15-METAR|223|ICAO-KSVE|||||||||||||||||||||||||||||||||||||||||||MET063METAR KSVE 261455Z AUTO 31004KT 10SM CLR M11/M13 A3027 RMK AO2=||F||223|ICAO-KSVE
USI0000KSVE|SUSANVILLE MUNI|2016|12|26|15|15|40.3757|-120.5727|1264.6|-11.0||1|FM15-METAR|223|ICAO-KSVE|-13.0||1|FM15-METAR|223|ICAO-KSVE|881.3||4|FM15-METAR|223|ICAO-KSVE|||||||290|N-Normal|1|FM15-METAR|223|ICAO-KSVE|2.1|N-Normal|1|FM15-METAR|223|ICAO-KSVE|||||||||||||85|Derived||FM15-METAR|223|ICAO-KSVE|-11.6|Derived||FM15-METAR|223|ICAO-KSVE|||||||||||||||||||||||||||||||||||||||||||||||||||||||||||||||||||1025.4||1|FM15-METAR|223|ICAO-KSVE|||||||||||||||||||||||||||||||||||||||||||MET063METAR KSVE 261515Z AUTO 29004KT 10SM CLR M11/M13 A3028 RMK AO2=||F||223|ICAO-KSVE
USI0000KSVE|SUSANVILLE MUNI|2016|12|26|15|35|40.3757|-120.5727|1264.6|-11.0||1|FM15-METAR|223|ICAO-KSVE|-13.0||1|FM15-METAR|223|ICAO-KSVE|881.3||4|FM15-METAR|223|ICAO-KSVE|||||||280|N-Normal|1|FM15-METAR|223|ICAO-KSVE|1.5|N-Normal|1|FM15-METAR|223|ICAO-KSVE|||||||||||||85|Derived||FM15-METAR|223|ICAO-KSVE|-11.6|Derived||FM15-METAR|223|ICAO-KSVE|||||||||||||||||||||||||||||||||||||||||||||||||||||||||||||||||||1025.4||1|FM15-METAR|223|ICAO-KSVE|||||||||||||||||||||||||||||||||||||||||||MET063METAR KSVE 261535Z AUTO 28003KT 10SM CLR M11/M13 A3028 RMK AO2=||F||223|ICAO-KSVE
USI0000KSVE|SUSANVILLE MUNI|2016|12|26|15|55|40.3757|-120.5727|1264.6|-11.0||1|FM15-METAR|223|ICAO-KSVE|-13.0||1|FM15-METAR|223|ICAO-KSVE|881.6||4|FM15-METAR|223|ICAO-KSVE|||||||320|N-Normal|1|FM15-METAR|223|ICAO-KSVE|2.6|N-Normal|1|FM15-METAR|223|ICAO-KSVE|||||||||||||85|Derived||FM15-METAR|223|ICAO-KSVE|-11.6|Derived||FM15-METAR|223|ICAO-KSVE|||||||||||||||||||||||||||||||||||||||||||||||||||||||||||||||||||1025.7||1|FM15-METAR|223|ICAO-KSVE|||||||||||||||||||||||||||||||||||||||||||MET063METAR KSVE 261555Z AUTO 32005KT 10SM CLR M11/M13 A3029 RMK AO2=||F||223|ICAO-KSVE
USI0000KSVE|SUSANVILLE MUNI|2016|12|26|16|15|40.3757|-120.5727|1264.6|-10.0||1|FM15-METAR|223|ICAO-KSVE|-13.0||1|FM15-METAR|223|ICAO-KSVE|881.9||4|FM15-METAR|223|ICAO-KSVE|||||||280|N-Normal|1|FM15-METAR|223|ICAO-KSVE|1.5|N-Normal|1|FM15-METAR|223|ICAO-KSVE|||||||||||||79|Derived||FM15-METAR|223|ICAO-KSVE|-10.8|Derived||FM15-METAR|223|ICAO-KSVE|||||||||||||||||||||||||||||||||||||||||||||||||||||||||||||||||||1026.1||1|FM15-METAR|223|ICAO-KSVE|||||||||||||||||||||||||||||||||||||||||||MET063METAR KSVE 261615Z AUTO 28003KT 10SM CLR M10/M13 A3030 RMK AO2=||F||223|ICAO-KSVE
USI0000KSVE|SUSANVILLE MUNI|2016|12|26|16|35|40.3757|-120.5727|1264.6|-10.0||1|FM15-METAR|223|ICAO-KSVE|-13.0||1|FM15-METAR|223|ICAO-KSVE|882.2||4|FM15-METAR|223|ICAO-KSVE|||||||300|N-Normal|1|FM15-METAR|223|ICAO-KSVE|1.5|N-Normal|1|FM15-METAR|223|ICAO-KSVE|||||||||||||79|Derived||FM15-METAR|223|ICAO-KSVE|-10.8|Derived||FM15-METAR|223|ICAO-KSVE|||||||||||||||||||||||||||||||||||||||||||||||||||||||||||||||||||1026.4||1|FM15-METAR|223|ICAO-KSVE|||||||||||||||||||||||||||||||||||||||||||MET063METAR KSVE 261635Z AUTO 30003KT 10SM CLR M10/M13 A3031 RMK AO2=||F||223|ICAO-KSVE
USI0000KSVE|SUSANVILLE MUNI|2016|12|26|16|55|40.3757|-120.5727|1264.6|-8.0||1|FM15-METAR|223|ICAO-KSVE|-12.0||1|FM15-METAR|223|ICAO-KSVE|882.4||4|FM15-METAR|223|ICAO-KSVE|||||||300|N-Normal|1|FM15-METAR|223|ICAO-KSVE|1.5|N-Normal|1|FM15-METAR|223|ICAO-KSVE|||||||||||||73|Derived||FM15-METAR|223|ICAO-KSVE|-9.1|Derived||FM15-METAR|223|ICAO-KSVE|||||||||||||||||||||||||||||||||||||||||||||||||||||||||||||||||||1026.7||1|FM15-METAR|223|ICAO-KSVE|||||||||||||||||||||||||||||||||||||||||||MET063METAR KSVE 261655Z AUTO 30003KT 10SM CLR M08/M12 A3032 RMK AO2=||F||223|ICAO-KSVE
USI0000KSVE|SUSANVILLE MUNI|2016|12|26|17|15|40.3757|-120.5727|1264.6|-8.0||1|FM15-METAR|223|ICAO-KSVE|-11.0||1|FM15-METAR|223|ICAO-KSVE|882.8||4|FM15-METAR|223|ICAO-KSVE|||||||999|C-Calm|9|FM15-METAR|223|ICAO-KSVE|0.0|C-Calm|1|FM15-METAR|223|ICAO-KSVE|||||||||||||79|Derived||FM15-METAR|223|ICAO-KSVE|-8.8|Derived||FM15-METAR|223|ICAO-KSVE|||||||||||||||||||||||||||||||||||||||||||||||||||||||||||||||||||1027.1||1|FM15-METAR|223|ICAO-KSVE|||||||||||||||||||||||||||||||||||||||||||MET063METAR KSVE 261715Z AUTO 00000KT 10SM CLR M08/M11 A3033 RMK AO2=||F||223|ICAO-KSVE
USI0000KSVE|SUSANVILLE MUNI|2016|12|26|17|35|40.3757|-120.5727|1264.6|-6.0||1|FM15-METAR|223|ICAO-KSVE|-10.0||1|FM15-METAR|223|ICAO-KSVE|883.1||4|FM15-METAR|223|ICAO-KSVE|||||||999|C-Calm|9|FM15-METAR|223|ICAO-KSVE|0.0|C-Calm|1|FM15-METAR|223|ICAO-KSVE|||||||||||||74|Derived||FM15-METAR|223|ICAO-KSVE|-7.3|Derived||FM15-METAR|223|ICAO-KSVE|||||||||||||||||||||||||||||||||||||||||||||||||||||||||||||||||||1027.4||1|FM15-METAR|223|ICAO-KSVE|||||||||||||||||||||||||||||||||||||||||||MET063METAR KSVE 261735Z AUTO 00000KT 10SM CLR M06/M10 A3034 RMK AO2=||F||223|ICAO-KSVE
USI0000KSVE|SUSANVILLE MUNI|2016|12|26|17|55|40.3757|-120.5727|1264.6|-6.0||1|FM15-METAR|223|ICAO-KSVE|-10.0||1|FM15-METAR|223|ICAO-KSVE|883.4||4|FM15-METAR|223|ICAO-KSVE|||||||999|C-Calm|9|FM15-METAR|223|ICAO-KSVE|0.0|C-Calm|1|FM15-METAR|223|ICAO-KSVE|||||||||||||74|Derived||FM15-METAR|223|ICAO-KSVE|-7.3|Derived||FM15-METAR|223|ICAO-KSVE|||||||||||||||||||||||||||||||||||||||||||||||||||||||||||||||||||1027.8||1|FM15-METAR|223|ICAO-KSVE|||||||||||||||||||||||||||||||||||||||||||MET063METAR KSVE 261755Z AUTO 00000KT 10SM CLR M06/M10 A3035 RMK AO2=||F||223|ICAO-KSVE
USI0000KSVE|SUSANVILLE MUNI|2016|12|26|18|15|40.3757|-120.5727|1264.6|-4.0||1|FM15-METAR|223|ICAO-KSVE|-9.0||1|FM15-METAR|223|ICAO-KSVE|883.4||4|FM15-METAR|223|ICAO-KSVE|||||||999|C-Calm|9|FM15-METAR|223|ICAO-KSVE|0.0|C-Calm|1|FM15-METAR|223|ICAO-KSVE|||||||||||||69|Derived||FM15-METAR|223|ICAO-KSVE|-5.5|Derived||FM15-METAR|223|ICAO-KSVE|||||||||||||||||||||||||||||||||||||||||||||||||||||||||||||||||||1027.8||1|FM15-METAR|223|ICAO-KSVE|||||||||||||||||||||||||||||||||||||||||||MET063METAR KSVE 261815Z AUTO 00000KT 10SM CLR M04/M09 A3035 RMK AO2=||F||223|ICAO-KSVE
USI0000KSVE|SUSANVILLE MUNI|2016|12|26|18|35|40.3757|-120.5727|1264.6|-3.0||1|FM15-METAR|223|ICAO-KSVE|-8.0||1|FM15-METAR|223|ICAO-KSVE|883.4||4|FM15-METAR|223|ICAO-KSVE|||||||999|C-Calm|9|FM15-METAR|223|ICAO-KSVE|0.0|C-Calm|1|FM15-METAR|223|ICAO-KSVE|||||||||||||69|Derived||FM15-METAR|223|ICAO-KSVE|-4.5|Derived||FM15-METAR|223|ICAO-KSVE|||||||||||||||||||||||||||||||||||||||||||||||||||||||||||||||||||1027.8||1|FM15-METAR|223|ICAO-KSVE|||||||||||||||||||||||||||||||||||||||||||MET063METAR KSVE 261835Z AUTO 00000KT 10SM CLR M03/M08 A3035 RMK AO2=||F||223|ICAO-KSVE
USI0000KSVE|SUSANVILLE MUNI|2016|12|26|18|55|40.3757|-120.5727|1264.6|-3.0||1|FM15-METAR|223|ICAO-KSVE|-9.0||1|FM15-METAR|223|ICAO-KSVE|883.4||4|FM15-METAR|223|ICAO-KSVE|||||||999|C-Calm|9|FM15-METAR|223|ICAO-KSVE|0.0|C-Calm|1|FM15-METAR|223|ICAO-KSVE|||||||||||||64|Derived||FM15-METAR|223|ICAO-KSVE|-4.8|Derived||FM15-METAR|223|ICAO-KSVE|||||||||||||||||||||||||||||||||||||||||||||||||||||||||||||||||||1027.8||1|FM15-METAR|223|ICAO-KSVE|||||||||||||||||||||||||||||||||||||||||||MET063METAR KSVE 261855Z AUTO 00000KT 10SM CLR M03/M09 A3035 RMK AO2=||F||223|ICAO-KSVE
USI0000KSVE|SUSANVILLE MUNI|2016|12|26|19|15|40.3757|-120.5727|1264.6|-2.0||1|FM15-METAR|223|ICAO-KSVE|-8.0||1|FM15-METAR|223|ICAO-KSVE|883.4||4|FM15-METAR|223|ICAO-KSVE|||||||999|C-Calm|9|FM15-METAR|223|ICAO-KSVE|0.0|C-Calm|1|FM15-METAR|223|ICAO-KSVE|||||||||||||64|Derived||FM15-METAR|223|ICAO-KSVE|-4.1|Derived||FM15-METAR|223|ICAO-KSVE|||||||||||||||||||||||||||||||||||||||||||||||||||||||||||||||||||1027.8||1|FM15-METAR|223|ICAO-KSVE|||||||||||||||||||||||||||||||||||||||||||MET063METAR KSVE 261915Z AUTO 00000KT 10SM CLR M02/M08 A3035 RMK AO2=||F||223|ICAO-KSVE
USI0000KSVE|SUSANVILLE MUNI|2016|12|26|19|35|40.3757|-120.5727|1264.6|-2.0||1|FM15-METAR|223|ICAO-KSVE|-8.0||1|FM15-METAR|223|ICAO-KSVE|883.1||4|FM15-METAR|223|ICAO-KSVE|||||||999|C-Calm|9|FM15-METAR|223|ICAO-KSVE|0.0|C-Calm|1|FM15-METAR|223|ICAO-KSVE|||||||||||||64|Derived||FM15-METAR|223|ICAO-KSVE|-4.1|Derived||FM15-METAR|223|ICAO-KSVE|||||||||||||||||||||||||||||||||||||||||||||||||||||||||||||||||||1027.4||1|FM15-METAR|223|ICAO-KSVE|||||||||||||||||||||||||||||||||||||||||||MET063METAR KSVE 261935Z AUTO 00000KT 10SM CLR M02/M08 A3034 RMK AO2=||F||223|ICAO-KSVE
USI0000KSVE|SUSANVILLE MUNI|2016|12|26|19|55|40.3757|-120.5727|1264.6|-1.0||1|FM15-METAR|223|ICAO-KSVE|-8.0||1|FM15-METAR|223|ICAO-KSVE|882.8||4|FM15-METAR|223|ICAO-KSVE|||||||100|N-Normal|1|FM15-METAR|223|ICAO-KSVE|1.5|N-Normal|1|FM15-METAR|223|ICAO-KSVE|||||||||||||59|Derived||FM15-METAR|223|ICAO-KSVE|-3.5|Derived||FM15-METAR|223|ICAO-KSVE|||||||||||||||||||||||||||||||||||||||||||||||||||||||||||||||||||1027.1||1|FM15-METAR|223|ICAO-KSVE|||||||||||||||||||||||||||||||||||||||||||MET063METAR KSVE 261955Z AUTO 10003KT 10SM CLR M01/M08 A3033 RMK AO2=||F||223|ICAO-KSVE
USI0000KSVE|SUSANVILLE MUNI|2016|12|26|20|15|40.3757|-120.5727|1264.6|-1.0||1|FM15-METAR|223|ICAO-KSVE|-8.0||1|FM15-METAR|223|ICAO-KSVE|882.8||4|FM15-METAR|223|ICAO-KSVE|||||||070|N-Normal|1|FM15-METAR|223|ICAO-KSVE|1.5|N-Normal|1|FM15-METAR|223|ICAO-KSVE|||||||||||||59|Derived||FM15-METAR|223|ICAO-KSVE|-3.5|Derived||FM15-METAR|223|ICAO-KSVE|||||||||||||||||||||||||||||||||||||||||||||||||||||||||||||||||||1027.1||1|FM15-METAR|223|ICAO-KSVE|||||||||||||||||||||||||||||||||||||||||||MET063METAR KSVE 262015Z AUTO 07003KT 10SM CLR M01/M08 A3033 RMK AO2=||F||223|ICAO-KSVE
USI0000KSVE|SUSANVILLE MUNI|2016|12|26|20|35|40.3757|-120.5727|1264.6|0.0||1|FM15-METAR|223|ICAO-KSVE|-8.0||1|FM15-METAR|223|ICAO-KSVE|882.8||4|FM15-METAR|223|ICAO-KSVE|||||||130|N-Normal|1|FM15-METAR|223|ICAO-KSVE|2.1|N-Normal|1|FM15-METAR|223|ICAO-KSVE|||||||||||||55|Derived||FM15-METAR|223|ICAO-KSVE|-2.8|Derived||FM15-METAR|223|ICAO-KSVE|||||||||||||||||||||||||||||||||||||||||||||||||||||||||||||||||||1027.1||1|FM15-METAR|223|ICAO-KSVE|||||||||||||||||||||||||||||||||||||||||||MET062METAR KSVE 262035Z AUTO 13004KT 10SM CLR 00/M08 A3033 RMK AO2=||F||223|ICAO-KSVE
USI0000KSVE|SUSANVILLE MUNI|2016|12|26|20|55|40.3757|-120.5727|1264.6|0.0||1|FM15-METAR|223|ICAO-KSVE|-7.0||1|FM15-METAR|223|ICAO-KSVE|882.4||4|FM15-METAR|223|ICAO-KSVE|||||||130|N-Normal|1|FM15-METAR|223|ICAO-KSVE|1.5|N-Normal|1|FM15-METAR|223|ICAO-KSVE|||||||||||||60|Derived||FM15-METAR|223|ICAO-KSVE|-2.6|Derived||FM15-METAR|223|ICAO-KSVE|||||||||||||||||||||||||||||||||||||||||||||||||||||||||||||||||||1026.7||1|FM15-METAR|223|ICAO-KSVE|||||||||||||||||||||||||||||||||||||||||||MET062METAR KSVE 262055Z AUTO 13003KT 10SM CLR 00/M07 A3032 RMK AO2=||F||223|ICAO-KSVE
USI0000KSVE|SUSANVILLE MUNI|2016|12|26|21|15|40.3757|-120.5727|1264.6|0.0||1|FM15-METAR|223|ICAO-KSVE|-8.0||1|FM15-METAR|223|ICAO-KSVE|882.8||4|FM15-METAR|223|ICAO-KSVE|||||||130|N-Normal|1|FM15-METAR|223|ICAO-KSVE|2.1|N-Normal|1|FM15-METAR|223|ICAO-KSVE|||||||||||||55|Derived||FM15-METAR|223|ICAO-KSVE|-2.8|Derived||FM15-METAR|223|ICAO-KSVE|||||||||||||||||||||||||||||||||||||||||||||||||||||||||||||||||||1027.1||1|FM15-METAR|223|ICAO-KSVE|||||||||||||||||||||||||||||||||||||||||||MET062METAR KSVE 262115Z AUTO 13004KT 10SM CLR 00/M08 A3033 RMK AO2=||F||223|ICAO-KSVE
USI0000KSVE|SUSANVILLE MUNI|2016|12|26|21|35|40.3757|-120.5727|1264.6|0.0||1|FM15-METAR|223|ICAO-KSVE|-8.0||1|FM15-METAR|223|ICAO-KSVE|882.4||4|FM15-METAR|223|ICAO-KSVE|||||||100|N-Normal|1|FM15-METAR|223|ICAO-KSVE|2.6|N-Normal|1|FM15-METAR|223|ICAO-KSVE|||||||||||||55|Derived||FM15-METAR|223|ICAO-KSVE|-2.8|Derived||FM15-METAR|223|ICAO-KSVE|||||||||||||||||||||||||||||||||||||||||||||||||||||||||||||||||||1026.7||1|FM15-METAR|223|ICAO-KSVE|||||||||||||||||||||||||||||||||||||||||||MET062METAR KSVE 262135Z AUTO 10005KT 10SM CLR 00/M08 A3032 RMK AO2=||F||223|ICAO-KSVE
USI0000KSVE|SUSANVILLE MUNI|2016|12|26|22|55|40.3757|-120.5727|1264.6|0.0||1|FM15-METAR|223|ICAO-KSVE|-8.0||1|FM15-METAR|223|ICAO-KSVE|882.2||4|FM15-METAR|223|ICAO-KSVE|||||||160|N-Normal|1|FM15-METAR|223|ICAO-KSVE|2.1|N-Normal|1|FM15-METAR|223|ICAO-KSVE|||||||||||||55|Derived||FM15-METAR|223|ICAO-KSVE|-2.8|Derived||FM15-METAR|223|ICAO-KSVE|||||||||||||||||||||||||||||||||||||||||||||||||||||||||||||||||||1026.4||1|FM15-METAR|223|ICAO-KSVE|||||||||||||||||||||||||||||||||||||||||||MET062METAR KSVE 262255Z AUTO 16004KT 10SM CLR 00/M08 A3031 RMK AO2=||F||223|ICAO-KSVE
USI0000KSVE|SUSANVILLE MUNI|2016|12|26|23|15|40.3757|-120.5727|1264.6|0.0||1|FM15-METAR|223|ICAO-KSVE|-8.0||1|FM15-METAR|223|ICAO-KSVE|882.4||4|FM15-METAR|223|ICAO-KSVE|||||||160|N-Normal|1|FM15-METAR|223|ICAO-KSVE|2.6|N-Normal|1|FM15-METAR|223|ICAO-KSVE|||||||||||||55|Derived||FM15-METAR|223|ICAO-KSVE|-2.8|Derived||FM15-METAR|223|ICAO-KSVE|||||||||||||||||||||||||||||||||||||||||||||||||||||||||||||||||||1026.7||1|FM15-METAR|223|ICAO-KSVE|||||||||||||||||||||||||||||||||||||||||||MET062METAR KSVE 262315Z AUTO 16005KT 10SM CLR 00/M08 A3032 RMK AO2=||F||223|ICAO-KSVE
USI0000KSVE|SUSANVILLE MUNI|2016|12|26|23|35|40.3757|-120.5727|1264.6|0.0||1|FM15-METAR|223|ICAO-KSVE|-7.0||1|FM15-METAR|223|ICAO-KSVE|882.4||4|FM15-METAR|223|ICAO-KSVE|||||||150|N-Normal|1|FM15-METAR|223|ICAO-KSVE|2.6|N-Normal|1|FM15-METAR|223|ICAO-KSVE|||||||||||||60|Derived||FM15-METAR|223|ICAO-KSVE|-2.6|Derived||FM15-METAR|223|ICAO-KSVE|||||||||||||||||||||||||||||||||||||||||||||||||||||||||||||||||||1026.7||1|FM15-METAR|223|ICAO-KSVE|||||||||||||||||||||||||||||||||||||||||||MET062METAR KSVE 262335Z AUTO 15005KT 10SM CLR 00/M07 A3032 RMK AO2=||F||223|ICAO-KSVE
USI0000KSVE|SUSANVILLE MUNI|2016|12|26|23|55|40.3757|-120.5727|1264.6|0.0||1|FM15-METAR|223|ICAO-KSVE|-7.0||1|FM15-METAR|223|ICAO-KSVE|882.4||4|FM15-METAR|223|ICAO-KSVE|||||||140|N-Normal|1|FM15-METAR|223|ICAO-KSVE|2.6|N-Normal|1|FM15-METAR|223|ICAO-KSVE|||||||||||||60|Derived||FM15-METAR|223|ICAO-KSVE|-2.6|Derived||FM15-METAR|223|ICAO-KSVE|||||||||||||||||||||||||||||||||||||||||||||||||||||||||||||||||||1026.7||1|FM15-METAR|223|ICAO-KSVE|||||||||||||||||||||||||||||||||||||||||||MET062METAR KSVE 262355Z AUTO 14005KT 10SM CLR 00/M07 A3032 RMK AO2=||F||223|ICAO-KSVE
USI0000KSVE|SUSANVILLE MUNI|2016|12|27|00|15|40.3757|-120.5727|1264.6|0.0||1|FM15-METAR|223|ICAO-KSVE|-7.0||1|FM15-METAR|223|ICAO-KSVE|882.4||4|FM15-METAR|223|ICAO-KSVE|||||||090|N-Normal|1|FM15-METAR|223|ICAO-KSVE|1.5|N-Normal|1|FM15-METAR|223|ICAO-KSVE|||||||||||||60|Derived||FM15-METAR|223|ICAO-KSVE|-2.6|Derived||FM15-METAR|223|ICAO-KSVE|||||||||||||||||||||||||||||||||||||||||||||||||||||||||||||||||||1026.7||1|FM15-METAR|223|ICAO-KSVE|||||||||||||||||||||||||||||||||||||||||||MET062METAR KSVE 270015Z AUTO 09003KT 10SM CLR 00/M07 A3032 RMK AO2=||F||223|ICAO-KSVE
USI0000KSVE|SUSANVILLE MUNI|2016|12|27|00|35|40.3757|-120.5727|1264.6|-1.0||1|FM15-METAR|223|ICAO-KSVE|-7.0||1|FM15-METAR|223|ICAO-KSVE|882.4||4|FM15-METAR|223|ICAO-KSVE|||||||999|C-Calm|9|FM15-METAR|223|ICAO-KSVE|0.0|C-Calm|1|FM15-METAR|223|ICAO-KSVE|||||||||||||64|Derived||FM15-METAR|223|ICAO-KSVE|-3.3|Derived||FM15-METAR|223|ICAO-KSVE|||||||||||||||||||||||||||||||||||||||||||||||||||||||||||||||||||1026.7||1|FM15-METAR|223|ICAO-KSVE|||||||||||||||||||||||||||||||||||||||||||MET063METAR KSVE 270035Z AUTO 00000KT 10SM CLR M01/M07 A3032 RMK AO2=||F||223|ICAO-KSVE
USI0000KSVE|SUSANVILLE MUNI|2016|12|27|00|55|40.3757|-120.5727|1264.6|-1.0||1|FM15-METAR|223|ICAO-KSVE|-6.0||1|FM15-METAR|223|ICAO-KSVE|882.4||4|FM15-METAR|223|ICAO-KSVE|||||||999|C-Calm|9|FM15-METAR|223|ICAO-KSVE|0.0|C-Calm|1|FM15-METAR|223|ICAO-KSVE|||||||||||||69|Derived||FM15-METAR|223|ICAO-KSVE|-2.9|Derived||FM15-METAR|223|ICAO-KSVE|||||||||||||||||||||||||||||||||||||||||||||||||||||||||||||||||||1026.7||1|FM15-METAR|223|ICAO-KSVE|||||||||||||||||||||||||||||||||||||||||||MET063METAR KSVE 270055Z AUTO 00000KT 10SM CLR M01/M06 A3032 RMK AO2=||F||223|ICAO-KSVE
USI0000KSVE|SUSANVILLE MUNI|2016|12|27|01|15|40.3757|-120.5727|1264.6|-2.0||1|FM15-METAR|223|ICAO-KSVE|-7.0||1|FM15-METAR|223|ICAO-KSVE|882.2||4|FM15-METAR|223|ICAO-KSVE|||||||999|C-Calm|9|FM15-METAR|223|ICAO-KSVE|0.0|C-Calm|1|FM15-METAR|223|ICAO-KSVE|||||||||||||69|Derived||FM15-METAR|223|ICAO-KSVE|-4.0|Derived||FM15-METAR|223|ICAO-KSVE|||||||||||||||||||||||||||||||||||||||||||||||||||||||||||||||||||1026.4||1|FM15-METAR|223|ICAO-KSVE|||||||||||||||||||||||||||||||||||||||||||MET063METAR KSVE 270115Z AUTO 00000KT 10SM CLR M02/M07 A3031 RMK AO2=||F||223|ICAO-KSVE
USI0000KSVE|SUSANVILLE MUNI|2016|12|27|01|35|40.3757|-120.5727|1264.6|-3.0||1|FM15-METAR|223|ICAO-KSVE|-6.0||1|FM15-METAR|223|ICAO-KSVE|881.3||4|FM15-METAR|223|ICAO-KSVE|||||||120|N-Normal|1|FM15-METAR|223|ICAO-KSVE|1.5|N-Normal|1|FM15-METAR|223|ICAO-KSVE|||||||||||||80|Derived||FM15-METAR|223|ICAO-KSVE|-4.0|Derived||FM15-METAR|223|ICAO-KSVE|||||||||||||||||||||||||||||||||||||||||||||||||||||||||||||||||||1025.4||1|FM15-METAR|223|ICAO-KSVE|||||||||||||||||||||||||||||||||||||||||||MET063METAR KSVE 270135Z AUTO 12003KT 10SM CLR M03/M06 A3028 RMK AO2=||F||223|ICAO-KSVE
USI0000KSVE|SUSANVILLE MUNI|2016|12|27|01|55|40.3757|-120.5727|1264.6|-3.0||1|FM15-METAR|223|ICAO-KSVE|-6.0||1|FM15-METAR|223|ICAO-KSVE|881.6||4|FM15-METAR|223|ICAO-KSVE|||||||300|N-Normal|1|FM15-METAR|223|ICAO-KSVE|1.5|N-Normal|1|FM15-METAR|223|ICAO-KSVE|||||||||||||80|Derived||FM15-METAR|223|ICAO-KSVE|-4.0|Derived||FM15-METAR|223|ICAO-KSVE|||||||||||||||||||||||||||||||||||||||||||||||||||||||||||||||||||1025.7||1|FM15-METAR|223|ICAO-KSVE|||||||||||||||||||||||||||||||||||||||||||MET063METAR KSVE 270155Z AUTO 30003KT 10SM CLR M03/M06 A3029 RMK AO2=||F||223|ICAO-KSVE
USI0000KSVE|SUSANVILLE MUNI|2016|12|27|02|15|40.3757|-120.5727|1264.6|-4.0||1|FM15-METAR|223|ICAO-KSVE|-8.0||1|FM15-METAR|223|ICAO-KSVE|882.2||4|FM15-METAR|223|ICAO-KSVE|||||||260|N-Normal|1|FM15-METAR|223|ICAO-KSVE|2.6|N-Normal|1|FM15-METAR|223|ICAO-KSVE|||||||||||||74|Derived||FM15-METAR|223|ICAO-KSVE|-5.2|Derived||FM15-METAR|223|ICAO-KSVE|||||||||||||||||||||||||||||||||||||||||||||||||||||||||||||||||||1026.4||1|FM15-METAR|223|ICAO-KSVE|||||||||||||||||||||||||||||||||||||||||||MET063METAR KSVE 270215Z AUTO 26005KT 10SM CLR M04/M08 A3031 RMK AO2=||F||223|ICAO-KSVE
USI0000KSVE|SUSANVILLE MUNI|2016|12|27|02|35|40.3757|-120.5727|1264.6|-4.0||1|FM15-METAR|223|ICAO-KSVE|-8.0||1|FM15-METAR|223|ICAO-KSVE|882.8||4|FM15-METAR|223|ICAO-KSVE|||||||270|N-Normal|1|FM15-METAR|223|ICAO-KSVE|2.6|N-Normal|1|FM15-METAR|223|ICAO-KSVE|||||||||||||74|Derived||FM15-METAR|223|ICAO-KSVE|-5.2|Derived||FM15-METAR|223|ICAO-KSVE|||||||||||||||||||||||||||||||||||||||||||||||||||||||||||||||||||1027.1||1|FM15-METAR|223|ICAO-KSVE|||||||||||||||||||||||||||||||||||||||||||MET063METAR KSVE 270235Z AUTO 27005KT 10SM CLR M04/M08 A3033 RMK AO2=||F||223|ICAO-KSVE
USI0000KSVE|SUSANVILLE MUNI|2016|12|27|02|55|40.3757|-120.5727|1264.6|-4.0||1|FM15-METAR|223|ICAO-KSVE|-8.0||1|FM15-METAR|223|ICAO-KSVE|883.4||4|FM15-METAR|223|ICAO-KSVE|||||||270|N-Normal|1|FM15-METAR|223|ICAO-KSVE|3.1|N-Normal|1|FM15-METAR|223|ICAO-KSVE|||||||||||||74|Derived||FM15-METAR|223|ICAO-KSVE|-5.2|Derived||FM15-METAR|223|ICAO-KSVE|||||||||||||||||||||||||||||||||||||||||||||||||||||||||||||||||||1027.8||1|FM15-METAR|223|ICAO-KSVE|||||||||||||||||||||||||||||||||||||||||||MET063METAR KSVE 270255Z AUTO 27006KT 10SM CLR M04/M08 A3035 RMK AO2=||F||223|ICAO-KSVE
USI0000KSVE|SUSANVILLE MUNI|2016|12|27|03|15|40.3757|-120.5727|1264.6|-4.0||1|FM15-METAR|223|ICAO-KSVE|-8.0||1|FM15-METAR|223|ICAO-KSVE|883.9||4|FM15-METAR|223|ICAO-KSVE|||||||270|N-Normal|1|FM15-METAR|223|ICAO-KSVE|2.6|N-Normal|1|FM15-METAR|223|ICAO-KSVE|||||||||||||74|Derived||FM15-METAR|223|ICAO-KSVE|-5.2|Derived||FM15-METAR|223|ICAO-KSVE|||||||||||||||||||||||||||||||||||||||||||||||||||||||||||||||||||1028.4||1|FM15-METAR|223|ICAO-KSVE|||||||||||||||||||||||||||||||||||||||||||MET063METAR KSVE 270315Z AUTO 27005KT 10SM CLR M04/M08 A3037 RMK AO2=||F||223|ICAO-KSVE
USI0000KSVE|SUSANVILLE MUNI|2016|12|27|03|35|40.3757|-120.5727|1264.6|-5.0||1|FM15-METAR|223|ICAO-KSVE|-8.0||1|FM15-METAR|223|ICAO-KSVE|883.9||4|FM15-METAR|223|ICAO-KSVE|||||||250|N-Normal|1|FM15-METAR|223|ICAO-KSVE|1.5|N-Normal|1|FM15-METAR|223|ICAO-KSVE|||||||||||||80|Derived||FM15-METAR|223|ICAO-KSVE|-5.9|Derived||FM15-METAR|223|ICAO-KSVE|||||||||||||||||||||||||||||||||||||||||||||||||||||||||||||||||||1028.4||1|FM15-METAR|223|ICAO-KSVE|||||||||||||||||||||||||||||||||||||||||||MET063METAR KSVE 270335Z AUTO 25003KT 10SM CLR M05/M08 A3037 RMK AO2=||F||223|ICAO-KSVE
USI0000KSVE|SUSANVILLE MUNI|2016|12|27|03|55|40.3757|-120.5727|1264.6|-5.0||1|FM15-METAR|223|ICAO-KSVE|-8.0||1|FM15-METAR|223|ICAO-KSVE|883.4||4|FM15-METAR|223|ICAO-KSVE|||||||120|N-Normal|1|FM15-METAR|223|ICAO-KSVE|1.5|N-Normal|1|FM15-METAR|223|ICAO-KSVE|||||||||||||80|Derived||FM15-METAR|223|ICAO-KSVE|-5.9|Derived||FM15-METAR|223|ICAO-KSVE|||||||||||||||||||||||||||||||||||||||||||||||||||||||||||||||||||1027.8||1|FM15-METAR|223|ICAO-KSVE|||||||||||||||||||||||||||||||||||||||||||MET063METAR KSVE 270355Z AUTO 12003KT 10SM CLR M05/M08 A3035 RMK AO2=||F||223|ICAO-KSVE
USI0000KSVE|SUSANVILLE MUNI|2016|12|27|04|15|40.3757|-120.5727|1264.6|-6.0||1|FM15-METAR|223|ICAO-KSVE|-8.0||1|FM15-METAR|223|ICAO-KSVE|883.4||4|FM15-METAR|223|ICAO-KSVE|||||||360|N-Normal|1|FM15-METAR|223|ICAO-KSVE|1.5|N-Normal|1|FM15-METAR|223|ICAO-KSVE|||||||||||||86|Derived||FM15-METAR|223|ICAO-KSVE|-6.7|Derived||FM15-METAR|223|ICAO-KSVE|||||||||||||||||||||||||||||||||||||||||||||||||||||||||||||||||||1027.8||1|FM15-METAR|223|ICAO-KSVE|||||||||||||||||||||||||||||||||||||||||||MET063METAR KSVE 270415Z AUTO 36003KT 10SM CLR M06/M08 A3035 RMK AO2=||F||223|ICAO-KSVE
USI0000KSVE|SUSANVILLE MUNI|2016|12|27|04|35|40.3757|-120.5727|1264.6|-6.0||1|FM15-METAR|223|ICAO-KSVE|-8.0||1|FM15-METAR|223|ICAO-KSVE|883.1||4|FM15-METAR|223|ICAO-KSVE|||||||250|N-Normal|1|FM15-METAR|223|ICAO-KSVE|1.5|N-Normal|1|FM15-METAR|223|ICAO-KSVE|||||||||||||86|Derived||FM15-METAR|223|ICAO-KSVE|-6.7|Derived||FM15-METAR|223|ICAO-KSVE|||||||||||||||||||||||||||||||||||||||||||||||||||||||||||||||||||1027.4||1|FM15-METAR|223|ICAO-KSVE|||||||||||||||||||||||||||||||||||||||||||MET063METAR KSVE 270435Z AUTO 25003KT 10SM CLR M06/M08 A3034 RMK AO2=||F||223|ICAO-KSVE
USI0000KSVE|SUSANVILLE MUNI|2016|12|27|04|55|40.3757|-120.5727|1264.6|-6.0||1|FM15-METAR|223|ICAO-KSVE|-8.0||1|FM15-METAR|223|ICAO-KSVE|883.4||4|FM15-METAR|223|ICAO-KSVE|||||||280|N-Normal|1|FM15-METAR|223|ICAO-KSVE|2.1|N-Normal|1|FM15-METAR|223|ICAO-KSVE|||||||||||||86|Derived||FM15-METAR|223|ICAO-KSVE|-6.7|Derived||FM15-METAR|223|ICAO-KSVE|||||||||||||||||||||||||||||||||||||||||||||||||||||||||||||||||||1027.8||1|FM15-METAR|223|ICAO-KSVE|||||||||||||||||||||||||||||||||||||||||||MET063METAR KSVE 270455Z AUTO 28004KT 10SM CLR M06/M08 A3035 RMK AO2=||F||223|ICAO-KSVE
USI0000KSVE|SUSANVILLE MUNI|2016|12|27|05|15|40.3757|-120.5727|1264.6|-6.0||1|FM15-METAR|223|ICAO-KSVE|-8.0||1|FM15-METAR|223|ICAO-KSVE|883.4||4|FM15-METAR|223|ICAO-KSVE|||||||270|N-Normal|1|FM15-METAR|223|ICAO-KSVE|3.1|N-Normal|1|FM15-METAR|223|ICAO-KSVE|||||||||||||86|Derived||FM15-METAR|223|ICAO-KSVE|-6.7|Derived||FM15-METAR|223|ICAO-KSVE|||||||||||||||||||||||||||||||||||||||||||||||||||||||||||||||||||1027.8||1|FM15-METAR|223|ICAO-KSVE|||||||||||||||||||||||||||||||||||||||||||MET063METAR KSVE 270515Z AUTO 27006KT 10SM CLR M06/M08 A3035 RMK AO2=||F||223|ICAO-KSVE
USI0000KSVE|SUSANVILLE MUNI|2016|12|27|05|35|40.3757|-120.5727|1264.6|-6.0||1|FM15-METAR|223|ICAO-KSVE|-8.0||1|FM15-METAR|223|ICAO-KSVE|883.7||4|FM15-METAR|223|ICAO-KSVE|||||||270|N-Normal|1|FM15-METAR|223|ICAO-KSVE|2.6|N-Normal|1|FM15-METAR|223|ICAO-KSVE|||||||||||||86|Derived||FM15-METAR|223|ICAO-KSVE|-6.7|Derived||FM15-METAR|223|ICAO-KSVE|||||||||||||||||||||||||||||||||||||||||||||||||||||||||||||||||||1028.1||1|FM15-METAR|223|ICAO-KSVE|||||||||||||||||||||||||||||||||||||||||||MET063METAR KSVE 270535Z AUTO 27005KT 10SM CLR M06/M08 A3036 RMK AO2=||F||223|ICAO-KSVE
USI0000KSVE|SUSANVILLE MUNI|2016|12|27|05|55|40.3757|-120.5727|1264.6|-6.0||1|FM15-METAR|223|ICAO-KSVE|-8.0||1|FM15-METAR|223|ICAO-KSVE|883.4||4|FM15-METAR|223|ICAO-KSVE|||||||270|N-Normal|1|FM15-METAR|223|ICAO-KSVE|1.5|N-Normal|1|FM15-METAR|223|ICAO-KSVE|||||||||||||86|Derived||FM15-METAR|223|ICAO-KSVE|-6.7|Derived||FM15-METAR|223|ICAO-KSVE|||||||||||||||||||||||||||||||||||||||||||||||||||||||||||||||||||1027.8||1|FM15-METAR|223|ICAO-KSVE|||||||||||||||||||||||||||||||||||||||||||MET063METAR KSVE 270555Z AUTO 27003KT 10SM CLR M06/M08 A3035 RMK AO2=||F||223|ICAO-KSVE
USI0000KSVE|SUSANVILLE MUNI|2016|12|27|06|15|40.3757|-120.5727|1264.6|-6.0||1|FM15-METAR|223|ICAO-KSVE|-8.0||1|FM15-METAR|223|ICAO-KSVE|883.4||4|FM15-METAR|223|ICAO-KSVE|||||||340|N-Normal|1|FM15-METAR|223|ICAO-KSVE|2.1|N-Normal|1|FM15-METAR|223|ICAO-KSVE|||||||||||||86|Derived||FM15-METAR|223|ICAO-KSVE|-6.7|Derived||FM15-METAR|223|ICAO-KSVE|||||||||||||||||||||||||||||||||||||||||||||||||||||||||||||||||||1027.8||1|FM15-METAR|223|ICAO-KSVE|||||||||||||||||||||||||||||||||||||||||||MET063METAR KSVE 270615Z AUTO 34004KT 10SM CLR M06/M08 A3035 RMK AO2=||F||223|ICAO-KSVE
USI0000KSVE|SUSANVILLE MUNI|2016|12|27|06|35|40.3757|-120.5727|1264.6|-6.0||1|FM15-METAR|223|ICAO-KSVE|-8.0||1|FM15-METAR|223|ICAO-KSVE|883.4||4|FM15-METAR|223|ICAO-KSVE|||||||290|N-Normal|1|FM15-METAR|223|ICAO-KSVE|2.1|N-Normal|1|FM15-METAR|223|ICAO-KSVE|||||||||||||86|Derived||FM15-METAR|223|ICAO-KSVE|-6.7|Derived||FM15-METAR|223|ICAO-KSVE|||||||||||||||||||||||||||||||||||||||||||||||||||||||||||||||||||1027.8||1|FM15-METAR|223|ICAO-KSVE|||||||||||||||||||||||||||||||||||||||||||MET063METAR KSVE 270635Z AUTO 29004KT 10SM CLR M06/M08 A3035 RMK AO2=||F||223|ICAO-KSVE
USI0000KSVE|SUSANVILLE MUNI|2016|12|27|06|55|40.3757|-120.5727|1264.6|-6.0||1|FM15-METAR|223|ICAO-KSVE|-8.0||1|FM15-METAR|223|ICAO-KSVE|883.1||4|FM15-METAR|223|ICAO-KSVE|||||||310|N-Normal|1|FM15-METAR|223|ICAO-KSVE|1.5|N-Normal|1|FM15-METAR|223|ICAO-KSVE|||||||||||||86|Derived||FM15-METAR|223|ICAO-KSVE|-6.7|Derived||FM15-METAR|223|ICAO-KSVE|||||||||||||||||||||||||||||||||||||||||||||||||||||||||||||||||||1027.4||1|FM15-METAR|223|ICAO-KSVE|||||||||||||||||||||||||||||||||||||||||||MET063METAR KSVE 270655Z AUTO 31003KT 10SM CLR M06/M08 A3034 RMK AO2=||F||223|ICAO-KSVE
USI0000KSVE|SUSANVILLE MUNI|2016|12|27|07|15|40.3757|-120.5727|1264.6|-6.0||1|FM15-METAR|223|ICAO-KSVE|-8.0||1|FM15-METAR|223|ICAO-KSVE|883.7||4|FM15-METAR|223|ICAO-KSVE|||||||320|N-Normal|1|FM15-METAR|223|ICAO-KSVE|1.5|N-Normal|1|FM15-METAR|223|ICAO-KSVE|||||||||||||86|Derived||FM15-METAR|223|ICAO-KSVE|-6.7|Derived||FM15-METAR|223|ICAO-KSVE|||||||||||||||||||||||||||||||||||||||||||||||||||||||||||||||||||1028.1||1|FM15-METAR|223|ICAO-KSVE|||||||||||||||||||||||||||||||||||||||||||MET062METAR KSVE 270715Z AUTO 32003KT 9SM CLR M06/M08 A3036 RMK AO2=||F||223|ICAO-KSVE
USI0000KSVE|SUSANVILLE MUNI|2016|12|27|07|35|40.3757|-120.5727|1264.6|-6.0||1|FM15-METAR|223|ICAO-KSVE|-8.0||1|FM15-METAR|223|ICAO-KSVE|883.1||4|FM15-METAR|223|ICAO-KSVE|||||||999|C-Calm|9|FM15-METAR|223|ICAO-KSVE|0.0|C-Calm|1|FM15-METAR|223|ICAO-KSVE|||||||||||||86|Derived||FM15-METAR|223|ICAO-KSVE|-6.7|Derived||FM15-METAR|223|ICAO-KSVE|||||||||||||||||||||||||||||||||||||||||||||||||||||||||||||||||||1027.4||1|FM15-METAR|223|ICAO-KSVE|||||||||||||||||||||||||||||||||||||||||||MET062METAR KSVE 270735Z AUTO 00000KT 9SM CLR M06/M08 A3034 RMK AO2=||F||223|ICAO-KSVE
USI0000KSVE|SUSANVILLE MUNI|2016|12|27|07|55|40.3757|-120.5727|1264.6|-6.0||1|FM15-METAR|223|ICAO-KSVE|-8.0||1|FM15-METAR|223|ICAO-KSVE|882.4||4|FM15-METAR|223|ICAO-KSVE|||||||999|C-Calm|9|FM15-METAR|223|ICAO-KSVE|0.0|C-Calm|1|FM15-METAR|223|ICAO-KSVE|||||||||||||86|Derived||FM15-METAR|223|ICAO-KSVE|-6.7|Derived||FM15-METAR|223|ICAO-KSVE|||||||||||||||||||||||||||||||||||||||||||||||||||||||||||||||||||1026.7||1|FM15-METAR|223|ICAO-KSVE|||||||||||||||||||||||||||||||||||||||||||MET063METAR KSVE 270755Z AUTO 00000KT 10SM CLR M06/M08 A3032 RMK AO2=||F||223|ICAO-KSVE
USI0000KSVE|SUSANVILLE MUNI|2016|12|27|08|15|40.3757|-120.5727|1264.6|-5.0||1|FM15-METAR|223|ICAO-KSVE|-8.0||1|FM15-METAR|223|ICAO-KSVE|882.8||4|FM15-METAR|223|ICAO-KSVE|||||||300|N-Normal|1|FM15-METAR|223|ICAO-KSVE|2.1|N-Normal|1|FM15-METAR|223|ICAO-KSVE|||||||||||||80|Derived||FM15-METAR|223|ICAO-KSVE|-5.9|Derived||FM15-METAR|223|ICAO-KSVE|||||||||||||||||||||||||||||||||||||||||||||||||||||||||||||||||||1027.1||1|FM15-METAR|223|ICAO-KSVE|||||||||||||||||||||||||||||||||||||||||||MET063METAR KSVE 270815Z AUTO 30004KT 10SM CLR M05/M08 A3033 RMK AO2=||F||223|ICAO-KSVE
USI0000KSVE|SUSANVILLE MUNI|2016|12|27|08|35|40.3757|-120.5727|1264.6|-6.0||1|FM15-METAR|223|ICAO-KSVE|-8.0||1|FM15-METAR|223|ICAO-KSVE|883.1||4|FM15-METAR|223|ICAO-KSVE|||||||280|N-Normal|1|FM15-METAR|223|ICAO-KSVE|1.5|N-Normal|1|FM15-METAR|223|ICAO-KSVE|||||||||||||86|Derived||FM15-METAR|223|ICAO-KSVE|-6.7|Derived||FM15-METAR|223|ICAO-KSVE|||||||||||||||||||||||||||||||||||||||||||||||||||||||||||||||||||1027.4||1|FM15-METAR|223|ICAO-KSVE|||||||||||||||||||||||||||||||||||||||||||MET065METAR KSVE 270835Z AUTO 28003KT 8SM FEW120 M06/M08 A3034 RMK AO2=||F||223|ICAO-KSVE
USI0000KSVE|SUSANVILLE MUNI|2016|12|27|08|55|40.3757|-120.5727|1264.6|-5.0||1|FM15-METAR|223|ICAO-KSVE|-8.0||1|FM15-METAR|223|ICAO-KSVE|883.4||4|FM15-METAR|223|ICAO-KSVE|||||||210|N-Normal|1|FM15-METAR|223|ICAO-KSVE|1.5|N-Normal|1|FM15-METAR|223|ICAO-KSVE|||||||||||||80|Derived||FM15-METAR|223|ICAO-KSVE|-5.9|Derived||FM15-METAR|223|ICAO-KSVE|||||||||||||||||||||||||||||||||||||||||||||||||||||||||||||||||||1027.8||1|FM15-METAR|223|ICAO-KSVE|||||||||||||||||||||||||||||||||||||||||||MET063METAR KSVE 270855Z AUTO 21003KT 10SM CLR M05/M08 A3035 RMK AO2=||F||223|ICAO-KSVE
USI0000KSVE|SUSANVILLE MUNI|2016|12|27|09|15|40.3757|-120.5727|1264.6|-5.0||1|FM15-METAR|223|ICAO-KSVE|-8.0||1|FM15-METAR|223|ICAO-KSVE|883.1||4|FM15-METAR|223|ICAO-KSVE|||||||999|C-Calm|9|FM15-METAR|223|ICAO-KSVE|0.0|C-Calm|1|FM15-METAR|223|ICAO-KSVE|||||||||||||80|Derived||FM15-METAR|223|ICAO-KSVE|-5.9|Derived||FM15-METAR|223|ICAO-KSVE|||||||||||||||||||||||||||||||||||||||||||||||||||||||||||||||||||1027.4||1|FM15-METAR|223|ICAO-KSVE|||||||||||||||||||||||||||||||||||||||||||MET066METAR KSVE 270915Z AUTO 00000KT 10SM BKN120 M05/M08 A3034 RMK AO2=||F||223|ICAO-KSVE
USI0000KSVE|SUSANVILLE MUNI|2016|12|27|09|35|40.3757|-120.5727|1264.6|-5.0||1|FM15-METAR|223|ICAO-KSVE|-8.0||1|FM15-METAR|223|ICAO-KSVE|883.1||4|FM15-METAR|223|ICAO-KSVE|||||||||||||||||||||||||||||||80|Derived||FM15-METAR|223|ICAO-KSVE|-5.9|Derived||FM15-METAR|223|ICAO-KSVE|||||||||||||||||||||||||||||||||||||||||||||||||||||||||||||||||||1027.4||1|FM15-METAR|223|ICAO-KSVE|||||||||||||||||||||||||||||||||||||||||||MET058METAR KSVE 270935Z AUTO 10SM OVC120 M05/M08 A3034 RMK AO2=||F||223|ICAO-KSVE
USI0000KSVE|SUSANVILLE MUNI|2016|12|27|09|55|40.3757|-120.5727|1264.6|-5.0||1|FM15-METAR|223|ICAO-KSVE|-7.0||1|FM15-METAR|223|ICAO-KSVE|883.4||4|FM15-METAR|223|ICAO-KSVE|||||||999|C-Calm|9|FM15-METAR|223|ICAO-KSVE|0.0|C-Calm|1|FM15-METAR|223|ICAO-KSVE|||||||||||||86|Derived||FM15-METAR|223|ICAO-KSVE|-5.7|Derived||FM15-METAR|223|ICAO-KSVE|||||||||||||||||||||||||||||||||||||||||||||||||||||||||||||||||||1027.8||1|FM15-METAR|223|ICAO-KSVE|||||||||||||||||||||||||||||||||||||||||||MET066METAR KSVE 270955Z AUTO 00000KT 10SM SCT120 M05/M07 A3035 RMK AO2=||F||223|ICAO-KSVE
USI0000KSVE|SUSANVILLE MUNI|2016|12|27|10|15|40.3757|-120.5727|1264.6|-5.0||1|FM15-METAR|223|ICAO-KSVE|-7.0||1|FM15-METAR|223|ICAO-KSVE|883.4||4|FM15-METAR|223|ICAO-KSVE|||||||999|C-Calm|9|FM15-METAR|223|ICAO-KSVE|0.0|C-Calm|1|FM15-METAR|223|ICAO-KSVE|||||||||||||86|Derived||FM15-METAR|223|ICAO-KSVE|-5.7|Derived||FM15-METAR|223|ICAO-KSVE|||||||||||||||||||||||||||||||||||||||||||||||||||||||||||||||||||1027.8||1|FM15-METAR|223|ICAO-KSVE|||||||||||||||||||||||||||||||||||||||||||MET063METAR KSVE 271015Z AUTO 00000KT 10SM CLR M05/M07 A3035 RMK AO2=||F||223|ICAO-KSVE
USI0000KSVE|SUSANVILLE MUNI|2016|12|27|10|35|40.3757|-120.5727|1264.6|-5.0||1|FM15-METAR|223|ICAO-KSVE|-7.0||1|FM15-METAR|223|ICAO-KSVE|883.7||4|FM15-METAR|223|ICAO-KSVE|||||||999|C-Calm|9|FM15-METAR|223|ICAO-KSVE|0.0|C-Calm|1|FM15-METAR|223|ICAO-KSVE|||||||||||||86|Derived||FM15-METAR|223|ICAO-KSVE|-5.7|Derived||FM15-METAR|223|ICAO-KSVE|||||||||||||||||||||||||||||||||||||||||||||||||||||||||||||||||||1028.1||1|FM15-METAR|223|ICAO-KSVE|||||||||||||||||||||||||||||||||||||||||||MET063METAR KSVE 271035Z AUTO 00000KT 10SM CLR M05/M07 A3036 RMK AO2=||F||223|ICAO-KSVE
USI0000KSVE|SUSANVILLE MUNI|2016|12|27|10|55|40.3757|-120.5727|1264.6|-5.0||1|FM15-METAR|223|ICAO-KSVE|-7.0||1|FM15-METAR|223|ICAO-KSVE|883.4||4|FM15-METAR|223|ICAO-KSVE|||||||999|C-Calm|9|FM15-METAR|223|ICAO-KSVE|0.0|C-Calm|1|FM15-METAR|223|ICAO-KSVE|||||||||||||86|Derived||FM15-METAR|223|ICAO-KSVE|-5.7|Derived||FM15-METAR|223|ICAO-KSVE|||||||||||||||||||||||||||||||||||||||||||||||||||||||||||||||||||1027.8||1|FM15-METAR|223|ICAO-KSVE|||||||||||||||||||||||||||||||||||||||||||MET065METAR KSVE 271055Z AUTO 00000KT 8SM SCT110 M05/M07 A3035 RMK AO2=||F||223|ICAO-KSVE
USI0000KSVE|SUSANVILLE MUNI|2016|12|27|11|15|40.3757|-120.5727|1264.6|-5.0||1|FM15-METAR|223|ICAO-KSVE|-7.0||1|FM15-METAR|223|ICAO-KSVE|883.4||4|FM15-METAR|223|ICAO-KSVE|||||||320|N-Normal|1|FM15-METAR|223|ICAO-KSVE|1.5|N-Normal|1|FM15-METAR|223|ICAO-KSVE|||||||||||||86|Derived||FM15-METAR|223|ICAO-KSVE|-5.7|Derived||FM15-METAR|223|ICAO-KSVE|||||||||||||||||||||||||||||||||||||||||||||||||||||||||||||||||||1027.8||1|FM15-METAR|223|ICAO-KSVE|||||||||||||||||||||||||||||||||||||||||||MET065METAR KSVE 271115Z AUTO 32003KT 9SM FEW100 M05/M07 A3035 RMK AO2=||F||223|ICAO-KSVE
USI0000KSVE|SUSANVILLE MUNI|2016|12|27|11|35|40.3757|-120.5727|1264.6|-5.0||1|FM15-METAR|223|ICAO-KSVE|-7.0||1|FM15-METAR|223|ICAO-KSVE|883.1||4|FM15-METAR|223|ICAO-KSVE|||||||310|N-Normal|1|FM15-METAR|223|ICAO-KSVE|2.1|N-Normal|1|FM15-METAR|223|ICAO-KSVE|||||||||||||86|Derived||FM15-METAR|223|ICAO-KSVE|-5.7|Derived||FM15-METAR|223|ICAO-KSVE|||||||||||||||||||||||||||||||||||||||||||||||||||||||||||||||||||1027.4||1|FM15-METAR|223|ICAO-KSVE|||||||||||||||||||||||||||||||||||||||||||MET065METAR KSVE 271135Z AUTO 31004KT 9SM FEW050 M05/M07 A3034 RMK AO2=||F||223|ICAO-KSVE
USI0000KSVE|SUSANVILLE MUNI|2016|12|27|11|55|40.3757|-120.5727|1264.6|-5.0||1|FM15-METAR|223|ICAO-KSVE|-7.0||1|FM15-METAR|223|ICAO-KSVE|882.8||4|FM15-METAR|223|ICAO-KSVE|||||||999|C-Calm|9|FM15-METAR|223|ICAO-KSVE|0.0|C-Calm|1|FM15-METAR|223|ICAO-KSVE|||||||||||||86|Derived||FM15-METAR|223|ICAO-KSVE|-5.7|Derived||FM15-METAR|223|ICAO-KSVE|||||||||||||||||||||||||||||||||||||||||||||||||||||||||||||||||||1027.1||1|FM15-METAR|223|ICAO-KSVE|||||||||||||||||||||||||||||||||||||||||||MET066METAR KSVE 271155Z AUTO 00000KT 10SM FEW120 M05/M07 A3033 RMK AO2=||F||223|ICAO-KSVE
USI0000KSVE|SUSANVILLE MUNI|2016|12|27|12|15|40.3757|-120.5727|1264.6|-5.0||1|FM15-METAR|223|ICAO-KSVE|-7.0||1|FM15-METAR|223|ICAO-KSVE|882.4||4|FM15-METAR|223|ICAO-KSVE|||||||999|C-Calm|9|FM15-METAR|223|ICAO-KSVE|0.0|C-Calm|1|FM15-METAR|223|ICAO-KSVE|||||||||||||86|Derived||FM15-METAR|223|ICAO-KSVE|-5.7|Derived||FM15-METAR|223|ICAO-KSVE|||||||||||||||||||||||||||||||||||||||||||||||||||||||||||||||||||1026.7||1|FM15-METAR|223|ICAO-KSVE|||||||||||||||||||||||||||||||||||||||||||MET066METAR KSVE 271215Z AUTO 00000KT 10SM FEW100 M05/M07 A3032 RMK AO2=||F||223|ICAO-KSVE
USI0000KSVE|SUSANVILLE MUNI|2016|12|27|12|35|40.3757|-120.5727|1264.6|-5.0||1|FM15-METAR|223|ICAO-KSVE|-7.0||1|FM15-METAR|223|ICAO-KSVE|881.9||4|FM15-METAR|223|ICAO-KSVE|||||||170|N-Normal|1|FM15-METAR|223|ICAO-KSVE|1.5|N-Normal|1|FM15-METAR|223|ICAO-KSVE|||||||||||||86|Derived||FM15-METAR|223|ICAO-KSVE|-5.7|Derived||FM15-METAR|223|ICAO-KSVE|||||||||||||||||||||||||||||||||||||||||||||||||||||||||||||||||||1026.1||1|FM15-METAR|223|ICAO-KSVE|||||||||||||||||||||||||||||||||||||||||||MET066METAR KSVE 271235Z AUTO 17003KT 10SM BKN100 M05/M07 A3030 RMK AO2=||F||223|ICAO-KSVE
USI0000KSVE|SUSANVILLE MUNI|2016|12|27|12|55|40.3757|-120.5727|1264.6|-5.0||1|FM15-METAR|223|ICAO-KSVE|-7.0||1|FM15-METAR|223|ICAO-KSVE|881.6||4|FM15-METAR|223|ICAO-KSVE|||||||999|C-Calm|9|FM15-METAR|223|ICAO-KSVE|0.0|C-Calm|1|FM15-METAR|223|ICAO-KSVE|||||||||||||86|Derived||FM15-METAR|223|ICAO-KSVE|-5.7|Derived||FM15-METAR|223|ICAO-KSVE|||||||||||||||||||||||||||||||||||||||||||||||||||||||||||||||||||1025.7||1|FM15-METAR|223|ICAO-KSVE|||||||||||||||||||||||||||||||||||||||||||MET066METAR KSVE 271255Z AUTO 00000KT 10SM SCT090 M05/M07 A3029 RMK AO2=||F||223|ICAO-KSVE
USI0000KSVE|SUSANVILLE MUNI|2016|12|27|13|15|40.3757|-120.5727|1264.6|-5.0||1|FM15-METAR|223|ICAO-KSVE|-7.0||1|FM15-METAR|223|ICAO-KSVE|881.6||4|FM15-METAR|223|ICAO-KSVE|||||||300|N-Normal|1|FM15-METAR|223|ICAO-KSVE|1.5|N-Normal|1|FM15-METAR|223|ICAO-KSVE|||||||||||||86|Derived||FM15-METAR|223|ICAO-KSVE|-5.7|Derived||FM15-METAR|223|ICAO-KSVE|||||||||||||||||||||||||||||||||||||||||||||||||||||||||||||||||||1025.7||1|FM15-METAR|223|ICAO-KSVE|||||||||||||||||||||||||||||||||||||||||||MET063METAR KSVE 271315Z AUTO 30003KT 10SM CLR M05/M07 A3029 RMK AO2=||F||223|ICAO-KSVE
USI0000KSVE|SUSANVILLE MUNI|2016|12|27|13|35|40.3757|-120.5727|1264.6|-6.0||1|FM15-METAR|223|ICAO-KSVE|-7.0||1|FM15-METAR|223|ICAO-KSVE|881.9||4|FM15-METAR|223|ICAO-KSVE|||||||270|N-Normal|1|FM15-METAR|223|ICAO-KSVE|2.6|N-Normal|1|FM15-METAR|223|ICAO-KSVE|||||||||||||93|Derived||FM15-METAR|223|ICAO-KSVE|-6.5|Derived||FM15-METAR|223|ICAO-KSVE|||||||||||||||||||||||||||||||||||||||||||||||||||||||||||||||||||1026.1||1|FM15-METAR|223|ICAO-KSVE|||||||||||||||||||||||||||||||||||||||||||MET063METAR KSVE 271335Z AUTO 27005KT 10SM CLR M06/M07 A3030 RMK AO2=||F||223|ICAO-KSVE
USI0000KSVE|SUSANVILLE MUNI|2016|12|27|13|55|40.3757|-120.5727|1264.6|-6.0||1|FM15-METAR|223|ICAO-KSVE|-7.0||1|FM15-METAR|223|ICAO-KSVE|882.2||4|FM15-METAR|223|ICAO-KSVE|||||||260|N-Normal|1|FM15-METAR|223|ICAO-KSVE|2.1|N-Normal|1|FM15-METAR|223|ICAO-KSVE|||||||||||||93|Derived||FM15-METAR|223|ICAO-KSVE|-6.5|Derived||FM15-METAR|223|ICAO-KSVE|||||||||||||||||||||||||||||||||||||||||||||||||||||||||||||||||||1026.4||1|FM15-METAR|223|ICAO-KSVE|||||||||||||||||||||||||||||||||||||||||||MET063METAR KSVE 271355Z AUTO 26004KT 10SM CLR M06/M07 A3031 RMK AO2=||F||223|ICAO-KSVE
USI0000KSVE|SUSANVILLE MUNI|2016|12|27|14|15|40.3757|-120.5727|1264.6|-6.0||1|FM15-METAR|223|ICAO-KSVE|-7.0||1|FM15-METAR|223|ICAO-KSVE|881.9||4|FM15-METAR|223|ICAO-KSVE|||||||320|N-Normal|1|FM15-METAR|223|ICAO-KSVE|1.5|N-Normal|1|FM15-METAR|223|ICAO-KSVE|||||||||||||93|Derived||FM15-METAR|223|ICAO-KSVE|-6.5|Derived||FM15-METAR|223|ICAO-KSVE|||||||||||||||||||||||||||||||||||||||||||||||||||||||||||||||||||1026.1||1|FM15-METAR|223|ICAO-KSVE|||||||||||||||||||||||||||||||||||||||||||MET063METAR KSVE 271415Z AUTO 32003KT 10SM CLR M06/M07 A3030 RMK AO2=||F||223|ICAO-KSVE
USI0000KSVE|SUSANVILLE MUNI|2016|12|27|14|35|40.3757|-120.5727|1264.6|-6.0||1|FM15-METAR|223|ICAO-KSVE|-8.0||1|FM15-METAR|223|ICAO-KSVE|881.9||4|FM15-METAR|223|ICAO-KSVE|||||||360|N-Normal|1|FM15-METAR|223|ICAO-KSVE|2.6|N-Normal|1|FM15-METAR|223|ICAO-KSVE|||||||||||||86|Derived||FM15-METAR|223|ICAO-KSVE|-6.7|Derived||FM15-METAR|223|ICAO-KSVE|||||||||||||||||||||||||||||||||||||||||||||||||||||||||||||||||||1026.1||1|FM15-METAR|223|ICAO-KSVE|||||||||||||||||||||||||||||||||||||||||||MET063METAR KSVE 271435Z AUTO 36005KT 10SM CLR M06/M08 A3030 RMK AO2=||F||223|ICAO-KSVE
USI0000KSVE|SUSANVILLE MUNI|2016|12|27|14|55|40.3757|-120.5727|1264.6|-6.0||1|FM15-METAR|223|ICAO-KSVE|-8.0||1|FM15-METAR|223|ICAO-KSVE|882.4||4|FM15-METAR|223|ICAO-KSVE|||||||999|C-Calm|9|FM15-METAR|223|ICAO-KSVE|0.0|C-Calm|1|FM15-METAR|223|ICAO-KSVE|||||||||||||86|Derived||FM15-METAR|223|ICAO-KSVE|-6.7|Derived||FM15-METAR|223|ICAO-KSVE|||||||||||||||||||||||||||||||||||||||||||||||||||||||||||||||||||1026.7||1|FM15-METAR|223|ICAO-KSVE|||||||||||||||||||||||||||||||||||||||||||MET063METAR KSVE 271455Z AUTO 00000KT 10SM CLR M06/M08 A3032 RMK AO2=||F||223|ICAO-KSVE
USI0000KSVE|SUSANVILLE MUNI|2016|12|27|15|15|40.3757|-120.5727|1264.6|-7.0||1|FM15-METAR|223|ICAO-KSVE|-8.0||1|FM15-METAR|223|ICAO-KSVE|882.2||4|FM15-METAR|223|ICAO-KSVE|||||||190|N-Normal|1|FM15-METAR|223|ICAO-KSVE|1.5|N-Normal|1|FM15-METAR|223|ICAO-KSVE|||||||||||||93|Derived||FM15-METAR|223|ICAO-KSVE|-7.4|Derived||FM15-METAR|223|ICAO-KSVE|||||||||||||||||||||||||||||||||||||||||||||||||||||||||||||||||||1026.4||1|FM15-METAR|223|ICAO-KSVE|||||||||||||||||||||||||||||||||||||||||||MET063METAR KSVE 271515Z AUTO 19003KT 10SM CLR M07/M08 A3031 RMK AO2=||F||223|ICAO-KSVE
USI0000KSVE|SUSANVILLE MUNI|2016|12|27|15|35|40.3757|-120.5727|1264.6|-6.0||1|FM15-METAR|223|ICAO-KSVE|-8.0||1|FM15-METAR|223|ICAO-KSVE|882.4||4|FM15-METAR|223|ICAO-KSVE|||||||999|C-Calm|9|FM15-METAR|223|ICAO-KSVE|0.0|C-Calm|1|FM15-METAR|223|ICAO-KSVE|||||||||||||86|Derived||FM15-METAR|223|ICAO-KSVE|-6.7|Derived||FM15-METAR|223|ICAO-KSVE|||||||||||||||||||||||||||||||||||||||||||||||||||||||||||||||||||1026.7||1|FM15-METAR|223|ICAO-KSVE|||||||||||||||||||||||||||||||||||||||||||MET063METAR KSVE 271535Z AUTO 00000KT 10SM CLR M06/M08 A3032 RMK AO2=||F||223|ICAO-KSVE
USI0000KSVE|SUSANVILLE MUNI|2016|12|27|15|55|40.3757|-120.5727|1264.6|-6.0||1|FM15-METAR|223|ICAO-KSVE|-8.0||1|FM15-METAR|223|ICAO-KSVE|882.2||4|FM15-METAR|223|ICAO-KSVE|||||||300|N-Normal|1|FM15-METAR|223|ICAO-KSVE|2.1|N-Normal|1|FM15-METAR|223|ICAO-KSVE|||||||||||||86|Derived||FM15-METAR|223|ICAO-KSVE|-6.7|Derived||FM15-METAR|223|ICAO-KSVE|||||||||||||||||||||||||||||||||||||||||||||||||||||||||||||||||||1026.4||1|FM15-METAR|223|ICAO-KSVE|||||||||||||||||||||||||||||||||||||||||||MET062METAR KSVE 271555Z AUTO 30004KT 9SM CLR M06/M08 A3031 RMK AO2=||F||223|ICAO-KSVE
USI0000KSVE|SUSANVILLE MUNI|2016|12|27|16|15|40.3757|-120.5727|1264.6|-6.0||1|FM15-METAR|223|ICAO-KSVE|-8.0||1|FM15-METAR|223|ICAO-KSVE|882.8||4|FM15-METAR|223|ICAO-KSVE|||||||999|C-Calm|9|FM15-METAR|223|ICAO-KSVE|0.0|C-Calm|1|FM15-METAR|223|ICAO-KSVE|||||||||||||86|Derived||FM15-METAR|223|ICAO-KSVE|-6.7|Derived||FM15-METAR|223|ICAO-KSVE|||||||||||||||||||||||||||||||||||||||||||||||||||||||||||||||||||1027.1||1|FM15-METAR|223|ICAO-KSVE|||||||||||||||||||||||||||||||||||||||||||MET062METAR KSVE 271615Z AUTO 00000KT 9SM CLR M06/M08 A3033 RMK AO2=||F||223|ICAO-KSVE
USI0000KSVE|SUSANVILLE MUNI|2016|12|27|16|35|40.3757|-120.5727|1264.6|-5.0||1|FM15-METAR|223|ICAO-KSVE|-7.0||1|FM15-METAR|223|ICAO-KSVE|882.8||4|FM15-METAR|223|ICAO-KSVE|||||||999|C-Calm|9|FM15-METAR|223|ICAO-KSVE|0.0|C-Calm|1|FM15-METAR|223|ICAO-KSVE|||||||||||||86|Derived||FM15-METAR|223|ICAO-KSVE|-5.7|Derived||FM15-METAR|223|ICAO-KSVE|||||||||||||||||||||||||||||||||||||||||||||||||||||||||||||||||||1027.1||1|FM15-METAR|223|ICAO-KSVE|||||||||||||||||||||||||||||||||||||||||||MET063METAR KSVE 271635Z AUTO 00000KT 10SM CLR M05/M07 A3033 RMK AO2=||F||223|ICAO-KSVE
USI0000KSVE|SUSANVILLE MUNI|2016|12|27|16|55|40.3757|-120.5727|1264.6|-4.0||1|FM15-METAR|223|ICAO-KSVE|-7.0||1|FM15-METAR|223|ICAO-KSVE|882.4||4|FM15-METAR|223|ICAO-KSVE|||||||330|N-Normal|1|FM15-METAR|223|ICAO-KSVE|1.5|N-Normal|1|FM15-METAR|223|ICAO-KSVE|||||||||||||80|Derived||FM15-METAR|223|ICAO-KSVE|-5.0|Derived||FM15-METAR|223|ICAO-KSVE|||||||||||||||||||||||||||||||||||||||||||||||||||||||||||||||||||1026.7||1|FM15-METAR|223|ICAO-KSVE|||||||||||||||||||||||||||||||||||||||||||MET063METAR KSVE 271655Z AUTO 33003KT 10SM CLR M04/M07 A3032 RMK AO2=||F||223|ICAO-KSVE
USI0000KSVE|SUSANVILLE MUNI|2016|12|27|17|15|40.3757|-120.5727|1264.6|-3.0||1|FM15-METAR|223|ICAO-KSVE|-7.0||1|FM15-METAR|223|ICAO-KSVE|882.4||4|FM15-METAR|223|ICAO-KSVE|||||||340|N-Normal|1|FM15-METAR|223|ICAO-KSVE|1.5|N-Normal|1|FM15-METAR|223|ICAO-KSVE|||||||||||||74|Derived||FM15-METAR|223|ICAO-KSVE|-4.3|Derived||FM15-METAR|223|ICAO-KSVE|||||||||||||||||||||||||||||||||||||||||||||||||||||||||||||||||||1026.7||1|FM15-METAR|223|ICAO-KSVE|||||||||||||||||||||||||||||||||||||||||||MET063METAR KSVE 271715Z AUTO 34003KT 10SM CLR M03/M07 A3032 RMK AO2=||F||223|ICAO-KSVE
USI0000KSVE|SUSANVILLE MUNI|2016|12|27|17|35|40.3757|-120.5727|1264.6|-3.0||1|FM15-METAR|223|ICAO-KSVE|-7.0||1|FM15-METAR|223|ICAO-KSVE|882.4||4|FM15-METAR|223|ICAO-KSVE|||||||330|N-Normal|1|FM15-METAR|223|ICAO-KSVE|2.1|N-Normal|1|FM15-METAR|223|ICAO-KSVE|||||||||||||74|Derived||FM15-METAR|223|ICAO-KSVE|-4.3|Derived||FM15-METAR|223|ICAO-KSVE|||||||||||||||||||||||||||||||||||||||||||||||||||||||||||||||||||1026.7||1|FM15-METAR|223|ICAO-KSVE|||||||||||||||||||||||||||||||||||||||||||MET063METAR KSVE 271735Z AUTO 33004KT 10SM CLR M03/M07 A3032 RMK AO2=||F||223|ICAO-KSVE
USI0000KSVE|SUSANVILLE MUNI|2016|12|27|17|55|40.3757|-120.5727|1264.6|-2.0||1|FM15-METAR|223|ICAO-KSVE|-7.0||1|FM15-METAR|223|ICAO-KSVE|883.1||4|FM15-METAR|223|ICAO-KSVE|||||||999|C-Calm|9|FM15-METAR|223|ICAO-KSVE|0.0|C-Calm|1|FM15-METAR|223|ICAO-KSVE|||||||||||||69|Derived||FM15-METAR|223|ICAO-KSVE|-4.0|Derived||FM15-METAR|223|ICAO-KSVE|||||||||||||||||||||||||||||||||||||||||||||||||||||||||||||||||||1027.4||1|FM15-METAR|223|ICAO-KSVE|||||||||||||||||||||||||||||||||||||||||||MET063METAR KSVE 271755Z AUTO 00000KT 10SM CLR M02/M07 A3034 RMK AO2=||F||223|ICAO-KSVE
USI0000KSVE|SUSANVILLE MUNI|2016|12|27|18|15|40.3757|-120.5727|1264.6|-2.0||1|FM15-METAR|223|ICAO-KSVE|-6.0||1|FM15-METAR|223|ICAO-KSVE|883.1||4|FM15-METAR|223|ICAO-KSVE|||||||999|C-Calm|9|FM15-METAR|223|ICAO-KSVE|0.0|C-Calm|1|FM15-METAR|223|ICAO-KSVE|||||||||||||74|Derived||FM15-METAR|223|ICAO-KSVE|-3.6|Derived||FM15-METAR|223|ICAO-KSVE|||||||||||||||||||||||||||||||||||||||||||||||||||||||||||||||||||1027.4||1|FM15-METAR|223|ICAO-KSVE|||||||||||||||||||||||||||||||||||||||||||MET063METAR KSVE 271815Z AUTO 00000KT 10SM CLR M02/M06 A3034 RMK AO2=||F||223|ICAO-KSVE
USI0000KSVE|SUSANVILLE MUNI|2016|12|27|18|35|40.3757|-120.5727|1264.6|-1.0||1|FM15-METAR|223|ICAO-KSVE|-6.0||1|FM15-METAR|223|ICAO-KSVE|882.4||4|FM15-METAR|223|ICAO-KSVE|||||||999|C-Calm|9|FM15-METAR|223|ICAO-KSVE|0.0|C-Calm|1|FM15-METAR|223|ICAO-KSVE|||||||||||||69|Derived||FM15-METAR|223|ICAO-KSVE|-2.9|Derived||FM15-METAR|223|ICAO-KSVE|||||||||||||||||||||||||||||||||||||||||||||||||||||||||||||||||||1026.7||1|FM15-METAR|223|ICAO-KSVE|||||||||||||||||||||||||||||||||||||||||||MET063METAR KSVE 271835Z AUTO 00000KT 10SM CLR M01/M06 A3032 RMK AO2=||F||223|ICAO-KSVE
USI0000KSVE|SUSANVILLE MUNI|2016|12|27|18|55|40.3757|-120.5727|1264.6|0.0||1|FM15-METAR|223|ICAO-KSVE|-6.0||1|FM15-METAR|223|ICAO-KSVE|882.2||4|FM15-METAR|223|ICAO-KSVE|||||||110|N-Normal|1|FM15-METAR|223|ICAO-KSVE|1.5|N-Normal|1|FM15-METAR|223|ICAO-KSVE|||||||||||||64|Derived||FM15-METAR|223|ICAO-KSVE|-2.3|Derived||FM15-METAR|223|ICAO-KSVE|||||||||||||||||||||||||||||||||||||||||||||||||||||||||||||||||||1026.4||1|FM15-METAR|223|ICAO-KSVE|||||||||||||||||||||||||||||||||||||||||||MET062METAR KSVE 271855Z AUTO 11003KT 10SM CLR 00/M06 A3031 RMK AO2=||F||223|ICAO-KSVE
USI0000KSVE|SUSANVILLE MUNI|2016|12|27|19|15|40.3757|-120.5727|1264.6|0.0||1|FM15-METAR|223|ICAO-KSVE|-6.0||1|FM15-METAR|223|ICAO-KSVE|881.9||4|FM15-METAR|223|ICAO-KSVE|||||||100|N-Normal|1|FM15-METAR|223|ICAO-KSVE|1.5|N-Normal|1|FM15-METAR|223|ICAO-KSVE|||||||||||||64|Derived||FM15-METAR|223|ICAO-KSVE|-2.3|Derived||FM15-METAR|223|ICAO-KSVE|||||||||||||||||||||||||||||||||||||||||||||||||||||||||||||||||||1026.1||1|FM15-METAR|223|ICAO-KSVE|||||||||||||||||||||||||||||||||||||||||||MET062METAR KSVE 271915Z AUTO 10003KT 10SM CLR 00/M06 A3030 RMK AO2=||F||223|ICAO-KSVE
USI0000KSVE|SUSANVILLE MUNI|2016|12|27|19|35|40.3757|-120.5727|1264.6|0.0||1|FM15-METAR|223|ICAO-KSVE|-6.0||1|FM15-METAR|223|ICAO-KSVE|881.3||4|FM15-METAR|223|ICAO-KSVE|||||||130|N-Normal|1|FM15-METAR|223|ICAO-KSVE|3.1|N-Normal|1|FM15-METAR|223|ICAO-KSVE|||||||||||||64|Derived||FM15-METAR|223|ICAO-KSVE|-2.3|Derived||FM15-METAR|223|ICAO-KSVE|||||||||||||||||||||||||||||||||||||||||||||||||||||||||||||||||||1025.4||1|FM15-METAR|223|ICAO-KSVE|||||||||||||||||||||||||||||||||||||||||||MET062METAR KSVE 271935Z AUTO 13006KT 10SM CLR 00/M06 A3028 RMK AO2=||F||223|ICAO-KSVE
USI0000KSVE|SUSANVILLE MUNI|2016|12|27|19|55|40.3757|-120.5727|1264.6|0.0||1|FM15-METAR|223|ICAO-KSVE|-6.0||1|FM15-METAR|223|ICAO-KSVE|881.0||4|FM15-METAR|223|ICAO-KSVE|||||||070|N-Normal|1|FM15-METAR|223|ICAO-KSVE|2.1|N-Normal|1|FM15-METAR|223|ICAO-KSVE|||||||||||||64|Derived||FM15-METAR|223|ICAO-KSVE|-2.3|Derived||FM15-METAR|223|ICAO-KSVE|||||||||||||||||||||||||||||||||||||||||||||||||||||||||||||||||||1025.1||1|FM15-METAR|223|ICAO-KSVE|||||||||||||||||||||||||||||||||||||||||||MET062METAR KSVE 271955Z AUTO 07004KT 10SM CLR 00/M06 A3027 RMK AO2=||F||223|ICAO-KSVE
USI0000KSVE|SUSANVILLE MUNI|2016|12|27|20|15|40.3757|-120.5727|1264.6|1.0||1|FM15-METAR|223|ICAO-KSVE|-5.0||1|FM15-METAR|223|ICAO-KSVE|881.0||4|FM15-METAR|223|ICAO-KSVE|||||||090|N-Normal|1|FM15-METAR|223|ICAO-KSVE|2.1|N-Normal|1|FM15-METAR|223|ICAO-KSVE|||||||||||||65|Derived||FM15-METAR|223|ICAO-KSVE|-1.2|Derived||FM15-METAR|223|ICAO-KSVE|||||||||||||||||||||||||||||||||||||||||||||||||||||||||||||||||||1025.1||1|FM15-METAR|223|ICAO-KSVE|||||||||||||||||||||||||||||||||||||||||||MET062METAR KSVE 272015Z AUTO 09004KT 10SM CLR 01/M05 A3027 RMK AO2=||F||223|ICAO-KSVE
USI0000KSVE|SUSANVILLE MUNI|2016|12|27|20|35|40.3757|-120.5727|1264.6|1.0||1|FM15-METAR|223|ICAO-KSVE|-5.0||1|FM15-METAR|223|ICAO-KSVE|880.7||4|FM15-METAR|223|ICAO-KSVE|||||||120|N-Normal|1|FM15-METAR|223|ICAO-KSVE|2.1|N-Normal|1|FM15-METAR|223|ICAO-KSVE|||||||||||||65|Derived||FM15-METAR|223|ICAO-KSVE|-1.2|Derived||FM15-METAR|223|ICAO-KSVE|||||||||||||||||||||||||||||||||||||||||||||||||||||||||||||||||||1024.7||1|FM15-METAR|223|ICAO-KSVE|||||||||||||||||||||||||||||||||||||||||||MET062METAR KSVE 272035Z AUTO 12004KT 10SM CLR 01/M05 A3026 RMK AO2=||F||223|ICAO-KSVE
USI0000KSVE|SUSANVILLE MUNI|2016|12|27|20|55|40.3757|-120.5727|1264.6|2.0||1|FM15-METAR|223|ICAO-KSVE|-5.0||1|FM15-METAR|223|ICAO-KSVE|880.4||4|FM15-METAR|223|ICAO-KSVE|||||||140|N-Normal|1|FM15-METAR|223|ICAO-KSVE|2.1|N-Normal|1|FM15-METAR|223|ICAO-KSVE|||||||||||||60|Derived||FM15-METAR|223|ICAO-KSVE|-0.6|Derived||FM15-METAR|223|ICAO-KSVE|||||||||||||||||||||||||||||||||||||||||||||||||||||||||||||||||||1024.4||1|FM15-METAR|223|ICAO-KSVE|||||||||||||||||||||||||||||||||||||||||||MET062METAR KSVE 272055Z AUTO 14004KT 10SM CLR 02/M05 A3025 RMK AO2=||F||223|ICAO-KSVE
USI0000KSVE|SUSANVILLE MUNI|2016|12|27|21|15|40.3757|-120.5727|1264.6|2.0||1|FM15-METAR|223|ICAO-KSVE|-5.0||1|FM15-METAR|223|ICAO-KSVE|880.4||4|FM15-METAR|223|ICAO-KSVE|||||||999|C-Calm|9|FM15-METAR|223|ICAO-KSVE|0.0|C-Calm|1|FM15-METAR|223|ICAO-KSVE|||||||||||||60|Derived||FM15-METAR|223|ICAO-KSVE|-0.6|Derived||FM15-METAR|223|ICAO-KSVE|||||||||||||||||||||||||||||||||||||||||||||||||||||||||||||||||||1024.4||1|FM15-METAR|223|ICAO-KSVE|||||||||||||||||||||||||||||||||||||||||||MET062METAR KSVE 272115Z AUTO 00000KT 10SM CLR 02/M05 A3025 RMK AO2=||F||223|ICAO-KSVE
USI0000KSVE|SUSANVILLE MUNI|2016|12|27|21|35|40.3757|-120.5727|1264.6|2.0||1|FM15-METAR|223|ICAO-KSVE|-5.0||1|FM15-METAR|223|ICAO-KSVE|880.4||4|FM15-METAR|223|ICAO-KSVE|||||||999|C-Calm|9|FM15-METAR|223|ICAO-KSVE|0.0|C-Calm|1|FM15-METAR|223|ICAO-KSVE|||||||||||||60|Derived||FM15-METAR|223|ICAO-KSVE|-0.6|Derived||FM15-METAR|223|ICAO-KSVE|||||||||||||||||||||||||||||||||||||||||||||||||||||||||||||||||||1024.4||1|FM15-METAR|223|ICAO-KSVE|||||||||||||||||||||||||||||||||||||||||||MET062METAR KSVE 272135Z AUTO 00000KT 10SM CLR 02/M05 A3025 RMK AO2=||F||223|ICAO-KSVE
USI0000KSVE|SUSANVILLE MUNI|2016|12|27|21|55|40.3757|-120.5727|1264.6|3.0||1|FM15-METAR|223|ICAO-KSVE|-4.0||1|FM15-METAR|223|ICAO-KSVE|880.1||4|FM15-METAR|223|ICAO-KSVE|||||||070|N-Normal|1|FM15-METAR|223|ICAO-KSVE|2.1|N-Normal|1|FM15-METAR|223|ICAO-KSVE|||||||||||||60|Derived||FM15-METAR|223|ICAO-KSVE|0.1|Derived||FM15-METAR|223|ICAO-KSVE|||||||||||||||||||||||||||||||||||||||||||||||||||||||||||||||||||1024.0||1|FM15-METAR|223|ICAO-KSVE|||||||||||||||||||||||||||||||||||||||||||MET062METAR KSVE 272155Z AUTO 07004KT 10SM CLR 03/M04 A3024 RMK AO2=||F||223|ICAO-KSVE
USI0000KSVE|SUSANVILLE MUNI|2016|12|27|22|15|40.3757|-120.5727|1264.6|4.0||1|FM15-METAR|223|ICAO-KSVE|-4.0||1|FM15-METAR|223|ICAO-KSVE|879.8||4|FM15-METAR|223|ICAO-KSVE|||||||080|N-Normal|1|FM15-METAR|223|ICAO-KSVE|2.6|N-Normal|1|FM15-METAR|223|ICAO-KSVE|||||||||||||56|Derived||FM15-METAR|223|ICAO-KSVE|0.7|Derived||FM15-METAR|223|ICAO-KSVE|||||||||||||||||||||||||||||||||||||||||||||||||||||||||||||||||||1023.7||1|FM15-METAR|223|ICAO-KSVE|||||||||||||||||||||||||||||||||||||||||||MET062METAR KSVE 272215Z AUTO 08005KT 10SM CLR 04/M04 A3023 RMK AO2=||F||223|ICAO-KSVE
USI0000KSVE|SUSANVILLE MUNI|2016|12|27|22|35|40.3757|-120.5727|1264.6|4.0||1|FM15-METAR|223|ICAO-KSVE|-4.0||1|FM15-METAR|223|ICAO-KSVE|879.5||4|FM15-METAR|223|ICAO-KSVE|||||||130|N-Normal|1|FM15-METAR|223|ICAO-KSVE|2.1|N-Normal|1|FM15-METAR|223|ICAO-KSVE|||||||||||||56|Derived||FM15-METAR|223|ICAO-KSVE|0.7|Derived||FM15-METAR|223|ICAO-KSVE|||||||||||||||||||||||||||||||||||||||||||||||||||||||||||||||||||1023.4||1|FM15-METAR|223|ICAO-KSVE|||||||||||||||||||||||||||||||||||||||||||MET062METAR KSVE 272235Z AUTO 13004KT 10SM CLR 04/M04 A3022 RMK AO2=||F||223|ICAO-KSVE
USI0000KSVE|SUSANVILLE MUNI|2016|12|27|22|55|40.3757|-120.5727|1264.6|4.0||1|FM15-METAR|223|ICAO-KSVE|-5.0||1|FM15-METAR|223|ICAO-KSVE|879.2||4|FM15-METAR|223|ICAO-KSVE|||||||110|N-Normal|1|FM15-METAR|223|ICAO-KSVE|3.1|N-Normal|1|FM15-METAR|223|ICAO-KSVE|||||||||||||52|Derived||FM15-METAR|223|ICAO-KSVE|0.4|Derived||FM15-METAR|223|ICAO-KSVE|||||||||||||||||||||||||||||||||||||||||||||||||||||||||||||||||||1023.0||1|FM15-METAR|223|ICAO-KSVE|||||||||||||||||||||||||||||||||||||||||||MET062METAR KSVE 272255Z AUTO 11006KT 10SM CLR 04/M05 A3021 RMK AO2=||F||223|ICAO-KSVE
USI0000KSVE|SUSANVILLE MUNI|2016|12|27|23|15|40.3757|-120.5727|1264.6|6.0||1|FM15-METAR|223|ICAO-KSVE|-3.0||1|FM15-METAR|223|ICAO-KSVE|878.9||4|FM15-METAR|223|ICAO-KSVE|||||||090|N-Normal|1|FM15-METAR|223|ICAO-KSVE|3.1|N-Normal|1|FM15-METAR|223|ICAO-KSVE|||||||||||||53|Derived||FM15-METAR|223|ICAO-KSVE|2.3|Derived||FM15-METAR|223|ICAO-KSVE|||||||||||||||||||||||||||||||||||||||||||||||||||||||||||||||||||1022.7||1|FM15-METAR|223|ICAO-KSVE|||||||||||||||||||||||||||||||||||||||||||MET062METAR KSVE 272315Z AUTO 09006KT 10SM CLR 06/M03 A3020 RMK AO2=||F||223|ICAO-KSVE
USI0000KSVE|SUSANVILLE MUNI|2016|12|27|23|35|40.3757|-120.5727|1264.6|4.0||1|FM15-METAR|223|ICAO-KSVE|-3.0||1|FM15-METAR|223|ICAO-KSVE|879.2||4|FM15-METAR|223|ICAO-KSVE|||||||110|N-Normal|1|FM15-METAR|223|ICAO-KSVE|1.5|N-Normal|1|FM15-METAR|223|ICAO-KSVE|||||||||||||61|Derived||FM15-METAR|223|ICAO-KSVE|1.1|Derived||FM15-METAR|223|ICAO-KSVE|||||||||||||||||||||||||||||||||||||||||||||||||||||||||||||||||||1023.0||1|FM15-METAR|223|ICAO-KSVE|||||||||||||||||||||||||||||||||||||||||||MET062METAR KSVE 272335Z AUTO 11003KT 10SM CLR 04/M03 A3021 RMK AO2=||F||223|ICAO-KSVE
USI0000KSVE|SUSANVILLE MUNI|2016|12|27|23|55|40.3757|-120.5727|1264.6|4.0||1|FM15-METAR|223|ICAO-KSVE|-3.0||1|FM15-METAR|223|ICAO-KSVE|879.2||4|FM15-METAR|223|ICAO-KSVE|||||||030|N-Normal|1|FM15-METAR|223|ICAO-KSVE|2.6|N-Normal|1|FM15-METAR|223|ICAO-KSVE|||||||||||||61|Derived||FM15-METAR|223|ICAO-KSVE|1.1|Derived||FM15-METAR|223|ICAO-KSVE|||||||||||||||||||||||||||||||||||||||||||||||||||||||||||||||||||1023.0||1|FM15-METAR|223|ICAO-KSVE|||||||||||||||||||||||||||||||||||||||||||MET062METAR KSVE 272355Z AUTO 03005KT 10SM CLR 04/M03 A3021 RMK AO2=||F||223|ICAO-KSVE
USI0000KSVE|SUSANVILLE MUNI|2016|12|28|00|15|40.3757|-120.5727|1264.6|4.0||1|FM15-METAR|223|ICAO-KSVE|-3.0||1|FM15-METAR|223|ICAO-KSVE|879.2||4|FM15-METAR|223|ICAO-KSVE|||||||999|C-Calm|9|FM15-METAR|223|ICAO-KSVE|0.0|C-Calm|1|FM15-METAR|223|ICAO-KSVE|||||||||||||61|Derived||FM15-METAR|223|ICAO-KSVE|1.1|Derived||FM15-METAR|223|ICAO-KSVE|||||||||||||||||||||||||||||||||||||||||||||||||||||||||||||||||||1023.0||1|FM15-METAR|223|ICAO-KSVE|||||||||||||||||||||||||||||||||||||||||||MET062METAR KSVE 280015Z AUTO 00000KT 10SM CLR 04/M03 A3021 RMK AO2=||F||223|ICAO-KSVE
USI0000KSVE|SUSANVILLE MUNI|2016|12|28|00|35|40.3757|-120.5727|1264.6|4.0||1|FM15-METAR|223|ICAO-KSVE|-4.0||1|FM15-METAR|223|ICAO-KSVE|879.2||4|FM15-METAR|223|ICAO-KSVE|||||||999|C-Calm|9|FM15-METAR|223|ICAO-KSVE|0.0|C-Calm|1|FM15-METAR|223|ICAO-KSVE|||||||||||||56|Derived||FM15-METAR|223|ICAO-KSVE|0.7|Derived||FM15-METAR|223|ICAO-KSVE|||||||||||||||||||||||||||||||||||||||||||||||||||||||||||||||||||1023.0||1|FM15-METAR|223|ICAO-KSVE|||||||||||||||||||||||||||||||||||||||||||MET062METAR KSVE 280035Z AUTO 00000KT 10SM CLR 04/M04 A3021 RMK AO2=||F||223|ICAO-KSVE
USI0000KSVE|SUSANVILLE MUNI|2016|12|28|00|55|40.3757|-120.5727|1264.6|4.0||1|FM15-METAR|223|ICAO-KSVE|-5.0||1|FM15-METAR|223|ICAO-KSVE|879.2||4|FM15-METAR|223|ICAO-KSVE|||||||999|C-Calm|9|FM15-METAR|223|ICAO-KSVE|0.0|C-Calm|1|FM15-METAR|223|ICAO-KSVE|||||||||||||52|Derived||FM15-METAR|223|ICAO-KSVE|0.4|Derived||FM15-METAR|223|ICAO-KSVE|||||||||||||||||||||||||||||||||||||||||||||||||||||||||||||||||||1023.0||1|FM15-METAR|223|ICAO-KSVE|||||||||||||||||||||||||||||||||||||||||||MET062METAR KSVE 280055Z AUTO 00000KT 10SM CLR 04/M05 A3021 RMK AO2=||F||223|ICAO-KSVE
USI0000KSVE|SUSANVILLE MUNI|2016|12|28|01|15|40.3757|-120.5727|1264.6|4.0||1|FM15-METAR|223|ICAO-KSVE|-5.0||1|FM15-METAR|223|ICAO-KSVE|879.2||4|FM15-METAR|223|ICAO-KSVE|||||||999|C-Calm|9|FM15-METAR|223|ICAO-KSVE|0.0|C-Calm|1|FM15-METAR|223|ICAO-KSVE|||||||||||||52|Derived||FM15-METAR|223|ICAO-KSVE|0.4|Derived||FM15-METAR|223|ICAO-KSVE|||||||||||||||||||||||||||||||||||||||||||||||||||||||||||||||||||1023.0||1|FM15-METAR|223|ICAO-KSVE|||||||||||||||||||||||||||||||||||||||||||MET062METAR KSVE 280115Z AUTO 00000KT 10SM CLR 04/M05 A3021 RMK AO2=||F||223|ICAO-KSVE
USI0000KSVE|SUSANVILLE MUNI|2016|12|28|01|35|40.3757|-120.5727|1264.6|5.0||1|FM15-METAR|223|ICAO-KSVE|-5.0||1|FM15-METAR|223|ICAO-KSVE|879.2||4|FM15-METAR|223|ICAO-KSVE|||||||999|C-Calm|9|FM15-METAR|223|ICAO-KSVE|0.0|C-Calm|1|FM15-METAR|223|ICAO-KSVE|||||||||||||49|Derived||FM15-METAR|223|ICAO-KSVE|1.0|Derived||FM15-METAR|223|ICAO-KSVE|||||||||||||||||||||||||||||||||||||||||||||||||||||||||||||||||||1023.0||1|FM15-METAR|223|ICAO-KSVE|||||||||||||||||||||||||||||||||||||||||||MET062METAR KSVE 280135Z AUTO 00000KT 10SM CLR 05/M05 A3021 RMK AO2=||F||223|ICAO-KSVE
USI0000KSVE|SUSANVILLE MUNI|2016|12|28|01|55|40.3757|-120.5727|1264.6|4.0||1|FM15-METAR|223|ICAO-KSVE|-5.0||1|FM15-METAR|223|ICAO-KSVE|879.5||4|FM15-METAR|223|ICAO-KSVE|||||||040|N-Normal|1|FM15-METAR|223|ICAO-KSVE|2.1|N-Normal|1|FM15-METAR|223|ICAO-KSVE|||||||||||||52|Derived||FM15-METAR|223|ICAO-KSVE|0.4|Derived||FM15-METAR|223|ICAO-KSVE|||||||||||||||||||||||||||||||||||||||||||||||||||||||||||||||||||1023.4||1|FM15-METAR|223|ICAO-KSVE|||||||||||||||||||||||||||||||||||||||||||MET062METAR KSVE 280155Z AUTO 04004KT 10SM CLR 04/M05 A3022 RMK AO2=||F||223|ICAO-KSVE
USI0000KSVE|SUSANVILLE MUNI|2016|12|28|02|15|40.3757|-120.5727|1264.6|4.0||1|FM15-METAR|223|ICAO-KSVE|-3.0||1|FM15-METAR|223|ICAO-KSVE|879.5||4|FM15-METAR|223|ICAO-KSVE|||||||070|N-Normal|1|FM15-METAR|223|ICAO-KSVE|1.5|N-Normal|1|FM15-METAR|223|ICAO-KSVE|||||||||||||61|Derived||FM15-METAR|223|ICAO-KSVE|1.1|Derived||FM15-METAR|223|ICAO-KSVE|||||||||||||||||||||||||||||||||||||||||||||||||||||||||||||||||||1023.4||1|FM15-METAR|223|ICAO-KSVE|||||||||||||||||||||||||||||||||||||||||||MET062METAR KSVE 280215Z AUTO 07003KT 10SM CLR 04/M03 A3022 RMK AO2=||F||223|ICAO-KSVE
USI0000KSVE|SUSANVILLE MUNI|2016|12|28|02|35|40.3757|-120.5727|1264.6|4.0||1|FM15-METAR|223|ICAO-KSVE|-3.0||1|FM15-METAR|223|ICAO-KSVE|879.5||4|FM15-METAR|223|ICAO-KSVE|||||||070|N-Normal|1|FM15-METAR|223|ICAO-KSVE|2.6|N-Normal|1|FM15-METAR|223|ICAO-KSVE|||||||||||||61|Derived||FM15-METAR|223|ICAO-KSVE|1.1|Derived||FM15-METAR|223|ICAO-KSVE|||||||||||||||||||||||||||||||||||||||||||||||||||||||||||||||||||1023.4||1|FM15-METAR|223|ICAO-KSVE|||||||||||||||||||||||||||||||||||||||||||MET062METAR KSVE 280235Z AUTO 07005KT 10SM CLR 04/M03 A3022 RMK AO2=||F||223|ICAO-KSVE
USI0000KSVE|SUSANVILLE MUNI|2016|12|28|02|55|40.3757|-120.5727|1264.6|6.0||1|FM15-METAR|223|ICAO-KSVE|-4.0||1|FM15-METAR|223|ICAO-KSVE|879.8||4|FM15-METAR|223|ICAO-KSVE|||||||999|C-Calm|9|FM15-METAR|223|ICAO-KSVE|0.0|C-Calm|1|FM15-METAR|223|ICAO-KSVE|||||||||||||49|Derived||FM15-METAR|223|ICAO-KSVE|2.0|Derived||FM15-METAR|223|ICAO-KSVE|||||||||||||||||||||||||||||||||||||||||||||||||||||||||||||||||||1023.7||1|FM15-METAR|223|ICAO-KSVE|||||||||||||||||||||||||||||||||||||||||||MET062METAR KSVE 280255Z AUTO 00000KT 10SM CLR 06/M04 A3023 RMK AO2=||F||223|ICAO-KSVE
USI0000KSVE|SUSANVILLE MUNI|2016|12|28|03|15|40.3757|-120.5727|1264.6|6.0||1|FM15-METAR|223|ICAO-KSVE|-4.0||1|FM15-METAR|223|ICAO-KSVE|879.8||4|FM15-METAR|223|ICAO-KSVE|||||||350|N-Normal|1|FM15-METAR|223|ICAO-KSVE|3.1|N-Normal|1|FM15-METAR|223|ICAO-KSVE|||||||||||||49|Derived||FM15-METAR|223|ICAO-KSVE|2.0|Derived||FM15-METAR|223|ICAO-KSVE|||||||||||||||||||||||||||||||||||||||||||||||||||||||||||||||||||1023.7||1|FM15-METAR|223|ICAO-KSVE|||||||||||||||||||||||||||||||||||||||||||MET062METAR KSVE 280315Z AUTO 35006KT 10SM CLR 06/M04 A3023 RMK AO2=||F||223|ICAO-KSVE
USI0000KSVE|SUSANVILLE MUNI|2016|12|28|03|35|40.3757|-120.5727|1264.6|6.0||1|FM15-METAR|223|ICAO-KSVE|-4.0||1|FM15-METAR|223|ICAO-KSVE|879.8||4|FM15-METAR|223|ICAO-KSVE|||||||280|V-Variable|1|FM15-METAR|223|ICAO-KSVE|3.6|V-Variable|1|FM15-METAR|223|ICAO-KSVE|||||||||||||49|Derived||FM15-METAR|223|ICAO-KSVE|2.0|Derived||FM15-METAR|223|ICAO-KSVE|||||||||||||||||||||||||||||||||||||||||||||||||||||||||||||||||||1023.7||1|FM15-METAR|223|ICAO-KSVE|||||||||||||||||||||||||||||||||||||||||||MET070METAR KSVE 280335Z AUTO 28007KT 040V050 10SM CLR 06/M04 A3023 RMK AO2=||F||223|ICAO-KSVE
USI0000KSVE|SUSANVILLE MUNI|2016|12|28|03|55|40.3757|-120.5727|1264.6|6.0||1|FM15-METAR|223|ICAO-KSVE|-4.0||1|FM15-METAR|223|ICAO-KSVE|880.1||4|FM15-METAR|223|ICAO-KSVE|||||||360|N-Normal|1|FM15-METAR|223|ICAO-KSVE|3.6|N-Normal|1|FM15-METAR|223|ICAO-KSVE|||||||||||||49|Derived||FM15-METAR|223|ICAO-KSVE|2.0|Derived||FM15-METAR|223|ICAO-KSVE|||||||||||||||||||||||||||||||||||||||||||||||||||||||||||||||||||1024.0||1|FM15-METAR|223|ICAO-KSVE|||||||||||||||||||||||||||||||||||||||||||MET062METAR KSVE 280355Z AUTO 36007KT 10SM CLR 06/M04 A3024 RMK AO2=||F||223|ICAO-KSVE
USI0000KSVE|SUSANVILLE MUNI|2016|12|28|04|15|40.3757|-120.5727|1264.6|6.0||1|FM15-METAR|223|ICAO-KSVE|-4.0||1|FM15-METAR|223|ICAO-KSVE|880.4||4|FM15-METAR|223|ICAO-KSVE|||||||340|N-Normal|1|FM15-METAR|223|ICAO-KSVE|3.1|N-Normal|1|FM15-METAR|223|ICAO-KSVE|||||||||||||49|Derived||FM15-METAR|223|ICAO-KSVE|2.0|Derived||FM15-METAR|223|ICAO-KSVE|||||||||||||||||||||||||||||||||||||||||||||||||||||||||||||||||||1024.4||1|FM15-METAR|223|ICAO-KSVE|||||||||||||||||||||||||||||||||||||||||||MET062METAR KSVE 280415Z AUTO 34006KT 10SM CLR 06/M04 A3025 RMK AO2=||F||223|ICAO-KSVE
USI0000KSVE|SUSANVILLE MUNI|2016|12|28|04|35|40.3757|-120.5727|1264.6|5.0||1|FM15-METAR|223|ICAO-KSVE|-4.0||1|FM15-METAR|223|ICAO-KSVE|880.4||4|FM15-METAR|223|ICAO-KSVE|||||||340|N-Normal|1|FM15-METAR|223|ICAO-KSVE|3.1|N-Normal|1|FM15-METAR|223|ICAO-KSVE|||||||||||||53|Derived||FM15-METAR|223|ICAO-KSVE|1.4|Derived||FM15-METAR|223|ICAO-KSVE|||||||||||||||||||||||||||||||||||||||||||||||||||||||||||||||||||1024.4||1|FM15-METAR|223|ICAO-KSVE|||||||||||||||||||||||||||||||||||||||||||MET062METAR KSVE 280435Z AUTO 34006KT 10SM CLR 05/M04 A3025 RMK AO2=||F||223|ICAO-KSVE
USI0000KSVE|SUSANVILLE MUNI|2016|12|28|04|55|40.3757|-120.5727|1264.6|4.0||1|FM15-METAR|223|ICAO-KSVE|-4.0||1|FM15-METAR|223|ICAO-KSVE|880.4||4|FM15-METAR|223|ICAO-KSVE|||||||330|N-Normal|1|FM15-METAR|223|ICAO-KSVE|3.6|N-Normal|1|FM15-METAR|223|ICAO-KSVE|||||||||||||56|Derived||FM15-METAR|223|ICAO-KSVE|0.7|Derived||FM15-METAR|223|ICAO-KSVE|||||||||||||||||||||||||||||||||||||||||||||||||||||||||||||||||||1024.4||1|FM15-METAR|223|ICAO-KSVE|||||||||||||||||||||||||||||||||||||||||||MET062METAR KSVE 280455Z AUTO 33007KT 10SM CLR 04/M04 A3025 RMK AO2=||F||223|ICAO-KSVE
USI0000KSVE|SUSANVILLE MUNI|2016|12|28|05|15|40.3757|-120.5727|1264.6|4.0||1|FM15-METAR|223|ICAO-KSVE|-4.0||1|FM15-METAR|223|ICAO-KSVE|880.7||4|FM15-METAR|223|ICAO-KSVE|||||||320|N-Normal|1|FM15-METAR|223|ICAO-KSVE|3.6|N-Normal|1|FM15-METAR|223|ICAO-KSVE|||||||||||||56|Derived||FM15-METAR|223|ICAO-KSVE|0.7|Derived||FM15-METAR|223|ICAO-KSVE|||||||||||||||||||||||||||||||||||||||||||||||||||||||||||||||||||1024.7||1|FM15-METAR|223|ICAO-KSVE|||||||||||||||||||||||||||||||||||||||||||MET062METAR KSVE 280515Z AUTO 32007KT 10SM CLR 04/M04 A3026 RMK AO2=||F||223|ICAO-KSVE
USI0000KSVE|SUSANVILLE MUNI|2016|12|28|05|35|40.3757|-120.5727|1264.6|3.0||1|FM15-METAR|223|ICAO-KSVE|-3.0||1|FM15-METAR|223|ICAO-KSVE|881.0||4|FM15-METAR|223|ICAO-KSVE|||||||350|N-Normal|1|FM15-METAR|223|ICAO-KSVE|1.5|N-Normal|1|FM15-METAR|223|ICAO-KSVE|||||||||||||65|Derived||FM15-METAR|223|ICAO-KSVE|0.5|Derived||FM15-METAR|223|ICAO-KSVE|||||||||||||||||||||||||||||||||||||||||||||||||||||||||||||||||||1025.1||1|FM15-METAR|223|ICAO-KSVE|||||||||||||||||||||||||||||||||||||||||||MET062METAR KSVE 280535Z AUTO 35003KT 10SM CLR 03/M03 A3027 RMK AO2=||F||223|ICAO-KSVE
USI0000KSVE|SUSANVILLE MUNI|2016|12|28|05|55|40.3757|-120.5727|1264.6|3.0||1|FM15-METAR|223|ICAO-KSVE|-3.0||1|FM15-METAR|223|ICAO-KSVE|881.0||4|FM15-METAR|223|ICAO-KSVE|||||||330|N-Normal|1|FM15-METAR|223|ICAO-KSVE|3.1|N-Normal|1|FM15-METAR|223|ICAO-KSVE|||||||||||||65|Derived||FM15-METAR|223|ICAO-KSVE|0.5|Derived||FM15-METAR|223|ICAO-KSVE|||||||||||||||||||||||||||||||||||||||||||||||||||||||||||||||||||1025.1||1|FM15-METAR|223|ICAO-KSVE|||||||||||||||||||||||||||||||||||||||||||MET062METAR KSVE 280555Z AUTO 33006KT 10SM CLR 03/M03 A3027 RMK AO2=||F||223|ICAO-KSVE
USI0000KSVE|SUSANVILLE MUNI|2016|12|28|06|15|40.3757|-120.5727|1264.6|3.0||1|FM15-METAR|223|ICAO-KSVE|-4.0||1|FM15-METAR|223|ICAO-KSVE|881.3||4|FM15-METAR|223|ICAO-KSVE|||||||330|N-Normal|1|FM15-METAR|223|ICAO-KSVE|2.6|N-Normal|1|FM15-METAR|223|ICAO-KSVE|||||||||||||60|Derived||FM15-METAR|223|ICAO-KSVE|0.1|Derived||FM15-METAR|223|ICAO-KSVE|||||||||||||||||||||||||||||||||||||||||||||||||||||||||||||||||||1025.4||1|FM15-METAR|223|ICAO-KSVE|||||||||||||||||||||||||||||||||||||||||||MET062METAR KSVE 280615Z AUTO 33005KT 10SM CLR 03/M04 A3028 RMK AO2=||F||223|ICAO-KSVE
USI0000KSVE|SUSANVILLE MUNI|2016|12|28|06|35|40.3757|-120.5727|1264.6|3.0||1|FM15-METAR|223|ICAO-KSVE|-4.0||1|FM15-METAR|223|ICAO-KSVE|881.3||4|FM15-METAR|223|ICAO-KSVE|||||||330|N-Normal|1|FM15-METAR|223|ICAO-KSVE|3.1|N-Normal|1|FM15-METAR|223|ICAO-KSVE|||||||||||||60|Derived||FM15-METAR|223|ICAO-KSVE|0.1|Derived||FM15-METAR|223|ICAO-KSVE|||||||||||||||||||||||||||||||||||||||||||||||||||||||||||||||||||1025.4||1|FM15-METAR|223|ICAO-KSVE|||||||||||||||||||||||||||||||||||||||||||MET062METAR KSVE 280635Z AUTO 33006KT 10SM CLR 03/M04 A3028 RMK AO2=||F||223|ICAO-KSVE
USI0000KSVE|SUSANVILLE MUNI|2016|12|28|06|55|40.3757|-120.5727|1264.6|4.0||1|FM15-METAR|223|ICAO-KSVE|-5.0||1|FM15-METAR|223|ICAO-KSVE|881.6||4|FM15-METAR|223|ICAO-KSVE|||||||340|N-Normal|1|FM15-METAR|223|ICAO-KSVE|4.6|N-Normal|1|FM15-METAR|223|ICAO-KSVE|||||||||||||52|Derived||FM15-METAR|223|ICAO-KSVE|0.4|Derived||FM15-METAR|223|ICAO-KSVE|||||||||||||||||||||||||||||||||||||||||||||||||||||||||||||||||||1025.7||1|FM15-METAR|223|ICAO-KSVE|||||||||||||||||||||||||||||||||||||||||||MET062METAR KSVE 280655Z AUTO 34009KT 10SM CLR 04/M05 A3029 RMK AO2=||F||223|ICAO-KSVE
USI0000KSVE|SUSANVILLE MUNI|2016|12|28|07|15|40.3757|-120.5727|1264.6|4.0||1|FM15-METAR|223|ICAO-KSVE|-5.0||1|FM15-METAR|223|ICAO-KSVE|881.6||4|FM15-METAR|223|ICAO-KSVE|||||||340|N-Normal|1|FM15-METAR|223|ICAO-KSVE|5.1|N-Normal|1|FM15-METAR|223|ICAO-KSVE|||||||||||||52|Derived||FM15-METAR|223|ICAO-KSVE|0.4|Derived||FM15-METAR|223|ICAO-KSVE|||||||||||||||||||||||||||||||||||||||||||||||||||||||||||||||||||1025.7||1|FM15-METAR|223|ICAO-KSVE|||||||||||||||||||||||||||||||||||||||||||MET062METAR KSVE 280715Z AUTO 34010KT 10SM CLR 04/M05 A3029 RMK AO2=||F||223|ICAO-KSVE
USI0000KSVE|SUSANVILLE MUNI|2016|12|28|07|35|40.3757|-120.5727|1264.6|4.0||1|FM15-METAR|223|ICAO-KSVE|-5.0||1|FM15-METAR|223|ICAO-KSVE|881.6||4|FM15-METAR|223|ICAO-KSVE|||||||320|N-Normal|1|FM15-METAR|223|ICAO-KSVE|3.6|N-Normal|1|FM15-METAR|223|ICAO-KSVE|||||||||||||52|Derived||FM15-METAR|223|ICAO-KSVE|0.4|Derived||FM15-METAR|223|ICAO-KSVE|||||||||||||||||||||||||||||||||||||||||||||||||||||||||||||||||||1025.7||1|FM15-METAR|223|ICAO-KSVE|||||||||||||||||||||||||||||||||||||||||||MET062METAR KSVE 280735Z AUTO 32007KT 10SM CLR 04/M05 A3029 RMK AO2=||F||223|ICAO-KSVE
USI0000KSVE|SUSANVILLE MUNI|2016|12|28|07|55|40.3757|-120.5727|1264.6|3.0||1|FM15-METAR|223|ICAO-KSVE|-5.0||1|FM15-METAR|223|ICAO-KSVE|881.6||4|FM15-METAR|223|ICAO-KSVE|||||||320|N-Normal|1|FM15-METAR|223|ICAO-KSVE|2.6|N-Normal|1|FM15-METAR|223|ICAO-KSVE|||||||||||||56|Derived||FM15-METAR|223|ICAO-KSVE|-0.3|Derived||FM15-METAR|223|ICAO-KSVE|||||||||||||||||||||||||||||||||||||||||||||||||||||||||||||||||||1025.7||1|FM15-METAR|223|ICAO-KSVE|||||||||||||||||||||||||||||||||||||||||||MET062METAR KSVE 280755Z AUTO 32005KT 10SM CLR 03/M05 A3029 RMK AO2=||F||223|ICAO-KSVE
USI0000KSVE|SUSANVILLE MUNI|2016|12|28|08|15|40.3757|-120.5727|1264.6|3.0||1|FM15-METAR|223|ICAO-KSVE|-5.0||1|FM15-METAR|223|ICAO-KSVE|881.6||4|FM15-METAR|223|ICAO-KSVE|||||||330|N-Normal|1|FM15-METAR|223|ICAO-KSVE|4.1|N-Normal|1|FM15-METAR|223|ICAO-KSVE|||||||||||||56|Derived||FM15-METAR|223|ICAO-KSVE|-0.3|Derived||FM15-METAR|223|ICAO-KSVE|||||||||||||||||||||||||||||||||||||||||||||||||||||||||||||||||||1025.7||1|FM15-METAR|223|ICAO-KSVE|||||||||||||||||||||||||||||||||||||||||||MET062METAR KSVE 280815Z AUTO 33008KT 10SM CLR 03/M05 A3029 RMK AO2=||F||223|ICAO-KSVE
USI0000KSVE|SUSANVILLE MUNI|2016|12|28|08|35|40.3757|-120.5727|1264.6|3.0||1|FM15-METAR|223|ICAO-KSVE|-5.0||1|FM15-METAR|223|ICAO-KSVE|881.6||4|FM15-METAR|223|ICAO-KSVE|||||||310|N-Normal|1|FM15-METAR|223|ICAO-KSVE|3.6|N-Normal|1|FM15-METAR|223|ICAO-KSVE|||||||||||||56|Derived||FM15-METAR|223|ICAO-KSVE|-0.3|Derived||FM15-METAR|223|ICAO-KSVE|||||||||||||||||||||||||||||||||||||||||||||||||||||||||||||||||||1025.7||1|FM15-METAR|223|ICAO-KSVE|||||||||||||||||||||||||||||||||||||||||||MET062METAR KSVE 280835Z AUTO 31007KT 10SM CLR 03/M05 A3029 RMK AO2=||F||223|ICAO-KSVE
USI0000KSVE|SUSANVILLE MUNI|2016|12|28|08|55|40.3757|-120.5727|1264.6|1.0||1|FM15-METAR|223|ICAO-KSVE|-5.0||1|FM15-METAR|223|ICAO-KSVE|881.3||4|FM15-METAR|223|ICAO-KSVE|||||||290|N-Normal|1|FM15-METAR|223|ICAO-KSVE|3.1|N-Normal|1|FM15-METAR|223|ICAO-KSVE|||||||||||||65|Derived||FM15-METAR|223|ICAO-KSVE|-1.2|Derived||FM15-METAR|223|ICAO-KSVE|||||||||||||||||||||||||||||||||||||||||||||||||||||||||||||||||||1025.4||1|FM15-METAR|223|ICAO-KSVE|||||||||||||||||||||||||||||||||||||||||||MET062METAR KSVE 280855Z AUTO 29006KT 10SM CLR 01/M05 A3028 RMK AO2=||F||223|ICAO-KSVE
USI0000KSVE|SUSANVILLE MUNI|2016|12|28|09|15|40.3757|-120.5727|1264.6|2.0||1|FM15-METAR|223|ICAO-KSVE|-5.0||1|FM15-METAR|223|ICAO-KSVE|881.3||4|FM15-METAR|223|ICAO-KSVE|||||||310|N-Normal|1|FM15-METAR|223|ICAO-KSVE|4.1|N-Normal|1|FM15-METAR|223|ICAO-KSVE|||||||||||||60|Derived||FM15-METAR|223|ICAO-KSVE|-0.6|Derived||FM15-METAR|223|ICAO-KSVE|||||||||||||||||||||||||||||||||||||||||||||||||||||||||||||||||||1025.4||1|FM15-METAR|223|ICAO-KSVE|||||||||||||||||||||||||||||||||||||||||||MET062METAR KSVE 280915Z AUTO 31008KT 10SM CLR 02/M05 A3028 RMK AO2=||F||223|ICAO-KSVE
USI0000KSVE|SUSANVILLE MUNI|2016|12|28|09|35|40.3757|-120.5727|1264.6|1.0||1|FM15-METAR|223|ICAO-KSVE|-5.0||1|FM15-METAR|223|ICAO-KSVE|881.6||4|FM15-METAR|223|ICAO-KSVE|||||||999|C-Calm|9|FM15-METAR|223|ICAO-KSVE|0.0|C-Calm|1|FM15-METAR|223|ICAO-KSVE|||||||||||||65|Derived||FM15-METAR|223|ICAO-KSVE|-1.2|Derived||FM15-METAR|223|ICAO-KSVE|||||||||||||||||||||||||||||||||||||||||||||||||||||||||||||||||||1025.7||1|FM15-METAR|223|ICAO-KSVE|||||||||||||||||||||||||||||||||||||||||||MET062METAR KSVE 280935Z AUTO 00000KT 10SM CLR 01/M05 A3029 RMK AO2=||F||223|ICAO-KSVE
USI0000KSVE|SUSANVILLE MUNI|2016|12|28|09|55|40.3757|-120.5727|1264.6|2.0||1|FM15-METAR|223|ICAO-KSVE|-5.0||1|FM15-METAR|223|ICAO-KSVE|881.6||4|FM15-METAR|223|ICAO-KSVE|||||||310|N-Normal|1|FM15-METAR|223|ICAO-KSVE|4.1|N-Normal|1|FM15-METAR|223|ICAO-KSVE|||||||||||||60|Derived||FM15-METAR|223|ICAO-KSVE|-0.6|Derived||FM15-METAR|223|ICAO-KSVE|||||||||||||||||||||||||||||||||||||||||||||||||||||||||||||||||||1025.7||1|FM15-METAR|223|ICAO-KSVE|||||||||||||||||||||||||||||||||||||||||||MET062METAR KSVE 280955Z AUTO 31008KT 10SM CLR 02/M05 A3029 RMK AO2=||F||223|ICAO-KSVE
USI0000KSVE|SUSANVILLE MUNI|2016|12|28|10|15|40.3757|-120.5727|1264.6|0.0||1|FM15-METAR|223|ICAO-KSVE|-5.0||1|FM15-METAR|223|ICAO-KSVE|881.9||4|FM15-METAR|223|ICAO-KSVE|||||||190|N-Normal|1|FM15-METAR|223|ICAO-KSVE|1.5|N-Normal|1|FM15-METAR|223|ICAO-KSVE|||||||||||||69|Derived||FM15-METAR|223|ICAO-KSVE|-1.9|Derived||FM15-METAR|223|ICAO-KSVE|||||||||||||||||||||||||||||||||||||||||||||||||||||||||||||||||||1026.1||1|FM15-METAR|223|ICAO-KSVE|||||||||||||||||||||||||||||||||||||||||||MET062METAR KSVE 281015Z AUTO 19003KT 10SM CLR 00/M05 A3030 RMK AO2=||F||223|ICAO-KSVE
USI0000KSVE|SUSANVILLE MUNI|2016|12|28|10|35|40.3757|-120.5727|1264.6|2.0||1|FM15-METAR|223|ICAO-KSVE|-5.0||1|FM15-METAR|223|ICAO-KSVE|881.9||4|FM15-METAR|223|ICAO-KSVE|||||||999|C-Calm|9|FM15-METAR|223|ICAO-KSVE|0.0|C-Calm|1|FM15-METAR|223|ICAO-KSVE|||||||||||||60|Derived||FM15-METAR|223|ICAO-KSVE|-0.6|Derived||FM15-METAR|223|ICAO-KSVE|||||||||||||||||||||||||||||||||||||||||||||||||||||||||||||||||||1026.1||1|FM15-METAR|223|ICAO-KSVE|||||||||||||||||||||||||||||||||||||||||||MET062METAR KSVE 281035Z AUTO 00000KT 10SM CLR 02/M05 A3030 RMK AO2=||F||223|ICAO-KSVE
USI0000KSVE|SUSANVILLE MUNI|2016|12|28|10|55|40.3757|-120.5727|1264.6|0.0||1|FM15-METAR|223|ICAO-KSVE|-5.0||1|FM15-METAR|223|ICAO-KSVE|881.9||4|FM15-METAR|223|ICAO-KSVE|||||||140|N-Normal|1|FM15-METAR|223|ICAO-KSVE|2.6|N-Normal|1|FM15-METAR|223|ICAO-KSVE|||||||||||||69|Derived||FM15-METAR|223|ICAO-KSVE|-1.9|Derived||FM15-METAR|223|ICAO-KSVE|||||||||||||||||||||||||||||||||||||||||||||||||||||||||||||||||||1026.1||1|FM15-METAR|223|ICAO-KSVE|||||||||||||||||||||||||||||||||||||||||||MET062METAR KSVE 281055Z AUTO 14005KT 10SM CLR 00/M05 A3030 RMK AO2=||F||223|ICAO-KSVE
USI0000KSVE|SUSANVILLE MUNI|2016|12|28|11|15|40.3757|-120.5727|1264.6|0.0||1|FM15-METAR|223|ICAO-KSVE|-5.0||1|FM15-METAR|223|ICAO-KSVE|881.9||4|FM15-METAR|223|ICAO-KSVE|||||||280|N-Normal|1|FM15-METAR|223|ICAO-KSVE|1.5|N-Normal|1|FM15-METAR|223|ICAO-KSVE|||||||||||||69|Derived||FM15-METAR|223|ICAO-KSVE|-1.9|Derived||FM15-METAR|223|ICAO-KSVE|||||||||||||||||||||||||||||||||||||||||||||||||||||||||||||||||||1026.1||1|FM15-METAR|223|ICAO-KSVE|||||||||||||||||||||||||||||||||||||||||||MET062METAR KSVE 281115Z AUTO 28003KT 10SM CLR 00/M05 A3030 RMK AO2=||F||223|ICAO-KSVE
USI0000KSVE|SUSANVILLE MUNI|2016|12|28|11|35|40.3757|-120.5727|1264.6|0.0||1|FM15-METAR|223|ICAO-KSVE|-5.0||1|FM15-METAR|223|ICAO-KSVE|882.2||4|FM15-METAR|223|ICAO-KSVE|||||||130|N-Normal|1|FM15-METAR|223|ICAO-KSVE|2.6|N-Normal|1|FM15-METAR|223|ICAO-KSVE|||||||||||||69|Derived||FM15-METAR|223|ICAO-KSVE|-1.9|Derived||FM15-METAR|223|ICAO-KSVE|||||||||||||||||||||||||||||||||||||||||||||||||||||||||||||||||||1026.4||1|FM15-METAR|223|ICAO-KSVE|||||||||||||||||||||||||||||||||||||||||||MET062METAR KSVE 281135Z AUTO 13005KT 10SM CLR 00/M05 A3031 RMK AO2=||F||223|ICAO-KSVE
USI0000KSVE|SUSANVILLE MUNI|2016|12|28|11|55|40.3757|-120.5727|1264.6|0.0||1|FM15-METAR|223|ICAO-KSVE|-5.0||1|FM15-METAR|223|ICAO-KSVE|882.2||4|FM15-METAR|223|ICAO-KSVE|||||||130|N-Normal|1|FM15-METAR|223|ICAO-KSVE|2.1|N-Normal|1|FM15-METAR|223|ICAO-KSVE|||||||||||||69|Derived||FM15-METAR|223|ICAO-KSVE|-1.9|Derived||FM15-METAR|223|ICAO-KSVE|||||||||||||||||||||||||||||||||||||||||||||||||||||||||||||||||||1026.4||1|FM15-METAR|223|ICAO-KSVE|||||||||||||||||||||||||||||||||||||||||||MET062METAR KSVE 281155Z AUTO 13004KT 10SM CLR 00/M05 A3031 RMK AO2=||F||223|ICAO-KSVE
USI0000KSVE|SUSANVILLE MUNI|2016|12|28|12|15|40.3757|-120.5727|1264.6|0.0||1|FM15-METAR|223|ICAO-KSVE|-5.0||1|FM15-METAR|223|ICAO-KSVE|882.2||4|FM15-METAR|223|ICAO-KSVE|||||||130|N-Normal|1|FM15-METAR|223|ICAO-KSVE|1.5|N-Normal|1|FM15-METAR|223|ICAO-KSVE|||||||||||||69|Derived||FM15-METAR|223|ICAO-KSVE|-1.9|Derived||FM15-METAR|223|ICAO-KSVE|||||||||||||||||||||||||||||||||||||||||||||||||||||||||||||||||||1026.4||1|FM15-METAR|223|ICAO-KSVE|||||||||||||||||||||||||||||||||||||||||||MET062METAR KSVE 281215Z AUTO 13003KT 10SM CLR 00/M05 A3031 RMK AO2=||F||223|ICAO-KSVE
USI0000KSVE|SUSANVILLE MUNI|2016|12|28|12|35|40.3757|-120.5727|1264.6|-2.0||1|FM15-METAR|223|ICAO-KSVE|-6.0||1|FM15-METAR|223|ICAO-KSVE|882.4||4|FM15-METAR|223|ICAO-KSVE|||||||||||||||||||||||||||||||74|Derived||FM15-METAR|223|ICAO-KSVE|-3.6|Derived||FM15-METAR|223|ICAO-KSVE|||||||||||||||||||||||||||||||||||||||||||||||||||||||||||||||||||1026.7||1|FM15-METAR|223|ICAO-KSVE|||||||||||||||||||||||||||||||||||||||||||MET055METAR KSVE 281235Z AUTO 10SM CLR M02/M06 A3032 RMK AO2=||F||223|ICAO-KSVE
USI0000KSVE|SUSANVILLE MUNI|2016|12|28|12|55|40.3757|-120.5727|1264.6|-2.0||1|FM15-METAR|223|ICAO-KSVE|-5.0||1|FM15-METAR|223|ICAO-KSVE|882.4||4|FM15-METAR|223|ICAO-KSVE|||||||999|C-Calm|9|FM15-METAR|223|ICAO-KSVE|0.0|C-Calm|1|FM15-METAR|223|ICAO-KSVE|||||||||||||80|Derived||FM15-METAR|223|ICAO-KSVE|-3.2|Derived||FM15-METAR|223|ICAO-KSVE|||||||||||||||||||||||||||||||||||||||||||||||||||||||||||||||||||1026.7||1|FM15-METAR|223|ICAO-KSVE|||||||||||||||||||||||||||||||||||||||||||MET063METAR KSVE 281255Z AUTO 00000KT 10SM CLR M02/M05 A3032 RMK AO2=||F||223|ICAO-KSVE
USI0000KSVE|SUSANVILLE MUNI|2016|12|28|13|15|40.3757|-120.5727|1264.6|-3.0||1|FM15-METAR|223|ICAO-KSVE|-6.0||1|FM15-METAR|223|ICAO-KSVE|882.4||4|FM15-METAR|223|ICAO-KSVE|||||||270|N-Normal|1|FM15-METAR|223|ICAO-KSVE|1.5|N-Normal|1|FM15-METAR|223|ICAO-KSVE|||||||||||||80|Derived||FM15-METAR|223|ICAO-KSVE|-4.0|Derived||FM15-METAR|223|ICAO-KSVE|||||||||||||||||||||||||||||||||||||||||||||||||||||||||||||||||||1026.7||1|FM15-METAR|223|ICAO-KSVE|||||||||||||||||||||||||||||||||||||||||||MET063METAR KSVE 281315Z AUTO 27003KT 10SM CLR M03/M06 A3032 RMK AO2=||F||223|ICAO-KSVE
USI0000KSVE|SUSANVILLE MUNI|2016|12|28|13|35|40.3757|-120.5727|1264.6|-3.0||1|FM15-METAR|223|ICAO-KSVE|-6.0||1|FM15-METAR|223|ICAO-KSVE|882.8||4|FM15-METAR|223|ICAO-KSVE|||||||300|N-Normal|1|FM15-METAR|223|ICAO-KSVE|2.1|N-Normal|1|FM15-METAR|223|ICAO-KSVE|||||||||||||80|Derived||FM15-METAR|223|ICAO-KSVE|-4.0|Derived||FM15-METAR|223|ICAO-KSVE|||||||||||||||||||||||||||||||||||||||||||||||||||||||||||||||||||1027.1||1|FM15-METAR|223|ICAO-KSVE|||||||||||||||||||||||||||||||||||||||||||MET063METAR KSVE 281335Z AUTO 30004KT 10SM CLR M03/M06 A3033 RMK AO2=||F||223|ICAO-KSVE
USI0000KSVE|SUSANVILLE MUNI|2016|12|28|13|55|40.3757|-120.5727|1264.6|-3.0||1|FM15-METAR|223|ICAO-KSVE|-6.0||1|FM15-METAR|223|ICAO-KSVE|883.1||4|FM15-METAR|223|ICAO-KSVE|||||||280|N-Normal|1|FM15-METAR|223|ICAO-KSVE|2.6|N-Normal|1|FM15-METAR|223|ICAO-KSVE|||||||||||||80|Derived||FM15-METAR|223|ICAO-KSVE|-4.0|Derived||FM15-METAR|223|ICAO-KSVE|||||||||||||||||||||||||||||||||||||||||||||||||||||||||||||||||||1027.4||1|FM15-METAR|223|ICAO-KSVE|||||||||||||||||||||||||||||||||||||||||||MET063METAR KSVE 281355Z AUTO 28005KT 10SM CLR M03/M06 A3034 RMK AO2=||F||223|ICAO-KSVE
USI0000KSVE|SUSANVILLE MUNI|2016|12|28|14|15|40.3757|-120.5727|1264.6|-4.0||1|FM15-METAR|223|ICAO-KSVE|-6.0||1|FM15-METAR|223|ICAO-KSVE|883.4||4|FM15-METAR|223|ICAO-KSVE|||||||290|N-Normal|1|FM15-METAR|223|ICAO-KSVE|2.6|N-Normal|1|FM15-METAR|223|ICAO-KSVE|||||||||||||86|Derived||FM15-METAR|223|ICAO-KSVE|-4.7|Derived||FM15-METAR|223|ICAO-KSVE|||||||||||||||||||||||||||||||||||||||||||||||||||||||||||||||||||1027.8||1|FM15-METAR|223|ICAO-KSVE|||||||||||||||||||||||||||||||||||||||||||MET063METAR KSVE 281415Z AUTO 29005KT 10SM CLR M04/M06 A3035 RMK AO2=||F||223|ICAO-KSVE
USI0000KSVE|SUSANVILLE MUNI|2016|12|28|14|35|40.3757|-120.5727|1264.6|-3.0||1|FM15-METAR|223|ICAO-KSVE|-6.0||1|FM15-METAR|223|ICAO-KSVE|883.4||4|FM15-METAR|223|ICAO-KSVE|||||||290|N-Normal|1|FM15-METAR|223|ICAO-KSVE|2.6|N-Normal|1|FM15-METAR|223|ICAO-KSVE|||||||||||||80|Derived||FM15-METAR|223|ICAO-KSVE|-4.0|Derived||FM15-METAR|223|ICAO-KSVE|||||||||||||||||||||||||||||||||||||||||||||||||||||||||||||||||||1027.8||1|FM15-METAR|223|ICAO-KSVE|||||||||||||||||||||||||||||||||||||||||||MET063METAR KSVE 281435Z AUTO 29005KT 10SM CLR M03/M06 A3035 RMK AO2=||F||223|ICAO-KSVE
USI0000KSVE|SUSANVILLE MUNI|2016|12|28|14|55|40.3757|-120.5727|1264.6|-3.0||1|FM15-METAR|223|ICAO-KSVE|-6.0||1|FM15-METAR|223|ICAO-KSVE|883.7||4|FM15-METAR|223|ICAO-KSVE|||||||290|N-Normal|1|FM15-METAR|223|ICAO-KSVE|2.6|N-Normal|1|FM15-METAR|223|ICAO-KSVE|||||||||||||80|Derived||FM15-METAR|223|ICAO-KSVE|-4.0|Derived||FM15-METAR|223|ICAO-KSVE|||||||||||||||||||||||||||||||||||||||||||||||||||||||||||||||||||1028.1||1|FM15-METAR|223|ICAO-KSVE|||||||||||||||||||||||||||||||||||||||||||MET063METAR KSVE 281455Z AUTO 29005KT 10SM CLR M03/M06 A3036 RMK AO2=||F||223|ICAO-KSVE
USI0000KSVE|SUSANVILLE MUNI|2016|12|28|15|15|40.3757|-120.5727|1264.6|-3.0||1|FM15-METAR|223|ICAO-KSVE|-6.0||1|FM15-METAR|223|ICAO-KSVE|883.7||4|FM15-METAR|223|ICAO-KSVE|||||||310|N-Normal|1|FM15-METAR|223|ICAO-KSVE|3.1|N-Normal|1|FM15-METAR|223|ICAO-KSVE|||||||||||||80|Derived||FM15-METAR|223|ICAO-KSVE|-4.0|Derived||FM15-METAR|223|ICAO-KSVE|||||||||||||||||||||||||||||||||||||||||||||||||||||||||||||||||||1028.1||1|FM15-METAR|223|ICAO-KSVE|||||||||||||||||||||||||||||||||||||||||||MET063METAR KSVE 281515Z AUTO 31006KT 10SM CLR M03/M06 A3036 RMK AO2=||F||223|ICAO-KSVE
USI0000KSVE|SUSANVILLE MUNI|2016|12|28|15|35|40.3757|-120.5727|1264.6|-3.0||1|FM15-METAR|223|ICAO-KSVE|-6.0||1|FM15-METAR|223|ICAO-KSVE|883.9||4|FM15-METAR|223|ICAO-KSVE|||||||300|N-Normal|1|FM15-METAR|223|ICAO-KSVE|3.1|N-Normal|1|FM15-METAR|223|ICAO-KSVE|||||||||||||80|Derived||FM15-METAR|223|ICAO-KSVE|-4.0|Derived||FM15-METAR|223|ICAO-KSVE|||||||||||||||||||||||||||||||||||||||||||||||||||||||||||||||||||1028.4||1|FM15-METAR|223|ICAO-KSVE|||||||||||||||||||||||||||||||||||||||||||MET063METAR KSVE 281535Z AUTO 30006KT 10SM CLR M03/M06 A3037 RMK AO2=||F||223|ICAO-KSVE
USI0000KSVE|SUSANVILLE MUNI|2016|12|28|15|55|40.3757|-120.5727|1264.6|-2.0||1|FM15-METAR|223|ICAO-KSVE|-6.0||1|FM15-METAR|223|ICAO-KSVE|883.9||4|FM15-METAR|223|ICAO-KSVE|||||||300|N-Normal|1|FM15-METAR|223|ICAO-KSVE|2.1|N-Normal|1|FM15-METAR|223|ICAO-KSVE|||||||||||||74|Derived||FM15-METAR|223|ICAO-KSVE|-3.6|Derived||FM15-METAR|223|ICAO-KSVE|||||||||||||||||||||||||||||||||||||||||||||||||||||||||||||||||||1028.4||1|FM15-METAR|223|ICAO-KSVE|||||||||||||||||||||||||||||||||||||||||||MET063METAR KSVE 281555Z AUTO 30004KT 10SM CLR M02/M06 A3037 RMK AO2=||F||223|ICAO-KSVE
USI0000KSVE|SUSANVILLE MUNI|2016|12|28|16|15|40.3757|-120.5727|1264.6|-2.0||1|FM15-METAR|223|ICAO-KSVE|-6.0||1|FM15-METAR|223|ICAO-KSVE|883.9||4|FM15-METAR|223|ICAO-KSVE|||||||999|C-Calm|9|FM15-METAR|223|ICAO-KSVE|0.0|C-Calm|1|FM15-METAR|223|ICAO-KSVE|||||||||||||74|Derived||FM15-METAR|223|ICAO-KSVE|-3.6|Derived||FM15-METAR|223|ICAO-KSVE|||||||||||||||||||||||||||||||||||||||||||||||||||||||||||||||||||1028.4||1|FM15-METAR|223|ICAO-KSVE|||||||||||||||||||||||||||||||||||||||||||MET063METAR KSVE 281615Z AUTO 00000KT 10SM CLR M02/M06 A3037 RMK AO2=||F||223|ICAO-KSVE
USI0000KSVE|SUSANVILLE MUNI|2016|12|28|16|35|40.3757|-120.5727|1264.6|-2.0||1|FM15-METAR|223|ICAO-KSVE|-5.0||1|FM15-METAR|223|ICAO-KSVE|884.3||4|FM15-METAR|223|ICAO-KSVE|||||||999|C-Calm|9|FM15-METAR|223|ICAO-KSVE|0.0|C-Calm|1|FM15-METAR|223|ICAO-KSVE|||||||||||||80|Derived||FM15-METAR|223|ICAO-KSVE|-3.2|Derived||FM15-METAR|223|ICAO-KSVE|||||||||||||||||||||||||||||||||||||||||||||||||||||||||||||||||||1028.8||1|FM15-METAR|223|ICAO-KSVE|||||||||||||||||||||||||||||||||||||||||||MET063METAR KSVE 281635Z AUTO 00000KT 10SM CLR M02/M05 A3038 RMK AO2=||F||223|ICAO-KSVE
USI0000KSVE|SUSANVILLE MUNI|2016|12|28|16|55|40.3757|-120.5727|1264.6|-1.0||1|FM15-METAR|223|ICAO-KSVE|-6.0||1|FM15-METAR|223|ICAO-KSVE|884.6||4|FM15-METAR|223|ICAO-KSVE|||||||999|C-Calm|9|FM15-METAR|223|ICAO-KSVE|0.0|C-Calm|1|FM15-METAR|223|ICAO-KSVE|||||||||||||69|Derived||FM15-METAR|223|ICAO-KSVE|-2.9|Derived||FM15-METAR|223|ICAO-KSVE|||||||||||||||||||||||||||||||||||||||||||||||||||||||||||||||||||1029.1||1|FM15-METAR|223|ICAO-KSVE|||||||||||||||||||||||||||||||||||||||||||MET063METAR KSVE 281655Z AUTO 00000KT 10SM CLR M01/M06 A3039 RMK AO2=||F||223|ICAO-KSVE
USI0000KSVE|SUSANVILLE MUNI|2016|12|28|17|15|40.3757|-120.5727|1264.6|0.0||1|FM15-METAR|223|ICAO-KSVE|-5.0||1|FM15-METAR|223|ICAO-KSVE|884.6||4|FM15-METAR|223|ICAO-KSVE|||||||999|C-Calm|9|FM15-METAR|223|ICAO-KSVE|0.0|C-Calm|1|FM15-METAR|223|ICAO-KSVE|||||||||||||69|Derived||FM15-METAR|223|ICAO-KSVE|-1.9|Derived||FM15-METAR|223|ICAO-KSVE|||||||||||||||||||||||||||||||||||||||||||||||||||||||||||||||||||1029.1||1|FM15-METAR|223|ICAO-KSVE|||||||||||||||||||||||||||||||||||||||||||MET062METAR KSVE 281715Z AUTO 00000KT 10SM CLR 00/M05 A3039 RMK AO2=||F||223|ICAO-KSVE
USI0000KSVE|SUSANVILLE MUNI|2016|12|28|17|35|40.3757|-120.5727|1264.6|1.0||1|FM15-METAR|223|ICAO-KSVE|-5.0||1|FM15-METAR|223|ICAO-KSVE|884.6||4|FM15-METAR|223|ICAO-KSVE|||||||999|C-Calm|9|FM15-METAR|223|ICAO-KSVE|0.0|C-Calm|1|FM15-METAR|223|ICAO-KSVE|||||||||||||65|Derived||FM15-METAR|223|ICAO-KSVE|-1.2|Derived||FM15-METAR|223|ICAO-KSVE|||||||||||||||||||||||||||||||||||||||||||||||||||||||||||||||||||1029.1||1|FM15-METAR|223|ICAO-KSVE|||||||||||||||||||||||||||||||||||||||||||MET062METAR KSVE 281735Z AUTO 00000KT 10SM CLR 01/M05 A3039 RMK AO2=||F||223|ICAO-KSVE
USI0000KSVE|SUSANVILLE MUNI|2016|12|28|17|55|40.3757|-120.5727|1264.6|2.0||1|FM15-METAR|223|ICAO-KSVE|-5.0||1|FM15-METAR|223|ICAO-KSVE|884.9||4|FM15-METAR|223|ICAO-KSVE|||||||999|C-Calm|9|FM15-METAR|223|ICAO-KSVE|0.0|C-Calm|1|FM15-METAR|223|ICAO-KSVE|||||||||||||60|Derived||FM15-METAR|223|ICAO-KSVE|-0.6|Derived||FM15-METAR|223|ICAO-KSVE|||||||||||||||||||||||||||||||||||||||||||||||||||||||||||||||||||1029.5||1|FM15-METAR|223|ICAO-KSVE|||||||||||||||||||||||||||||||||||||||||||MET062METAR KSVE 281755Z AUTO 00000KT 10SM CLR 02/M05 A3040 RMK AO2=||F||223|ICAO-KSVE
USI0000KSVE|SUSANVILLE MUNI|2016|12|28|18|15|40.3757|-120.5727|1264.6|2.0||1|FM15-METAR|223|ICAO-KSVE|-4.0||1|FM15-METAR|223|ICAO-KSVE|884.9||4|FM15-METAR|223|ICAO-KSVE|||||||999|C-Calm|9|FM15-METAR|223|ICAO-KSVE|0.0|C-Calm|1|FM15-METAR|223|ICAO-KSVE|||||||||||||65|Derived||FM15-METAR|223|ICAO-KSVE|-0.2|Derived||FM15-METAR|223|ICAO-KSVE|||||||||||||||||||||||||||||||||||||||||||||||||||||||||||||||||||1029.5||1|FM15-METAR|223|ICAO-KSVE|||||||||||||||||||||||||||||||||||||||||||MET062METAR KSVE 281815Z AUTO 00000KT 10SM CLR 02/M04 A3040 RMK AO2=||F||223|ICAO-KSVE
USI0000KSVE|SUSANVILLE MUNI|2016|12|28|18|35|40.3757|-120.5727|1264.6|3.0||1|FM15-METAR|223|ICAO-KSVE|-5.0||1|FM15-METAR|223|ICAO-KSVE|884.9||4|FM15-METAR|223|ICAO-KSVE|||||||999|C-Calm|9|FM15-METAR|223|ICAO-KSVE|0.0|C-Calm|1|FM15-METAR|223|ICAO-KSVE|||||||||||||56|Derived||FM15-METAR|223|ICAO-KSVE|-0.3|Derived||FM15-METAR|223|ICAO-KSVE|||||||||||||||||||||||||||||||||||||||||||||||||||||||||||||||||||1029.5||1|FM15-METAR|223|ICAO-KSVE|||||||||||||||||||||||||||||||||||||||||||MET062METAR KSVE 281835Z AUTO 00000KT 10SM CLR 03/M05 A3040 RMK AO2=||F||223|ICAO-KSVE
USI0000KSVE|SUSANVILLE MUNI|2016|12|28|18|55|40.3757|-120.5727|1264.6|4.0||1|FM15-METAR|223|ICAO-KSVE|-5.0||1|FM15-METAR|223|ICAO-KSVE|884.9||4|FM15-METAR|223|ICAO-KSVE|||||||090|N-Normal|1|FM15-METAR|223|ICAO-KSVE|1.5|N-Normal|1|FM15-METAR|223|ICAO-KSVE|||||||||||||52|Derived||FM15-METAR|223|ICAO-KSVE|0.4|Derived||FM15-METAR|223|ICAO-KSVE|||||||||||||||||||||||||||||||||||||||||||||||||||||||||||||||||||1029.5||1|FM15-METAR|223|ICAO-KSVE|||||||||||||||||||||||||||||||||||||||||||MET062METAR KSVE 281855Z AUTO 09003KT 10SM CLR 04/M05 A3040 RMK AO2=||F||223|ICAO-KSVE
USI0000KSVE|SUSANVILLE MUNI|2016|12|28|19|15|40.3757|-120.5727|1264.6|4.0||1|FM15-METAR|223|ICAO-KSVE|-5.0||1|FM15-METAR|223|ICAO-KSVE|884.6||4|FM15-METAR|223|ICAO-KSVE|||||||999|C-Calm|9|FM15-METAR|223|ICAO-KSVE|0.0|C-Calm|1|FM15-METAR|223|ICAO-KSVE|||||||||||||52|Derived||FM15-METAR|223|ICAO-KSVE|0.4|Derived||FM15-METAR|223|ICAO-KSVE|||||||||||||||||||||||||||||||||||||||||||||||||||||||||||||||||||1029.1||1|FM15-METAR|223|ICAO-KSVE|||||||||||||||||||||||||||||||||||||||||||MET062METAR KSVE 281915Z AUTO 00000KT 10SM CLR 04/M05 A3039 RMK AO2=||F||223|ICAO-KSVE
USI0000KSVE|SUSANVILLE MUNI|2016|12|28|19|35|40.3757|-120.5727|1264.6|5.0||1|FM15-METAR|223|ICAO-KSVE|-5.0||1|FM15-METAR|223|ICAO-KSVE|883.9||4|FM15-METAR|223|ICAO-KSVE|||||||999|C-Calm|9|FM15-METAR|223|ICAO-KSVE|0.0|C-Calm|1|FM15-METAR|223|ICAO-KSVE|||||||||||||49|Derived||FM15-METAR|223|ICAO-KSVE|1.0|Derived||FM15-METAR|223|ICAO-KSVE|||||||||||||||||||||||||||||||||||||||||||||||||||||||||||||||||||1028.4||1|FM15-METAR|223|ICAO-KSVE|||||||||||||||||||||||||||||||||||||||||||MET062METAR KSVE 281935Z AUTO 00000KT 10SM CLR 05/M05 A3037 RMK AO2=||F||223|ICAO-KSVE
USI0000KSVE|SUSANVILLE MUNI|2016|12|28|19|55|40.3757|-120.5727|1264.6|6.0||1|FM15-METAR|223|ICAO-KSVE|-5.0||1|FM15-METAR|223|ICAO-KSVE|883.9||4|FM15-METAR|223|ICAO-KSVE|||||||999|C-Calm|9|FM15-METAR|223|ICAO-KSVE|0.0|C-Calm|1|FM15-METAR|223|ICAO-KSVE|||||||||||||46|Derived||FM15-METAR|223|ICAO-KSVE|1.6|Derived||FM15-METAR|223|ICAO-KSVE|||||||||||||||||||||||||||||||||||||||||||||||||||||||||||||||||||1028.4||1|FM15-METAR|223|ICAO-KSVE|||||||||||||||||||||||||||||||||||||||||||MET062METAR KSVE 281955Z AUTO 00000KT 10SM CLR 06/M05 A3037 RMK AO2=||F||223|ICAO-KSVE
USI0000KSVE|SUSANVILLE MUNI|2016|12|28|20|15|40.3757|-120.5727|1264.6|7.0||1|FM15-METAR|223|ICAO-KSVE|-5.0||1|FM15-METAR|223|ICAO-KSVE|883.7||4|FM15-METAR|223|ICAO-KSVE|||||||999|C-Calm|9|FM15-METAR|223|ICAO-KSVE|0.0|C-Calm|1|FM15-METAR|223|ICAO-KSVE|||||||||||||42|Derived||FM15-METAR|223|ICAO-KSVE|2.2|Derived||FM15-METAR|223|ICAO-KSVE|||||||||||||||||||||||||||||||||||||||||||||||||||||||||||||||||||1028.1||1|FM15-METAR|223|ICAO-KSVE|||||||||||||||||||||||||||||||||||||||||||MET062METAR KSVE 282015Z AUTO 00000KT 10SM CLR 07/M05 A3036 RMK AO2=||F||223|ICAO-KSVE
USI0000KSVE|SUSANVILLE MUNI|2016|12|28|20|35|40.3757|-120.5727|1264.6|7.0||1|FM15-METAR|223|ICAO-KSVE|-5.0||1|FM15-METAR|223|ICAO-KSVE|883.4||4|FM15-METAR|223|ICAO-KSVE|||||||999|C-Calm|9|FM15-METAR|223|ICAO-KSVE|0.0|C-Calm|1|FM15-METAR|223|ICAO-KSVE|||||||||||||42|Derived||FM15-METAR|223|ICAO-KSVE|2.2|Derived||FM15-METAR|223|ICAO-KSVE|||||||||||||||||||||||||||||||||||||||||||||||||||||||||||||||||||1027.8||1|FM15-METAR|223|ICAO-KSVE|||||||||||||||||||||||||||||||||||||||||||MET062METAR KSVE 282035Z AUTO 00000KT 10SM CLR 07/M05 A3035 RMK AO2=||F||223|ICAO-KSVE
USI0000KSVE|SUSANVILLE MUNI|2016|12|28|20|55|40.3757|-120.5727|1264.6|7.0||1|FM15-METAR|223|ICAO-KSVE|-4.0||1|FM15-METAR|223|ICAO-KSVE|883.4||4|FM15-METAR|223|ICAO-KSVE|||||||999|C-Calm|9|FM15-METAR|223|ICAO-KSVE|0.0|C-Calm|1|FM15-METAR|223|ICAO-KSVE|||||||||||||46|Derived||FM15-METAR|223|ICAO-KSVE|2.6|Derived||FM15-METAR|223|ICAO-KSVE|||||||||||||||||||||||||||||||||||||||||||||||||||||||||||||||||||1027.8||1|FM15-METAR|223|ICAO-KSVE|||||||||||||||||||||||||||||||||||||||||||MET062METAR KSVE 282055Z AUTO 00000KT 10SM CLR 07/M04 A3035 RMK AO2=||F||223|ICAO-KSVE
USI0000KSVE|SUSANVILLE MUNI|2016|12|28|21|15|40.3757|-120.5727|1264.6|7.0||1|FM15-METAR|223|ICAO-KSVE|-5.0||1|FM15-METAR|223|ICAO-KSVE|883.4||4|FM15-METAR|223|ICAO-KSVE|||||||120|N-Normal|1|FM15-METAR|223|ICAO-KSVE|1.5|N-Normal|1|FM15-METAR|223|ICAO-KSVE|||||||||||||42|Derived||FM15-METAR|223|ICAO-KSVE|2.2|Derived||FM15-METAR|223|ICAO-KSVE|||||||||||||||||||||||||||||||||||||||||||||||||||||||||||||||||||1027.8||1|FM15-METAR|223|ICAO-KSVE|||||||||||||||||||||||||||||||||||||||||||MET062METAR KSVE 282115Z AUTO 12003KT 10SM CLR 07/M05 A3035 RMK AO2=||F||223|ICAO-KSVE
USI0000KSVE|SUSANVILLE MUNI|2016|12|28|21|35|40.3757|-120.5727|1264.6|8.0||1|FM15-METAR|223|ICAO-KSVE|-6.0||1|FM15-METAR|223|ICAO-KSVE|883.4||4|FM15-METAR|223|ICAO-KSVE|||||||070|N-Normal|1|FM15-METAR|223|ICAO-KSVE|1.5|N-Normal|1|FM15-METAR|223|ICAO-KSVE|||||||||||||37|Derived||FM15-METAR|223|ICAO-KSVE|2.2|Derived||FM15-METAR|223|ICAO-KSVE|||||||||||||||||||||||||||||||||||||||||||||||||||||||||||||||||||1027.8||1|FM15-METAR|223|ICAO-KSVE|||||||||||||||||||||||||||||||||||||||||||MET062METAR KSVE 282135Z AUTO 07003KT 10SM CLR 08/M06 A3035 RMK AO2=||F||223|ICAO-KSVE
USI0000KSVE|SUSANVILLE MUNI|2016|12|28|21|55|40.3757|-120.5727|1264.6|8.0||1|FM15-METAR|223|ICAO-KSVE|-5.0||1|FM15-METAR|223|ICAO-KSVE|883.1||4|FM15-METAR|223|ICAO-KSVE|||||||120|N-Normal|1|FM15-METAR|223|ICAO-KSVE|1.5|N-Normal|1|FM15-METAR|223|ICAO-KSVE|||||||||||||40|Derived||FM15-METAR|223|ICAO-KSVE|2.5|Derived||FM15-METAR|223|ICAO-KSVE|||||||||||||||||||||||||||||||||||||||||||||||||||||||||||||||||||1027.4||1|FM15-METAR|223|ICAO-KSVE|||||||||||||||||||||||||||||||||||||||||||MET062METAR KSVE 282155Z AUTO 12003KT 10SM CLR 08/M05 A3034 RMK AO2=||F||223|ICAO-KSVE
USI0000KSVE|SUSANVILLE MUNI|2016|12|28|22|15|40.3757|-120.5727|1264.6|8.0||1|FM15-METAR|223|ICAO-KSVE|-4.0||1|FM15-METAR|223|ICAO-KSVE|883.1||4|FM15-METAR|223|ICAO-KSVE|||||||070|N-Normal|1|FM15-METAR|223|ICAO-KSVE|1.5|N-Normal|1|FM15-METAR|223|ICAO-KSVE|||||||||||||43|Derived||FM15-METAR|223|ICAO-KSVE|2.9|Derived||FM15-METAR|223|ICAO-KSVE|||||||||||||||||||||||||||||||||||||||||||||||||||||||||||||||||||1027.4||1|FM15-METAR|223|ICAO-KSVE|||||||||||||||||||||||||||||||||||||||||||MET062METAR KSVE 282215Z AUTO 07003KT 10SM CLR 08/M04 A3034 RMK AO2=||F||223|ICAO-KSVE
USI0000KSVE|SUSANVILLE MUNI|2016|12|28|22|35|40.3757|-120.5727|1264.6|8.0||1|FM15-METAR|223|ICAO-KSVE|-5.0||1|FM15-METAR|223|ICAO-KSVE|883.1||4|FM15-METAR|223|ICAO-KSVE|||||||100|N-Normal|1|FM15-METAR|223|ICAO-KSVE|2.1|N-Normal|1|FM15-METAR|223|ICAO-KSVE|||||||||||||40|Derived||FM15-METAR|223|ICAO-KSVE|2.5|Derived||FM15-METAR|223|ICAO-KSVE|||||||||||||||||||||||||||||||||||||||||||||||||||||||||||||||||||1027.4||1|FM15-METAR|223|ICAO-KSVE|||||||||||||||||||||||||||||||||||||||||||MET062METAR KSVE 282235Z AUTO 10004KT 10SM CLR 08/M05 A3034 RMK AO2=||F||223|ICAO-KSVE
USI0000KSVE|SUSANVILLE MUNI|2016|12|28|22|55|40.3757|-120.5727|1264.6|8.0||1|FM15-METAR|223|ICAO-KSVE|-4.0||1|FM15-METAR|223|ICAO-KSVE|883.1||4|FM15-METAR|223|ICAO-KSVE|||||||120|N-Normal|1|FM15-METAR|223|ICAO-KSVE|2.1|N-Normal|1|FM15-METAR|223|ICAO-KSVE|||||||||||||43|Derived||FM15-METAR|223|ICAO-KSVE|2.9|Derived||FM15-METAR|223|ICAO-KSVE|||||||||||||||||||||||||||||||||||||||||||||||||||||||||||||||||||1027.4||1|FM15-METAR|223|ICAO-KSVE|||||||||||||||||||||||||||||||||||||||||||MET062METAR KSVE 282255Z AUTO 12004KT 10SM CLR 08/M04 A3034 RMK AO2=||F||223|ICAO-KSVE
USI0000KSVE|SUSANVILLE MUNI|2016|12|28|23|15|40.3757|-120.5727|1264.6|8.0||1|FM15-METAR|223|ICAO-KSVE|-5.0||1|FM15-METAR|223|ICAO-KSVE|883.4||4|FM15-METAR|223|ICAO-KSVE|||||||100|N-Normal|1|FM15-METAR|223|ICAO-KSVE|1.5|N-Normal|1|FM15-METAR|223|ICAO-KSVE|||||||||||||40|Derived||FM15-METAR|223|ICAO-KSVE|2.5|Derived||FM15-METAR|223|ICAO-KSVE|||||||||||||||||||||||||||||||||||||||||||||||||||||||||||||||||||1027.8||1|FM15-METAR|223|ICAO-KSVE|||||||||||||||||||||||||||||||||||||||||||MET062METAR KSVE 282315Z AUTO 10003KT 10SM CLR 08/M05 A3035 RMK AO2=||F||223|ICAO-KSVE
USI0000KSVE|SUSANVILLE MUNI|2016|12|28|23|35|40.3757|-120.5727|1264.6|8.0||1|FM15-METAR|223|ICAO-KSVE|-5.0||1|FM15-METAR|223|ICAO-KSVE|883.4||4|FM15-METAR|223|ICAO-KSVE|||||||999|C-Calm|9|FM15-METAR|223|ICAO-KSVE|0.0|C-Calm|1|FM15-METAR|223|ICAO-KSVE|||||||||||||40|Derived||FM15-METAR|223|ICAO-KSVE|2.5|Derived||FM15-METAR|223|ICAO-KSVE|||||||||||||||||||||||||||||||||||||||||||||||||||||||||||||||||||1027.8||1|FM15-METAR|223|ICAO-KSVE|||||||||||||||||||||||||||||||||||||||||||MET062METAR KSVE 282335Z AUTO 00000KT 10SM CLR 08/M05 A3035 RMK AO2=||F||223|ICAO-KSVE
USI0000KSVE|SUSANVILLE MUNI|2016|12|28|23|55|40.3757|-120.5727|1264.6|7.0||1|FM15-METAR|223|ICAO-KSVE|-4.0||1|FM15-METAR|223|ICAO-KSVE|883.4||4|FM15-METAR|223|ICAO-KSVE|||||||170|N-Normal|1|FM15-METAR|223|ICAO-KSVE|1.5|N-Normal|1|FM15-METAR|223|ICAO-KSVE|||||||||||||46|Derived||FM15-METAR|223|ICAO-KSVE|2.6|Derived||FM15-METAR|223|ICAO-KSVE|||||||||||||||||||||||||||||||||||||||||||||||||||||||||||||||||||1027.8||1|FM15-METAR|223|ICAO-KSVE|||||||||||||||||||||||||||||||||||||||||||MET062METAR KSVE 282355Z AUTO 17003KT 10SM CLR 07/M04 A3035 RMK AO2=||F||223|ICAO-KSVE
USI0000KSVE|SUSANVILLE MUNI|2016|12|29|00|15|40.3757|-120.5727|1264.6|7.0||1|FM15-METAR|223|ICAO-KSVE|-5.0||1|FM15-METAR|223|ICAO-KSVE|883.4||4|FM15-METAR|223|ICAO-KSVE|||||||999|C-Calm|9|FM15-METAR|223|ICAO-KSVE|0.0|C-Calm|1|FM15-METAR|223|ICAO-KSVE|||||||||||||42|Derived||FM15-METAR|223|ICAO-KSVE|2.2|Derived||FM15-METAR|223|ICAO-KSVE|||||||||||||||||||||||||||||||||||||||||||||||||||||||||||||||||||1027.8||1|FM15-METAR|223|ICAO-KSVE|||||||||||||||||||||||||||||||||||||||||||MET062METAR KSVE 290015Z AUTO 00000KT 10SM CLR 07/M05 A3035 RMK AO2=||F||223|ICAO-KSVE
USI0000KSVE|SUSANVILLE MUNI|2016|12|29|00|35|40.3757|-120.5727|1264.6|5.0||1|FM15-METAR|223|ICAO-KSVE|-5.0||1|FM15-METAR|223|ICAO-KSVE|883.4||4|FM15-METAR|223|ICAO-KSVE|||||||120|N-Normal|1|FM15-METAR|223|ICAO-KSVE|2.1|N-Normal|1|FM15-METAR|223|ICAO-KSVE|||||||||||||49|Derived||FM15-METAR|223|ICAO-KSVE|1.0|Derived||FM15-METAR|223|ICAO-KSVE|||||||||||||||||||||||||||||||||||||||||||||||||||||||||||||||||||1027.8||1|FM15-METAR|223|ICAO-KSVE|||||||||||||||||||||||||||||||||||||||||||MET062METAR KSVE 290035Z AUTO 12004KT 10SM CLR 05/M05 A3035 RMK AO2=||F||223|ICAO-KSVE
USI0000KSVE|SUSANVILLE MUNI|2016|12|29|00|55|40.3757|-120.5727|1264.6|3.0||1|FM15-METAR|223|ICAO-KSVE|-4.0||1|FM15-METAR|223|ICAO-KSVE|883.4||4|FM15-METAR|223|ICAO-KSVE|||||||999|C-Calm|9|FM15-METAR|223|ICAO-KSVE|0.0|C-Calm|1|FM15-METAR|223|ICAO-KSVE|||||||||||||60|Derived||FM15-METAR|223|ICAO-KSVE|0.1|Derived||FM15-METAR|223|ICAO-KSVE|||||||||||||||||||||||||||||||||||||||||||||||||||||||||||||||||||1027.8||1|FM15-METAR|223|ICAO-KSVE|||||||||||||||||||||||||||||||||||||||||||MET062METAR KSVE 290055Z AUTO 00000KT 10SM CLR 03/M04 A3035 RMK AO2=||F||223|ICAO-KSVE
USI0000KSVE|SUSANVILLE MUNI|2016|12|29|01|15|40.3757|-120.5727|1264.6|1.0||1|FM15-METAR|223|ICAO-KSVE|-4.0||1|FM15-METAR|223|ICAO-KSVE|883.4||4|FM15-METAR|223|ICAO-KSVE|||||||999|C-Calm|9|FM15-METAR|223|ICAO-KSVE|0.0|C-Calm|1|FM15-METAR|223|ICAO-KSVE|||||||||||||70|Derived||FM15-METAR|223|ICAO-KSVE|-0.8|Derived||FM15-METAR|223|ICAO-KSVE|||||||||||||||||||||||||||||||||||||||||||||||||||||||||||||||||||1027.8||1|FM15-METAR|223|ICAO-KSVE|||||||||||||||||||||||||||||||||||||||||||MET062METAR KSVE 290115Z AUTO 00000KT 10SM CLR 01/M04 A3035 RMK AO2=||F||223|ICAO-KSVE
USI0000KSVE|SUSANVILLE MUNI|2016|12|29|01|35|40.3757|-120.5727|1264.6|0.0||1|FM15-METAR|223|ICAO-KSVE|-3.0||1|FM15-METAR|223|ICAO-KSVE|883.4||4|FM15-METAR|223|ICAO-KSVE|||||||320|N-Normal|1|FM15-METAR|223|ICAO-KSVE|1.5|N-Normal|1|FM15-METAR|223|ICAO-KSVE|||||||||||||80|Derived||FM15-METAR|223|ICAO-KSVE|-1.1|Derived||FM15-METAR|223|ICAO-KSVE|||||||||||||||||||||||||||||||||||||||||||||||||||||||||||||||||||1027.8||1|FM15-METAR|223|ICAO-KSVE|||||||||||||||||||||||||||||||||||||||||||MET062METAR KSVE 290135Z AUTO 32003KT 10SM CLR 00/M03 A3035 RMK AO2=||F||223|ICAO-KSVE
USI0000KSVE|SUSANVILLE MUNI|2016|12|29|01|55|40.3757|-120.5727|1264.6|0.0||1|FM15-METAR|223|ICAO-KSVE|-3.0||1|FM15-METAR|223|ICAO-KSVE|883.4||4|FM15-METAR|223|ICAO-KSVE|||||||300|N-Normal|1|FM15-METAR|223|ICAO-KSVE|2.1|N-Normal|1|FM15-METAR|223|ICAO-KSVE|||||||||||||80|Derived||FM15-METAR|223|ICAO-KSVE|-1.1|Derived||FM15-METAR|223|ICAO-KSVE|||||||||||||||||||||||||||||||||||||||||||||||||||||||||||||||||||1027.8||1|FM15-METAR|223|ICAO-KSVE|||||||||||||||||||||||||||||||||||||||||||MET062METAR KSVE 290155Z AUTO 30004KT 10SM CLR 00/M03 A3035 RMK AO2=||F||223|ICAO-KSVE
USI0000KSVE|SUSANVILLE MUNI|2016|12|29|02|15|40.3757|-120.5727|1264.6|0.0||1|FM15-METAR|223|ICAO-KSVE|-4.0||1|FM15-METAR|223|ICAO-KSVE|883.4||4|FM15-METAR|223|ICAO-KSVE|||||||280|N-Normal|1|FM15-METAR|223|ICAO-KSVE|2.6|N-Normal|1|FM15-METAR|223|ICAO-KSVE|||||||||||||75|Derived||FM15-METAR|223|ICAO-KSVE|-1.5|Derived||FM15-METAR|223|ICAO-KSVE|||||||||||||||||||||||||||||||||||||||||||||||||||||||||||||||||||1027.8||1|FM15-METAR|223|ICAO-KSVE|||||||||||||||||||||||||||||||||||||||||||MET062METAR KSVE 290215Z AUTO 28005KT 10SM CLR 00/M04 A3035 RMK AO2=||F||223|ICAO-KSVE
USI0000KSVE|SUSANVILLE MUNI|2016|12|29|02|35|40.3757|-120.5727|1264.6|0.0||1|FM15-METAR|223|ICAO-KSVE|-4.0||1|FM15-METAR|223|ICAO-KSVE|883.7||4|FM15-METAR|223|ICAO-KSVE|||||||270|N-Normal|1|FM15-METAR|223|ICAO-KSVE|3.1|N-Normal|1|FM15-METAR|223|ICAO-KSVE|||||||||||||75|Derived||FM15-METAR|223|ICAO-KSVE|-1.5|Derived||FM15-METAR|223|ICAO-KSVE|||||||||||||||||||||||||||||||||||||||||||||||||||||||||||||||||||1028.1||1|FM15-METAR|223|ICAO-KSVE|||||||||||||||||||||||||||||||||||||||||||MET062METAR KSVE 290235Z AUTO 27006KT 10SM CLR 00/M04 A3036 RMK AO2=||F||223|ICAO-KSVE
USI0000KSVE|SUSANVILLE MUNI|2016|12|29|02|55|40.3757|-120.5727|1264.6|0.0||1|FM15-METAR|223|ICAO-KSVE|-5.0||1|FM15-METAR|223|ICAO-KSVE|883.7||4|FM15-METAR|223|ICAO-KSVE|||||||260|N-Normal|1|FM15-METAR|223|ICAO-KSVE|2.6|N-Normal|1|FM15-METAR|223|ICAO-KSVE|||||||||||||69|Derived||FM15-METAR|223|ICAO-KSVE|-1.9|Derived||FM15-METAR|223|ICAO-KSVE|||||||||||||||||||||||||||||||||||||||||||||||||||||||||||||||||||1028.1||1|FM15-METAR|223|ICAO-KSVE|||||||||||||||||||||||||||||||||||||||||||MET062METAR KSVE 290255Z AUTO 26005KT 10SM CLR 00/M05 A3036 RMK AO2=||F||223|ICAO-KSVE
USI0000KSVE|SUSANVILLE MUNI|2016|12|29|03|15|40.3757|-120.5727|1264.6|0.0||1|FM15-METAR|223|ICAO-KSVE|-4.0||1|FM15-METAR|223|ICAO-KSVE|883.9||4|FM15-METAR|223|ICAO-KSVE|||||||290|N-Normal|1|FM15-METAR|223|ICAO-KSVE|2.1|N-Normal|1|FM15-METAR|223|ICAO-KSVE|||||||||||||75|Derived||FM15-METAR|223|ICAO-KSVE|-1.5|Derived||FM15-METAR|223|ICAO-KSVE|||||||||||||||||||||||||||||||||||||||||||||||||||||||||||||||||||1028.4||1|FM15-METAR|223|ICAO-KSVE|||||||||||||||||||||||||||||||||||||||||||MET062METAR KSVE 290315Z AUTO 29004KT 10SM CLR 00/M04 A3037 RMK AO2=||F||223|ICAO-KSVE
USI0000KSVE|SUSANVILLE MUNI|2016|12|29|03|35|40.3757|-120.5727|1264.6|-1.0||1|FM15-METAR|223|ICAO-KSVE|-4.0||1|FM15-METAR|223|ICAO-KSVE|883.9||4|FM15-METAR|223|ICAO-KSVE|||||||300|N-Normal|1|FM15-METAR|223|ICAO-KSVE|1.5|N-Normal|1|FM15-METAR|223|ICAO-KSVE|||||||||||||80|Derived||FM15-METAR|223|ICAO-KSVE|-2.2|Derived||FM15-METAR|223|ICAO-KSVE|||||||||||||||||||||||||||||||||||||||||||||||||||||||||||||||||||1028.4||1|FM15-METAR|223|ICAO-KSVE|||||||||||||||||||||||||||||||||||||||||||MET063METAR KSVE 290335Z AUTO 30003KT 10SM CLR M01/M04 A3037 RMK AO2=||F||223|ICAO-KSVE
USI0000KSVE|SUSANVILLE MUNI|2016|12|29|03|55|40.3757|-120.5727|1264.6|-1.0||1|FM15-METAR|223|ICAO-KSVE|-4.0||1|FM15-METAR|223|ICAO-KSVE|884.3||4|FM15-METAR|223|ICAO-KSVE|||||||280|N-Normal|1|FM15-METAR|223|ICAO-KSVE|2.1|N-Normal|1|FM15-METAR|223|ICAO-KSVE|||||||||||||80|Derived||FM15-METAR|223|ICAO-KSVE|-2.2|Derived||FM15-METAR|223|ICAO-KSVE|||||||||||||||||||||||||||||||||||||||||||||||||||||||||||||||||||1028.8||1|FM15-METAR|223|ICAO-KSVE|||||||||||||||||||||||||||||||||||||||||||MET063METAR KSVE 290355Z AUTO 28004KT 10SM CLR M01/M04 A3038 RMK AO2=||F||223|ICAO-KSVE
USI0000KSVE|SUSANVILLE MUNI|2016|12|29|04|15|40.3757|-120.5727|1264.6|-1.0||1|FM15-METAR|223|ICAO-KSVE|-4.0||1|FM15-METAR|223|ICAO-KSVE|884.3||4|FM15-METAR|223|ICAO-KSVE|||||||270|N-Normal|1|FM15-METAR|223|ICAO-KSVE|2.6|N-Normal|1|FM15-METAR|223|ICAO-KSVE|||||||||||||80|Derived||FM15-METAR|223|ICAO-KSVE|-2.2|Derived||FM15-METAR|223|ICAO-KSVE|||||||||||||||||||||||||||||||||||||||||||||||||||||||||||||||||||1028.8||1|FM15-METAR|223|ICAO-KSVE|||||||||||||||||||||||||||||||||||||||||||MET063METAR KSVE 290415Z AUTO 27005KT 10SM CLR M01/M04 A3038 RMK AO2=||F||223|ICAO-KSVE
USI0000KSVE|SUSANVILLE MUNI|2016|12|29|04|35|40.3757|-120.5727|1264.6|-2.0||1|FM15-METAR|223|ICAO-KSVE|-5.0||1|FM15-METAR|223|ICAO-KSVE|884.3||4|FM15-METAR|223|ICAO-KSVE|||||||290|N-Normal|1|FM15-METAR|223|ICAO-KSVE|1.5|N-Normal|1|FM15-METAR|223|ICAO-KSVE|||||||||||||80|Derived||FM15-METAR|223|ICAO-KSVE|-3.2|Derived||FM15-METAR|223|ICAO-KSVE|||||||||||||||||||||||||||||||||||||||||||||||||||||||||||||||||||1028.8||1|FM15-METAR|223|ICAO-KSVE|||||||||||||||||||||||||||||||||||||||||||MET063METAR KSVE 290435Z AUTO 29003KT 10SM CLR M02/M05 A3038 RMK AO2=||F||223|ICAO-KSVE
USI0000KSVE|SUSANVILLE MUNI|2016|12|29|04|55|40.3757|-120.5727|1264.6|-2.0||1|FM15-METAR|223|ICAO-KSVE|-5.0||1|FM15-METAR|223|ICAO-KSVE|884.6||4|FM15-METAR|223|ICAO-KSVE|||||||999|C-Calm|9|FM15-METAR|223|ICAO-KSVE|0.0|C-Calm|1|FM15-METAR|223|ICAO-KSVE|||||||||||||80|Derived||FM15-METAR|223|ICAO-KSVE|-3.2|Derived||FM15-METAR|223|ICAO-KSVE|||||||||||||||||||||||||||||||||||||||||||||||||||||||||||||||||||1029.1||1|FM15-METAR|223|ICAO-KSVE|||||||||||||||||||||||||||||||||||||||||||MET063METAR KSVE 290455Z AUTO 00000KT 10SM CLR M02/M05 A3039 RMK AO2=||F||223|ICAO-KSVE
USI0000KSVE|SUSANVILLE MUNI|2016|12|29|05|15|40.3757|-120.5727|1264.6|-2.0||1|FM15-METAR|223|ICAO-KSVE|-5.0||1|FM15-METAR|223|ICAO-KSVE|884.6||4|FM15-METAR|223|ICAO-KSVE|||||||280|N-Normal|1|FM15-METAR|223|ICAO-KSVE|2.1|N-Normal|1|FM15-METAR|223|ICAO-KSVE|||||||||||||80|Derived||FM15-METAR|223|ICAO-KSVE|-3.2|Derived||FM15-METAR|223|ICAO-KSVE|||||||||||||||||||||||||||||||||||||||||||||||||||||||||||||||||||1029.1||1|FM15-METAR|223|ICAO-KSVE|||||||||||||||||||||||||||||||||||||||||||MET063METAR KSVE 290515Z AUTO 28004KT 10SM CLR M02/M05 A3039 RMK AO2=||F||223|ICAO-KSVE
USI0000KSVE|SUSANVILLE MUNI|2016|12|29|05|35|40.3757|-120.5727|1264.6|-2.0||1|FM15-METAR|223|ICAO-KSVE|-5.0||1|FM15-METAR|223|ICAO-KSVE|884.6||4|FM15-METAR|223|ICAO-KSVE|||||||280|N-Normal|1|FM15-METAR|223|ICAO-KSVE|1.5|N-Normal|1|FM15-METAR|223|ICAO-KSVE|||||||||||||80|Derived||FM15-METAR|223|ICAO-KSVE|-3.2|Derived||FM15-METAR|223|ICAO-KSVE|||||||||||||||||||||||||||||||||||||||||||||||||||||||||||||||||||1029.1||1|FM15-METAR|223|ICAO-KSVE|||||||||||||||||||||||||||||||||||||||||||MET063METAR KSVE 290535Z AUTO 28003KT 10SM CLR M02/M05 A3039 RMK AO2=||F||223|ICAO-KSVE
USI0000KSVE|SUSANVILLE MUNI|2016|12|29|05|55|40.3757|-120.5727|1264.6|-2.0||1|FM15-METAR|223|ICAO-KSVE|-5.0||1|FM15-METAR|223|ICAO-KSVE|884.6||4|FM15-METAR|223|ICAO-KSVE|||||||290|N-Normal|1|FM15-METAR|223|ICAO-KSVE|2.1|N-Normal|1|FM15-METAR|223|ICAO-KSVE|||||||||||||80|Derived||FM15-METAR|223|ICAO-KSVE|-3.2|Derived||FM15-METAR|223|ICAO-KSVE|||||||||||||||||||||||||||||||||||||||||||||||||||||||||||||||||||1029.1||1|FM15-METAR|223|ICAO-KSVE|||||||||||||||||||||||||||||||||||||||||||MET063METAR KSVE 290555Z AUTO 29004KT 10SM CLR M02/M05 A3039 RMK AO2=||F||223|ICAO-KSVE
USI0000KSVE|SUSANVILLE MUNI|2016|12|29|06|15|40.3757|-120.5727|1264.6|-2.0||1|FM15-METAR|223|ICAO-KSVE|-5.0||1|FM15-METAR|223|ICAO-KSVE|884.6||4|FM15-METAR|223|ICAO-KSVE|||||||290|N-Normal|1|FM15-METAR|223|ICAO-KSVE|2.6|N-Normal|1|FM15-METAR|223|ICAO-KSVE|||||||||||||80|Derived||FM15-METAR|223|ICAO-KSVE|-3.2|Derived||FM15-METAR|223|ICAO-KSVE|||||||||||||||||||||||||||||||||||||||||||||||||||||||||||||||||||1029.1||1|FM15-METAR|223|ICAO-KSVE|||||||||||||||||||||||||||||||||||||||||||MET063METAR KSVE 290615Z AUTO 29005KT 10SM CLR M02/M05 A3039 RMK AO2=||F||223|ICAO-KSVE
USI0000KSVE|SUSANVILLE MUNI|2016|12|29|06|35|40.3757|-120.5727|1264.6|-3.0||1|FM15-METAR|223|ICAO-KSVE|-5.0||1|FM15-METAR|223|ICAO-KSVE|884.9||4|FM15-METAR|223|ICAO-KSVE|||||||280|N-Normal|1|FM15-METAR|223|ICAO-KSVE|2.6|N-Normal|1|FM15-METAR|223|ICAO-KSVE|||||||||||||86|Derived||FM15-METAR|223|ICAO-KSVE|-3.6|Derived||FM15-METAR|223|ICAO-KSVE|||||||||||||||||||||||||||||||||||||||||||||||||||||||||||||||||||1029.5||1|FM15-METAR|223|ICAO-KSVE|||||||||||||||||||||||||||||||||||||||||||MET063METAR KSVE 290635Z AUTO 28005KT 10SM CLR M03/M05 A3040 RMK AO2=||F||223|ICAO-KSVE
USI0000KSVE|SUSANVILLE MUNI|2016|12|29|06|55|40.3757|-120.5727|1264.6|-3.0||1|FM15-METAR|223|ICAO-KSVE|-5.0||1|FM15-METAR|223|ICAO-KSVE|884.9||4|FM15-METAR|223|ICAO-KSVE|||||||290|N-Normal|1|FM15-METAR|223|ICAO-KSVE|2.1|N-Normal|1|FM15-METAR|223|ICAO-KSVE|||||||||||||86|Derived||FM15-METAR|223|ICAO-KSVE|-3.6|Derived||FM15-METAR|223|ICAO-KSVE|||||||||||||||||||||||||||||||||||||||||||||||||||||||||||||||||||1029.5||1|FM15-METAR|223|ICAO-KSVE|||||||||||||||||||||||||||||||||||||||||||MET063METAR KSVE 290655Z AUTO 29004KT 10SM CLR M03/M05 A3040 RMK AO2=||F||223|ICAO-KSVE
USI0000KSVE|SUSANVILLE MUNI|2016|12|29|07|15|40.3757|-120.5727|1264.6|-2.0||1|FM15-METAR|223|ICAO-KSVE|-5.0||1|FM15-METAR|223|ICAO-KSVE|884.9||4|FM15-METAR|223|ICAO-KSVE|||||||270|N-Normal|1|FM15-METAR|223|ICAO-KSVE|1.5|N-Normal|1|FM15-METAR|223|ICAO-KSVE|||||||||||||80|Derived||FM15-METAR|223|ICAO-KSVE|-3.2|Derived||FM15-METAR|223|ICAO-KSVE|||||||||||||||||||||||||||||||||||||||||||||||||||||||||||||||||||1029.5||1|FM15-METAR|223|ICAO-KSVE|||||||||||||||||||||||||||||||||||||||||||MET063METAR KSVE 290715Z AUTO 27003KT 10SM CLR M02/M05 A3040 RMK AO2=||F||223|ICAO-KSVE
USI0000KSVE|SUSANVILLE MUNI|2016|12|29|07|35|40.3757|-120.5727|1264.6|-3.0||1|FM15-METAR|223|ICAO-KSVE|-5.0||1|FM15-METAR|223|ICAO-KSVE|885.2||4|FM15-METAR|223|ICAO-KSVE|||||||270|N-Normal|1|FM15-METAR|223|ICAO-KSVE|2.1|N-Normal|1|FM15-METAR|223|ICAO-KSVE|||||||||||||86|Derived||FM15-METAR|223|ICAO-KSVE|-3.6|Derived||FM15-METAR|223|ICAO-KSVE|||||||||||||||||||||||||||||||||||||||||||||||||||||||||||||||||||1029.8||1|FM15-METAR|223|ICAO-KSVE|||||||||||||||||||||||||||||||||||||||||||MET063METAR KSVE 290735Z AUTO 27004KT 10SM CLR M03/M05 A3041 RMK AO2=||F||223|ICAO-KSVE
USI0000KSVE|SUSANVILLE MUNI|2016|12|29|07|55|40.3757|-120.5727|1264.6|-3.0||1|FM15-METAR|223|ICAO-KSVE|-5.0||1|FM15-METAR|223|ICAO-KSVE|885.2||4|FM15-METAR|223|ICAO-KSVE|||||||300|N-Normal|1|FM15-METAR|223|ICAO-KSVE|2.1|N-Normal|1|FM15-METAR|223|ICAO-KSVE|||||||||||||86|Derived||FM15-METAR|223|ICAO-KSVE|-3.6|Derived||FM15-METAR|223|ICAO-KSVE|||||||||||||||||||||||||||||||||||||||||||||||||||||||||||||||||||1029.8||1|FM15-METAR|223|ICAO-KSVE|||||||||||||||||||||||||||||||||||||||||||MET063METAR KSVE 290755Z AUTO 30004KT 10SM CLR M03/M05 A3041 RMK AO2=||F||223|ICAO-KSVE
USI0000KSVE|SUSANVILLE MUNI|2016|12|29|08|15|40.3757|-120.5727|1264.6|-4.0||1|FM15-METAR|223|ICAO-KSVE|-6.0||1|FM15-METAR|223|ICAO-KSVE|884.9||4|FM15-METAR|223|ICAO-KSVE|||||||280|N-Normal|1|FM15-METAR|223|ICAO-KSVE|1.5|N-Normal|1|FM15-METAR|223|ICAO-KSVE|||||||||||||86|Derived||FM15-METAR|223|ICAO-KSVE|-4.7|Derived||FM15-METAR|223|ICAO-KSVE|||||||||||||||||||||||||||||||||||||||||||||||||||||||||||||||||||1029.5||1|FM15-METAR|223|ICAO-KSVE|||||||||||||||||||||||||||||||||||||||||||MET063METAR KSVE 290815Z AUTO 28003KT 10SM CLR M04/M06 A3040 RMK AO2=||F||223|ICAO-KSVE
USI0000KSVE|SUSANVILLE MUNI|2016|12|29|08|35|40.3757|-120.5727|1264.6|-4.0||1|FM15-METAR|223|ICAO-KSVE|-6.0||1|FM15-METAR|223|ICAO-KSVE|884.6||4|FM15-METAR|223|ICAO-KSVE|||||||290|N-Normal|1|FM15-METAR|223|ICAO-KSVE|2.1|N-Normal|1|FM15-METAR|223|ICAO-KSVE|||||||||||||86|Derived||FM15-METAR|223|ICAO-KSVE|-4.7|Derived||FM15-METAR|223|ICAO-KSVE|||||||||||||||||||||||||||||||||||||||||||||||||||||||||||||||||||1029.1||1|FM15-METAR|223|ICAO-KSVE|||||||||||||||||||||||||||||||||||||||||||MET063METAR KSVE 290835Z AUTO 29004KT 10SM CLR M04/M06 A3039 RMK AO2=||F||223|ICAO-KSVE
USI0000KSVE|SUSANVILLE MUNI|2016|12|29|08|55|40.3757|-120.5727|1264.6|-3.0||1|FM15-METAR|223|ICAO-KSVE|-5.0||1|FM15-METAR|223|ICAO-KSVE|884.6||4|FM15-METAR|223|ICAO-KSVE|||||||290|N-Normal|1|FM15-METAR|223|ICAO-KSVE|2.1|N-Normal|1|FM15-METAR|223|ICAO-KSVE|||||||||||||86|Derived||FM15-METAR|223|ICAO-KSVE|-3.6|Derived||FM15-METAR|223|ICAO-KSVE|||||||||||||||||||||||||||||||||||||||||||||||||||||||||||||||||||1029.1||1|FM15-METAR|223|ICAO-KSVE|||||||||||||||||||||||||||||||||||||||||||MET063METAR KSVE 290855Z AUTO 29004KT 10SM CLR M03/M05 A3039 RMK AO2=||F||223|ICAO-KSVE
USI0000KSVE|SUSANVILLE MUNI|2016|12|29|09|15|40.3757|-120.5727|1264.6|-4.0||1|FM15-METAR|223|ICAO-KSVE|-6.0||1|FM15-METAR|223|ICAO-KSVE|884.6||4|FM15-METAR|223|ICAO-KSVE|||||||290|N-Normal|1|FM15-METAR|223|ICAO-KSVE|2.1|N-Normal|1|FM15-METAR|223|ICAO-KSVE|||||||||||||86|Derived||FM15-METAR|223|ICAO-KSVE|-4.7|Derived||FM15-METAR|223|ICAO-KSVE|||||||||||||||||||||||||||||||||||||||||||||||||||||||||||||||||||1029.1||1|FM15-METAR|223|ICAO-KSVE|||||||||||||||||||||||||||||||||||||||||||MET063METAR KSVE 290915Z AUTO 29004KT 10SM CLR M04/M06 A3039 RMK AO2=||F||223|ICAO-KSVE
USI0000KSVE|SUSANVILLE MUNI|2016|12|29|09|35|40.3757|-120.5727|1264.6|-3.0||1|FM15-METAR|223|ICAO-KSVE|-6.0||1|FM15-METAR|223|ICAO-KSVE|884.6||4|FM15-METAR|223|ICAO-KSVE|||||||300|N-Normal|1|FM15-METAR|223|ICAO-KSVE|2.1|N-Normal|1|FM15-METAR|223|ICAO-KSVE|||||||||||||80|Derived||FM15-METAR|223|ICAO-KSVE|-4.0|Derived||FM15-METAR|223|ICAO-KSVE|||||||||||||||||||||||||||||||||||||||||||||||||||||||||||||||||||1029.1||1|FM15-METAR|223|ICAO-KSVE|||||||||||||||||||||||||||||||||||||||||||MET063METAR KSVE 290935Z AUTO 30004KT 10SM CLR M03/M06 A3039 RMK AO2=||F||223|ICAO-KSVE
USI0000KSVE|SUSANVILLE MUNI|2016|12|29|09|55|40.3757|-120.5727|1264.6|-4.0||1|FM15-METAR|223|ICAO-KSVE|-6.0||1|FM15-METAR|223|ICAO-KSVE|884.6||4|FM15-METAR|223|ICAO-KSVE|||||||290|N-Normal|1|FM15-METAR|223|ICAO-KSVE|2.1|N-Normal|1|FM15-METAR|223|ICAO-KSVE|||||||||||||86|Derived||FM15-METAR|223|ICAO-KSVE|-4.7|Derived||FM15-METAR|223|ICAO-KSVE|||||||||||||||||||||||||||||||||||||||||||||||||||||||||||||||||||1029.1||1|FM15-METAR|223|ICAO-KSVE|||||||||||||||||||||||||||||||||||||||||||MET063METAR KSVE 290955Z AUTO 29004KT 10SM CLR M04/M06 A3039 RMK AO2=||F||223|ICAO-KSVE
USI0000KSVE|SUSANVILLE MUNI|2016|12|29|10|15|40.3757|-120.5727|1264.6|-4.0||1|FM15-METAR|223|ICAO-KSVE|-6.0||1|FM15-METAR|223|ICAO-KSVE|884.6||4|FM15-METAR|223|ICAO-KSVE|||||||300|N-Normal|1|FM15-METAR|223|ICAO-KSVE|2.1|N-Normal|1|FM15-METAR|223|ICAO-KSVE|||||||||||||86|Derived||FM15-METAR|223|ICAO-KSVE|-4.7|Derived||FM15-METAR|223|ICAO-KSVE|||||||||||||||||||||||||||||||||||||||||||||||||||||||||||||||||||1029.1||1|FM15-METAR|223|ICAO-KSVE|||||||||||||||||||||||||||||||||||||||||||MET063METAR KSVE 291015Z AUTO 30004KT 10SM CLR M04/M06 A3039 RMK AO2=||F||223|ICAO-KSVE
USI0000KSVE|SUSANVILLE MUNI|2016|12|29|10|35|40.3757|-120.5727|1264.6|-4.0||1|FM15-METAR|223|ICAO-KSVE|-6.0||1|FM15-METAR|223|ICAO-KSVE|884.9||4|FM15-METAR|223|ICAO-KSVE|||||||280|N-Normal|1|FM15-METAR|223|ICAO-KSVE|2.6|N-Normal|1|FM15-METAR|223|ICAO-KSVE|||||||||||||86|Derived||FM15-METAR|223|ICAO-KSVE|-4.7|Derived||FM15-METAR|223|ICAO-KSVE|||||||||||||||||||||||||||||||||||||||||||||||||||||||||||||||||||1029.5||1|FM15-METAR|223|ICAO-KSVE|||||||||||||||||||||||||||||||||||||||||||MET063METAR KSVE 291035Z AUTO 28005KT 10SM CLR M04/M06 A3040 RMK AO2=||F||223|ICAO-KSVE
USI0000KSVE|SUSANVILLE MUNI|2016|12|29|10|55|40.3757|-120.5727|1264.6|-5.0||1|FM15-METAR|223|ICAO-KSVE|-6.0||1|FM15-METAR|223|ICAO-KSVE|884.9||4|FM15-METAR|223|ICAO-KSVE|||||||270|N-Normal|1|FM15-METAR|223|ICAO-KSVE|1.5|N-Normal|1|FM15-METAR|223|ICAO-KSVE|||||||||||||93|Derived||FM15-METAR|223|ICAO-KSVE|-5.4|Derived||FM15-METAR|223|ICAO-KSVE|||||||||||||||||||||||||||||||||||||||||||||||||||||||||||||||||||1029.5||1|FM15-METAR|223|ICAO-KSVE|||||||||||||||||||||||||||||||||||||||||||MET063METAR KSVE 291055Z AUTO 27003KT 10SM CLR M05/M06 A3040 RMK AO2=||F||223|ICAO-KSVE
USI0000KSVE|SUSANVILLE MUNI|2016|12|29|11|15|40.3757|-120.5727|1264.6|-5.0||1|FM15-METAR|223|ICAO-KSVE|-6.0||1|FM15-METAR|223|ICAO-KSVE|884.6||4|FM15-METAR|223|ICAO-KSVE|||||||999|C-Calm|9|FM15-METAR|223|ICAO-KSVE|0.0|C-Calm|1|FM15-METAR|223|ICAO-KSVE|||||||||||||93|Derived||FM15-METAR|223|ICAO-KSVE|-5.4|Derived||FM15-METAR|223|ICAO-KSVE|||||||||||||||||||||||||||||||||||||||||||||||||||||||||||||||||||1029.1||1|FM15-METAR|223|ICAO-KSVE|||||||||||||||||||||||||||||||||||||||||||MET063METAR KSVE 291115Z AUTO 00000KT 10SM CLR M05/M06 A3039 RMK AO2=||F||223|ICAO-KSVE
USI0000KSVE|SUSANVILLE MUNI|2016|12|29|11|35|40.3757|-120.5727|1264.6|-5.0||1|FM15-METAR|223|ICAO-KSVE|-7.0||1|FM15-METAR|223|ICAO-KSVE|884.6||4|FM15-METAR|223|ICAO-KSVE|||||||300|N-Normal|1|FM15-METAR|223|ICAO-KSVE|1.5|N-Normal|1|FM15-METAR|223|ICAO-KSVE|||||||||||||86|Derived||FM15-METAR|223|ICAO-KSVE|-5.7|Derived||FM15-METAR|223|ICAO-KSVE|||||||||||||||||||||||||||||||||||||||||||||||||||||||||||||||||||1029.1||1|FM15-METAR|223|ICAO-KSVE|||||||||||||||||||||||||||||||||||||||||||MET063METAR KSVE 291135Z AUTO 30003KT 10SM CLR M05/M07 A3039 RMK AO2=||F||223|ICAO-KSVE
USI0000KSVE|SUSANVILLE MUNI|2016|12|29|11|55|40.3757|-120.5727|1264.6|-5.0||1|FM15-METAR|223|ICAO-KSVE|-7.0||1|FM15-METAR|223|ICAO-KSVE|884.6||4|FM15-METAR|223|ICAO-KSVE|||||||300|N-Normal|1|FM15-METAR|223|ICAO-KSVE|2.1|N-Normal|1|FM15-METAR|223|ICAO-KSVE|||||||||||||86|Derived||FM15-METAR|223|ICAO-KSVE|-5.7|Derived||FM15-METAR|223|ICAO-KSVE|||||||||||||||||||||||||||||||||||||||||||||||||||||||||||||||||||1029.1||1|FM15-METAR|223|ICAO-KSVE|||||||||||||||||||||||||||||||||||||||||||MET063METAR KSVE 291155Z AUTO 30004KT 10SM CLR M05/M07 A3039 RMK AO2=||F||223|ICAO-KSVE
USI0000KSVE|SUSANVILLE MUNI|2016|12|29|12|15|40.3757|-120.5727|1264.6|-5.0||1|FM15-METAR|223|ICAO-KSVE|-6.0||1|FM15-METAR|223|ICAO-KSVE|884.6||4|FM15-METAR|223|ICAO-KSVE|||||||280|N-Normal|1|FM15-METAR|223|ICAO-KSVE|1.5|N-Normal|1|FM15-METAR|223|ICAO-KSVE|||||||||||||93|Derived||FM15-METAR|223|ICAO-KSVE|-5.4|Derived||FM15-METAR|223|ICAO-KSVE|||||||||||||||||||||||||||||||||||||||||||||||||||||||||||||||||||1029.1||1|FM15-METAR|223|ICAO-KSVE|||||||||||||||||||||||||||||||||||||||||||MET063METAR KSVE 291215Z AUTO 28003KT 10SM CLR M05/M06 A3039 RMK AO2=||F||223|ICAO-KSVE
USI0000KSVE|SUSANVILLE MUNI|2016|12|29|12|35|40.3757|-120.5727|1264.6|-6.0||1|FM15-METAR|223|ICAO-KSVE|-7.0||1|FM15-METAR|223|ICAO-KSVE|884.3||4|FM15-METAR|223|ICAO-KSVE|||||||300|N-Normal|1|FM15-METAR|223|ICAO-KSVE|2.1|N-Normal|1|FM15-METAR|223|ICAO-KSVE|||||||||||||93|Derived||FM15-METAR|223|ICAO-KSVE|-6.5|Derived||FM15-METAR|223|ICAO-KSVE|||||||||||||||||||||||||||||||||||||||||||||||||||||||||||||||||||1028.8||1|FM15-METAR|223|ICAO-KSVE|||||||||||||||||||||||||||||||||||||||||||MET063METAR KSVE 291235Z AUTO 30004KT 10SM CLR M06/M07 A3038 RMK AO2=||F||223|ICAO-KSVE
USI0000KSVE|SUSANVILLE MUNI|2016|12|29|12|55|40.3757|-120.5727|1264.6|-5.0||1|FM15-METAR|223|ICAO-KSVE|-7.0||1|FM15-METAR|223|ICAO-KSVE|884.3||4|FM15-METAR|223|ICAO-KSVE|||||||300|N-Normal|1|FM15-METAR|223|ICAO-KSVE|2.1|N-Normal|1|FM15-METAR|223|ICAO-KSVE|||||||||||||86|Derived||FM15-METAR|223|ICAO-KSVE|-5.7|Derived||FM15-METAR|223|ICAO-KSVE|||||||||||||||||||||||||||||||||||||||||||||||||||||||||||||||||||1028.8||1|FM15-METAR|223|ICAO-KSVE|||||||||||||||||||||||||||||||||||||||||||MET063METAR KSVE 291255Z AUTO 30004KT 10SM CLR M05/M07 A3038 RMK AO2=||F||223|ICAO-KSVE
USI0000KSVE|SUSANVILLE MUNI|2016|12|29|13|15|40.3757|-120.5727|1264.6|-5.0||1|FM15-METAR|223|ICAO-KSVE|-7.0||1|FM15-METAR|223|ICAO-KSVE|884.3||4|FM15-METAR|223|ICAO-KSVE|||||||280|N-Normal|1|FM15-METAR|223|ICAO-KSVE|1.5|N-Normal|1|FM15-METAR|223|ICAO-KSVE|||||||||||||86|Derived||FM15-METAR|223|ICAO-KSVE|-5.7|Derived||FM15-METAR|223|ICAO-KSVE|||||||||||||||||||||||||||||||||||||||||||||||||||||||||||||||||||1028.8||1|FM15-METAR|223|ICAO-KSVE|||||||||||||||||||||||||||||||||||||||||||MET063METAR KSVE 291315Z AUTO 28003KT 10SM CLR M05/M07 A3038 RMK AO2=||F||223|ICAO-KSVE
USI0000KSVE|SUSANVILLE MUNI|2016|12|29|13|35|40.3757|-120.5727|1264.6|-6.0||1|FM15-METAR|223|ICAO-KSVE|-7.0||1|FM15-METAR|223|ICAO-KSVE|884.6||4|FM15-METAR|223|ICAO-KSVE|||||||280|N-Normal|1|FM15-METAR|223|ICAO-KSVE|1.5|N-Normal|1|FM15-METAR|223|ICAO-KSVE|||||||||||||93|Derived||FM15-METAR|223|ICAO-KSVE|-6.5|Derived||FM15-METAR|223|ICAO-KSVE|||||||||||||||||||||||||||||||||||||||||||||||||||||||||||||||||||1029.1||1|FM15-METAR|223|ICAO-KSVE|||||||||||||||||||||||||||||||||||||||||||MET063METAR KSVE 291335Z AUTO 28003KT 10SM CLR M06/M07 A3039 RMK AO2=||F||223|ICAO-KSVE
USI0000KSVE|SUSANVILLE MUNI|2016|12|29|13|55|40.3757|-120.5727|1264.6|-6.0||1|FM15-METAR|223|ICAO-KSVE|-7.0||1|FM15-METAR|223|ICAO-KSVE|884.6||4|FM15-METAR|223|ICAO-KSVE|||||||290|N-Normal|1|FM15-METAR|223|ICAO-KSVE|1.5|N-Normal|1|FM15-METAR|223|ICAO-KSVE|||||||||||||93|Derived||FM15-METAR|223|ICAO-KSVE|-6.5|Derived||FM15-METAR|223|ICAO-KSVE|||||||||||||||||||||||||||||||||||||||||||||||||||||||||||||||||||1029.1||1|FM15-METAR|223|ICAO-KSVE|||||||||||||||||||||||||||||||||||||||||||MET063METAR KSVE 291355Z AUTO 29003KT 10SM CLR M06/M07 A3039 RMK AO2=||F||223|ICAO-KSVE
USI0000KSVE|SUSANVILLE MUNI|2016|12|29|14|15|40.3757|-120.5727|1264.6|-5.0||1|FM15-METAR|223|ICAO-KSVE|-7.0||1|FM15-METAR|223|ICAO-KSVE|884.6||4|FM15-METAR|223|ICAO-KSVE|||||||290|N-Normal|1|FM15-METAR|223|ICAO-KSVE|2.1|N-Normal|1|FM15-METAR|223|ICAO-KSVE|||||||||||||86|Derived||FM15-METAR|223|ICAO-KSVE|-5.7|Derived||FM15-METAR|223|ICAO-KSVE|||||||||||||||||||||||||||||||||||||||||||||||||||||||||||||||||||1029.1||1|FM15-METAR|223|ICAO-KSVE|||||||||||||||||||||||||||||||||||||||||||MET063METAR KSVE 291415Z AUTO 29004KT 10SM CLR M05/M07 A3039 RMK AO2=||F||223|ICAO-KSVE
USI0000KSVE|SUSANVILLE MUNI|2016|12|29|14|35|40.3757|-120.5727|1264.6|-6.0||1|FM15-METAR|223|ICAO-KSVE|-7.0||1|FM15-METAR|223|ICAO-KSVE|884.9||4|FM15-METAR|223|ICAO-KSVE|||||||290|N-Normal|1|FM15-METAR|223|ICAO-KSVE|2.1|N-Normal|1|FM15-METAR|223|ICAO-KSVE|||||||||||||93|Derived||FM15-METAR|223|ICAO-KSVE|-6.5|Derived||FM15-METAR|223|ICAO-KSVE|||||||||||||||||||||||||||||||||||||||||||||||||||||||||||||||||||1029.5||1|FM15-METAR|223|ICAO-KSVE|||||||||||||||||||||||||||||||||||||||||||MET063METAR KSVE 291435Z AUTO 29004KT 10SM CLR M06/M07 A3040 RMK AO2=||F||223|ICAO-KSVE
USI0000KSVE|SUSANVILLE MUNI|2016|12|29|14|55|40.3757|-120.5727|1264.6|-6.0||1|FM15-METAR|223|ICAO-KSVE|-7.0||1|FM15-METAR|223|ICAO-KSVE|884.9||4|FM15-METAR|223|ICAO-KSVE|||||||300|N-Normal|1|FM15-METAR|223|ICAO-KSVE|2.1|N-Normal|1|FM15-METAR|223|ICAO-KSVE|||||||||||||93|Derived||FM15-METAR|223|ICAO-KSVE|-6.5|Derived||FM15-METAR|223|ICAO-KSVE|||||||||||||||||||||||||||||||||||||||||||||||||||||||||||||||||||1029.5||1|FM15-METAR|223|ICAO-KSVE|||||||||||||||||||||||||||||||||||||||||||MET063METAR KSVE 291455Z AUTO 30004KT 10SM CLR M06/M07 A3040 RMK AO2=||F||223|ICAO-KSVE
USI0000KSVE|SUSANVILLE MUNI|2016|12|29|15|15|40.3757|-120.5727|1264.6|-6.0||1|FM15-METAR|223|ICAO-KSVE|-7.0||1|FM15-METAR|223|ICAO-KSVE|884.9||4|FM15-METAR|223|ICAO-KSVE|||||||310|N-Normal|1|FM15-METAR|223|ICAO-KSVE|2.6|N-Normal|1|FM15-METAR|223|ICAO-KSVE|||||||||||||93|Derived||FM15-METAR|223|ICAO-KSVE|-6.5|Derived||FM15-METAR|223|ICAO-KSVE|||||||||||||||||||||||||||||||||||||||||||||||||||||||||||||||||||1029.5||1|FM15-METAR|223|ICAO-KSVE|||||||||||||||||||||||||||||||||||||||||||MET063METAR KSVE 291515Z AUTO 31005KT 10SM CLR M06/M07 A3040 RMK AO2=||F||223|ICAO-KSVE
USI0000KSVE|SUSANVILLE MUNI|2016|12|29|15|35|40.3757|-120.5727|1264.6|-6.0||1|FM15-METAR|223|ICAO-KSVE|-7.0||1|FM15-METAR|223|ICAO-KSVE|884.9||4|FM15-METAR|223|ICAO-KSVE|||||||300|N-Normal|1|FM15-METAR|223|ICAO-KSVE|1.5|N-Normal|1|FM15-METAR|223|ICAO-KSVE|||||||||||||93|Derived||FM15-METAR|223|ICAO-KSVE|-6.5|Derived||FM15-METAR|223|ICAO-KSVE|||||||||||||||||||||||||||||||||||||||||||||||||||||||||||||||||||1029.5||1|FM15-METAR|223|ICAO-KSVE|||||||||||||||||||||||||||||||||||||||||||MET062METAR KSVE 291535Z AUTO 30003KT 8SM CLR M06/M07 A3040 RMK AO2=||F||223|ICAO-KSVE
USI0000KSVE|SUSANVILLE MUNI|2016|12|29|15|55|40.3757|-120.5727|1264.6|-5.0||1|FM15-METAR|223|ICAO-KSVE|-7.0||1|FM15-METAR|223|ICAO-KSVE|885.2||4|FM15-METAR|223|ICAO-KSVE|||||||300|N-Normal|1|FM15-METAR|223|ICAO-KSVE|2.6|N-Normal|1|FM15-METAR|223|ICAO-KSVE|||||||||||||86|Derived||FM15-METAR|223|ICAO-KSVE|-5.7|Derived||FM15-METAR|223|ICAO-KSVE|||||||||||||||||||||||||||||||||||||||||||||||||||||||||||||||||||1029.8||1|FM15-METAR|223|ICAO-KSVE|||||||||||||||||||||||||||||||||||||||||||MET062METAR KSVE 291555Z AUTO 30005KT 8SM CLR M05/M07 A3041 RMK AO2=||F||223|ICAO-KSVE
USI0000KSVE|SUSANVILLE MUNI|2016|12|29|16|15|40.3757|-120.5727|1264.6|-5.0||1|FM15-METAR|223|ICAO-KSVE|-7.0||1|FM15-METAR|223|ICAO-KSVE|885.2||4|FM15-METAR|223|ICAO-KSVE|||||||290|N-Normal|1|FM15-METAR|223|ICAO-KSVE|2.1|N-Normal|1|FM15-METAR|223|ICAO-KSVE|||||||||||||86|Derived||FM15-METAR|223|ICAO-KSVE|-5.7|Derived||FM15-METAR|223|ICAO-KSVE|||||||||||||||||||||||||||||||||||||||||||||||||||||||||||||||||||1029.8||1|FM15-METAR|223|ICAO-KSVE|||||||||||||||||||||||||||||||||||||||||||MET062METAR KSVE 291615Z AUTO 29004KT 8SM CLR M05/M07 A3041 RMK AO2=||F||223|ICAO-KSVE
USI0000KSVE|SUSANVILLE MUNI|2016|12|29|16|35|40.3757|-120.5727|1264.6|-3.0||1|FM15-METAR|223|ICAO-KSVE|-6.0||1|FM15-METAR|223|ICAO-KSVE|885.5||4|FM15-METAR|223|ICAO-KSVE|||||||300|N-Normal|1|FM15-METAR|223|ICAO-KSVE|1.5|N-Normal|1|FM15-METAR|223|ICAO-KSVE|||||||||||||80|Derived||FM15-METAR|223|ICAO-KSVE|-4.0|Derived||FM15-METAR|223|ICAO-KSVE|||||||||||||||||||||||||||||||||||||||||||||||||||||||||||||||||||1030.1||1|FM15-METAR|223|ICAO-KSVE|||||||||||||||||||||||||||||||||||||||||||MET062METAR KSVE 291635Z AUTO 30003KT 8SM CLR M03/M06 A3042 RMK AO2=||F||223|ICAO-KSVE
USI0000KSVE|SUSANVILLE MUNI|2016|12|29|16|55|40.3757|-120.5727|1264.6|-2.0||1|FM15-METAR|223|ICAO-KSVE|-6.0||1|FM15-METAR|223|ICAO-KSVE|885.5||4|FM15-METAR|223|ICAO-KSVE|||||||999|C-Calm|9|FM15-METAR|223|ICAO-KSVE|0.0|C-Calm|1|FM15-METAR|223|ICAO-KSVE|||||||||||||74|Derived||FM15-METAR|223|ICAO-KSVE|-3.6|Derived||FM15-METAR|223|ICAO-KSVE|||||||||||||||||||||||||||||||||||||||||||||||||||||||||||||||||||1030.1||1|FM15-METAR|223|ICAO-KSVE|||||||||||||||||||||||||||||||||||||||||||MET063METAR KSVE 291655Z AUTO 00000KT 10SM CLR M02/M06 A3042 RMK AO2=||F||223|ICAO-KSVE
USI0000KSVE|SUSANVILLE MUNI|2016|12|29|17|15|40.3757|-120.5727|1264.6|-2.0||1|FM15-METAR|223|ICAO-KSVE|-5.0||1|FM15-METAR|223|ICAO-KSVE|885.5||4|FM15-METAR|223|ICAO-KSVE|||||||999|C-Calm|9|FM15-METAR|223|ICAO-KSVE|0.0|C-Calm|1|FM15-METAR|223|ICAO-KSVE|||||||||||||80|Derived||FM15-METAR|223|ICAO-KSVE|-3.2|Derived||FM15-METAR|223|ICAO-KSVE|||||||||||||||||||||||||||||||||||||||||||||||||||||||||||||||||||1030.1||1|FM15-METAR|223|ICAO-KSVE|||||||||||||||||||||||||||||||||||||||||||MET063METAR KSVE 291715Z AUTO 00000KT 10SM CLR M02/M05 A3042 RMK AO2=||F||223|ICAO-KSVE
USI0000KSVE|SUSANVILLE MUNI|2016|12|29|17|35|40.3757|-120.5727|1264.6|0.0||1|FM15-METAR|223|ICAO-KSVE|-4.0||1|FM15-METAR|223|ICAO-KSVE|885.8||4|FM15-METAR|223|ICAO-KSVE|||||||999|C-Calm|9|FM15-METAR|223|ICAO-KSVE|0.0|C-Calm|1|FM15-METAR|223|ICAO-KSVE|||||||||||||75|Derived||FM15-METAR|223|ICAO-KSVE|-1.5|Derived||FM15-METAR|223|ICAO-KSVE|||||||||||||||||||||||||||||||||||||||||||||||||||||||||||||||||||1030.5||1|FM15-METAR|223|ICAO-KSVE|||||||||||||||||||||||||||||||||||||||||||MET062METAR KSVE 291735Z AUTO 00000KT 10SM CLR 00/M04 A3043 RMK AO2=||F||223|ICAO-KSVE
USI0000KSVE|SUSANVILLE MUNI|2016|12|29|17|55|40.3757|-120.5727|1264.6|0.0||1|FM15-METAR|223|ICAO-KSVE|-3.0||1|FM15-METAR|223|ICAO-KSVE|885.5||4|FM15-METAR|223|ICAO-KSVE|||||||999|C-Calm|9|FM15-METAR|223|ICAO-KSVE|0.0|C-Calm|1|FM15-METAR|223|ICAO-KSVE|||||||||||||80|Derived||FM15-METAR|223|ICAO-KSVE|-1.1|Derived||FM15-METAR|223|ICAO-KSVE|||||||||||||||||||||||||||||||||||||||||||||||||||||||||||||||||||1030.1||1|FM15-METAR|223|ICAO-KSVE|||||||||||||||||||||||||||||||||||||||||||MET062METAR KSVE 291755Z AUTO 00000KT 10SM CLR 00/M03 A3042 RMK AO2=||F||223|ICAO-KSVE
USI0000KSVE|SUSANVILLE MUNI|2016|12|29|18|15|40.3757|-120.5727|1264.6|1.0||1|FM15-METAR|223|ICAO-KSVE|-2.0||1|FM15-METAR|223|ICAO-KSVE|885.8||4|FM15-METAR|223|ICAO-KSVE|||||||999|C-Calm|9|FM15-METAR|223|ICAO-KSVE|0.0|C-Calm|1|FM15-METAR|223|ICAO-KSVE|||||||||||||81|Derived||FM15-METAR|223|ICAO-KSVE|-0.2|Derived||FM15-METAR|223|ICAO-KSVE|||||||||||||||||||||||||||||||||||||||||||||||||||||||||||||||||||1030.5||1|FM15-METAR|223|ICAO-KSVE|||||||||||||||||||||||||||||||||||||||||||MET062METAR KSVE 291815Z AUTO 00000KT 10SM CLR 01/M02 A3043 RMK AO2=||F||223|ICAO-KSVE
USI0000KSVE|SUSANVILLE MUNI|2016|12|29|18|35|40.3757|-120.5727|1264.6|1.0||1|FM15-METAR|223|ICAO-KSVE|-3.0||1|FM15-METAR|223|ICAO-KSVE|885.8||4|FM15-METAR|223|ICAO-KSVE|||||||999|C-Calm|9|FM15-METAR|223|ICAO-KSVE|0.0|C-Calm|1|FM15-METAR|223|ICAO-KSVE|||||||||||||75|Derived||FM15-METAR|223|ICAO-KSVE|-0.4|Derived||FM15-METAR|223|ICAO-KSVE|||||||||||||||||||||||||||||||||||||||||||||||||||||||||||||||||||1030.5||1|FM15-METAR|223|ICAO-KSVE|||||||||||||||||||||||||||||||||||||||||||MET062METAR KSVE 291835Z AUTO 00000KT 10SM CLR 01/M03 A3043 RMK AO2=||F||223|ICAO-KSVE
USI0000KSVE|SUSANVILLE MUNI|2016|12|29|18|55|40.3757|-120.5727|1264.6|2.0||1|FM15-METAR|223|ICAO-KSVE|-3.0||1|FM15-METAR|223|ICAO-KSVE|885.5||4|FM15-METAR|223|ICAO-KSVE|||||||999|C-Calm|9|FM15-METAR|223|ICAO-KSVE|0.0|C-Calm|1|FM15-METAR|223|ICAO-KSVE|||||||||||||70|Derived||FM15-METAR|223|ICAO-KSVE|0.2|Derived||FM15-METAR|223|ICAO-KSVE|||||||||||||||||||||||||||||||||||||||||||||||||||||||||||||||||||1030.1||1|FM15-METAR|223|ICAO-KSVE|||||||||||||||||||||||||||||||||||||||||||MET062METAR KSVE 291855Z AUTO 00000KT 10SM CLR 02/M03 A3042 RMK AO2=||F||223|ICAO-KSVE
USI0000KSVE|SUSANVILLE MUNI|2016|12|29|19|15|40.3757|-120.5727|1264.6|3.0||1|FM15-METAR|223|ICAO-KSVE|-3.0||1|FM15-METAR|223|ICAO-KSVE|885.2||4|FM15-METAR|223|ICAO-KSVE|||||||999|C-Calm|9|FM15-METAR|223|ICAO-KSVE|0.0|C-Calm|1|FM15-METAR|223|ICAO-KSVE|||||||||||||65|Derived||FM15-METAR|223|ICAO-KSVE|0.5|Derived||FM15-METAR|223|ICAO-KSVE|||||||||||||||||||||||||||||||||||||||||||||||||||||||||||||||||||1029.8||1|FM15-METAR|223|ICAO-KSVE|||||||||||||||||||||||||||||||||||||||||||MET062METAR KSVE 291915Z AUTO 00000KT 10SM CLR 03/M03 A3041 RMK AO2=||F||223|ICAO-KSVE
USI0000KSVE|SUSANVILLE MUNI|2016|12|29|19|35|40.3757|-120.5727|1264.6|3.0||1|FM15-METAR|223|ICAO-KSVE|-3.0||1|FM15-METAR|223|ICAO-KSVE|884.9||4|FM15-METAR|223|ICAO-KSVE|||||||999|C-Calm|9|FM15-METAR|223|ICAO-KSVE|0.0|C-Calm|1|FM15-METAR|223|ICAO-KSVE|||||||||||||65|Derived||FM15-METAR|223|ICAO-KSVE|0.5|Derived||FM15-METAR|223|ICAO-KSVE|||||||||||||||||||||||||||||||||||||||||||||||||||||||||||||||||||1029.5||1|FM15-METAR|223|ICAO-KSVE|||||||||||||||||||||||||||||||||||||||||||MET062METAR KSVE 291935Z AUTO 00000KT 10SM CLR 03/M03 A3040 RMK AO2=||F||223|ICAO-KSVE
USI0000KSVE|SUSANVILLE MUNI|2016|12|29|19|55|40.3757|-120.5727|1264.6|4.0||1|FM15-METAR|223|ICAO-KSVE|-3.0||1|FM15-METAR|223|ICAO-KSVE|884.6||4|FM15-METAR|223|ICAO-KSVE|||||||999|C-Calm|9|FM15-METAR|223|ICAO-KSVE|0.0|C-Calm|1|FM15-METAR|223|ICAO-KSVE|||||||||||||61|Derived||FM15-METAR|223|ICAO-KSVE|1.1|Derived||FM15-METAR|223|ICAO-KSVE|||||||||||||||||||||||||||||||||||||||||||||||||||||||||||||||||||1029.1||1|FM15-METAR|223|ICAO-KSVE|||||||||||||||||||||||||||||||||||||||||||MET062METAR KSVE 291955Z AUTO 00000KT 10SM CLR 04/M03 A3039 RMK AO2=||F||223|ICAO-KSVE
USI0000KSVE|SUSANVILLE MUNI|2016|12|29|20|15|40.3757|-120.5727|1264.6|4.0||1|FM15-METAR|223|ICAO-KSVE|-3.0||1|FM15-METAR|223|ICAO-KSVE|884.3||4|FM15-METAR|223|ICAO-KSVE|||||||999|C-Calm|9|FM15-METAR|223|ICAO-KSVE|0.0|C-Calm|1|FM15-METAR|223|ICAO-KSVE|||||||||||||61|Derived||FM15-METAR|223|ICAO-KSVE|1.1|Derived||FM15-METAR|223|ICAO-KSVE|||||||||||||||||||||||||||||||||||||||||||||||||||||||||||||||||||1028.8||1|FM15-METAR|223|ICAO-KSVE|||||||||||||||||||||||||||||||||||||||||||MET062METAR KSVE 292015Z AUTO 00000KT 10SM CLR 04/M03 A3038 RMK AO2=||F||223|ICAO-KSVE
USI0000KSVE|SUSANVILLE MUNI|2016|12|29|20|35|40.3757|-120.5727|1264.6|4.0||1|FM15-METAR|223|ICAO-KSVE|-2.0||1|FM15-METAR|223|ICAO-KSVE|883.7||4|FM15-METAR|223|ICAO-KSVE|||||||999|C-Calm|9|FM15-METAR|223|ICAO-KSVE|0.0|C-Calm|1|FM15-METAR|223|ICAO-KSVE|||||||||||||65|Derived||FM15-METAR|223|ICAO-KSVE|1.3|Derived||FM15-METAR|223|ICAO-KSVE|||||||||||||||||||||||||||||||||||||||||||||||||||||||||||||||||||1028.1||1|FM15-METAR|223|ICAO-KSVE|||||||||||||||||||||||||||||||||||||||||||MET062METAR KSVE 292035Z AUTO 00000KT 10SM CLR 04/M02 A3036 RMK AO2=||F||223|ICAO-KSVE
USI0000KSVE|SUSANVILLE MUNI|2016|12|29|20|55|40.3757|-120.5727|1264.6|4.0||1|FM15-METAR|223|ICAO-KSVE|-3.0||1|FM15-METAR|223|ICAO-KSVE|883.4||4|FM15-METAR|223|ICAO-KSVE|||||||090|N-Normal|1|FM15-METAR|223|ICAO-KSVE|1.5|N-Normal|1|FM15-METAR|223|ICAO-KSVE|||||||||||||61|Derived||FM15-METAR|223|ICAO-KSVE|1.1|Derived||FM15-METAR|223|ICAO-KSVE|||||||||||||||||||||||||||||||||||||||||||||||||||||||||||||||||||1027.8||1|FM15-METAR|223|ICAO-KSVE|||||||||||||||||||||||||||||||||||||||||||MET062METAR KSVE 292055Z AUTO 09003KT 10SM CLR 04/M03 A3035 RMK AO2=||F||223|ICAO-KSVE
USI0000KSVE|SUSANVILLE MUNI|2016|12|29|21|15|40.3757|-120.5727|1264.6|6.0||1|FM15-METAR|223|ICAO-KSVE|-2.0||1|FM15-METAR|223|ICAO-KSVE|883.1||4|FM15-METAR|223|ICAO-KSVE|||||||999|C-Calm|9|FM15-METAR|223|ICAO-KSVE|0.0|C-Calm|1|FM15-METAR|223|ICAO-KSVE|||||||||||||57|Derived||FM15-METAR|223|ICAO-KSVE|2.6|Derived||FM15-METAR|223|ICAO-KSVE|||||||||||||||||||||||||||||||||||||||||||||||||||||||||||||||||||1027.4||1|FM15-METAR|223|ICAO-KSVE|||||||||||||||||||||||||||||||||||||||||||MET062METAR KSVE 292115Z AUTO 00000KT 10SM CLR 06/M02 A3034 RMK AO2=||F||223|ICAO-KSVE
USI0000KSVE|SUSANVILLE MUNI|2016|12|29|21|35|40.3757|-120.5727|1264.6|6.0||1|FM15-METAR|223|ICAO-KSVE|-2.0||1|FM15-METAR|223|ICAO-KSVE|883.1||4|FM15-METAR|223|ICAO-KSVE|||||||130|N-Normal|1|FM15-METAR|223|ICAO-KSVE|2.1|N-Normal|1|FM15-METAR|223|ICAO-KSVE|||||||||||||57|Derived||FM15-METAR|223|ICAO-KSVE|2.6|Derived||FM15-METAR|223|ICAO-KSVE|||||||||||||||||||||||||||||||||||||||||||||||||||||||||||||||||||1027.4||1|FM15-METAR|223|ICAO-KSVE|||||||||||||||||||||||||||||||||||||||||||MET062METAR KSVE 292135Z AUTO 13004KT 10SM CLR 06/M02 A3034 RMK AO2=||F||223|ICAO-KSVE
USI0000KSVE|SUSANVILLE MUNI|2016|12|29|21|55|40.3757|-120.5727|1264.6|6.0||1|FM15-METAR|223|ICAO-KSVE|-2.0||1|FM15-METAR|223|ICAO-KSVE|882.8||4|FM15-METAR|223|ICAO-KSVE|||||||110|N-Normal|1|FM15-METAR|223|ICAO-KSVE|2.1|N-Normal|1|FM15-METAR|223|ICAO-KSVE|||||||||||||57|Derived||FM15-METAR|223|ICAO-KSVE|2.6|Derived||FM15-METAR|223|ICAO-KSVE|||||||||||||||||||||||||||||||||||||||||||||||||||||||||||||||||||1027.1||1|FM15-METAR|223|ICAO-KSVE|||||||||||||||||||||||||||||||||||||||||||MET062METAR KSVE 292155Z AUTO 11004KT 10SM CLR 06/M02 A3033 RMK AO2=||F||223|ICAO-KSVE
USI0000KSVE|SUSANVILLE MUNI|2016|12|29|22|15|40.3757|-120.5727|1264.6|6.0||1|FM15-METAR|223|ICAO-KSVE|-2.0||1|FM15-METAR|223|ICAO-KSVE|882.8||4|FM15-METAR|223|ICAO-KSVE|||||||120|N-Normal|1|FM15-METAR|223|ICAO-KSVE|2.1|N-Normal|1|FM15-METAR|223|ICAO-KSVE|||||||||||||57|Derived||FM15-METAR|223|ICAO-KSVE|2.6|Derived||FM15-METAR|223|ICAO-KSVE|||||||||||||||||||||||||||||||||||||||||||||||||||||||||||||||||||1027.1||1|FM15-METAR|223|ICAO-KSVE|||||||||||||||||||||||||||||||||||||||||||MET062METAR KSVE 292215Z AUTO 12004KT 10SM CLR 06/M02 A3033 RMK AO2=||F||223|ICAO-KSVE
USI0000KSVE|SUSANVILLE MUNI|2016|12|29|22|35|40.3757|-120.5727|1264.6|6.0||1|FM15-METAR|223|ICAO-KSVE|-2.0||1|FM15-METAR|223|ICAO-KSVE|882.8||4|FM15-METAR|223|ICAO-KSVE|||||||110|N-Normal|1|FM15-METAR|223|ICAO-KSVE|2.6|N-Normal|1|FM15-METAR|223|ICAO-KSVE|||||||||||||57|Derived||FM15-METAR|223|ICAO-KSVE|2.6|Derived||FM15-METAR|223|ICAO-KSVE|||||||||||||||||||||||||||||||||||||||||||||||||||||||||||||||||||1027.1||1|FM15-METAR|223|ICAO-KSVE|||||||||||||||||||||||||||||||||||||||||||MET062METAR KSVE 292235Z AUTO 11005KT 10SM CLR 06/M02 A3033 RMK AO2=||F||223|ICAO-KSVE
USI0000KSVE|SUSANVILLE MUNI|2016|12|29|22|55|40.3757|-120.5727|1264.6|6.0||1|FM15-METAR|223|ICAO-KSVE|-2.0||1|FM15-METAR|223|ICAO-KSVE|882.8||4|FM15-METAR|223|ICAO-KSVE|||||||170|N-Normal|1|FM15-METAR|223|ICAO-KSVE|1.5|N-Normal|1|FM15-METAR|223|ICAO-KSVE|||||||||||||57|Derived||FM15-METAR|223|ICAO-KSVE|2.6|Derived||FM15-METAR|223|ICAO-KSVE|||||||||||||||||||||||||||||||||||||||||||||||||||||||||||||||||||1027.1||1|FM15-METAR|223|ICAO-KSVE|||||||||||||||||||||||||||||||||||||||||||MET062METAR KSVE 292255Z AUTO 17003KT 10SM CLR 06/M02 A3033 RMK AO2=||F||223|ICAO-KSVE
USI0000KSVE|SUSANVILLE MUNI|2016|12|29|23|15|40.3757|-120.5727|1264.6|6.0||1|FM15-METAR|223|ICAO-KSVE|-2.0||1|FM15-METAR|223|ICAO-KSVE|882.8||4|FM15-METAR|223|ICAO-KSVE|||||||140|N-Normal|1|FM15-METAR|223|ICAO-KSVE|2.1|N-Normal|1|FM15-METAR|223|ICAO-KSVE|||||||||||||57|Derived||FM15-METAR|223|ICAO-KSVE|2.6|Derived||FM15-METAR|223|ICAO-KSVE|||||||||||||||||||||||||||||||||||||||||||||||||||||||||||||||||||1027.1||1|FM15-METAR|223|ICAO-KSVE|||||||||||||||||||||||||||||||||||||||||||MET062METAR KSVE 292315Z AUTO 14004KT 10SM CLR 06/M02 A3033 RMK AO2=||F||223|ICAO-KSVE
USI0000KSVE|SUSANVILLE MUNI|2016|12|29|23|35|40.3757|-120.5727|1264.6|6.0||1|FM15-METAR|223|ICAO-KSVE|-2.0||1|FM15-METAR|223|ICAO-KSVE|882.8||4|FM15-METAR|223|ICAO-KSVE|||||||160|N-Normal|1|FM15-METAR|223|ICAO-KSVE|2.1|N-Normal|1|FM15-METAR|223|ICAO-KSVE|||||||||||||57|Derived||FM15-METAR|223|ICAO-KSVE|2.6|Derived||FM15-METAR|223|ICAO-KSVE|||||||||||||||||||||||||||||||||||||||||||||||||||||||||||||||||||1027.1||1|FM15-METAR|223|ICAO-KSVE|||||||||||||||||||||||||||||||||||||||||||MET062METAR KSVE 292335Z AUTO 16004KT 10SM CLR 06/M02 A3033 RMK AO2=||F||223|ICAO-KSVE
USI0000KSVE|SUSANVILLE MUNI|2016|12|29|23|55|40.3757|-120.5727|1264.6|6.0||1|FM15-METAR|223|ICAO-KSVE|-2.0||1|FM15-METAR|223|ICAO-KSVE|882.4||4|FM15-METAR|223|ICAO-KSVE|||||||170|N-Normal|1|FM15-METAR|223|ICAO-KSVE|1.5|N-Normal|1|FM15-METAR|223|ICAO-KSVE|||||||||||||57|Derived||FM15-METAR|223|ICAO-KSVE|2.6|Derived||FM15-METAR|223|ICAO-KSVE|||||||||||||||||||||||||||||||||||||||||||||||||||||||||||||||||||1026.7||1|FM15-METAR|223|ICAO-KSVE|||||||||||||||||||||||||||||||||||||||||||MET062METAR KSVE 292355Z AUTO 17003KT 10SM CLR 06/M02 A3032 RMK AO2=||F||223|ICAO-KSVE
USI0000KSVE|SUSANVILLE MUNI|2016|12|30|00|15|40.3757|-120.5727|1264.6|4.0||1|FM15-METAR|223|ICAO-KSVE|-2.0||1|FM15-METAR|223|ICAO-KSVE|882.4||4|FM15-METAR|223|ICAO-KSVE|||||||170|N-Normal|1|FM15-METAR|223|ICAO-KSVE|2.6|N-Normal|1|FM15-METAR|223|ICAO-KSVE|||||||||||||65|Derived||FM15-METAR|223|ICAO-KSVE|1.3|Derived||FM15-METAR|223|ICAO-KSVE|||||||||||||||||||||||||||||||||||||||||||||||||||||||||||||||||||1026.7||1|FM15-METAR|223|ICAO-KSVE|||||||||||||||||||||||||||||||||||||||||||MET062METAR KSVE 300015Z AUTO 17005KT 10SM CLR 04/M02 A3032 RMK AO2=||F||223|ICAO-KSVE
USI0000KSVE|SUSANVILLE MUNI|2016|12|30|00|35|40.3757|-120.5727|1264.6|2.0||1|FM15-METAR|223|ICAO-KSVE|-3.0||1|FM15-METAR|223|ICAO-KSVE|882.2||4|FM15-METAR|223|ICAO-KSVE|||||||160|N-Normal|1|FM15-METAR|223|ICAO-KSVE|3.1|N-Normal|1|FM15-METAR|223|ICAO-KSVE|||||||||||||70|Derived||FM15-METAR|223|ICAO-KSVE|0.2|Derived||FM15-METAR|223|ICAO-KSVE|||||||||||||||||||||||||||||||||||||||||||||||||||||||||||||||||||1026.4||1|FM15-METAR|223|ICAO-KSVE|||||||||||||||||||||||||||||||||||||||||||MET062METAR KSVE 300035Z AUTO 16006KT 10SM CLR 02/M03 A3031 RMK AO2=||F||223|ICAO-KSVE
USI0000KSVE|SUSANVILLE MUNI|2016|12|30|00|55|40.3757|-120.5727|1264.6|2.0||1|FM15-METAR|223|ICAO-KSVE|-2.0||1|FM15-METAR|223|ICAO-KSVE|882.2||4|FM15-METAR|223|ICAO-KSVE|||||||160|N-Normal|1|FM15-METAR|223|ICAO-KSVE|3.1|N-Normal|1|FM15-METAR|223|ICAO-KSVE|||||||||||||75|Derived||FM15-METAR|223|ICAO-KSVE|0.4|Derived||FM15-METAR|223|ICAO-KSVE|||||||||||||||||||||||||||||||||||||||||||||||||||||||||||||||||||1026.4||1|FM15-METAR|223|ICAO-KSVE|||||||||||||||||||||||||||||||||||||||||||MET062METAR KSVE 300055Z AUTO 16006KT 10SM CLR 02/M02 A3031 RMK AO2=||F||223|ICAO-KSVE
USI0000KSVE|SUSANVILLE MUNI|2016|12|30|01|15|40.3757|-120.5727|1264.6|1.0||1|FM15-METAR|223|ICAO-KSVE|-3.0||1|FM15-METAR|223|ICAO-KSVE|882.2||4|FM15-METAR|223|ICAO-KSVE|||||||999|C-Calm|9|FM15-METAR|223|ICAO-KSVE|0.0|C-Calm|1|FM15-METAR|223|ICAO-KSVE|||||||||||||75|Derived||FM15-METAR|223|ICAO-KSVE|-0.4|Derived||FM15-METAR|223|ICAO-KSVE|||||||||||||||||||||||||||||||||||||||||||||||||||||||||||||||||||1026.4||1|FM15-METAR|223|ICAO-KSVE|||||||||||||||||||||||||||||||||||||||||||MET062METAR KSVE 300115Z AUTO 00000KT 10SM CLR 01/M03 A3031 RMK AO2=||F||223|ICAO-KSVE
USI0000KSVE|SUSANVILLE MUNI|2016|12|30|01|35|40.3757|-120.5727|1264.6|0.0||1|FM15-METAR|223|ICAO-KSVE|-3.0||1|FM15-METAR|223|ICAO-KSVE|882.2||4|FM15-METAR|223|ICAO-KSVE|||||||280|N-Normal|1|FM15-METAR|223|ICAO-KSVE|2.1|N-Normal|1|FM15-METAR|223|ICAO-KSVE|||||||||||||80|Derived||FM15-METAR|223|ICAO-KSVE|-1.1|Derived||FM15-METAR|223|ICAO-KSVE|||||||||||||||||||||||||||||||||||||||||||||||||||||||||||||||||||1026.4||1|FM15-METAR|223|ICAO-KSVE|||||||||||||||||||||||||||||||||||||||||||MET062METAR KSVE 300135Z AUTO 28004KT 10SM CLR 00/M03 A3031 RMK AO2=||F||223|ICAO-KSVE
USI0000KSVE|SUSANVILLE MUNI|2016|12|30|01|55|40.3757|-120.5727|1264.6|0.0||1|FM15-METAR|223|ICAO-KSVE|-3.0||1|FM15-METAR|223|ICAO-KSVE|882.2||4|FM15-METAR|223|ICAO-KSVE|||||||310|N-Normal|1|FM15-METAR|223|ICAO-KSVE|2.1|N-Normal|1|FM15-METAR|223|ICAO-KSVE|||||||||||||80|Derived||FM15-METAR|223|ICAO-KSVE|-1.1|Derived||FM15-METAR|223|ICAO-KSVE|||||||||||||||||||||||||||||||||||||||||||||||||||||||||||||||||||1026.4||1|FM15-METAR|223|ICAO-KSVE|||||||||||||||||||||||||||||||||||||||||||MET062METAR KSVE 300155Z AUTO 31004KT 10SM CLR 00/M03 A3031 RMK AO2=||F||223|ICAO-KSVE
USI0000KSVE|SUSANVILLE MUNI|2016|12|30|02|15|40.3757|-120.5727|1264.6|0.0||1|FM15-METAR|223|ICAO-KSVE|-3.0||1|FM15-METAR|223|ICAO-KSVE|881.9||4|FM15-METAR|223|ICAO-KSVE|||||||290|N-Normal|1|FM15-METAR|223|ICAO-KSVE|1.5|N-Normal|1|FM15-METAR|223|ICAO-KSVE|||||||||||||80|Derived||FM15-METAR|223|ICAO-KSVE|-1.1|Derived||FM15-METAR|223|ICAO-KSVE|||||||||||||||||||||||||||||||||||||||||||||||||||||||||||||||||||1026.1||1|FM15-METAR|223|ICAO-KSVE|||||||||||||||||||||||||||||||||||||||||||MET062METAR KSVE 300215Z AUTO 29003KT 10SM CLR 00/M03 A3030 RMK AO2=||F||223|ICAO-KSVE
USI0000KSVE|SUSANVILLE MUNI|2016|12|30|02|35|40.3757|-120.5727|1264.6|-1.0||1|FM15-METAR|223|ICAO-KSVE|-3.0||1|FM15-METAR|223|ICAO-KSVE|882.2||4|FM15-METAR|223|ICAO-KSVE|||||||270|N-Normal|1|FM15-METAR|223|ICAO-KSVE|2.6|N-Normal|1|FM15-METAR|223|ICAO-KSVE|||||||||||||86|Derived||FM15-METAR|223|ICAO-KSVE|-1.8|Derived||FM15-METAR|223|ICAO-KSVE|||||||||||||||||||||||||||||||||||||||||||||||||||||||||||||||||||1026.4||1|FM15-METAR|223|ICAO-KSVE|||||||||||||||||||||||||||||||||||||||||||MET063METAR KSVE 300235Z AUTO 27005KT 10SM CLR M01/M03 A3031 RMK AO2=||F||223|ICAO-KSVE
USI0000KSVE|SUSANVILLE MUNI|2016|12|30|02|55|40.3757|-120.5727|1264.6|-1.0||1|FM15-METAR|223|ICAO-KSVE|-3.0||1|FM15-METAR|223|ICAO-KSVE|882.2||4|FM15-METAR|223|ICAO-KSVE|||||||270|N-Normal|1|FM15-METAR|223|ICAO-KSVE|2.1|N-Normal|1|FM15-METAR|223|ICAO-KSVE|||||||||||||86|Derived||FM15-METAR|223|ICAO-KSVE|-1.8|Derived||FM15-METAR|223|ICAO-KSVE|||||||||||||||||||||||||||||||||||||||||||||||||||||||||||||||||||1026.4||1|FM15-METAR|223|ICAO-KSVE|||||||||||||||||||||||||||||||||||||||||||MET063METAR KSVE 300255Z AUTO 27004KT 10SM CLR M01/M03 A3031 RMK AO2=||F||223|ICAO-KSVE
USI0000KSVE|SUSANVILLE MUNI|2016|12|30|03|15|40.3757|-120.5727|1264.6|-1.0||1|FM15-METAR|223|ICAO-KSVE|-3.0||1|FM15-METAR|223|ICAO-KSVE|882.2||4|FM15-METAR|223|ICAO-KSVE|||||||280|N-Normal|1|FM15-METAR|223|ICAO-KSVE|2.1|N-Normal|1|FM15-METAR|223|ICAO-KSVE|||||||||||||86|Derived||FM15-METAR|223|ICAO-KSVE|-1.8|Derived||FM15-METAR|223|ICAO-KSVE|||||||||||||||||||||||||||||||||||||||||||||||||||||||||||||||||||1026.4||1|FM15-METAR|223|ICAO-KSVE|||||||||||||||||||||||||||||||||||||||||||MET063METAR KSVE 300315Z AUTO 28004KT 10SM CLR M01/M03 A3031 RMK AO2=||F||223|ICAO-KSVE
USI0000KSVE|SUSANVILLE MUNI|2016|12|30|03|35|40.3757|-120.5727|1264.6|-1.0||1|FM15-METAR|223|ICAO-KSVE|-3.0||1|FM15-METAR|223|ICAO-KSVE|882.2||4|FM15-METAR|223|ICAO-KSVE|||||||290|N-Normal|1|FM15-METAR|223|ICAO-KSVE|2.1|N-Normal|1|FM15-METAR|223|ICAO-KSVE|||||||||||||86|Derived||FM15-METAR|223|ICAO-KSVE|-1.8|Derived||FM15-METAR|223|ICAO-KSVE|||||||||||||||||||||||||||||||||||||||||||||||||||||||||||||||||||1026.4||1|FM15-METAR|223|ICAO-KSVE|||||||||||||||||||||||||||||||||||||||||||MET063METAR KSVE 300335Z AUTO 29004KT 10SM CLR M01/M03 A3031 RMK AO2=||F||223|ICAO-KSVE
USI0000KSVE|SUSANVILLE MUNI|2016|12|30|03|55|40.3757|-120.5727|1264.6|-1.0||1|FM15-METAR|223|ICAO-KSVE|-3.0||1|FM15-METAR|223|ICAO-KSVE|882.2||4|FM15-METAR|223|ICAO-KSVE|||||||290|N-Normal|1|FM15-METAR|223|ICAO-KSVE|2.1|N-Normal|1|FM15-METAR|223|ICAO-KSVE|||||||||||||86|Derived||FM15-METAR|223|ICAO-KSVE|-1.8|Derived||FM15-METAR|223|ICAO-KSVE|||||||||||||||||||||||||||||||||||||||||||||||||||||||||||||||||||1026.4||1|FM15-METAR|223|ICAO-KSVE|||||||||||||||||||||||||||||||||||||||||||MET063METAR KSVE 300355Z AUTO 29004KT 10SM CLR M01/M03 A3031 RMK AO2=||F||223|ICAO-KSVE
USI0000KSVE|SUSANVILLE MUNI|2016|12|30|04|15|40.3757|-120.5727|1264.6|-2.0||1|FM15-METAR|223|ICAO-KSVE|-3.0||1|FM15-METAR|223|ICAO-KSVE|882.2||4|FM15-METAR|223|ICAO-KSVE|||||||300|N-Normal|1|FM15-METAR|223|ICAO-KSVE|2.1|N-Normal|1|FM15-METAR|223|ICAO-KSVE|||||||||||||93|Derived||FM15-METAR|223|ICAO-KSVE|-2.4|Derived||FM15-METAR|223|ICAO-KSVE|||||||||||||||||||||||||||||||||||||||||||||||||||||||||||||||||||1026.4||1|FM15-METAR|223|ICAO-KSVE|||||||||||||||||||||||||||||||||||||||||||MET063METAR KSVE 300415Z AUTO 30004KT 10SM CLR M02/M03 A3031 RMK AO2=||F||223|ICAO-KSVE
USI0000KSVE|SUSANVILLE MUNI|2016|12|30|04|35|40.3757|-120.5727|1264.6|-1.0||1|FM15-METAR|223|ICAO-KSVE|-3.0||1|FM15-METAR|223|ICAO-KSVE|882.2||4|FM15-METAR|223|ICAO-KSVE|||||||280|N-Normal|1|FM15-METAR|223|ICAO-KSVE|2.1|N-Normal|1|FM15-METAR|223|ICAO-KSVE|||||||||||||86|Derived||FM15-METAR|223|ICAO-KSVE|-1.8|Derived||FM15-METAR|223|ICAO-KSVE|||||||||||||||||||||||||||||||||||||||||||||||||||||||||||||||||||1026.4||1|FM15-METAR|223|ICAO-KSVE|||||||||||||||||||||||||||||||||||||||||||MET063METAR KSVE 300435Z AUTO 28004KT 10SM CLR M01/M03 A3031 RMK AO2=||F||223|ICAO-KSVE
USI0000KSVE|SUSANVILLE MUNI|2016|12|30|04|55|40.3757|-120.5727|1264.6|-2.0||1|FM15-METAR|223|ICAO-KSVE|-4.0||1|FM15-METAR|223|ICAO-KSVE|882.2||4|FM15-METAR|223|ICAO-KSVE|||||||280|N-Normal|1|FM15-METAR|223|ICAO-KSVE|2.1|N-Normal|1|FM15-METAR|223|ICAO-KSVE|||||||||||||86|Derived||FM15-METAR|223|ICAO-KSVE|-2.8|Derived||FM15-METAR|223|ICAO-KSVE|||||||||||||||||||||||||||||||||||||||||||||||||||||||||||||||||||1026.4||1|FM15-METAR|223|ICAO-KSVE|||||||||||||||||||||||||||||||||||||||||||MET063METAR KSVE 300455Z AUTO 28004KT 10SM CLR M02/M04 A3031 RMK AO2=||F||223|ICAO-KSVE
USI0000KSVE|SUSANVILLE MUNI|2016|12|30|05|15|40.3757|-120.5727|1264.6|-2.0||1|FM15-METAR|223|ICAO-KSVE|-4.0||1|FM15-METAR|223|ICAO-KSVE|882.2||4|FM15-METAR|223|ICAO-KSVE|||||||290|N-Normal|1|FM15-METAR|223|ICAO-KSVE|2.6|N-Normal|1|FM15-METAR|223|ICAO-KSVE|||||||||||||86|Derived||FM15-METAR|223|ICAO-KSVE|-2.8|Derived||FM15-METAR|223|ICAO-KSVE|||||||||||||||||||||||||||||||||||||||||||||||||||||||||||||||||||1026.4||1|FM15-METAR|223|ICAO-KSVE|||||||||||||||||||||||||||||||||||||||||||MET063METAR KSVE 300515Z AUTO 29005KT 10SM CLR M02/M04 A3031 RMK AO2=||F||223|ICAO-KSVE
USI0000KSVE|SUSANVILLE MUNI|2016|12|30|05|35|40.3757|-120.5727|1264.6|-2.0||1|FM15-METAR|223|ICAO-KSVE|-4.0||1|FM15-METAR|223|ICAO-KSVE|881.9||4|FM15-METAR|223|ICAO-KSVE|||||||290|N-Normal|1|FM15-METAR|223|ICAO-KSVE|2.1|N-Normal|1|FM15-METAR|223|ICAO-KSVE|||||||||||||86|Derived||FM15-METAR|223|ICAO-KSVE|-2.8|Derived||FM15-METAR|223|ICAO-KSVE|||||||||||||||||||||||||||||||||||||||||||||||||||||||||||||||||||1026.1||1|FM15-METAR|223|ICAO-KSVE|||||||||||||||||||||||||||||||||||||||||||MET063METAR KSVE 300535Z AUTO 29004KT 10SM CLR M02/M04 A3030 RMK AO2=||F||223|ICAO-KSVE
USI0000KSVE|SUSANVILLE MUNI|2016|12|30|05|55|40.3757|-120.5727|1264.6|-3.0||1|FM15-METAR|223|ICAO-KSVE|-5.0||1|FM15-METAR|223|ICAO-KSVE|882.2||4|FM15-METAR|223|ICAO-KSVE|||||||999|C-Calm|9|FM15-METAR|223|ICAO-KSVE|0.0|C-Calm|1|FM15-METAR|223|ICAO-KSVE|||||||||||||86|Derived||FM15-METAR|223|ICAO-KSVE|-3.6|Derived||FM15-METAR|223|ICAO-KSVE|||||||||||||||||||||||||||||||||||||||||||||||||||||||||||||||||||1026.4||1|FM15-METAR|223|ICAO-KSVE|||||||||||||||||||||||||||||||||||||||||||MET062METAR KSVE 300555Z AUTO 00000KT 7SM CLR M03/M05 A3031 RMK AO2=||F||223|ICAO-KSVE
USI0000KSVE|SUSANVILLE MUNI|2016|12|30|06|15|40.3757|-120.5727|1264.6|-3.0||1|FM15-METAR|223|ICAO-KSVE|-5.0||1|FM15-METAR|223|ICAO-KSVE|881.9||4|FM15-METAR|223|ICAO-KSVE|||||||260|N-Normal|1|FM15-METAR|223|ICAO-KSVE|1.5|N-Normal|1|FM15-METAR|223|ICAO-KSVE|||||||||||||86|Derived||FM15-METAR|223|ICAO-KSVE|-3.6|Derived||FM15-METAR|223|ICAO-KSVE|||||||||||||||||||||||||||||||||||||||||||||||||||||||||||||||||||1026.1||1|FM15-METAR|223|ICAO-KSVE|||||||||||||||||||||||||||||||||||||||||||MET063METAR KSVE 300615Z AUTO 26003KT 10SM CLR M03/M05 A3030 RMK AO2=||F||223|ICAO-KSVE
USI0000KSVE|SUSANVILLE MUNI|2016|12|30|06|35|40.3757|-120.5727|1264.6|-3.0||1|FM15-METAR|223|ICAO-KSVE|-5.0||1|FM15-METAR|223|ICAO-KSVE|881.6||4|FM15-METAR|223|ICAO-KSVE|||||||250|N-Normal|1|FM15-METAR|223|ICAO-KSVE|1.5|N-Normal|1|FM15-METAR|223|ICAO-KSVE|||||||||||||86|Derived||FM15-METAR|223|ICAO-KSVE|-3.6|Derived||FM15-METAR|223|ICAO-KSVE|||||||||||||||||||||||||||||||||||||||||||||||||||||||||||||||||||1025.7||1|FM15-METAR|223|ICAO-KSVE|||||||||||||||||||||||||||||||||||||||||||MET063METAR KSVE 300635Z AUTO 25003KT 10SM CLR M03/M05 A3029 RMK AO2=||F||223|ICAO-KSVE
USI0000KSVE|SUSANVILLE MUNI|2016|12|30|06|55|40.3757|-120.5727|1264.6|-3.0||1|FM15-METAR|223|ICAO-KSVE|-5.0||1|FM15-METAR|223|ICAO-KSVE|881.6||4|FM15-METAR|223|ICAO-KSVE|||||||999|C-Calm|9|FM15-METAR|223|ICAO-KSVE|0.0|C-Calm|1|FM15-METAR|223|ICAO-KSVE|||||||||||||86|Derived||FM15-METAR|223|ICAO-KSVE|-3.6|Derived||FM15-METAR|223|ICAO-KSVE|||||||||||||||||||||||||||||||||||||||||||||||||||||||||||||||||||1025.7||1|FM15-METAR|223|ICAO-KSVE|||||||||||||||||||||||||||||||||||||||||||MET063METAR KSVE 300655Z AUTO 00000KT 10SM CLR M03/M05 A3029 RMK AO2=||F||223|ICAO-KSVE
USI0000KSVE|SUSANVILLE MUNI|2016|12|30|07|15|40.3757|-120.5727|1264.6|-3.0||1|FM15-METAR|223|ICAO-KSVE|-5.0||1|FM15-METAR|223|ICAO-KSVE|881.6||4|FM15-METAR|223|ICAO-KSVE|||||||290|N-Normal|1|FM15-METAR|223|ICAO-KSVE|1.5|N-Normal|1|FM15-METAR|223|ICAO-KSVE|||||||||||||86|Derived||FM15-METAR|223|ICAO-KSVE|-3.6|Derived||FM15-METAR|223|ICAO-KSVE|||||||||||||||||||||||||||||||||||||||||||||||||||||||||||||||||||1025.7||1|FM15-METAR|223|ICAO-KSVE|||||||||||||||||||||||||||||||||||||||||||MET063METAR KSVE 300715Z AUTO 29003KT 10SM CLR M03/M05 A3029 RMK AO2=||F||223|ICAO-KSVE
USI0000KSVE|SUSANVILLE MUNI|2016|12|30|07|35|40.3757|-120.5727|1264.6|-4.0||1|FM15-METAR|223|ICAO-KSVE|-6.0||1|FM15-METAR|223|ICAO-KSVE|881.3||4|FM15-METAR|223|ICAO-KSVE|||||||300|N-Normal|1|FM15-METAR|223|ICAO-KSVE|1.5|N-Normal|1|FM15-METAR|223|ICAO-KSVE|||||||||||||86|Derived||FM15-METAR|223|ICAO-KSVE|-4.7|Derived||FM15-METAR|223|ICAO-KSVE|||||||||||||||||||||||||||||||||||||||||||||||||||||||||||||||||||1025.4||1|FM15-METAR|223|ICAO-KSVE|||||||||||||||||||||||||||||||||||||||||||MET062METAR KSVE 300735Z AUTO 30003KT 7SM CLR M04/M06 A3028 RMK AO2=||F||223|ICAO-KSVE
USI0000KSVE|SUSANVILLE MUNI|2016|12|30|07|55|40.3757|-120.5727|1264.6|-4.0||1|FM15-METAR|223|ICAO-KSVE|-5.0||1|FM15-METAR|223|ICAO-KSVE|881.0||4|FM15-METAR|223|ICAO-KSVE|||||||290|N-Normal|1|FM15-METAR|223|ICAO-KSVE|1.5|N-Normal|1|FM15-METAR|223|ICAO-KSVE|||||||||||||93|Derived||FM15-METAR|223|ICAO-KSVE|-4.3|Derived||FM15-METAR|223|ICAO-KSVE|||||||||||||||||||||||||||||||||||||||||||||||||||||||||||||||||||1025.1||1|FM15-METAR|223|ICAO-KSVE|||||||||||||||||||||||||||||||||||||||||||MET062METAR KSVE 300755Z AUTO 29003KT 8SM CLR M04/M05 A3027 RMK AO2=||F||223|ICAO-KSVE
USI0000KSVE|SUSANVILLE MUNI|2016|12|30|08|15|40.3757|-120.5727|1264.6|-4.0||1|FM15-METAR|223|ICAO-KSVE|-5.0||1|FM15-METAR|223|ICAO-KSVE|880.7||4|FM15-METAR|223|ICAO-KSVE|||||||270|N-Normal|1|FM15-METAR|223|ICAO-KSVE|1.5|N-Normal|1|FM15-METAR|223|ICAO-KSVE|||||||||||||93|Derived||FM15-METAR|223|ICAO-KSVE|-4.3|Derived||FM15-METAR|223|ICAO-KSVE|||||||||||||||||||||||||||||||||||||||||||||||||||||||||||||||||||1024.7||1|FM15-METAR|223|ICAO-KSVE|||||||||||||||||||||||||||||||||||||||||||MET063METAR KSVE 300815Z AUTO 27003KT 10SM CLR M04/M05 A3026 RMK AO2=||F||223|ICAO-KSVE
USI0000KSVE|SUSANVILLE MUNI|2016|12|30|08|35|40.3757|-120.5727|1264.6|-4.0||1|FM15-METAR|223|ICAO-KSVE|-6.0||1|FM15-METAR|223|ICAO-KSVE|880.7||4|FM15-METAR|223|ICAO-KSVE|||||||280|N-Normal|1|FM15-METAR|223|ICAO-KSVE|2.1|N-Normal|1|FM15-METAR|223|ICAO-KSVE|||||||||||||86|Derived||FM15-METAR|223|ICAO-KSVE|-4.7|Derived||FM15-METAR|223|ICAO-KSVE|||||||||||||||||||||||||||||||||||||||||||||||||||||||||||||||||||1024.7||1|FM15-METAR|223|ICAO-KSVE|||||||||||||||||||||||||||||||||||||||||||MET063METAR KSVE 300835Z AUTO 28004KT 10SM CLR M04/M06 A3026 RMK AO2=||F||223|ICAO-KSVE
USI0000KSVE|SUSANVILLE MUNI|2016|12|30|08|55|40.3757|-120.5727|1264.6|-4.0||1|FM15-METAR|223|ICAO-KSVE|-6.0||1|FM15-METAR|223|ICAO-KSVE|880.4||4|FM15-METAR|223|ICAO-KSVE|||||||300|N-Normal|1|FM15-METAR|223|ICAO-KSVE|2.1|N-Normal|1|FM15-METAR|223|ICAO-KSVE|||||||||||||86|Derived||FM15-METAR|223|ICAO-KSVE|-4.7|Derived||FM15-METAR|223|ICAO-KSVE|||||||||||||||||||||||||||||||||||||||||||||||||||||||||||||||||||1024.4||1|FM15-METAR|223|ICAO-KSVE|||||||||||||||||||||||||||||||||||||||||||MET063METAR KSVE 300855Z AUTO 30004KT 10SM CLR M04/M06 A3025 RMK AO2=||F||223|ICAO-KSVE
USI0000KSVE|SUSANVILLE MUNI|2016|12|30|09|15|40.3757|-120.5727|1264.6|-5.0||1|FM15-METAR|223|ICAO-KSVE|-6.0||1|FM15-METAR|223|ICAO-KSVE|880.1||4|FM15-METAR|223|ICAO-KSVE|||||||280|N-Normal|1|FM15-METAR|223|ICAO-KSVE|1.5|N-Normal|1|FM15-METAR|223|ICAO-KSVE|||||||||||||93|Derived||FM15-METAR|223|ICAO-KSVE|-5.4|Derived||FM15-METAR|223|ICAO-KSVE|||||||||||||||||||||||||||||||||||||||||||||||||||||||||||||||||||1024.0||1|FM15-METAR|223|ICAO-KSVE|||||||||||||||||||||||||||||||||||||||||||MET063METAR KSVE 300915Z AUTO 28003KT 10SM CLR M05/M06 A3024 RMK AO2=||F||223|ICAO-KSVE
USI0000KSVE|SUSANVILLE MUNI|2016|12|30|09|35|40.3757|-120.5727|1264.6|-5.0||1|FM15-METAR|223|ICAO-KSVE|-6.0||1|FM15-METAR|223|ICAO-KSVE|879.8||4|FM15-METAR|223|ICAO-KSVE|||||||270|N-Normal|1|FM15-METAR|223|ICAO-KSVE|1.5|N-Normal|1|FM15-METAR|223|ICAO-KSVE|||||||||||||93|Derived||FM15-METAR|223|ICAO-KSVE|-5.4|Derived||FM15-METAR|223|ICAO-KSVE|||||||||||||||||||||||||||||||||||||||||||||||||||||||||||||||||||1023.7||1|FM15-METAR|223|ICAO-KSVE|||||||||||||||||||||||||||||||||||||||||||MET063METAR KSVE 300935Z AUTO 27003KT 10SM CLR M05/M06 A3023 RMK AO2=||F||223|ICAO-KSVE
USI0000KSVE|SUSANVILLE MUNI|2016|12|30|09|55|40.3757|-120.5727|1264.6|-5.0||1|FM15-METAR|223|ICAO-KSVE|-6.0||1|FM15-METAR|223|ICAO-KSVE|879.8||4|FM15-METAR|223|ICAO-KSVE|||||||270|N-Normal|1|FM15-METAR|223|ICAO-KSVE|1.5|N-Normal|1|FM15-METAR|223|ICAO-KSVE|||||||||||||93|Derived||FM15-METAR|223|ICAO-KSVE|-5.4|Derived||FM15-METAR|223|ICAO-KSVE|||||||||||||||||||||||||||||||||||||||||||||||||||||||||||||||||||1023.7||1|FM15-METAR|223|ICAO-KSVE|||||||||||||||||||||||||||||||||||||||||||MET063METAR KSVE 300955Z AUTO 27003KT 10SM CLR M05/M06 A3023 RMK AO2=||F||223|ICAO-KSVE
USI0000KSVE|SUSANVILLE MUNI|2016|12|30|10|15|40.3757|-120.5727|1264.6|-5.0||1|FM15-METAR|223|ICAO-KSVE|-6.0||1|FM15-METAR|223|ICAO-KSVE|879.5||4|FM15-METAR|223|ICAO-KSVE|||||||999|C-Calm|9|FM15-METAR|223|ICAO-KSVE|0.0|C-Calm|1|FM15-METAR|223|ICAO-KSVE|||||||||||||93|Derived||FM15-METAR|223|ICAO-KSVE|-5.4|Derived||FM15-METAR|223|ICAO-KSVE|||||||||||||||||||||||||||||||||||||||||||||||||||||||||||||||||||1023.4||1|FM15-METAR|223|ICAO-KSVE|||||||||||||||||||||||||||||||||||||||||||MET063METAR KSVE 301015Z AUTO 00000KT 10SM CLR M05/M06 A3022 RMK AO2=||F||223|ICAO-KSVE
USI0000KSVE|SUSANVILLE MUNI|2016|12|30|10|35|40.3757|-120.5727|1264.6|-6.0||1|FM15-METAR|223|ICAO-KSVE|-7.0||1|FM15-METAR|223|ICAO-KSVE|879.5||4|FM15-METAR|223|ICAO-KSVE|||||||999|C-Calm|9|FM15-METAR|223|ICAO-KSVE|0.0|C-Calm|1|FM15-METAR|223|ICAO-KSVE|||||||||||||93|Derived||FM15-METAR|223|ICAO-KSVE|-6.5|Derived||FM15-METAR|223|ICAO-KSVE|||||||||||||||||||||||||||||||||||||||||||||||||||||||||||||||||||1023.4||1|FM15-METAR|223|ICAO-KSVE|||||||||||||||||||||||||||||||||||||||||||MET062METAR KSVE 301035Z AUTO 00000KT 7SM CLR M06/M07 A3022 RMK AO2=||F||223|ICAO-KSVE
USI0000KSVE|SUSANVILLE MUNI|2016|12|30|10|55|40.3757|-120.5727|1264.6|-6.0||1|FM15-METAR|223|ICAO-KSVE|-7.0||1|FM15-METAR|223|ICAO-KSVE|879.2||4|FM15-METAR|223|ICAO-KSVE|||||||310|N-Normal|1|FM15-METAR|223|ICAO-KSVE|1.5|N-Normal|1|FM15-METAR|223|ICAO-KSVE|||||||||||||93|Derived||FM15-METAR|223|ICAO-KSVE|-6.5|Derived||FM15-METAR|223|ICAO-KSVE|||||||||||||||||||||||||||||||||||||||||||||||||||||||||||||||||||1023.0||1|FM15-METAR|223|ICAO-KSVE|||||||||||||||||||||||||||||||||||||||||||MET062METAR KSVE 301055Z AUTO 31003KT 9SM CLR M06/M07 A3021 RMK AO2=||F||223|ICAO-KSVE
USI0000KSVE|SUSANVILLE MUNI|2016|12|30|11|15|40.3757|-120.5727|1264.6|-6.0||1|FM15-METAR|223|ICAO-KSVE|-7.0||1|FM15-METAR|223|ICAO-KSVE|878.9||4|FM15-METAR|223|ICAO-KSVE|||||||280|N-Normal|1|FM15-METAR|223|ICAO-KSVE|1.5|N-Normal|1|FM15-METAR|223|ICAO-KSVE|||||||||||||93|Derived||FM15-METAR|223|ICAO-KSVE|-6.5|Derived||FM15-METAR|223|ICAO-KSVE|||||||||||||||||||||||||||||||||||||||||||||||||||||||||||||||||||1022.7||1|FM15-METAR|223|ICAO-KSVE|||||||||||||||||||||||||||||||||||||||||||MET063METAR KSVE 301115Z AUTO 28003KT 10SM CLR M06/M07 A3020 RMK AO2=||F||223|ICAO-KSVE
USI0000KSVE|SUSANVILLE MUNI|2016|12|30|11|35|40.3757|-120.5727|1264.6|-6.0||1|FM15-METAR|223|ICAO-KSVE|-7.0||1|FM15-METAR|223|ICAO-KSVE|878.6||4|FM15-METAR|223|ICAO-KSVE|||||||290|N-Normal|1|FM15-METAR|223|ICAO-KSVE|2.1|N-Normal|1|FM15-METAR|223|ICAO-KSVE|||||||||||||93|Derived||FM15-METAR|223|ICAO-KSVE|-6.5|Derived||FM15-METAR|223|ICAO-KSVE|||||||||||||||||||||||||||||||||||||||||||||||||||||||||||||||||||1022.3||1|FM15-METAR|223|ICAO-KSVE|||||||||||||||||||||||||||||||||||||||||||MET063METAR KSVE 301135Z AUTO 29004KT 10SM CLR M06/M07 A3019 RMK AO2=||F||223|ICAO-KSVE
USI0000KSVE|SUSANVILLE MUNI|2016|12|30|11|55|40.3757|-120.5727|1264.6|-5.0||1|FM15-METAR|223|ICAO-KSVE|-6.0||1|FM15-METAR|223|ICAO-KSVE|878.6||4|FM15-METAR|223|ICAO-KSVE|||||||270|N-Normal|1|FM15-METAR|223|ICAO-KSVE|2.1|N-Normal|1|FM15-METAR|223|ICAO-KSVE|||||||||||||93|Derived||FM15-METAR|223|ICAO-KSVE|-5.4|Derived||FM15-METAR|223|ICAO-KSVE|||||||||||||||||||||||||||||||||||||||||||||||||||||||||||||||||||1022.3||1|FM15-METAR|223|ICAO-KSVE|||||||||||||||||||||||||||||||||||||||||||MET063METAR KSVE 301155Z AUTO 27004KT 10SM CLR M05/M06 A3019 RMK AO2=||F||223|ICAO-KSVE
USI0000KSVE|SUSANVILLE MUNI|2016|12|30|12|15|40.3757|-120.5727|1264.6|-5.0||1|FM15-METAR|223|ICAO-KSVE|-6.0||1|FM15-METAR|223|ICAO-KSVE|878.3||4|FM15-METAR|223|ICAO-KSVE|||||||290|N-Normal|1|FM15-METAR|223|ICAO-KSVE|2.1|N-Normal|1|FM15-METAR|223|ICAO-KSVE|||||||||||||93|Derived||FM15-METAR|223|ICAO-KSVE|-5.4|Derived||FM15-METAR|223|ICAO-KSVE|||||||||||||||||||||||||||||||||||||||||||||||||||||||||||||||||||1022.0||1|FM15-METAR|223|ICAO-KSVE|||||||||||||||||||||||||||||||||||||||||||MET063METAR KSVE 301215Z AUTO 29004KT 10SM CLR M05/M06 A3018 RMK AO2=||F||223|ICAO-KSVE
USI0000KSVE|SUSANVILLE MUNI|2016|12|30|12|35|40.3757|-120.5727|1264.6|-5.0||1|FM15-METAR|223|ICAO-KSVE|-7.0||1|FM15-METAR|223|ICAO-KSVE|878.3||4|FM15-METAR|223|ICAO-KSVE|||||||999|C-Calm|9|FM15-METAR|223|ICAO-KSVE|0.0|C-Calm|1|FM15-METAR|223|ICAO-KSVE|||||||||||||86|Derived||FM15-METAR|223|ICAO-KSVE|-5.8|Derived||FM15-METAR|223|ICAO-KSVE|||||||||||||||||||||||||||||||||||||||||||||||||||||||||||||||||||1022.0||1|FM15-METAR|223|ICAO-KSVE|||||||||||||||||||||||||||||||||||||||||||MET063METAR KSVE 301235Z AUTO 00000KT 10SM CLR M05/M07 A3018 RMK AO2=||F||223|ICAO-KSVE
USI0000KSVE|SUSANVILLE MUNI|2016|12|30|12|55|40.3757|-120.5727|1264.6|-6.0||1|FM15-METAR|223|ICAO-KSVE|-7.0||1|FM15-METAR|223|ICAO-KSVE|878.0||4|FM15-METAR|223|ICAO-KSVE|||||||999|C-Calm|9|FM15-METAR|223|ICAO-KSVE|0.0|C-Calm|1|FM15-METAR|223|ICAO-KSVE|||||||||||||93|Derived||FM15-METAR|223|ICAO-KSVE|-6.5|Derived||FM15-METAR|223|ICAO-KSVE|||||||||||||||||||||||||||||||||||||||||||||||||||||||||||||||||||1021.7||1|FM15-METAR|223|ICAO-KSVE|||||||||||||||||||||||||||||||||||||||||||MET062METAR KSVE 301255Z AUTO 00000KT 9SM CLR M06/M07 A3017 RMK AO2=||F||223|ICAO-KSVE
USI0000KSVE|SUSANVILLE MUNI|2016|12|30|13|15|40.3757|-120.5727|1264.6|-7.0||1|FM15-METAR|223|ICAO-KSVE|-8.0||1|FM15-METAR|223|ICAO-KSVE|877.7||4|FM15-METAR|223|ICAO-KSVE|||||||999|C-Calm|9|FM15-METAR|223|ICAO-KSVE|0.0|C-Calm|1|FM15-METAR|223|ICAO-KSVE|||||||||||||93|Derived||FM15-METAR|223|ICAO-KSVE|-7.4|Derived||FM15-METAR|223|ICAO-KSVE|||||||||||||||||||||||||||||||||||||||||||||||||||||||||||||||||||1021.3||1|FM15-METAR|223|ICAO-KSVE|||||||||||||||||||||||||||||||||||||||||||MET063METAR KSVE 301315Z AUTO 00000KT 10SM CLR M07/M08 A3016 RMK AO2=||F||223|ICAO-KSVE
USI0000KSVE|SUSANVILLE MUNI|2016|12|30|13|35|40.3757|-120.5727|1264.6|-7.0||1|FM15-METAR|223|ICAO-KSVE|-8.0||1|FM15-METAR|223|ICAO-KSVE|877.7||4|FM15-METAR|223|ICAO-KSVE|||||||260|N-Normal|1|FM15-METAR|223|ICAO-KSVE|1.5|N-Normal|1|FM15-METAR|223|ICAO-KSVE|||||||||||||93|Derived||FM15-METAR|223|ICAO-KSVE|-7.4|Derived||FM15-METAR|223|ICAO-KSVE|||||||||||||||||||||||||||||||||||||||||||||||||||||||||||||||||||1021.3||1|FM15-METAR|223|ICAO-KSVE|||||||||||||||||||||||||||||||||||||||||||MET063METAR KSVE 301335Z AUTO 26003KT 10SM CLR M07/M08 A3016 RMK AO2=||F||223|ICAO-KSVE
USI0000KSVE|SUSANVILLE MUNI|2016|12|30|13|55|40.3757|-120.5727|1264.6|-7.0||1|FM15-METAR|223|ICAO-KSVE|-8.0||1|FM15-METAR|223|ICAO-KSVE|877.4||4|FM15-METAR|223|ICAO-KSVE|||||||300|N-Normal|1|FM15-METAR|223|ICAO-KSVE|1.5|N-Normal|1|FM15-METAR|223|ICAO-KSVE|||||||||||||93|Derived||FM15-METAR|223|ICAO-KSVE|-7.4|Derived||FM15-METAR|223|ICAO-KSVE|||||||||||||||||||||||||||||||||||||||||||||||||||||||||||||||||||1021.0||1|FM15-METAR|223|ICAO-KSVE|||||||||||||||||||||||||||||||||||||||||||MET063METAR KSVE 301355Z AUTO 30003KT 10SM CLR M07/M08 A3015 RMK AO2=||F||223|ICAO-KSVE
USI0000KSVE|SUSANVILLE MUNI|2016|12|30|14|15|40.3757|-120.5727|1264.6|-7.0||1|FM15-METAR|223|ICAO-KSVE|-9.0||1|FM15-METAR|223|ICAO-KSVE|877.1||4|FM15-METAR|223|ICAO-KSVE|||||||330|N-Normal|1|FM15-METAR|223|ICAO-KSVE|1.5|N-Normal|1|FM15-METAR|223|ICAO-KSVE|||||||||||||86|Derived||FM15-METAR|223|ICAO-KSVE|-7.7|Derived||FM15-METAR|223|ICAO-KSVE|||||||||||||||||||||||||||||||||||||||||||||||||||||||||||||||||||1020.7||1|FM15-METAR|223|ICAO-KSVE|||||||||||||||||||||||||||||||||||||||||||MET062METAR KSVE 301415Z AUTO 33003KT 8SM CLR M07/M09 A3014 RMK AO2=||F||223|ICAO-KSVE
USI0000KSVE|SUSANVILLE MUNI|2016|12|30|14|35|40.3757|-120.5727|1264.6|-7.0||1|FM15-METAR|223|ICAO-KSVE|-8.0||1|FM15-METAR|223|ICAO-KSVE|877.1||4|FM15-METAR|223|ICAO-KSVE|||||||290|N-Normal|1|FM15-METAR|223|ICAO-KSVE|1.5|N-Normal|1|FM15-METAR|223|ICAO-KSVE|||||||||||||93|Derived||FM15-METAR|223|ICAO-KSVE|-7.4|Derived||FM15-METAR|223|ICAO-KSVE|||||||||||||||||||||||||||||||||||||||||||||||||||||||||||||||||||1020.7||1|FM15-METAR|223|ICAO-KSVE|||||||||||||||||||||||||||||||||||||||||||MET063METAR KSVE 301435Z AUTO 29003KT 10SM CLR M07/M08 A3014 RMK AO2=||F||223|ICAO-KSVE
USI0000KSVE|SUSANVILLE MUNI|2016|12|30|14|55|40.3757|-120.5727|1264.6|-7.0||1|FM15-METAR|223|ICAO-KSVE|-8.0||1|FM15-METAR|223|ICAO-KSVE|877.1||4|FM15-METAR|223|ICAO-KSVE|||||||280|N-Normal|1|FM15-METAR|223|ICAO-KSVE|2.1|N-Normal|1|FM15-METAR|223|ICAO-KSVE|||||||||||||93|Derived||FM15-METAR|223|ICAO-KSVE|-7.4|Derived||FM15-METAR|223|ICAO-KSVE|||||||||||||||||||||||||||||||||||||||||||||||||||||||||||||||||||1020.7||1|FM15-METAR|223|ICAO-KSVE|||||||||||||||||||||||||||||||||||||||||||MET063METAR KSVE 301455Z AUTO 28004KT 10SM CLR M07/M08 A3014 RMK AO2=||F||223|ICAO-KSVE
USI0000KSVE|SUSANVILLE MUNI|2016|12|30|15|15|40.3757|-120.5727|1264.6|-6.0||1|FM15-METAR|223|ICAO-KSVE|-8.0||1|FM15-METAR|223|ICAO-KSVE|876.8||4|FM15-METAR|223|ICAO-KSVE|||||||999|C-Calm|9|FM15-METAR|223|ICAO-KSVE|0.0|C-Calm|1|FM15-METAR|223|ICAO-KSVE|||||||||||||86|Derived||FM15-METAR|223|ICAO-KSVE|-6.7|Derived||FM15-METAR|223|ICAO-KSVE|||||||||||||||||||||||||||||||||||||||||||||||||||||||||||||||||||1020.3||1|FM15-METAR|223|ICAO-KSVE|||||||||||||||||||||||||||||||||||||||||||MET063METAR KSVE 301515Z AUTO 00000KT 10SM CLR M06/M08 A3013 RMK AO2=||F||223|ICAO-KSVE
USI0000KSVE|SUSANVILLE MUNI|2016|12|30|15|35|40.3757|-120.5727|1264.6|-6.0||1|FM15-METAR|223|ICAO-KSVE|-8.0||1|FM15-METAR|223|ICAO-KSVE|876.8||4|FM15-METAR|223|ICAO-KSVE|||||||999|C-Calm|9|FM15-METAR|223|ICAO-KSVE|0.0|C-Calm|1|FM15-METAR|223|ICAO-KSVE|||||||||||||86|Derived||FM15-METAR|223|ICAO-KSVE|-6.7|Derived||FM15-METAR|223|ICAO-KSVE|||||||||||||||||||||||||||||||||||||||||||||||||||||||||||||||||||1020.3||1|FM15-METAR|223|ICAO-KSVE|||||||||||||||||||||||||||||||||||||||||||MET063METAR KSVE 301535Z AUTO 00000KT 10SM CLR M06/M08 A3013 RMK AO2=||F||223|ICAO-KSVE
USI0000KSVE|SUSANVILLE MUNI|2016|12|30|15|55|40.3757|-120.5727|1264.6|-7.0||1|FM15-METAR|223|ICAO-KSVE|-8.0||1|FM15-METAR|223|ICAO-KSVE|876.5||4|FM15-METAR|223|ICAO-KSVE|||||||999|C-Calm|9|FM15-METAR|223|ICAO-KSVE|0.0|C-Calm|1|FM15-METAR|223|ICAO-KSVE|||||||||||||93|Derived||FM15-METAR|223|ICAO-KSVE|-7.4|Derived||FM15-METAR|223|ICAO-KSVE|||||||||||||||||||||||||||||||||||||||||||||||||||||||||||||||||||1020.0||1|FM15-METAR|223|ICAO-KSVE|||||||||||||||||||||||||||||||||||||||||||MET063METAR KSVE 301555Z AUTO 00000KT 10SM CLR M07/M08 A3012 RMK AO2=||F||223|ICAO-KSVE
USI0000KSVE|SUSANVILLE MUNI|2016|12|30|16|15|40.3757|-120.5727|1264.6|-7.0||1|FM15-METAR|223|ICAO-KSVE|-8.0||1|FM15-METAR|223|ICAO-KSVE|876.5||4|FM15-METAR|223|ICAO-KSVE|||||||999|C-Calm|9|FM15-METAR|223|ICAO-KSVE|0.0|C-Calm|1|FM15-METAR|223|ICAO-KSVE|||||||||||||93|Derived||FM15-METAR|223|ICAO-KSVE|-7.4|Derived||FM15-METAR|223|ICAO-KSVE|||||||||||||||||||||||||||||||||||||||||||||||||||||||||||||||||||1020.0||1|FM15-METAR|223|ICAO-KSVE|||||||||||||||||||||||||||||||||||||||||||MET062METAR KSVE 301615Z AUTO 00000KT 9SM CLR M07/M08 A3012 RMK AO2=||F||223|ICAO-KSVE
USI0000KSVE|SUSANVILLE MUNI|2016|12|30|16|35|40.3757|-120.5727|1264.6|-5.0||1|FM15-METAR|223|ICAO-KSVE|-7.0||1|FM15-METAR|223|ICAO-KSVE|876.5||4|FM15-METAR|223|ICAO-KSVE|||||||999|C-Calm|9|FM15-METAR|223|ICAO-KSVE|0.0|C-Calm|1|FM15-METAR|223|ICAO-KSVE|||||||||||||86|Derived||FM15-METAR|223|ICAO-KSVE|-5.8|Derived||FM15-METAR|223|ICAO-KSVE|||||||||||||||||||||||||||||||||||||||||||||||||||||||||||||||||||1020.0||1|FM15-METAR|223|ICAO-KSVE|||||||||||||||||||||||||||||||||||||||||||MET062METAR KSVE 301635Z AUTO 00000KT 9SM CLR M05/M07 A3012 RMK AO2=||F||223|ICAO-KSVE
USI0000KSVE|SUSANVILLE MUNI|2016|12|30|16|55|40.3757|-120.5727|1264.6|-4.0||1|FM15-METAR|223|ICAO-KSVE|-6.0||1|FM15-METAR|223|ICAO-KSVE|876.2||4|FM15-METAR|223|ICAO-KSVE|||||||999|C-Calm|9|FM15-METAR|223|ICAO-KSVE|0.0|C-Calm|1|FM15-METAR|223|ICAO-KSVE|||||||||||||86|Derived||FM15-METAR|223|ICAO-KSVE|-4.7|Derived||FM15-METAR|223|ICAO-KSVE|||||||||||||||||||||||||||||||||||||||||||||||||||||||||||||||||||1019.6||1|FM15-METAR|223|ICAO-KSVE|||||||||||||||||||||||||||||||||||||||||||MET062METAR KSVE 301655Z AUTO 00000KT 9SM CLR M04/M06 A3011 RMK AO2=||F||223|ICAO-KSVE
USI0000KSVE|SUSANVILLE MUNI|2016|12|30|17|15|40.3757|-120.5727|1264.6|-3.0||1|FM15-METAR|223|ICAO-KSVE|-5.0||1|FM15-METAR|223|ICAO-KSVE|876.2||4|FM15-METAR|223|ICAO-KSVE|||||||999|C-Calm|9|FM15-METAR|223|ICAO-KSVE|0.0|C-Calm|1|FM15-METAR|223|ICAO-KSVE|||||||||||||86|Derived||FM15-METAR|223|ICAO-KSVE|-3.6|Derived||FM15-METAR|223|ICAO-KSVE|||||||||||||||||||||||||||||||||||||||||||||||||||||||||||||||||||1019.6||1|FM15-METAR|223|ICAO-KSVE|||||||||||||||||||||||||||||||||||||||||||MET063METAR KSVE 301715Z AUTO 00000KT 10SM CLR M03/M05 A3011 RMK AO2=||F||223|ICAO-KSVE
USI0000KSVE|SUSANVILLE MUNI|2016|12|30|17|35|40.3757|-120.5727|1264.6|-2.0||1|FM15-METAR|223|ICAO-KSVE|-4.0||1|FM15-METAR|223|ICAO-KSVE|876.2||4|FM15-METAR|223|ICAO-KSVE|||||||999|C-Calm|9|FM15-METAR|223|ICAO-KSVE|0.0|C-Calm|1|FM15-METAR|223|ICAO-KSVE|||||||||||||86|Derived||FM15-METAR|223|ICAO-KSVE|-2.9|Derived||FM15-METAR|223|ICAO-KSVE|||||||||||||||||||||||||||||||||||||||||||||||||||||||||||||||||||1019.6||1|FM15-METAR|223|ICAO-KSVE|||||||||||||||||||||||||||||||||||||||||||MET063METAR KSVE 301735Z AUTO 00000KT 10SM CLR M02/M04 A3011 RMK AO2=||F||223|ICAO-KSVE
USI0000KSVE|SUSANVILLE MUNI|2016|12|30|17|55|40.3757|-120.5727|1264.6|-2.0||1|FM15-METAR|223|ICAO-KSVE|-4.0||1|FM15-METAR|223|ICAO-KSVE|875.6||4|FM15-METAR|223|ICAO-KSVE|||||||999|C-Calm|9|FM15-METAR|223|ICAO-KSVE|0.0|C-Calm|1|FM15-METAR|223|ICAO-KSVE|||||||||||||86|Derived||FM15-METAR|223|ICAO-KSVE|-2.9|Derived||FM15-METAR|223|ICAO-KSVE|||||||||||||||||||||||||||||||||||||||||||||||||||||||||||||||||||1019.0||1|FM15-METAR|223|ICAO-KSVE|||||||||||||||||||||||||||||||||||||||||||MET063METAR KSVE 301755Z AUTO 00000KT 10SM CLR M02/M04 A3009 RMK AO2=||F||223|ICAO-KSVE
USI0000KSVE|SUSANVILLE MUNI|2016|12|30|18|15|40.3757|-120.5727|1264.6|-1.0||1|FM15-METAR|223|ICAO-KSVE|-3.0||1|FM15-METAR|223|ICAO-KSVE|875.3||4|FM15-METAR|223|ICAO-KSVE|||||||999|C-Calm|9|FM15-METAR|223|ICAO-KSVE|0.0|C-Calm|1|FM15-METAR|223|ICAO-KSVE|||||||||||||86|Derived||FM15-METAR|223|ICAO-KSVE|-1.8|Derived||FM15-METAR|223|ICAO-KSVE|||||||||||||||||||||||||||||||||||||||||||||||||||||||||||||||||||1018.6||1|FM15-METAR|223|ICAO-KSVE|||||||||||||||||||||||||||||||||||||||||||MET063METAR KSVE 301815Z AUTO 00000KT 10SM CLR M01/M03 A3008 RMK AO2=||F||223|ICAO-KSVE
USI0000KSVE|SUSANVILLE MUNI|2016|12|30|18|35|40.3757|-120.5727|1264.6|0.0||1|FM15-METAR|223|ICAO-KSVE|-3.0||1|FM15-METAR|223|ICAO-KSVE|875.3||4|FM15-METAR|223|ICAO-KSVE|||||||999|C-Calm|9|FM15-METAR|223|ICAO-KSVE|0.0|C-Calm|1|FM15-METAR|223|ICAO-KSVE|||||||||||||80|Derived||FM15-METAR|223|ICAO-KSVE|-1.1|Derived||FM15-METAR|223|ICAO-KSVE|||||||||||||||||||||||||||||||||||||||||||||||||||||||||||||||||||1018.6||1|FM15-METAR|223|ICAO-KSVE|||||||||||||||||||||||||||||||||||||||||||MET062METAR KSVE 301835Z AUTO 00000KT 10SM CLR 00/M03 A3008 RMK AO2=||F||223|ICAO-KSVE
USI0000KSVE|SUSANVILLE MUNI|2016|12|30|18|55|40.3757|-120.5727|1264.6|1.0||1|FM15-METAR|223|ICAO-KSVE|-2.0||1|FM15-METAR|223|ICAO-KSVE|875.0||4|FM15-METAR|223|ICAO-KSVE|||||||110|N-Normal|1|FM15-METAR|223|ICAO-KSVE|1.5|N-Normal|1|FM15-METAR|223|ICAO-KSVE|||||||||||||81|Derived||FM15-METAR|223|ICAO-KSVE|-0.2|Derived||FM15-METAR|223|ICAO-KSVE|||||||||||||||||||||||||||||||||||||||||||||||||||||||||||||||||||1018.3||1|FM15-METAR|223|ICAO-KSVE|||||||||||||||||||||||||||||||||||||||||||MET062METAR KSVE 301855Z AUTO 11003KT 10SM CLR 01/M02 A3007 RMK AO2=||F||223|ICAO-KSVE
USI0000KSVE|SUSANVILLE MUNI|2016|12|30|19|15|40.3757|-120.5727|1264.6|1.0||1|FM15-METAR|223|ICAO-KSVE|-2.0||1|FM15-METAR|223|ICAO-KSVE|874.1||4|FM15-METAR|223|ICAO-KSVE|||||||999|C-Calm|9|FM15-METAR|223|ICAO-KSVE|0.0|C-Calm|1|FM15-METAR|223|ICAO-KSVE|||||||||||||81|Derived||FM15-METAR|223|ICAO-KSVE|-0.2|Derived||FM15-METAR|223|ICAO-KSVE|||||||||||||||||||||||||||||||||||||||||||||||||||||||||||||||||||1017.3||1|FM15-METAR|223|ICAO-KSVE|||||||||||||||||||||||||||||||||||||||||||MET062METAR KSVE 301915Z AUTO 00000KT 10SM CLR 01/M02 A3004 RMK AO2=||F||223|ICAO-KSVE
USI0000KSVE|SUSANVILLE MUNI|2016|12|30|19|35|40.3757|-120.5727|1264.6|2.0||1|FM15-METAR|223|ICAO-KSVE|-2.0||1|FM15-METAR|223|ICAO-KSVE|873.8||4|FM15-METAR|223|ICAO-KSVE|||||||999|C-Calm|9|FM15-METAR|223|ICAO-KSVE|0.0|C-Calm|1|FM15-METAR|223|ICAO-KSVE|||||||||||||75|Derived||FM15-METAR|223|ICAO-KSVE|0.4|Derived||FM15-METAR|223|ICAO-KSVE|||||||||||||||||||||||||||||||||||||||||||||||||||||||||||||||||||1016.9||1|FM15-METAR|223|ICAO-KSVE|||||||||||||||||||||||||||||||||||||||||||MET062METAR KSVE 301935Z AUTO 00000KT 10SM CLR 02/M02 A3003 RMK AO2=||F||223|ICAO-KSVE
USI0000KSVE|SUSANVILLE MUNI|2016|12|30|19|55|40.3757|-120.5727|1264.6|3.0||1|FM15-METAR|223|ICAO-KSVE|-2.0||1|FM15-METAR|223|ICAO-KSVE|873.2||4|FM15-METAR|223|ICAO-KSVE|||||||999|C-Calm|9|FM15-METAR|223|ICAO-KSVE|0.0|C-Calm|1|FM15-METAR|223|ICAO-KSVE|||||||||||||70|Derived||FM15-METAR|223|ICAO-KSVE|0.7|Derived||FM15-METAR|223|ICAO-KSVE|||||||||||||||||||||||||||||||||||||||||||||||||||||||||||||||||||1016.3||1|FM15-METAR|223|ICAO-KSVE|||||||||||||||||||||||||||||||||||||||||||MET062METAR KSVE 301955Z AUTO 00000KT 10SM CLR 03/M02 A3001 RMK AO2=||F||223|ICAO-KSVE
USI0000KSVE|SUSANVILLE MUNI|2016|12|30|20|15|40.3757|-120.5727|1264.6|3.0||1|FM15-METAR|223|ICAO-KSVE|-2.0||1|FM15-METAR|223|ICAO-KSVE|872.6||4|FM15-METAR|223|ICAO-KSVE|||||||090|N-Normal|1|FM15-METAR|223|ICAO-KSVE|1.5|N-Normal|1|FM15-METAR|223|ICAO-KSVE|||||||||||||70|Derived||FM15-METAR|223|ICAO-KSVE|0.7|Derived||FM15-METAR|223|ICAO-KSVE|||||||||||||||||||||||||||||||||||||||||||||||||||||||||||||||||||1015.6||1|FM15-METAR|223|ICAO-KSVE|||||||||||||||||||||||||||||||||||||||||||MET062METAR KSVE 302015Z AUTO 09003KT 10SM CLR 03/M02 A2999 RMK AO2=||F||223|ICAO-KSVE
USI0000KSVE|SUSANVILLE MUNI|2016|12|30|20|35|40.3757|-120.5727|1264.6|4.0||1|FM15-METAR|223|ICAO-KSVE|-2.0||1|FM15-METAR|223|ICAO-KSVE|872.3||4|FM15-METAR|223|ICAO-KSVE|||||||080|N-Normal|1|FM15-METAR|223|ICAO-KSVE|1.5|N-Normal|1|FM15-METAR|223|ICAO-KSVE|||||||||||||65|Derived||FM15-METAR|223|ICAO-KSVE|1.3|Derived||FM15-METAR|223|ICAO-KSVE|||||||||||||||||||||||||||||||||||||||||||||||||||||||||||||||||||1015.2||1|FM15-METAR|223|ICAO-KSVE|||||||||||||||||||||||||||||||||||||||||||MET062METAR KSVE 302035Z AUTO 08003KT 10SM CLR 04/M02 A2998 RMK AO2=||F||223|ICAO-KSVE
USI0000KSVE|SUSANVILLE MUNI|2016|12|30|20|55|40.3757|-120.5727|1264.6|4.0||1|FM15-METAR|223|ICAO-KSVE|-2.0||1|FM15-METAR|223|ICAO-KSVE|871.7||4|FM15-METAR|223|ICAO-KSVE|||||||080|N-Normal|1|FM15-METAR|223|ICAO-KSVE|2.1|N-Normal|1|FM15-METAR|223|ICAO-KSVE|||||||||||||65|Derived||FM15-METAR|223|ICAO-KSVE|1.3|Derived||FM15-METAR|223|ICAO-KSVE|||||||||||||||||||||||||||||||||||||||||||||||||||||||||||||||||||1014.6||1|FM15-METAR|223|ICAO-KSVE|||||||||||||||||||||||||||||||||||||||||||MET062METAR KSVE 302055Z AUTO 08004KT 10SM CLR 04/M02 A2996 RMK AO2=||F||223|ICAO-KSVE
USI0000KSVE|SUSANVILLE MUNI|2016|12|30|21|15|40.3757|-120.5727|1264.6|5.0||1|FM15-METAR|223|ICAO-KSVE|-1.0||1|FM15-METAR|223|ICAO-KSVE|871.4||4|FM15-METAR|223|ICAO-KSVE|||||||180|N-Normal|1|FM15-METAR|223|ICAO-KSVE|1.5|N-Normal|1|FM15-METAR|223|ICAO-KSVE|||||||||||||66|Derived||FM15-METAR|223|ICAO-KSVE|2.4|Derived||FM15-METAR|223|ICAO-KSVE|||||||||||||||||||||||||||||||||||||||||||||||||||||||||||||||||||1014.2||1|FM15-METAR|223|ICAO-KSVE|||||||||||||||||||||||||||||||||||||||||||MET062METAR KSVE 302115Z AUTO 18003KT 10SM CLR 05/M01 A2995 RMK AO2=||F||223|ICAO-KSVE
USI0000KSVE|SUSANVILLE MUNI|2016|12|30|21|35|40.3757|-120.5727|1264.6|6.0||1|FM15-METAR|223|ICAO-KSVE|-1.0||1|FM15-METAR|223|ICAO-KSVE|871.1||4|FM15-METAR|223|ICAO-KSVE|||||||080|N-Normal|1|FM15-METAR|223|ICAO-KSVE|1.5|N-Normal|1|FM15-METAR|223|ICAO-KSVE|||||||||||||61|Derived||FM15-METAR|223|ICAO-KSVE|2.9|Derived||FM15-METAR|223|ICAO-KSVE|||||||||||||||||||||||||||||||||||||||||||||||||||||||||||||||||||1013.9||1|FM15-METAR|223|ICAO-KSVE|||||||||||||||||||||||||||||||||||||||||||MET062METAR KSVE 302135Z AUTO 08003KT 10SM CLR 06/M01 A2994 RMK AO2=||F||223|ICAO-KSVE
USI0000KSVE|SUSANVILLE MUNI|2016|12|30|21|55|40.3757|-120.5727|1264.6|6.0||1|FM15-METAR|223|ICAO-KSVE|-1.0||1|FM15-METAR|223|ICAO-KSVE|870.8||4|FM15-METAR|223|ICAO-KSVE|||||||999|C-Calm|9|FM15-METAR|223|ICAO-KSVE|0.0|C-Calm|1|FM15-METAR|223|ICAO-KSVE|||||||||||||61|Derived||FM15-METAR|223|ICAO-KSVE|2.9|Derived||FM15-METAR|223|ICAO-KSVE|||||||||||||||||||||||||||||||||||||||||||||||||||||||||||||||||||1013.5||1|FM15-METAR|223|ICAO-KSVE|||||||||||||||||||||||||||||||||||||||||||MET062METAR KSVE 302155Z AUTO 00000KT 10SM CLR 06/M01 A2993 RMK AO2=||F||223|ICAO-KSVE
USI0000KSVE|SUSANVILLE MUNI|2016|12|30|22|15|40.3757|-120.5727|1264.6|7.0||1|FM15-METAR|223|ICAO-KSVE|-1.0||1|FM15-METAR|223|ICAO-KSVE|870.8||4|FM15-METAR|223|ICAO-KSVE|||||||110|N-Normal|1|FM15-METAR|223|ICAO-KSVE|2.1|N-Normal|1|FM15-METAR|223|ICAO-KSVE|||||||||||||57|Derived||FM15-METAR|223|ICAO-KSVE|3.5|Derived||FM15-METAR|223|ICAO-KSVE|||||||||||||||||||||||||||||||||||||||||||||||||||||||||||||||||||1013.5||1|FM15-METAR|223|ICAO-KSVE|||||||||||||||||||||||||||||||||||||||||||MET062METAR KSVE 302215Z AUTO 11004KT 10SM CLR 07/M01 A2993 RMK AO2=||F||223|ICAO-KSVE
USI0000KSVE|SUSANVILLE MUNI|2016|12|30|22|35|40.3757|-120.5727|1264.6|7.0||1|FM15-METAR|223|ICAO-KSVE|-1.0||1|FM15-METAR|223|ICAO-KSVE|870.5||4|FM15-METAR|223|ICAO-KSVE|||||||110|N-Normal|1|FM15-METAR|223|ICAO-KSVE|2.1|N-Normal|1|FM15-METAR|223|ICAO-KSVE|||||||||||||57|Derived||FM15-METAR|223|ICAO-KSVE|3.5|Derived||FM15-METAR|223|ICAO-KSVE|||||||||||||||||||||||||||||||||||||||||||||||||||||||||||||||||||1013.2||1|FM15-METAR|223|ICAO-KSVE|||||||||||||||||||||||||||||||||||||||||||MET062METAR KSVE 302235Z AUTO 11004KT 10SM CLR 07/M01 A2992 RMK AO2=||F||223|ICAO-KSVE
USI0000KSVE|SUSANVILLE MUNI|2016|12|30|22|55|40.3757|-120.5727|1264.6|7.0||1|FM15-METAR|223|ICAO-KSVE|-1.0||1|FM15-METAR|223|ICAO-KSVE|870.2||4|FM15-METAR|223|ICAO-KSVE|||||||999|C-Calm|9|FM15-METAR|223|ICAO-KSVE|0.0|C-Calm|1|FM15-METAR|223|ICAO-KSVE|||||||||||||57|Derived||FM15-METAR|223|ICAO-KSVE|3.5|Derived||FM15-METAR|223|ICAO-KSVE|||||||||||||||||||||||||||||||||||||||||||||||||||||||||||||||||||1012.9||1|FM15-METAR|223|ICAO-KSVE|||||||||||||||||||||||||||||||||||||||||||MET062METAR KSVE 302255Z AUTO 00000KT 10SM CLR 07/M01 A2991 RMK AO2=||F||223|ICAO-KSVE
USI0000KSVE|SUSANVILLE MUNI|2016|12|30|23|15|40.3757|-120.5727|1264.6|7.0||1|FM15-METAR|223|ICAO-KSVE|-1.0||1|FM15-METAR|223|ICAO-KSVE|869.9||4|FM15-METAR|223|ICAO-KSVE|||||||999|C-Calm|9|FM15-METAR|223|ICAO-KSVE|0.0|C-Calm|1|FM15-METAR|223|ICAO-KSVE|||||||||||||57|Derived||FM15-METAR|223|ICAO-KSVE|3.5|Derived||FM15-METAR|223|ICAO-KSVE|||||||||||||||||||||||||||||||||||||||||||||||||||||||||||||||||||1012.5||1|FM15-METAR|223|ICAO-KSVE|||||||||||||||||||||||||||||||||||||||||||MET062METAR KSVE 302315Z AUTO 00000KT 10SM CLR 07/M01 A2990 RMK AO2=||F||223|ICAO-KSVE
USI0000KSVE|SUSANVILLE MUNI|2016|12|30|23|35|40.3757|-120.5727|1264.6|8.0||1|FM15-METAR|223|ICAO-KSVE|-1.0||1|FM15-METAR|223|ICAO-KSVE|869.6||4|FM15-METAR|223|ICAO-KSVE|||||||110|N-Normal|1|FM15-METAR|223|ICAO-KSVE|1.5|N-Normal|1|FM15-METAR|223|ICAO-KSVE|||||||||||||53|Derived||FM15-METAR|223|ICAO-KSVE|3.8|Derived||FM15-METAR|223|ICAO-KSVE|||||||||||||||||||||||||||||||||||||||||||||||||||||||||||||||||||1012.2||1|FM15-METAR|223|ICAO-KSVE|||||||||||||||||||||||||||||||||||||||||||MET062METAR KSVE 302335Z AUTO 11003KT 10SM CLR 08/M01 A2989 RMK AO2=||F||223|ICAO-KSVE
USI0000KSVE|SUSANVILLE MUNI|2016|12|30|23|55|40.3757|-120.5727|1264.6|7.0||1|FM15-METAR|223|ICAO-KSVE|0.0||1|FM15-METAR|223|ICAO-KSVE|869.3||4|FM15-METAR|223|ICAO-KSVE|||||||070|N-Normal|1|FM15-METAR|223|ICAO-KSVE|2.6|N-Normal|1|FM15-METAR|223|ICAO-KSVE|||||||||||||61|Derived||FM15-METAR|223|ICAO-KSVE|4.0|Derived||FM15-METAR|223|ICAO-KSVE|||||||||||||||||||||||||||||||||||||||||||||||||||||||||||||||||||1011.8||1|FM15-METAR|223|ICAO-KSVE|||||||||||||||||||||||||||||||||||||||||||MET061METAR KSVE 302355Z AUTO 07005KT 10SM CLR 07/00 A2988 RMK AO2=||F||223|ICAO-KSVE
USI0000KSVE|SUSANVILLE MUNI|2016|12|31|00|15|40.3757|-120.5727|1264.6|5.0||1|FM15-METAR|223|ICAO-KSVE|-1.0||1|FM15-METAR|223|ICAO-KSVE|869.0||4|FM15-METAR|223|ICAO-KSVE|||||||080|N-Normal|1|FM15-METAR|223|ICAO-KSVE|2.1|N-Normal|1|FM15-METAR|223|ICAO-KSVE|||||||||||||66|Derived||FM15-METAR|223|ICAO-KSVE|2.4|Derived||FM15-METAR|223|ICAO-KSVE|||||||||||||||||||||||||||||||||||||||||||||||||||||||||||||||||||1011.5||1|FM15-METAR|223|ICAO-KSVE|||||||||||||||||||||||||||||||||||||||||||MET062METAR KSVE 310015Z AUTO 08004KT 10SM CLR 05/M01 A2987 RMK AO2=||F||223|ICAO-KSVE
USI0000KSVE|SUSANVILLE MUNI|2016|12|31|00|35|40.3757|-120.5727|1264.6|3.0||1|FM15-METAR|223|ICAO-KSVE|-1.0||1|FM15-METAR|223|ICAO-KSVE|869.3||4|FM15-METAR|223|ICAO-KSVE|||||||070|N-Normal|1|FM15-METAR|223|ICAO-KSVE|3.6|N-Normal|1|FM15-METAR|223|ICAO-KSVE|||||||||||||75|Derived||FM15-METAR|223|ICAO-KSVE|1.1|Derived||FM15-METAR|223|ICAO-KSVE|||||||||||||||||||||||||||||||||||||||||||||||||||||||||||||||||||1011.8||1|FM15-METAR|223|ICAO-KSVE|||||||||||||||||||||||||||||||||||||||||||MET062METAR KSVE 310035Z AUTO 07007KT 10SM CLR 03/M01 A2988 RMK AO2=||F||223|ICAO-KSVE
USI0000KSVE|SUSANVILLE MUNI|2016|12|31|00|55|40.3757|-120.5727|1264.6|2.0||1|FM15-METAR|223|ICAO-KSVE|-2.0||1|FM15-METAR|223|ICAO-KSVE|869.0||4|FM15-METAR|223|ICAO-KSVE|||||||080|N-Normal|1|FM15-METAR|223|ICAO-KSVE|1.5|N-Normal|1|FM15-METAR|223|ICAO-KSVE|||||||||||||75|Derived||FM15-METAR|223|ICAO-KSVE|0.4|Derived||FM15-METAR|223|ICAO-KSVE|||||||||||||||||||||||||||||||||||||||||||||||||||||||||||||||||||1011.5||1|FM15-METAR|223|ICAO-KSVE|||||||||||||||||||||||||||||||||||||||||||MET062METAR KSVE 310055Z AUTO 08003KT 10SM CLR 02/M02 A2987 RMK AO2=||F||223|ICAO-KSVE
USI0000KSVE|SUSANVILLE MUNI|2016|12|31|01|15|40.3757|-120.5727|1264.6|1.0||1|FM15-METAR|223|ICAO-KSVE|-2.0||1|FM15-METAR|223|ICAO-KSVE|869.0||4|FM15-METAR|223|ICAO-KSVE|||||||999|C-Calm|9|FM15-METAR|223|ICAO-KSVE|0.0|C-Calm|1|FM15-METAR|223|ICAO-KSVE|||||||||||||81|Derived||FM15-METAR|223|ICAO-KSVE|-0.2|Derived||FM15-METAR|223|ICAO-KSVE|||||||||||||||||||||||||||||||||||||||||||||||||||||||||||||||||||1011.5||1|FM15-METAR|223|ICAO-KSVE|||||||||||||||||||||||||||||||||||||||||||MET062METAR KSVE 310115Z AUTO 00000KT 10SM CLR 01/M02 A2987 RMK AO2=||F||223|ICAO-KSVE
USI0000KSVE|SUSANVILLE MUNI|2016|12|31|01|35|40.3757|-120.5727|1264.6|1.0||1|FM15-METAR|223|ICAO-KSVE|-2.0||1|FM15-METAR|223|ICAO-KSVE|869.0||4|FM15-METAR|223|ICAO-KSVE|||||||280|N-Normal|1|FM15-METAR|223|ICAO-KSVE|1.5|N-Normal|1|FM15-METAR|223|ICAO-KSVE|||||||||||||81|Derived||FM15-METAR|223|ICAO-KSVE|-0.2|Derived||FM15-METAR|223|ICAO-KSVE|||||||||||||||||||||||||||||||||||||||||||||||||||||||||||||||||||1011.5||1|FM15-METAR|223|ICAO-KSVE|||||||||||||||||||||||||||||||||||||||||||MET062METAR KSVE 310135Z AUTO 28003KT 10SM CLR 01/M02 A2987 RMK AO2=||F||223|ICAO-KSVE
USI0000KSVE|SUSANVILLE MUNI|2016|12|31|02|15|40.3757|-120.5727|1264.6|2.0||1|FM15-METAR|223|ICAO-KSVE|-2.0||1|FM15-METAR|223|ICAO-KSVE|869.0||4|FM15-METAR|223|ICAO-KSVE|||||||999|C-Calm|9|FM15-METAR|223|ICAO-KSVE|0.0|C-Calm|1|FM15-METAR|223|ICAO-KSVE|||||||||||||75|Derived||FM15-METAR|223|ICAO-KSVE|0.4|Derived||FM15-METAR|223|ICAO-KSVE|||||||||||||||||||||||||||||||||||||||||||||||||||||||||||||||||||1011.5||1|FM15-METAR|223|ICAO-KSVE|||||||||||||||||||||||||||||||||||||||||||MET062METAR KSVE 310215Z AUTO 00000KT 10SM CLR 02/M02 A2987 RMK AO2=||F||223|ICAO-KSVE
USI0000KSVE|SUSANVILLE MUNI|2016|12|31|02|35|40.3757|-120.5727|1264.6|0.0||1|FM15-METAR|223|ICAO-KSVE|-2.0||1|FM15-METAR|223|ICAO-KSVE|869.0||4|FM15-METAR|223|ICAO-KSVE|||||||200|N-Normal|1|FM15-METAR|223|ICAO-KSVE|1.5|N-Normal|1|FM15-METAR|223|ICAO-KSVE|||||||||||||87|Derived||FM15-METAR|223|ICAO-KSVE|-0.9|Derived||FM15-METAR|223|ICAO-KSVE|||||||||||||||||||||||||||||||||||||||||||||||||||||||||||||||||||1011.5||1|FM15-METAR|223|ICAO-KSVE|||||||||||||||||||||||||||||||||||||||||||MET062METAR KSVE 310235Z AUTO 20003KT 10SM CLR 00/M02 A2987 RMK AO2=||F||223|ICAO-KSVE
USI0000KSVE|SUSANVILLE MUNI|2016|12|31|02|55|40.3757|-120.5727|1264.6|0.0||1|FM15-METAR|223|ICAO-KSVE|-2.0||1|FM15-METAR|223|ICAO-KSVE|869.3||4|FM15-METAR|223|ICAO-KSVE|||||||190|N-Normal|1|FM15-METAR|223|ICAO-KSVE|2.1|N-Normal|1|FM15-METAR|223|ICAO-KSVE|||||||||||||87|Derived||FM15-METAR|223|ICAO-KSVE|-0.9|Derived||FM15-METAR|223|ICAO-KSVE|||||||||||||||||||||||||||||||||||||||||||||||||||||||||||||||||||1011.8||1|FM15-METAR|223|ICAO-KSVE|||||||||||||||||||||||||||||||||||||||||||MET065METAR KSVE 310255Z AUTO 19004KT 10SM SCT080 00/M02 A2988 RMK AO2=||F||223|ICAO-KSVE
USI0000KSVE|SUSANVILLE MUNI|2016|12|31|03|15|40.3757|-120.5727|1264.6|1.0||1|FM15-METAR|223|ICAO-KSVE|-2.0||1|FM15-METAR|223|ICAO-KSVE|869.3||4|FM15-METAR|223|ICAO-KSVE|||||||999|C-Calm|9|FM15-METAR|223|ICAO-KSVE|0.0|C-Calm|1|FM15-METAR|223|ICAO-KSVE|||||||||||||81|Derived||FM15-METAR|223|ICAO-KSVE|-0.2|Derived||FM15-METAR|223|ICAO-KSVE|||||||||||||||||||||||||||||||||||||||||||||||||||||||||||||||||||1011.8||1|FM15-METAR|223|ICAO-KSVE|||||||||||||||||||||||||||||||||||||||||||MET065METAR KSVE 310315Z AUTO 00000KT 10SM OVC080 01/M02 A2988 RMK AO2=||F||223|ICAO-KSVE
USI0000KSVE|SUSANVILLE MUNI|2016|12|31|03|35|40.3757|-120.5727|1264.6|0.0||1|FM15-METAR|223|ICAO-KSVE|-2.0||1|FM15-METAR|223|ICAO-KSVE|869.3||4|FM15-METAR|223|ICAO-KSVE|||||||360|N-Normal|1|FM15-METAR|223|ICAO-KSVE|2.1|N-Normal|1|FM15-METAR|223|ICAO-KSVE|||||||||||||87|Derived||FM15-METAR|223|ICAO-KSVE|-0.9|Derived||FM15-METAR|223|ICAO-KSVE|||||||||||||||||||||||||||||||||||||||||||||||||||||||||||||||||||1011.8||1|FM15-METAR|223|ICAO-KSVE|||||||||||||||||||||||||||||||||||||||||||MET064METAR KSVE 310335Z AUTO 36004KT 9SM OVC080 00/M02 A2988 RMK AO2=||F||223|ICAO-KSVE
USI0000KSVE|SUSANVILLE MUNI|2016|12|31|03|55|40.3757|-120.5727|1264.6|0.0||1|FM15-METAR|223|ICAO-KSVE|-2.0||1|FM15-METAR|223|ICAO-KSVE|869.3||4|FM15-METAR|223|ICAO-KSVE|||||||270|N-Normal|1|FM15-METAR|223|ICAO-KSVE|1.5|N-Normal|1|FM15-METAR|223|ICAO-KSVE|||||||||||||87|Derived||FM15-METAR|223|ICAO-KSVE|-0.9|Derived||FM15-METAR|223|ICAO-KSVE|||||||||||||||||||||||||||||||||||||||||||||||||||||||||||||||||||1011.8||1|FM15-METAR|223|ICAO-KSVE|||||||||||||||||||||||||||||||||||||||||||MET064METAR KSVE 310355Z AUTO 27003KT 9SM OVC080 00/M02 A2988 RMK AO2=||F||223|ICAO-KSVE
USI0000KSVE|SUSANVILLE MUNI|2016|12|31|04|15|40.3757|-120.5727|1264.6|1.0||1|FM15-METAR|223|ICAO-KSVE|-2.0||1|FM15-METAR|223|ICAO-KSVE|869.6||4|FM15-METAR|223|ICAO-KSVE|||||||290|N-Normal|1|FM15-METAR|223|ICAO-KSVE|1.5|N-Normal|1|FM15-METAR|223|ICAO-KSVE|||||||||||||81|Derived||FM15-METAR|223|ICAO-KSVE|-0.2|Derived||FM15-METAR|223|ICAO-KSVE|||||||||||||||||||||||||||||||||||||||||||||||||||||||||||||||||||1012.2||1|FM15-METAR|223|ICAO-KSVE|||||||||||||||||||||||||||||||||||||||||||MET065METAR KSVE 310415Z AUTO 29003KT 10SM OVC080 01/M02 A2989 RMK AO2=||F||223|ICAO-KSVE
USI0000KSVE|SUSANVILLE MUNI|2016|12|31|04|35|40.3757|-120.5727|1264.6|1.0||1|FM15-METAR|223|ICAO-KSVE|-1.0||1|FM15-METAR|223|ICAO-KSVE|869.6||4|FM15-METAR|223|ICAO-KSVE|||||||300|N-Normal|1|FM15-METAR|223|ICAO-KSVE|1.5|N-Normal|1|FM15-METAR|223|ICAO-KSVE|||||||||||||87|Derived||FM15-METAR|223|ICAO-KSVE|0.2|Derived||FM15-METAR|223|ICAO-KSVE|||||||||||||||||||||||||||||||||||||||||||||||||||||||||||||||||||1012.2||1|FM15-METAR|223|ICAO-KSVE|||||||||||||||||||||||||||||||||||||||||||MET065METAR KSVE 310435Z AUTO 30003KT 10SM OVC080 01/M01 A2989 RMK AO2=||F||223|ICAO-KSVE
USI0000KSVE|SUSANVILLE MUNI|2016|12|31|04|55|40.3757|-120.5727|1264.6|1.0||1|FM15-METAR|223|ICAO-KSVE|-1.0||1|FM15-METAR|223|ICAO-KSVE|869.9||4|FM15-METAR|223|ICAO-KSVE|||||||999|C-Calm|9|FM15-METAR|223|ICAO-KSVE|0.0|C-Calm|1|FM15-METAR|223|ICAO-KSVE|||||||||||||87|Derived||FM15-METAR|223|ICAO-KSVE|0.2|Derived||FM15-METAR|223|ICAO-KSVE|||||||||||||||||||||||||||||||||||||||||||||||||||||||||||||||||||1012.5||1|FM15-METAR|223|ICAO-KSVE|||||||||||||||||||||||||||||||||||||||||||MET072METAR KSVE 310455Z AUTO 00000KT 10SM BKN080 OVC090 01/M01 A2990 RMK AO2=||F||223|ICAO-KSVE
USI0000KSVE|SUSANVILLE MUNI|2016|12|31|05|15|40.3757|-120.5727|1264.6|2.0||1|FM15-METAR|223|ICAO-KSVE|-1.0||1|FM15-METAR|223|ICAO-KSVE|870.2||4|FM15-METAR|223|ICAO-KSVE|||||||999|C-Calm|9|FM15-METAR|223|ICAO-KSVE|0.0|C-Calm|1|FM15-METAR|223|ICAO-KSVE|||||||||||||81|Derived||FM15-METAR|223|ICAO-KSVE|0.8|Derived||FM15-METAR|223|ICAO-KSVE|||||||||||||||||||||||||||||||||||||||||||||||||||||||||||||||||||1012.9||1|FM15-METAR|223|ICAO-KSVE|||||||||||||||||||||||||||||||||||||||||||MET065METAR KSVE 310515Z AUTO 00000KT 10SM OVC080 02/M01 A2991 RMK AO2=||F||223|ICAO-KSVE
USI0000KSVE|SUSANVILLE MUNI|2016|12|31|05|35|40.3757|-120.5727|1264.6|4.0||1|FM15-METAR|223|ICAO-KSVE|-2.0||1|FM15-METAR|223|ICAO-KSVE|870.5||4|FM15-METAR|223|ICAO-KSVE|||||||060|N-Normal|1|FM15-METAR|223|ICAO-KSVE|3.6|N-Normal|1|FM15-METAR|223|ICAO-KSVE|||||||||||||65|Derived||FM15-METAR|223|ICAO-KSVE|1.3|Derived||FM15-METAR|223|ICAO-KSVE|||||||||||||||||||||||||||||||||||||||||||||||||||||||||||||||||||1013.2||1|FM15-METAR|223|ICAO-KSVE|||||||||||||||||||||||||||||||||||||||||||MET072METAR KSVE 310535Z AUTO 06007KT 10SM BKN070 BKN080 04/M02 A2992 RMK AO2=||F||223|ICAO-KSVE
USI0000KSVE|SUSANVILLE MUNI|2016|12|31|05|55|40.3757|-120.5727|1264.6|4.0||1|FM15-METAR|223|ICAO-KSVE|-2.0||1|FM15-METAR|223|ICAO-KSVE|870.5||4|FM15-METAR|223|ICAO-KSVE|||||||070|N-Normal|1|FM15-METAR|223|ICAO-KSVE|4.1|N-Normal|1|FM15-METAR|223|ICAO-KSVE|||||||||||||65|Derived||FM15-METAR|223|ICAO-KSVE|1.3|Derived||FM15-METAR|223|ICAO-KSVE|||||||||||||||||||||||||||||||||||||||||||||||||||||||||||||||||||1013.2||1|FM15-METAR|223|ICAO-KSVE|||||||||||||||||||||||||||||||||||||||||||MET065METAR KSVE 310555Z AUTO 07008KT 10SM FEW070 04/M02 A2992 RMK AO2=||F||223|ICAO-KSVE
USI0000KSVE|SUSANVILLE MUNI|2016|12|31|06|15|40.3757|-120.5727|1264.6|4.0||1|FM15-METAR|223|ICAO-KSVE|-2.0||1|FM15-METAR|223|ICAO-KSVE|870.8||4|FM15-METAR|223|ICAO-KSVE|||||||080|N-Normal|1|FM15-METAR|223|ICAO-KSVE|3.1|N-Normal|1|FM15-METAR|223|ICAO-KSVE|||||||||||||65|Derived||FM15-METAR|223|ICAO-KSVE|1.3|Derived||FM15-METAR|223|ICAO-KSVE|||||||||||||||||||||||||||||||||||||||||||||||||||||||||||||||||||1013.5||1|FM15-METAR|223|ICAO-KSVE|||||||||||||||||||||||||||||||||||||||||||MET065METAR KSVE 310615Z AUTO 08006KT 10SM SCT070 04/M02 A2993 RMK AO2=||F||223|ICAO-KSVE
USI0000KSVE|SUSANVILLE MUNI|2016|12|31|06|35|40.3757|-120.5727|1264.6|3.0||1|FM15-METAR|223|ICAO-KSVE|-2.0||1|FM15-METAR|223|ICAO-KSVE|871.1||4|FM15-METAR|223|ICAO-KSVE|||||||999|C-Calm|9|FM15-METAR|223|ICAO-KSVE|0.0|C-Calm|1|FM15-METAR|223|ICAO-KSVE|||||||||||||70|Derived||FM15-METAR|223|ICAO-KSVE|0.7|Derived||FM15-METAR|223|ICAO-KSVE|||||||||||||||||||||||||||||||||||||||||||||||||||||||||||||||||||1013.9||1|FM15-METAR|223|ICAO-KSVE|||||||||||||||||||||||||||||||||||||||||||MET065METAR KSVE 310635Z AUTO 00000KT 10SM OVC080 03/M02 A2994 RMK AO2=||F||223|ICAO-KSVE
USI0000KSVE|SUSANVILLE MUNI|2016|12|31|06|55|40.3757|-120.5727|1264.6|2.0||1|FM15-METAR|223|ICAO-KSVE|-2.0||1|FM15-METAR|223|ICAO-KSVE|871.1||4|FM15-METAR|223|ICAO-KSVE|||||||999|C-Calm|9|FM15-METAR|223|ICAO-KSVE|0.0|C-Calm|1|FM15-METAR|223|ICAO-KSVE|||||||||||||75|Derived||FM15-METAR|223|ICAO-KSVE|0.4|Derived||FM15-METAR|223|ICAO-KSVE|||||||||||||||||||||||||||||||||||||||||||||||||||||||||||||||||||1013.9||1|FM15-METAR|223|ICAO-KSVE|||||||||||||||||||||||||||||||||||||||||||MET065METAR KSVE 310655Z AUTO 00000KT 10SM OVC080 02/M02 A2994 RMK AO2=||F||223|ICAO-KSVE
USI0000KSVE|SUSANVILLE MUNI|2016|12|31|07|15|40.3757|-120.5727|1264.6|1.0||1|FM15-METAR|223|ICAO-KSVE|-2.0||1|FM15-METAR|223|ICAO-KSVE|871.1||4|FM15-METAR|223|ICAO-KSVE|||||||130|N-Normal|1|FM15-METAR|223|ICAO-KSVE|3.1|N-Normal|1|FM15-METAR|223|ICAO-KSVE|||||||||||||81|Derived||FM15-METAR|223|ICAO-KSVE|-0.2|Derived||FM15-METAR|223|ICAO-KSVE|||||||||||||||||||||||||||||||||||||||||||||||||||||||||||||||||||1013.9||1|FM15-METAR|223|ICAO-KSVE|||||||||||||||||||||||||||||||||||||||||||MET072METAR KSVE 310715Z AUTO 13006KT 10SM FEW070 BKN090 01/M02 A2994 RMK AO2=||F||223|ICAO-KSVE
USI0000KSVE|SUSANVILLE MUNI|2016|12|31|07|35|40.3757|-120.5727|1264.6|1.0||1|FM15-METAR|223|ICAO-KSVE|-2.0||1|FM15-METAR|223|ICAO-KSVE|871.1||4|FM15-METAR|223|ICAO-KSVE|||||||160|N-Normal|1|FM15-METAR|223|ICAO-KSVE|2.6|N-Normal|1|FM15-METAR|223|ICAO-KSVE|||||||||||||81|Derived||FM15-METAR|223|ICAO-KSVE|-0.2|Derived||FM15-METAR|223|ICAO-KSVE|||||||||||||||||||||||||||||||||||||||||||||||||||||||||||||||||||1013.9||1|FM15-METAR|223|ICAO-KSVE|||||||||||||||||||||||||||||||||||||||||||MET072METAR KSVE 310735Z AUTO 16005KT 10SM SCT080 SCT090 01/M02 A2994 RMK AO2=||F||223|ICAO-KSVE
USI0000KSVE|SUSANVILLE MUNI|2016|12|31|07|55|40.3757|-120.5727|1264.6|1.0||1|FM15-METAR|223|ICAO-KSVE|-2.0||1|FM15-METAR|223|ICAO-KSVE|871.1||4|FM15-METAR|223|ICAO-KSVE|||||||140|N-Normal|1|FM15-METAR|223|ICAO-KSVE|2.6|N-Normal|1|FM15-METAR|223|ICAO-KSVE|||||||||||||81|Derived||FM15-METAR|223|ICAO-KSVE|-0.2|Derived||FM15-METAR|223|ICAO-KSVE|||||||||||||||||||||||||||||||||||||||||||||||||||||||||||||||||||1013.9||1|FM15-METAR|223|ICAO-KSVE|||||||||||||||||||||||||||||||||||||||||||MET065METAR KSVE 310755Z AUTO 14005KT 10SM FEW080 01/M02 A2994 RMK AO2=||F||223|ICAO-KSVE
USI0000KSVE|SUSANVILLE MUNI|2016|12|31|08|15|40.3757|-120.5727|1264.6|0.0||1|FM15-METAR|223|ICAO-KSVE|-3.0||1|FM15-METAR|223|ICAO-KSVE|870.8||4|FM15-METAR|223|ICAO-KSVE|||||||030|N-Normal|1|FM15-METAR|223|ICAO-KSVE|1.5|N-Normal|1|FM15-METAR|223|ICAO-KSVE|||||||||||||80|Derived||FM15-METAR|223|ICAO-KSVE|-1.1|Derived||FM15-METAR|223|ICAO-KSVE|||||||||||||||||||||||||||||||||||||||||||||||||||||||||||||||||||1013.5||1|FM15-METAR|223|ICAO-KSVE|||||||||||||||||||||||||||||||||||||||||||MET062METAR KSVE 310815Z AUTO 03003KT 10SM CLR 00/M03 A2993 RMK AO2=||F||223|ICAO-KSVE
USI0000KSVE|SUSANVILLE MUNI|2016|12|31|08|35|40.3757|-120.5727|1264.6|1.0||1|FM15-METAR|223|ICAO-KSVE|-3.0||1|FM15-METAR|223|ICAO-KSVE|871.1||4|FM15-METAR|223|ICAO-KSVE|||||||999|C-Calm|9|FM15-METAR|223|ICAO-KSVE|0.0|C-Calm|1|FM15-METAR|223|ICAO-KSVE|||||||||||||75|Derived||FM15-METAR|223|ICAO-KSVE|-0.5|Derived||FM15-METAR|223|ICAO-KSVE|||||||||||||||||||||||||||||||||||||||||||||||||||||||||||||||||||1013.9||1|FM15-METAR|223|ICAO-KSVE|||||||||||||||||||||||||||||||||||||||||||MET062METAR KSVE 310835Z AUTO 00000KT 10SM CLR 01/M03 A2994 RMK AO2=||F||223|ICAO-KSVE
USI0000KSVE|SUSANVILLE MUNI|2016|12|31|08|55|40.3757|-120.5727|1264.6|0.0||1|FM15-METAR|223|ICAO-KSVE|-3.0||1|FM15-METAR|223|ICAO-KSVE|871.4||4|FM15-METAR|223|ICAO-KSVE|||||||999|C-Calm|9|FM15-METAR|223|ICAO-KSVE|0.0|C-Calm|1|FM15-METAR|223|ICAO-KSVE|||||||||||||80|Derived||FM15-METAR|223|ICAO-KSVE|-1.1|Derived||FM15-METAR|223|ICAO-KSVE|||||||||||||||||||||||||||||||||||||||||||||||||||||||||||||||||||1014.2||1|FM15-METAR|223|ICAO-KSVE|||||||||||||||||||||||||||||||||||||||||||MET062METAR KSVE 310855Z AUTO 00000KT 10SM CLR 00/M03 A2995 RMK AO2=||F||223|ICAO-KSVE
USI0000KSVE|SUSANVILLE MUNI|2016|12|31|09|15|40.3757|-120.5727|1264.6|0.0||1|FM15-METAR|223|ICAO-KSVE|-3.0||1|FM15-METAR|223|ICAO-KSVE|871.4||4|FM15-METAR|223|ICAO-KSVE|||||||999|C-Calm|9|FM15-METAR|223|ICAO-KSVE|0.0|C-Calm|1|FM15-METAR|223|ICAO-KSVE|||||||||||||80|Derived||FM15-METAR|223|ICAO-KSVE|-1.1|Derived||FM15-METAR|223|ICAO-KSVE|||||||||||||||||||||||||||||||||||||||||||||||||||||||||||||||||||1014.2||1|FM15-METAR|223|ICAO-KSVE|||||||||||||||||||||||||||||||||||||||||||MET062METAR KSVE 310915Z AUTO 00000KT 10SM CLR 00/M03 A2995 RMK AO2=||F||223|ICAO-KSVE
USI0000KSVE|SUSANVILLE MUNI|2016|12|31|09|35|40.3757|-120.5727|1264.6|0.0||1|FM15-METAR|223|ICAO-KSVE|-3.0||1|FM15-METAR|223|ICAO-KSVE|871.7||4|FM15-METAR|223|ICAO-KSVE|||||||999|C-Calm|9|FM15-METAR|223|ICAO-KSVE|0.0|C-Calm|1|FM15-METAR|223|ICAO-KSVE|||||||||||||80|Derived||FM15-METAR|223|ICAO-KSVE|-1.1|Derived||FM15-METAR|223|ICAO-KSVE|||||||||||||||||||||||||||||||||||||||||||||||||||||||||||||||||||1014.6||1|FM15-METAR|223|ICAO-KSVE|||||||||||||||||||||||||||||||||||||||||||MET065METAR KSVE 310935Z AUTO 00000KT 10SM FEW032 00/M03 A2996 RMK AO2=||F||223|ICAO-KSVE
USI0000KSVE|SUSANVILLE MUNI|2016|12|31|09|55|40.3757|-120.5727|1264.6|0.0||1|FM15-METAR|223|ICAO-KSVE|-3.0||1|FM15-METAR|223|ICAO-KSVE|872.0||4|FM15-METAR|223|ICAO-KSVE|||||||120|N-Normal|1|FM15-METAR|223|ICAO-KSVE|1.5|N-Normal|1|FM15-METAR|223|ICAO-KSVE|||||||||||||80|Derived||FM15-METAR|223|ICAO-KSVE|-1.1|Derived||FM15-METAR|223|ICAO-KSVE|||||||||||||||||||||||||||||||||||||||||||||||||||||||||||||||||||1014.9||1|FM15-METAR|223|ICAO-KSVE|||||||||||||||||||||||||||||||||||||||||||MET065METAR KSVE 310955Z AUTO 12003KT 10SM FEW034 00/M03 A2997 RMK AO2=||F||223|ICAO-KSVE
USI0000KSVE|SUSANVILLE MUNI|2016|12|31|10|15|40.3757|-120.5727|1264.6|0.0||1|FM15-METAR|223|ICAO-KSVE|-3.0||1|FM15-METAR|223|ICAO-KSVE|872.0||4|FM15-METAR|223|ICAO-KSVE|||||||999|C-Calm|9|FM15-METAR|223|ICAO-KSVE|0.0|C-Calm|1|FM15-METAR|223|ICAO-KSVE|||||||||||||80|Derived||FM15-METAR|223|ICAO-KSVE|-1.1|Derived||FM15-METAR|223|ICAO-KSVE|||||||||||||||||||||||||||||||||||||||||||||||||||||||||||||||||||1014.9||1|FM15-METAR|223|ICAO-KSVE|||||||||||||||||||||||||||||||||||||||||||MET065METAR KSVE 311015Z AUTO 00000KT 10SM SCT034 00/M03 A2997 RMK AO2=||F||223|ICAO-KSVE
USI0000KSVE|SUSANVILLE MUNI|2016|12|31|10|35|40.3757|-120.5727|1264.6|0.0||1|FM15-METAR|223|ICAO-KSVE|-3.0||1|FM15-METAR|223|ICAO-KSVE|872.3||4|FM15-METAR|223|ICAO-KSVE|||||||999|C-Calm|9|FM15-METAR|223|ICAO-KSVE|0.0|C-Calm|1|FM15-METAR|223|ICAO-KSVE|||||||||||||80|Derived||FM15-METAR|223|ICAO-KSVE|-1.1|Derived||FM15-METAR|223|ICAO-KSVE|||||||||||||||||||||||||||||||||||||||||||||||||||||||||||||||||||1015.2||1|FM15-METAR|223|ICAO-KSVE|||||||||||||||||||||||||||||||||||||||||||MET065METAR KSVE 311035Z AUTO 00000KT 10SM FEW036 00/M03 A2998 RMK AO2=||F||223|ICAO-KSVE
USI0000KSVE|SUSANVILLE MUNI|2016|12|31|10|55|40.3757|-120.5727|1264.6|0.0||1|FM15-METAR|223|ICAO-KSVE|-3.0||1|FM15-METAR|223|ICAO-KSVE|872.3||4|FM15-METAR|223|ICAO-KSVE|||||||150|N-Normal|1|FM15-METAR|223|ICAO-KSVE|2.1|N-Normal|1|FM15-METAR|223|ICAO-KSVE|||||||||||||80|Derived||FM15-METAR|223|ICAO-KSVE|-1.1|Derived||FM15-METAR|223|ICAO-KSVE|||||||||||||||||||||||||||||||||||||||||||||||||||||||||||||||||||1015.2||1|FM15-METAR|223|ICAO-KSVE|||||||||||||||||||||||||||||||||||||||||||MET062METAR KSVE 311055Z AUTO 15004KT 10SM CLR 00/M03 A2998 RMK AO2=||F||223|ICAO-KSVE
USI0000KSVE|SUSANVILLE MUNI|2016|12|31|11|15|40.3757|-120.5727|1264.6|-1.0||1|FM15-METAR|223|ICAO-KSVE|-3.0||1|FM15-METAR|223|ICAO-KSVE|872.3||4|FM15-METAR|223|ICAO-KSVE|||||||150|N-Normal|1|FM15-METAR|223|ICAO-KSVE|1.5|N-Normal|1|FM15-METAR|223|ICAO-KSVE|||||||||||||86|Derived||FM15-METAR|223|ICAO-KSVE|-1.8|Derived||FM15-METAR|223|ICAO-KSVE|||||||||||||||||||||||||||||||||||||||||||||||||||||||||||||||||||1015.2||1|FM15-METAR|223|ICAO-KSVE|||||||||||||||||||||||||||||||||||||||||||MET063METAR KSVE 311115Z AUTO 15003KT 10SM CLR M01/M03 A2998 RMK AO2=||F||223|ICAO-KSVE
USI0000KSVE|SUSANVILLE MUNI|2016|12|31|11|35|40.3757|-120.5727|1264.6|-1.0||1|FM15-METAR|223|ICAO-KSVE|-3.0||1|FM15-METAR|223|ICAO-KSVE|872.3||4|FM15-METAR|223|ICAO-KSVE|||||||190|N-Normal|1|FM15-METAR|223|ICAO-KSVE|1.5|N-Normal|1|FM15-METAR|223|ICAO-KSVE|||||||||||||86|Derived||FM15-METAR|223|ICAO-KSVE|-1.8|Derived||FM15-METAR|223|ICAO-KSVE|||||||||||||||||||||||||||||||||||||||||||||||||||||||||||||||||||1015.2||1|FM15-METAR|223|ICAO-KSVE|||||||||||||||||||||||||||||||||||||||||||MET063METAR KSVE 311135Z AUTO 19003KT 10SM CLR M01/M03 A2998 RMK AO2=||F||223|ICAO-KSVE
USI0000KSVE|SUSANVILLE MUNI|2016|12|31|11|55|40.3757|-120.5727|1264.6|-1.0||1|FM15-METAR|223|ICAO-KSVE|-4.0||1|FM15-METAR|223|ICAO-KSVE|872.6||4|FM15-METAR|223|ICAO-KSVE|||||||999|C-Calm|9|FM15-METAR|223|ICAO-KSVE|0.0|C-Calm|1|FM15-METAR|223|ICAO-KSVE|||||||||||||80|Derived||FM15-METAR|223|ICAO-KSVE|-2.2|Derived||FM15-METAR|223|ICAO-KSVE|||||||||||||||||||||||||||||||||||||||||||||||||||||||||||||||||||1015.6||1|FM15-METAR|223|ICAO-KSVE|||||||||||||||||||||||||||||||||||||||||||MET066METAR KSVE 311155Z AUTO 00000KT 10SM SCT034 M01/M04 A2999 RMK AO2=||F||223|ICAO-KSVE
USI0000KSVE|SUSANVILLE MUNI|2016|12|31|12|15|40.3757|-120.5727|1264.6|-1.0||1|FM15-METAR|223|ICAO-KSVE|-3.0||1|FM15-METAR|223|ICAO-KSVE|872.6||4|FM15-METAR|223|ICAO-KSVE|||||||999|C-Calm|9|FM15-METAR|223|ICAO-KSVE|0.0|C-Calm|1|FM15-METAR|223|ICAO-KSVE|||||||||||||86|Derived||FM15-METAR|223|ICAO-KSVE|-1.8|Derived||FM15-METAR|223|ICAO-KSVE|||||||||||||||||||||||||||||||||||||||||||||||||||||||||||||||||||1015.6||1|FM15-METAR|223|ICAO-KSVE|||||||||||||||||||||||||||||||||||||||||||MET066METAR KSVE 311215Z AUTO 00000KT 10SM BKN034 M01/M03 A2999 RMK AO2=||F||223|ICAO-KSVE
USI0000KSVE|SUSANVILLE MUNI|2016|12|31|12|35|40.3757|-120.5727|1264.6|-1.0||1|FM15-METAR|223|ICAO-KSVE|-3.0||1|FM15-METAR|223|ICAO-KSVE|872.6||4|FM15-METAR|223|ICAO-KSVE|||||||999|C-Calm|9|FM15-METAR|223|ICAO-KSVE|0.0|C-Calm|1|FM15-METAR|223|ICAO-KSVE|||||||||||||86|Derived||FM15-METAR|223|ICAO-KSVE|-1.8|Derived||FM15-METAR|223|ICAO-KSVE|||||||||||||||||||||||||||||||||||||||||||||||||||||||||||||||||||1015.6||1|FM15-METAR|223|ICAO-KSVE|||||||||||||||||||||||||||||||||||||||||||MET066METAR KSVE 311235Z AUTO 00000KT 10SM BKN034 M01/M03 A2999 RMK AO2=||F||223|ICAO-KSVE
USI0000KSVE|SUSANVILLE MUNI|2016|12|31|12|55|40.3757|-120.5727|1264.6|0.0||1|FM15-METAR|223|ICAO-KSVE|-3.0||1|FM15-METAR|223|ICAO-KSVE|872.6||4|FM15-METAR|223|ICAO-KSVE|||||||999|C-Calm|9|FM15-METAR|223|ICAO-KSVE|0.0|C-Calm|1|FM15-METAR|223|ICAO-KSVE|||||||||||||80|Derived||FM15-METAR|223|ICAO-KSVE|-1.1|Derived||FM15-METAR|223|ICAO-KSVE|||||||||||||||||||||||||||||||||||||||||||||||||||||||||||||||||||1015.6||1|FM15-METAR|223|ICAO-KSVE|||||||||||||||||||||||||||||||||||||||||||MET065METAR KSVE 311255Z AUTO 00000KT 10SM BKN034 00/M03 A2999 RMK AO2=||F||223|ICAO-KSVE
USI0000KSVE|SUSANVILLE MUNI|2016|12|31|13|15|40.3757|-120.5727|1264.6|-1.0||1|FM15-METAR|223|ICAO-KSVE|-4.0||1|FM15-METAR|223|ICAO-KSVE|872.6||4|FM15-METAR|223|ICAO-KSVE|||||||999|C-Calm|9|FM15-METAR|223|ICAO-KSVE|0.0|C-Calm|1|FM15-METAR|223|ICAO-KSVE|||||||||||||80|Derived||FM15-METAR|223|ICAO-KSVE|-2.2|Derived||FM15-METAR|223|ICAO-KSVE|||||||||||||||||||||||||||||||||||||||||||||||||||||||||||||||||||1015.6||1|FM15-METAR|223|ICAO-KSVE|||||||||||||||||||||||||||||||||||||||||||MET066METAR KSVE 311315Z AUTO 00000KT 10SM FEW034 M01/M04 A2999 RMK AO2=||F||223|ICAO-KSVE
USI0000KSVE|SUSANVILLE MUNI|2016|12|31|13|35|40.3757|-120.5727|1264.6|-1.0||1|FM15-METAR|223|ICAO-KSVE|-4.0||1|FM15-METAR|223|ICAO-KSVE|872.9||4|FM15-METAR|223|ICAO-KSVE|||||||999|C-Calm|9|FM15-METAR|223|ICAO-KSVE|0.0|C-Calm|1|FM15-METAR|223|ICAO-KSVE|||||||||||||80|Derived||FM15-METAR|223|ICAO-KSVE|-2.2|Derived||FM15-METAR|223|ICAO-KSVE|||||||||||||||||||||||||||||||||||||||||||||||||||||||||||||||||||1015.9||1|FM15-METAR|223|ICAO-KSVE|||||||||||||||||||||||||||||||||||||||||||MET063METAR KSVE 311335Z AUTO 00000KT 10SM CLR M01/M04 A3000 RMK AO2=||F||223|ICAO-KSVE
USI0000KSVE|SUSANVILLE MUNI|2016|12|31|13|55|40.3757|-120.5727|1264.6|-1.0||1|FM15-METAR|223|ICAO-KSVE|-4.0||1|FM15-METAR|223|ICAO-KSVE|872.9||4|FM15-METAR|223|ICAO-KSVE|||||||160|N-Normal|1|FM15-METAR|223|ICAO-KSVE|1.5|N-Normal|1|FM15-METAR|223|ICAO-KSVE|||||||||||||80|Derived||FM15-METAR|223|ICAO-KSVE|-2.2|Derived||FM15-METAR|223|ICAO-KSVE|||||||||||||||||||||||||||||||||||||||||||||||||||||||||||||||||||1015.9||1|FM15-METAR|223|ICAO-KSVE|||||||||||||||||||||||||||||||||||||||||||MET063METAR KSVE 311355Z AUTO 16003KT 10SM CLR M01/M04 A3000 RMK AO2=||F||223|ICAO-KSVE
USI0000KSVE|SUSANVILLE MUNI|2016|12|31|14|15|40.3757|-120.5727|1264.6|-2.0||1|FM15-METAR|223|ICAO-KSVE|-5.0||1|FM15-METAR|223|ICAO-KSVE|872.9||4|FM15-METAR|223|ICAO-KSVE|||||||999|C-Calm|9|FM15-METAR|223|ICAO-KSVE|0.0|C-Calm|1|FM15-METAR|223|ICAO-KSVE|||||||||||||80|Derived||FM15-METAR|223|ICAO-KSVE|-3.2|Derived||FM15-METAR|223|ICAO-KSVE|||||||||||||||||||||||||||||||||||||||||||||||||||||||||||||||||||1015.9||1|FM15-METAR|223|ICAO-KSVE|||||||||||||||||||||||||||||||||||||||||||MET063METAR KSVE 311415Z AUTO 00000KT 10SM CLR M02/M05 A3000 RMK AO2=||F||223|ICAO-KSVE
USI0000KSVE|SUSANVILLE MUNI|2016|12|31|14|35|40.3757|-120.5727|1264.6|-3.0||1|FM15-METAR|223|ICAO-KSVE|-5.0||1|FM15-METAR|223|ICAO-KSVE|872.9||4|FM15-METAR|223|ICAO-KSVE|||||||070|N-Normal|1|FM15-METAR|223|ICAO-KSVE|2.1|N-Normal|1|FM15-METAR|223|ICAO-KSVE|||||||||||||86|Derived||FM15-METAR|223|ICAO-KSVE|-3.6|Derived||FM15-METAR|223|ICAO-KSVE|||||||||||||||||||||||||||||||||||||||||||||||||||||||||||||||||||1015.9||1|FM15-METAR|223|ICAO-KSVE|||||||||||||||||||||||||||||||||||||||||||MET063METAR KSVE 311435Z AUTO 07004KT 10SM CLR M03/M05 A3000 RMK AO2=||F||223|ICAO-KSVE
USI0000KSVE|SUSANVILLE MUNI|2016|12|31|14|55|40.3757|-120.5727|1264.6|-2.0||1|FM15-METAR|223|ICAO-KSVE|-5.0||1|FM15-METAR|223|ICAO-KSVE|873.2||4|FM15-METAR|223|ICAO-KSVE|||||||140|N-Normal|1|FM15-METAR|223|ICAO-KSVE|1.5|N-Normal|1|FM15-METAR|223|ICAO-KSVE|||||||||||||80|Derived||FM15-METAR|223|ICAO-KSVE|-3.2|Derived||FM15-METAR|223|ICAO-KSVE|||||||||||||||||||||||||||||||||||||||||||||||||||||||||||||||||||1016.3||1|FM15-METAR|223|ICAO-KSVE|||||||||||||||||||||||||||||||||||||||||||MET063METAR KSVE 311455Z AUTO 14003KT 10SM CLR M02/M05 A3001 RMK AO2=||F||223|ICAO-KSVE
USI0000KSVE|SUSANVILLE MUNI|2016|12|31|15|15|40.3757|-120.5727|1264.6|-3.0||1|FM15-METAR|223|ICAO-KSVE|-5.0||1|FM15-METAR|223|ICAO-KSVE|873.2||4|FM15-METAR|223|ICAO-KSVE|||||||999|C-Calm|9|FM15-METAR|223|ICAO-KSVE|0.0|C-Calm|1|FM15-METAR|223|ICAO-KSVE|||||||||||||86|Derived||FM15-METAR|223|ICAO-KSVE|-3.6|Derived||FM15-METAR|223|ICAO-KSVE|||||||||||||||||||||||||||||||||||||||||||||||||||||||||||||||||||1016.3||1|FM15-METAR|223|ICAO-KSVE|||||||||||||||||||||||||||||||||||||||||||MET063METAR KSVE 311515Z AUTO 00000KT 10SM CLR M03/M05 A3001 RMK AO2=||F||223|ICAO-KSVE
USI0000KSVE|SUSANVILLE MUNI|2016|12|31|15|35|40.3757|-120.5727|1264.6|-4.0||1|FM15-METAR|223|ICAO-KSVE|-6.0||1|FM15-METAR|223|ICAO-KSVE|873.2||4|FM15-METAR|223|ICAO-KSVE|||||||||||||||||||||||||||||||86|Derived||FM15-METAR|223|ICAO-KSVE|-4.7|Derived||FM15-METAR|223|ICAO-KSVE|||||||||||||||||||||||||||||||||||||||||||||||||||||||||||||||||||1016.3||1|FM15-METAR|223|ICAO-KSVE|||||||||||||||||||||||||||||||||||||||||||MET055METAR KSVE 311535Z AUTO 10SM CLR M04/M06 A3001 RMK AO2=||F||223|ICAO-KSVE
USI0000KSVE|SUSANVILLE MUNI|2016|12|31|15|55|40.3757|-120.5727|1264.6|-4.0||1|FM15-METAR|223|ICAO-KSVE|-6.0||1|FM15-METAR|223|ICAO-KSVE|873.5||4|FM15-METAR|223|ICAO-KSVE|||||||310|N-Normal|1|FM15-METAR|223|ICAO-KSVE|1.5|N-Normal|1|FM15-METAR|223|ICAO-KSVE|||||||||||||86|Derived||FM15-METAR|223|ICAO-KSVE|-4.7|Derived||FM15-METAR|223|ICAO-KSVE|||||||||||||||||||||||||||||||||||||||||||||||||||||||||||||||||||1016.6||1|FM15-METAR|223|ICAO-KSVE|||||||||||||||||||||||||||||||||||||||||||MET062METAR KSVE 311555Z AUTO 31003KT 8SM CLR M04/M06 A3002 RMK AO2=||F||223|ICAO-KSVE
USI0000KSVE|SUSANVILLE MUNI|2016|12|31|16|15|40.3757|-120.5727|1264.6|-3.0||1|FM15-METAR|223|ICAO-KSVE|-5.0||1|FM15-METAR|223|ICAO-KSVE|873.5||4|FM15-METAR|223|ICAO-KSVE|||||||999|C-Calm|9|FM15-METAR|223|ICAO-KSVE|0.0|C-Calm|1|FM15-METAR|223|ICAO-KSVE|||||||||||||86|Derived||FM15-METAR|223|ICAO-KSVE|-3.6|Derived||FM15-METAR|223|ICAO-KSVE|||||||||||||||||||||||||||||||||||||||||||||||||||||||||||||||||||1016.6||1|FM15-METAR|223|ICAO-KSVE|||||||||||||||||||||||||||||||||||||||||||MET062METAR KSVE 311615Z AUTO 00000KT 9SM CLR M03/M05 A3002 RMK AO2=||F||223|ICAO-KSVE
USI0000KSVE|SUSANVILLE MUNI|2016|12|31|16|55|40.3757|-120.5727|1264.6|-1.0||1|FM15-METAR|223|ICAO-KSVE|-4.0||1|FM15-METAR|223|ICAO-KSVE|873.8||4|FM15-METAR|223|ICAO-KSVE|||||||999|C-Calm|9|FM15-METAR|223|ICAO-KSVE|0.0|C-Calm|1|FM15-METAR|223|ICAO-KSVE|||||||||||||80|Derived||FM15-METAR|223|ICAO-KSVE|-2.2|Derived||FM15-METAR|223|ICAO-KSVE|||||||||||||||||||||||||||||||||||||||||||||||||||||||||||||||||||1016.9||1|FM15-METAR|223|ICAO-KSVE|||||||||||||||||||||||||||||||||||||||||||MET063METAR KSVE 311655Z AUTO 00000KT 10SM CLR M01/M04 A3003 RMK AO2=||F||223|ICAO-KSVE
USI0000KSVE|SUSANVILLE MUNI|2016|12|31|17|15|40.3757|-120.5727|1264.6|0.0||1|FM15-METAR|223|ICAO-KSVE|-3.0||1|FM15-METAR|223|ICAO-KSVE|874.1||4|FM15-METAR|223|ICAO-KSVE|||||||999|C-Calm|9|FM15-METAR|223|ICAO-KSVE|0.0|C-Calm|1|FM15-METAR|223|ICAO-KSVE|||||||||||||80|Derived||FM15-METAR|223|ICAO-KSVE|-1.1|Derived||FM15-METAR|223|ICAO-KSVE|||||||||||||||||||||||||||||||||||||||||||||||||||||||||||||||||||1017.3||1|FM15-METAR|223|ICAO-KSVE|||||||||||||||||||||||||||||||||||||||||||MET062METAR KSVE 311715Z AUTO 00000KT 10SM CLR 00/M03 A3004 RMK AO2=||F||223|ICAO-KSVE
USI0000KSVE|SUSANVILLE MUNI|2016|12|31|17|35|40.3757|-120.5727|1264.6|0.0||1|FM15-METAR|223|ICAO-KSVE|-3.0||1|FM15-METAR|223|ICAO-KSVE|874.1||4|FM15-METAR|223|ICAO-KSVE|||||||999|C-Calm|9|FM15-METAR|223|ICAO-KSVE|0.0|C-Calm|1|FM15-METAR|223|ICAO-KSVE|||||||||||||80|Derived||FM15-METAR|223|ICAO-KSVE|-1.1|Derived||FM15-METAR|223|ICAO-KSVE|||||||||||||||||||||||||||||||||||||||||||||||||||||||||||||||||||1017.3||1|FM15-METAR|223|ICAO-KSVE|||||||||||||||||||||||||||||||||||||||||||MET062METAR KSVE 311735Z AUTO 00000KT 10SM CLR 00/M03 A3004 RMK AO2=||F||223|ICAO-KSVE
USI0000KSVE|SUSANVILLE MUNI|2016|12|31|17|55|40.3757|-120.5727|1264.6|1.0||1|FM15-METAR|223|ICAO-KSVE|-3.0||1|FM15-METAR|223|ICAO-KSVE|874.1||4|FM15-METAR|223|ICAO-KSVE|||||||999|C-Calm|9|FM15-METAR|223|ICAO-KSVE|0.0|C-Calm|1|FM15-METAR|223|ICAO-KSVE|||||||||||||75|Derived||FM15-METAR|223|ICAO-KSVE|-0.5|Derived||FM15-METAR|223|ICAO-KSVE|||||||||||||||||||||||||||||||||||||||||||||||||||||||||||||||||||1017.3||1|FM15-METAR|223|ICAO-KSVE|||||||||||||||||||||||||||||||||||||||||||MET062METAR KSVE 311755Z AUTO 00000KT 10SM CLR 01/M03 A3004 RMK AO2=||F||223|ICAO-KSVE
USI0000KSVE|SUSANVILLE MUNI|2016|12|31|18|15|40.3757|-120.5727|1264.6|1.0||1|FM15-METAR|223|ICAO-KSVE|-3.0||1|FM15-METAR|223|ICAO-KSVE|874.1||4|FM15-METAR|223|ICAO-KSVE|||||||100|N-Normal|1|FM15-METAR|223|ICAO-KSVE|1.5|N-Normal|1|FM15-METAR|223|ICAO-KSVE|||||||||||||75|Derived||FM15-METAR|223|ICAO-KSVE|-0.5|Derived||FM15-METAR|223|ICAO-KSVE|||||||||||||||||||||||||||||||||||||||||||||||||||||||||||||||||||1017.3||1|FM15-METAR|223|ICAO-KSVE|||||||||||||||||||||||||||||||||||||||||||MET062METAR KSVE 311815Z AUTO 10003KT 10SM CLR 01/M03 A3004 RMK AO2=||F||223|ICAO-KSVE
USI0000KSVE|SUSANVILLE MUNI|2016|12|31|18|35|40.3757|-120.5727|1264.6|2.0||1|FM15-METAR|223|ICAO-KSVE|-3.0||1|FM15-METAR|223|ICAO-KSVE|874.1||4|FM15-METAR|223|ICAO-KSVE|||||||070|N-Normal|1|FM15-METAR|223|ICAO-KSVE|2.1|N-Normal|1|FM15-METAR|223|ICAO-KSVE|||||||||||||70|Derived||FM15-METAR|223|ICAO-KSVE|0.2|Derived||FM15-METAR|223|ICAO-KSVE|||||||||||||||||||||||||||||||||||||||||||||||||||||||||||||||||||1017.3||1|FM15-METAR|223|ICAO-KSVE|||||||||||||||||||||||||||||||||||||||||||MET062METAR KSVE 311835Z AUTO 07004KT 10SM CLR 02/M03 A3004 RMK AO2=||F||223|ICAO-KSVE
USI0000KSVE|SUSANVILLE MUNI|2016|12|31|18|55|40.3757|-120.5727|1264.6|2.0||1|FM15-METAR|223|ICAO-KSVE|-3.0||1|FM15-METAR|223|ICAO-KSVE|873.8||4|FM15-METAR|223|ICAO-KSVE|||||||999|C-Calm|9|FM15-METAR|223|ICAO-KSVE|0.0|C-Calm|1|FM15-METAR|223|ICAO-KSVE|||||||||||||70|Derived||FM15-METAR|223|ICAO-KSVE|0.2|Derived||FM15-METAR|223|ICAO-KSVE|||||||||||||||||||||||||||||||||||||||||||||||||||||||||||||||||||1016.9||1|FM15-METAR|223|ICAO-KSVE|||||||||||||||||||||||||||||||||||||||||||MET062METAR KSVE 311855Z AUTO 00000KT 10SM CLR 02/M03 A3003 RMK AO2=||F||223|ICAO-KSVE
USI0000KSVE|SUSANVILLE MUNI|2016|12|31|19|15|40.3757|-120.5727|1264.6|3.0||1|FM15-METAR|223|ICAO-KSVE|-3.0||1|FM15-METAR|223|ICAO-KSVE|873.8||4|FM15-METAR|223|ICAO-KSVE|||||||999|C-Calm|9|FM15-METAR|223|ICAO-KSVE|0.0|C-Calm|1|FM15-METAR|223|ICAO-KSVE|||||||||||||65|Derived||FM15-METAR|223|ICAO-KSVE|0.5|Derived||FM15-METAR|223|ICAO-KSVE|||||||||||||||||||||||||||||||||||||||||||||||||||||||||||||||||||1016.9||1|FM15-METAR|223|ICAO-KSVE|||||||||||||||||||||||||||||||||||||||||||MET062METAR KSVE 311915Z AUTO 00000KT 10SM CLR 03/M03 A3003 RMK AO2=||F||223|ICAO-KSVE
USI0000KSVE|SUSANVILLE MUNI|2016|12|31|19|35|40.3757|-120.5727|1264.6|3.0||1|FM15-METAR|223|ICAO-KSVE|-3.0||1|FM15-METAR|223|ICAO-KSVE|873.5||4|FM15-METAR|223|ICAO-KSVE|||||||999|C-Calm|9|FM15-METAR|223|ICAO-KSVE|0.0|C-Calm|1|FM15-METAR|223|ICAO-KSVE|||||||||||||65|Derived||FM15-METAR|223|ICAO-KSVE|0.5|Derived||FM15-METAR|223|ICAO-KSVE|||||||||||||||||||||||||||||||||||||||||||||||||||||||||||||||||||1016.6||1|FM15-METAR|223|ICAO-KSVE|||||||||||||||||||||||||||||||||||||||||||MET062METAR KSVE 311935Z AUTO 00000KT 10SM CLR 03/M03 A3002 RMK AO2=||F||223|ICAO-KSVE
USI0000KSVE|SUSANVILLE MUNI|2016|12|31|19|55|40.3757|-120.5727|1264.6|3.0||1|FM15-METAR|223|ICAO-KSVE|-3.0||1|FM15-METAR|223|ICAO-KSVE|873.2||4|FM15-METAR|223|ICAO-KSVE|||||||070|N-Normal|1|FM15-METAR|223|ICAO-KSVE|2.1|N-Normal|1|FM15-METAR|223|ICAO-KSVE|||||||||||||65|Derived||FM15-METAR|223|ICAO-KSVE|0.5|Derived||FM15-METAR|223|ICAO-KSVE|||||||||||||||||||||||||||||||||||||||||||||||||||||||||||||||||||1016.3||1|FM15-METAR|223|ICAO-KSVE|||||||||||||||||||||||||||||||||||||||||||MET062METAR KSVE 311955Z AUTO 07004KT 10SM CLR 03/M03 A3001 RMK AO2=||F||223|ICAO-KSVE
USI0000KSVE|SUSANVILLE MUNI|2016|12|31|20|15|40.3757|-120.5727|1264.6|3.0||1|FM15-METAR|223|ICAO-KSVE|-3.0||1|FM15-METAR|223|ICAO-KSVE|872.9||4|FM15-METAR|223|ICAO-KSVE|||||||999|C-Calm|9|FM15-METAR|223|ICAO-KSVE|0.0|C-Calm|1|FM15-METAR|223|ICAO-KSVE|||||||||||||65|Derived||FM15-METAR|223|ICAO-KSVE|0.5|Derived||FM15-METAR|223|ICAO-KSVE|||||||||||||||||||||||||||||||||||||||||||||||||||||||||||||||||||1015.9||1|FM15-METAR|223|ICAO-KSVE|||||||||||||||||||||||||||||||||||||||||||MET062METAR KSVE 312015Z AUTO 00000KT 10SM CLR 03/M03 A3000 RMK AO2=||F||223|ICAO-KSVE
USI0000KSVE|SUSANVILLE MUNI|2016|12|31|20|35|40.3757|-120.5727|1264.6|3.0||1|FM15-METAR|223|ICAO-KSVE|-3.0||1|FM15-METAR|223|ICAO-KSVE|872.6||4|FM15-METAR|223|ICAO-KSVE|||||||090|N-Normal|1|FM15-METAR|223|ICAO-KSVE|2.6|N-Normal|1|FM15-METAR|223|ICAO-KSVE|||||||||||||65|Derived||FM15-METAR|223|ICAO-KSVE|0.5|Derived||FM15-METAR|223|ICAO-KSVE|||||||||||||||||||||||||||||||||||||||||||||||||||||||||||||||||||1015.6||1|FM15-METAR|223|ICAO-KSVE|||||||||||||||||||||||||||||||||||||||||||MET062METAR KSVE 312035Z AUTO 09005KT 10SM CLR 03/M03 A2999 RMK AO2=||F||223|ICAO-KSVE
USI0000KSVE|SUSANVILLE MUNI|2016|12|31|20|55|40.3757|-120.5727|1264.6|4.0||1|FM15-METAR|223|ICAO-KSVE|-3.0||1|FM15-METAR|223|ICAO-KSVE|872.3||4|FM15-METAR|223|ICAO-KSVE|||||||150|N-Normal|1|FM15-METAR|223|ICAO-KSVE|1.5|N-Normal|1|FM15-METAR|223|ICAO-KSVE|||||||||||||61|Derived||FM15-METAR|223|ICAO-KSVE|1.1|Derived||FM15-METAR|223|ICAO-KSVE|||||||||||||||||||||||||||||||||||||||||||||||||||||||||||||||||||1015.2||1|FM15-METAR|223|ICAO-KSVE|||||||||||||||||||||||||||||||||||||||||||MET062METAR KSVE 312055Z AUTO 15003KT 10SM CLR 04/M03 A2998 RMK AO2=||F||223|ICAO-KSVE
USI0000KSVE|SUSANVILLE MUNI|2016|12|31|21|15|40.3757|-120.5727|1264.6|4.0||1|FM15-METAR|223|ICAO-KSVE|-3.0||1|FM15-METAR|223|ICAO-KSVE|872.0||4|FM15-METAR|223|ICAO-KSVE|||||||140|N-Normal|1|FM15-METAR|223|ICAO-KSVE|2.1|N-Normal|1|FM15-METAR|223|ICAO-KSVE|||||||||||||61|Derived||FM15-METAR|223|ICAO-KSVE|1.1|Derived||FM15-METAR|223|ICAO-KSVE|||||||||||||||||||||||||||||||||||||||||||||||||||||||||||||||||||1014.9||1|FM15-METAR|223|ICAO-KSVE|||||||||||||||||||||||||||||||||||||||||||MET062METAR KSVE 312115Z AUTO 14004KT 10SM CLR 04/M03 A2997 RMK AO2=||F||223|ICAO-KSVE
USI0000KSVE|SUSANVILLE MUNI|2016|12|31|21|35|40.3757|-120.5727|1264.6|4.0||1|FM15-METAR|223|ICAO-KSVE|-3.0||1|FM15-METAR|223|ICAO-KSVE|871.7||4|FM15-METAR|223|ICAO-KSVE|||||||150|N-Normal|1|FM15-METAR|223|ICAO-KSVE|2.1|N-Normal|1|FM15-METAR|223|ICAO-KSVE|||||||||||||61|Derived||FM15-METAR|223|ICAO-KSVE|1.1|Derived||FM15-METAR|223|ICAO-KSVE|||||||||||||||||||||||||||||||||||||||||||||||||||||||||||||||||||1014.6||1|FM15-METAR|223|ICAO-KSVE|||||||||||||||||||||||||||||||||||||||||||MET062METAR KSVE 312135Z AUTO 15004KT 10SM CLR 04/M03 A2996 RMK AO2=||F||223|ICAO-KSVE
USI0000KSVE|SUSANVILLE MUNI|2016|12|31|21|55|40.3757|-120.5727|1264.6|5.0||1|FM15-METAR|223|ICAO-KSVE|-3.0||1|FM15-METAR|223|ICAO-KSVE|871.4||4|FM15-METAR|223|ICAO-KSVE|||||||110|N-Normal|1|FM15-METAR|223|ICAO-KSVE|1.5|N-Normal|1|FM15-METAR|223|ICAO-KSVE|||||||||||||57|Derived||FM15-METAR|223|ICAO-KSVE|1.7|Derived||FM15-METAR|223|ICAO-KSVE|||||||||||||||||||||||||||||||||||||||||||||||||||||||||||||||||||1014.2||1|FM15-METAR|223|ICAO-KSVE|||||||||||||||||||||||||||||||||||||||||||MET062METAR KSVE 312155Z AUTO 11003KT 10SM CLR 05/M03 A2995 RMK AO2=||F||223|ICAO-KSVE
USI0000KSVE|SUSANVILLE MUNI|2016|12|31|22|15|40.3757|-120.5727|1264.6|5.0||1|FM15-METAR|223|ICAO-KSVE|-3.0||1|FM15-METAR|223|ICAO-KSVE|871.4||4|FM15-METAR|223|ICAO-KSVE|||||||090|N-Normal|1|FM15-METAR|223|ICAO-KSVE|2.1|N-Normal|1|FM15-METAR|223|ICAO-KSVE|||||||||||||57|Derived||FM15-METAR|223|ICAO-KSVE|1.7|Derived||FM15-METAR|223|ICAO-KSVE|||||||||||||||||||||||||||||||||||||||||||||||||||||||||||||||||||1014.2||1|FM15-METAR|223|ICAO-KSVE|||||||||||||||||||||||||||||||||||||||||||MET062METAR KSVE 312215Z AUTO 09004KT 10SM CLR 05/M03 A2995 RMK AO2=||F||223|ICAO-KSVE
USI0000KSVE|SUSANVILLE MUNI|2016|12|31|22|35|40.3757|-120.5727|1264.6|5.0||1|FM15-METAR|223|ICAO-KSVE|-3.0||1|FM15-METAR|223|ICAO-KSVE|871.1||4|FM15-METAR|223|ICAO-KSVE|||||||090|N-Normal|1|FM15-METAR|223|ICAO-KSVE|2.1|N-Normal|1|FM15-METAR|223|ICAO-KSVE|||||||||||||57|Derived||FM15-METAR|223|ICAO-KSVE|1.7|Derived||FM15-METAR|223|ICAO-KSVE|||||||||||||||||||||||||||||||||||||||||||||||||||||||||||||||||||1013.9||1|FM15-METAR|223|ICAO-KSVE|||||||||||||||||||||||||||||||||||||||||||MET062METAR KSVE 312235Z AUTO 09004KT 10SM CLR 05/M03 A2994 RMK AO2=||F||223|ICAO-KSVE
USI0000KSVE|SUSANVILLE MUNI|2016|12|31|22|55|40.3757|-120.5727|1264.6|5.0||1|FM15-METAR|223|ICAO-KSVE|-2.0||1|FM15-METAR|223|ICAO-KSVE|871.1||4|FM15-METAR|223|ICAO-KSVE|||||||110|N-Normal|1|FM15-METAR|223|ICAO-KSVE|1.5|N-Normal|1|FM15-METAR|223|ICAO-KSVE|||||||||||||61|Derived||FM15-METAR|223|ICAO-KSVE|1.9|Derived||FM15-METAR|223|ICAO-KSVE|||||||||||||||||||||||||||||||||||||||||||||||||||||||||||||||||||1013.9||1|FM15-METAR|223|ICAO-KSVE|||||||||||||||||||||||||||||||||||||||||||MET062METAR KSVE 312255Z AUTO 11003KT 10SM CLR 05/M02 A2994 RMK AO2=||F||223|ICAO-KSVE
USI0000KSVE|SUSANVILLE MUNI|2016|12|31|23|15|40.3757|-120.5727|1264.6|5.0||1|FM15-METAR|223|ICAO-KSVE|-3.0||1|FM15-METAR|223|ICAO-KSVE|870.8||4|FM15-METAR|223|ICAO-KSVE|||||||080|N-Normal|1|FM15-METAR|223|ICAO-KSVE|1.5|N-Normal|1|FM15-METAR|223|ICAO-KSVE|||||||||||||57|Derived||FM15-METAR|223|ICAO-KSVE|1.7|Derived||FM15-METAR|223|ICAO-KSVE|||||||||||||||||||||||||||||||||||||||||||||||||||||||||||||||||||1013.5||1|FM15-METAR|223|ICAO-KSVE|||||||||||||||||||||||||||||||||||||||||||MET062METAR KSVE 312315Z AUTO 08003KT 10SM CLR 05/M03 A2993 RMK AO2=||F||223|ICAO-KSVE
USI0000KSVE|SUSANVILLE MUNI|2016|12|31|23|35|40.3757|-120.5727|1264.6|4.0||1|FM15-METAR|223|ICAO-KSVE|-3.0||1|FM15-METAR|223|ICAO-KSVE|870.5||4|FM15-METAR|223|ICAO-KSVE|||||||999|C-Calm|9|FM15-METAR|223|ICAO-KSVE|0.0|C-Calm|1|FM15-METAR|223|ICAO-KSVE|||||||||||||61|Derived||FM15-METAR|223|ICAO-KSVE|1.1|Derived||FM15-METAR|223|ICAO-KSVE|||||||||||||||||||||||||||||||||||||||||||||||||||||||||||||||||||1013.2||1|FM15-METAR|223|ICAO-KSVE|||||||||||||||||||||||||||||||||||||||||||MET062METAR KSVE 312335Z AUTO 00000KT 10SM CLR 04/M03 A2992 RMK AO2=||F||223|ICAO-KSVE
USI0000KSVE|SUSANVILLE MUNI|2016|12|31|23|55|40.3757|-120.5727|1264.6|4.0||1|FM15-METAR|223|ICAO-KSVE|-3.0||1|FM15-METAR|223|ICAO-KSVE|870.5||4|FM15-METAR|223|ICAO-KSVE|||||||130|N-Normal|1|FM15-METAR|223|ICAO-KSVE|2.1|N-Normal|1|FM15-METAR|223|ICAO-KSVE|||||||||||||61|Derived||FM15-METAR|223|ICAO-KSVE|1.1|Derived||FM15-METAR|223|ICAO-KSVE|||||||||||||||||||||||||||||||||||||||||||||||||||||||||||||||||||1013.2||1|FM15-METAR|223|ICAO-KSVE|||||||||||||||||||||||||||||||||||||||||||MET062METAR KSVE 312355Z AUTO 13004KT 10SM CLR 04/M03 A2992 RMK AO2=||F||223|ICAO-KSVE
