Station_ID|Station_name|Year|Month|Day|Hour|Minute|Latitude|Longitude|Elevation|temperature|temperature_Measurement_Code|temperature_Quality_Code|temperature_Report_Type|temperature_Source_Code|temperature_Source_Station_ID|dew_point_temperature|dew_point_temperature_Measurement_Code|dew_point_temperature_Quality_Code|dew_point_temperature_Report_Type|dew_point_temperature_Source_Code|dew_point_temperature_Source_Station_ID|station_level_pressure|station_level_pressure_Measurement_Code|station_level_pressure_Quality_Code|station_level_pressure_Report_Type|station_level_pressure_Source_Code|station_level_pressure_Source_Station_ID|sea_level_pressure|sea_level_pressure_Measurement_Code|sea_level_pressure_Quality_Code|sea_level_pressure_Report_Type|sea_level_pressure_Source_Code|sea_level_pressure_Source_Station_ID|wind_direction|wind_direction_Measurement_Code|wind_direction_Quality_Code|wind_direction_Report_Type|wind_direction_Source_Code|wind_direction_Source_Station_ID|wind_speed|wind_speed_Measurement_Code|wind_speed_Quality_Code|wind_speed_Report_Type|wind_speed_Source_Code|wind_speed_Source_Station_ID|wind_gust|wind_gust_Measurement_Code|wind_gust_Quality_Code|wind_gust_Report_Type|wind_gust_Source_Code|wind_gust_Source_Station_ID|precipitation|precipitation_Measurement_Code|precipitation_Quality_Code|precipitation_Report_Type|precipitation_Source_Code|precipitation_Source_Station_ID|relative_humidity|relative_humidity_Measurement_Code|relative_humidity_Quality_Code|relative_humidity_Report_Type|relative_humidity_Source_Code|relative_humidity_Source_Station_ID|wet_bulb_temperature|wet_bulb_temperature_Measurement_Code|wet_bulb_temperature_Quality_Code|wet_bulb_temperature_Report_Type|wet_bulb_temperature_Source_Code|wet_bulb_temperature_Source_Station_ID|pres_wx_MW1|pres_wx_MW1_Measurement_Code|pres_wx_MW1_Quality_Code|pres_wx_MW1_Report_Type|pres_wx_MW1_Source_Code|pres_wx_MW1_Source_Station_ID|pres_wx_MW2|pres_wx_MW2_Measurement_Code|pres_wx_MW2_Quality_Code|pres_wx_MW2_Report_Type|pres_wx_MW2_Source_Code|pres_wx_MW2_Source_Station_ID|pres_wx_MW3|pres_wx_MW3_Measurement_Code|pres_wx_MW3_Quality_Code|pres_wx_MW3_Report_Type|pres_wx_MW3_Source_Code|pres_wx_MW3_Source_Station_ID|pres_wx_AU1|pres_wx_AU1_Measurement_Code|pres_wx_AU1_Quality_Code|pres_wx_AU1_Report_Type|pres_wx_AU1_Source_Code|pres_wx_AU1_Source_Station_ID|pres_wx_AU2|pres_wx_AU2_Measurement_Code|pres_wx_AU2_Quality_Code|pres_wx_AU2_Report_Type|pres_wx_AU2_Source_Code|pres_wx_AU2_Source_Station_ID|pres_wx_AU3|pres_wx_AU3_Measurement_Code|pres_wx_AU3_Quality_Code|pres_wx_AU3_Report_Type|pres_wx_AU3_Source_Code|pres_wx_AU3_Source_Station_ID|pres_wx_AW1|pres_wx_AW1_Measurement_Code|pres_wx_AW1_Quality_Code|pres_wx_AW1_Report_Type|pres_wx_AW1_Source_Code|pres_wx_AW1_Source_Station_ID|pres_wx_AW2|pres_wx_AW2_Measurement_Code|pres_wx_AW2_Quality_Code|pres_wx_AW2_Report_Type|pres_wx_AW2_Source_Code|pres_wx_AW2_Source_Station_ID|pres_wx_AW3|pres_wx_AW3_Measurement_Code|pres_wx_AW3_Quality_Code|pres_wx_AW3_Report_Type|pres_wx_AW3_Source_Code|pres_wx_AW3_Source_Station_ID|snow_depth|snow_depth_Measurement_Code|snow_depth_Quality_Code|snow_depth_Report_Type|snow_depth_Source_Code|snow_depth_Source_Station_ID|visibility|visibility_Measurement_Code|visibility_Quality_Code|visibility_Report_Type|visibility_Source_Code|visibility_Source_Station_ID|altimeter|altimeter_Measurement_Code|altimeter_Quality_Code|altimeter_Report_Type|altimeter_Source_Code|altimeter_Source_Station_ID|pressure_3hr_change|pressure_3hr_change_Measurement_Code|pressure_3hr_change_Quality_Code|pressure_3hr_change_Report_Type|pressure_3hr_change_Source_Code|pressure_3hr_change_Source_Station_ID|sky_cover_1|sky_cover_1_Measurement_Code|sky_cover_1_Quality_Code|sky_cover_1_Report_Type|sky_cover_1_Source_Code|sky_cover_1_Source_Station_ID|sky_cover_baseht_1|sky_cover_baseht_1_Measurement_Code|sky_cover_baseht_1_Quality_Code|sky_cover_baseht_1_Report_Type|sky_cover_baseht_1_Source_Code|sky_cover_baseht_1_Source_Station_ID|sky_cover_2|sky_cover_2_Measurement_Code|sky_cover_2_Quality_Code|sky_cover_2_Report_Type|sky_cover_2_Source_Code|sky_cover_2_Source_Station_ID|sky_cover_baseht_2|sky_cover_baseht_2_Measurement_Code|sky_cover_baseht_2_Quality_Code|sky_cover_baseht_2_Report_Type|sky_cover_baseht_2_Source_Code|sky_cover_baseht_2_Source_Station_ID|sky_cover_3|sky_cover_3_Measurement_Code|sky_cover_3_Quality_Code|sky_cover_3_Report_Type|sky_cover_3_Source_Code|sky_cover_3_Source_Station_ID|sky_cover_baseht_3|sky_cover_baseht_3_Measurement_Code|sky_cover_baseht_3_Quality_Code|sky_cover_baseht_3_Report_Type|sky_cover_baseht_3_Source_Code|sky_cover_baseht_3_Source_Station_ID|remarks|remarks_Measurement_Code|remarks_Quality_Code|remarks_Report_Type|remarks_Source_Code|remarks_Source_Station_ID
USI0000K3A6|NEWHALL|2011|08|09|13|30|34.3700|-118.5700|427.0|15.0||1|AUTO_4-USA|223|ICAO-K3A6|12.0||1|AUTO_4-USA|223|ICAO-K3A6|||||||1013.8||1|AUTO_4-USA|223|ICAO-K3A6|360|N-Normal|1|AUTO_4-USA|223|ICAO-K3A6|1.5|N-Normal|1|AUTO_4-USA|223|ICAO-K3A6|||||||||||||82|Derived||AUTO_4-USA|223|ICAO-K3A6|||||||||||||||||||||||||||||||||||||||||||||||||||||||||||||||||||||||||1013.9||1|AUTO_4-USA|223|ICAO-K3A6|||||||||||||||||||||||||||||||||||||||||||MET069METAR K3A6 091330Z AUTO 00003KT 15/12 A2994 RMK AO1 SLP138 T01490116;||A||223|ICAO-K3A6
USI0000K3A6|NEWHALL|2011|08|10|08|50|34.3700|-118.5700|427.0|16.0||1|AUTO_4-USA|223|ICAO-K3A6|12.0||1|AUTO_4-USA|223|ICAO-K3A6|||||||1013.6||1|AUTO_4-USA|223|ICAO-K3A6|360|N-Normal|1|AUTO_4-USA|223|ICAO-K3A6|1.0|N-Normal|1|AUTO_4-USA|223|ICAO-K3A6|||||||||||||77|Derived||AUTO_4-USA|223|ICAO-K3A6|||||||||||||||||||||||||||||||||||||||||||||||||||||||||||||||||||||||||1012.9||1|AUTO_4-USA|223|ICAO-K3A6|0.0|4-Steady;-|1|AUTO_4-USA|223|ICAO-K3A6|||||||||||||||||||||||||||||||||||||MET075METAR K3A6 100850Z AUTO 36002KT 16/12 A2991 RMK AO1 SLP136 T01580119 54000;||A||223|ICAO-K3A6
USI0000K3A6|NEWHALL|2011|08|10|09|50|34.3700|-118.5700|427.0|16.0||1|AUTO_4-USA|223|ICAO-K3A6|12.0||1|AUTO_4-USA|223|ICAO-K3A6|||||||1013.6||1|AUTO_4-USA|223|ICAO-K3A6|360|N-Normal|1|AUTO_4-USA|223|ICAO-K3A6|1.0|N-Normal|1|AUTO_4-USA|223|ICAO-K3A6|||||||||||||77|Derived||AUTO_4-USA|223|ICAO-K3A6|||||||||||||||||||||||||||||||||||||||||||||||||||||||||||||||||||||||||1012.5||1|AUTO_4-USA|223|ICAO-K3A6|||||||||||||||||||||||||||||||||||||||||||MET069METAR K3A6 100950Z AUTO 36002KT 16/12 A2990 RMK AO1 SLP136 T01590120;||A||223|ICAO-K3A6
USI0000K3A6|NEWHALL|2011|08|11|02|30|34.3700|-118.5700|427.0|21.0||1|AUTO_4-USA|223|ICAO-K3A6|13.0||1|AUTO_4-USA|223|ICAO-K3A6|||||||1012.8||1|AUTO_4-USA|223|ICAO-K3A6|360|N-Normal|1|AUTO_4-USA|223|ICAO-K3A6|3.1|N-Normal|1|AUTO_4-USA|223|ICAO-K3A6|||||||||||||60|Derived||AUTO_4-USA|223|ICAO-K3A6|||||||||||||||||||||||||||||||||||||||||||||||||||||||||||||||||||||||||1012.9||1|AUTO_4-USA|223|ICAO-K3A6|0.0|4-Steady;-|1|AUTO_4-USA|223|ICAO-K3A6|||||||||||||||||||||||||||||||||||||MET075METAR K3A6 110230Z AUTO 36006KT 21/13 A2991 RMK AO1 SLP128 T02080130 54000;||A||223|ICAO-K3A6
USI0000K3A6|NEWHALL|2011|08|11|09|50|34.3700|-118.5700|427.0|14.0||1|AUTO_4-USA|223|ICAO-K3A6|12.0||1|AUTO_4-USA|223|ICAO-K3A6|||||||1015.3||1|AUTO_4-USA|223|ICAO-K3A6|999|C-Calm|9|AUTO_4-USA|223|ICAO-K3A6|0.0|C-Calm|1|AUTO_4-USA|223|ICAO-K3A6|||||||||||||88|Derived||AUTO_4-USA|223|ICAO-K3A6|||||||||||||||||||||||||||||||||||||||||||||||||||||||||||||||||||||||||1014.2||1|AUTO_4-USA|223|ICAO-K3A6|||||||||||||||||||||||||||||||||||||||||||MET069METAR K3A6 110950Z AUTO 00000KT 14/12 A2995 RMK AO1 SLP153 T01390117;||A||223|ICAO-K3A6
USI0000K3A6|NEWHALL|2011|08|11|10|10|34.3700|-118.5700|427.0|14.0||1|AUTO_4-USA|223|ICAO-K3A6|12.0||1|AUTO_4-USA|223|ICAO-K3A6|||||||1015.4||1|AUTO_4-USA|223|ICAO-K3A6|360|N-Normal|1|AUTO_4-USA|223|ICAO-K3A6|0.5|N-Normal|1|AUTO_4-USA|223|ICAO-K3A6|||||||||||||88|Derived||AUTO_4-USA|223|ICAO-K3A6|||||||||||||||||||||||||||||||||||||||||||||||||||||||||||||||||||||||||1014.2||1|AUTO_4-USA|223|ICAO-K3A6|||||||||||||||||||||||||||||||||||||||||||MET069METAR K3A6 111010Z AUTO 36001KT 14/12 A2995 RMK AO1 SLP154 T01380118;||A||223|ICAO-K3A6
USI0000K3A6|NEWHALL|2011|08|11|13|50|34.3700|-118.5700|427.0|14.0||1|AUTO_4-USA|223|ICAO-K3A6|13.0||1|AUTO_4-USA|223|ICAO-K3A6|||||||1016.8||1|AUTO_4-USA|223|ICAO-K3A6|360|N-Normal|1|AUTO_4-USA|223|ICAO-K3A6|0.5|N-Normal|1|AUTO_4-USA|223|ICAO-K3A6|||||||||||||94|Derived||AUTO_4-USA|223|ICAO-K3A6|||||||||||||||||||||||||||||||||||||||||||||||||||||||||||||||||||||||||1015.2||1|AUTO_4-USA|223|ICAO-K3A6|||||||||||||||||||||||||||||||||||||||||||MET069METAR K3A6 111350Z AUTO 36001KT 14/13 A2998 RMK AO1 SLP168 T01450127;||A||223|ICAO-K3A6
USI0000K3A6|NEWHALL|2011|08|11|14|50|34.3700|-118.5700|427.0|15.0||1|AUTO_4-USA|223|ICAO-K3A6|13.0||1|AUTO_4-USA|223|ICAO-K3A6|||||||1017.5||1|AUTO_4-USA|223|ICAO-K3A6|360|N-Normal|1|AUTO_4-USA|223|ICAO-K3A6|0.5|N-Normal|1|AUTO_4-USA|223|ICAO-K3A6|||||||||||||88|Derived||AUTO_4-USA|223|ICAO-K3A6|||||||||||||||||||||||||||||||||||||||||||||||||||||||||||||||||||||||||1015.9||1|AUTO_4-USA|223|ICAO-K3A6|0.0|4-Steady;-|1|AUTO_4-USA|223|ICAO-K3A6|||||||||||||||||||||||||||||||||||||MET075METAR K3A6 111450Z AUTO 36001KT 15/13 A3000 RMK AO1 SLP175 T01510131 54000;||A||223|ICAO-K3A6
USI0000K3A6|NEWHALL|2011|08|11|15|10|34.3700|-118.5700|427.0|16.0||1|AUTO_4-USA|223|ICAO-K3A6|13.0||1|AUTO_4-USA|223|ICAO-K3A6|||||||1017.5||1|AUTO_4-USA|223|ICAO-K3A6|360|N-Normal|1|AUTO_4-USA|223|ICAO-K3A6|0.5|N-Normal|1|AUTO_4-USA|223|ICAO-K3A6|||||||||||||83|Derived||AUTO_4-USA|223|ICAO-K3A6|||||||||||||||||||||||||||||||||||||||||||||||||||||||||||||||||||||||||1015.9||1|AUTO_4-USA|223|ICAO-K3A6|||||||||||||||||||||||||||||||||||||||||||MET069METAR K3A6 111510Z AUTO 36001KT 16/13 A3000 RMK AO1 SLP175 T01560134;||A||223|ICAO-K3A6
USI0000K3A6|NEWHALL|2011|08|12|08|50|34.3700|-118.5700|427.0|14.0||1|AUTO_4-USA|223|ICAO-K3A6|12.0||1|AUTO_4-USA|223|ICAO-K3A6|||||||1016.8||1|AUTO_4-USA|223|ICAO-K3A6|360|N-Normal|1|AUTO_4-USA|223|ICAO-K3A6|1.0|N-Normal|1|AUTO_4-USA|223|ICAO-K3A6|||||||||||||88|Derived||AUTO_4-USA|223|ICAO-K3A6|||||||||||||||||||||||||||||||||||||||||||||||||||||||||||||||||||||||||1015.2||1|AUTO_4-USA|223|ICAO-K3A6|0.0|4-Steady;-|1|AUTO_4-USA|223|ICAO-K3A6|||||||||||||||||||||||||||||||||||||MET075METAR K3A6 120850Z AUTO 36002KT 14/12 A2998 RMK AO1 SLP168 T01440117 54000;||A||223|ICAO-K3A6
USI0000K3A6|NEWHALL|2011|08|12|09|10|34.3700|-118.5700|427.0|14.0||1|AUTO_4-USA|223|ICAO-K3A6|12.0||1|AUTO_4-USA|223|ICAO-K3A6|||||||1016.7||1|AUTO_4-USA|223|ICAO-K3A6|360|N-Normal|1|AUTO_4-USA|223|ICAO-K3A6|0.5|N-Normal|1|AUTO_4-USA|223|ICAO-K3A6|||||||||||||88|Derived||AUTO_4-USA|223|ICAO-K3A6|||||||||||||||||||||||||||||||||||||||||||||||||||||||||||||||||||||||||1015.2||1|AUTO_4-USA|223|ICAO-K3A6|||||||||||||||||||||||||||||||||||||||||||MET069METAR K3A6 120910Z AUTO 36001KT 14/12 A2998 RMK AO1 SLP167 T01410116;||A||223|ICAO-K3A6
USI0000K3A6|NEWHALL|2011|08|13|03|50|34.3700|-118.5700|427.0|20.0||1|AUTO_4-USA|223|ICAO-K3A6|14.0||1|AUTO_4-USA|223|ICAO-K3A6|||||||1013.6||1|AUTO_4-USA|223|ICAO-K3A6|360|N-Normal|1|AUTO_4-USA|223|ICAO-K3A6|1.5|N-Normal|1|AUTO_4-USA|223|ICAO-K3A6|||||||||||||69|Derived||AUTO_4-USA|223|ICAO-K3A6|||||||||||||||||||||||||||||||||||||||||||||||||||||||||||||||||||||||||1013.2||1|AUTO_4-USA|223|ICAO-K3A6|||||||||||||||||||||||||||||||||||||||||||MET069METAR K3A6 130350Z AUTO 36003KT 20/14 A2992 RMK AO1 SLP136 T02010136;||A||223|ICAO-K3A6
USI0000K3A6|NEWHALL|2011|08|13|04|50|34.3700|-118.5700|427.0|20.0||1|AUTO_4-USA|223|ICAO-K3A6|13.0||1|AUTO_4-USA|223|ICAO-K3A6|||||||1014.2||1|AUTO_4-USA|223|ICAO-K3A6|360|N-Normal|1|AUTO_4-USA|223|ICAO-K3A6|0.5|N-Normal|1|AUTO_4-USA|223|ICAO-K3A6|||||||||||||64|Derived||AUTO_4-USA|223|ICAO-K3A6|||||||||||||||||||||||||||||||||||||||||||||||||||||||||||||||||||||||||1013.9||1|AUTO_4-USA|223|ICAO-K3A6|||||||||||||||||||||||||||||||||||||||||||MET069METAR K3A6 130450Z AUTO 36001KT 20/13 A2994 RMK AO1 SLP142 T01950134;||A||223|ICAO-K3A6
USI0000K3A6|NEWHALL|2011|08|13|06|50|34.3700|-118.5700|427.0|17.0||1|AUTO_4-USA|223|ICAO-K3A6|13.0||1|AUTO_4-USA|223|ICAO-K3A6|||||||1014.8||1|AUTO_4-USA|223|ICAO-K3A6|360|N-Normal|1|AUTO_4-USA|223|ICAO-K3A6|0.5|N-Normal|1|AUTO_4-USA|223|ICAO-K3A6|||||||||||||77|Derived||AUTO_4-USA|223|ICAO-K3A6|||||||||||||||||||||||||||||||||||||||||||||||||||||||||||||||||||||||||1014.2||1|AUTO_4-USA|223|ICAO-K3A6|||||||||||||||||||||||||||||||||||||||||||MET079METAR K3A6 130650Z AUTO 36001KT 17/13 A2995 RMK AO1 SLP148 T01730130 403220126;||A||223|ICAO-K3A6
USI0000K3A6|NEWHALL|2011|08|13|07|50|34.3700|-118.5700|427.0|17.0||1|AUTO_4-USA|223|ICAO-K3A6|13.0||1|AUTO_4-USA|223|ICAO-K3A6|||||||1014.6||1|AUTO_4-USA|223|ICAO-K3A6|360|N-Normal|1|AUTO_4-USA|223|ICAO-K3A6|1.0|N-Normal|1|AUTO_4-USA|223|ICAO-K3A6|||||||||||||77|Derived||AUTO_4-USA|223|ICAO-K3A6|||||||||||||||||||||||||||||||||||||||||||||||||||||||||||||||||||||||||1013.9||1|AUTO_4-USA|223|ICAO-K3A6|||||||||||||||||||||||||||||||||||||||||||MET069METAR K3A6 130750Z AUTO 36002KT 17/13 A2994 RMK AO1 SLP146 T01680131;||A||223|ICAO-K3A6
USI0000K3A6|NEWHALL|2011|08|13|15|50|34.3700|-118.5700|427.0|23.0||1|AUTO_4-USA|223|ICAO-K3A6|15.0||1|AUTO_4-USA|223|ICAO-K3A6|||||||1014.8||1|AUTO_4-USA|223|ICAO-K3A6|360|N-Normal|1|AUTO_4-USA|223|ICAO-K3A6|0.5|N-Normal|1|AUTO_4-USA|223|ICAO-K3A6|||||||||||||61|Derived||AUTO_4-USA|223|ICAO-K3A6|||||||||||||||||||||||||||||||||||||||||||||||||||||||||||||||||||||||||1014.2||1|AUTO_4-USA|223|ICAO-K3A6|||||||||||||||||||||||||||||||||||||||||||MET069METAR K3A6 131550Z AUTO 36001KT 23/15 A2995 RMK AO1 SLP148 T02340149;||A||223|ICAO-K3A6
USI0000K3A6|NEWHALL|2011|08|13|16|10|34.3700|-118.5700|427.0|24.0||1|AUTO_4-USA|223|ICAO-K3A6|15.0||1|AUTO_4-USA|223|ICAO-K3A6|||||||1014.6||1|AUTO_4-USA|223|ICAO-K3A6|360|N-Normal|1|AUTO_4-USA|223|ICAO-K3A6|0.5|N-Normal|1|AUTO_4-USA|223|ICAO-K3A6|||||||||||||57|Derived||AUTO_4-USA|223|ICAO-K3A6|||||||||||||||||||||||||||||||||||||||||||||||||||||||||||||||||||||||||1013.9||1|AUTO_4-USA|223|ICAO-K3A6|||||||||||||||||||||||||||||||||||||||||||MET069METAR K3A6 131610Z AUTO 36001KT 24/15 A2994 RMK AO1 SLP146 T02400149;||A||223|ICAO-K3A6
USI0000K3A6|NEWHALL|2011|08|13|21|50|34.3700|-118.5700|427.0|35.0||1|AUTO_4-USA|223|ICAO-K3A6|15.0||1|AUTO_4-USA|223|ICAO-K3A6|||||||1012.1||1|AUTO_4-USA|223|ICAO-K3A6|360|N-Normal|1|AUTO_4-USA|223|ICAO-K3A6|1.5|N-Normal|1|AUTO_4-USA|223|ICAO-K3A6|||||||||||||30|Derived||AUTO_4-USA|223|ICAO-K3A6|||||||||||||||||||||||||||||||||||||||||||||||||||||||||||||||||||||||||1012.9||1|AUTO_4-USA|223|ICAO-K3A6|||||||||||||||||||||||||||||||||||||||||||MET069METAR K3A6 132150Z AUTO 36003KT 35/15 A2991 RMK AO1 SLP121 T03480146;||A||223|ICAO-K3A6
USI0000K3A6|NEWHALL|2011|08|13|22|50|34.3700|-118.5700|427.0|32.0||1|AUTO_4-USA|223|ICAO-K3A6|16.0||1|AUTO_4-USA|223|ICAO-K3A6|||||||1010.5||1|AUTO_4-USA|223|ICAO-K3A6|360|N-Normal|1|AUTO_4-USA|223|ICAO-K3A6|3.1|N-Normal|1|AUTO_4-USA|223|ICAO-K3A6|||||||||||||38|Derived||AUTO_4-USA|223|ICAO-K3A6|||||||||||||||||||||||||||||||||||||||||||||||||||||||||||||||||||||||||1012.5||1|AUTO_4-USA|223|ICAO-K3A6|||||||||||||||||||||||||||||||||||||||||||MET069METAR K3A6 132250Z AUTO 36006KT 32/16 A2990 RMK AO1 SLP105 T03250156;||A||223|ICAO-K3A6
USI0000K3A6|NEWHALL|2011|08|13|23|50|34.3700|-118.5700|427.0|31.0||1|AUTO_4-USA|223|ICAO-K3A6|15.0||1|AUTO_4-USA|223|ICAO-K3A6|||||||1010.6||1|AUTO_4-USA|223|ICAO-K3A6|360|N-Normal|1|AUTO_4-USA|223|ICAO-K3A6|2.1|N-Normal|1|AUTO_4-USA|223|ICAO-K3A6|||||||||||||38|Derived||AUTO_4-USA|223|ICAO-K3A6|||||||||||||||||||||||||||||||||||||||||||||||||||||||||||||||||||||||||1012.5||1|AUTO_4-USA|223|ICAO-K3A6|0.0|4-Steady;-|1|AUTO_4-USA|223|ICAO-K3A6|||||||||||||||||||||||||||||||||||||MET087METAR K3A6 132350Z AUTO 36004KT 31/15 A2990 RMK AO1 SLP106 T03060146 10353 20306 54000;||A||223|ICAO-K3A6
USI0000K3A6|NEWHALL|2011|08|14|02|50|34.3700|-118.5700|427.0|21.0||1|AUTO_4-USA|223|ICAO-K3A6|14.0||1|AUTO_4-USA|223|ICAO-K3A6|||||||1011.3||1|AUTO_4-USA|223|ICAO-K3A6|360|N-Normal|1|AUTO_4-USA|223|ICAO-K3A6|3.1|N-Normal|1|AUTO_4-USA|223|ICAO-K3A6|||||||||||||64|Derived||AUTO_4-USA|223|ICAO-K3A6|||||||||||||||||||||||||||||||||||||||||||||||||||||||||||||||||||||||||1012.9||1|AUTO_4-USA|223|ICAO-K3A6|0.0|4-Steady;-|1|AUTO_4-USA|223|ICAO-K3A6|||||||||||||||||||||||||||||||||||||MET075METAR K3A6 140250Z AUTO 36006KT 21/14 A2991 RMK AO1 SLP113 T02140140 54000;||A||223|ICAO-K3A6
USI0000K3A6|NEWHALL|2011|08|14|06|50|34.3700|-118.5700|427.0|19.0||1|AUTO_4-USA|223|ICAO-K3A6|14.0||1|AUTO_4-USA|223|ICAO-K3A6|||||||1013.3||1|AUTO_4-USA|223|ICAO-K3A6|360|N-Normal|1|AUTO_4-USA|223|ICAO-K3A6|1.0|N-Normal|1|AUTO_4-USA|223|ICAO-K3A6|||||||||||||73|Derived||AUTO_4-USA|223|ICAO-K3A6|||||||||||||||||||||||||||||||||||||||||||||||||||||||||||||||||||||||||1014.6||1|AUTO_4-USA|223|ICAO-K3A6|||||||||||||||||||||||||||||||||||||||||||MET079METAR K3A6 140650Z AUTO 36002KT 19/14 A2996 RMK AO1 SLP133 T01940137 403530148;||A||223|ICAO-K3A6
USI0000K3A6|NEWHALL|2011|08|14|07|50|34.3700|-118.5700|427.0|18.0||1|AUTO_4-USA|223|ICAO-K3A6|13.0||1|AUTO_4-USA|223|ICAO-K3A6|||||||1013.8||1|AUTO_4-USA|223|ICAO-K3A6|360|N-Normal|1|AUTO_4-USA|223|ICAO-K3A6|1.0|N-Normal|1|AUTO_4-USA|223|ICAO-K3A6|||||||||||||73|Derived||AUTO_4-USA|223|ICAO-K3A6|||||||||||||||||||||||||||||||||||||||||||||||||||||||||||||||||||||||||1014.6||1|AUTO_4-USA|223|ICAO-K3A6|||||||||||||||||||||||||||||||||||||||||||MET069METAR K3A6 140750Z AUTO 36002KT 18/13 A2996 RMK AO1 SLP138 T01830133;||A||223|ICAO-K3A6
USI0000K3A6|NEWHALL|2011|08|14|08|50|34.3700|-118.5700|427.0|18.0||1|AUTO_4-USA|223|ICAO-K3A6|13.0||1|AUTO_4-USA|223|ICAO-K3A6|||||||1013.8||1|AUTO_4-USA|223|ICAO-K3A6|999|C-Calm|9|AUTO_4-USA|223|ICAO-K3A6|0.0|C-Calm|1|AUTO_4-USA|223|ICAO-K3A6|||||||||||||73|Derived||AUTO_4-USA|223|ICAO-K3A6|||||||||||||||||||||||||||||||||||||||||||||||||||||||||||||||||||||||||1014.6||1|AUTO_4-USA|223|ICAO-K3A6|0.0|4-Steady;-|1|AUTO_4-USA|223|ICAO-K3A6|||||||||||||||||||||||||||||||||||||MET075METAR K3A6 140850Z AUTO 00000KT 18/13 A2996 RMK AO1 SLP138 T01750130 54000;||A||223|ICAO-K3A6
USI0000K3A6|NEWHALL|2011|08|14|09|50|34.3700|-118.5700|427.0|17.0||1|AUTO_4-USA|223|ICAO-K3A6|13.0||1|AUTO_4-USA|223|ICAO-K3A6|||||||1013.7||1|AUTO_4-USA|223|ICAO-K3A6|360|N-Normal|1|AUTO_4-USA|223|ICAO-K3A6|1.0|N-Normal|1|AUTO_4-USA|223|ICAO-K3A6|||||||||||||77|Derived||AUTO_4-USA|223|ICAO-K3A6|||||||||||||||||||||||||||||||||||||||||||||||||||||||||||||||||||||||||1014.2||1|AUTO_4-USA|223|ICAO-K3A6|||||||||||||||||||||||||||||||||||||||||||MET069METAR K3A6 140950Z AUTO 36002KT 17/13 A2995 RMK AO1 SLP137 T01690132;||A||223|ICAO-K3A6
USI0000K3A6|NEWHALL|2011|08|14|10|10|34.3700|-118.5700|427.0|16.0||1|AUTO_4-USA|223|ICAO-K3A6|13.0||1|AUTO_4-USA|223|ICAO-K3A6|||||||1013.5||1|AUTO_4-USA|223|ICAO-K3A6|360|N-Normal|1|AUTO_4-USA|223|ICAO-K3A6|1.5|N-Normal|1|AUTO_4-USA|223|ICAO-K3A6|||||||||||||83|Derived||AUTO_4-USA|223|ICAO-K3A6|||||||||||||||||||||||||||||||||||||||||||||||||||||||||||||||||||||||||1013.9||1|AUTO_4-USA|223|ICAO-K3A6|||||||||||||||||||||||||||||||||||||||||||MET069METAR K3A6 141010Z AUTO 36003KT 16/13 A2994 RMK AO1 SLP135 T01650132;||A||223|ICAO-K3A6
USI0000K3A6|NEWHALL|2011|08|14|11|50|34.3700|-118.5700|427.0|16.0||1|AUTO_4-USA|223|ICAO-K3A6|13.0||1|AUTO_4-USA|223|ICAO-K3A6|||||||1013.9||1|AUTO_4-USA|223|ICAO-K3A6|360|N-Normal|1|AUTO_4-USA|223|ICAO-K3A6|1.0|N-Normal|1|AUTO_4-USA|223|ICAO-K3A6|||||||||||||83|Derived||AUTO_4-USA|223|ICAO-K3A6|||||||||||||||||||||||||||||||||||||||||||||||||||||||||||||||||||||||||1013.5||1|AUTO_4-USA|223|ICAO-K3A6|0.0|4-Steady;-|1|AUTO_4-USA|223|ICAO-K3A6|||||||||||||||||||||||||||||||||||||MET087METAR K3A6 141150Z AUTO 36002KT 16/13 A2993 RMK AO1 SLP139 T01640131 10199 20160 54000;||A||223|ICAO-K3A6
USI0000K3A6|NEWHALL|2011|08|14|12|10|34.3700|-118.5700|427.0|16.0||1|AUTO_4-USA|223|ICAO-K3A6|13.0||1|AUTO_4-USA|223|ICAO-K3A6|||||||1014.3||1|AUTO_4-USA|223|ICAO-K3A6|360|N-Normal|1|AUTO_4-USA|223|ICAO-K3A6|0.5|N-Normal|1|AUTO_4-USA|223|ICAO-K3A6|||||||||||||83|Derived||AUTO_4-USA|223|ICAO-K3A6|||||||||||||||||||||||||||||||||||||||||||||||||||||||||||||||||||||||||1013.5||1|AUTO_4-USA|223|ICAO-K3A6|||||||||||||||||||||||||||||||||||||||||||MET069METAR K3A6 141210Z AUTO 36001KT 16/13 A2993 RMK AO1 SLP143 T01610128;||A||223|ICAO-K3A6
USI0000K3A6|NEWHALL|2011|08|14|17|30|34.3700|-118.5700|427.0|15.0||1|AUTO_4-USA|223|ICAO-K3A6|15.0||1|AUTO_4-USA|223|ICAO-K3A6|||||||1014.5||1|AUTO_4-USA|223|ICAO-K3A6|360|N-Normal|1|AUTO_4-USA|223|ICAO-K3A6|0.5|N-Normal|1|AUTO_4-USA|223|ICAO-K3A6|||||||||||||100|Derived||AUTO_4-USA|223|ICAO-K3A6|||||||||||||||||||||||||||||||||||||||||||||||||||||||||||||||||||||||||1013.9||1|AUTO_4-USA|223|ICAO-K3A6|0.0|4-Steady;-|1|AUTO_4-USA|223|ICAO-K3A6|||||||||||||||||||||||||||||||||||||MET087METAR K3A6 141730Z AUTO 36001KT 15/15 A2994 RMK AO1 SLP145 T01530152 10312 20153 54000;||A||223|ICAO-K3A6
USI0000K3A6|NEWHALL|2011|08|14|17|50|34.3700|-118.5700|427.0|||||||15.0||1|AUTO_4-USA|223|ICAO-K3A6|||||||1014.4||1|AUTO_4-USA|223|ICAO-K3A6|360|N-Normal|1|AUTO_4-USA|223|ICAO-K3A6|0.5|N-Normal|1|AUTO_4-USA|223|ICAO-K3A6|||||||||||||||||||||||||||||||||||||||||||||||||||||||||||||||||||||||||||||||||||||||||||1013.9||1|AUTO_4-USA|223|ICAO-K3A6|0.0|4-Steady;-|1|AUTO_4-USA|223|ICAO-K3A6|||||||||||||||||||||||||||||||||||||MET087METAR K3A6 141750Z AUTO 36001KT 32/15 A2994 RMK AO1 SLP144 T03190149 10319 20153 54000;||A||223|ICAO-K3A6
USI0000K3A6|NEWHALL|2011|08|14|18|50|34.3700|-118.5700|427.0|34.0||1|AUTO_4-USA|223|ICAO-K3A6|16.0||1|AUTO_4-USA|223|ICAO-K3A6|||||||1013.5||1|AUTO_4-USA|223|ICAO-K3A6|360|N-Normal|1|AUTO_4-USA|223|ICAO-K3A6|1.5|N-Normal|1|AUTO_4-USA|223|ICAO-K3A6|||||||||||||34|Derived||AUTO_4-USA|223|ICAO-K3A6|||||||||||||||||||||||||||||||||||||||||||||||||||||||||||||||||||||||||1013.5||1|AUTO_4-USA|223|ICAO-K3A6|||||||||||||||||||||||||||||||||||||||||||MET069METAR K3A6 141850Z AUTO 36003KT 34/16 A2993 RMK AO1 SLP135 T03440158;||A||223|ICAO-K3A6
USI0000K3A6|NEWHALL|2011|08|14|19|50|34.3700|-118.5700|427.0|36.0||1|AUTO_4-USA|223|ICAO-K3A6|15.0||1|AUTO_4-USA|223|ICAO-K3A6|||||||1012.6||1|AUTO_4-USA|223|ICAO-K3A6|360|N-Normal|1|AUTO_4-USA|223|ICAO-K3A6|1.5|N-Normal|1|AUTO_4-USA|223|ICAO-K3A6|||||||||||||28|Derived||AUTO_4-USA|223|ICAO-K3A6|||||||||||||||||||||||||||||||||||||||||||||||||||||||||||||||||||||||||1013.2||1|AUTO_4-USA|223|ICAO-K3A6|||||||||||||||||||||||||||||||||||||||||||MET069METAR K3A6 141950Z AUTO 36003KT 36/15 A2992 RMK AO1 SLP126 T03570154;||A||223|ICAO-K3A6
USI0000K3A6|NEWHALL|2011|08|14|20|50|34.3700|-118.5700|427.0|35.0||1|AUTO_4-USA|223|ICAO-K3A6|14.0||1|AUTO_4-USA|223|ICAO-K3A6|||||||1011.2||1|AUTO_4-USA|223|ICAO-K3A6|360|N-Normal|1|AUTO_4-USA|223|ICAO-K3A6|2.1|N-Normal|1|AUTO_4-USA|223|ICAO-K3A6|||||||||||||28|Derived||AUTO_4-USA|223|ICAO-K3A6|||||||||||||||||||||||||||||||||||||||||||||||||||||||||||||||||||||||||1012.5||1|AUTO_4-USA|223|ICAO-K3A6|-3.5|7-Decr-(st|1|AUTO_4-USA|223|ICAO-K3A6|||||||||||||||||||||||||||||||||||||MET075METAR K3A6 142050Z AUTO 36004KT 35/14 A2990 RMK AO1 SLP112 T03530145 57035;||A||223|ICAO-K3A6
USI0000K3A6|NEWHALL|2011|08|14|21|10|34.3700|-118.5700|427.0|36.0||1|AUTO_4-USA|223|ICAO-K3A6|12.0||1|AUTO_4-USA|223|ICAO-K3A6|||||||1010.6||1|AUTO_4-USA|223|ICAO-K3A6|360|N-Normal|1|AUTO_4-USA|223|ICAO-K3A6|2.6|N-Normal|1|AUTO_4-USA|223|ICAO-K3A6|||||||||||||23|Derived||AUTO_4-USA|223|ICAO-K3A6|||||||||||||||||||||||||||||||||||||||||||||||||||||||||||||||||||||||||1012.2||1|AUTO_4-USA|223|ICAO-K3A6|||||||||||||||||||||||||||||||||||||||||||MET069METAR K3A6 142110Z AUTO 36005KT 36/12 A2989 RMK AO1 SLP106 T03630125;||A||223|ICAO-K3A6
USI0000K3A6|NEWHALL|2011|08|15|00|10|34.3700|-118.5700|427.0|33.0||1|AUTO_4-USA|223|ICAO-K3A6|13.0||1|AUTO_4-USA|223|ICAO-K3A6|||||||1008.8||1|AUTO_4-USA|223|ICAO-K3A6|360|N-Normal|1|AUTO_4-USA|223|ICAO-K3A6|2.6|N-Normal|1|AUTO_4-USA|223|ICAO-K3A6|||||||||||||30|Derived||AUTO_4-USA|223|ICAO-K3A6|||||||||||||||||||||||||||||||||||||||||||||||||||||||||||||||||||||||||1011.5||1|AUTO_4-USA|223|ICAO-K3A6|||||||||||||||||||||||||||||||||||||||||||MET069METAR K3A6 150010Z AUTO 36005KT 33/13 A2987 RMK AO1 SLP088 T03280129;||A||223|ICAO-K3A6
USI0000K3A6|NEWHALL|2011|08|15|00|50|34.3700|-118.5700|427.0|31.0||1|AUTO_4-USA|223|ICAO-K3A6|14.0||1|AUTO_4-USA|223|ICAO-K3A6|||||||1008.5||1|AUTO_4-USA|223|ICAO-K3A6|360|N-Normal|1|AUTO_4-USA|223|ICAO-K3A6|2.6|N-Normal|1|AUTO_4-USA|223|ICAO-K3A6|||||||||||||35|Derived||AUTO_4-USA|223|ICAO-K3A6|||||||||||||||||||||||||||||||||||||||||||||||||||||||||||||||||||||||||1011.2||1|AUTO_4-USA|223|ICAO-K3A6|||||||||||||||||||||||||||||||||||||||||||MET069METAR K3A6 150050Z AUTO 36005KT 31/14 A2986 RMK AO1 SLP085 T03130135;||A||223|ICAO-K3A6
USI0000K3A6|NEWHALL|2011|08|15|02|30|34.3700|-118.5700|427.0|24.0||1|AUTO_4-USA|223|ICAO-K3A6|14.0||1|AUTO_4-USA|223|ICAO-K3A6|||||||1008.8||1|AUTO_4-USA|223|ICAO-K3A6|360|N-Normal|1|AUTO_4-USA|223|ICAO-K3A6|3.6|N-Normal|1|AUTO_4-USA|223|ICAO-K3A6|||||||||||||54|Derived||AUTO_4-USA|223|ICAO-K3A6|||||||||||||||||||||||||||||||||||||||||||||||||||||||||||||||||||||||||1011.5||1|AUTO_4-USA|223|ICAO-K3A6|0.0|4-Steady;-|1|AUTO_4-USA|223|ICAO-K3A6|||||||||||||||||||||||||||||||||||||MET075METAR K3A6 150230Z AUTO 36007KT 24/14 A2987 RMK AO1 SLP088 T02380139 54000;||A||223|ICAO-K3A6
USI0000K3A6|NEWHALL|2011|08|15|02|50|34.3700|-118.5700|427.0|23.0||1|AUTO_4-USA|223|ICAO-K3A6|13.0||1|AUTO_4-USA|223|ICAO-K3A6|||||||1009.4||1|AUTO_4-USA|223|ICAO-K3A6|360|N-Normal|1|AUTO_4-USA|223|ICAO-K3A6|2.6|N-Normal|1|AUTO_4-USA|223|ICAO-K3A6|||||||||||||53|Derived||AUTO_4-USA|223|ICAO-K3A6|||||||||||||||||||||||||||||||||||||||||||||||||||||||||||||||||||||||||1011.9||1|AUTO_4-USA|223|ICAO-K3A6|0.0|4-Steady;-|1|AUTO_4-USA|223|ICAO-K3A6|||||||||||||||||||||||||||||||||||||MET075METAR K3A6 150250Z AUTO 36005KT 23/13 A2988 RMK AO1 SLP094 T02300131 54000;||A||223|ICAO-K3A6
USI0000K3A6|NEWHALL|2011|08|15|03|10|34.3700|-118.5700|427.0|24.0||1|AUTO_4-USA|223|ICAO-K3A6|13.0||1|AUTO_4-USA|223|ICAO-K3A6|||||||1009.6||1|AUTO_4-USA|223|ICAO-K3A6|360|N-Normal|1|AUTO_4-USA|223|ICAO-K3A6|2.1|N-Normal|1|AUTO_4-USA|223|ICAO-K3A6|||||||||||||50|Derived||AUTO_4-USA|223|ICAO-K3A6|||||||||||||||||||||||||||||||||||||||||||||||||||||||||||||||||||||||||1011.9||1|AUTO_4-USA|223|ICAO-K3A6|||||||||||||||||||||||||||||||||||||||||||MET069METAR K3A6 150310Z AUTO 36004KT 24/13 A2988 RMK AO1 SLP096 T02380127;||A||223|ICAO-K3A6
USI0000K3A6|NEWHALL|2011|08|15|03|30|34.3700|-118.5700|427.0|24.0||1|AUTO_4-USA|223|ICAO-K3A6|12.0||1|AUTO_4-USA|223|ICAO-K3A6|||||||1009.7||1|AUTO_4-USA|223|ICAO-K3A6|360|N-Normal|1|AUTO_4-USA|223|ICAO-K3A6|1.5|N-Normal|1|AUTO_4-USA|223|ICAO-K3A6|||||||||||||47|Derived||AUTO_4-USA|223|ICAO-K3A6|||||||||||||||||||||||||||||||||||||||||||||||||||||||||||||||||||||||||1011.9||1|AUTO_4-USA|223|ICAO-K3A6|||||||||||||||||||||||||||||||||||||||||||MET069METAR K3A6 150330Z AUTO 36003KT 24/12 A2988 RMK AO1 SLP097 T02440120;||A||223|ICAO-K3A6
USI0000K3A6|NEWHALL|2011|08|15|03|50|34.3700|-118.5700|427.0|25.0||1|AUTO_4-USA|223|ICAO-K3A6|12.0||1|AUTO_4-USA|223|ICAO-K3A6|||||||1010.0||1|AUTO_4-USA|223|ICAO-K3A6|360|N-Normal|1|AUTO_4-USA|223|ICAO-K3A6|2.1|N-Normal|1|AUTO_4-USA|223|ICAO-K3A6|||||||||||||44|Derived||AUTO_4-USA|223|ICAO-K3A6|||||||||||||||||||||||||||||||||||||||||||||||||||||||||||||||||||||||||1012.2||1|AUTO_4-USA|223|ICAO-K3A6|||||||||||||||||||||||||||||||||||||||||||MET069METAR K3A6 150350Z AUTO 36004KT 25/12 A2989 RMK AO1 SLP100 T02500122;||A||223|ICAO-K3A6
USI0000K3A6|NEWHALL|2011|08|15|04|10|34.3700|-118.5700|427.0|24.0||1|AUTO_4-USA|223|ICAO-K3A6|12.0||1|AUTO_4-USA|223|ICAO-K3A6|||||||1010.3||1|AUTO_4-USA|223|ICAO-K3A6|360|N-Normal|1|AUTO_4-USA|223|ICAO-K3A6|1.0|N-Normal|1|AUTO_4-USA|223|ICAO-K3A6|||||||||||||47|Derived||AUTO_4-USA|223|ICAO-K3A6|||||||||||||||||||||||||||||||||||||||||||||||||||||||||||||||||||||||||1012.5||1|AUTO_4-USA|223|ICAO-K3A6|||||||||||||||||||||||||||||||||||||||||||MET069METAR K3A6 150410Z AUTO 36002KT 24/12 A2990 RMK AO1 SLP103 T02440120;||A||223|ICAO-K3A6
USI0000K3A6|NEWHALL|2011|08|15|04|50|34.3700|-118.5700|427.0|23.0||1|AUTO_4-USA|223|ICAO-K3A6|12.0||1|AUTO_4-USA|223|ICAO-K3A6|||||||1010.7||1|AUTO_4-USA|223|ICAO-K3A6|360|N-Normal|1|AUTO_4-USA|223|ICAO-K3A6|2.1|N-Normal|1|AUTO_4-USA|223|ICAO-K3A6|||||||||||||50|Derived||AUTO_4-USA|223|ICAO-K3A6|||||||||||||||||||||||||||||||||||||||||||||||||||||||||||||||||||||||||1012.9||1|AUTO_4-USA|223|ICAO-K3A6|||||||||||||||||||||||||||||||||||||||||||MET069METAR K3A6 150450Z AUTO 36004KT 23/12 A2991 RMK AO1 SLP107 T02330120;||A||223|ICAO-K3A6
USI0000K3A6|NEWHALL|2011|08|15|05|10|34.3700|-118.5700|427.0|23.0||1|AUTO_4-USA|223|ICAO-K3A6|12.0||1|AUTO_4-USA|223|ICAO-K3A6|||||||1010.6||1|AUTO_4-USA|223|ICAO-K3A6|360|N-Normal|1|AUTO_4-USA|223|ICAO-K3A6|1.0|N-Normal|1|AUTO_4-USA|223|ICAO-K3A6|||||||||||||50|Derived||AUTO_4-USA|223|ICAO-K3A6|||||||||||||||||||||||||||||||||||||||||||||||||||||||||||||||||||||||||1012.5||1|AUTO_4-USA|223|ICAO-K3A6|0.0|4-Steady;-|1|AUTO_4-USA|223|ICAO-K3A6|||||||||||||||||||||||||||||||||||||MET087METAR K3A6 150510Z AUTO 36002KT 23/12 A2990 RMK AO1 SLP106 T02310121 10341 20230 54000;||A||223|ICAO-K3A6
USI0000K3A6|NEWHALL|2011|08|15|05|30|34.3700|-118.5700|427.0|22.0||1|AUTO_4-USA|223|ICAO-K3A6|12.0||1|AUTO_4-USA|223|ICAO-K3A6|||||||1010.9||1|AUTO_4-USA|223|ICAO-K3A6|360|N-Normal|1|AUTO_4-USA|223|ICAO-K3A6|1.0|N-Normal|1|AUTO_4-USA|223|ICAO-K3A6|||||||||||||53|Derived||AUTO_4-USA|223|ICAO-K3A6|||||||||||||||||||||||||||||||||||||||||||||||||||||||||||||||||||||||||1012.9||1|AUTO_4-USA|223|ICAO-K3A6|0.0|4-Steady;-|1|AUTO_4-USA|223|ICAO-K3A6|||||||||||||||||||||||||||||||||||||MET087METAR K3A6 150530Z AUTO 36002KT 22/12 A2991 RMK AO1 SLP109 T02240123 10336 20224 54000;||A||223|ICAO-K3A6
USI0000K3A6|NEWHALL|2011|08|15|05|50|34.3700|-118.5700|427.0|22.0||1|AUTO_4-USA|223|ICAO-K3A6|12.0||1|AUTO_4-USA|223|ICAO-K3A6|||||||1010.8||1|AUTO_4-USA|223|ICAO-K3A6|360|N-Normal|1|AUTO_4-USA|223|ICAO-K3A6|1.5|N-Normal|1|AUTO_4-USA|223|ICAO-K3A6|||||||||||||53|Derived||AUTO_4-USA|223|ICAO-K3A6|||||||||||||||||||||||||||||||||||||||||||||||||||||||||||||||||||||||||1012.9||1|AUTO_4-USA|223|ICAO-K3A6|2.7|2-Incr-(st|1|AUTO_4-USA|223|ICAO-K3A6|||||||||||||||||||||||||||||||||||||MET087METAR K3A6 150550Z AUTO 36003KT 22/12 A2991 RMK AO1 SLP108 T02210120 10334 20221 52027;||A||223|ICAO-K3A6
USI0000K3A6|NEWHALL|2011|08|15|06|30|34.3700|-118.5700|427.0|23.0||1|AUTO_4-USA|223|ICAO-K3A6|9.0||1|AUTO_4-USA|223|ICAO-K3A6|||||||1011.0||1|AUTO_4-USA|223|ICAO-K3A6|360|N-Normal|1|AUTO_4-USA|223|ICAO-K3A6|1.5|N-Normal|1|AUTO_4-USA|223|ICAO-K3A6|||||||||||||41|Derived||AUTO_4-USA|223|ICAO-K3A6|||||||||||||||||||||||||||||||||||||||||||||||||||||||||||||||||||||||||1012.9||1|AUTO_4-USA|223|ICAO-K3A6|||||||||||||||||||||||||||||||||||||||||||MET079METAR K3A6 150630Z AUTO 36003KT 23/09 A2991 RMK AO1 SLP110 T02270087 403680153;||A||223|ICAO-K3A6
USI0000K3A6|NEWHALL|2011|08|15|06|50|34.3700|-118.5700|427.0|24.0||1|AUTO_4-USA|223|ICAO-K3A6|9.0||1|AUTO_4-USA|223|ICAO-K3A6|||||||1011.0||1|AUTO_4-USA|223|ICAO-K3A6|360|N-Normal|1|AUTO_4-USA|223|ICAO-K3A6|1.0|N-Normal|1|AUTO_4-USA|223|ICAO-K3A6|||||||||||||39|Derived||AUTO_4-USA|223|ICAO-K3A6|||||||||||||||||||||||||||||||||||||||||||||||||||||||||||||||||||||||||1012.5||1|AUTO_4-USA|223|ICAO-K3A6|||||||||||||||||||||||||||||||||||||||||||MET079METAR K3A6 150650Z AUTO 36002KT 24/09 A2990 RMK AO1 SLP110 T02400092 403680153;||A||223|ICAO-K3A6
USI0000K3A6|NEWHALL|2011|08|15|07|10|34.3700|-118.5700|427.0|24.0||1|AUTO_4-USA|223|ICAO-K3A6|9.0||1|AUTO_4-USA|223|ICAO-K3A6|||||||1011.2||1|AUTO_4-USA|223|ICAO-K3A6|360|N-Normal|1|AUTO_4-USA|223|ICAO-K3A6|1.0|N-Normal|1|AUTO_4-USA|223|ICAO-K3A6|||||||||||||39|Derived||AUTO_4-USA|223|ICAO-K3A6|||||||||||||||||||||||||||||||||||||||||||||||||||||||||||||||||||||||||1012.9||1|AUTO_4-USA|223|ICAO-K3A6|||||||||||||||||||||||||||||||||||||||||||MET069METAR K3A6 150710Z AUTO 36002KT 24/09 A2991 RMK AO1 SLP112 T02390095;||A||223|ICAO-K3A6
USI0000K3A6|NEWHALL|2011|08|15|07|30|34.3700|-118.5700|427.0|24.0||1|AUTO_4-USA|223|ICAO-K3A6|10.0||1|AUTO_4-USA|223|ICAO-K3A6|||||||1011.4||1|AUTO_4-USA|223|ICAO-K3A6|360|N-Normal|1|AUTO_4-USA|223|ICAO-K3A6|1.0|N-Normal|1|AUTO_4-USA|223|ICAO-K3A6|||||||||||||41|Derived||AUTO_4-USA|223|ICAO-K3A6|||||||||||||||||||||||||||||||||||||||||||||||||||||||||||||||||||||||||1012.9||1|AUTO_4-USA|223|ICAO-K3A6|||||||||||||||||||||||||||||||||||||||||||MET069METAR K3A6 150730Z AUTO 36002KT 24/10 A2991 RMK AO1 SLP114 T02370097;||A||223|ICAO-K3A6
USI0000K3A6|NEWHALL|2011|08|15|07|50|34.3700|-118.5700|427.0|23.0||1|AUTO_4-USA|223|ICAO-K3A6|9.0||1|AUTO_4-USA|223|ICAO-K3A6|||||||1011.4||1|AUTO_4-USA|223|ICAO-K3A6|360|N-Normal|1|AUTO_4-USA|223|ICAO-K3A6|1.0|N-Normal|1|AUTO_4-USA|223|ICAO-K3A6|||||||||||||41|Derived||AUTO_4-USA|223|ICAO-K3A6|||||||||||||||||||||||||||||||||||||||||||||||||||||||||||||||||||||||||1012.9||1|AUTO_4-USA|223|ICAO-K3A6|||||||||||||||||||||||||||||||||||||||||||MET069METAR K3A6 150750Z AUTO 36002KT 23/09 A2991 RMK AO1 SLP114 T02300095;||A||223|ICAO-K3A6
USI0000K3A6|NEWHALL|2011|08|15|08|10|34.3700|-118.5700|427.0|23.0||1|AUTO_4-USA|223|ICAO-K3A6|10.0||1|AUTO_4-USA|223|ICAO-K3A6|||||||1011.6||1|AUTO_4-USA|223|ICAO-K3A6|360|N-Normal|1|AUTO_4-USA|223|ICAO-K3A6|1.0|N-Normal|1|AUTO_4-USA|223|ICAO-K3A6|||||||||||||44|Derived||AUTO_4-USA|223|ICAO-K3A6|||||||||||||||||||||||||||||||||||||||||||||||||||||||||||||||||||||||||1012.9||1|AUTO_4-USA|223|ICAO-K3A6|0.3|1-Incr-the|1|AUTO_4-USA|223|ICAO-K3A6|||||||||||||||||||||||||||||||||||||MET075METAR K3A6 150810Z AUTO 36002KT 23/10 A2991 RMK AO1 SLP116 T02270101 51003;||A||223|ICAO-K3A6
USI0000K3A6|NEWHALL|2011|08|15|08|30|34.3700|-118.5700|427.0|22.0||1|AUTO_4-USA|223|ICAO-K3A6|10.0||1|AUTO_4-USA|223|ICAO-K3A6|||||||1011.6||1|AUTO_4-USA|223|ICAO-K3A6|360|N-Normal|1|AUTO_4-USA|223|ICAO-K3A6|1.5|N-Normal|1|AUTO_4-USA|223|ICAO-K3A6|||||||||||||47|Derived||AUTO_4-USA|223|ICAO-K3A6|||||||||||||||||||||||||||||||||||||||||||||||||||||||||||||||||||||||||1012.9||1|AUTO_4-USA|223|ICAO-K3A6|-0.0|5-Decr,-th|1|AUTO_4-USA|223|ICAO-K3A6|||||||||||||||||||||||||||||||||||||MET075METAR K3A6 150830Z AUTO 36003KT 22/10 A2991 RMK AO1 SLP116 T02190100 55000;||A||223|ICAO-K3A6
USI0000K3A6|NEWHALL|2011|08|15|08|50|34.3700|-118.5700|427.0|21.0||1|AUTO_4-USA|223|ICAO-K3A6|11.0||1|AUTO_4-USA|223|ICAO-K3A6|||||||1011.9||1|AUTO_4-USA|223|ICAO-K3A6|360|N-Normal|1|AUTO_4-USA|223|ICAO-K3A6|1.5|N-Normal|1|AUTO_4-USA|223|ICAO-K3A6|||||||||||||53|Derived||AUTO_4-USA|223|ICAO-K3A6|||||||||||||||||||||||||||||||||||||||||||||||||||||||||||||||||||||||||1012.9||1|AUTO_4-USA|223|ICAO-K3A6|-0.0|5-Decr,-th|1|AUTO_4-USA|223|ICAO-K3A6|||||||||||||||||||||||||||||||||||||MET075METAR K3A6 150850Z AUTO 36003KT 21/11 A2991 RMK AO1 SLP119 T02130110 55000;||A||223|ICAO-K3A6
USI0000K3A6|NEWHALL|2011|08|15|09|10|34.3700|-118.5700|427.0|21.0||1|AUTO_4-USA|223|ICAO-K3A6|12.0||1|AUTO_4-USA|223|ICAO-K3A6|||||||1012.0||1|AUTO_4-USA|223|ICAO-K3A6|360|N-Normal|1|AUTO_4-USA|223|ICAO-K3A6|1.5|N-Normal|1|AUTO_4-USA|223|ICAO-K3A6|||||||||||||57|Derived||AUTO_4-USA|223|ICAO-K3A6|||||||||||||||||||||||||||||||||||||||||||||||||||||||||||||||||||||||||1012.9||1|AUTO_4-USA|223|ICAO-K3A6|||||||||||||||||||||||||||||||||||||||||||MET069METAR K3A6 150910Z AUTO 36003KT 21/12 A2991 RMK AO1 SLP120 T02110117;||A||223|ICAO-K3A6
USI0000K3A6|NEWHALL|2011|08|15|09|30|34.3700|-118.5700|427.0|21.0||1|AUTO_4-USA|223|ICAO-K3A6|11.0||1|AUTO_4-USA|223|ICAO-K3A6|||||||1012.0||1|AUTO_4-USA|223|ICAO-K3A6|360|N-Normal|1|AUTO_4-USA|223|ICAO-K3A6|0.5|N-Normal|1|AUTO_4-USA|223|ICAO-K3A6|||||||||||||53|Derived||AUTO_4-USA|223|ICAO-K3A6|||||||||||||||||||||||||||||||||||||||||||||||||||||||||||||||||||||||||1012.9||1|AUTO_4-USA|223|ICAO-K3A6|||||||||||||||||||||||||||||||||||||||||||MET069METAR K3A6 150930Z AUTO 36001KT 21/11 A2991 RMK AO1 SLP120 T02070114;||A||223|ICAO-K3A6
USI0000K3A6|NEWHALL|2011|08|15|09|50|34.3700|-118.5700|427.0|20.0||1|AUTO_4-USA|223|ICAO-K3A6|10.0||1|AUTO_4-USA|223|ICAO-K3A6|||||||1011.9||1|AUTO_4-USA|223|ICAO-K3A6|360|N-Normal|1|AUTO_4-USA|223|ICAO-K3A6|1.0|N-Normal|1|AUTO_4-USA|223|ICAO-K3A6|||||||||||||53|Derived||AUTO_4-USA|223|ICAO-K3A6|||||||||||||||||||||||||||||||||||||||||||||||||||||||||||||||||||||||||1012.5||1|AUTO_4-USA|223|ICAO-K3A6|||||||||||||||||||||||||||||||||||||||||||MET069METAR K3A6 150950Z AUTO 36002KT 20/10 A2990 RMK AO1 SLP119 T02040099;||A||223|ICAO-K3A6
USI0000K3A6|NEWHALL|2011|08|15|10|10|34.3700|-118.5700|427.0|21.0||1|AUTO_4-USA|223|ICAO-K3A6|11.0||1|AUTO_4-USA|223|ICAO-K3A6|||||||1011.8||1|AUTO_4-USA|223|ICAO-K3A6|360|N-Normal|1|AUTO_4-USA|223|ICAO-K3A6|1.0|N-Normal|1|AUTO_4-USA|223|ICAO-K3A6|||||||||||||53|Derived||AUTO_4-USA|223|ICAO-K3A6|||||||||||||||||||||||||||||||||||||||||||||||||||||||||||||||||||||||||1012.5||1|AUTO_4-USA|223|ICAO-K3A6|||||||||||||||||||||||||||||||||||||||||||MET069METAR K3A6 151010Z AUTO 36002KT 21/11 A2990 RMK AO1 SLP118 T02090109;||A||223|ICAO-K3A6
USI0000K3A6|NEWHALL|2011|08|15|12|10|34.3700|-118.5700|427.0|21.0||1|AUTO_4-USA|223|ICAO-K3A6|8.0||1|AUTO_4-USA|223|ICAO-K3A6|||||||1011.7||1|AUTO_4-USA|223|ICAO-K3A6|360|N-Normal|1|AUTO_4-USA|223|ICAO-K3A6|0.5|N-Normal|1|AUTO_4-USA|223|ICAO-K3A6|||||||||||||43|Derived||AUTO_4-USA|223|ICAO-K3A6|||||||||||||||||||||||||||||||||||||||||||||||||||||||||||||||||||||||||1012.2||1|AUTO_4-USA|223|ICAO-K3A6|||||||||||||||||||||||||||||||||||||||||||MET069METAR K3A6 151210Z AUTO 36001KT 21/08 A2989 RMK AO1 SLP117 T02100079;||A||223|ICAO-K3A6
USI0000K3A6|NEWHALL|2011|08|15|12|30|34.3700|-118.5700|427.0|20.0||1|AUTO_4-USA|223|ICAO-K3A6|9.0||1|AUTO_4-USA|223|ICAO-K3A6|||||||1011.7||1|AUTO_4-USA|223|ICAO-K3A6|360|N-Normal|1|AUTO_4-USA|223|ICAO-K3A6|0.5|N-Normal|1|AUTO_4-USA|223|ICAO-K3A6|||||||||||||49|Derived||AUTO_4-USA|223|ICAO-K3A6|||||||||||||||||||||||||||||||||||||||||||||||||||||||||||||||||||||||||1012.2||1|AUTO_4-USA|223|ICAO-K3A6|||||||||||||||||||||||||||||||||||||||||||MET069METAR K3A6 151230Z AUTO 36001KT 20/09 A2989 RMK AO1 SLP117 T02010087;||A||223|ICAO-K3A6
USI0000K3A6|NEWHALL|2011|08|15|12|50|34.3700|-118.5700|427.0|19.0||1|AUTO_4-USA|223|ICAO-K3A6|7.0||1|AUTO_4-USA|223|ICAO-K3A6|||||||1011.8||1|AUTO_4-USA|223|ICAO-K3A6|360|N-Normal|1|AUTO_4-USA|223|ICAO-K3A6|1.0|N-Normal|1|AUTO_4-USA|223|ICAO-K3A6|||||||||||||46|Derived||AUTO_4-USA|223|ICAO-K3A6|||||||||||||||||||||||||||||||||||||||||||||||||||||||||||||||||||||||||1012.2||1|AUTO_4-USA|223|ICAO-K3A6|||||||||||||||||||||||||||||||||||||||||||MET069METAR K3A6 151250Z AUTO 36002KT 19/07 A2989 RMK AO1 SLP118 T01940070;||A||223|ICAO-K3A6
USI0000K3A6|NEWHALL|2011|08|15|13|10|34.3700|-118.5700|427.0|20.0||1|AUTO_4-USA|223|ICAO-K3A6|6.0||1|AUTO_4-USA|223|ICAO-K3A6|||||||1011.9||1|AUTO_4-USA|223|ICAO-K3A6|360|N-Normal|1|AUTO_4-USA|223|ICAO-K3A6|1.5|N-Normal|1|AUTO_4-USA|223|ICAO-K3A6|||||||||||||40|Derived||AUTO_4-USA|223|ICAO-K3A6|||||||||||||||||||||||||||||||||||||||||||||||||||||||||||||||||||||||||1012.2||1|AUTO_4-USA|223|ICAO-K3A6|||||||||||||||||||||||||||||||||||||||||||MET069METAR K3A6 151310Z AUTO 36003KT 20/06 A2989 RMK AO1 SLP119 T02010057;||A||223|ICAO-K3A6
USI0000K3A6|NEWHALL|2011|08|15|13|30|34.3700|-118.5700|427.0|21.0||1|AUTO_4-USA|223|ICAO-K3A6|7.0||1|AUTO_4-USA|223|ICAO-K3A6|||||||1011.9||1|AUTO_4-USA|223|ICAO-K3A6|360|N-Normal|1|AUTO_4-USA|223|ICAO-K3A6|0.5|N-Normal|1|AUTO_4-USA|223|ICAO-K3A6|||||||||||||40|Derived||AUTO_4-USA|223|ICAO-K3A6|||||||||||||||||||||||||||||||||||||||||||||||||||||||||||||||||||||||||1012.2||1|AUTO_4-USA|223|ICAO-K3A6|||||||||||||||||||||||||||||||||||||||||||MET069METAR K3A6 151330Z AUTO 36001KT 21/07 A2989 RMK AO1 SLP119 T02110070;||A||223|ICAO-K3A6
USI0000K3A6|NEWHALL|2011|08|15|13|50|34.3700|-118.5700|427.0|22.0||1|AUTO_4-USA|223|ICAO-K3A6|10.0||1|AUTO_4-USA|223|ICAO-K3A6|||||||1012.1||1|AUTO_4-USA|223|ICAO-K3A6|360|N-Normal|1|AUTO_4-USA|223|ICAO-K3A6|1.0|N-Normal|1|AUTO_4-USA|223|ICAO-K3A6|||||||||||||47|Derived||AUTO_4-USA|223|ICAO-K3A6|||||||||||||||||||||||||||||||||||||||||||||||||||||||||||||||||||||||||1012.5||1|AUTO_4-USA|223|ICAO-K3A6|||||||||||||||||||||||||||||||||||||||||||MET069METAR K3A6 151350Z AUTO 36002KT 22/10 A2990 RMK AO1 SLP121 T02160104;||A||223|ICAO-K3A6
USI0000K3A6|NEWHALL|2011|08|15|14|10|34.3700|-118.5700|427.0|21.0||1|AUTO_4-USA|223|ICAO-K3A6|10.0||1|AUTO_4-USA|223|ICAO-K3A6|||||||1012.6||1|AUTO_4-USA|223|ICAO-K3A6|360|N-Normal|1|AUTO_4-USA|223|ICAO-K3A6|1.0|N-Normal|1|AUTO_4-USA|223|ICAO-K3A6|||||||||||||50|Derived||AUTO_4-USA|223|ICAO-K3A6|||||||||||||||||||||||||||||||||||||||||||||||||||||||||||||||||||||||||1012.9||1|AUTO_4-USA|223|ICAO-K3A6|0.0|4-Steady;-|1|AUTO_4-USA|223|ICAO-K3A6|||||||||||||||||||||||||||||||||||||MET075METAR K3A6 151410Z AUTO 36002KT 21/10 A2991 RMK AO1 SLP126 T02110096 54000;||A||223|ICAO-K3A6
USI0000K3A6|NEWHALL|2011|08|15|14|30|34.3700|-118.5700|427.0|23.0||1|AUTO_4-USA|223|ICAO-K3A6|10.0||1|AUTO_4-USA|223|ICAO-K3A6|||||||1012.6||1|AUTO_4-USA|223|ICAO-K3A6|360|N-Normal|1|AUTO_4-USA|223|ICAO-K3A6|1.0|N-Normal|1|AUTO_4-USA|223|ICAO-K3A6|||||||||||||44|Derived||AUTO_4-USA|223|ICAO-K3A6|||||||||||||||||||||||||||||||||||||||||||||||||||||||||||||||||||||||||1012.9||1|AUTO_4-USA|223|ICAO-K3A6|0.0|4-Steady;-|1|AUTO_4-USA|223|ICAO-K3A6|||||||||||||||||||||||||||||||||||||MET075METAR K3A6 151430Z AUTO 36002KT 23/10 A2991 RMK AO1 SLP126 T02290100 54000;||A||223|ICAO-K3A6
USI0000K3A6|NEWHALL|2011|08|15|14|50|34.3700|-118.5700|427.0|24.0||1|AUTO_4-USA|223|ICAO-K3A6|12.0||1|AUTO_4-USA|223|ICAO-K3A6|||||||1012.6||1|AUTO_4-USA|223|ICAO-K3A6|360|N-Normal|1|AUTO_4-USA|223|ICAO-K3A6|1.0|N-Normal|1|AUTO_4-USA|223|ICAO-K3A6|||||||||||||47|Derived||AUTO_4-USA|223|ICAO-K3A6|||||||||||||||||||||||||||||||||||||||||||||||||||||||||||||||||||||||||1012.9||1|AUTO_4-USA|223|ICAO-K3A6|0.0|4-Steady;-|1|AUTO_4-USA|223|ICAO-K3A6|||||||||||||||||||||||||||||||||||||MET075METAR K3A6 151450Z AUTO 36002KT 24/12 A2991 RMK AO1 SLP126 T02380121 54000;||A||223|ICAO-K3A6
USI0000K3A6|NEWHALL|2011|08|15|15|10|34.3700|-118.5700|427.0|26.0||1|AUTO_4-USA|223|ICAO-K3A6|13.0||1|AUTO_4-USA|223|ICAO-K3A6|||||||1012.7||1|AUTO_4-USA|223|ICAO-K3A6|360|N-Normal|1|AUTO_4-USA|223|ICAO-K3A6|1.0|N-Normal|1|AUTO_4-USA|223|ICAO-K3A6|||||||||||||45|Derived||AUTO_4-USA|223|ICAO-K3A6|||||||||||||||||||||||||||||||||||||||||||||||||||||||||||||||||||||||||1012.9||1|AUTO_4-USA|223|ICAO-K3A6|||||||||||||||||||||||||||||||||||||||||||MET069METAR K3A6 151510Z AUTO 36002KT 26/13 A2991 RMK AO1 SLP127 T02550130;||A||223|ICAO-K3A6
USI0000K3A6|NEWHALL|2011|08|15|15|30|34.3700|-118.5700|427.0|25.0||1|AUTO_4-USA|223|ICAO-K3A6|12.0||1|AUTO_4-USA|223|ICAO-K3A6|||||||1012.9||1|AUTO_4-USA|223|ICAO-K3A6|360|N-Normal|1|AUTO_4-USA|223|ICAO-K3A6|2.6|N-Normal|1|AUTO_4-USA|223|ICAO-K3A6|||||||||||||44|Derived||AUTO_4-USA|223|ICAO-K3A6|||||||||||||||||||||||||||||||||||||||||||||||||||||||||||||||||||||||||1013.2||1|AUTO_4-USA|223|ICAO-K3A6|||||||||||||||||||||||||||||||||||||||||||MET069METAR K3A6 151530Z AUTO 36005KT 25/12 A2992 RMK AO1 SLP129 T02480117;||A||223|ICAO-K3A6
USI0000K3A6|NEWHALL|2011|08|15|15|50|34.3700|-118.5700|427.0|24.0||1|AUTO_4-USA|223|ICAO-K3A6|12.0||1|AUTO_4-USA|223|ICAO-K3A6|||||||1013.0||1|AUTO_4-USA|223|ICAO-K3A6|360|N-Normal|1|AUTO_4-USA|223|ICAO-K3A6|2.6|N-Normal|1|AUTO_4-USA|223|ICAO-K3A6|||||||||||||47|Derived||AUTO_4-USA|223|ICAO-K3A6|||||||||||||||||||||||||||||||||||||||||||||||||||||||||||||||||||||||||1013.2||1|AUTO_4-USA|223|ICAO-K3A6|||||||||||||||||||||||||||||||||||||||||||MET069METAR K3A6 151550Z AUTO 36005KT 24/12 A2992 RMK AO1 SLP130 T02390125;||A||223|ICAO-K3A6
USI0000K3A6|NEWHALL|2011|08|16|02|50|34.3700|-118.5700|427.0|24.0||1|AUTO_4-USA|223|ICAO-K3A6|14.0||1|AUTO_4-USA|223|ICAO-K3A6|||||||1010.6||1|AUTO_4-USA|223|ICAO-K3A6|120|N-Normal|1|AUTO_4-USA|223|ICAO-K3A6|2.6|N-Normal|1|AUTO_4-USA|223|ICAO-K3A6|7.7||1|AUTO_4-USA|223|ICAO-K3A6|||||||54|Derived||AUTO_4-USA|223|ICAO-K3A6|||||||||||||||||||||||||||||||||||||||||||||||||||||||||||||||||||||||||1011.5||1|AUTO_4-USA|223|ICAO-K3A6|0.0|4-Steady;-|1|AUTO_4-USA|223|ICAO-K3A6|||||||||||||||||||||||||||||||||||||MET078METAR K3A6 160250Z AUTO 12005G15KT 24/14 A2987 RMK AO1 SLP106 T02400138 54000;||A||223|ICAO-K3A6
USI0000K3A6|NEWHALL|2011|08|16|03|10|34.3700|-118.5700|427.0|24.0||1|AUTO_4-USA|223|ICAO-K3A6|14.0||1|AUTO_4-USA|223|ICAO-K3A6|||||||1010.9||1|AUTO_4-USA|223|ICAO-K3A6|120|N-Normal|1|AUTO_4-USA|223|ICAO-K3A6|2.6|N-Normal|1|AUTO_4-USA|223|ICAO-K3A6|||||||||||||54|Derived||AUTO_4-USA|223|ICAO-K3A6|||||||||||||||||||||||||||||||||||||||||||||||||||||||||||||||||||||||||1011.9||1|AUTO_4-USA|223|ICAO-K3A6|||||||||||||||||||||||||||||||||||||||||||MET069METAR K3A6 160310Z AUTO 12005KT 24/14 A2988 RMK AO1 SLP109 T02380139;||A||223|ICAO-K3A6
USI0000K3A6|NEWHALL|2011|08|16|03|30|34.3700|-118.5700|427.0|24.0||1|AUTO_4-USA|223|ICAO-K3A6|14.0||1|AUTO_4-USA|223|ICAO-K3A6|||||||1011.3||1|AUTO_4-USA|223|ICAO-K3A6|120|N-Normal|1|AUTO_4-USA|223|ICAO-K3A6|1.5|N-Normal|1|AUTO_4-USA|223|ICAO-K3A6|||||||||||||54|Derived||AUTO_4-USA|223|ICAO-K3A6|||||||||||||||||||||||||||||||||||||||||||||||||||||||||||||||||||||||||1011.9||1|AUTO_4-USA|223|ICAO-K3A6|||||||||||||||||||||||||||||||||||||||||||MET069METAR K3A6 160330Z AUTO 12003KT 24/14 A2988 RMK AO1 SLP113 T02410139;||A||223|ICAO-K3A6
USI0000K3A6|NEWHALL|2011|08|16|03|50|34.3700|-118.5700|427.0|24.0||1|AUTO_4-USA|223|ICAO-K3A6|13.0||1|AUTO_4-USA|223|ICAO-K3A6|||||||1011.5||1|AUTO_4-USA|223|ICAO-K3A6|120|N-Normal|1|AUTO_4-USA|223|ICAO-K3A6|1.0|N-Normal|1|AUTO_4-USA|223|ICAO-K3A6|||||||||||||50|Derived||AUTO_4-USA|223|ICAO-K3A6|||||||||||||||||||||||||||||||||||||||||||||||||||||||||||||||||||||||||1012.2||1|AUTO_4-USA|223|ICAO-K3A6|||||||||||||||||||||||||||||||||||||||||||MET069METAR K3A6 160350Z AUTO 12002KT 24/13 A2989 RMK AO1 SLP115 T02450134;||A||223|ICAO-K3A6
USI0000K3A6|NEWHALL|2011|08|16|04|10|34.3700|-118.5700|427.0|24.0||1|AUTO_4-USA|223|ICAO-K3A6|14.0||1|AUTO_4-USA|223|ICAO-K3A6|||||||1011.7||1|AUTO_4-USA|223|ICAO-K3A6|120|N-Normal|1|AUTO_4-USA|223|ICAO-K3A6|1.0|N-Normal|1|AUTO_4-USA|223|ICAO-K3A6|||||||||||||54|Derived||AUTO_4-USA|223|ICAO-K3A6|||||||||||||||||||||||||||||||||||||||||||||||||||||||||||||||||||||||||1012.5||1|AUTO_4-USA|223|ICAO-K3A6|||||||||||||||||||||||||||||||||||||||||||MET069METAR K3A6 160410Z AUTO 12002KT 24/14 A2990 RMK AO1 SLP117 T02430135;||A||223|ICAO-K3A6
USI0000K3A6|NEWHALL|2011|08|16|04|30|34.3700|-118.5700|427.0|24.0||1|AUTO_4-USA|223|ICAO-K3A6|13.0||1|AUTO_4-USA|223|ICAO-K3A6|||||||1012.0||1|AUTO_4-USA|223|ICAO-K3A6|120|N-Normal|1|AUTO_4-USA|223|ICAO-K3A6|1.0|N-Normal|1|AUTO_4-USA|223|ICAO-K3A6|||||||||||||50|Derived||AUTO_4-USA|223|ICAO-K3A6|||||||||||||||||||||||||||||||||||||||||||||||||||||||||||||||||||||||||1012.9||1|AUTO_4-USA|223|ICAO-K3A6|||||||||||||||||||||||||||||||||||||||||||MET069METAR K3A6 160430Z AUTO 12002KT 24/13 A2991 RMK AO1 SLP120 T02360131;||A||223|ICAO-K3A6
USI0000K3A6|NEWHALL|2011|08|16|08|30|34.3700|-118.5700|427.0|20.0||1|AUTO_4-USA|223|ICAO-K3A6|12.0||1|AUTO_4-USA|223|ICAO-K3A6|||||||1012.2||1|AUTO_4-USA|223|ICAO-K3A6|120|N-Normal|1|AUTO_4-USA|223|ICAO-K3A6|1.0|N-Normal|1|AUTO_4-USA|223|ICAO-K3A6|||||||||||||60|Derived||AUTO_4-USA|223|ICAO-K3A6|||||||||||||||||||||||||||||||||||||||||||||||||||||||||||||||||||||||||1012.9||1|AUTO_4-USA|223|ICAO-K3A6|0.0|4-Steady;-|1|AUTO_4-USA|223|ICAO-K3A6|||||||||||||||||||||||||||||||||||||MET075METAR K3A6 160830Z AUTO 12002KT 20/12 A2991 RMK AO1 SLP122 T01970117 54000;||A||223|ICAO-K3A6
USI0000K3A6|NEWHALL|2011|08|16|08|50|34.3700|-118.5700|427.0|19.0||1|AUTO_4-USA|223|ICAO-K3A6|12.0||1|AUTO_4-USA|223|ICAO-K3A6|||||||1012.4||1|AUTO_4-USA|223|ICAO-K3A6|120|N-Normal|1|AUTO_4-USA|223|ICAO-K3A6|1.0|N-Normal|1|AUTO_4-USA|223|ICAO-K3A6|||||||||||||64|Derived||AUTO_4-USA|223|ICAO-K3A6|||||||||||||||||||||||||||||||||||||||||||||||||||||||||||||||||||||||||1012.9||1|AUTO_4-USA|223|ICAO-K3A6|0.0|4-Steady;-|1|AUTO_4-USA|223|ICAO-K3A6|||||||||||||||||||||||||||||||||||||MET075METAR K3A6 160850Z AUTO 12002KT 19/12 A2991 RMK AO1 SLP124 T01930125 54000;||A||223|ICAO-K3A6
USI0000K3A6|NEWHALL|2011|08|16|09|10|34.3700|-118.5700|427.0|19.0||1|AUTO_4-USA|223|ICAO-K3A6|12.0||1|AUTO_4-USA|223|ICAO-K3A6|||||||1012.5||1|AUTO_4-USA|223|ICAO-K3A6|120|N-Normal|1|AUTO_4-USA|223|ICAO-K3A6|1.0|N-Normal|1|AUTO_4-USA|223|ICAO-K3A6|||||||||||||64|Derived||AUTO_4-USA|223|ICAO-K3A6|||||||||||||||||||||||||||||||||||||||||||||||||||||||||||||||||||||||||1012.9||1|AUTO_4-USA|223|ICAO-K3A6|||||||||||||||||||||||||||||||||||||||||||MET069METAR K3A6 160910Z AUTO 12002KT 19/12 A2991 RMK AO1 SLP125 T01880123;||A||223|ICAO-K3A6
USI0000K3A6|NEWHALL|2011|08|16|09|30|34.3700|-118.5700|427.0|19.0||1|AUTO_4-USA|223|ICAO-K3A6|12.0||1|AUTO_4-USA|223|ICAO-K3A6|||||||1012.6||1|AUTO_4-USA|223|ICAO-K3A6|120|N-Normal|1|AUTO_4-USA|223|ICAO-K3A6|1.0|N-Normal|1|AUTO_4-USA|223|ICAO-K3A6|||||||||||||64|Derived||AUTO_4-USA|223|ICAO-K3A6|||||||||||||||||||||||||||||||||||||||||||||||||||||||||||||||||||||||||1012.9||1|AUTO_4-USA|223|ICAO-K3A6|||||||||||||||||||||||||||||||||||||||||||MET069METAR K3A6 160930Z AUTO 12002KT 19/12 A2991 RMK AO1 SLP126 T01900115;||A||223|ICAO-K3A6
USI0000K3A6|NEWHALL|2011|08|16|09|50|34.3700|-118.5700|427.0|19.0||1|AUTO_4-USA|223|ICAO-K3A6|12.0||1|AUTO_4-USA|223|ICAO-K3A6|||||||1012.6||1|AUTO_4-USA|223|ICAO-K3A6|120|N-Normal|1|AUTO_4-USA|223|ICAO-K3A6|1.5|N-Normal|1|AUTO_4-USA|223|ICAO-K3A6|||||||||||||64|Derived||AUTO_4-USA|223|ICAO-K3A6|||||||||||||||||||||||||||||||||||||||||||||||||||||||||||||||||||||||||1012.9||1|AUTO_4-USA|223|ICAO-K3A6|||||||||||||||||||||||||||||||||||||||||||MET069METAR K3A6 160950Z AUTO 12003KT 19/12 A2991 RMK AO1 SLP126 T01880118;||A||223|ICAO-K3A6
USI0000K3A6|NEWHALL|2011|08|16|10|10|34.3700|-118.5700|427.0|19.0||1|AUTO_4-USA|223|ICAO-K3A6|12.0||1|AUTO_4-USA|223|ICAO-K3A6|||||||1012.7||1|AUTO_4-USA|223|ICAO-K3A6|120|N-Normal|1|AUTO_4-USA|223|ICAO-K3A6|1.5|N-Normal|1|AUTO_4-USA|223|ICAO-K3A6|||||||||||||64|Derived||AUTO_4-USA|223|ICAO-K3A6|||||||||||||||||||||||||||||||||||||||||||||||||||||||||||||||||||||||||1012.9||1|AUTO_4-USA|223|ICAO-K3A6|||||||||||||||||||||||||||||||||||||||||||MET069METAR K3A6 161010Z AUTO 12003KT 19/12 A2991 RMK AO1 SLP127 T01880123;||A||223|ICAO-K3A6
USI0000K3A6|NEWHALL|2011|08|16|13|30|34.3700|-118.5700|427.0|16.0||1|AUTO_4-USA|223|ICAO-K3A6|11.0||1|AUTO_4-USA|223|ICAO-K3A6|||||||1013.7||1|AUTO_4-USA|223|ICAO-K3A6|120|N-Normal|1|AUTO_4-USA|223|ICAO-K3A6|1.0|N-Normal|1|AUTO_4-USA|223|ICAO-K3A6|||||||||||||72|Derived||AUTO_4-USA|223|ICAO-K3A6|||||||||||||||||||||||||||||||||||||||||||||||||||||||||||||||||||||||||1013.5||1|AUTO_4-USA|223|ICAO-K3A6|||||||||||||||||||||||||||||||||||||||||||MET069METAR K3A6 161330Z AUTO 12002KT 16/11 A2993 RMK AO1 SLP137 T01570114;||A||223|ICAO-K3A6
USI0000K3A6|NEWHALL|2011|08|16|13|50|34.3700|-118.5700|427.0|16.0||1|AUTO_4-USA|223|ICAO-K3A6|11.0||1|AUTO_4-USA|223|ICAO-K3A6|||||||1014.0||1|AUTO_4-USA|223|ICAO-K3A6|120|N-Normal|1|AUTO_4-USA|223|ICAO-K3A6|1.0|N-Normal|1|AUTO_4-USA|223|ICAO-K3A6|||||||||||||72|Derived||AUTO_4-USA|223|ICAO-K3A6|||||||||||||||||||||||||||||||||||||||||||||||||||||||||||||||||||||||||1013.9||1|AUTO_4-USA|223|ICAO-K3A6|||||||||||||||||||||||||||||||||||||||||||MET069METAR K3A6 161350Z AUTO 12002KT 16/11 A2994 RMK AO1 SLP140 T01650108;||A||223|ICAO-K3A6
USI0000K3A6|NEWHALL|2011|08|16|14|10|34.3700|-118.5700|427.0|19.0||1|AUTO_4-USA|223|ICAO-K3A6|12.0||1|AUTO_4-USA|223|ICAO-K3A6|||||||1013.9||1|AUTO_4-USA|223|ICAO-K3A6|120|N-Normal|1|AUTO_4-USA|223|ICAO-K3A6|0.5|N-Normal|1|AUTO_4-USA|223|ICAO-K3A6|||||||||||||64|Derived||AUTO_4-USA|223|ICAO-K3A6|||||||||||||||||||||||||||||||||||||||||||||||||||||||||||||||||||||||||1013.9||1|AUTO_4-USA|223|ICAO-K3A6|0.0|4-Steady;-|1|AUTO_4-USA|223|ICAO-K3A6|||||||||||||||||||||||||||||||||||||MET075METAR K3A6 161410Z AUTO 12001KT 19/12 A2994 RMK AO1 SLP139 T01850115 54000;||A||223|ICAO-K3A6
USI0000K3A6|NEWHALL|2011|08|16|14|30|34.3700|-118.5700|427.0|21.0||1|AUTO_4-USA|223|ICAO-K3A6|12.0||1|AUTO_4-USA|223|ICAO-K3A6|||||||1014.0||1|AUTO_4-USA|223|ICAO-K3A6|120|N-Normal|1|AUTO_4-USA|223|ICAO-K3A6|0.5|N-Normal|1|AUTO_4-USA|223|ICAO-K3A6|||||||||||||57|Derived||AUTO_4-USA|223|ICAO-K3A6|||||||||||||||||||||||||||||||||||||||||||||||||||||||||||||||||||||||||1013.9||1|AUTO_4-USA|223|ICAO-K3A6|0.0|4-Steady;-|1|AUTO_4-USA|223|ICAO-K3A6|||||||||||||||||||||||||||||||||||||MET075METAR K3A6 161430Z AUTO 12001KT 21/12 A2994 RMK AO1 SLP140 T02080119 54000;||A||223|ICAO-K3A6
USI0000K3A6|NEWHALL|2011|08|16|14|50|34.3700|-118.5700|427.0|22.0||1|AUTO_4-USA|223|ICAO-K3A6|12.0||1|AUTO_4-USA|223|ICAO-K3A6|||||||1014.2||1|AUTO_4-USA|223|ICAO-K3A6|120|N-Normal|1|AUTO_4-USA|223|ICAO-K3A6|1.0|N-Normal|1|AUTO_4-USA|223|ICAO-K3A6|||||||||||||53|Derived||AUTO_4-USA|223|ICAO-K3A6|||||||||||||||||||||||||||||||||||||||||||||||||||||||||||||||||||||||||1013.9||1|AUTO_4-USA|223|ICAO-K3A6|0.0|4-Steady;-|1|AUTO_4-USA|223|ICAO-K3A6|||||||||||||||||||||||||||||||||||||MET075METAR K3A6 161450Z AUTO 12002KT 22/12 A2994 RMK AO1 SLP142 T02190118 54000;||A||223|ICAO-K3A6
USI0000K3A6|NEWHALL|2011|08|16|15|10|34.3700|-118.5700|427.0|22.0||1|AUTO_4-USA|223|ICAO-K3A6|13.0||1|AUTO_4-USA|223|ICAO-K3A6|||||||1014.2||1|AUTO_4-USA|223|ICAO-K3A6|120|N-Normal|1|AUTO_4-USA|223|ICAO-K3A6|0.5|N-Normal|1|AUTO_4-USA|223|ICAO-K3A6|||||||||||||57|Derived||AUTO_4-USA|223|ICAO-K3A6|||||||||||||||||||||||||||||||||||||||||||||||||||||||||||||||||||||||||1013.9||1|AUTO_4-USA|223|ICAO-K3A6|||||||||||||||||||||||||||||||||||||||||||MET069METAR K3A6 161510Z AUTO 12001KT 22/13 A2994 RMK AO1 SLP142 T02220130;||A||223|ICAO-K3A6
USI0000K3A6|NEWHALL|2011|08|16|15|30|34.3700|-118.5700|427.0|23.0||1|AUTO_4-USA|223|ICAO-K3A6|14.0||1|AUTO_4-USA|223|ICAO-K3A6|||||||1014.4||1|AUTO_4-USA|223|ICAO-K3A6|120|N-Normal|1|AUTO_4-USA|223|ICAO-K3A6|0.5|N-Normal|1|AUTO_4-USA|223|ICAO-K3A6|||||||||||||57|Derived||AUTO_4-USA|223|ICAO-K3A6|||||||||||||||||||||||||||||||||||||||||||||||||||||||||||||||||||||||||1014.2||1|AUTO_4-USA|223|ICAO-K3A6|||||||||||||||||||||||||||||||||||||||||||MET069METAR K3A6 161530Z AUTO 12001KT 23/14 A2995 RMK AO1 SLP144 T02320136;||A||223|ICAO-K3A6
USI0000K3A6|NEWHALL|2011|08|16|15|50|34.3700|-118.5700|427.0|25.0||1|AUTO_4-USA|223|ICAO-K3A6|12.0||1|AUTO_4-USA|223|ICAO-K3A6|||||||1014.4||1|AUTO_4-USA|223|ICAO-K3A6|120|N-Normal|1|AUTO_4-USA|223|ICAO-K3A6|1.0|N-Normal|1|AUTO_4-USA|223|ICAO-K3A6|||||||||||||44|Derived||AUTO_4-USA|223|ICAO-K3A6|||||||||||||||||||||||||||||||||||||||||||||||||||||||||||||||||||||||||1014.2||1|AUTO_4-USA|223|ICAO-K3A6|||||||||||||||||||||||||||||||||||||||||||MET069METAR K3A6 161550Z AUTO 12002KT 25/12 A2995 RMK AO1 SLP144 T02490118;||A||223|ICAO-K3A6
USI0000K3A6|NEWHALL|2011|08|16|16|10|34.3700|-118.5700|427.0|26.0||1|AUTO_4-USA|223|ICAO-K3A6|10.0||1|AUTO_4-USA|223|ICAO-K3A6|||||||1014.3||1|AUTO_4-USA|223|ICAO-K3A6|120|N-Normal|1|AUTO_4-USA|223|ICAO-K3A6|0.5|N-Normal|1|AUTO_4-USA|223|ICAO-K3A6|||||||||||||37|Derived||AUTO_4-USA|223|ICAO-K3A6|||||||||||||||||||||||||||||||||||||||||||||||||||||||||||||||||||||||||1014.2||1|AUTO_4-USA|223|ICAO-K3A6|||||||||||||||||||||||||||||||||||||||||||MET069METAR K3A6 161610Z AUTO 12001KT 26/10 A2995 RMK AO1 SLP143 T02620103;||A||223|ICAO-K3A6
USI0000K3A6|NEWHALL|2011|08|16|16|30|34.3700|-118.5700|427.0|29.0||1|AUTO_4-USA|223|ICAO-K3A6|12.0||1|AUTO_4-USA|223|ICAO-K3A6|||||||1014.4||1|AUTO_4-USA|223|ICAO-K3A6|120|N-Normal|1|AUTO_4-USA|223|ICAO-K3A6|0.5|N-Normal|1|AUTO_4-USA|223|ICAO-K3A6|||||||||||||35|Derived||AUTO_4-USA|223|ICAO-K3A6|||||||||||||||||||||||||||||||||||||||||||||||||||||||||||||||||||||||||1014.2||1|AUTO_4-USA|223|ICAO-K3A6|||||||||||||||||||||||||||||||||||||||||||MET069METAR K3A6 161630Z AUTO 12001KT 29/12 A2995 RMK AO1 SLP144 T02860120;||A||223|ICAO-K3A6
USI0000K3A6|NEWHALL|2011|08|16|16|50|34.3700|-118.5700|427.0|30.0||1|AUTO_4-USA|223|ICAO-K3A6|12.0||1|AUTO_4-USA|223|ICAO-K3A6|||||||1014.3||1|AUTO_4-USA|223|ICAO-K3A6|120|N-Normal|1|AUTO_4-USA|223|ICAO-K3A6|1.0|N-Normal|1|AUTO_4-USA|223|ICAO-K3A6|||||||||||||33|Derived||AUTO_4-USA|223|ICAO-K3A6|||||||||||||||||||||||||||||||||||||||||||||||||||||||||||||||||||||||||1014.2||1|AUTO_4-USA|223|ICAO-K3A6|||||||||||||||||||||||||||||||||||||||||||MET069METAR K3A6 161650Z AUTO 12002KT 30/12 A2995 RMK AO1 SLP143 T02990118;||A||223|ICAO-K3A6
USI0000K3A6|NEWHALL|2011|08|16|17|10|34.3700|-118.5700|427.0|30.0||1|AUTO_4-USA|223|ICAO-K3A6|8.0||1|AUTO_4-USA|223|ICAO-K3A6|||||||1014.3||1|AUTO_4-USA|223|ICAO-K3A6|120|N-Normal|1|AUTO_4-USA|223|ICAO-K3A6|1.0|N-Normal|1|AUTO_4-USA|223|ICAO-K3A6|||||||||||||25|Derived||AUTO_4-USA|223|ICAO-K3A6|||||||||||||||||||||||||||||||||||||||||||||||||||||||||||||||||||||||||1014.2||1|AUTO_4-USA|223|ICAO-K3A6|1.5|1-Incr-the|1|AUTO_4-USA|223|ICAO-K3A6|||||||||||||||||||||||||||||||||||||MET087METAR K3A6 161710Z AUTO 12002KT 30/08 A2995 RMK AO1 SLP143 T03010085 10301 20157 51015;||A||223|ICAO-K3A6
USI0000K3A6|NEWHALL|2011|08|16|17|30|34.3700|-118.5700|427.0|31.0||1|AUTO_4-USA|223|ICAO-K3A6|10.0||1|AUTO_4-USA|223|ICAO-K3A6|||||||1014.2||1|AUTO_4-USA|223|ICAO-K3A6|120|N-Normal|1|AUTO_4-USA|223|ICAO-K3A6|1.5|N-Normal|1|AUTO_4-USA|223|ICAO-K3A6|||||||||||||27|Derived||AUTO_4-USA|223|ICAO-K3A6|||||||||||||||||||||||||||||||||||||||||||||||||||||||||||||||||||||||||1014.2||1|AUTO_4-USA|223|ICAO-K3A6|1.8|0-Incr-the|1|AUTO_4-USA|223|ICAO-K3A6|||||||||||||||||||||||||||||||||||||MET087METAR K3A6 161730Z AUTO 12003KT 31/10 A2995 RMK AO1 SLP142 T03130100 10313 20157 50018;||A||223|ICAO-K3A6
USI0000K3A6|NEWHALL|2011|08|16|17|50|34.3700|-118.5700|427.0|32.0||1|AUTO_4-USA|223|ICAO-K3A6|11.0||1|AUTO_4-USA|223|ICAO-K3A6|||||||1014.2||1|AUTO_4-USA|223|ICAO-K3A6|120|N-Normal|1|AUTO_4-USA|223|ICAO-K3A6|1.5|N-Normal|1|AUTO_4-USA|223|ICAO-K3A6|||||||||||||27|Derived||AUTO_4-USA|223|ICAO-K3A6|||||||||||||||||||||||||||||||||||||||||||||||||||||||||||||||||||||||||1014.6||1|AUTO_4-USA|223|ICAO-K3A6|1.2|2-Incr-(st|1|AUTO_4-USA|223|ICAO-K3A6|||||||||||||||||||||||||||||||||||||MET087METAR K3A6 161750Z AUTO 12003KT 32/11 A2996 RMK AO1 SLP142 T03190105 10319 20157 52012;||A||223|ICAO-K3A6
USI0000K3A6|NEWHALL|2011|08|16|18|10|34.3700|-118.5700|427.0|32.0||1|AUTO_4-USA|223|ICAO-K3A6|11.0||1|AUTO_4-USA|223|ICAO-K3A6|||||||1014.0||1|AUTO_4-USA|223|ICAO-K3A6|120|N-Normal|1|AUTO_4-USA|223|ICAO-K3A6|1.5|N-Normal|1|AUTO_4-USA|223|ICAO-K3A6|||||||||||||27|Derived||AUTO_4-USA|223|ICAO-K3A6|||||||||||||||||||||||||||||||||||||||||||||||||||||||||||||||||||||||||1014.2||1|AUTO_4-USA|223|ICAO-K3A6|||||||||||||||||||||||||||||||||||||||||||MET069METAR K3A6 161810Z AUTO 12003KT 32/11 A2995 RMK AO1 SLP140 T03200112;||A||223|ICAO-K3A6
USI0000K3A6|NEWHALL|2011|08|16|18|30|34.3700|-118.5700|427.0|34.0||1|AUTO_4-USA|223|ICAO-K3A6|12.0||1|AUTO_4-USA|223|ICAO-K3A6|||||||1013.8||1|AUTO_4-USA|223|ICAO-K3A6|120|N-Normal|1|AUTO_4-USA|223|ICAO-K3A6|1.5|N-Normal|1|AUTO_4-USA|223|ICAO-K3A6|||||||||||||26|Derived||AUTO_4-USA|223|ICAO-K3A6|||||||||||||||||||||||||||||||||||||||||||||||||||||||||||||||||||||||||1014.2||1|AUTO_4-USA|223|ICAO-K3A6|||||||||||||||||||||||||||||||||||||||||||MET069METAR K3A6 161830Z AUTO 12003KT 34/12 A2995 RMK AO1 SLP138 T03360120;||A||223|ICAO-K3A6
USI0000K3A6|NEWHALL|2011|08|16|18|50|34.3700|-118.5700|427.0|33.0||1|AUTO_4-USA|223|ICAO-K3A6|13.0||1|AUTO_4-USA|223|ICAO-K3A6|||||||1013.6||1|AUTO_4-USA|223|ICAO-K3A6|120|N-Normal|1|AUTO_4-USA|223|ICAO-K3A6|2.1|N-Normal|1|AUTO_4-USA|223|ICAO-K3A6|||||||||||||30|Derived||AUTO_4-USA|223|ICAO-K3A6|||||||||||||||||||||||||||||||||||||||||||||||||||||||||||||||||||||||||1014.2||1|AUTO_4-USA|223|ICAO-K3A6|||||||||||||||||||||||||||||||||||||||||||MET069METAR K3A6 161850Z AUTO 12004KT 33/13 A2995 RMK AO1 SLP136 T03310132;||A||223|ICAO-K3A6
USI0000K3A6|NEWHALL|2011|08|16|19|10|34.3700|-118.5700|427.0|34.0||1|AUTO_4-USA|223|ICAO-K3A6|14.0||1|AUTO_4-USA|223|ICAO-K3A6|||||||1013.5||1|AUTO_4-USA|223|ICAO-K3A6|120|N-Normal|1|AUTO_4-USA|223|ICAO-K3A6|1.5|N-Normal|1|AUTO_4-USA|223|ICAO-K3A6|||||||||||||30|Derived||AUTO_4-USA|223|ICAO-K3A6|||||||||||||||||||||||||||||||||||||||||||||||||||||||||||||||||||||||||1014.2||1|AUTO_4-USA|223|ICAO-K3A6|||||||||||||||||||||||||||||||||||||||||||MET069METAR K3A6 161910Z AUTO 12003KT 34/14 A2995 RMK AO1 SLP135 T03370137;||A||223|ICAO-K3A6
USI0000K3A6|NEWHALL|2011|08|16|19|30|34.3700|-118.5700|427.0|34.0||1|AUTO_4-USA|223|ICAO-K3A6|14.0||1|AUTO_4-USA|223|ICAO-K3A6|||||||1013.2||1|AUTO_4-USA|223|ICAO-K3A6|120|N-Normal|1|AUTO_4-USA|223|ICAO-K3A6|2.1|N-Normal|1|AUTO_4-USA|223|ICAO-K3A6|||||||||||||30|Derived||AUTO_4-USA|223|ICAO-K3A6|||||||||||||||||||||||||||||||||||||||||||||||||||||||||||||||||||||||||1013.9||1|AUTO_4-USA|223|ICAO-K3A6|||||||||||||||||||||||||||||||||||||||||||MET069METAR K3A6 161930Z AUTO 12004KT 34/14 A2994 RMK AO1 SLP132 T03380138;||A||223|ICAO-K3A6
USI0000K3A6|NEWHALL|2011|08|16|19|50|34.3700|-118.5700|427.0|34.0||1|AUTO_4-USA|223|ICAO-K3A6|11.0||1|AUTO_4-USA|223|ICAO-K3A6|||||||1013.2||1|AUTO_4-USA|223|ICAO-K3A6|120|N-Normal|1|AUTO_4-USA|223|ICAO-K3A6|1.0|N-Normal|1|AUTO_4-USA|223|ICAO-K3A6|||||||||||||24|Derived||AUTO_4-USA|223|ICAO-K3A6|||||||||||||||||||||||||||||||||||||||||||||||||||||||||||||||||||||||||1013.9||1|AUTO_4-USA|223|ICAO-K3A6|||||||||||||||||||||||||||||||||||||||||||MET069METAR K3A6 161950Z AUTO 12002KT 34/11 A2994 RMK AO1 SLP132 T03440109;||A||223|ICAO-K3A6
USI0000K3A6|NEWHALL|2011|08|16|20|10|34.3700|-118.5700|427.0|35.0||1|AUTO_4-USA|223|ICAO-K3A6|14.0||1|AUTO_4-USA|223|ICAO-K3A6|||||||1012.9||1|AUTO_4-USA|223|ICAO-K3A6|350|N-Normal|1|AUTO_4-USA|223|ICAO-K3A6|2.1|N-Normal|1|AUTO_4-USA|223|ICAO-K3A6|||||||||||||28|Derived||AUTO_4-USA|223|ICAO-K3A6|||||||||||||||||||||||||||||||||||||||||||||||||||||||||||||||||||||||||1013.9||1|AUTO_4-USA|223|ICAO-K3A6|-1.5|8-Steady-o|1|AUTO_4-USA|223|ICAO-K3A6|||||||||||||||||||||||||||||||||||||MET075METAR K3A6 162010Z AUTO 35004KT 35/14 A2994 RMK AO1 SLP129 T03510143 58015;||A||223|ICAO-K3A6
USI0000K3A6|NEWHALL|2011|08|16|20|30|34.3700|-118.5700|427.0|35.0||1|AUTO_4-USA|223|ICAO-K3A6|14.0||1|AUTO_4-USA|223|ICAO-K3A6|||||||1012.9||1|AUTO_4-USA|223|ICAO-K3A6|240|N-Normal|1|AUTO_4-USA|223|ICAO-K3A6|2.1|N-Normal|1|AUTO_4-USA|223|ICAO-K3A6|||||||||||||28|Derived||AUTO_4-USA|223|ICAO-K3A6|||||||||||||||||||||||||||||||||||||||||||||||||||||||||||||||||||||||||1013.9||1|AUTO_4-USA|223|ICAO-K3A6|-1.8|7-Decr-(st|1|AUTO_4-USA|223|ICAO-K3A6|||||||||||||||||||||||||||||||||||||MET075METAR K3A6 162030Z AUTO 24004KT 35/14 A2994 RMK AO1 SLP129 T03510138 57018;||A||223|ICAO-K3A6
USI0000K3A6|NEWHALL|2011|08|17|02|30|34.3700|-118.5700|427.0|25.0||1|AUTO_4-USA|223|ICAO-K3A6|12.0||1|AUTO_4-USA|223|ICAO-K3A6|||||||1011.4||1|AUTO_4-USA|223|ICAO-K3A6|160|N-Normal|1|AUTO_4-USA|223|ICAO-K3A6|2.6|N-Normal|1|AUTO_4-USA|223|ICAO-K3A6|8.7||1|AUTO_4-USA|223|ICAO-K3A6|||||||44|Derived||AUTO_4-USA|223|ICAO-K3A6|||||||||||||||||||||||||||||||||||||||||||||||||||||||||||||||||||||||||1013.2||1|AUTO_4-USA|223|ICAO-K3A6|0.0|4-Steady;-|1|AUTO_4-USA|223|ICAO-K3A6|||||||||||||||||||||||||||||||||||||MET078METAR K3A6 170230Z AUTO 16005G17KT 25/12 A2992 RMK AO1 SLP114 T02500125 54000;||A||223|ICAO-K3A6
USI0000K3A6|NEWHALL|2011|08|17|04|30|34.3700|-118.5700|427.0|24.0||1|AUTO_4-USA|223|ICAO-K3A6|9.0||1|AUTO_4-USA|223|ICAO-K3A6|||||||1012.6||1|AUTO_4-USA|223|ICAO-K3A6|160|N-Normal|1|AUTO_4-USA|223|ICAO-K3A6|0.5|N-Normal|1|AUTO_4-USA|223|ICAO-K3A6|||||||||||||39|Derived||AUTO_4-USA|223|ICAO-K3A6|||||||||||||||||||||||||||||||||||||||||||||||||||||||||||||||||||||||||1014.9||1|AUTO_4-USA|223|ICAO-K3A6|||||||||||||||||||||||||||||||||||||||||||MET069METAR K3A6 170430Z AUTO 16001KT 24/09 A2997 RMK AO1 SLP126 T02360095;||A||223|ICAO-K3A6
USI0000K3A6|NEWHALL|2011|08|17|04|50|34.3700|-118.5700|427.0|23.0||1|AUTO_4-USA|223|ICAO-K3A6|11.0||1|AUTO_4-USA|223|ICAO-K3A6|||||||1012.8||1|AUTO_4-USA|223|ICAO-K3A6|160|N-Normal|1|AUTO_4-USA|223|ICAO-K3A6|1.5|N-Normal|1|AUTO_4-USA|223|ICAO-K3A6|||||||||||||47|Derived||AUTO_4-USA|223|ICAO-K3A6|||||||||||||||||||||||||||||||||||||||||||||||||||||||||||||||||||||||||1014.9||1|AUTO_4-USA|223|ICAO-K3A6|||||||||||||||||||||||||||||||||||||||||||MET069METAR K3A6 170450Z AUTO 16003KT 23/11 A2997 RMK AO1 SLP128 T02340108;||A||223|ICAO-K3A6
USI0000K3A6|NEWHALL|2011|08|17|05|10|34.3700|-118.5700|427.0|22.0||1|AUTO_4-USA|223|ICAO-K3A6|12.0||1|AUTO_4-USA|223|ICAO-K3A6|||||||1013.1||1|AUTO_4-USA|223|ICAO-K3A6|160|N-Normal|1|AUTO_4-USA|223|ICAO-K3A6|1.5|N-Normal|1|AUTO_4-USA|223|ICAO-K3A6|||||||||||||53|Derived||AUTO_4-USA|223|ICAO-K3A6|||||||||||||||||||||||||||||||||||||||||||||||||||||||||||||||||||||||||1015.2||1|AUTO_4-USA|223|ICAO-K3A6|0.0|4-Steady;-|1|AUTO_4-USA|223|ICAO-K3A6|||||||||||||||||||||||||||||||||||||MET087METAR K3A6 170510Z AUTO 16003KT 22/12 A2998 RMK AO1 SLP131 T02240117 10364 20224 54000;||A||223|ICAO-K3A6
USI0000K3A6|NEWHALL|2011|08|17|05|30|34.3700|-118.5700|427.0|22.0||1|AUTO_4-USA|223|ICAO-K3A6|11.0||1|AUTO_4-USA|223|ICAO-K3A6|||||||1013.3||1|AUTO_4-USA|223|ICAO-K3A6|160|N-Normal|1|AUTO_4-USA|223|ICAO-K3A6|1.0|N-Normal|1|AUTO_4-USA|223|ICAO-K3A6|||||||||||||50|Derived||AUTO_4-USA|223|ICAO-K3A6|||||||||||||||||||||||||||||||||||||||||||||||||||||||||||||||||||||||||1015.2||1|AUTO_4-USA|223|ICAO-K3A6|0.0|4-Steady;-|1|AUTO_4-USA|223|ICAO-K3A6|||||||||||||||||||||||||||||||||||||MET087METAR K3A6 170530Z AUTO 16002KT 22/11 A2998 RMK AO1 SLP133 T02200110 10364 20220 54000;||A||223|ICAO-K3A6
USI0000K3A6|NEWHALL|2011|08|17|05|50|34.3700|-118.5700|427.0|22.0||1|AUTO_4-USA|223|ICAO-K3A6|11.0||1|AUTO_4-USA|223|ICAO-K3A6|||||||1013.2||1|AUTO_4-USA|223|ICAO-K3A6|160|N-Normal|1|AUTO_4-USA|223|ICAO-K3A6|1.5|N-Normal|1|AUTO_4-USA|223|ICAO-K3A6|||||||||||||50|Derived||AUTO_4-USA|223|ICAO-K3A6|||||||||||||||||||||||||||||||||||||||||||||||||||||||||||||||||||||||||1014.9||1|AUTO_4-USA|223|ICAO-K3A6|0.0|4-Steady;-|1|AUTO_4-USA|223|ICAO-K3A6|||||||||||||||||||||||||||||||||||||MET087METAR K3A6 170550Z AUTO 16003KT 22/11 A2997 RMK AO1 SLP132 T02200108 10364 20219 54000;||A||223|ICAO-K3A6
USI0000K3A6|NEWHALL|2011|08|17|06|30|34.3700|-118.5700|427.0|21.0||1|AUTO_4-USA|223|ICAO-K3A6|12.0||1|AUTO_4-USA|223|ICAO-K3A6|||||||1013.7||1|AUTO_4-USA|223|ICAO-K3A6|160|N-Normal|1|AUTO_4-USA|223|ICAO-K3A6|1.5|N-Normal|1|AUTO_4-USA|223|ICAO-K3A6|||||||||||||57|Derived||AUTO_4-USA|223|ICAO-K3A6|||||||||||||||||||||||||||||||||||||||||||||||||||||||||||||||||||||||||1015.2||1|AUTO_4-USA|223|ICAO-K3A6|||||||||||||||||||||||||||||||||||||||||||MET079METAR K3A6 170630Z AUTO 16003KT 21/12 A2998 RMK AO1 SLP137 T02130116 403640157;||A||223|ICAO-K3A6
USI0000K3A6|NEWHALL|2011|08|17|06|50|34.3700|-118.5700|427.0|21.0||1|AUTO_4-USA|223|ICAO-K3A6|12.0||1|AUTO_4-USA|223|ICAO-K3A6|||||||1013.7||1|AUTO_4-USA|223|ICAO-K3A6|160|N-Normal|1|AUTO_4-USA|223|ICAO-K3A6|1.5|N-Normal|1|AUTO_4-USA|223|ICAO-K3A6|||||||||||||57|Derived||AUTO_4-USA|223|ICAO-K3A6|||||||||||||||||||||||||||||||||||||||||||||||||||||||||||||||||||||||||1014.9||1|AUTO_4-USA|223|ICAO-K3A6|||||||||||||||||||||||||||||||||||||||||||MET079METAR K3A6 170650Z AUTO 16003KT 21/12 A2997 RMK AO1 SLP137 T02120118 403640157;||A||223|ICAO-K3A6
USI0000K3A6|NEWHALL|2011|08|17|07|10|34.3700|-118.5700|427.0|21.0||1|AUTO_4-USA|223|ICAO-K3A6|12.0||1|AUTO_4-USA|223|ICAO-K3A6|||||||1013.9||1|AUTO_4-USA|223|ICAO-K3A6|160|N-Normal|1|AUTO_4-USA|223|ICAO-K3A6|2.1|N-Normal|1|AUTO_4-USA|223|ICAO-K3A6|||||||||||||57|Derived||AUTO_4-USA|223|ICAO-K3A6|||||||||||||||||||||||||||||||||||||||||||||||||||||||||||||||||||||||||1014.9||1|AUTO_4-USA|223|ICAO-K3A6|||||||||||||||||||||||||||||||||||||||||||MET069METAR K3A6 170710Z AUTO 16004KT 21/12 A2997 RMK AO1 SLP139 T02120115;||A||223|ICAO-K3A6
USI0000K3A6|NEWHALL|2011|08|17|07|30|34.3700|-118.5700|427.0|21.0||1|AUTO_4-USA|223|ICAO-K3A6|11.0||1|AUTO_4-USA|223|ICAO-K3A6|||||||1014.1||1|AUTO_4-USA|223|ICAO-K3A6|160|N-Normal|1|AUTO_4-USA|223|ICAO-K3A6|1.0|N-Normal|1|AUTO_4-USA|223|ICAO-K3A6|||||||||||||53|Derived||AUTO_4-USA|223|ICAO-K3A6|||||||||||||||||||||||||||||||||||||||||||||||||||||||||||||||||||||||||1014.9||1|AUTO_4-USA|223|ICAO-K3A6|||||||||||||||||||||||||||||||||||||||||||MET069METAR K3A6 170730Z AUTO 16002KT 21/11 A2997 RMK AO1 SLP141 T02080111;||A||223|ICAO-K3A6
USI0000K3A6|NEWHALL|2011|08|17|07|50|34.3700|-118.5700|427.0|21.0||1|AUTO_4-USA|223|ICAO-K3A6|10.0||1|AUTO_4-USA|223|ICAO-K3A6|||||||1014.3||1|AUTO_4-USA|223|ICAO-K3A6|160|N-Normal|1|AUTO_4-USA|223|ICAO-K3A6|1.5|N-Normal|1|AUTO_4-USA|223|ICAO-K3A6|||||||||||||50|Derived||AUTO_4-USA|223|ICAO-K3A6|||||||||||||||||||||||||||||||||||||||||||||||||||||||||||||||||||||||||1014.9||1|AUTO_4-USA|223|ICAO-K3A6|||||||||||||||||||||||||||||||||||||||||||MET069METAR K3A6 170750Z AUTO 16003KT 21/10 A2997 RMK AO1 SLP143 T02090103;||A||223|ICAO-K3A6
USI0000K3A6|NEWHALL|2011|08|17|08|10|34.3700|-118.5700|427.0|21.0||1|AUTO_4-USA|223|ICAO-K3A6|10.0||1|AUTO_4-USA|223|ICAO-K3A6|||||||1014.3||1|AUTO_4-USA|223|ICAO-K3A6|160|N-Normal|1|AUTO_4-USA|223|ICAO-K3A6|1.5|N-Normal|1|AUTO_4-USA|223|ICAO-K3A6|||||||||||||50|Derived||AUTO_4-USA|223|ICAO-K3A6|||||||||||||||||||||||||||||||||||||||||||||||||||||||||||||||||||||||||1014.6||1|AUTO_4-USA|223|ICAO-K3A6|-0.6|8-Steady-o|1|AUTO_4-USA|223|ICAO-K3A6|||||||||||||||||||||||||||||||||||||MET075METAR K3A6 170810Z AUTO 16003KT 21/10 A2996 RMK AO1 SLP143 T02060098 58006;||A||223|ICAO-K3A6
USI0000K3A6|NEWHALL|2011|08|17|08|30|34.3700|-118.5700|427.0|20.0||1|AUTO_4-USA|223|ICAO-K3A6|9.0||1|AUTO_4-USA|223|ICAO-K3A6|||||||1014.5||1|AUTO_4-USA|223|ICAO-K3A6|160|N-Normal|1|AUTO_4-USA|223|ICAO-K3A6|1.0|N-Normal|1|AUTO_4-USA|223|ICAO-K3A6|||||||||||||49|Derived||AUTO_4-USA|223|ICAO-K3A6|||||||||||||||||||||||||||||||||||||||||||||||||||||||||||||||||||||||||1014.6||1|AUTO_4-USA|223|ICAO-K3A6|-1.2|6-Decr,-th|1|AUTO_4-USA|223|ICAO-K3A6|||||||||||||||||||||||||||||||||||||MET075METAR K3A6 170830Z AUTO 16002KT 20/09 A2996 RMK AO1 SLP145 T02030095 56012;||A||223|ICAO-K3A6
USI0000K3A6|NEWHALL|2011|08|17|08|50|34.3700|-118.5700|427.0|20.0||1|AUTO_4-USA|223|ICAO-K3A6|9.0||1|AUTO_4-USA|223|ICAO-K3A6|||||||1014.6||1|AUTO_4-USA|223|ICAO-K3A6|160|N-Normal|1|AUTO_4-USA|223|ICAO-K3A6|1.5|N-Normal|1|AUTO_4-USA|223|ICAO-K3A6|||||||||||||49|Derived||AUTO_4-USA|223|ICAO-K3A6|||||||||||||||||||||||||||||||||||||||||||||||||||||||||||||||||||||||||1014.6||1|AUTO_4-USA|223|ICAO-K3A6|-0.9|8-Steady-o|1|AUTO_4-USA|223|ICAO-K3A6|||||||||||||||||||||||||||||||||||||MET075METAR K3A6 170850Z AUTO 16003KT 20/09 A2996 RMK AO1 SLP146 T01980093 58009;||A||223|ICAO-K3A6
USI0000K3A6|NEWHALL|2011|08|17|09|10|34.3700|-118.5700|427.0|20.0||1|AUTO_4-USA|223|ICAO-K3A6|9.0||1|AUTO_4-USA|223|ICAO-K3A6|||||||1014.6||1|AUTO_4-USA|223|ICAO-K3A6|160|N-Normal|1|AUTO_4-USA|223|ICAO-K3A6|1.5|N-Normal|1|AUTO_4-USA|223|ICAO-K3A6|||||||||||||49|Derived||AUTO_4-USA|223|ICAO-K3A6|||||||||||||||||||||||||||||||||||||||||||||||||||||||||||||||||||||||||1014.6||1|AUTO_4-USA|223|ICAO-K3A6|||||||||||||||||||||||||||||||||||||||||||MET069METAR K3A6 170910Z AUTO 16003KT 20/09 A2996 RMK AO1 SLP146 T02010087;||A||223|ICAO-K3A6
USI0000K3A6|NEWHALL|2011|08|17|09|30|34.3700|-118.5700|427.0|20.0||1|AUTO_4-USA|223|ICAO-K3A6|8.0||1|AUTO_4-USA|223|ICAO-K3A6|||||||1014.8||1|AUTO_4-USA|223|ICAO-K3A6|160|N-Normal|1|AUTO_4-USA|223|ICAO-K3A6|1.0|N-Normal|1|AUTO_4-USA|223|ICAO-K3A6|||||||||||||46|Derived||AUTO_4-USA|223|ICAO-K3A6|||||||||||||||||||||||||||||||||||||||||||||||||||||||||||||||||||||||||1014.6||1|AUTO_4-USA|223|ICAO-K3A6|||||||||||||||||||||||||||||||||||||||||||MET069METAR K3A6 170930Z AUTO 16002KT 20/08 A2996 RMK AO1 SLP148 T02000083;||A||223|ICAO-K3A6
USI0000K3A6|NEWHALL|2011|08|17|09|50|34.3700|-118.5700|427.0|20.0||1|AUTO_4-USA|223|ICAO-K3A6|8.0||1|AUTO_4-USA|223|ICAO-K3A6|||||||1014.8||1|AUTO_4-USA|223|ICAO-K3A6|160|N-Normal|1|AUTO_4-USA|223|ICAO-K3A6|1.0|N-Normal|1|AUTO_4-USA|223|ICAO-K3A6|||||||||||||46|Derived||AUTO_4-USA|223|ICAO-K3A6|||||||||||||||||||||||||||||||||||||||||||||||||||||||||||||||||||||||||1014.6||1|AUTO_4-USA|223|ICAO-K3A6|||||||||||||||||||||||||||||||||||||||||||MET069METAR K3A6 170950Z AUTO 16002KT 20/08 A2996 RMK AO1 SLP148 T01990078;||A||223|ICAO-K3A6
USI0000K3A6|NEWHALL|2011|08|17|10|10|34.3700|-118.5700|427.0|20.0||1|AUTO_4-USA|223|ICAO-K3A6|8.0||1|AUTO_4-USA|223|ICAO-K3A6|||||||1015.0||1|AUTO_4-USA|223|ICAO-K3A6|160|N-Normal|1|AUTO_4-USA|223|ICAO-K3A6|1.0|N-Normal|1|AUTO_4-USA|223|ICAO-K3A6|||||||||||||46|Derived||AUTO_4-USA|223|ICAO-K3A6|||||||||||||||||||||||||||||||||||||||||||||||||||||||||||||||||||||||||1014.9||1|AUTO_4-USA|223|ICAO-K3A6|||||||||||||||||||||||||||||||||||||||||||MET069METAR K3A6 171010Z AUTO 16002KT 20/08 A2997 RMK AO1 SLP150 T01960080;||A||223|ICAO-K3A6
USI0000K3A6|NEWHALL|2011|08|17|12|10|34.3700|-118.5700|427.0|19.0||1|AUTO_4-USA|223|ICAO-K3A6|7.0||1|AUTO_4-USA|223|ICAO-K3A6|||||||1015.0||1|AUTO_4-USA|223|ICAO-K3A6|160|N-Normal|1|AUTO_4-USA|223|ICAO-K3A6|1.5|N-Normal|1|AUTO_4-USA|223|ICAO-K3A6|||||||||||||46|Derived||AUTO_4-USA|223|ICAO-K3A6|||||||||||||||||||||||||||||||||||||||||||||||||||||||||||||||||||||||||1014.9||1|AUTO_4-USA|223|ICAO-K3A6|||||||||||||||||||||||||||||||||||||||||||MET069METAR K3A6 171210Z AUTO 16003KT 19/07 A2997 RMK AO1 SLP150 T01900072;||A||223|ICAO-K3A6
USI0000K3A6|NEWHALL|2011|08|17|13|50|34.3700|-118.5700|427.0|21.0||1|AUTO_4-USA|223|ICAO-K3A6|4.0||1|AUTO_4-USA|223|ICAO-K3A6|||||||1015.9||1|AUTO_4-USA|223|ICAO-K3A6|160|N-Normal|1|AUTO_4-USA|223|ICAO-K3A6|1.5|N-Normal|1|AUTO_4-USA|223|ICAO-K3A6|||||||||||||33|Derived||AUTO_4-USA|223|ICAO-K3A6|||||||||||||||||||||||||||||||||||||||||||||||||||||||||||||||||||||||||1015.6||1|AUTO_4-USA|223|ICAO-K3A6|||||||||||||||||||||||||||||||||||||||||||MET069METAR K3A6 171350Z AUTO 16003KT 21/04 A2999 RMK AO1 SLP159 T02060042;||A||223|ICAO-K3A6
USI0000K3A6|NEWHALL|2011|08|17|14|10|34.3700|-118.5700|427.0|22.0||1|AUTO_4-USA|223|ICAO-K3A6|5.0||1|AUTO_4-USA|223|ICAO-K3A6|||||||1016.2||1|AUTO_4-USA|223|ICAO-K3A6|160|N-Normal|1|AUTO_4-USA|223|ICAO-K3A6|1.0|N-Normal|1|AUTO_4-USA|223|ICAO-K3A6|||||||||||||33|Derived||AUTO_4-USA|223|ICAO-K3A6|||||||||||||||||||||||||||||||||||||||||||||||||||||||||||||||||||||||||1015.9||1|AUTO_4-USA|223|ICAO-K3A6|0.0|4-Steady;-|1|AUTO_4-USA|223|ICAO-K3A6|||||||||||||||||||||||||||||||||||||MET075METAR K3A6 171410Z AUTO 16002KT 22/05 A3000 RMK AO1 SLP162 T02220047 54000;||A||223|ICAO-K3A6
USI0000K3A6|NEWHALL|2011|08|17|14|30|34.3700|-118.5700|427.0|23.0||1|AUTO_4-USA|223|ICAO-K3A6|6.0||1|AUTO_4-USA|223|ICAO-K3A6|||||||1016.2||1|AUTO_4-USA|223|ICAO-K3A6|160|N-Normal|1|AUTO_4-USA|223|ICAO-K3A6|0.5|N-Normal|1|AUTO_4-USA|223|ICAO-K3A6|||||||||||||33|Derived||AUTO_4-USA|223|ICAO-K3A6|||||||||||||||||||||||||||||||||||||||||||||||||||||||||||||||||||||||||1015.9||1|AUTO_4-USA|223|ICAO-K3A6|0.0|4-Steady;-|1|AUTO_4-USA|223|ICAO-K3A6|||||||||||||||||||||||||||||||||||||MET075METAR K3A6 171430Z AUTO 16001KT 23/06 A3000 RMK AO1 SLP162 T02340057 54000;||A||223|ICAO-K3A6
USI0000K3A6|NEWHALL|2011|08|17|14|50|34.3700|-118.5700|427.0|26.0||1|AUTO_4-USA|223|ICAO-K3A6|7.0||1|AUTO_4-USA|223|ICAO-K3A6|||||||1016.2||1|AUTO_4-USA|223|ICAO-K3A6|160|N-Normal|1|AUTO_4-USA|223|ICAO-K3A6|0.5|N-Normal|1|AUTO_4-USA|223|ICAO-K3A6|||||||||||||30|Derived||AUTO_4-USA|223|ICAO-K3A6|||||||||||||||||||||||||||||||||||||||||||||||||||||||||||||||||||||||||1015.9||1|AUTO_4-USA|223|ICAO-K3A6|0.0|4-Steady;-|1|AUTO_4-USA|223|ICAO-K3A6|||||||||||||||||||||||||||||||||||||MET075METAR K3A6 171450Z AUTO 16001KT 26/07 A3000 RMK AO1 SLP162 T02560072 54000;||A||223|ICAO-K3A6
USI0000K3A6|NEWHALL|2011|08|17|15|10|34.3700|-118.5700|427.0|28.0||1|AUTO_4-USA|223|ICAO-K3A6|10.0||1|AUTO_4-USA|223|ICAO-K3A6|||||||1016.5||1|AUTO_4-USA|223|ICAO-K3A6|160|N-Normal|1|AUTO_4-USA|223|ICAO-K3A6|0.5|N-Normal|1|AUTO_4-USA|223|ICAO-K3A6|||||||||||||32|Derived||AUTO_4-USA|223|ICAO-K3A6|||||||||||||||||||||||||||||||||||||||||||||||||||||||||||||||||||||||||1016.3||1|AUTO_4-USA|223|ICAO-K3A6|||||||||||||||||||||||||||||||||||||||||||MET069METAR K3A6 171510Z AUTO 16001KT 28/10 A3001 RMK AO1 SLP165 T02770099;||A||223|ICAO-K3A6
USI0000K3A6|NEWHALL|2011|08|17|15|30|34.3700|-118.5700|427.0|27.0||1|AUTO_4-USA|223|ICAO-K3A6|9.0||1|AUTO_4-USA|223|ICAO-K3A6|||||||1016.5||1|AUTO_4-USA|223|ICAO-K3A6|160|N-Normal|1|AUTO_4-USA|223|ICAO-K3A6|0.5|N-Normal|1|AUTO_4-USA|223|ICAO-K3A6|||||||||||||32|Derived||AUTO_4-USA|223|ICAO-K3A6|||||||||||||||||||||||||||||||||||||||||||||||||||||||||||||||||||||||||1016.3||1|AUTO_4-USA|223|ICAO-K3A6|||||||||||||||||||||||||||||||||||||||||||MET069METAR K3A6 171530Z AUTO 16001KT 27/09 A3001 RMK AO1 SLP165 T02710094;||A||223|ICAO-K3A6
USI0000K3A6|NEWHALL|2011|08|17|15|50|34.3700|-118.5700|427.0|30.0||1|AUTO_4-USA|223|ICAO-K3A6|9.0||1|AUTO_4-USA|223|ICAO-K3A6|||||||1016.5||1|AUTO_4-USA|223|ICAO-K3A6|160|N-Normal|1|AUTO_4-USA|223|ICAO-K3A6|0.5|N-Normal|1|AUTO_4-USA|223|ICAO-K3A6|||||||||||||27|Derived||AUTO_4-USA|223|ICAO-K3A6|||||||||||||||||||||||||||||||||||||||||||||||||||||||||||||||||||||||||1016.3||1|AUTO_4-USA|223|ICAO-K3A6|||||||||||||||||||||||||||||||||||||||||||MET069METAR K3A6 171550Z AUTO 16001KT 30/09 A3001 RMK AO1 SLP165 T02980093;||A||223|ICAO-K3A6
USI0000K3A6|NEWHALL|2011|08|17|16|10|34.3700|-118.5700|427.0|31.0||1|AUTO_4-USA|223|ICAO-K3A6|9.0||1|AUTO_4-USA|223|ICAO-K3A6|||||||1016.4||1|AUTO_4-USA|223|ICAO-K3A6|160|N-Normal|1|AUTO_4-USA|223|ICAO-K3A6|0.5|N-Normal|1|AUTO_4-USA|223|ICAO-K3A6|||||||||||||25|Derived||AUTO_4-USA|223|ICAO-K3A6|||||||||||||||||||||||||||||||||||||||||||||||||||||||||||||||||||||||||1016.3||1|AUTO_4-USA|223|ICAO-K3A6|||||||||||||||||||||||||||||||||||||||||||MET069METAR K3A6 171610Z AUTO 16001KT 31/09 A3001 RMK AO1 SLP164 T03100086;||A||223|ICAO-K3A6
USI0000K3A6|NEWHALL|2011|08|17|16|30|34.3700|-118.5700|427.0|32.0||1|AUTO_4-USA|223|ICAO-K3A6|10.0||1|AUTO_4-USA|223|ICAO-K3A6|||||||1016.2||1|AUTO_4-USA|223|ICAO-K3A6|160|N-Normal|1|AUTO_4-USA|223|ICAO-K3A6|1.0|N-Normal|1|AUTO_4-USA|223|ICAO-K3A6|||||||||||||26|Derived||AUTO_4-USA|223|ICAO-K3A6|||||||||||||||||||||||||||||||||||||||||||||||||||||||||||||||||||||||||1016.3||1|AUTO_4-USA|223|ICAO-K3A6|||||||||||||||||||||||||||||||||||||||||||MET069METAR K3A6 171630Z AUTO 16002KT 32/10 A3001 RMK AO1 SLP162 T03180099;||A||223|ICAO-K3A6
USI0000K3A6|NEWHALL|2011|08|17|16|50|34.3700|-118.5700|427.0|33.0||1|AUTO_4-USA|223|ICAO-K3A6|9.0||1|AUTO_4-USA|223|ICAO-K3A6|||||||1016.0||1|AUTO_4-USA|223|ICAO-K3A6|160|N-Normal|1|AUTO_4-USA|223|ICAO-K3A6|0.5|N-Normal|1|AUTO_4-USA|223|ICAO-K3A6|||||||||||||23|Derived||AUTO_4-USA|223|ICAO-K3A6|||||||||||||||||||||||||||||||||||||||||||||||||||||||||||||||||||||||||1016.3||1|AUTO_4-USA|223|ICAO-K3A6|||||||||||||||||||||||||||||||||||||||||||MET069METAR K3A6 171650Z AUTO 16001KT 33/09 A3001 RMK AO1 SLP160 T03330093;||A||223|ICAO-K3A6
USI0000K3A6|NEWHALL|2011|08|17|17|10|34.3700|-118.5700|427.0|34.0||1|AUTO_4-USA|223|ICAO-K3A6|9.0||1|AUTO_4-USA|223|ICAO-K3A6|||||||1015.9||1|AUTO_4-USA|223|ICAO-K3A6|160|N-Normal|1|AUTO_4-USA|223|ICAO-K3A6|1.0|N-Normal|1|AUTO_4-USA|223|ICAO-K3A6|||||||||||||21|Derived||AUTO_4-USA|223|ICAO-K3A6|||||||||||||||||||||||||||||||||||||||||||||||||||||||||||||||||||||||||1016.3||1|AUTO_4-USA|223|ICAO-K3A6|0.3|2-Incr-(st|1|AUTO_4-USA|223|ICAO-K3A6|||||||||||||||||||||||||||||||||||||MET087METAR K3A6 171710Z AUTO 16002KT 34/09 A3001 RMK AO1 SLP159 T03400092 10340 20186 52003;||A||223|ICAO-K3A6
USI0000K3A6|NEWHALL|2011|08|17|17|30|34.3700|-118.5700|427.0|34.0||1|AUTO_4-USA|223|ICAO-K3A6|9.0||1|AUTO_4-USA|223|ICAO-K3A6|||||||1015.8||1|AUTO_4-USA|223|ICAO-K3A6|160|N-Normal|1|AUTO_4-USA|223|ICAO-K3A6|1.0|N-Normal|1|AUTO_4-USA|223|ICAO-K3A6|||||||||||||21|Derived||AUTO_4-USA|223|ICAO-K3A6|||||||||||||||||||||||||||||||||||||||||||||||||||||||||||||||||||||||||1016.3||1|AUTO_4-USA|223|ICAO-K3A6|0.3|1-Incr-the|1|AUTO_4-USA|223|ICAO-K3A6|||||||||||||||||||||||||||||||||||||MET087METAR K3A6 171730Z AUTO 16002KT 34/09 A3001 RMK AO1 SLP158 T03450090 10345 20186 51003;||A||223|ICAO-K3A6
USI0000K3A6|NEWHALL|2011|08|17|17|50|34.3700|-118.5700|427.0|36.0||1|AUTO_4-USA|223|ICAO-K3A6|8.0||1|AUTO_4-USA|223|ICAO-K3A6|||||||1015.7||1|AUTO_4-USA|223|ICAO-K3A6|160|N-Normal|1|AUTO_4-USA|223|ICAO-K3A6|0.5|N-Normal|1|AUTO_4-USA|223|ICAO-K3A6|||||||||||||18|Derived||AUTO_4-USA|223|ICAO-K3A6|||||||||||||||||||||||||||||||||||||||||||||||||||||||||||||||||||||||||1016.3||1|AUTO_4-USA|223|ICAO-K3A6|0.3|0-Incr-the|1|AUTO_4-USA|223|ICAO-K3A6|||||||||||||||||||||||||||||||||||||MET087METAR K3A6 171750Z AUTO 16001KT 36/08 A3001 RMK AO1 SLP157 T03550083 10355 20186 50003;||A||223|ICAO-K3A6
USI0000K3A6|NEWHALL|2011|08|17|18|10|34.3700|-118.5700|427.0|36.0||1|AUTO_4-USA|223|ICAO-K3A6|8.0||1|AUTO_4-USA|223|ICAO-K3A6|||||||1015.5||1|AUTO_4-USA|223|ICAO-K3A6|160|N-Normal|1|AUTO_4-USA|223|ICAO-K3A6|1.5|N-Normal|1|AUTO_4-USA|223|ICAO-K3A6|||||||||||||18|Derived||AUTO_4-USA|223|ICAO-K3A6|||||||||||||||||||||||||||||||||||||||||||||||||||||||||||||||||||||||||1015.9||1|AUTO_4-USA|223|ICAO-K3A6|||||||||||||||||||||||||||||||||||||||||||MET069METAR K3A6 171810Z AUTO 16003KT 36/08 A3000 RMK AO1 SLP155 T03640082;||A||223|ICAO-K3A6
USI0000K3A6|NEWHALL|2011|08|17|18|30|34.3700|-118.5700|427.0|37.0||1|AUTO_4-USA|223|ICAO-K3A6|8.0||1|AUTO_4-USA|223|ICAO-K3A6|||||||1014.9||1|AUTO_4-USA|223|ICAO-K3A6|160|N-Normal|1|AUTO_4-USA|223|ICAO-K3A6|1.5|N-Normal|1|AUTO_4-USA|223|ICAO-K3A6|||||||||||||17|Derived||AUTO_4-USA|223|ICAO-K3A6|||||||||||||||||||||||||||||||||||||||||||||||||||||||||||||||||||||||||1015.6||1|AUTO_4-USA|223|ICAO-K3A6|||||||||||||||||||||||||||||||||||||||||||MET069METAR K3A6 171830Z AUTO 16003KT 37/08 A2999 RMK AO1 SLP149 T03660084;||A||223|ICAO-K3A6
USI0000K3A6|NEWHALL|2011|08|17|18|50|34.3700|-118.5700|427.0|36.0||1|AUTO_4-USA|223|ICAO-K3A6|7.0||1|AUTO_4-USA|223|ICAO-K3A6|||||||1014.8||1|AUTO_4-USA|223|ICAO-K3A6|160|N-Normal|1|AUTO_4-USA|223|ICAO-K3A6|1.0|N-Normal|1|AUTO_4-USA|223|ICAO-K3A6|||||||||||||17|Derived||AUTO_4-USA|223|ICAO-K3A6|||||||||||||||||||||||||||||||||||||||||||||||||||||||||||||||||||||||||1015.6||1|AUTO_4-USA|223|ICAO-K3A6|||||||||||||||||||||||||||||||||||||||||||MET069METAR K3A6 171850Z AUTO 16002KT 36/07 A2999 RMK AO1 SLP148 T03640074;||A||223|ICAO-K3A6
USI0000K3A6|NEWHALL|2011|08|18|03|50|34.3700|-118.5700|427.0|26.0||1|AUTO_4-USA|223|ICAO-K3A6|11.0||1|AUTO_4-USA|223|ICAO-K3A6|||||||1011.7||1|AUTO_4-USA|223|ICAO-K3A6|160|N-Normal|1|AUTO_4-USA|223|ICAO-K3A6|1.0|N-Normal|1|AUTO_4-USA|223|ICAO-K3A6|||||||||||||39|Derived||AUTO_4-USA|223|ICAO-K3A6|||||||||||||||||||||||||||||||||||||||||||||||||||||||||||||||||||||||||1014.2||1|AUTO_4-USA|223|ICAO-K3A6|||||||||||||||||||||||||||||||||||||||||||MET069METAR K3A6 180350Z AUTO 16002KT 26/11 A2995 RMK AO1 SLP117 T02550112;||A||223|ICAO-K3A6
USI0000K3A6|NEWHALL|2011|08|18|04|10|34.3700|-118.5700|427.0|25.0||1|AUTO_4-USA|223|ICAO-K3A6|12.0||1|AUTO_4-USA|223|ICAO-K3A6|||||||1011.9||1|AUTO_4-USA|223|ICAO-K3A6|160|N-Normal|1|AUTO_4-USA|223|ICAO-K3A6|1.5|N-Normal|1|AUTO_4-USA|223|ICAO-K3A6|||||||||||||44|Derived||AUTO_4-USA|223|ICAO-K3A6|||||||||||||||||||||||||||||||||||||||||||||||||||||||||||||||||||||||||1014.2||1|AUTO_4-USA|223|ICAO-K3A6|||||||||||||||||||||||||||||||||||||||||||MET069METAR K3A6 180410Z AUTO 16003KT 25/12 A2995 RMK AO1 SLP119 T02540119;||A||223|ICAO-K3A6
USI0000K3A6|NEWHALL|2011|08|18|04|30|34.3700|-118.5700|427.0|25.0||1|AUTO_4-USA|223|ICAO-K3A6|12.0||1|AUTO_4-USA|223|ICAO-K3A6|||||||1012.3||1|AUTO_4-USA|223|ICAO-K3A6|160|N-Normal|1|AUTO_4-USA|223|ICAO-K3A6|1.5|N-Normal|1|AUTO_4-USA|223|ICAO-K3A6|||||||||||||44|Derived||AUTO_4-USA|223|ICAO-K3A6|||||||||||||||||||||||||||||||||||||||||||||||||||||||||||||||||||||||||1014.6||1|AUTO_4-USA|223|ICAO-K3A6|||||||||||||||||||||||||||||||||||||||||||MET069METAR K3A6 180430Z AUTO 16003KT 25/12 A2996 RMK AO1 SLP123 T02490121;||A||223|ICAO-K3A6
USI0000K3A6|NEWHALL|2011|08|18|04|50|34.3700|-118.5700|427.0|24.0||1|AUTO_4-USA|223|ICAO-K3A6|12.0||1|AUTO_4-USA|223|ICAO-K3A6|||||||1012.8||1|AUTO_4-USA|223|ICAO-K3A6|160|N-Normal|1|AUTO_4-USA|223|ICAO-K3A6|2.1|N-Normal|1|AUTO_4-USA|223|ICAO-K3A6|||||||||||||47|Derived||AUTO_4-USA|223|ICAO-K3A6|||||||||||||||||||||||||||||||||||||||||||||||||||||||||||||||||||||||||1014.9||1|AUTO_4-USA|223|ICAO-K3A6|||||||||||||||||||||||||||||||||||||||||||MET069METAR K3A6 180450Z AUTO 16004KT 24/12 A2997 RMK AO1 SLP128 T02410120;||A||223|ICAO-K3A6
USI0000K3A6|NEWHALL|2011|08|18|05|10|34.3700|-118.5700|427.0|24.0||1|AUTO_4-USA|223|ICAO-K3A6|12.0||1|AUTO_4-USA|223|ICAO-K3A6|||||||1013.0||1|AUTO_4-USA|223|ICAO-K3A6|160|N-Normal|1|AUTO_4-USA|223|ICAO-K3A6|0.5|N-Normal|1|AUTO_4-USA|223|ICAO-K3A6|||||||||||||47|Derived||AUTO_4-USA|223|ICAO-K3A6|||||||||||||||||||||||||||||||||||||||||||||||||||||||||||||||||||||||||1014.9||1|AUTO_4-USA|223|ICAO-K3A6|0.0|4-Steady;-|1|AUTO_4-USA|223|ICAO-K3A6|||||||||||||||||||||||||||||||||||||MET087METAR K3A6 180510Z AUTO 16001KT 24/12 A2997 RMK AO1 SLP130 T02390115 10372 20239 54000;||A||223|ICAO-K3A6
USI0000K3A6|NEWHALL|2011|08|18|05|30|34.3700|-118.5700|427.0|24.0||1|AUTO_4-USA|223|ICAO-K3A6|12.0||1|AUTO_4-USA|223|ICAO-K3A6|||||||1013.2||1|AUTO_4-USA|223|ICAO-K3A6|160|N-Normal|1|AUTO_4-USA|223|ICAO-K3A6|1.0|N-Normal|1|AUTO_4-USA|223|ICAO-K3A6|||||||||||||47|Derived||AUTO_4-USA|223|ICAO-K3A6|||||||||||||||||||||||||||||||||||||||||||||||||||||||||||||||||||||||||1014.9||1|AUTO_4-USA|223|ICAO-K3A6|0.0|4-Steady;-|1|AUTO_4-USA|223|ICAO-K3A6|||||||||||||||||||||||||||||||||||||MET087METAR K3A6 180530Z AUTO 16002KT 24/12 A2997 RMK AO1 SLP132 T02410120 10372 20238 54000;||A||223|ICAO-K3A6
USI0000K3A6|NEWHALL|2011|08|18|05|50|34.3700|-118.5700|427.0|24.0||1|AUTO_4-USA|223|ICAO-K3A6|12.0||1|AUTO_4-USA|223|ICAO-K3A6|||||||1013.4||1|AUTO_4-USA|223|ICAO-K3A6|160|N-Normal|1|AUTO_4-USA|223|ICAO-K3A6|1.0|N-Normal|1|AUTO_4-USA|223|ICAO-K3A6|||||||||||||47|Derived||AUTO_4-USA|223|ICAO-K3A6|||||||||||||||||||||||||||||||||||||||||||||||||||||||||||||||||||||||||1014.9||1|AUTO_4-USA|223|ICAO-K3A6|0.0|4-Steady;-|1|AUTO_4-USA|223|ICAO-K3A6|||||||||||||||||||||||||||||||||||||MET087METAR K3A6 180550Z AUTO 16002KT 24/12 A2997 RMK AO1 SLP134 T02380118 10372 20238 54000;||A||223|ICAO-K3A6
USI0000K3A6|NEWHALL|2011|08|18|08|50|34.3700|-118.5700|427.0|23.0||1|AUTO_4-USA|223|ICAO-K3A6|9.0||1|AUTO_4-USA|223|ICAO-K3A6|||||||1013.6||1|AUTO_4-USA|223|ICAO-K3A6|160|N-Normal|1|AUTO_4-USA|223|ICAO-K3A6|0.5|N-Normal|1|AUTO_4-USA|223|ICAO-K3A6|||||||||||||41|Derived||AUTO_4-USA|223|ICAO-K3A6|||||||||||||||||||||||||||||||||||||||||||||||||||||||||||||||||||||||||1014.2||1|AUTO_4-USA|223|ICAO-K3A6|0.0|4-Steady;-|1|AUTO_4-USA|223|ICAO-K3A6|||||||||||||||||||||||||||||||||||||MET075METAR K3A6 180850Z AUTO 16001KT 23/09 A2995 RMK AO1 SLP136 T02310091 54000;||A||223|ICAO-K3A6
USI0000K3A6|NEWHALL|2011|08|18|09|10|34.3700|-118.5700|427.0|22.0||1|AUTO_4-USA|223|ICAO-K3A6|8.0||1|AUTO_4-USA|223|ICAO-K3A6|||||||1013.6||1|AUTO_4-USA|223|ICAO-K3A6|160|N-Normal|1|AUTO_4-USA|223|ICAO-K3A6|1.0|N-Normal|1|AUTO_4-USA|223|ICAO-K3A6|||||||||||||41|Derived||AUTO_4-USA|223|ICAO-K3A6|||||||||||||||||||||||||||||||||||||||||||||||||||||||||||||||||||||||||1014.2||1|AUTO_4-USA|223|ICAO-K3A6|||||||||||||||||||||||||||||||||||||||||||MET069METAR K3A6 180910Z AUTO 16002KT 22/08 A2995 RMK AO1 SLP136 T02230084;||A||223|ICAO-K3A6
USI0000K3A6|NEWHALL|2011|08|18|09|30|34.3700|-118.5700|427.0|22.0||1|AUTO_4-USA|223|ICAO-K3A6|9.0||1|AUTO_4-USA|223|ICAO-K3A6|||||||1013.4||1|AUTO_4-USA|223|ICAO-K3A6|160|N-Normal|1|AUTO_4-USA|223|ICAO-K3A6|1.0|N-Normal|1|AUTO_4-USA|223|ICAO-K3A6|||||||||||||44|Derived||AUTO_4-USA|223|ICAO-K3A6|||||||||||||||||||||||||||||||||||||||||||||||||||||||||||||||||||||||||1013.9||1|AUTO_4-USA|223|ICAO-K3A6|||||||||||||||||||||||||||||||||||||||||||MET069METAR K3A6 180930Z AUTO 16002KT 22/09 A2994 RMK AO1 SLP134 T02220090;||A||223|ICAO-K3A6
USI0000K3A6|NEWHALL|2011|08|18|09|50|34.3700|-118.5700|427.0|23.0||1|AUTO_4-USA|223|ICAO-K3A6|8.0||1|AUTO_4-USA|223|ICAO-K3A6|||||||1013.5||1|AUTO_4-USA|223|ICAO-K3A6|160|N-Normal|1|AUTO_4-USA|223|ICAO-K3A6|0.5|N-Normal|1|AUTO_4-USA|223|ICAO-K3A6|||||||||||||38|Derived||AUTO_4-USA|223|ICAO-K3A6|||||||||||||||||||||||||||||||||||||||||||||||||||||||||||||||||||||||||1013.9||1|AUTO_4-USA|223|ICAO-K3A6|||||||||||||||||||||||||||||||||||||||||||MET069METAR K3A6 180950Z AUTO 16001KT 23/08 A2994 RMK AO1 SLP135 T02270076;||A||223|ICAO-K3A6
USI0000K3A6|NEWHALL|2011|08|18|10|10|34.3700|-118.5700|427.0|23.0||1|AUTO_4-USA|223|ICAO-K3A6|7.0||1|AUTO_4-USA|223|ICAO-K3A6|||||||1013.5||1|AUTO_4-USA|223|ICAO-K3A6|160|N-Normal|1|AUTO_4-USA|223|ICAO-K3A6|0.5|N-Normal|1|AUTO_4-USA|223|ICAO-K3A6|||||||||||||36|Derived||AUTO_4-USA|223|ICAO-K3A6|||||||||||||||||||||||||||||||||||||||||||||||||||||||||||||||||||||||||1013.9||1|AUTO_4-USA|223|ICAO-K3A6|||||||||||||||||||||||||||||||||||||||||||MET069METAR K3A6 181010Z AUTO 16001KT 23/07 A2994 RMK AO1 SLP135 T02260071;||A||223|ICAO-K3A6
USI0000K3A6|NEWHALL|2011|08|18|13|50|34.3700|-118.5700|427.0|20.0||1|AUTO_4-USA|223|ICAO-K3A6|8.0||1|AUTO_4-USA|223|ICAO-K3A6|||||||1014.3||1|AUTO_4-USA|223|ICAO-K3A6|160|N-Normal|1|AUTO_4-USA|223|ICAO-K3A6|1.0|N-Normal|1|AUTO_4-USA|223|ICAO-K3A6|||||||||||||46|Derived||AUTO_4-USA|223|ICAO-K3A6|||||||||||||||||||||||||||||||||||||||||||||||||||||||||||||||||||||||||1014.6||1|AUTO_4-USA|223|ICAO-K3A6|||||||||||||||||||||||||||||||||||||||||||MET069METAR K3A6 181350Z AUTO 16002KT 20/08 A2996 RMK AO1 SLP143 T01980084;||A||223|ICAO-K3A6
USI0000K3A6|NEWHALL|2011|08|18|14|10|34.3700|-118.5700|427.0|21.0||1|AUTO_4-USA|223|ICAO-K3A6|9.0||1|AUTO_4-USA|223|ICAO-K3A6|||||||1014.5||1|AUTO_4-USA|223|ICAO-K3A6|160|N-Normal|1|AUTO_4-USA|223|ICAO-K3A6|1.0|N-Normal|1|AUTO_4-USA|223|ICAO-K3A6|||||||||||||46|Derived||AUTO_4-USA|223|ICAO-K3A6|||||||||||||||||||||||||||||||||||||||||||||||||||||||||||||||||||||||||1014.9||1|AUTO_4-USA|223|ICAO-K3A6|0.0|4-Steady;-|1|AUTO_4-USA|223|ICAO-K3A6|||||||||||||||||||||||||||||||||||||MET075METAR K3A6 181410Z AUTO 16002KT 21/09 A2997 RMK AO1 SLP145 T02110087 54000;||A||223|ICAO-K3A6
USI0000K3A6|NEWHALL|2011|08|18|14|30|34.3700|-118.5700|427.0|22.0||1|AUTO_4-USA|223|ICAO-K3A6|9.0||1|AUTO_4-USA|223|ICAO-K3A6|||||||1014.8||1|AUTO_4-USA|223|ICAO-K3A6|160|N-Normal|1|AUTO_4-USA|223|ICAO-K3A6|1.0|N-Normal|1|AUTO_4-USA|223|ICAO-K3A6|||||||||||||44|Derived||AUTO_4-USA|223|ICAO-K3A6|||||||||||||||||||||||||||||||||||||||||||||||||||||||||||||||||||||||||1015.2||1|AUTO_4-USA|223|ICAO-K3A6|0.0|4-Steady;-|1|AUTO_4-USA|223|ICAO-K3A6|||||||||||||||||||||||||||||||||||||MET075METAR K3A6 181430Z AUTO 16002KT 22/09 A2998 RMK AO1 SLP148 T02180093 54000;||A||223|ICAO-K3A6
USI0000K3A6|NEWHALL|2011|08|18|14|50|34.3700|-118.5700|427.0|23.0||1|AUTO_4-USA|223|ICAO-K3A6|10.0||1|AUTO_4-USA|223|ICAO-K3A6|||||||1014.8||1|AUTO_4-USA|223|ICAO-K3A6|160|N-Normal|1|AUTO_4-USA|223|ICAO-K3A6|1.0|N-Normal|1|AUTO_4-USA|223|ICAO-K3A6|||||||||||||44|Derived||AUTO_4-USA|223|ICAO-K3A6|||||||||||||||||||||||||||||||||||||||||||||||||||||||||||||||||||||||||1015.2||1|AUTO_4-USA|223|ICAO-K3A6|0.0|4-Steady;-|1|AUTO_4-USA|223|ICAO-K3A6|||||||||||||||||||||||||||||||||||||MET075METAR K3A6 181450Z AUTO 16002KT 23/10 A2998 RMK AO1 SLP148 T02330096 54000;||A||223|ICAO-K3A6
USI0000K3A6|NEWHALL|2011|08|18|15|10|34.3700|-118.5700|427.0|25.0||1|AUTO_4-USA|223|ICAO-K3A6|9.0||1|AUTO_4-USA|223|ICAO-K3A6|||||||1014.8||1|AUTO_4-USA|223|ICAO-K3A6|160|N-Normal|1|AUTO_4-USA|223|ICAO-K3A6|0.5|N-Normal|1|AUTO_4-USA|223|ICAO-K3A6|||||||||||||36|Derived||AUTO_4-USA|223|ICAO-K3A6|||||||||||||||||||||||||||||||||||||||||||||||||||||||||||||||||||||||||1015.2||1|AUTO_4-USA|223|ICAO-K3A6|||||||||||||||||||||||||||||||||||||||||||MET069METAR K3A6 181510Z AUTO 16001KT 25/09 A2998 RMK AO1 SLP148 T02470089;||A||223|ICAO-K3A6
USI0000K3A6|NEWHALL|2011|08|18|15|30|34.3700|-118.5700|427.0|27.0||1|AUTO_4-USA|223|ICAO-K3A6|10.0||1|AUTO_4-USA|223|ICAO-K3A6|||||||1014.8||1|AUTO_4-USA|223|ICAO-K3A6|160|N-Normal|1|AUTO_4-USA|223|ICAO-K3A6|0.5|N-Normal|1|AUTO_4-USA|223|ICAO-K3A6|||||||||||||34|Derived||AUTO_4-USA|223|ICAO-K3A6|||||||||||||||||||||||||||||||||||||||||||||||||||||||||||||||||||||||||1015.2||1|AUTO_4-USA|223|ICAO-K3A6|||||||||||||||||||||||||||||||||||||||||||MET069METAR K3A6 181530Z AUTO 16001KT 27/10 A2998 RMK AO1 SLP148 T02680104;||A||223|ICAO-K3A6
USI0000K3A6|NEWHALL|2011|08|18|15|50|34.3700|-118.5700|427.0|28.0||1|AUTO_4-USA|223|ICAO-K3A6|12.0||1|AUTO_4-USA|223|ICAO-K3A6|||||||1014.8||1|AUTO_4-USA|223|ICAO-K3A6|160|N-Normal|1|AUTO_4-USA|223|ICAO-K3A6|0.5|N-Normal|1|AUTO_4-USA|223|ICAO-K3A6|||||||||||||37|Derived||AUTO_4-USA|223|ICAO-K3A6|||||||||||||||||||||||||||||||||||||||||||||||||||||||||||||||||||||||||1015.2||1|AUTO_4-USA|223|ICAO-K3A6|||||||||||||||||||||||||||||||||||||||||||MET069METAR K3A6 181550Z AUTO 16001KT 28/12 A2998 RMK AO1 SLP148 T02790118;||A||223|ICAO-K3A6
USI0000K3A6|NEWHALL|2011|08|18|16|10|34.3700|-118.5700|427.0|30.0||1|AUTO_4-USA|223|ICAO-K3A6|12.0||1|AUTO_4-USA|223|ICAO-K3A6|||||||1014.7||1|AUTO_4-USA|223|ICAO-K3A6|999|C-Calm|9|AUTO_4-USA|223|ICAO-K3A6|0.0|C-Calm|1|AUTO_4-USA|223|ICAO-K3A6|||||||||||||33|Derived||AUTO_4-USA|223|ICAO-K3A6|||||||||||||||||||||||||||||||||||||||||||||||||||||||||||||||||||||||||1015.2||1|AUTO_4-USA|223|ICAO-K3A6|||||||||||||||||||||||||||||||||||||||||||MET069METAR K3A6 181610Z AUTO 00000KT 30/12 A2998 RMK AO1 SLP147 T02970125;||A||223|ICAO-K3A6
USI0000K3A6|NEWHALL|2011|08|18|16|30|34.3700|-118.5700|427.0|32.0||1|AUTO_4-USA|223|ICAO-K3A6|10.0||1|AUTO_4-USA|223|ICAO-K3A6|||||||1014.7||1|AUTO_4-USA|223|ICAO-K3A6|160|N-Normal|1|AUTO_4-USA|223|ICAO-K3A6|0.5|N-Normal|1|AUTO_4-USA|223|ICAO-K3A6|||||||||||||26|Derived||AUTO_4-USA|223|ICAO-K3A6|||||||||||||||||||||||||||||||||||||||||||||||||||||||||||||||||||||||||1015.2||1|AUTO_4-USA|223|ICAO-K3A6|||||||||||||||||||||||||||||||||||||||||||MET069METAR K3A6 181630Z AUTO 16001KT 32/10 A2998 RMK AO1 SLP147 T03170098;||A||223|ICAO-K3A6
USI0000K3A6|NEWHALL|2011|08|18|16|50|34.3700|-118.5700|427.0|32.0||1|AUTO_4-USA|223|ICAO-K3A6|10.0||1|AUTO_4-USA|223|ICAO-K3A6|||||||1014.3||1|AUTO_4-USA|223|ICAO-K3A6|160|N-Normal|1|AUTO_4-USA|223|ICAO-K3A6|0.5|N-Normal|1|AUTO_4-USA|223|ICAO-K3A6|||||||||||||26|Derived||AUTO_4-USA|223|ICAO-K3A6|||||||||||||||||||||||||||||||||||||||||||||||||||||||||||||||||||||||||1014.9||1|AUTO_4-USA|223|ICAO-K3A6|||||||||||||||||||||||||||||||||||||||||||MET069METAR K3A6 181650Z AUTO 16001KT 32/10 A2997 RMK AO1 SLP143 T03240098;||A||223|ICAO-K3A6
USI0000K3A6|NEWHALL|2011|08|18|17|10|34.3700|-118.5700|427.0|33.0||1|AUTO_4-USA|223|ICAO-K3A6|10.0||1|AUTO_4-USA|223|ICAO-K3A6|||||||1014.2||1|AUTO_4-USA|223|ICAO-K3A6|160|N-Normal|1|AUTO_4-USA|223|ICAO-K3A6|1.0|N-Normal|1|AUTO_4-USA|223|ICAO-K3A6|||||||||||||24|Derived||AUTO_4-USA|223|ICAO-K3A6|||||||||||||||||||||||||||||||||||||||||||||||||||||||||||||||||||||||||1014.9||1|AUTO_4-USA|223|ICAO-K3A6|0.0|0-Incr-the|1|AUTO_4-USA|223|ICAO-K3A6|||||||||||||||||||||||||||||||||||||MET087METAR K3A6 181710Z AUTO 16002KT 33/10 A2997 RMK AO1 SLP142 T03280102 10329 20183 50000;||A||223|ICAO-K3A6
USI0000K3A6|NEWHALL|2011|08|18|17|30|34.3700|-118.5700|427.0|33.0||1|AUTO_4-USA|223|ICAO-K3A6|11.0||1|AUTO_4-USA|223|ICAO-K3A6|||||||1014.1||1|AUTO_4-USA|223|ICAO-K3A6|160|N-Normal|1|AUTO_4-USA|223|ICAO-K3A6|1.0|N-Normal|1|AUTO_4-USA|223|ICAO-K3A6|||||||||||||26|Derived||AUTO_4-USA|223|ICAO-K3A6|||||||||||||||||||||||||||||||||||||||||||||||||||||||||||||||||||||||||1014.9||1|AUTO_4-USA|223|ICAO-K3A6|-0.9|8-Steady-o|1|AUTO_4-USA|223|ICAO-K3A6|||||||||||||||||||||||||||||||||||||MET087METAR K3A6 181730Z AUTO 16002KT 33/11 A2997 RMK AO1 SLP141 T03280113 10329 20183 58009;||A||223|ICAO-K3A6
USI0000K3A6|NEWHALL|2011|08|18|17|50|34.3700|-118.5700|427.0|34.0||1|AUTO_4-USA|223|ICAO-K3A6|10.0||1|AUTO_4-USA|223|ICAO-K3A6|||||||1013.9||1|AUTO_4-USA|223|ICAO-K3A6|160|N-Normal|1|AUTO_4-USA|223|ICAO-K3A6|0.5|N-Normal|1|AUTO_4-USA|223|ICAO-K3A6|||||||||||||23|Derived||AUTO_4-USA|223|ICAO-K3A6|||||||||||||||||||||||||||||||||||||||||||||||||||||||||||||||||||||||||1014.9||1|AUTO_4-USA|223|ICAO-K3A6|-0.9|8-Steady-o|1|AUTO_4-USA|223|ICAO-K3A6|||||||||||||||||||||||||||||||||||||MET087METAR K3A6 181750Z AUTO 16001KT 34/10 A2997 RMK AO1 SLP139 T03440102 10344 20183 58009;||A||223|ICAO-K3A6
USI0000K3A6|NEWHALL|2011|08|18|18|10|34.3700|-118.5700|427.0|34.0||1|AUTO_4-USA|223|ICAO-K3A6|11.0||1|AUTO_4-USA|223|ICAO-K3A6|||||||1013.5||1|AUTO_4-USA|223|ICAO-K3A6|160|N-Normal|1|AUTO_4-USA|223|ICAO-K3A6|2.6|N-Normal|1|AUTO_4-USA|223|ICAO-K3A6|||||||||||||24|Derived||AUTO_4-USA|223|ICAO-K3A6|||||||||||||||||||||||||||||||||||||||||||||||||||||||||||||||||||||||||1014.6||1|AUTO_4-USA|223|ICAO-K3A6|||||||||||||||||||||||||||||||||||||||||||MET069METAR K3A6 181810Z AUTO 16005KT 34/11 A2996 RMK AO1 SLP135 T03400105;||A||223|ICAO-K3A6
USI0000K3A6|NEWHALL|2011|08|18|18|30|34.3700|-118.5700|427.0|33.0||1|AUTO_4-USA|223|ICAO-K3A6|12.0||1|AUTO_4-USA|223|ICAO-K3A6|||||||1013.5||1|AUTO_4-USA|223|ICAO-K3A6|160|N-Normal|1|AUTO_4-USA|223|ICAO-K3A6|2.6|N-Normal|1|AUTO_4-USA|223|ICAO-K3A6|||||||||||||28|Derived||AUTO_4-USA|223|ICAO-K3A6|||||||||||||||||||||||||||||||||||||||||||||||||||||||||||||||||||||||||1014.6||1|AUTO_4-USA|223|ICAO-K3A6|||||||||||||||||||||||||||||||||||||||||||MET069METAR K3A6 181830Z AUTO 16005KT 33/12 A2996 RMK AO1 SLP135 T03330117;||A||223|ICAO-K3A6
USI0000K3A6|NEWHALL|2011|08|18|18|50|34.3700|-118.5700|427.0|34.0||1|AUTO_4-USA|223|ICAO-K3A6|14.0||1|AUTO_4-USA|223|ICAO-K3A6|||||||1013.2||1|AUTO_4-USA|223|ICAO-K3A6|160|N-Normal|1|AUTO_4-USA|223|ICAO-K3A6|1.5|N-Normal|1|AUTO_4-USA|223|ICAO-K3A6|||||||||||||30|Derived||AUTO_4-USA|223|ICAO-K3A6|||||||||||||||||||||||||||||||||||||||||||||||||||||||||||||||||||||||||1014.6||1|AUTO_4-USA|223|ICAO-K3A6|||||||||||||||||||||||||||||||||||||||||||MET069METAR K3A6 181850Z AUTO 16003KT 34/14 A2996 RMK AO1 SLP132 T03440143;||A||223|ICAO-K3A6
USI0000K3A6|NEWHALL|2011|08|18|19|10|34.3700|-118.5700|427.0|35.0||1|AUTO_4-USA|223|ICAO-K3A6|14.0||1|AUTO_4-USA|223|ICAO-K3A6|||||||1013.2||1|AUTO_4-USA|223|ICAO-K3A6|160|N-Normal|1|AUTO_4-USA|223|ICAO-K3A6|1.5|N-Normal|1|AUTO_4-USA|223|ICAO-K3A6|||||||||||||28|Derived||AUTO_4-USA|223|ICAO-K3A6|||||||||||||||||||||||||||||||||||||||||||||||||||||||||||||||||||||||||1014.6||1|AUTO_4-USA|223|ICAO-K3A6|||||||||||||||||||||||||||||||||||||||||||MET069METAR K3A6 181910Z AUTO 16003KT 35/14 A2996 RMK AO1 SLP132 T03490136;||A||223|ICAO-K3A6
USI0000K3A6|NEWHALL|2011|08|18|19|30|34.3700|-118.5700|427.0|35.0||1|AUTO_4-USA|223|ICAO-K3A6|13.0||1|AUTO_4-USA|223|ICAO-K3A6|||||||1012.9||1|AUTO_4-USA|223|ICAO-K3A6|160|N-Normal|1|AUTO_4-USA|223|ICAO-K3A6|2.1|N-Normal|1|AUTO_4-USA|223|ICAO-K3A6|||||||||||||26|Derived||AUTO_4-USA|223|ICAO-K3A6|||||||||||||||||||||||||||||||||||||||||||||||||||||||||||||||||||||||||1014.2||1|AUTO_4-USA|223|ICAO-K3A6|||||||||||||||||||||||||||||||||||||||||||MET069METAR K3A6 181930Z AUTO 16004KT 35/13 A2995 RMK AO1 SLP129 T03540129;||A||223|ICAO-K3A6
USI0000K3A6|NEWHALL|2011|08|18|19|50|34.3700|-118.5700|427.0|35.0||1|AUTO_4-USA|223|ICAO-K3A6|12.0||1|AUTO_4-USA|223|ICAO-K3A6|||||||1012.5||1|AUTO_4-USA|223|ICAO-K3A6|160|N-Normal|1|AUTO_4-USA|223|ICAO-K3A6|2.1|N-Normal|1|AUTO_4-USA|223|ICAO-K3A6|||||||||||||25|Derived||AUTO_4-USA|223|ICAO-K3A6|||||||||||||||||||||||||||||||||||||||||||||||||||||||||||||||||||||||||1013.9||1|AUTO_4-USA|223|ICAO-K3A6|||||||||||||||||||||||||||||||||||||||||||MET069METAR K3A6 181950Z AUTO 16004KT 35/12 A2994 RMK AO1 SLP125 T03530122;||A||223|ICAO-K3A6
USI0000K3A6|NEWHALL|2011|08|19|00|10|34.3700|-118.5700|427.0|33.0||1|AUTO_4-USA|223|ICAO-K3A6|12.0||1|AUTO_4-USA|223|ICAO-K3A6|||||||1010.2||1|AUTO_4-USA|223|ICAO-K3A6|160|N-Normal|1|AUTO_4-USA|223|ICAO-K3A6|2.1|N-Normal|1|AUTO_4-USA|223|ICAO-K3A6|||||||||||||28|Derived||AUTO_4-USA|223|ICAO-K3A6|||||||||||||||||||||||||||||||||||||||||||||||||||||||||||||||||||||||||1012.2||1|AUTO_4-USA|223|ICAO-K3A6|||||||||||||||||||||||||||||||||||||||||||MET069METAR K3A6 190010Z AUTO 16004KT 33/12 A2989 RMK AO1 SLP102 T03330123;||A||223|ICAO-K3A6
USI0000K3A6|NEWHALL|2011|08|19|03|10|34.3700|-118.5700|427.0|24.0||1|AUTO_4-USA|223|ICAO-K3A6|10.0||1|AUTO_4-USA|223|ICAO-K3A6|||||||1010.0||1|AUTO_4-USA|223|ICAO-K3A6|160|N-Normal|1|AUTO_4-USA|223|ICAO-K3A6|1.0|N-Normal|1|AUTO_4-USA|223|ICAO-K3A6|6.2||1|AUTO_4-USA|223|ICAO-K3A6|||||||41|Derived||AUTO_4-USA|223|ICAO-K3A6|||||||||||||||||||||||||||||||||||||||||||||||||||||||||||||||||||||||||1012.2||1|AUTO_4-USA|223|ICAO-K3A6|||||||||||||||||||||||||||||||||||||||||||MET072METAR K3A6 190310Z AUTO 16002G12KT 24/10 A2989 RMK AO1 SLP100 T02420101;||A||223|ICAO-K3A6
USI0000K3A6|NEWHALL|2011|08|19|03|30|34.3700|-118.5700|427.0|24.0||1|AUTO_4-USA|223|ICAO-K3A6|11.0||1|AUTO_4-USA|223|ICAO-K3A6|||||||1010.3||1|AUTO_4-USA|223|ICAO-K3A6|160|N-Normal|1|AUTO_4-USA|223|ICAO-K3A6|1.0|N-Normal|1|AUTO_4-USA|223|ICAO-K3A6|||||||||||||44|Derived||AUTO_4-USA|223|ICAO-K3A6|||||||||||||||||||||||||||||||||||||||||||||||||||||||||||||||||||||||||1012.5||1|AUTO_4-USA|223|ICAO-K3A6|||||||||||||||||||||||||||||||||||||||||||MET069METAR K3A6 190330Z AUTO 16002KT 24/11 A2990 RMK AO1 SLP103 T02440106;||A||223|ICAO-K3A6
USI0000K3A6|NEWHALL|2011|08|19|03|50|34.3700|-118.5700|427.0|24.0||1|AUTO_4-USA|223|ICAO-K3A6|10.0||1|AUTO_4-USA|223|ICAO-K3A6|||||||1010.4||1|AUTO_4-USA|223|ICAO-K3A6|160|N-Normal|1|AUTO_4-USA|223|ICAO-K3A6|1.0|N-Normal|1|AUTO_4-USA|223|ICAO-K3A6|||||||||||||41|Derived||AUTO_4-USA|223|ICAO-K3A6|||||||||||||||||||||||||||||||||||||||||||||||||||||||||||||||||||||||||1012.9||1|AUTO_4-USA|223|ICAO-K3A6|||||||||||||||||||||||||||||||||||||||||||MET069METAR K3A6 190350Z AUTO 16002KT 24/10 A2991 RMK AO1 SLP104 T02400099;||A||223|ICAO-K3A6
USI0000K3A6|NEWHALL|2011|08|19|04|10|34.3700|-118.5700|427.0|24.0||1|AUTO_4-USA|223|ICAO-K3A6|11.0||1|AUTO_4-USA|223|ICAO-K3A6|||||||1010.8||1|AUTO_4-USA|223|ICAO-K3A6|160|N-Normal|1|AUTO_4-USA|223|ICAO-K3A6|1.0|N-Normal|1|AUTO_4-USA|223|ICAO-K3A6|||||||||||||44|Derived||AUTO_4-USA|223|ICAO-K3A6|||||||||||||||||||||||||||||||||||||||||||||||||||||||||||||||||||||||||1012.9||1|AUTO_4-USA|223|ICAO-K3A6|||||||||||||||||||||||||||||||||||||||||||MET069METAR K3A6 190410Z AUTO 16002KT 24/11 A2991 RMK AO1 SLP108 T02360106;||A||223|ICAO-K3A6
USI0000K3A6|NEWHALL|2011|08|19|04|50|34.3700|-118.5700|427.0|23.0||1|AUTO_4-USA|223|ICAO-K3A6|10.0||1|AUTO_4-USA|223|ICAO-K3A6|||||||1010.7||1|AUTO_4-USA|223|ICAO-K3A6|160|N-Normal|1|AUTO_4-USA|223|ICAO-K3A6|1.0|N-Normal|1|AUTO_4-USA|223|ICAO-K3A6|||||||||||||44|Derived||AUTO_4-USA|223|ICAO-K3A6|||||||||||||||||||||||||||||||||||||||||||||||||||||||||||||||||||||||||1012.9||1|AUTO_4-USA|223|ICAO-K3A6|||||||||||||||||||||||||||||||||||||||||||MET069METAR K3A6 190450Z AUTO 16002KT 23/10 A2991 RMK AO1 SLP107 T02340097;||A||223|ICAO-K3A6
USI0000K3A6|NEWHALL|2011|08|19|05|10|34.3700|-118.5700|427.0|23.0||1|AUTO_4-USA|223|ICAO-K3A6|10.0||1|AUTO_4-USA|223|ICAO-K3A6|||||||1010.7||1|AUTO_4-USA|223|ICAO-K3A6|160|N-Normal|1|AUTO_4-USA|223|ICAO-K3A6|1.5|N-Normal|1|AUTO_4-USA|223|ICAO-K3A6|||||||||||||44|Derived||AUTO_4-USA|223|ICAO-K3A6|||||||||||||||||||||||||||||||||||||||||||||||||||||||||||||||||||||||||1012.9||1|AUTO_4-USA|223|ICAO-K3A6|0.0|4-Steady;-|1|AUTO_4-USA|223|ICAO-K3A6|||||||||||||||||||||||||||||||||||||MET087METAR K3A6 190510Z AUTO 16003KT 23/10 A2991 RMK AO1 SLP107 T02340104 10373 20232 54000;||A||223|ICAO-K3A6
USI0000K3A6|NEWHALL|2011|08|19|05|30|34.3700|-118.5700|427.0|23.0||1|AUTO_4-USA|223|ICAO-K3A6|10.0||1|AUTO_4-USA|223|ICAO-K3A6|||||||1010.7||1|AUTO_4-USA|223|ICAO-K3A6|160|N-Normal|1|AUTO_4-USA|223|ICAO-K3A6|1.0|N-Normal|1|AUTO_4-USA|223|ICAO-K3A6|||||||||||||44|Derived||AUTO_4-USA|223|ICAO-K3A6|||||||||||||||||||||||||||||||||||||||||||||||||||||||||||||||||||||||||1012.5||1|AUTO_4-USA|223|ICAO-K3A6|0.0|4-Steady;-|1|AUTO_4-USA|223|ICAO-K3A6|||||||||||||||||||||||||||||||||||||MET087METAR K3A6 190530Z AUTO 16002KT 23/10 A2990 RMK AO1 SLP107 T02280102 10373 20228 54000;||A||223|ICAO-K3A6
USI0000K3A6|NEWHALL|2011|08|19|05|50|34.3700|-118.5700|427.0|22.0||1|AUTO_4-USA|223|ICAO-K3A6|9.0||1|AUTO_4-USA|223|ICAO-K3A6|||||||1010.6||1|AUTO_4-USA|223|ICAO-K3A6|160|N-Normal|1|AUTO_4-USA|223|ICAO-K3A6|1.0|N-Normal|1|AUTO_4-USA|223|ICAO-K3A6|||||||||||||44|Derived||AUTO_4-USA|223|ICAO-K3A6|||||||||||||||||||||||||||||||||||||||||||||||||||||||||||||||||||||||||1012.5||1|AUTO_4-USA|223|ICAO-K3A6|0.0|4-Steady;-|1|AUTO_4-USA|223|ICAO-K3A6|||||||||||||||||||||||||||||||||||||MET087METAR K3A6 190550Z AUTO 16002KT 22/09 A2990 RMK AO1 SLP106 T02240092 10373 20224 54000;||A||223|ICAO-K3A6
USI0000K3A6|NEWHALL|2011|08|19|06|10|34.3700|-118.5700|427.0|22.0||1|AUTO_4-USA|223|ICAO-K3A6|10.0||1|AUTO_4-USA|223|ICAO-K3A6|||||||1011.1||1|AUTO_4-USA|223|ICAO-K3A6|160|N-Normal|1|AUTO_4-USA|223|ICAO-K3A6|1.0|N-Normal|1|AUTO_4-USA|223|ICAO-K3A6|||||||||||||47|Derived||AUTO_4-USA|223|ICAO-K3A6|||||||||||||||||||||||||||||||||||||||||||||||||||||||||||||||||||||||||1012.9||1|AUTO_4-USA|223|ICAO-K3A6|||||||||||||||||||||||||||||||||||||||||||MET079METAR K3A6 190610Z AUTO 16002KT 22/10 A2991 RMK AO1 SLP111 T02190097 403730183;||A||223|ICAO-K3A6
USI0000K3A6|NEWHALL|2011|08|19|06|30|34.3700|-118.5700|427.0|21.0||1|AUTO_4-USA|223|ICAO-K3A6|9.0||1|AUTO_4-USA|223|ICAO-K3A6|||||||1011.2||1|AUTO_4-USA|223|ICAO-K3A6|160|N-Normal|1|AUTO_4-USA|223|ICAO-K3A6|0.5|N-Normal|1|AUTO_4-USA|223|ICAO-K3A6|||||||||||||46|Derived||AUTO_4-USA|223|ICAO-K3A6|||||||||||||||||||||||||||||||||||||||||||||||||||||||||||||||||||||||||1012.5||1|AUTO_4-USA|223|ICAO-K3A6|||||||||||||||||||||||||||||||||||||||||||MET079METAR K3A6 190630Z AUTO 16001KT 21/09 A2990 RMK AO1 SLP112 T02140093 403730183;||A||223|ICAO-K3A6
USI0000K3A6|NEWHALL|2011|08|19|06|50|34.3700|-118.5700|427.0|21.0||1|AUTO_4-USA|223|ICAO-K3A6|9.0||1|AUTO_4-USA|223|ICAO-K3A6|||||||1011.3||1|AUTO_4-USA|223|ICAO-K3A6|160|N-Normal|1|AUTO_4-USA|223|ICAO-K3A6|1.0|N-Normal|1|AUTO_4-USA|223|ICAO-K3A6|||||||||||||46|Derived||AUTO_4-USA|223|ICAO-K3A6|||||||||||||||||||||||||||||||||||||||||||||||||||||||||||||||||||||||||1012.5||1|AUTO_4-USA|223|ICAO-K3A6|||||||||||||||||||||||||||||||||||||||||||MET079METAR K3A6 190650Z AUTO 16002KT 21/09 A2990 RMK AO1 SLP113 T02120094 403730183;||A||223|ICAO-K3A6
USI0000K3A6|NEWHALL|2011|08|19|07|10|34.3700|-118.5700|427.0|21.0||1|AUTO_4-USA|223|ICAO-K3A6|10.0||1|AUTO_4-USA|223|ICAO-K3A6|||||||1011.7||1|AUTO_4-USA|223|ICAO-K3A6|160|N-Normal|1|AUTO_4-USA|223|ICAO-K3A6|1.0|N-Normal|1|AUTO_4-USA|223|ICAO-K3A6|||||||||||||50|Derived||AUTO_4-USA|223|ICAO-K3A6|||||||||||||||||||||||||||||||||||||||||||||||||||||||||||||||||||||||||1012.9||1|AUTO_4-USA|223|ICAO-K3A6|||||||||||||||||||||||||||||||||||||||||||MET069METAR K3A6 190710Z AUTO 16002KT 21/10 A2991 RMK AO1 SLP117 T02100104;||A||223|ICAO-K3A6
USI0000K3A6|NEWHALL|2011|08|19|07|30|34.3700|-118.5700|427.0|21.0||1|AUTO_4-USA|223|ICAO-K3A6|10.0||1|AUTO_4-USA|223|ICAO-K3A6|||||||1011.9||1|AUTO_4-USA|223|ICAO-K3A6|160|N-Normal|1|AUTO_4-USA|223|ICAO-K3A6|1.0|N-Normal|1|AUTO_4-USA|223|ICAO-K3A6|||||||||||||50|Derived||AUTO_4-USA|223|ICAO-K3A6|||||||||||||||||||||||||||||||||||||||||||||||||||||||||||||||||||||||||1012.9||1|AUTO_4-USA|223|ICAO-K3A6|||||||||||||||||||||||||||||||||||||||||||MET069METAR K3A6 190730Z AUTO 16002KT 21/10 A2991 RMK AO1 SLP119 T02080103;||A||223|ICAO-K3A6
USI0000K3A6|NEWHALL|2011|08|19|07|50|34.3700|-118.5700|427.0|20.0||1|AUTO_4-USA|223|ICAO-K3A6|10.0||1|AUTO_4-USA|223|ICAO-K3A6|||||||1012.1||1|AUTO_4-USA|223|ICAO-K3A6|160|N-Normal|1|AUTO_4-USA|223|ICAO-K3A6|1.0|N-Normal|1|AUTO_4-USA|223|ICAO-K3A6|||||||||||||53|Derived||AUTO_4-USA|223|ICAO-K3A6|||||||||||||||||||||||||||||||||||||||||||||||||||||||||||||||||||||||||1012.9||1|AUTO_4-USA|223|ICAO-K3A6|||||||||||||||||||||||||||||||||||||||||||MET069METAR K3A6 190750Z AUTO 16002KT 20/10 A2991 RMK AO1 SLP121 T02040102;||A||223|ICAO-K3A6
USI0000K3A6|NEWHALL|2011|08|19|08|10|34.3700|-118.5700|427.0|20.0||1|AUTO_4-USA|223|ICAO-K3A6|10.0||1|AUTO_4-USA|223|ICAO-K3A6|||||||1012.2||1|AUTO_4-USA|223|ICAO-K3A6|160|N-Normal|1|AUTO_4-USA|223|ICAO-K3A6|1.0|N-Normal|1|AUTO_4-USA|223|ICAO-K3A6|||||||||||||53|Derived||AUTO_4-USA|223|ICAO-K3A6|||||||||||||||||||||||||||||||||||||||||||||||||||||||||||||||||||||||||1012.9||1|AUTO_4-USA|223|ICAO-K3A6|-0.6|5-Decr,-th|1|AUTO_4-USA|223|ICAO-K3A6|||||||||||||||||||||||||||||||||||||MET075METAR K3A6 190810Z AUTO 16002KT 20/10 A2991 RMK AO1 SLP122 T02030101 55006;||A||223|ICAO-K3A6
USI0000K3A6|NEWHALL|2011|08|19|08|30|34.3700|-118.5700|427.0|20.0||1|AUTO_4-USA|223|ICAO-K3A6|10.0||1|AUTO_4-USA|223|ICAO-K3A6|||||||1012.0||1|AUTO_4-USA|223|ICAO-K3A6|160|N-Normal|1|AUTO_4-USA|223|ICAO-K3A6|1.0|N-Normal|1|AUTO_4-USA|223|ICAO-K3A6|||||||||||||53|Derived||AUTO_4-USA|223|ICAO-K3A6|||||||||||||||||||||||||||||||||||||||||||||||||||||||||||||||||||||||||1012.5||1|AUTO_4-USA|223|ICAO-K3A6|-0.3|8-Steady-o|1|AUTO_4-USA|223|ICAO-K3A6|||||||||||||||||||||||||||||||||||||MET075METAR K3A6 190830Z AUTO 16002KT 20/10 A2990 RMK AO1 SLP120 T01980096 58003;||A||223|ICAO-K3A6
USI0000K3A6|NEWHALL|2011|08|19|08|50|34.3700|-118.5700|427.0|19.0||1|AUTO_4-USA|223|ICAO-K3A6|10.0||1|AUTO_4-USA|223|ICAO-K3A6|||||||1012.2||1|AUTO_4-USA|223|ICAO-K3A6|160|N-Normal|1|AUTO_4-USA|223|ICAO-K3A6|0.5|N-Normal|1|AUTO_4-USA|223|ICAO-K3A6|||||||||||||56|Derived||AUTO_4-USA|223|ICAO-K3A6|||||||||||||||||||||||||||||||||||||||||||||||||||||||||||||||||||||||||1012.5||1|AUTO_4-USA|223|ICAO-K3A6|0.6|2-Incr-(st|1|AUTO_4-USA|223|ICAO-K3A6|||||||||||||||||||||||||||||||||||||MET075METAR K3A6 190850Z AUTO 16001KT 19/10 A2990 RMK AO1 SLP122 T01930100 52006;||A||223|ICAO-K3A6
USI0000K3A6|NEWHALL|2011|08|19|09|10|34.3700|-118.5700|427.0|19.0||1|AUTO_4-USA|223|ICAO-K3A6|10.0||1|AUTO_4-USA|223|ICAO-K3A6|||||||1012.2||1|AUTO_4-USA|223|ICAO-K3A6|160|N-Normal|1|AUTO_4-USA|223|ICAO-K3A6|0.5|N-Normal|1|AUTO_4-USA|223|ICAO-K3A6|||||||||||||56|Derived||AUTO_4-USA|223|ICAO-K3A6|||||||||||||||||||||||||||||||||||||||||||||||||||||||||||||||||||||||||1012.5||1|AUTO_4-USA|223|ICAO-K3A6|||||||||||||||||||||||||||||||||||||||||||MET069METAR K3A6 190910Z AUTO 16001KT 19/10 A2990 RMK AO1 SLP122 T01890100;||A||223|ICAO-K3A6
USI0000K3A6|NEWHALL|2011|08|19|09|30|34.3700|-118.5700|427.0|19.0||1|AUTO_4-USA|223|ICAO-K3A6|10.0||1|AUTO_4-USA|223|ICAO-K3A6|||||||1012.0||1|AUTO_4-USA|223|ICAO-K3A6|160|N-Normal|1|AUTO_4-USA|223|ICAO-K3A6|1.0|N-Normal|1|AUTO_4-USA|223|ICAO-K3A6|||||||||||||56|Derived||AUTO_4-USA|223|ICAO-K3A6|||||||||||||||||||||||||||||||||||||||||||||||||||||||||||||||||||||||||1012.2||1|AUTO_4-USA|223|ICAO-K3A6|||||||||||||||||||||||||||||||||||||||||||MET069METAR K3A6 190930Z AUTO 16002KT 19/10 A2989 RMK AO1 SLP120 T01870102;||A||223|ICAO-K3A6
USI0000K3A6|NEWHALL|2011|08|19|12|10|34.3700|-118.5700|427.0|17.0||1|AUTO_4-USA|223|ICAO-K3A6|11.0||1|AUTO_4-USA|223|ICAO-K3A6|||||||1012.4||1|AUTO_4-USA|223|ICAO-K3A6|160|N-Normal|1|AUTO_4-USA|223|ICAO-K3A6|0.5|N-Normal|1|AUTO_4-USA|223|ICAO-K3A6|||||||||||||68|Derived||AUTO_4-USA|223|ICAO-K3A6|||||||||||||||||||||||||||||||||||||||||||||||||||||||||||||||||||||||||1012.5||1|AUTO_4-USA|223|ICAO-K3A6|||||||||||||||||||||||||||||||||||||||||||MET069METAR K3A6 191210Z AUTO 16001KT 17/11 A2990 RMK AO1 SLP124 T01680109;||A||223|ICAO-K3A6
USI0000K3A6|NEWHALL|2011|08|19|12|30|34.3700|-118.5700|427.0|16.0||1|AUTO_4-USA|223|ICAO-K3A6|10.0||1|AUTO_4-USA|223|ICAO-K3A6|||||||1012.5||1|AUTO_4-USA|223|ICAO-K3A6|160|N-Normal|1|AUTO_4-USA|223|ICAO-K3A6|1.0|N-Normal|1|AUTO_4-USA|223|ICAO-K3A6|||||||||||||68|Derived||AUTO_4-USA|223|ICAO-K3A6|||||||||||||||||||||||||||||||||||||||||||||||||||||||||||||||||||||||||1012.5||1|AUTO_4-USA|223|ICAO-K3A6|||||||||||||||||||||||||||||||||||||||||||MET069METAR K3A6 191230Z AUTO 16002KT 16/10 A2990 RMK AO1 SLP125 T01650103;||A||223|ICAO-K3A6
USI0000K3A6|NEWHALL|2011|08|19|12|50|34.3700|-118.5700|427.0|16.0||1|AUTO_4-USA|223|ICAO-K3A6|10.0||1|AUTO_4-USA|223|ICAO-K3A6|||||||1012.8||1|AUTO_4-USA|223|ICAO-K3A6|160|N-Normal|1|AUTO_4-USA|223|ICAO-K3A6|0.5|N-Normal|1|AUTO_4-USA|223|ICAO-K3A6|||||||||||||68|Derived||AUTO_4-USA|223|ICAO-K3A6|||||||||||||||||||||||||||||||||||||||||||||||||||||||||||||||||||||||||1012.9||1|AUTO_4-USA|223|ICAO-K3A6|||||||||||||||||||||||||||||||||||||||||||MET069METAR K3A6 191250Z AUTO 16001KT 16/10 A2991 RMK AO1 SLP128 T01620100;||A||223|ICAO-K3A6
USI0000K3A6|NEWHALL|2011|08|19|13|10|34.3700|-118.5700|427.0|16.0||1|AUTO_4-USA|223|ICAO-K3A6|10.0||1|AUTO_4-USA|223|ICAO-K3A6|||||||1012.9||1|AUTO_4-USA|223|ICAO-K3A6|160|N-Normal|1|AUTO_4-USA|223|ICAO-K3A6|1.5|N-Normal|1|AUTO_4-USA|223|ICAO-K3A6|||||||||||||68|Derived||AUTO_4-USA|223|ICAO-K3A6|||||||||||||||||||||||||||||||||||||||||||||||||||||||||||||||||||||||||1012.9||1|AUTO_4-USA|223|ICAO-K3A6|||||||||||||||||||||||||||||||||||||||||||MET069METAR K3A6 191310Z AUTO 16003KT 16/10 A2991 RMK AO1 SLP129 T01590100;||A||223|ICAO-K3A6
USI0000K3A6|NEWHALL|2011|08|19|13|30|34.3700|-118.5700|427.0|16.0||1|AUTO_4-USA|223|ICAO-K3A6|10.0||1|AUTO_4-USA|223|ICAO-K3A6|||||||1013.1||1|AUTO_4-USA|223|ICAO-K3A6|160|N-Normal|1|AUTO_4-USA|223|ICAO-K3A6|0.5|N-Normal|1|AUTO_4-USA|223|ICAO-K3A6|||||||||||||68|Derived||AUTO_4-USA|223|ICAO-K3A6|||||||||||||||||||||||||||||||||||||||||||||||||||||||||||||||||||||||||1012.9||1|AUTO_4-USA|223|ICAO-K3A6|||||||||||||||||||||||||||||||||||||||||||MET069METAR K3A6 191330Z AUTO 16001KT 16/10 A2991 RMK AO1 SLP131 T01590102;||A||223|ICAO-K3A6
USI0000K3A6|NEWHALL|2011|08|19|13|50|34.3700|-118.5700|427.0|17.0||1|AUTO_4-USA|223|ICAO-K3A6|11.0||1|AUTO_4-USA|223|ICAO-K3A6|||||||1013.3||1|AUTO_4-USA|223|ICAO-K3A6|160|N-Normal|1|AUTO_4-USA|223|ICAO-K3A6|1.0|N-Normal|1|AUTO_4-USA|223|ICAO-K3A6|||||||||||||68|Derived||AUTO_4-USA|223|ICAO-K3A6|||||||||||||||||||||||||||||||||||||||||||||||||||||||||||||||||||||||||1013.2||1|AUTO_4-USA|223|ICAO-K3A6|||||||||||||||||||||||||||||||||||||||||||MET069METAR K3A6 191350Z AUTO 16002KT 17/11 A2992 RMK AO1 SLP133 T01730113;||A||223|ICAO-K3A6
USI0000K3A6|NEWHALL|2011|08|19|14|10|34.3700|-118.5700|427.0|19.0||1|AUTO_4-USA|223|ICAO-K3A6|12.0||1|AUTO_4-USA|223|ICAO-K3A6|||||||1013.3||1|AUTO_4-USA|223|ICAO-K3A6|160|N-Normal|1|AUTO_4-USA|223|ICAO-K3A6|0.5|N-Normal|1|AUTO_4-USA|223|ICAO-K3A6|||||||||||||64|Derived||AUTO_4-USA|223|ICAO-K3A6|||||||||||||||||||||||||||||||||||||||||||||||||||||||||||||||||||||||||1013.2||1|AUTO_4-USA|223|ICAO-K3A6|0.0|4-Steady;-|1|AUTO_4-USA|223|ICAO-K3A6|||||||||||||||||||||||||||||||||||||MET075METAR K3A6 191410Z AUTO 16001KT 19/12 A2992 RMK AO1 SLP133 T01890117 54000;||A||223|ICAO-K3A6
USI0000K3A6|NEWHALL|2011|08|20|06|50|34.3700|-118.5700|427.0|18.0||1|AUTO_4-USA|223|ICAO-K3A6|11.0||1|AUTO_4-USA|223|ICAO-K3A6|||||||1013.4||1|AUTO_4-USA|223|ICAO-K3A6|160|N-Normal|1|AUTO_4-USA|223|ICAO-K3A6|0.5|N-Normal|1|AUTO_4-USA|223|ICAO-K3A6|||||||||||||64|Derived||AUTO_4-USA|223|ICAO-K3A6|||||||||||||||||||||||||||||||||||||||||||||||||||||||||||||||||||||||||1012.9||1|AUTO_4-USA|223|ICAO-K3A6|||||||||||||||||||||||||||||||||||||||||||MET079METAR K3A6 200650Z AUTO 16001KT 18/11 A2991 RMK AO1 SLP134 T01750113 403400157;||A||223|ICAO-K3A6
USI0000K3A6|NEWHALL|2011|08|20|07|10|34.3700|-118.5700|427.0|17.0||1|AUTO_4-USA|223|ICAO-K3A6|11.0||1|AUTO_4-USA|223|ICAO-K3A6|||||||1013.5||1|AUTO_4-USA|223|ICAO-K3A6|160|N-Normal|1|AUTO_4-USA|223|ICAO-K3A6|1.0|N-Normal|1|AUTO_4-USA|223|ICAO-K3A6|||||||||||||68|Derived||AUTO_4-USA|223|ICAO-K3A6|||||||||||||||||||||||||||||||||||||||||||||||||||||||||||||||||||||||||1012.9||1|AUTO_4-USA|223|ICAO-K3A6|||||||||||||||||||||||||||||||||||||||||||MET069METAR K3A6 200710Z AUTO 16002KT 17/11 A2991 RMK AO1 SLP135 T01730112;||A||223|ICAO-K3A6
USI0000K3A6|NEWHALL|2011|08|20|17|10|34.3700|-118.5700|427.0|22.0||1|AUTO_4-USA|223|ICAO-K3A6|14.0||1|AUTO_4-USA|223|ICAO-K3A6|||||||1015.6||1|AUTO_4-USA|223|ICAO-K3A6|180|N-Normal|1|AUTO_4-USA|223|ICAO-K3A6|2.6|N-Normal|1|AUTO_4-USA|223|ICAO-K3A6|||||||||||||61|Derived||AUTO_4-USA|223|ICAO-K3A6|||||||||||||||||||||||||||||||||||||||||||||||||||||||||||||||||||||||||1014.9||1|AUTO_4-USA|223|ICAO-K3A6|0.0|4-Steady;-|1|AUTO_4-USA|223|ICAO-K3A6|||||||||||||||||||||||||||||||||||||MET087METAR K3A6 201710Z AUTO 18005KT 22/14 A2997 RMK AO1 SLP156 T02220145 10222 20134 54000;||A||223|ICAO-K3A6
USI0000K3A6|NEWHALL|2011|08|20|17|30|34.3700|-118.5700|427.0|24.0||1|AUTO_4-USA|223|ICAO-K3A6|14.0||1|AUTO_4-USA|223|ICAO-K3A6|||||||1015.3||1|AUTO_4-USA|223|ICAO-K3A6|180|N-Normal|1|AUTO_4-USA|223|ICAO-K3A6|1.0|N-Normal|1|AUTO_4-USA|223|ICAO-K3A6|||||||||||||54|Derived||AUTO_4-USA|223|ICAO-K3A6|||||||||||||||||||||||||||||||||||||||||||||||||||||||||||||||||||||||||1014.9||1|AUTO_4-USA|223|ICAO-K3A6|0.0|4-Steady;-|1|AUTO_4-USA|223|ICAO-K3A6|||||||||||||||||||||||||||||||||||||MET087METAR K3A6 201730Z AUTO 18002KT 24/14 A2997 RMK AO1 SLP153 T02360145 10236 20134 54000;||A||223|ICAO-K3A6
USI0000K3A6|NEWHALL|2011|08|20|17|50|34.3700|-118.5700|427.0|25.0||1|AUTO_4-USA|223|ICAO-K3A6|15.0||1|AUTO_4-USA|223|ICAO-K3A6|||||||1015.0||1|AUTO_4-USA|223|ICAO-K3A6|180|N-Normal|1|AUTO_4-USA|223|ICAO-K3A6|1.0|N-Normal|1|AUTO_4-USA|223|ICAO-K3A6|||||||||||||54|Derived||AUTO_4-USA|223|ICAO-K3A6|||||||||||||||||||||||||||||||||||||||||||||||||||||||||||||||||||||||||1014.9||1|AUTO_4-USA|223|ICAO-K3A6|0.0|4-Steady;-|1|AUTO_4-USA|223|ICAO-K3A6|||||||||||||||||||||||||||||||||||||MET087METAR K3A6 201750Z AUTO 18002KT 25/15 A2997 RMK AO1 SLP150 T02470150 10247 20134 54000;||A||223|ICAO-K3A6
USI0000K3A6|NEWHALL|2011|08|20|18|10|34.3700|-118.5700|427.0|26.0||1|AUTO_4-USA|223|ICAO-K3A6|15.0||1|AUTO_4-USA|223|ICAO-K3A6|||||||1014.6||1|AUTO_4-USA|223|ICAO-K3A6|180|N-Normal|1|AUTO_4-USA|223|ICAO-K3A6|0.5|N-Normal|1|AUTO_4-USA|223|ICAO-K3A6|||||||||||||51|Derived||AUTO_4-USA|223|ICAO-K3A6|||||||||||||||||||||||||||||||||||||||||||||||||||||||||||||||||||||||||1014.6||1|AUTO_4-USA|223|ICAO-K3A6|||||||||||||||||||||||||||||||||||||||||||MET069METAR K3A6 201810Z AUTO 18001KT 26/15 A2996 RMK AO1 SLP146 T02590146;||A||223|ICAO-K3A6
USI0000K3A6|NEWHALL|2011|08|20|18|30|34.3700|-118.5700|427.0|27.0||1|AUTO_4-USA|223|ICAO-K3A6|15.0||1|AUTO_4-USA|223|ICAO-K3A6|||||||1014.2||1|AUTO_4-USA|223|ICAO-K3A6|180|N-Normal|1|AUTO_4-USA|223|ICAO-K3A6|0.5|N-Normal|1|AUTO_4-USA|223|ICAO-K3A6|||||||||||||48|Derived||AUTO_4-USA|223|ICAO-K3A6|||||||||||||||||||||||||||||||||||||||||||||||||||||||||||||||||||||||||1014.6||1|AUTO_4-USA|223|ICAO-K3A6|||||||||||||||||||||||||||||||||||||||||||MET069METAR K3A6 201830Z AUTO 18001KT 27/15 A2996 RMK AO1 SLP142 T02690146;||A||223|ICAO-K3A6
USI0000K3A6|NEWHALL|2011|08|20|18|50|34.3700|-118.5700|427.0|28.0||1|AUTO_4-USA|223|ICAO-K3A6|14.0||1|AUTO_4-USA|223|ICAO-K3A6|||||||1013.9||1|AUTO_4-USA|223|ICAO-K3A6|180|N-Normal|1|AUTO_4-USA|223|ICAO-K3A6|1.5|N-Normal|1|AUTO_4-USA|223|ICAO-K3A6|||||||||||||42|Derived||AUTO_4-USA|223|ICAO-K3A6|||||||||||||||||||||||||||||||||||||||||||||||||||||||||||||||||||||||||1014.2||1|AUTO_4-USA|223|ICAO-K3A6|||||||||||||||||||||||||||||||||||||||||||MET069METAR K3A6 201850Z AUTO 18003KT 28/14 A2995 RMK AO1 SLP139 T02800139;||A||223|ICAO-K3A6
USI0000K3A6|NEWHALL|2011|08|20|19|10|34.3700|-118.5700|427.0|28.0||1|AUTO_4-USA|223|ICAO-K3A6|14.0||1|AUTO_4-USA|223|ICAO-K3A6|||||||1013.5||1|AUTO_4-USA|223|ICAO-K3A6|180|N-Normal|1|AUTO_4-USA|223|ICAO-K3A6|2.1|N-Normal|1|AUTO_4-USA|223|ICAO-K3A6|||||||||||||42|Derived||AUTO_4-USA|223|ICAO-K3A6|||||||||||||||||||||||||||||||||||||||||||||||||||||||||||||||||||||||||1014.2||1|AUTO_4-USA|223|ICAO-K3A6|||||||||||||||||||||||||||||||||||||||||||MET069METAR K3A6 201910Z AUTO 18004KT 28/14 A2995 RMK AO1 SLP135 T02830141;||A||223|ICAO-K3A6
USI0000K3A6|NEWHALL|2011|08|20|19|30|34.3700|-118.5700|427.0|27.0||1|AUTO_4-USA|223|ICAO-K3A6|14.0||1|AUTO_4-USA|223|ICAO-K3A6|||||||1013.3||1|AUTO_4-USA|223|ICAO-K3A6|180|N-Normal|1|AUTO_4-USA|223|ICAO-K3A6|1.5|N-Normal|1|AUTO_4-USA|223|ICAO-K3A6|||||||||||||45|Derived||AUTO_4-USA|223|ICAO-K3A6|||||||||||||||||||||||||||||||||||||||||||||||||||||||||||||||||||||||||1014.2||1|AUTO_4-USA|223|ICAO-K3A6|||||||||||||||||||||||||||||||||||||||||||MET069METAR K3A6 201930Z AUTO 18003KT 27/14 A2995 RMK AO1 SLP133 T02720145;||A||223|ICAO-K3A6
USI0000K3A6|NEWHALL|2011|08|20|19|50|34.3700|-118.5700|427.0|28.0||1|AUTO_4-USA|223|ICAO-K3A6|14.0||1|AUTO_4-USA|223|ICAO-K3A6|||||||1013.1||1|AUTO_4-USA|223|ICAO-K3A6|180|N-Normal|1|AUTO_4-USA|223|ICAO-K3A6|2.1|N-Normal|1|AUTO_4-USA|223|ICAO-K3A6|||||||||||||42|Derived||AUTO_4-USA|223|ICAO-K3A6|||||||||||||||||||||||||||||||||||||||||||||||||||||||||||||||||||||||||1013.9||1|AUTO_4-USA|223|ICAO-K3A6|||||||||||||||||||||||||||||||||||||||||||MET069METAR K3A6 201950Z AUTO 18004KT 28/14 A2994 RMK AO1 SLP131 T02810139;||A||223|ICAO-K3A6
USI0000K3A6|NEWHALL|2011|08|20|20|10|34.3700|-118.5700|427.0|29.0||1|AUTO_4-USA|223|ICAO-K3A6|14.0||1|AUTO_4-USA|223|ICAO-K3A6|||||||1012.7||1|AUTO_4-USA|223|ICAO-K3A6|180|N-Normal|1|AUTO_4-USA|223|ICAO-K3A6|1.0|N-Normal|1|AUTO_4-USA|223|ICAO-K3A6|||||||||||||40|Derived||AUTO_4-USA|223|ICAO-K3A6|||||||||||||||||||||||||||||||||||||||||||||||||||||||||||||||||||||||||1013.5||1|AUTO_4-USA|223|ICAO-K3A6|-1.5|8-Steady-o|1|AUTO_4-USA|223|ICAO-K3A6|||||||||||||||||||||||||||||||||||||MET075METAR K3A6 202010Z AUTO 18002KT 29/14 A2993 RMK AO1 SLP127 T02900141 58015;||A||223|ICAO-K3A6
USI0000K3A6|NEWHALL|2011|08|20|20|30|34.3700|-118.5700|427.0|30.0||1|AUTO_4-USA|223|ICAO-K3A6|13.0||1|AUTO_4-USA|223|ICAO-K3A6|||||||1012.4||1|AUTO_4-USA|223|ICAO-K3A6|180|N-Normal|1|AUTO_4-USA|223|ICAO-K3A6|2.1|N-Normal|1|AUTO_4-USA|223|ICAO-K3A6|||||||||||||35|Derived||AUTO_4-USA|223|ICAO-K3A6|||||||||||||||||||||||||||||||||||||||||||||||||||||||||||||||||||||||||1013.5||1|AUTO_4-USA|223|ICAO-K3A6|-3.8|7-Decr-(st|1|AUTO_4-USA|223|ICAO-K3A6|||||||||||||||||||||||||||||||||||||MET075METAR K3A6 202030Z AUTO 18004KT 30/13 A2993 RMK AO1 SLP124 T03010133 57038;||A||223|ICAO-K3A6
USI0000K3A6|NEWHALL|2011|08|20|20|50|34.3700|-118.5700|427.0|30.0||1|AUTO_4-USA|223|ICAO-K3A6|14.0||1|AUTO_4-USA|223|ICAO-K3A6|||||||1012.1||1|AUTO_4-USA|223|ICAO-K3A6|180|N-Normal|1|AUTO_4-USA|223|ICAO-K3A6|2.6|N-Normal|1|AUTO_4-USA|223|ICAO-K3A6|||||||||||||38|Derived||AUTO_4-USA|223|ICAO-K3A6|||||||||||||||||||||||||||||||||||||||||||||||||||||||||||||||||||||||||1013.2||1|AUTO_4-USA|223|ICAO-K3A6|-4.1|7-Decr-(st|1|AUTO_4-USA|223|ICAO-K3A6|||||||||||||||||||||||||||||||||||||MET075METAR K3A6 202050Z AUTO 18005KT 30/14 A2992 RMK AO1 SLP121 T03010138 57041;||A||223|ICAO-K3A6
USI0000K3A6|NEWHALL|2011|08|20|21|10|34.3700|-118.5700|427.0|31.0||1|AUTO_4-USA|223|ICAO-K3A6|13.0||1|AUTO_4-USA|223|ICAO-K3A6|||||||1012.0||1|AUTO_4-USA|223|ICAO-K3A6|180|N-Normal|1|AUTO_4-USA|223|ICAO-K3A6|1.5|N-Normal|1|AUTO_4-USA|223|ICAO-K3A6|||||||||||||33|Derived||AUTO_4-USA|223|ICAO-K3A6|||||||||||||||||||||||||||||||||||||||||||||||||||||||||||||||||||||||||1013.2||1|AUTO_4-USA|223|ICAO-K3A6|||||||||||||||||||||||||||||||||||||||||||MET069METAR K3A6 202110Z AUTO 18003KT 31/13 A2992 RMK AO1 SLP120 T03120134;||A||223|ICAO-K3A6
USI0000K3A6|NEWHALL|2011|08|20|21|30|34.3700|-118.5700|427.0|31.0||1|AUTO_4-USA|223|ICAO-K3A6|13.0||1|AUTO_4-USA|223|ICAO-K3A6|||||||1011.8||1|AUTO_4-USA|223|ICAO-K3A6|180|N-Normal|1|AUTO_4-USA|223|ICAO-K3A6|1.0|N-Normal|1|AUTO_4-USA|223|ICAO-K3A6|||||||||||||33|Derived||AUTO_4-USA|223|ICAO-K3A6|||||||||||||||||||||||||||||||||||||||||||||||||||||||||||||||||||||||||1013.2||1|AUTO_4-USA|223|ICAO-K3A6|||||||||||||||||||||||||||||||||||||||||||MET069METAR K3A6 202130Z AUTO 18002KT 31/13 A2992 RMK AO1 SLP118 T03140127;||A||223|ICAO-K3A6
USI0000K3A6|NEWHALL|2011|08|20|23|10|34.3700|-118.5700|427.0|29.0||1|AUTO_4-USA|223|ICAO-K3A6|15.0||1|AUTO_4-USA|223|ICAO-K3A6|||||||1011.2||1|AUTO_4-USA|223|ICAO-K3A6|180|N-Normal|1|AUTO_4-USA|223|ICAO-K3A6|2.6|N-Normal|1|AUTO_4-USA|223|ICAO-K3A6|||||||||||||43|Derived||AUTO_4-USA|223|ICAO-K3A6|||||||||||||||||||||||||||||||||||||||||||||||||||||||||||||||||||||||||1012.5||1|AUTO_4-USA|223|ICAO-K3A6|0.0|4-Steady;-|1|AUTO_4-USA|223|ICAO-K3A6|||||||||||||||||||||||||||||||||||||MET087METAR K3A6 202310Z AUTO 18005KT 29/15 A2990 RMK AO1 SLP112 T02920146 10318 20223 54000;||A||223|ICAO-K3A6
USI0000K3A6|NEWHALL|2011|08|20|23|30|34.3700|-118.5700|427.0|28.0||1|AUTO_4-USA|223|ICAO-K3A6|15.0||1|AUTO_4-USA|223|ICAO-K3A6|||||||1011.2||1|AUTO_4-USA|223|ICAO-K3A6|180|N-Normal|1|AUTO_4-USA|223|ICAO-K3A6|2.6|N-Normal|1|AUTO_4-USA|223|ICAO-K3A6|||||||||||||45|Derived||AUTO_4-USA|223|ICAO-K3A6|||||||||||||||||||||||||||||||||||||||||||||||||||||||||||||||||||||||||1012.5||1|AUTO_4-USA|223|ICAO-K3A6|0.0|4-Steady;-|1|AUTO_4-USA|223|ICAO-K3A6|||||||||||||||||||||||||||||||||||||MET087METAR K3A6 202330Z AUTO 18005KT 28/15 A2990 RMK AO1 SLP112 T02760146 10318 20237 54000;||A||223|ICAO-K3A6
USI0000K3A6|NEWHALL|2011|08|21|00|10|34.3700|-118.5700|427.0|29.0||1|AUTO_4-USA|223|ICAO-K3A6|14.0||1|AUTO_4-USA|223|ICAO-K3A6|||||||1011.4||1|AUTO_4-USA|223|ICAO-K3A6|180|N-Normal|1|AUTO_4-USA|223|ICAO-K3A6|2.6|N-Normal|1|AUTO_4-USA|223|ICAO-K3A6|||||||||||||40|Derived||AUTO_4-USA|223|ICAO-K3A6|||||||||||||||||||||||||||||||||||||||||||||||||||||||||||||||||||||||||1012.9||1|AUTO_4-USA|223|ICAO-K3A6|||||||||||||||||||||||||||||||||||||||||||MET069METAR K3A6 210010Z AUTO 18005KT 29/14 A2991 RMK AO1 SLP114 T02860144;||A||223|ICAO-K3A6
USI0000K3A6|NEWHALL|2011|08|21|00|30|34.3700|-118.5700|427.0|28.0||1|AUTO_4-USA|223|ICAO-K3A6|14.0||1|AUTO_4-USA|223|ICAO-K3A6|||||||1011.6||1|AUTO_4-USA|223|ICAO-K3A6|180|N-Normal|1|AUTO_4-USA|223|ICAO-K3A6|1.0|N-Normal|1|AUTO_4-USA|223|ICAO-K3A6|||||||||||||42|Derived||AUTO_4-USA|223|ICAO-K3A6|||||||||||||||||||||||||||||||||||||||||||||||||||||||||||||||||||||||||1012.9||1|AUTO_4-USA|223|ICAO-K3A6|||||||||||||||||||||||||||||||||||||||||||MET069METAR K3A6 210030Z AUTO 18002KT 28/14 A2991 RMK AO1 SLP116 T02750141;||A||223|ICAO-K3A6
USI0000K3A6|NEWHALL|2011|08|21|00|50|34.3700|-118.5700|427.0|26.0||1|AUTO_4-USA|223|ICAO-K3A6|13.0||1|AUTO_4-USA|223|ICAO-K3A6|||||||1011.6||1|AUTO_4-USA|223|ICAO-K3A6|180|N-Normal|1|AUTO_4-USA|223|ICAO-K3A6|1.5|N-Normal|1|AUTO_4-USA|223|ICAO-K3A6|||||||||||||45|Derived||AUTO_4-USA|223|ICAO-K3A6|||||||||||||||||||||||||||||||||||||||||||||||||||||||||||||||||||||||||1012.9||1|AUTO_4-USA|223|ICAO-K3A6|||||||||||||||||||||||||||||||||||||||||||MET069METAR K3A6 210050Z AUTO 18003KT 26/13 A2991 RMK AO1 SLP116 T02620133;||A||223|ICAO-K3A6
USI0000K3A6|NEWHALL|2011|08|21|01|10|34.3700|-118.5700|427.0|27.0||1|AUTO_4-USA|223|ICAO-K3A6|12.0||1|AUTO_4-USA|223|ICAO-K3A6|||||||1011.7||1|AUTO_4-USA|223|ICAO-K3A6|180|N-Normal|1|AUTO_4-USA|223|ICAO-K3A6|1.0|N-Normal|1|AUTO_4-USA|223|ICAO-K3A6|||||||||||||39|Derived||AUTO_4-USA|223|ICAO-K3A6|||||||||||||||||||||||||||||||||||||||||||||||||||||||||||||||||||||||||1012.9||1|AUTO_4-USA|223|ICAO-K3A6|||||||||||||||||||||||||||||||||||||||||||MET069METAR K3A6 210110Z AUTO 18002KT 27/12 A2991 RMK AO1 SLP117 T02660122;||A||223|ICAO-K3A6
USI0000K3A6|NEWHALL|2011|08|21|01|30|34.3700|-118.5700|427.0|26.0||1|AUTO_4-USA|223|ICAO-K3A6|14.0||1|AUTO_4-USA|223|ICAO-K3A6|||||||1011.6||1|AUTO_4-USA|223|ICAO-K3A6|180|N-Normal|1|AUTO_4-USA|223|ICAO-K3A6|1.0|N-Normal|1|AUTO_4-USA|223|ICAO-K3A6|||||||||||||48|Derived||AUTO_4-USA|223|ICAO-K3A6|||||||||||||||||||||||||||||||||||||||||||||||||||||||||||||||||||||||||1012.9||1|AUTO_4-USA|223|ICAO-K3A6|||||||||||||||||||||||||||||||||||||||||||MET069METAR K3A6 210130Z AUTO 18002KT 26/14 A2991 RMK AO1 SLP116 T02570135;||A||223|ICAO-K3A6
USI0000K3A6|NEWHALL|2011|08|21|01|50|34.3700|-118.5700|427.0|24.0||1|AUTO_4-USA|223|ICAO-K3A6|14.0||1|AUTO_4-USA|223|ICAO-K3A6|||||||1011.7||1|AUTO_4-USA|223|ICAO-K3A6|180|N-Normal|1|AUTO_4-USA|223|ICAO-K3A6|2.1|N-Normal|1|AUTO_4-USA|223|ICAO-K3A6|||||||||||||54|Derived||AUTO_4-USA|223|ICAO-K3A6|||||||||||||||||||||||||||||||||||||||||||||||||||||||||||||||||||||||||1012.9||1|AUTO_4-USA|223|ICAO-K3A6|||||||||||||||||||||||||||||||||||||||||||MET069METAR K3A6 210150Z AUTO 18004KT 24/14 A2991 RMK AO1 SLP117 T02370135;||A||223|ICAO-K3A6
USI0000K3A6|NEWHALL|2011|08|21|02|10|34.3700|-118.5700|427.0|22.0||1|AUTO_4-USA|223|ICAO-K3A6|13.0||1|AUTO_4-USA|223|ICAO-K3A6|||||||1011.8||1|AUTO_4-USA|223|ICAO-K3A6|180|N-Normal|1|AUTO_4-USA|223|ICAO-K3A6|2.1|N-Normal|1|AUTO_4-USA|223|ICAO-K3A6|||||||||||||57|Derived||AUTO_4-USA|223|ICAO-K3A6|||||||||||||||||||||||||||||||||||||||||||||||||||||||||||||||||||||||||1013.2||1|AUTO_4-USA|223|ICAO-K3A6|1.2|2-Incr-(st|1|AUTO_4-USA|223|ICAO-K3A6|||||||||||||||||||||||||||||||||||||MET075METAR K3A6 210210Z AUTO 18004KT 22/13 A2992 RMK AO1 SLP118 T02220132 52012;||A||223|ICAO-K3A6
USI0000K3A6|NEWHALL|2011|08|21|02|30|34.3700|-118.5700|427.0|21.0||1|AUTO_4-USA|223|ICAO-K3A6|13.0||1|AUTO_4-USA|223|ICAO-K3A6|||||||1012.2||1|AUTO_4-USA|223|ICAO-K3A6|180|N-Normal|1|AUTO_4-USA|223|ICAO-K3A6|1.5|N-Normal|1|AUTO_4-USA|223|ICAO-K3A6|||||||||||||60|Derived||AUTO_4-USA|223|ICAO-K3A6|||||||||||||||||||||||||||||||||||||||||||||||||||||||||||||||||||||||||1013.5||1|AUTO_4-USA|223|ICAO-K3A6|2.1|1-Incr-the|1|AUTO_4-USA|223|ICAO-K3A6|||||||||||||||||||||||||||||||||||||MET075METAR K3A6 210230Z AUTO 18003KT 21/13 A2993 RMK AO1 SLP122 T02110127 51021;||A||223|ICAO-K3A6
USI0000K3A6|NEWHALL|2011|08|21|02|50|34.3700|-118.5700|427.0|20.0||1|AUTO_4-USA|223|ICAO-K3A6|13.0||1|AUTO_4-USA|223|ICAO-K3A6|||||||1012.5||1|AUTO_4-USA|223|ICAO-K3A6|180|N-Normal|1|AUTO_4-USA|223|ICAO-K3A6|2.6|N-Normal|1|AUTO_4-USA|223|ICAO-K3A6|||||||||||||64|Derived||AUTO_4-USA|223|ICAO-K3A6|||||||||||||||||||||||||||||||||||||||||||||||||||||||||||||||||||||||||1013.5||1|AUTO_4-USA|223|ICAO-K3A6|3.0|1-Incr-the|1|AUTO_4-USA|223|ICAO-K3A6|||||||||||||||||||||||||||||||||||||MET075METAR K3A6 210250Z AUTO 18005KT 20/13 A2993 RMK AO1 SLP125 T02000129 51030;||A||223|ICAO-K3A6
USI0000K3A6|NEWHALL|2011|08|21|04|50|34.3700|-118.5700|427.0|18.0||1|AUTO_4-USA|223|ICAO-K3A6|12.0||1|AUTO_4-USA|223|ICAO-K3A6|||||||1013.5||1|AUTO_4-USA|223|ICAO-K3A6|180|N-Normal|1|AUTO_4-USA|223|ICAO-K3A6|1.5|N-Normal|1|AUTO_4-USA|223|ICAO-K3A6|||||||||||||68|Derived||AUTO_4-USA|223|ICAO-K3A6|||||||||||||||||||||||||||||||||||||||||||||||||||||||||||||||||||||||||1014.6||1|AUTO_4-USA|223|ICAO-K3A6|||||||||||||||||||||||||||||||||||||||||||MET069METAR K3A6 210450Z AUTO 18003KT 18/12 A2996 RMK AO1 SLP135 T01770125;||A||223|ICAO-K3A6
USI0000K3A6|NEWHALL|2011|08|21|05|10|34.3700|-118.5700|427.0|18.0||1|AUTO_4-USA|223|ICAO-K3A6|12.0||1|AUTO_4-USA|223|ICAO-K3A6|||||||1013.4||1|AUTO_4-USA|223|ICAO-K3A6|180|N-Normal|1|AUTO_4-USA|223|ICAO-K3A6|1.0|N-Normal|1|AUTO_4-USA|223|ICAO-K3A6|||||||||||||68|Derived||AUTO_4-USA|223|ICAO-K3A6|||||||||||||||||||||||||||||||||||||||||||||||||||||||||||||||||||||||||1014.6||1|AUTO_4-USA|223|ICAO-K3A6|0.0|4-Steady;-|1|AUTO_4-USA|223|ICAO-K3A6|||||||||||||||||||||||||||||||||||||MET087METAR K3A6 210510Z AUTO 18002KT 18/12 A2996 RMK AO1 SLP134 T01770125 10291 20177 54000;||A||223|ICAO-K3A6
USI0000K3A6|NEWHALL|2011|08|21|05|30|34.3700|-118.5700|427.0|17.0||1|AUTO_4-USA|223|ICAO-K3A6|12.0||1|AUTO_4-USA|223|ICAO-K3A6|||||||1013.7||1|AUTO_4-USA|223|ICAO-K3A6|180|N-Normal|1|AUTO_4-USA|223|ICAO-K3A6|1.0|N-Normal|1|AUTO_4-USA|223|ICAO-K3A6|||||||||||||73|Derived||AUTO_4-USA|223|ICAO-K3A6|||||||||||||||||||||||||||||||||||||||||||||||||||||||||||||||||||||||||1014.6||1|AUTO_4-USA|223|ICAO-K3A6|0.0|4-Steady;-|1|AUTO_4-USA|223|ICAO-K3A6|||||||||||||||||||||||||||||||||||||MET087METAR K3A6 210530Z AUTO 18002KT 17/12 A2996 RMK AO1 SLP137 T01730124 10286 20173 54000;||A||223|ICAO-K3A6
USI0000K3A6|NEWHALL|2011|08|21|06|10|34.3700|-118.5700|427.0|16.0||1|AUTO_4-USA|223|ICAO-K3A6|12.0||1|AUTO_4-USA|223|ICAO-K3A6|||||||1013.8||1|AUTO_4-USA|223|ICAO-K3A6|180|N-Normal|1|AUTO_4-USA|223|ICAO-K3A6|0.5|N-Normal|1|AUTO_4-USA|223|ICAO-K3A6|||||||||||||77|Derived||AUTO_4-USA|223|ICAO-K3A6|||||||||||||||||||||||||||||||||||||||||||||||||||||||||||||||||||||||||1014.6||1|AUTO_4-USA|223|ICAO-K3A6|||||||||||||||||||||||||||||||||||||||||||MET079METAR K3A6 210610Z AUTO 18001KT 16/12 A2996 RMK AO1 SLP138 T01650118 403400134;||A||223|ICAO-K3A6
USI0000K3A6|NEWHALL|2011|08|21|06|30|34.3700|-118.5700|427.0|16.0||1|AUTO_4-USA|223|ICAO-K3A6|11.0||1|AUTO_4-USA|223|ICAO-K3A6|||||||1013.9||1|AUTO_4-USA|223|ICAO-K3A6|180|N-Normal|1|AUTO_4-USA|223|ICAO-K3A6|0.5|N-Normal|1|AUTO_4-USA|223|ICAO-K3A6|||||||||||||72|Derived||AUTO_4-USA|223|ICAO-K3A6|||||||||||||||||||||||||||||||||||||||||||||||||||||||||||||||||||||||||1014.6||1|AUTO_4-USA|223|ICAO-K3A6|||||||||||||||||||||||||||||||||||||||||||MET079METAR K3A6 210630Z AUTO 18001KT 16/11 A2996 RMK AO1 SLP139 T01610113 403400134;||A||223|ICAO-K3A6
USI0000K3A6|NEWHALL|2011|08|21|06|50|34.3700|-118.5700|427.0|16.0||1|AUTO_4-USA|223|ICAO-K3A6|11.0||1|AUTO_4-USA|223|ICAO-K3A6|||||||1014.1||1|AUTO_4-USA|223|ICAO-K3A6|180|N-Normal|1|AUTO_4-USA|223|ICAO-K3A6|0.5|N-Normal|1|AUTO_4-USA|223|ICAO-K3A6|||||||||||||72|Derived||AUTO_4-USA|223|ICAO-K3A6|||||||||||||||||||||||||||||||||||||||||||||||||||||||||||||||||||||||||1014.6||1|AUTO_4-USA|223|ICAO-K3A6|||||||||||||||||||||||||||||||||||||||||||MET079METAR K3A6 210650Z AUTO 18001KT 16/11 A2996 RMK AO1 SLP141 T01600113 403180134;||A||223|ICAO-K3A6
USI0000K3A6|NEWHALL|2011|08|21|07|10|34.3700|-118.5700|427.0|16.0||1|AUTO_4-USA|223|ICAO-K3A6|11.0||1|AUTO_4-USA|223|ICAO-K3A6|||||||1014.1||1|AUTO_4-USA|223|ICAO-K3A6|999|C-Calm|9|AUTO_4-USA|223|ICAO-K3A6|0.0|C-Calm|1|AUTO_4-USA|223|ICAO-K3A6|||||||||||||72|Derived||AUTO_4-USA|223|ICAO-K3A6|||||||||||||||||||||||||||||||||||||||||||||||||||||||||||||||||||||||||1014.6||1|AUTO_4-USA|223|ICAO-K3A6|||||||||||||||||||||||||||||||||||||||||||MET069METAR K3A6 210710Z AUTO 00000KT 16/11 A2996 RMK AO1 SLP141 T01570108;||A||223|ICAO-K3A6
USI0000K3A6|NEWHALL|2011|08|21|07|30|34.3700|-118.5700|427.0|15.0||1|AUTO_4-USA|223|ICAO-K3A6|11.0||1|AUTO_4-USA|223|ICAO-K3A6|||||||1014.4||1|AUTO_4-USA|223|ICAO-K3A6|180|N-Normal|1|AUTO_4-USA|223|ICAO-K3A6|0.5|N-Normal|1|AUTO_4-USA|223|ICAO-K3A6|||||||||||||77|Derived||AUTO_4-USA|223|ICAO-K3A6|||||||||||||||||||||||||||||||||||||||||||||||||||||||||||||||||||||||||1014.9||1|AUTO_4-USA|223|ICAO-K3A6|||||||||||||||||||||||||||||||||||||||||||MET069METAR K3A6 210730Z AUTO 18001KT 15/11 A2997 RMK AO1 SLP144 T01540108;||A||223|ICAO-K3A6
USI0000K3A6|NEWHALL|2011|08|21|10|10|34.3700|-118.5700|427.0|14.0||1|AUTO_4-USA|223|ICAO-K3A6|10.0||1|AUTO_4-USA|223|ICAO-K3A6|||||||1015.1||1|AUTO_4-USA|223|ICAO-K3A6|180|N-Normal|1|AUTO_4-USA|223|ICAO-K3A6|1.0|N-Normal|1|AUTO_4-USA|223|ICAO-K3A6|||||||||||||77|Derived||AUTO_4-USA|223|ICAO-K3A6|||||||||||||||||||||||||||||||||||||||||||||||||||||||||||||||||||||||||1014.9||1|AUTO_4-USA|223|ICAO-K3A6|||||||||||||||||||||||||||||||||||||||||||MET069METAR K3A6 211010Z AUTO 18002KT 14/10 A2997 RMK AO1 SLP151 T01370097;||A||223|ICAO-K3A6
USI0000K3A6|NEWHALL|2011|08|21|11|30|34.3700|-118.5700|427.0|14.0||1|AUTO_4-USA|223|ICAO-K3A6|9.0||1|AUTO_4-USA|223|ICAO-K3A6|||||||1015.1||1|AUTO_4-USA|223|ICAO-K3A6|360|N-Normal|1|AUTO_4-USA|223|ICAO-K3A6|0.5|N-Normal|1|AUTO_4-USA|223|ICAO-K3A6|||||||||||||72|Derived||AUTO_4-USA|223|ICAO-K3A6|||||||||||||||||||||||||||||||||||||||||||||||||||||||||||||||||||||||||1014.9||1|AUTO_4-USA|223|ICAO-K3A6|0.0|4-Steady;-|1|AUTO_4-USA|223|ICAO-K3A6|||||||||||||||||||||||||||||||||||||MET087METAR K3A6 211130Z AUTO 00001KT 14/09 A2997 RMK AO1 SLP151 T01350095 10173 20134 54000;||A||223|ICAO-K3A6
USI0000K3A6|NEWHALL|2011|08|21|11|50|34.3700|-118.5700|427.0|13.0||1|AUTO_4-USA|223|ICAO-K3A6|9.0||1|AUTO_4-USA|223|ICAO-K3A6|||||||1015.3||1|AUTO_4-USA|223|ICAO-K3A6|360|N-Normal|1|AUTO_4-USA|223|ICAO-K3A6|1.0|N-Normal|1|AUTO_4-USA|223|ICAO-K3A6|||||||||||||77|Derived||AUTO_4-USA|223|ICAO-K3A6|||||||||||||||||||||||||||||||||||||||||||||||||||||||||||||||||||||||||1014.9||1|AUTO_4-USA|223|ICAO-K3A6|0.0|4-Steady;-|1|AUTO_4-USA|223|ICAO-K3A6|||||||||||||||||||||||||||||||||||||MET087METAR K3A6 211150Z AUTO 36002KT 13/09 A2997 RMK AO1 SLP153 T01310095 10168 20131 54000;||A||223|ICAO-K3A6
USI0000K3A6|NEWHALL|2011|08|21|12|10|34.3700|-118.5700|427.0|13.0||1|AUTO_4-USA|223|ICAO-K3A6|10.0||1|AUTO_4-USA|223|ICAO-K3A6|||||||1015.6||1|AUTO_4-USA|223|ICAO-K3A6|360|N-Normal|1|AUTO_4-USA|223|ICAO-K3A6|1.0|N-Normal|1|AUTO_4-USA|223|ICAO-K3A6|||||||||||||82|Derived||AUTO_4-USA|223|ICAO-K3A6|||||||||||||||||||||||||||||||||||||||||||||||||||||||||||||||||||||||||1014.9||1|AUTO_4-USA|223|ICAO-K3A6|||||||||||||||||||||||||||||||||||||||||||MET069METAR K3A6 211210Z AUTO 36002KT 13/10 A2997 RMK AO1 SLP156 T01270097;||A||223|ICAO-K3A6
USI0000K3A6|NEWHALL|2011|08|21|12|30|34.3700|-118.5700|427.0|13.0||1|AUTO_4-USA|223|ICAO-K3A6|10.0||1|AUTO_4-USA|223|ICAO-K3A6|||||||1015.8||1|AUTO_4-USA|223|ICAO-K3A6|320|N-Normal|1|AUTO_4-USA|223|ICAO-K3A6|1.5|N-Normal|1|AUTO_4-USA|223|ICAO-K3A6|||||||||||||82|Derived||AUTO_4-USA|223|ICAO-K3A6|||||||||||||||||||||||||||||||||||||||||||||||||||||||||||||||||||||||||1014.9||1|AUTO_4-USA|223|ICAO-K3A6|||||||||||||||||||||||||||||||||||||||||||MET069METAR K3A6 211230Z AUTO 32003KT 13/10 A2997 RMK AO1 SLP158 T01310101;||A||223|ICAO-K3A6
USI0000K3A6|NEWHALL|2011|08|21|12|50|34.3700|-118.5700|427.0|13.0||1|AUTO_4-USA|223|ICAO-K3A6|10.0||1|AUTO_4-USA|223|ICAO-K3A6|||||||1015.9||1|AUTO_4-USA|223|ICAO-K3A6|360|N-Normal|1|AUTO_4-USA|223|ICAO-K3A6|1.0|N-Normal|1|AUTO_4-USA|223|ICAO-K3A6|||||||||||||82|Derived||AUTO_4-USA|223|ICAO-K3A6|||||||||||||||||||||||||||||||||||||||||||||||||||||||||||||||||||||||||1014.9||1|AUTO_4-USA|223|ICAO-K3A6|||||||||||||||||||||||||||||||||||||||||||MET069METAR K3A6 211250Z AUTO 36002KT 13/10 A2997 RMK AO1 SLP159 T01320103;||A||223|ICAO-K3A6
USI0000K3A6|NEWHALL|2011|08|21|17|50|34.3700|-118.5700|427.0|28.0||1|AUTO_4-USA|223|ICAO-K3A6|12.0||1|AUTO_4-USA|223|ICAO-K3A6|||||||1017.2||1|AUTO_4-USA|223|ICAO-K3A6|360|N-Normal|1|AUTO_4-USA|223|ICAO-K3A6|1.0|N-Normal|1|AUTO_4-USA|223|ICAO-K3A6|||||||||||||37|Derived||AUTO_4-USA|223|ICAO-K3A6|||||||||||||||||||||||||||||||||||||||||||||||||||||||||||||||||||||||||1015.6||1|AUTO_4-USA|223|ICAO-K3A6|0.0|4-Steady;-|1|AUTO_4-USA|223|ICAO-K3A6|||||||||||||||||||||||||||||||||||||MET087METAR K3A6 211750Z AUTO 36002KT 28/12 A2999 RMK AO1 SLP172 T02820121 10284 20126 54000;||A||223|ICAO-K3A6
USI0000K3A6|NEWHALL|2011|08|21|19|10|34.3700|-118.5700|427.0|31.0||1|AUTO_4-USA|223|ICAO-K3A6|13.0||1|AUTO_4-USA|223|ICAO-K3A6|||||||1016.4||1|AUTO_4-USA|223|ICAO-K3A6|360|N-Normal|1|AUTO_4-USA|223|ICAO-K3A6|1.5|N-Normal|1|AUTO_4-USA|223|ICAO-K3A6|||||||||||||33|Derived||AUTO_4-USA|223|ICAO-K3A6|||||||||||||||||||||||||||||||||||||||||||||||||||||||||||||||||||||||||1015.2||1|AUTO_4-USA|223|ICAO-K3A6|||||||||||||||||||||||||||||||||||||||||||MET069METAR K3A6 211910Z AUTO 36003KT 31/13 A2998 RMK AO1 SLP164 T03140127;||A||223|ICAO-K3A6
USI0000K3A6|NEWHALL|2011|08|21|19|30|34.3700|-118.5700|427.0|31.0||1|AUTO_4-USA|223|ICAO-K3A6|13.0||1|AUTO_4-USA|223|ICAO-K3A6|||||||1015.9||1|AUTO_4-USA|223|ICAO-K3A6|360|N-Normal|1|AUTO_4-USA|223|ICAO-K3A6|1.5|N-Normal|1|AUTO_4-USA|223|ICAO-K3A6|||||||||||||33|Derived||AUTO_4-USA|223|ICAO-K3A6|||||||||||||||||||||||||||||||||||||||||||||||||||||||||||||||||||||||||1015.2||1|AUTO_4-USA|223|ICAO-K3A6|||||||||||||||||||||||||||||||||||||||||||MET069METAR K3A6 211930Z AUTO 36003KT 31/13 A2998 RMK AO1 SLP159 T03120130;||A||223|ICAO-K3A6
USI0000K3A6|NEWHALL|2011|08|22|00|50|34.3700|-118.5700|427.0|28.0||1|AUTO_4-USA|223|ICAO-K3A6|12.0||1|AUTO_4-USA|223|ICAO-K3A6|||||||1012.3||1|AUTO_4-USA|223|ICAO-K3A6|360|N-Normal|1|AUTO_4-USA|223|ICAO-K3A6|3.6|N-Normal|1|AUTO_4-USA|223|ICAO-K3A6|||||||||||||37|Derived||AUTO_4-USA|223|ICAO-K3A6|||||||||||||||||||||||||||||||||||||||||||||||||||||||||||||||||||||||||1013.9||1|AUTO_4-USA|223|ICAO-K3A6|||||||||||||||||||||||||||||||||||||||||||MET069METAR K3A6 220050Z AUTO 36007KT 28/12 A2994 RMK AO1 SLP123 T02790122;||A||223|ICAO-K3A6
USI0000K3A6|NEWHALL|2011|08|22|01|10|34.3700|-118.5700|427.0|27.0||1|AUTO_4-USA|223|ICAO-K3A6|12.0||1|AUTO_4-USA|223|ICAO-K3A6|||||||1012.4||1|AUTO_4-USA|223|ICAO-K3A6|360|N-Normal|1|AUTO_4-USA|223|ICAO-K3A6|3.1|N-Normal|1|AUTO_4-USA|223|ICAO-K3A6|||||||||||||39|Derived||AUTO_4-USA|223|ICAO-K3A6|||||||||||||||||||||||||||||||||||||||||||||||||||||||||||||||||||||||||1013.9||1|AUTO_4-USA|223|ICAO-K3A6|||||||||||||||||||||||||||||||||||||||||||MET069METAR K3A6 220110Z AUTO 36006KT 27/12 A2994 RMK AO1 SLP124 T02680124;||A||223|ICAO-K3A6
USI0000K3A6|NEWHALL|2011|08|22|01|30|34.3700|-118.5700|427.0|26.0||1|AUTO_4-USA|223|ICAO-K3A6|12.0||1|AUTO_4-USA|223|ICAO-K3A6|||||||1012.5||1|AUTO_4-USA|223|ICAO-K3A6|360|N-Normal|1|AUTO_4-USA|223|ICAO-K3A6|3.6|N-Normal|1|AUTO_4-USA|223|ICAO-K3A6|||||||||||||42|Derived||AUTO_4-USA|223|ICAO-K3A6|||||||||||||||||||||||||||||||||||||||||||||||||||||||||||||||||||||||||1013.9||1|AUTO_4-USA|223|ICAO-K3A6|||||||||||||||||||||||||||||||||||||||||||MET069METAR K3A6 220130Z AUTO 36007KT 26/12 A2994 RMK AO1 SLP125 T02590120;||A||223|ICAO-K3A6
USI0000K3A6|NEWHALL|2011|08|22|01|50|34.3700|-118.5700|427.0|24.0||1|AUTO_4-USA|223|ICAO-K3A6|12.0||1|AUTO_4-USA|223|ICAO-K3A6|||||||1012.6||1|AUTO_4-USA|223|ICAO-K3A6|360|N-Normal|1|AUTO_4-USA|223|ICAO-K3A6|2.6|N-Normal|1|AUTO_4-USA|223|ICAO-K3A6|||||||||||||47|Derived||AUTO_4-USA|223|ICAO-K3A6|||||||||||||||||||||||||||||||||||||||||||||||||||||||||||||||||||||||||1013.9||1|AUTO_4-USA|223|ICAO-K3A6|||||||||||||||||||||||||||||||||||||||||||MET069METAR K3A6 220150Z AUTO 36005KT 24/12 A2994 RMK AO1 SLP126 T02440123;||A||223|ICAO-K3A6
USI0000K3A6|NEWHALL|2011|08|22|02|50|34.3700|-118.5700|427.0|20.0||1|AUTO_4-USA|223|ICAO-K3A6|13.0||1|AUTO_4-USA|223|ICAO-K3A6|||||||1013.2||1|AUTO_4-USA|223|ICAO-K3A6|360|N-Normal|1|AUTO_4-USA|223|ICAO-K3A6|2.6|N-Normal|1|AUTO_4-USA|223|ICAO-K3A6|||||||||||||64|Derived||AUTO_4-USA|223|ICAO-K3A6|||||||||||||||||||||||||||||||||||||||||||||||||||||||||||||||||||||||||1014.6||1|AUTO_4-USA|223|ICAO-K3A6|0.0|4-Steady;-|1|AUTO_4-USA|223|ICAO-K3A6|||||||||||||||||||||||||||||||||||||MET075METAR K3A6 220250Z AUTO 36005KT 20/13 A2996 RMK AO1 SLP132 T02050127 54000;||A||223|ICAO-K3A6
USI0000K3A6|NEWHALL|2011|08|22|03|10|34.3700|-118.5700|427.0|20.0||1|AUTO_4-USA|223|ICAO-K3A6|13.0||1|AUTO_4-USA|223|ICAO-K3A6|||||||1013.8||1|AUTO_4-USA|223|ICAO-K3A6|360|N-Normal|1|AUTO_4-USA|223|ICAO-K3A6|2.6|N-Normal|1|AUTO_4-USA|223|ICAO-K3A6|||||||||||||64|Derived||AUTO_4-USA|223|ICAO-K3A6|||||||||||||||||||||||||||||||||||||||||||||||||||||||||||||||||||||||||1014.9||1|AUTO_4-USA|223|ICAO-K3A6|||||||||||||||||||||||||||||||||||||||||||MET069METAR K3A6 220310Z AUTO 36005KT 20/13 A2997 RMK AO1 SLP138 T01950129;||A||223|ICAO-K3A6
USI0000K3A6|NEWHALL|2011|08|22|03|30|34.3700|-118.5700|427.0|19.0||1|AUTO_4-USA|223|ICAO-K3A6|13.0||1|AUTO_4-USA|223|ICAO-K3A6|||||||1014.1||1|AUTO_4-USA|223|ICAO-K3A6|360|N-Normal|1|AUTO_4-USA|223|ICAO-K3A6|1.5|N-Normal|1|AUTO_4-USA|223|ICAO-K3A6|||||||||||||68|Derived||AUTO_4-USA|223|ICAO-K3A6|||||||||||||||||||||||||||||||||||||||||||||||||||||||||||||||||||||||||1014.9||1|AUTO_4-USA|223|ICAO-K3A6|||||||||||||||||||||||||||||||||||||||||||MET069METAR K3A6 220330Z AUTO 36003KT 19/13 A2997 RMK AO1 SLP141 T01910128;||A||223|ICAO-K3A6
USI0000K3A6|NEWHALL|2011|08|22|03|50|34.3700|-118.5700|427.0|19.0||1|AUTO_4-USA|223|ICAO-K3A6|12.0||1|AUTO_4-USA|223|ICAO-K3A6|||||||1014.5||1|AUTO_4-USA|223|ICAO-K3A6|360|N-Normal|1|AUTO_4-USA|223|ICAO-K3A6|1.5|N-Normal|1|AUTO_4-USA|223|ICAO-K3A6|||||||||||||64|Derived||AUTO_4-USA|223|ICAO-K3A6|||||||||||||||||||||||||||||||||||||||||||||||||||||||||||||||||||||||||1015.2||1|AUTO_4-USA|223|ICAO-K3A6|||||||||||||||||||||||||||||||||||||||||||MET069METAR K3A6 220350Z AUTO 36003KT 19/12 A2998 RMK AO1 SLP145 T01870125;||A||223|ICAO-K3A6
USI0000K3A6|NEWHALL|2011|08|22|04|10|34.3700|-118.5700|427.0|19.0||1|AUTO_4-USA|223|ICAO-K3A6|12.0||1|AUTO_4-USA|223|ICAO-K3A6|||||||1015.0||1|AUTO_4-USA|223|ICAO-K3A6|360|N-Normal|1|AUTO_4-USA|223|ICAO-K3A6|0.5|N-Normal|1|AUTO_4-USA|223|ICAO-K3A6|||||||||||||64|Derived||AUTO_4-USA|223|ICAO-K3A6|||||||||||||||||||||||||||||||||||||||||||||||||||||||||||||||||||||||||1015.6||1|AUTO_4-USA|223|ICAO-K3A6|||||||||||||||||||||||||||||||||||||||||||MET069METAR K3A6 220410Z AUTO 36001KT 19/12 A2999 RMK AO1 SLP150 T01910122;||A||223|ICAO-K3A6
USI0000K3A6|NEWHALL|2011|08|22|04|30|34.3700|-118.5700|427.0|19.0||1|AUTO_4-USA|223|ICAO-K3A6|12.0||1|AUTO_4-USA|223|ICAO-K3A6|||||||1015.5||1|AUTO_4-USA|223|ICAO-K3A6|360|N-Normal|1|AUTO_4-USA|223|ICAO-K3A6|0.5|N-Normal|1|AUTO_4-USA|223|ICAO-K3A6|||||||||||||64|Derived||AUTO_4-USA|223|ICAO-K3A6|||||||||||||||||||||||||||||||||||||||||||||||||||||||||||||||||||||||||1015.9||1|AUTO_4-USA|223|ICAO-K3A6|||||||||||||||||||||||||||||||||||||||||||MET069METAR K3A6 220430Z AUTO 36001KT 19/12 A3000 RMK AO1 SLP155 T01910121;||A||223|ICAO-K3A6
USI0000K3A6|NEWHALL|2011|08|22|04|50|34.3700|-118.5700|427.0|19.0||1|AUTO_4-USA|223|ICAO-K3A6|11.0||1|AUTO_4-USA|223|ICAO-K3A6|||||||1015.7||1|AUTO_4-USA|223|ICAO-K3A6|360|N-Normal|1|AUTO_4-USA|223|ICAO-K3A6|1.0|N-Normal|1|AUTO_4-USA|223|ICAO-K3A6|||||||||||||60|Derived||AUTO_4-USA|223|ICAO-K3A6|||||||||||||||||||||||||||||||||||||||||||||||||||||||||||||||||||||||||1015.9||1|AUTO_4-USA|223|ICAO-K3A6|||||||||||||||||||||||||||||||||||||||||||MET069METAR K3A6 220450Z AUTO 36002KT 19/11 A3000 RMK AO1 SLP157 T01930110;||A||223|ICAO-K3A6
USI0000K3A6|NEWHALL|2011|08|22|05|10|34.3700|-118.5700|427.0|19.0||1|AUTO_4-USA|223|ICAO-K3A6|11.0||1|AUTO_4-USA|223|ICAO-K3A6|||||||1016.0||1|AUTO_4-USA|223|ICAO-K3A6|360|N-Normal|1|AUTO_4-USA|223|ICAO-K3A6|0.5|N-Normal|1|AUTO_4-USA|223|ICAO-K3A6|||||||||||||60|Derived||AUTO_4-USA|223|ICAO-K3A6|||||||||||||||||||||||||||||||||||||||||||||||||||||||||||||||||||||||||1016.3||1|AUTO_4-USA|223|ICAO-K3A6|0.0|4-Steady;-|1|AUTO_4-USA|223|ICAO-K3A6|||||||||||||||||||||||||||||||||||||MET087METAR K3A6 220510Z AUTO 36001KT 19/11 A3001 RMK AO1 SLP160 T01910111 10332 20187 54000;||A||223|ICAO-K3A6
USI0000K3A6|NEWHALL|2011|08|22|05|30|34.3700|-118.5700|427.0|19.0||1|AUTO_4-USA|223|ICAO-K3A6|12.0||1|AUTO_4-USA|223|ICAO-K3A6|||||||1016.0||1|AUTO_4-USA|223|ICAO-K3A6|360|N-Normal|1|AUTO_4-USA|223|ICAO-K3A6|0.5|N-Normal|1|AUTO_4-USA|223|ICAO-K3A6|||||||||||||64|Derived||AUTO_4-USA|223|ICAO-K3A6|||||||||||||||||||||||||||||||||||||||||||||||||||||||||||||||||||||||||1016.3||1|AUTO_4-USA|223|ICAO-K3A6|0.0|4-Steady;-|1|AUTO_4-USA|223|ICAO-K3A6|||||||||||||||||||||||||||||||||||||MET087METAR K3A6 220530Z AUTO 36001KT 19/12 A3001 RMK AO1 SLP160 T01870115 10332 20187 54000;||A||223|ICAO-K3A6
USI0000K3A6|NEWHALL|2011|08|22|05|50|34.3700|-118.5700|427.0|18.0||1|AUTO_4-USA|223|ICAO-K3A6|11.0||1|AUTO_4-USA|223|ICAO-K3A6|||||||1016.1||1|AUTO_4-USA|223|ICAO-K3A6|999|C-Calm|9|AUTO_4-USA|223|ICAO-K3A6|0.0|C-Calm|1|AUTO_4-USA|223|ICAO-K3A6|||||||||||||64|Derived||AUTO_4-USA|223|ICAO-K3A6|||||||||||||||||||||||||||||||||||||||||||||||||||||||||||||||||||||||||1016.3||1|AUTO_4-USA|223|ICAO-K3A6|2.9|2-Incr-(st|1|AUTO_4-USA|223|ICAO-K3A6|||||||||||||||||||||||||||||||||||||MET087METAR K3A6 220550Z AUTO 00000KT 18/11 A3001 RMK AO1 SLP161 T01830113 10332 20183 52053;||A||223|ICAO-K3A6
USI0000K3A6|NEWHALL|2011|08|22|06|10|34.3700|-118.5700|427.0|18.0||1|AUTO_4-USA|223|ICAO-K3A6|12.0||1|AUTO_4-USA|223|ICAO-K3A6|||||||1016.3||1|AUTO_4-USA|223|ICAO-K3A6|360|N-Normal|1|AUTO_4-USA|223|ICAO-K3A6|0.5|N-Normal|1|AUTO_4-USA|223|ICAO-K3A6|||||||||||||68|Derived||AUTO_4-USA|223|ICAO-K3A6|||||||||||||||||||||||||||||||||||||||||||||||||||||||||||||||||||||||||1016.3||1|AUTO_4-USA|223|ICAO-K3A6|||||||||||||||||||||||||||||||||||||||||||MET079METAR K3A6 220610Z AUTO 36001KT 18/12 A3001 RMK AO1 SLP163 T01830116 403320126;||A||223|ICAO-K3A6
USI0000K3A6|NEWHALL|2011|08|22|06|30|34.3700|-118.5700|427.0|18.0||1|AUTO_4-USA|223|ICAO-K3A6|12.0||1|AUTO_4-USA|223|ICAO-K3A6|||||||1016.3||1|AUTO_4-USA|223|ICAO-K3A6|360|N-Normal|1|AUTO_4-USA|223|ICAO-K3A6|0.5|N-Normal|1|AUTO_4-USA|223|ICAO-K3A6|||||||||||||68|Derived||AUTO_4-USA|223|ICAO-K3A6|||||||||||||||||||||||||||||||||||||||||||||||||||||||||||||||||||||||||1016.3||1|AUTO_4-USA|223|ICAO-K3A6|||||||||||||||||||||||||||||||||||||||||||MET079METAR K3A6 220630Z AUTO 36001KT 18/12 A3001 RMK AO1 SLP163 T01820117 403320126;||A||223|ICAO-K3A6
USI0000K3A6|NEWHALL|2011|08|22|06|50|34.3700|-118.5700|427.0|18.0||1|AUTO_4-USA|223|ICAO-K3A6|12.0||1|AUTO_4-USA|223|ICAO-K3A6|||||||1016.5||1|AUTO_4-USA|223|ICAO-K3A6|360|N-Normal|1|AUTO_4-USA|223|ICAO-K3A6|0.5|N-Normal|1|AUTO_4-USA|223|ICAO-K3A6|||||||||||||68|Derived||AUTO_4-USA|223|ICAO-K3A6|||||||||||||||||||||||||||||||||||||||||||||||||||||||||||||||||||||||||1016.3||1|AUTO_4-USA|223|ICAO-K3A6|||||||||||||||||||||||||||||||||||||||||||MET079METAR K3A6 220650Z AUTO 36001KT 18/12 A3001 RMK AO1 SLP165 T01800120 403320126;||A||223|ICAO-K3A6
USI0000K3A6|NEWHALL|2011|08|22|07|10|34.3700|-118.5700|427.0|18.0||1|AUTO_4-USA|223|ICAO-K3A6|12.0||1|AUTO_4-USA|223|ICAO-K3A6|||||||1016.5||1|AUTO_4-USA|223|ICAO-K3A6|360|N-Normal|1|AUTO_4-USA|223|ICAO-K3A6|1.0|N-Normal|1|AUTO_4-USA|223|ICAO-K3A6|||||||||||||68|Derived||AUTO_4-USA|223|ICAO-K3A6|||||||||||||||||||||||||||||||||||||||||||||||||||||||||||||||||||||||||1016.3||1|AUTO_4-USA|223|ICAO-K3A6|||||||||||||||||||||||||||||||||||||||||||MET069METAR K3A6 220710Z AUTO 36002KT 18/12 A3001 RMK AO1 SLP165 T01770119;||A||223|ICAO-K3A6
USI0000K3A6|NEWHALL|2011|08|22|10|30|34.3700|-118.5700|427.0|16.0||1|AUTO_4-USA|223|ICAO-K3A6|10.0||1|AUTO_4-USA|223|ICAO-K3A6|||||||1016.1||1|AUTO_4-USA|223|ICAO-K3A6|360|N-Normal|1|AUTO_4-USA|223|ICAO-K3A6|1.0|N-Normal|1|AUTO_4-USA|223|ICAO-K3A6|||||||||||||68|Derived||AUTO_4-USA|223|ICAO-K3A6|||||||||||||||||||||||||||||||||||||||||||||||||||||||||||||||||||||||||1015.6||1|AUTO_4-USA|223|ICAO-K3A6|||||||||||||||||||||||||||||||||||||||||||MET069METAR K3A6 221030Z AUTO 36002KT 16/10 A2999 RMK AO1 SLP161 T01630103;||A||223|ICAO-K3A6
USI0000K3A6|NEWHALL|2011|08|22|10|50|34.3700|-118.5700|427.0|16.0||1|AUTO_4-USA|223|ICAO-K3A6|9.0||1|AUTO_4-USA|223|ICAO-K3A6|||||||1016.2||1|AUTO_4-USA|223|ICAO-K3A6|360|N-Normal|1|AUTO_4-USA|223|ICAO-K3A6|1.0|N-Normal|1|AUTO_4-USA|223|ICAO-K3A6|||||||||||||63|Derived||AUTO_4-USA|223|ICAO-K3A6|||||||||||||||||||||||||||||||||||||||||||||||||||||||||||||||||||||||||1015.6||1|AUTO_4-USA|223|ICAO-K3A6|||||||||||||||||||||||||||||||||||||||||||MET069METAR K3A6 221050Z AUTO 36002KT 16/09 A2999 RMK AO1 SLP162 T01640093;||A||223|ICAO-K3A6
USI0000K3A6|NEWHALL|2011|08|22|11|10|34.3700|-118.5700|427.0|17.0||1|AUTO_4-USA|223|ICAO-K3A6|10.0||1|AUTO_4-USA|223|ICAO-K3A6|||||||1016.0||1|AUTO_4-USA|223|ICAO-K3A6|360|N-Normal|1|AUTO_4-USA|223|ICAO-K3A6|1.0|N-Normal|1|AUTO_4-USA|223|ICAO-K3A6|||||||||||||64|Derived||AUTO_4-USA|223|ICAO-K3A6|||||||||||||||||||||||||||||||||||||||||||||||||||||||||||||||||||||||||1015.6||1|AUTO_4-USA|223|ICAO-K3A6|0.0|4-Steady;-|1|AUTO_4-USA|223|ICAO-K3A6|||||||||||||||||||||||||||||||||||||MET087METAR K3A6 221110Z AUTO 36002KT 17/10 A2999 RMK AO1 SLP160 T01720096 10190 20162 54000;||A||223|ICAO-K3A6
USI0000K3A6|NEWHALL|2011|08|22|11|30|34.3700|-118.5700|427.0|17.0||1|AUTO_4-USA|223|ICAO-K3A6|9.0||1|AUTO_4-USA|223|ICAO-K3A6|||||||1016.0||1|AUTO_4-USA|223|ICAO-K3A6|360|N-Normal|1|AUTO_4-USA|223|ICAO-K3A6|1.0|N-Normal|1|AUTO_4-USA|223|ICAO-K3A6|||||||||||||59|Derived||AUTO_4-USA|223|ICAO-K3A6|||||||||||||||||||||||||||||||||||||||||||||||||||||||||||||||||||||||||1015.6||1|AUTO_4-USA|223|ICAO-K3A6|0.0|4-Steady;-|1|AUTO_4-USA|223|ICAO-K3A6|||||||||||||||||||||||||||||||||||||MET087METAR K3A6 221130Z AUTO 36002KT 17/09 A2999 RMK AO1 SLP160 T01690095 10187 20162 54000;||A||223|ICAO-K3A6
USI0000K3A6|NEWHALL|2011|08|22|11|50|34.3700|-118.5700|427.0|16.0||1|AUTO_4-USA|223|ICAO-K3A6|9.0||1|AUTO_4-USA|223|ICAO-K3A6|||||||1016.0||1|AUTO_4-USA|223|ICAO-K3A6|360|N-Normal|1|AUTO_4-USA|223|ICAO-K3A6|1.0|N-Normal|1|AUTO_4-USA|223|ICAO-K3A6|||||||||||||63|Derived||AUTO_4-USA|223|ICAO-K3A6|||||||||||||||||||||||||||||||||||||||||||||||||||||||||||||||||||||||||1015.6||1|AUTO_4-USA|223|ICAO-K3A6|0.0|4-Steady;-|1|AUTO_4-USA|223|ICAO-K3A6|||||||||||||||||||||||||||||||||||||MET087METAR K3A6 221150Z AUTO 36002KT 16/09 A2999 RMK AO1 SLP160 T01640095 10183 20162 54000;||A||223|ICAO-K3A6
USI0000K3A6|NEWHALL|2011|08|22|12|10|34.3700|-118.5700|427.0|16.0||1|AUTO_4-USA|223|ICAO-K3A6|10.0||1|AUTO_4-USA|223|ICAO-K3A6|||||||1016.1||1|AUTO_4-USA|223|ICAO-K3A6|360|N-Normal|1|AUTO_4-USA|223|ICAO-K3A6|1.5|N-Normal|1|AUTO_4-USA|223|ICAO-K3A6|||||||||||||68|Derived||AUTO_4-USA|223|ICAO-K3A6|||||||||||||||||||||||||||||||||||||||||||||||||||||||||||||||||||||||||1015.6||1|AUTO_4-USA|223|ICAO-K3A6|||||||||||||||||||||||||||||||||||||||||||MET069METAR K3A6 221210Z AUTO 36003KT 16/10 A2999 RMK AO1 SLP161 T01610099;||A||223|ICAO-K3A6
USI0000K3A6|NEWHALL|2011|08|22|12|30|34.3700|-118.5700|427.0|16.0||1|AUTO_4-USA|223|ICAO-K3A6|9.0||1|AUTO_4-USA|223|ICAO-K3A6|||||||1016.1||1|AUTO_4-USA|223|ICAO-K3A6|360|N-Normal|1|AUTO_4-USA|223|ICAO-K3A6|1.0|N-Normal|1|AUTO_4-USA|223|ICAO-K3A6|||||||||||||63|Derived||AUTO_4-USA|223|ICAO-K3A6|||||||||||||||||||||||||||||||||||||||||||||||||||||||||||||||||||||||||1015.6||1|AUTO_4-USA|223|ICAO-K3A6|||||||||||||||||||||||||||||||||||||||||||MET069METAR K3A6 221230Z AUTO 36002KT 16/09 A2999 RMK AO1 SLP161 T01610093;||A||223|ICAO-K3A6
USI0000K3A6|NEWHALL|2011|08|22|12|50|34.3700|-118.5700|427.0|16.0||1|AUTO_4-USA|223|ICAO-K3A6|9.0||1|AUTO_4-USA|223|ICAO-K3A6|||||||1016.4||1|AUTO_4-USA|223|ICAO-K3A6|360|N-Normal|1|AUTO_4-USA|223|ICAO-K3A6|1.0|N-Normal|1|AUTO_4-USA|223|ICAO-K3A6|||||||||||||63|Derived||AUTO_4-USA|223|ICAO-K3A6|||||||||||||||||||||||||||||||||||||||||||||||||||||||||||||||||||||||||1015.6||1|AUTO_4-USA|223|ICAO-K3A6|||||||||||||||||||||||||||||||||||||||||||MET069METAR K3A6 221250Z AUTO 36002KT 16/09 A2999 RMK AO1 SLP164 T01600092;||A||223|ICAO-K3A6
USI0000K3A6|NEWHALL|2011|08|22|13|10|34.3700|-118.5700|427.0|16.0||1|AUTO_4-USA|223|ICAO-K3A6|9.0||1|AUTO_4-USA|223|ICAO-K3A6|||||||1016.6||1|AUTO_4-USA|223|ICAO-K3A6|360|N-Normal|1|AUTO_4-USA|223|ICAO-K3A6|1.0|N-Normal|1|AUTO_4-USA|223|ICAO-K3A6|||||||||||||63|Derived||AUTO_4-USA|223|ICAO-K3A6|||||||||||||||||||||||||||||||||||||||||||||||||||||||||||||||||||||||||1015.9||1|AUTO_4-USA|223|ICAO-K3A6|||||||||||||||||||||||||||||||||||||||||||MET069METAR K3A6 221310Z AUTO 36002KT 16/09 A3000 RMK AO1 SLP166 T01610093;||A||223|ICAO-K3A6
USI0000K3A6|NEWHALL|2011|08|22|13|30|34.3700|-118.5700|427.0|17.0||1|AUTO_4-USA|223|ICAO-K3A6|10.0||1|AUTO_4-USA|223|ICAO-K3A6|||||||1016.9||1|AUTO_4-USA|223|ICAO-K3A6|360|N-Normal|1|AUTO_4-USA|223|ICAO-K3A6|0.5|N-Normal|1|AUTO_4-USA|223|ICAO-K3A6|||||||||||||64|Derived||AUTO_4-USA|223|ICAO-K3A6|||||||||||||||||||||||||||||||||||||||||||||||||||||||||||||||||||||||||1015.9||1|AUTO_4-USA|223|ICAO-K3A6|||||||||||||||||||||||||||||||||||||||||||MET069METAR K3A6 221330Z AUTO 36001KT 17/10 A3000 RMK AO1 SLP169 T01660097;||A||223|ICAO-K3A6
USI0000K3A6|NEWHALL|2011|08|22|13|50|34.3700|-118.5700|427.0|17.0||1|AUTO_4-USA|223|ICAO-K3A6|10.0||1|AUTO_4-USA|223|ICAO-K3A6|||||||1016.9||1|AUTO_4-USA|223|ICAO-K3A6|360|N-Normal|1|AUTO_4-USA|223|ICAO-K3A6|1.5|N-Normal|1|AUTO_4-USA|223|ICAO-K3A6|||||||||||||64|Derived||AUTO_4-USA|223|ICAO-K3A6|||||||||||||||||||||||||||||||||||||||||||||||||||||||||||||||||||||||||1015.9||1|AUTO_4-USA|223|ICAO-K3A6|||||||||||||||||||||||||||||||||||||||||||MET069METAR K3A6 221350Z AUTO 36003KT 17/10 A3000 RMK AO1 SLP169 T01720096;||A||223|ICAO-K3A6
USI0000K3A6|NEWHALL|2011|08|22|14|10|34.3700|-118.5700|427.0|17.0||1|AUTO_4-USA|223|ICAO-K3A6|9.0||1|AUTO_4-USA|223|ICAO-K3A6|||||||1017.2||1|AUTO_4-USA|223|ICAO-K3A6|360|N-Normal|1|AUTO_4-USA|223|ICAO-K3A6|0.5|N-Normal|1|AUTO_4-USA|223|ICAO-K3A6|||||||||||||59|Derived||AUTO_4-USA|223|ICAO-K3A6|||||||||||||||||||||||||||||||||||||||||||||||||||||||||||||||||||||||||1016.3||1|AUTO_4-USA|223|ICAO-K3A6|2.1|2-Incr-(st|1|AUTO_4-USA|223|ICAO-K3A6|||||||||||||||||||||||||||||||||||||MET075METAR K3A6 221410Z AUTO 36001KT 17/09 A3001 RMK AO1 SLP172 T01730094 52021;||A||223|ICAO-K3A6
USI0000K3A6|NEWHALL|2011|08|22|14|30|34.3700|-118.5700|427.0|17.0||1|AUTO_4-USA|223|ICAO-K3A6|9.0||1|AUTO_4-USA|223|ICAO-K3A6|||||||1017.5||1|AUTO_4-USA|223|ICAO-K3A6|360|N-Normal|1|AUTO_4-USA|223|ICAO-K3A6|1.0|N-Normal|1|AUTO_4-USA|223|ICAO-K3A6|||||||||||||59|Derived||AUTO_4-USA|223|ICAO-K3A6|||||||||||||||||||||||||||||||||||||||||||||||||||||||||||||||||||||||||1016.6||1|AUTO_4-USA|223|ICAO-K3A6|2.1|3-Decr-or-|1|AUTO_4-USA|223|ICAO-K3A6|||||||||||||||||||||||||||||||||||||MET075METAR K3A6 221430Z AUTO 36002KT 17/09 A3002 RMK AO1 SLP175 T01730092 53021;||A||223|ICAO-K3A6
USI0000K3A6|NEWHALL|2011|08|22|14|50|34.3700|-118.5700|427.0|18.0||1|AUTO_4-USA|223|ICAO-K3A6|9.0||1|AUTO_4-USA|223|ICAO-K3A6|||||||1017.3||1|AUTO_4-USA|223|ICAO-K3A6|360|N-Normal|1|AUTO_4-USA|223|ICAO-K3A6|1.0|N-Normal|1|AUTO_4-USA|223|ICAO-K3A6|||||||||||||56|Derived||AUTO_4-USA|223|ICAO-K3A6|||||||||||||||||||||||||||||||||||||||||||||||||||||||||||||||||||||||||1016.3||1|AUTO_4-USA|223|ICAO-K3A6|2.7|2-Incr-(st|1|AUTO_4-USA|223|ICAO-K3A6|||||||||||||||||||||||||||||||||||||MET075METAR K3A6 221450Z AUTO 36002KT 18/09 A3001 RMK AO1 SLP173 T01790091 52027;||A||223|ICAO-K3A6
USI0000K3A6|NEWHALL|2011|08|22|15|10|34.3700|-118.5700|427.0|18.0||1|AUTO_4-USA|223|ICAO-K3A6|10.0||1|AUTO_4-USA|223|ICAO-K3A6|||||||1017.4||1|AUTO_4-USA|223|ICAO-K3A6|360|N-Normal|1|AUTO_4-USA|223|ICAO-K3A6|1.0|N-Normal|1|AUTO_4-USA|223|ICAO-K3A6|||||||||||||60|Derived||AUTO_4-USA|223|ICAO-K3A6|||||||||||||||||||||||||||||||||||||||||||||||||||||||||||||||||||||||||1016.3||1|AUTO_4-USA|223|ICAO-K3A6|||||||||||||||||||||||||||||||||||||||||||MET069METAR K3A6 221510Z AUTO 36002KT 18/10 A3001 RMK AO1 SLP174 T01780096;||A||223|ICAO-K3A6
USI0000K3A6|NEWHALL|2011|08|22|15|30|34.3700|-118.5700|427.0|17.0||1|AUTO_4-USA|223|ICAO-K3A6|10.0||1|AUTO_4-USA|223|ICAO-K3A6|||||||1017.5||1|AUTO_4-USA|223|ICAO-K3A6|360|N-Normal|1|AUTO_4-USA|223|ICAO-K3A6|1.0|N-Normal|1|AUTO_4-USA|223|ICAO-K3A6|||||||||||||64|Derived||AUTO_4-USA|223|ICAO-K3A6|||||||||||||||||||||||||||||||||||||||||||||||||||||||||||||||||||||||||1016.3||1|AUTO_4-USA|223|ICAO-K3A6|||||||||||||||||||||||||||||||||||||||||||MET069METAR K3A6 221530Z AUTO 36002KT 17/10 A3001 RMK AO1 SLP175 T01740098;||A||223|ICAO-K3A6
USI0000K3A6|NEWHALL|2011|08|22|15|50|34.3700|-118.5700|427.0|19.0||1|AUTO_4-USA|223|ICAO-K3A6|10.0||1|AUTO_4-USA|223|ICAO-K3A6|||||||1017.5||1|AUTO_4-USA|223|ICAO-K3A6|360|N-Normal|1|AUTO_4-USA|223|ICAO-K3A6|1.0|N-Normal|1|AUTO_4-USA|223|ICAO-K3A6|||||||||||||56|Derived||AUTO_4-USA|223|ICAO-K3A6|||||||||||||||||||||||||||||||||||||||||||||||||||||||||||||||||||||||||1016.3||1|AUTO_4-USA|223|ICAO-K3A6|||||||||||||||||||||||||||||||||||||||||||MET069METAR K3A6 221550Z AUTO 36002KT 19/10 A3001 RMK AO1 SLP175 T01860103;||A||223|ICAO-K3A6
USI0000K3A6|NEWHALL|2011|08|22|16|10|34.3700|-118.5700|427.0|21.0||1|AUTO_4-USA|223|ICAO-K3A6|12.0||1|AUTO_4-USA|223|ICAO-K3A6|||||||1017.7||1|AUTO_4-USA|223|ICAO-K3A6|360|N-Normal|1|AUTO_4-USA|223|ICAO-K3A6|0.5|N-Normal|1|AUTO_4-USA|223|ICAO-K3A6|||||||||||||57|Derived||AUTO_4-USA|223|ICAO-K3A6|||||||||||||||||||||||||||||||||||||||||||||||||||||||||||||||||||||||||1016.6||1|AUTO_4-USA|223|ICAO-K3A6|||||||||||||||||||||||||||||||||||||||||||MET069METAR K3A6 221610Z AUTO 36001KT 21/12 A3002 RMK AO1 SLP177 T02060117;||A||223|ICAO-K3A6
USI0000K3A6|NEWHALL|2011|08|22|16|30|34.3700|-118.5700|427.0|22.0||1|AUTO_4-USA|223|ICAO-K3A6|12.0||1|AUTO_4-USA|223|ICAO-K3A6|||||||1017.4||1|AUTO_4-USA|223|ICAO-K3A6|360|N-Normal|1|AUTO_4-USA|223|ICAO-K3A6|0.5|N-Normal|1|AUTO_4-USA|223|ICAO-K3A6|||||||||||||53|Derived||AUTO_4-USA|223|ICAO-K3A6|||||||||||||||||||||||||||||||||||||||||||||||||||||||||||||||||||||||||1016.3||1|AUTO_4-USA|223|ICAO-K3A6|||||||||||||||||||||||||||||||||||||||||||MET069METAR K3A6 221630Z AUTO 36001KT 22/12 A3001 RMK AO1 SLP174 T02230119;||A||223|ICAO-K3A6
USI0000K3A6|NEWHALL|2011|08|22|16|50|34.3700|-118.5700|427.0|26.0||1|AUTO_4-USA|223|ICAO-K3A6|11.0||1|AUTO_4-USA|223|ICAO-K3A6|||||||1017.3||1|AUTO_4-USA|223|ICAO-K3A6|360|N-Normal|1|AUTO_4-USA|223|ICAO-K3A6|0.5|N-Normal|1|AUTO_4-USA|223|ICAO-K3A6|||||||||||||39|Derived||AUTO_4-USA|223|ICAO-K3A6|||||||||||||||||||||||||||||||||||||||||||||||||||||||||||||||||||||||||1016.3||1|AUTO_4-USA|223|ICAO-K3A6|||||||||||||||||||||||||||||||||||||||||||MET069METAR K3A6 221650Z AUTO 36001KT 26/11 A3001 RMK AO1 SLP173 T02560113;||A||223|ICAO-K3A6
USI0000K3A6|NEWHALL|2011|08|22|17|10|34.3700|-118.5700|427.0|29.0||1|AUTO_4-USA|223|ICAO-K3A6|12.0||1|AUTO_4-USA|223|ICAO-K3A6|||||||1017.3||1|AUTO_4-USA|223|ICAO-K3A6|360|N-Normal|1|AUTO_4-USA|223|ICAO-K3A6|1.0|N-Normal|1|AUTO_4-USA|223|ICAO-K3A6|||||||||||||35|Derived||AUTO_4-USA|223|ICAO-K3A6|||||||||||||||||||||||||||||||||||||||||||||||||||||||||||||||||||||||||1016.3||1|AUTO_4-USA|223|ICAO-K3A6|0.6|1-Incr-the|1|AUTO_4-USA|223|ICAO-K3A6|||||||||||||||||||||||||||||||||||||MET087METAR K3A6 221710Z AUTO 36002KT 29/12 A3001 RMK AO1 SLP173 T02870125 10287 20159 51006;||A||223|ICAO-K3A6
USI0000K3A6|NEWHALL|2011|08|22|17|30|34.3700|-118.5700|427.0|30.0||1|AUTO_4-USA|223|ICAO-K3A6|12.0||1|AUTO_4-USA|223|ICAO-K3A6|||||||1017.2||1|AUTO_4-USA|223|ICAO-K3A6|360|N-Normal|1|AUTO_4-USA|223|ICAO-K3A6|0.5|N-Normal|1|AUTO_4-USA|223|ICAO-K3A6|||||||||||||33|Derived||AUTO_4-USA|223|ICAO-K3A6|||||||||||||||||||||||||||||||||||||||||||||||||||||||||||||||||||||||||1016.3||1|AUTO_4-USA|223|ICAO-K3A6|0.0|4-Steady;-|1|AUTO_4-USA|223|ICAO-K3A6|||||||||||||||||||||||||||||||||||||MET087METAR K3A6 221730Z AUTO 36001KT 30/12 A3001 RMK AO1 SLP172 T02970117 10297 20159 54000;||A||223|ICAO-K3A6
USI0000K3A6|NEWHALL|2011|08|23|01|30|34.3700|-118.5700|427.0|27.0||1|AUTO_4-USA|223|ICAO-K3A6|12.0||1|AUTO_4-USA|223|ICAO-K3A6|||||||1014.2||1|AUTO_4-USA|223|ICAO-K3A6|360|N-Normal|1|AUTO_4-USA|223|ICAO-K3A6|4.6|N-Normal|1|AUTO_4-USA|223|ICAO-K3A6|||||||||||||39|Derived||AUTO_4-USA|223|ICAO-K3A6|||||||||||||||||||||||||||||||||||||||||||||||||||||||||||||||||||||||||1013.9||1|AUTO_4-USA|223|ICAO-K3A6|||||||||||||||||||||||||||||||||||||||||||MET069METAR K3A6 230130Z AUTO 36009KT 27/12 A2994 RMK AO1 SLP142 T02720116;||A||223|ICAO-K3A6
USI0000K3A6|NEWHALL|2011|08|23|01|50|34.3700|-118.5700|427.0|26.0||1|AUTO_4-USA|223|ICAO-K3A6|12.0||1|AUTO_4-USA|223|ICAO-K3A6|||||||1014.3||1|AUTO_4-USA|223|ICAO-K3A6|360|N-Normal|1|AUTO_4-USA|223|ICAO-K3A6|3.6|N-Normal|1|AUTO_4-USA|223|ICAO-K3A6|||||||||||||42|Derived||AUTO_4-USA|223|ICAO-K3A6|||||||||||||||||||||||||||||||||||||||||||||||||||||||||||||||||||||||||1014.2||1|AUTO_4-USA|223|ICAO-K3A6|||||||||||||||||||||||||||||||||||||||||||MET069METAR K3A6 230150Z AUTO 36007KT 26/12 A2995 RMK AO1 SLP143 T02580115;||A||223|ICAO-K3A6
USI0000K3A6|NEWHALL|2011|08|23|02|30|34.3700|-118.5700|427.0|23.0||1|AUTO_4-USA|223|ICAO-K3A6|12.0||1|AUTO_4-USA|223|ICAO-K3A6|||||||1014.2||1|AUTO_4-USA|223|ICAO-K3A6|360|N-Normal|1|AUTO_4-USA|223|ICAO-K3A6|3.6|N-Normal|1|AUTO_4-USA|223|ICAO-K3A6|||||||||||||50|Derived||AUTO_4-USA|223|ICAO-K3A6|||||||||||||||||||||||||||||||||||||||||||||||||||||||||||||||||||||||||1014.2||1|AUTO_4-USA|223|ICAO-K3A6|0.0|4-Steady;-|1|AUTO_4-USA|223|ICAO-K3A6|||||||||||||||||||||||||||||||||||||MET075METAR K3A6 230230Z AUTO 36007KT 23/12 A2995 RMK AO1 SLP142 T02340117 54000;||A||223|ICAO-K3A6
USI0000K3A6|NEWHALL|2011|08|23|02|50|34.3700|-118.5700|427.0|22.0||1|AUTO_4-USA|223|ICAO-K3A6|12.0||1|AUTO_4-USA|223|ICAO-K3A6|||||||1014.3||1|AUTO_4-USA|223|ICAO-K3A6|360|N-Normal|1|AUTO_4-USA|223|ICAO-K3A6|4.1|N-Normal|1|AUTO_4-USA|223|ICAO-K3A6|||||||||||||53|Derived||AUTO_4-USA|223|ICAO-K3A6|||||||||||||||||||||||||||||||||||||||||||||||||||||||||||||||||||||||||1014.6||1|AUTO_4-USA|223|ICAO-K3A6|0.0|4-Steady;-|1|AUTO_4-USA|223|ICAO-K3A6|||||||||||||||||||||||||||||||||||||MET075METAR K3A6 230250Z AUTO 36008KT 22/12 A2996 RMK AO1 SLP143 T02250118 54000;||A||223|ICAO-K3A6
USI0000K3A6|NEWHALL|2011|08|23|03|10|34.3700|-118.5700|427.0|22.0||1|AUTO_4-USA|223|ICAO-K3A6|12.0||1|AUTO_4-USA|223|ICAO-K3A6|||||||1014.1||1|AUTO_4-USA|223|ICAO-K3A6|360|N-Normal|1|AUTO_4-USA|223|ICAO-K3A6|4.1|N-Normal|1|AUTO_4-USA|223|ICAO-K3A6|||||||||||||53|Derived||AUTO_4-USA|223|ICAO-K3A6|||||||||||||||||||||||||||||||||||||||||||||||||||||||||||||||||||||||||1014.6||1|AUTO_4-USA|223|ICAO-K3A6|||||||||||||||||||||||||||||||||||||||||||MET069METAR K3A6 230310Z AUTO 36008KT 22/12 A2996 RMK AO1 SLP141 T02210117;||A||223|ICAO-K3A6
USI0000K3A6|NEWHALL|2011|08|23|03|30|34.3700|-118.5700|427.0|22.0||1|AUTO_4-USA|223|ICAO-K3A6|11.0||1|AUTO_4-USA|223|ICAO-K3A6|||||||1014.2||1|AUTO_4-USA|223|ICAO-K3A6|360|N-Normal|1|AUTO_4-USA|223|ICAO-K3A6|4.1|N-Normal|1|AUTO_4-USA|223|ICAO-K3A6|||||||||||||50|Derived||AUTO_4-USA|223|ICAO-K3A6|||||||||||||||||||||||||||||||||||||||||||||||||||||||||||||||||||||||||1014.6||1|AUTO_4-USA|223|ICAO-K3A6|||||||||||||||||||||||||||||||||||||||||||MET069METAR K3A6 230330Z AUTO 36008KT 22/11 A2996 RMK AO1 SLP142 T02200114;||A||223|ICAO-K3A6
USI0000K3A6|NEWHALL|2011|08|23|03|50|34.3700|-118.5700|427.0|22.0||1|AUTO_4-USA|223|ICAO-K3A6|12.0||1|AUTO_4-USA|223|ICAO-K3A6|||||||1014.6||1|AUTO_4-USA|223|ICAO-K3A6|360|N-Normal|1|AUTO_4-USA|223|ICAO-K3A6|2.1|N-Normal|1|AUTO_4-USA|223|ICAO-K3A6|||||||||||||53|Derived||AUTO_4-USA|223|ICAO-K3A6|||||||||||||||||||||||||||||||||||||||||||||||||||||||||||||||||||||||||1014.9||1|AUTO_4-USA|223|ICAO-K3A6|||||||||||||||||||||||||||||||||||||||||||MET069METAR K3A6 230350Z AUTO 36004KT 22/12 A2997 RMK AO1 SLP146 T02180115;||A||223|ICAO-K3A6
USI0000K3A6|NEWHALL|2011|08|23|04|10|34.3700|-118.5700|427.0|22.0||1|AUTO_4-USA|223|ICAO-K3A6|10.0||1|AUTO_4-USA|223|ICAO-K3A6|||||||1014.6||1|AUTO_4-USA|223|ICAO-K3A6|360|N-Normal|1|AUTO_4-USA|223|ICAO-K3A6|2.1|N-Normal|1|AUTO_4-USA|223|ICAO-K3A6|||||||||||||47|Derived||AUTO_4-USA|223|ICAO-K3A6|||||||||||||||||||||||||||||||||||||||||||||||||||||||||||||||||||||||||1015.2||1|AUTO_4-USA|223|ICAO-K3A6|||||||||||||||||||||||||||||||||||||||||||MET069METAR K3A6 230410Z AUTO 36004KT 22/10 A2998 RMK AO1 SLP146 T02230104;||A||223|ICAO-K3A6
USI0000K3A6|NEWHALL|2011|08|23|04|30|34.3700|-118.5700|427.0|22.0||1|AUTO_4-USA|223|ICAO-K3A6|11.0||1|AUTO_4-USA|223|ICAO-K3A6|||||||1014.8||1|AUTO_4-USA|223|ICAO-K3A6|360|N-Normal|1|AUTO_4-USA|223|ICAO-K3A6|2.6|N-Normal|1|AUTO_4-USA|223|ICAO-K3A6|||||||||||||50|Derived||AUTO_4-USA|223|ICAO-K3A6|||||||||||||||||||||||||||||||||||||||||||||||||||||||||||||||||||||||||1015.2||1|AUTO_4-USA|223|ICAO-K3A6|||||||||||||||||||||||||||||||||||||||||||MET069METAR K3A6 230430Z AUTO 36005KT 22/11 A2998 RMK AO1 SLP148 T02210105;||A||223|ICAO-K3A6
USI0000K3A6|NEWHALL|2011|08|23|04|50|34.3700|-118.5700|427.0|22.0||1|AUTO_4-USA|223|ICAO-K3A6|10.0||1|AUTO_4-USA|223|ICAO-K3A6|||||||1014.9||1|AUTO_4-USA|223|ICAO-K3A6|360|N-Normal|1|AUTO_4-USA|223|ICAO-K3A6|1.5|N-Normal|1|AUTO_4-USA|223|ICAO-K3A6|||||||||||||47|Derived||AUTO_4-USA|223|ICAO-K3A6|||||||||||||||||||||||||||||||||||||||||||||||||||||||||||||||||||||||||1015.2||1|AUTO_4-USA|223|ICAO-K3A6|||||||||||||||||||||||||||||||||||||||||||MET069METAR K3A6 230450Z AUTO 36003KT 22/10 A2998 RMK AO1 SLP149 T02160101;||A||223|ICAO-K3A6
USI0000K3A6|NEWHALL|2011|08|23|05|10|34.3700|-118.5700|427.0|21.0||1|AUTO_4-USA|223|ICAO-K3A6|9.0||1|AUTO_4-USA|223|ICAO-K3A6|||||||1015.0||1|AUTO_4-USA|223|ICAO-K3A6|360|N-Normal|1|AUTO_4-USA|223|ICAO-K3A6|2.1|N-Normal|1|AUTO_4-USA|223|ICAO-K3A6|||||||||||||46|Derived||AUTO_4-USA|223|ICAO-K3A6|||||||||||||||||||||||||||||||||||||||||||||||||||||||||||||||||||||||||1015.2||1|AUTO_4-USA|223|ICAO-K3A6|0.0|4-Steady;-|1|AUTO_4-USA|223|ICAO-K3A6|||||||||||||||||||||||||||||||||||||MET087METAR K3A6 230510Z AUTO 36004KT 21/09 A2998 RMK AO1 SLP150 T02120094 10343 20212 54000;||A||223|ICAO-K3A6
USI0000K3A6|NEWHALL|2011|08|23|05|30|34.3700|-118.5700|427.0|22.0||1|AUTO_4-USA|223|ICAO-K3A6|10.0||1|AUTO_4-USA|223|ICAO-K3A6|||||||1015.1||1|AUTO_4-USA|223|ICAO-K3A6|360|N-Normal|1|AUTO_4-USA|223|ICAO-K3A6|1.0|N-Normal|1|AUTO_4-USA|223|ICAO-K3A6|||||||||||||47|Derived||AUTO_4-USA|223|ICAO-K3A6|||||||||||||||||||||||||||||||||||||||||||||||||||||||||||||||||||||||||1015.2||1|AUTO_4-USA|223|ICAO-K3A6|3.2|2-Incr-(st|1|AUTO_4-USA|223|ICAO-K3A6|||||||||||||||||||||||||||||||||||||MET087METAR K3A6 230530Z AUTO 36002KT 22/10 A2998 RMK AO1 SLP151 T02170102 10343 20212 52032;||A||223|ICAO-K3A6
USI0000K3A6|NEWHALL|2011|08|23|05|50|34.3700|-118.5700|427.0|22.0||1|AUTO_4-USA|223|ICAO-K3A6|10.0||1|AUTO_4-USA|223|ICAO-K3A6|||||||1015.0||1|AUTO_4-USA|223|ICAO-K3A6|360|N-Normal|1|AUTO_4-USA|223|ICAO-K3A6|1.5|N-Normal|1|AUTO_4-USA|223|ICAO-K3A6|||||||||||||47|Derived||AUTO_4-USA|223|ICAO-K3A6|||||||||||||||||||||||||||||||||||||||||||||||||||||||||||||||||||||||||1015.2||1|AUTO_4-USA|223|ICAO-K3A6|2.1|2-Incr-(st|1|AUTO_4-USA|223|ICAO-K3A6|||||||||||||||||||||||||||||||||||||MET087METAR K3A6 230550Z AUTO 36003KT 22/10 A2998 RMK AO1 SLP150 T02190100 10343 20212 52021;||A||223|ICAO-K3A6
USI0000K3A6|NEWHALL|2011|08|23|06|10|34.3700|-118.5700|427.0|21.0||1|AUTO_4-USA|223|ICAO-K3A6|10.0||1|AUTO_4-USA|223|ICAO-K3A6|||||||1015.2||1|AUTO_4-USA|223|ICAO-K3A6|360|N-Normal|1|AUTO_4-USA|223|ICAO-K3A6|0.5|N-Normal|1|AUTO_4-USA|223|ICAO-K3A6|||||||||||||50|Derived||AUTO_4-USA|223|ICAO-K3A6|||||||||||||||||||||||||||||||||||||||||||||||||||||||||||||||||||||||||1015.2||1|AUTO_4-USA|223|ICAO-K3A6|||||||||||||||||||||||||||||||||||||||||||MET079METAR K3A6 230610Z AUTO 36001KT 21/10 A2998 RMK AO1 SLP152 T02140102 403430159;||A||223|ICAO-K3A6
USI0000K3A6|NEWHALL|2011|08|23|06|30|34.3700|-118.5700|427.0|21.0||1|AUTO_4-USA|223|ICAO-K3A6|10.0||1|AUTO_4-USA|223|ICAO-K3A6|||||||1015.0||1|AUTO_4-USA|223|ICAO-K3A6|360|N-Normal|1|AUTO_4-USA|223|ICAO-K3A6|0.5|N-Normal|1|AUTO_4-USA|223|ICAO-K3A6|||||||||||||50|Derived||AUTO_4-USA|223|ICAO-K3A6|||||||||||||||||||||||||||||||||||||||||||||||||||||||||||||||||||||||||1015.2||1|AUTO_4-USA|223|ICAO-K3A6|||||||||||||||||||||||||||||||||||||||||||MET079METAR K3A6 230630Z AUTO 36001KT 21/10 A2998 RMK AO1 SLP150 T02070102 403430159;||A||223|ICAO-K3A6
USI0000K3A6|NEWHALL|2011|08|23|06|50|34.3700|-118.5700|427.0|20.0||1|AUTO_4-USA|223|ICAO-K3A6|11.0||1|AUTO_4-USA|223|ICAO-K3A6|||||||1015.2||1|AUTO_4-USA|223|ICAO-K3A6|360|N-Normal|1|AUTO_4-USA|223|ICAO-K3A6|1.0|N-Normal|1|AUTO_4-USA|223|ICAO-K3A6|||||||||||||56|Derived||AUTO_4-USA|223|ICAO-K3A6|||||||||||||||||||||||||||||||||||||||||||||||||||||||||||||||||||||||||1015.2||1|AUTO_4-USA|223|ICAO-K3A6|||||||||||||||||||||||||||||||||||||||||||MET079METAR K3A6 230650Z AUTO 36002KT 20/11 A2998 RMK AO1 SLP152 T02050106 403430159;||A||223|ICAO-K3A6
USI0000K3A6|NEWHALL|2011|08|23|07|10|34.3700|-118.5700|427.0|20.0||1|AUTO_4-USA|223|ICAO-K3A6|11.0||1|AUTO_4-USA|223|ICAO-K3A6|||||||1015.3||1|AUTO_4-USA|223|ICAO-K3A6|360|N-Normal|1|AUTO_4-USA|223|ICAO-K3A6|1.0|N-Normal|1|AUTO_4-USA|223|ICAO-K3A6|||||||||||||56|Derived||AUTO_4-USA|223|ICAO-K3A6|||||||||||||||||||||||||||||||||||||||||||||||||||||||||||||||||||||||||1015.2||1|AUTO_4-USA|223|ICAO-K3A6|||||||||||||||||||||||||||||||||||||||||||MET069METAR K3A6 230710Z AUTO 36002KT 20/11 A2998 RMK AO1 SLP153 T02010107;||A||223|ICAO-K3A6
USI0000K3A6|NEWHALL|2011|08|23|07|30|34.3700|-118.5700|427.0|20.0||1|AUTO_4-USA|223|ICAO-K3A6|11.0||1|AUTO_4-USA|223|ICAO-K3A6|||||||1015.1||1|AUTO_4-USA|223|ICAO-K3A6|360|N-Normal|1|AUTO_4-USA|223|ICAO-K3A6|1.0|N-Normal|1|AUTO_4-USA|223|ICAO-K3A6|||||||||||||56|Derived||AUTO_4-USA|223|ICAO-K3A6|||||||||||||||||||||||||||||||||||||||||||||||||||||||||||||||||||||||||1015.2||1|AUTO_4-USA|223|ICAO-K3A6|||||||||||||||||||||||||||||||||||||||||||MET069METAR K3A6 230730Z AUTO 36002KT 20/11 A2998 RMK AO1 SLP151 T01980105;||A||223|ICAO-K3A6
USI0000K3A6|NEWHALL|2011|08|23|13|30|34.3700|-118.5700|427.0|21.0||1|AUTO_4-USA|223|ICAO-K3A6|5.0||1|AUTO_4-USA|223|ICAO-K3A6|||||||1013.4||1|AUTO_4-USA|223|ICAO-K3A6|360|N-Normal|1|AUTO_4-USA|223|ICAO-K3A6|1.5|N-Normal|1|AUTO_4-USA|223|ICAO-K3A6|||||||||||||35|Derived||AUTO_4-USA|223|ICAO-K3A6|||||||||||||||||||||||||||||||||||||||||||||||||||||||||||||||||||||||||1013.5||1|AUTO_4-USA|223|ICAO-K3A6|||||||||||||||||||||||||||||||||||||||||||MET069METAR K3A6 231330Z AUTO 36003KT 21/05 A2993 RMK AO1 SLP134 T02080051;||A||223|ICAO-K3A6
USI0000K3A6|NEWHALL|2011|08|23|13|50|34.3700|-118.5700|427.0|20.0||1|AUTO_4-USA|223|ICAO-K3A6|6.0||1|AUTO_4-USA|223|ICAO-K3A6|||||||1014.2||1|AUTO_4-USA|223|ICAO-K3A6|360|N-Normal|1|AUTO_4-USA|223|ICAO-K3A6|1.5|N-Normal|1|AUTO_4-USA|223|ICAO-K3A6|||||||||||||40|Derived||AUTO_4-USA|223|ICAO-K3A6|||||||||||||||||||||||||||||||||||||||||||||||||||||||||||||||||||||||||1014.2||1|AUTO_4-USA|223|ICAO-K3A6|||||||||||||||||||||||||||||||||||||||||||MET069METAR K3A6 231350Z AUTO 36003KT 20/06 A2995 RMK AO1 SLP142 T02030062;||A||223|ICAO-K3A6
USI0000K3A6|NEWHALL|2011|08|24|01|50|34.3700|-118.5700|427.0|30.0||1|AUTO_4-USA|223|ICAO-K3A6|10.0||1|AUTO_4-USA|223|ICAO-K3A6|||||||1010.8||1|AUTO_4-USA|223|ICAO-K3A6|140|N-Normal|1|AUTO_4-USA|223|ICAO-K3A6|3.1|N-Normal|1|AUTO_4-USA|223|ICAO-K3A6|||||||||||||29|Derived||AUTO_4-USA|223|ICAO-K3A6|||||||||||||||||||||||||||||||||||||||||||||||||||||||||||||||||||||||||1011.9||1|AUTO_4-USA|223|ICAO-K3A6|||||||||||||||||||||||||||||||||||||||||||MET069METAR K3A6 240150Z AUTO 14006KT 30/10 A2988 RMK AO1 SLP108 T03020102;||A||223|ICAO-K3A6
USI0000K3A6|NEWHALL|2011|08|24|02|10|34.3700|-118.5700|427.0|29.0||1|AUTO_4-USA|223|ICAO-K3A6|11.0||1|AUTO_4-USA|223|ICAO-K3A6|||||||1009.9||1|AUTO_4-USA|223|ICAO-K3A6|140|N-Normal|1|AUTO_4-USA|223|ICAO-K3A6|3.1|N-Normal|1|AUTO_4-USA|223|ICAO-K3A6|||||||||||||33|Derived||AUTO_4-USA|223|ICAO-K3A6|||||||||||||||||||||||||||||||||||||||||||||||||||||||||||||||||||||||||1011.9||1|AUTO_4-USA|223|ICAO-K3A6|0.0|4-Steady;-|1|AUTO_4-USA|223|ICAO-K3A6|||||||||||||||||||||||||||||||||||||MET075METAR K3A6 240210Z AUTO 14006KT 29/11 A2988 RMK AO1 SLP099 T02900111 54000;||A||223|ICAO-K3A6
USI0000K3A6|NEWHALL|2011|08|24|05|50|34.3700|-118.5700|427.0|24.0||1|AUTO_4-USA|223|ICAO-K3A6|10.0||1|AUTO_4-USA|223|ICAO-K3A6|||||||1011.9||1|AUTO_4-USA|223|ICAO-K3A6|360|N-Normal|1|AUTO_4-USA|223|ICAO-K3A6|1.5|N-Normal|1|AUTO_4-USA|223|ICAO-K3A6|||||||||||||41|Derived||AUTO_4-USA|223|ICAO-K3A6|||||||||||||||||||||||||||||||||||||||||||||||||||||||||||||||||||||||||1013.5||1|AUTO_4-USA|223|ICAO-K3A6|0.0|4-Steady;-|1|AUTO_4-USA|223|ICAO-K3A6|||||||||||||||||||||||||||||||||||||MET087METAR K3A6 240550Z AUTO 36003KT 24/10 A2993 RMK AO1 SLP119 T02390102 10393 20239 54000;||A||223|ICAO-K3A6
USI0000K3A6|NEWHALL|2011|08|24|06|10|34.3700|-118.5700|427.0|23.0||1|AUTO_4-USA|223|ICAO-K3A6|10.0||1|AUTO_4-USA|223|ICAO-K3A6|||||||1012.1||1|AUTO_4-USA|223|ICAO-K3A6|360|N-Normal|1|AUTO_4-USA|223|ICAO-K3A6|1.5|N-Normal|1|AUTO_4-USA|223|ICAO-K3A6|||||||||||||44|Derived||AUTO_4-USA|223|ICAO-K3A6|||||||||||||||||||||||||||||||||||||||||||||||||||||||||||||||||||||||||1013.5||1|AUTO_4-USA|223|ICAO-K3A6|||||||||||||||||||||||||||||||||||||||||||MET079METAR K3A6 240610Z AUTO 36003KT 23/10 A2993 RMK AO1 SLP121 T02340097 403930183;||A||223|ICAO-K3A6
USI0000K3A6|NEWHALL|2011|08|24|06|30|34.3700|-118.5700|427.0|23.0||1|AUTO_4-USA|223|ICAO-K3A6|9.0||1|AUTO_4-USA|223|ICAO-K3A6|||||||1012.2||1|AUTO_4-USA|223|ICAO-K3A6|360|N-Normal|1|AUTO_4-USA|223|ICAO-K3A6|1.0|N-Normal|1|AUTO_4-USA|223|ICAO-K3A6|||||||||||||41|Derived||AUTO_4-USA|223|ICAO-K3A6|||||||||||||||||||||||||||||||||||||||||||||||||||||||||||||||||||||||||1013.2||1|AUTO_4-USA|223|ICAO-K3A6|||||||||||||||||||||||||||||||||||||||||||MET079METAR K3A6 240630Z AUTO 36002KT 23/09 A2992 RMK AO1 SLP122 T02340094 403930183;||A||223|ICAO-K3A6
USI0000K3A6|NEWHALL|2011|08|24|06|50|34.3700|-118.5700|427.0|23.0||1|AUTO_4-USA|223|ICAO-K3A6|10.0||1|AUTO_4-USA|223|ICAO-K3A6|||||||1012.5||1|AUTO_4-USA|223|ICAO-K3A6|360|N-Normal|1|AUTO_4-USA|223|ICAO-K3A6|1.5|N-Normal|1|AUTO_4-USA|223|ICAO-K3A6|||||||||||||44|Derived||AUTO_4-USA|223|ICAO-K3A6|||||||||||||||||||||||||||||||||||||||||||||||||||||||||||||||||||||||||1013.5||1|AUTO_4-USA|223|ICAO-K3A6|||||||||||||||||||||||||||||||||||||||||||MET079METAR K3A6 240650Z AUTO 36003KT 23/10 A2993 RMK AO1 SLP125 T02300104 403930183;||A||223|ICAO-K3A6
USI0000K3A6|NEWHALL|2011|08|24|07|10|34.3700|-118.5700|427.0|23.0||1|AUTO_4-USA|223|ICAO-K3A6|11.0||1|AUTO_4-USA|223|ICAO-K3A6|||||||1012.5||1|AUTO_4-USA|223|ICAO-K3A6|360|N-Normal|1|AUTO_4-USA|223|ICAO-K3A6|1.0|N-Normal|1|AUTO_4-USA|223|ICAO-K3A6|||||||||||||47|Derived||AUTO_4-USA|223|ICAO-K3A6|||||||||||||||||||||||||||||||||||||||||||||||||||||||||||||||||||||||||1013.5||1|AUTO_4-USA|223|ICAO-K3A6|||||||||||||||||||||||||||||||||||||||||||MET069METAR K3A6 240710Z AUTO 36002KT 23/11 A2993 RMK AO1 SLP125 T02320112;||A||223|ICAO-K3A6
USI0000K3A6|NEWHALL|2011|08|24|07|30|34.3700|-118.5700|427.0|23.0||1|AUTO_4-USA|223|ICAO-K3A6|9.0||1|AUTO_4-USA|223|ICAO-K3A6|||||||1012.6||1|AUTO_4-USA|223|ICAO-K3A6|360|N-Normal|1|AUTO_4-USA|223|ICAO-K3A6|1.5|N-Normal|1|AUTO_4-USA|223|ICAO-K3A6|||||||||||||41|Derived||AUTO_4-USA|223|ICAO-K3A6|||||||||||||||||||||||||||||||||||||||||||||||||||||||||||||||||||||||||1013.5||1|AUTO_4-USA|223|ICAO-K3A6|||||||||||||||||||||||||||||||||||||||||||MET069METAR K3A6 240730Z AUTO 36003KT 23/09 A2993 RMK AO1 SLP126 T02290089;||A||223|ICAO-K3A6
USI0000K3A6|NEWHALL|2011|08|24|07|50|34.3700|-118.5700|427.0|23.0||1|AUTO_4-USA|223|ICAO-K3A6|10.0||1|AUTO_4-USA|223|ICAO-K3A6|||||||1012.5||1|AUTO_4-USA|223|ICAO-K3A6|360|N-Normal|1|AUTO_4-USA|223|ICAO-K3A6|1.5|N-Normal|1|AUTO_4-USA|223|ICAO-K3A6|||||||||||||44|Derived||AUTO_4-USA|223|ICAO-K3A6|||||||||||||||||||||||||||||||||||||||||||||||||||||||||||||||||||||||||1013.2||1|AUTO_4-USA|223|ICAO-K3A6|||||||||||||||||||||||||||||||||||||||||||MET069METAR K3A6 240750Z AUTO 36003KT 23/10 A2992 RMK AO1 SLP125 T02290096;||A||223|ICAO-K3A6
USI0000K3A6|NEWHALL|2011|08|24|08|10|34.3700|-118.5700|427.0|23.0||1|AUTO_4-USA|223|ICAO-K3A6|10.0||1|AUTO_4-USA|223|ICAO-K3A6|||||||1012.5||1|AUTO_4-USA|223|ICAO-K3A6|360|N-Normal|1|AUTO_4-USA|223|ICAO-K3A6|1.0|N-Normal|1|AUTO_4-USA|223|ICAO-K3A6|||||||||||||44|Derived||AUTO_4-USA|223|ICAO-K3A6|||||||||||||||||||||||||||||||||||||||||||||||||||||||||||||||||||||||||1013.2||1|AUTO_4-USA|223|ICAO-K3A6|0.0|4-Steady;-|1|AUTO_4-USA|223|ICAO-K3A6|||||||||||||||||||||||||||||||||||||MET075METAR K3A6 240810Z AUTO 36002KT 23/10 A2992 RMK AO1 SLP125 T02270104 54000;||A||223|ICAO-K3A6
USI0000K3A6|NEWHALL|2011|08|24|08|30|34.3700|-118.5700|427.0|23.0||1|AUTO_4-USA|223|ICAO-K3A6|10.0||1|AUTO_4-USA|223|ICAO-K3A6|||||||1012.2||1|AUTO_4-USA|223|ICAO-K3A6|360|N-Normal|1|AUTO_4-USA|223|ICAO-K3A6|1.0|N-Normal|1|AUTO_4-USA|223|ICAO-K3A6|||||||||||||44|Derived||AUTO_4-USA|223|ICAO-K3A6|||||||||||||||||||||||||||||||||||||||||||||||||||||||||||||||||||||||||1012.9||1|AUTO_4-USA|223|ICAO-K3A6|0.0|4-Steady;-|1|AUTO_4-USA|223|ICAO-K3A6|||||||||||||||||||||||||||||||||||||MET075METAR K3A6 240830Z AUTO 36002KT 23/10 A2991 RMK AO1 SLP122 T02260104 54000;||A||223|ICAO-K3A6
USI0000K3A6|NEWHALL|2011|08|24|08|50|34.3700|-118.5700|427.0|23.0||1|AUTO_4-USA|223|ICAO-K3A6|11.0||1|AUTO_4-USA|223|ICAO-K3A6|||||||1012.3||1|AUTO_4-USA|223|ICAO-K3A6|360|N-Normal|1|AUTO_4-USA|223|ICAO-K3A6|1.0|N-Normal|1|AUTO_4-USA|223|ICAO-K3A6|||||||||||||47|Derived||AUTO_4-USA|223|ICAO-K3A6|||||||||||||||||||||||||||||||||||||||||||||||||||||||||||||||||||||||||1012.9||1|AUTO_4-USA|223|ICAO-K3A6|-1.2|8-Steady-o|1|AUTO_4-USA|223|ICAO-K3A6|||||||||||||||||||||||||||||||||||||MET075METAR K3A6 240850Z AUTO 36002KT 23/11 A2991 RMK AO1 SLP123 T02270108 58012;||A||223|ICAO-K3A6
USI0000K3A6|NEWHALL|2011|08|24|10|10|34.3700|-118.5700|427.0|21.0||1|AUTO_4-USA|223|ICAO-K3A6|8.0||1|AUTO_4-USA|223|ICAO-K3A6|||||||1012.2||1|AUTO_4-USA|223|ICAO-K3A6|360|N-Normal|1|AUTO_4-USA|223|ICAO-K3A6|1.0|N-Normal|1|AUTO_4-USA|223|ICAO-K3A6|||||||||||||43|Derived||AUTO_4-USA|223|ICAO-K3A6|||||||||||||||||||||||||||||||||||||||||||||||||||||||||||||||||||||||||1012.9||1|AUTO_4-USA|223|ICAO-K3A6|||||||||||||||||||||||||||||||||||||||||||MET069METAR K3A6 241010Z AUTO 36002KT 21/08 A2991 RMK AO1 SLP122 T02150077;||A||223|ICAO-K3A6
USI0000K3A6|NEWHALL|2011|08|24|13|30|34.3700|-118.5700|427.0|22.0||1|AUTO_4-USA|223|ICAO-K3A6|8.0||1|AUTO_4-USA|223|ICAO-K3A6|||||||1012.8||1|AUTO_4-USA|223|ICAO-K3A6|360|N-Normal|1|AUTO_4-USA|223|ICAO-K3A6|1.5|N-Normal|1|AUTO_4-USA|223|ICAO-K3A6|||||||||||||41|Derived||AUTO_4-USA|223|ICAO-K3A6|||||||||||||||||||||||||||||||||||||||||||||||||||||||||||||||||||||||||1013.5||1|AUTO_4-USA|223|ICAO-K3A6|||||||||||||||||||||||||||||||||||||||||||MET069METAR K3A6 241330Z AUTO 36003KT 22/08 A2993 RMK AO1 SLP128 T02160078;||A||223|ICAO-K3A6
USI0000K3A6|NEWHALL|2011|08|25|01|50|34.3700|-118.5700|427.0|30.0||1|AUTO_4-USA|223|ICAO-K3A6|14.0||1|AUTO_4-USA|223|ICAO-K3A6|||||||1009.2||1|AUTO_4-USA|223|ICAO-K3A6|020|N-Normal|1|AUTO_4-USA|223|ICAO-K3A6|1.5|N-Normal|1|AUTO_4-USA|223|ICAO-K3A6|||||||||||||38|Derived||AUTO_4-USA|223|ICAO-K3A6|||||||||||||||||||||||||||||||||||||||||||||||||||||||||||||||||||||||||1011.5||1|AUTO_4-USA|223|ICAO-K3A6|||||||||||||||||||||||||||||||||||||||||||MET069METAR K3A6 250150Z AUTO 02003KT 30/14 A2987 RMK AO1 SLP092 T02980135;||A||223|ICAO-K3A6
USI0000K3A6|NEWHALL|2011|08|25|09|10|34.3700|-118.5700|427.0|24.0||1|AUTO_4-USA|223|ICAO-K3A6|11.0||1|AUTO_4-USA|223|ICAO-K3A6|||||||1010.9||1|AUTO_4-USA|223|ICAO-K3A6|020|N-Normal|1|AUTO_4-USA|223|ICAO-K3A6|1.5|N-Normal|1|AUTO_4-USA|223|ICAO-K3A6|||||||||||||44|Derived||AUTO_4-USA|223|ICAO-K3A6|||||||||||||||||||||||||||||||||||||||||||||||||||||||||||||||||||||||||1012.2||1|AUTO_4-USA|223|ICAO-K3A6|||||||||||||||||||||||||||||||||||||||||||MET069METAR K3A6 250910Z AUTO 02003KT 24/11 A2989 RMK AO1 SLP109 T02400113;||A||223|ICAO-K3A6
USI0000K3A6|NEWHALL|2011|08|25|09|30|34.3700|-118.5700|427.0|24.0||1|AUTO_4-USA|223|ICAO-K3A6|11.0||1|AUTO_4-USA|223|ICAO-K3A6|||||||1011.1||1|AUTO_4-USA|223|ICAO-K3A6|020|N-Normal|1|AUTO_4-USA|223|ICAO-K3A6|1.5|N-Normal|1|AUTO_4-USA|223|ICAO-K3A6|||||||||||||44|Derived||AUTO_4-USA|223|ICAO-K3A6|||||||||||||||||||||||||||||||||||||||||||||||||||||||||||||||||||||||||1012.2||1|AUTO_4-USA|223|ICAO-K3A6|||||||||||||||||||||||||||||||||||||||||||MET069METAR K3A6 250930Z AUTO 02003KT 24/11 A2989 RMK AO1 SLP111 T02410114;||A||223|ICAO-K3A6
USI0000K3A6|NEWHALL|2011|08|25|09|50|34.3700|-118.5700|427.0|25.0||1|AUTO_4-USA|223|ICAO-K3A6|11.0||1|AUTO_4-USA|223|ICAO-K3A6|||||||1011.2||1|AUTO_4-USA|223|ICAO-K3A6|020|N-Normal|1|AUTO_4-USA|223|ICAO-K3A6|1.5|N-Normal|1|AUTO_4-USA|223|ICAO-K3A6|||||||||||||42|Derived||AUTO_4-USA|223|ICAO-K3A6|||||||||||||||||||||||||||||||||||||||||||||||||||||||||||||||||||||||||1012.2||1|AUTO_4-USA|223|ICAO-K3A6|||||||||||||||||||||||||||||||||||||||||||MET069METAR K3A6 250950Z AUTO 02003KT 25/11 A2989 RMK AO1 SLP112 T02500108;||A||223|ICAO-K3A6
USI0000K3A6|NEWHALL|2011|08|25|10|10|34.3700|-118.5700|427.0|26.0||1|AUTO_4-USA|223|ICAO-K3A6|11.0||1|AUTO_4-USA|223|ICAO-K3A6|||||||1011.2||1|AUTO_4-USA|223|ICAO-K3A6|020|N-Normal|1|AUTO_4-USA|223|ICAO-K3A6|1.0|N-Normal|1|AUTO_4-USA|223|ICAO-K3A6|||||||||||||39|Derived||AUTO_4-USA|223|ICAO-K3A6|||||||||||||||||||||||||||||||||||||||||||||||||||||||||||||||||||||||||1012.2||1|AUTO_4-USA|223|ICAO-K3A6|||||||||||||||||||||||||||||||||||||||||||MET069METAR K3A6 251010Z AUTO 02002KT 26/11 A2989 RMK AO1 SLP112 T02590108;||A||223|ICAO-K3A6
USI0000K3A6|NEWHALL|2011|08|25|12|30|34.3700|-118.5700|427.0|24.0||1|AUTO_4-USA|223|ICAO-K3A6|9.0||1|AUTO_4-USA|223|ICAO-K3A6|||||||1011.2||1|AUTO_4-USA|223|ICAO-K3A6|020|N-Normal|1|AUTO_4-USA|223|ICAO-K3A6|1.5|N-Normal|1|AUTO_4-USA|223|ICAO-K3A6|||||||||||||39|Derived||AUTO_4-USA|223|ICAO-K3A6|||||||||||||||||||||||||||||||||||||||||||||||||||||||||||||||||||||||||1012.2||1|AUTO_4-USA|223|ICAO-K3A6|||||||||||||||||||||||||||||||||||||||||||MET069METAR K3A6 251230Z AUTO 02003KT 24/09 A2989 RMK AO1 SLP112 T02350095;||A||223|ICAO-K3A6
USI0000K3A6|NEWHALL|2011|08|25|12|50|34.3700|-118.5700|427.0|24.0||1|AUTO_4-USA|223|ICAO-K3A6|9.0||1|AUTO_4-USA|223|ICAO-K3A6|||||||1011.3||1|AUTO_4-USA|223|ICAO-K3A6|020|N-Normal|1|AUTO_4-USA|223|ICAO-K3A6|1.0|N-Normal|1|AUTO_4-USA|223|ICAO-K3A6|||||||||||||39|Derived||AUTO_4-USA|223|ICAO-K3A6|||||||||||||||||||||||||||||||||||||||||||||||||||||||||||||||||||||||||1012.2||1|AUTO_4-USA|223|ICAO-K3A6|||||||||||||||||||||||||||||||||||||||||||MET069METAR K3A6 251250Z AUTO 02002KT 24/09 A2989 RMK AO1 SLP113 T02350091;||A||223|ICAO-K3A6
USI0000K3A6|NEWHALL|2011|08|25|13|10|34.3700|-118.5700|427.0|24.0||1|AUTO_4-USA|223|ICAO-K3A6|9.0||1|AUTO_4-USA|223|ICAO-K3A6|||||||1011.5||1|AUTO_4-USA|223|ICAO-K3A6|020|N-Normal|1|AUTO_4-USA|223|ICAO-K3A6|1.5|N-Normal|1|AUTO_4-USA|223|ICAO-K3A6|||||||||||||39|Derived||AUTO_4-USA|223|ICAO-K3A6|||||||||||||||||||||||||||||||||||||||||||||||||||||||||||||||||||||||||1012.2||1|AUTO_4-USA|223|ICAO-K3A6|||||||||||||||||||||||||||||||||||||||||||MET069METAR K3A6 251310Z AUTO 02003KT 24/09 A2989 RMK AO1 SLP115 T02370093;||A||223|ICAO-K3A6
USI0000K3A6|NEWHALL|2011|08|25|13|30|34.3700|-118.5700|427.0|23.0||1|AUTO_4-USA|223|ICAO-K3A6|9.0||1|AUTO_4-USA|223|ICAO-K3A6|||||||1011.7||1|AUTO_4-USA|223|ICAO-K3A6|020|N-Normal|1|AUTO_4-USA|223|ICAO-K3A6|1.0|N-Normal|1|AUTO_4-USA|223|ICAO-K3A6|||||||||||||41|Derived||AUTO_4-USA|223|ICAO-K3A6|||||||||||||||||||||||||||||||||||||||||||||||||||||||||||||||||||||||||1012.5||1|AUTO_4-USA|223|ICAO-K3A6|||||||||||||||||||||||||||||||||||||||||||MET069METAR K3A6 251330Z AUTO 02002KT 23/09 A2990 RMK AO1 SLP117 T02330093;||A||223|ICAO-K3A6
USI0000K3A6|NEWHALL|2011|08|25|13|50|34.3700|-118.5700|427.0|24.0||1|AUTO_4-USA|223|ICAO-K3A6|10.0||1|AUTO_4-USA|223|ICAO-K3A6|||||||1012.1||1|AUTO_4-USA|223|ICAO-K3A6|020|N-Normal|1|AUTO_4-USA|223|ICAO-K3A6|1.0|N-Normal|1|AUTO_4-USA|223|ICAO-K3A6|||||||||||||41|Derived||AUTO_4-USA|223|ICAO-K3A6|||||||||||||||||||||||||||||||||||||||||||||||||||||||||||||||||||||||||1012.9||1|AUTO_4-USA|223|ICAO-K3A6|||||||||||||||||||||||||||||||||||||||||||MET069METAR K3A6 251350Z AUTO 02002KT 24/10 A2991 RMK AO1 SLP121 T02420097;||A||223|ICAO-K3A6
USI0000K3A6|NEWHALL|2011|08|25|14|10|34.3700|-118.5700|427.0|26.0||1|AUTO_4-USA|223|ICAO-K3A6|10.0||1|AUTO_4-USA|223|ICAO-K3A6|||||||1012.0||1|AUTO_4-USA|223|ICAO-K3A6|020|N-Normal|1|AUTO_4-USA|223|ICAO-K3A6|1.5|N-Normal|1|AUTO_4-USA|223|ICAO-K3A6|||||||||||||37|Derived||AUTO_4-USA|223|ICAO-K3A6|||||||||||||||||||||||||||||||||||||||||||||||||||||||||||||||||||||||||1012.5||1|AUTO_4-USA|223|ICAO-K3A6|0.0|4-Steady;-|1|AUTO_4-USA|223|ICAO-K3A6|||||||||||||||||||||||||||||||||||||MET075METAR K3A6 251410Z AUTO 02003KT 26/10 A2990 RMK AO1 SLP120 T02560098 54000;||A||223|ICAO-K3A6
USI0000K3A6|NEWHALL|2011|08|25|14|30|34.3700|-118.5700|427.0|27.0||1|AUTO_4-USA|223|ICAO-K3A6|10.0||1|AUTO_4-USA|223|ICAO-K3A6|||||||1012.1||1|AUTO_4-USA|223|ICAO-K3A6|020|N-Normal|1|AUTO_4-USA|223|ICAO-K3A6|1.5|N-Normal|1|AUTO_4-USA|223|ICAO-K3A6|||||||||||||34|Derived||AUTO_4-USA|223|ICAO-K3A6|||||||||||||||||||||||||||||||||||||||||||||||||||||||||||||||||||||||||1012.9||1|AUTO_4-USA|223|ICAO-K3A6|0.0|4-Steady;-|1|AUTO_4-USA|223|ICAO-K3A6|||||||||||||||||||||||||||||||||||||MET075METAR K3A6 251430Z AUTO 02003KT 27/10 A2991 RMK AO1 SLP121 T02660103 54000;||A||223|ICAO-K3A6
USI0000K3A6|NEWHALL|2011|08|25|14|50|34.3700|-118.5700|427.0|27.0||1|AUTO_4-USA|223|ICAO-K3A6|11.0||1|AUTO_4-USA|223|ICAO-K3A6|||||||1012.3||1|AUTO_4-USA|223|ICAO-K3A6|020|N-Normal|1|AUTO_4-USA|223|ICAO-K3A6|1.0|N-Normal|1|AUTO_4-USA|223|ICAO-K3A6|||||||||||||37|Derived||AUTO_4-USA|223|ICAO-K3A6|||||||||||||||||||||||||||||||||||||||||||||||||||||||||||||||||||||||||1012.9||1|AUTO_4-USA|223|ICAO-K3A6|0.0|4-Steady;-|1|AUTO_4-USA|223|ICAO-K3A6|||||||||||||||||||||||||||||||||||||MET075METAR K3A6 251450Z AUTO 02002KT 27/11 A2991 RMK AO1 SLP123 T02720112 54000;||A||223|ICAO-K3A6
USI0000K3A6|NEWHALL|2011|08|25|15|10|34.3700|-118.5700|427.0|28.0||1|AUTO_4-USA|223|ICAO-K3A6|11.0||1|AUTO_4-USA|223|ICAO-K3A6|||||||1012.2||1|AUTO_4-USA|223|ICAO-K3A6|999|C-Calm|9|AUTO_4-USA|223|ICAO-K3A6|0.0|C-Calm|1|AUTO_4-USA|223|ICAO-K3A6|||||||||||||35|Derived||AUTO_4-USA|223|ICAO-K3A6|||||||||||||||||||||||||||||||||||||||||||||||||||||||||||||||||||||||||1012.9||1|AUTO_4-USA|223|ICAO-K3A6|||||||||||||||||||||||||||||||||||||||||||MET069METAR K3A6 251510Z AUTO 00000KT 28/11 A2991 RMK AO1 SLP122 T02830113;||A||223|ICAO-K3A6
USI0000K3A6|NEWHALL|2011|08|25|15|30|34.3700|-118.5700|427.0|31.0||1|AUTO_4-USA|223|ICAO-K3A6|13.0||1|AUTO_4-USA|223|ICAO-K3A6|||||||1012.2||1|AUTO_4-USA|223|ICAO-K3A6|020|N-Normal|1|AUTO_4-USA|223|ICAO-K3A6|0.5|N-Normal|1|AUTO_4-USA|223|ICAO-K3A6|||||||||||||33|Derived||AUTO_4-USA|223|ICAO-K3A6|||||||||||||||||||||||||||||||||||||||||||||||||||||||||||||||||||||||||1012.9||1|AUTO_4-USA|223|ICAO-K3A6|||||||||||||||||||||||||||||||||||||||||||MET069METAR K3A6 251530Z AUTO 02001KT 31/13 A2991 RMK AO1 SLP122 T03150127;||A||223|ICAO-K3A6
USI0000K3A6|NEWHALL|2011|08|25|15|50|34.3700|-118.5700|427.0|32.0||1|AUTO_4-USA|223|ICAO-K3A6|13.0||1|AUTO_4-USA|223|ICAO-K3A6|||||||1012.1||1|AUTO_4-USA|223|ICAO-K3A6|320|N-Normal|1|AUTO_4-USA|223|ICAO-K3A6|0.5|N-Normal|1|AUTO_4-USA|223|ICAO-K3A6|||||||||||||31|Derived||AUTO_4-USA|223|ICAO-K3A6|||||||||||||||||||||||||||||||||||||||||||||||||||||||||||||||||||||||||1012.9||1|AUTO_4-USA|223|ICAO-K3A6|||||||||||||||||||||||||||||||||||||||||||MET069METAR K3A6 251550Z AUTO 32001KT 32/13 A2991 RMK AO1 SLP121 T03220133;||A||223|ICAO-K3A6
USI0000K3A6|NEWHALL|2011|08|25|16|10|34.3700|-118.5700|427.0|33.0||1|AUTO_4-USA|223|ICAO-K3A6|13.0||1|AUTO_4-USA|223|ICAO-K3A6|||||||1012.0||1|AUTO_4-USA|223|ICAO-K3A6|200|N-Normal|1|AUTO_4-USA|223|ICAO-K3A6|1.0|N-Normal|1|AUTO_4-USA|223|ICAO-K3A6|||||||||||||30|Derived||AUTO_4-USA|223|ICAO-K3A6|||||||||||||||||||||||||||||||||||||||||||||||||||||||||||||||||||||||||1012.9||1|AUTO_4-USA|223|ICAO-K3A6|||||||||||||||||||||||||||||||||||||||||||MET069METAR K3A6 251610Z AUTO 20002KT 33/13 A2991 RMK AO1 SLP120 T03270128;||A||223|ICAO-K3A6
USI0000K3A6|NEWHALL|2011|08|25|16|30|34.3700|-118.5700|427.0|32.0||1|AUTO_4-USA|223|ICAO-K3A6|13.0||1|AUTO_4-USA|223|ICAO-K3A6|||||||1011.8||1|AUTO_4-USA|223|ICAO-K3A6|360|N-Normal|1|AUTO_4-USA|223|ICAO-K3A6|0.5|N-Normal|1|AUTO_4-USA|223|ICAO-K3A6|||||||||||||31|Derived||AUTO_4-USA|223|ICAO-K3A6|||||||||||||||||||||||||||||||||||||||||||||||||||||||||||||||||||||||||1012.9||1|AUTO_4-USA|223|ICAO-K3A6|||||||||||||||||||||||||||||||||||||||||||MET069METAR K3A6 251630Z AUTO 36001KT 32/13 A2991 RMK AO1 SLP118 T03210133;||A||223|ICAO-K3A6
USI0000K3A6|NEWHALL|2011|08|25|16|50|34.3700|-118.5700|427.0|34.0||1|AUTO_4-USA|223|ICAO-K3A6|12.0||1|AUTO_4-USA|223|ICAO-K3A6|||||||1011.7||1|AUTO_4-USA|223|ICAO-K3A6|350|N-Normal|1|AUTO_4-USA|223|ICAO-K3A6|1.0|N-Normal|1|AUTO_4-USA|223|ICAO-K3A6|||||||||||||26|Derived||AUTO_4-USA|223|ICAO-K3A6|||||||||||||||||||||||||||||||||||||||||||||||||||||||||||||||||||||||||1012.9||1|AUTO_4-USA|223|ICAO-K3A6|||||||||||||||||||||||||||||||||||||||||||MET069METAR K3A6 251650Z AUTO 35002KT 34/12 A2991 RMK AO1 SLP117 T03410124;||A||223|ICAO-K3A6
USI0000K3A6|NEWHALL|2011|08|25|17|10|34.3700|-118.5700|427.0|35.0||1|AUTO_4-USA|223|ICAO-K3A6|13.0||1|AUTO_4-USA|223|ICAO-K3A6|||||||1011.6||1|AUTO_4-USA|223|ICAO-K3A6|350|N-Normal|1|AUTO_4-USA|223|ICAO-K3A6|1.0|N-Normal|1|AUTO_4-USA|223|ICAO-K3A6|||||||||||||26|Derived||AUTO_4-USA|223|ICAO-K3A6|||||||||||||||||||||||||||||||||||||||||||||||||||||||||||||||||||||||||1012.9||1|AUTO_4-USA|223|ICAO-K3A6|0.9|1-Incr-the|1|AUTO_4-USA|223|ICAO-K3A6|||||||||||||||||||||||||||||||||||||MET087METAR K3A6 251710Z AUTO 35002KT 35/13 A2991 RMK AO1 SLP116 T03460128 10346 20233 51009;||A||223|ICAO-K3A6
USI0000K3A6|NEWHALL|2011|08|25|17|30|34.3700|-118.5700|427.0|36.0||1|AUTO_4-USA|223|ICAO-K3A6|13.0||1|AUTO_4-USA|223|ICAO-K3A6|||||||1011.5||1|AUTO_4-USA|223|ICAO-K3A6|350|N-Normal|1|AUTO_4-USA|223|ICAO-K3A6|1.0|N-Normal|1|AUTO_4-USA|223|ICAO-K3A6|||||||||||||25|Derived||AUTO_4-USA|223|ICAO-K3A6|||||||||||||||||||||||||||||||||||||||||||||||||||||||||||||||||||||||||1012.9||1|AUTO_4-USA|223|ICAO-K3A6|0.3|0-Incr-the|1|AUTO_4-USA|223|ICAO-K3A6|||||||||||||||||||||||||||||||||||||MET087METAR K3A6 251730Z AUTO 35002KT 36/13 A2991 RMK AO1 SLP115 T03610134 10361 20233 50003;||A||223|ICAO-K3A6
USI0000K3A6|NEWHALL|2011|08|26|03|10|34.3700|-118.5700|427.0|28.0||1|AUTO_4-USA|223|ICAO-K3A6|11.0||1|AUTO_4-USA|223|ICAO-K3A6|||||||1008.5||1|AUTO_4-USA|223|ICAO-K3A6|350|N-Normal|1|AUTO_4-USA|223|ICAO-K3A6|1.0|N-Normal|1|AUTO_4-USA|223|ICAO-K3A6|8.2||1|AUTO_4-USA|223|ICAO-K3A6|||||||35|Derived||AUTO_4-USA|223|ICAO-K3A6|||||||||||||||||||||||||||||||||||||||||||||||||||||||||||||||||||||||||1010.8||1|AUTO_4-USA|223|ICAO-K3A6|||||||||||||||||||||||||||||||||||||||||||MET072METAR K3A6 260310Z AUTO 35002G16KT 28/11 A2985 RMK AO1 SLP085 T02770112;||A||223|ICAO-K3A6
USI0000K3A6|NEWHALL|2011|08|26|03|30|34.3700|-118.5700|427.0|28.0||1|AUTO_4-USA|223|ICAO-K3A6|12.0||1|AUTO_4-USA|223|ICAO-K3A6|||||||1008.9||1|AUTO_4-USA|223|ICAO-K3A6|350|N-Normal|1|AUTO_4-USA|223|ICAO-K3A6|1.5|N-Normal|1|AUTO_4-USA|223|ICAO-K3A6|||||||||||||37|Derived||AUTO_4-USA|223|ICAO-K3A6|||||||||||||||||||||||||||||||||||||||||||||||||||||||||||||||||||||||||1011.2||1|AUTO_4-USA|223|ICAO-K3A6|||||||||||||||||||||||||||||||||||||||||||MET069METAR K3A6 260330Z AUTO 35003KT 28/12 A2986 RMK AO1 SLP089 T02800119;||A||223|ICAO-K3A6
USI0000K3A6|NEWHALL|2011|08|26|03|50|34.3700|-118.5700|427.0|28.0||1|AUTO_4-USA|223|ICAO-K3A6|12.0||1|AUTO_4-USA|223|ICAO-K3A6|||||||1009.1||1|AUTO_4-USA|223|ICAO-K3A6|350|N-Normal|1|AUTO_4-USA|223|ICAO-K3A6|2.1|N-Normal|1|AUTO_4-USA|223|ICAO-K3A6|||||||||||||37|Derived||AUTO_4-USA|223|ICAO-K3A6|||||||||||||||||||||||||||||||||||||||||||||||||||||||||||||||||||||||||1011.5||1|AUTO_4-USA|223|ICAO-K3A6|||||||||||||||||||||||||||||||||||||||||||MET069METAR K3A6 260350Z AUTO 35004KT 28/12 A2987 RMK AO1 SLP091 T02770117;||A||223|ICAO-K3A6
USI0000K3A6|NEWHALL|2011|08|26|04|10|34.3700|-118.5700|427.0|27.0||1|AUTO_4-USA|223|ICAO-K3A6|12.0||1|AUTO_4-USA|223|ICAO-K3A6|||||||1009.5||1|AUTO_4-USA|223|ICAO-K3A6|350|N-Normal|1|AUTO_4-USA|223|ICAO-K3A6|2.1|N-Normal|1|AUTO_4-USA|223|ICAO-K3A6|||||||||||||39|Derived||AUTO_4-USA|223|ICAO-K3A6|||||||||||||||||||||||||||||||||||||||||||||||||||||||||||||||||||||||||1011.9||1|AUTO_4-USA|223|ICAO-K3A6|||||||||||||||||||||||||||||||||||||||||||MET069METAR K3A6 260410Z AUTO 35004KT 27/12 A2988 RMK AO1 SLP095 T02720116;||A||223|ICAO-K3A6
USI0000K3A6|NEWHALL|2011|08|26|09|10|34.3700|-118.5700|427.0|24.0||1|AUTO_4-USA|223|ICAO-K3A6|9.0||1|AUTO_4-USA|223|ICAO-K3A6|||||||1010.7||1|AUTO_4-USA|223|ICAO-K3A6|350|N-Normal|1|AUTO_4-USA|223|ICAO-K3A6|1.0|N-Normal|1|AUTO_4-USA|223|ICAO-K3A6|||||||||||||39|Derived||AUTO_4-USA|223|ICAO-K3A6|||||||||||||||||||||||||||||||||||||||||||||||||||||||||||||||||||||||||1011.9||1|AUTO_4-USA|223|ICAO-K3A6|||||||||||||||||||||||||||||||||||||||||||MET069METAR K3A6 260910Z AUTO 35002KT 24/09 A2988 RMK AO1 SLP107 T02450088;||A||223|ICAO-K3A6
USI0000K3A6|NEWHALL|2011|08|26|09|30|34.3700|-118.5700|427.0|24.0||1|AUTO_4-USA|223|ICAO-K3A6|9.0||1|AUTO_4-USA|223|ICAO-K3A6|||||||1010.6||1|AUTO_4-USA|223|ICAO-K3A6|350|N-Normal|1|AUTO_4-USA|223|ICAO-K3A6|1.0|N-Normal|1|AUTO_4-USA|223|ICAO-K3A6|||||||||||||39|Derived||AUTO_4-USA|223|ICAO-K3A6|||||||||||||||||||||||||||||||||||||||||||||||||||||||||||||||||||||||||1011.9||1|AUTO_4-USA|223|ICAO-K3A6|||||||||||||||||||||||||||||||||||||||||||MET069METAR K3A6 260930Z AUTO 35002KT 24/09 A2988 RMK AO1 SLP106 T02430086;||A||223|ICAO-K3A6
USI0000K3A6|NEWHALL|2011|08|26|09|50|34.3700|-118.5700|427.0|25.0||1|AUTO_4-USA|223|ICAO-K3A6|8.0||1|AUTO_4-USA|223|ICAO-K3A6|||||||1010.7||1|AUTO_4-USA|223|ICAO-K3A6|350|N-Normal|1|AUTO_4-USA|223|ICAO-K3A6|1.5|N-Normal|1|AUTO_4-USA|223|ICAO-K3A6|||||||||||||34|Derived||AUTO_4-USA|223|ICAO-K3A6|||||||||||||||||||||||||||||||||||||||||||||||||||||||||||||||||||||||||1011.9||1|AUTO_4-USA|223|ICAO-K3A6|||||||||||||||||||||||||||||||||||||||||||MET069METAR K3A6 260950Z AUTO 35003KT 25/08 A2988 RMK AO1 SLP107 T02460085;||A||223|ICAO-K3A6
USI0000K3A6|NEWHALL|2011|08|26|12|30|34.3700|-118.5700|427.0|24.0||1|AUTO_4-USA|223|ICAO-K3A6|6.0||1|AUTO_4-USA|223|ICAO-K3A6|||||||1010.6||1|AUTO_4-USA|223|ICAO-K3A6|350|N-Normal|1|AUTO_4-USA|223|ICAO-K3A6|2.1|N-Normal|1|AUTO_4-USA|223|ICAO-K3A6|||||||||||||31|Derived||AUTO_4-USA|223|ICAO-K3A6|||||||||||||||||||||||||||||||||||||||||||||||||||||||||||||||||||||||||1011.9||1|AUTO_4-USA|223|ICAO-K3A6|||||||||||||||||||||||||||||||||||||||||||MET069METAR K3A6 261230Z AUTO 35004KT 24/06 A2988 RMK AO1 SLP106 T02450062;||A||223|ICAO-K3A6
USI0000K3A6|NEWHALL|2011|08|26|13|30|34.3700|-118.5700|427.0|24.0||1|AUTO_4-USA|223|ICAO-K3A6|6.0||1|AUTO_4-USA|223|ICAO-K3A6|||||||1011.1||1|AUTO_4-USA|223|ICAO-K3A6|350|N-Normal|1|AUTO_4-USA|223|ICAO-K3A6|1.0|N-Normal|1|AUTO_4-USA|223|ICAO-K3A6|||||||||||||31|Derived||AUTO_4-USA|223|ICAO-K3A6|||||||||||||||||||||||||||||||||||||||||||||||||||||||||||||||||||||||||1012.2||1|AUTO_4-USA|223|ICAO-K3A6|||||||||||||||||||||||||||||||||||||||||||MET069METAR K3A6 261330Z AUTO 35002KT 24/06 A2989 RMK AO1 SLP111 T02400058;||A||223|ICAO-K3A6
USI0000K3A6|NEWHALL|2011|08|26|13|50|34.3700|-118.5700|427.0|24.0||1|AUTO_4-USA|223|ICAO-K3A6|6.0||1|AUTO_4-USA|223|ICAO-K3A6|||||||1011.2||1|AUTO_4-USA|223|ICAO-K3A6|350|N-Normal|1|AUTO_4-USA|223|ICAO-K3A6|0.5|N-Normal|1|AUTO_4-USA|223|ICAO-K3A6|||||||||||||31|Derived||AUTO_4-USA|223|ICAO-K3A6|||||||||||||||||||||||||||||||||||||||||||||||||||||||||||||||||||||||||1012.2||1|AUTO_4-USA|223|ICAO-K3A6|||||||||||||||||||||||||||||||||||||||||||MET069METAR K3A6 261350Z AUTO 35001KT 24/06 A2989 RMK AO1 SLP112 T02430061;||A||223|ICAO-K3A6
USI0000K3A6|NEWHALL|2011|08|26|14|10|34.3700|-118.5700|427.0|25.0||1|AUTO_4-USA|223|ICAO-K3A6|7.0||1|AUTO_4-USA|223|ICAO-K3A6|||||||1011.5||1|AUTO_4-USA|223|ICAO-K3A6|350|N-Normal|1|AUTO_4-USA|223|ICAO-K3A6|1.0|N-Normal|1|AUTO_4-USA|223|ICAO-K3A6|||||||||||||32|Derived||AUTO_4-USA|223|ICAO-K3A6|||||||||||||||||||||||||||||||||||||||||||||||||||||||||||||||||||||||||1012.5||1|AUTO_4-USA|223|ICAO-K3A6|0.0|4-Steady;-|1|AUTO_4-USA|223|ICAO-K3A6|||||||||||||||||||||||||||||||||||||MET075METAR K3A6 261410Z AUTO 35002KT 25/07 A2990 RMK AO1 SLP115 T02480070 54000;||A||223|ICAO-K3A6
USI0000K3A6|NEWHALL|2011|08|27|04|10|34.3700|-118.5700|427.0|30.0||1|AUTO_4-USA|223|ICAO-K3A6|10.0||1|AUTO_4-USA|223|ICAO-K3A6|||||||1010.8||1|AUTO_4-USA|223|ICAO-K3A6|350|N-Normal|1|AUTO_4-USA|223|ICAO-K3A6|2.6|N-Normal|1|AUTO_4-USA|223|ICAO-K3A6|||||||||||||29|Derived||AUTO_4-USA|223|ICAO-K3A6|||||||||||||||||||||||||||||||||||||||||||||||||||||||||||||||||||||||||1012.9||1|AUTO_4-USA|223|ICAO-K3A6|||||||||||||||||||||||||||||||||||||||||||MET069METAR K3A6 270410Z AUTO 35005KT 30/10 A2991 RMK AO1 SLP108 T03030097;||A||223|ICAO-K3A6
USI0000K3A6|NEWHALL|2011|08|27|04|50|34.3700|-118.5700|427.0|30.0||1|AUTO_4-USA|223|ICAO-K3A6|11.0||1|AUTO_4-USA|223|ICAO-K3A6|||||||1011.1||1|AUTO_4-USA|223|ICAO-K3A6|350|N-Normal|1|AUTO_4-USA|223|ICAO-K3A6|1.5|N-Normal|1|AUTO_4-USA|223|ICAO-K3A6|||||||||||||31|Derived||AUTO_4-USA|223|ICAO-K3A6|||||||||||||||||||||||||||||||||||||||||||||||||||||||||||||||||||||||||1012.9||1|AUTO_4-USA|223|ICAO-K3A6|||||||||||||||||||||||||||||||||||||||||||MET069METAR K3A6 270450Z AUTO 35003KT 30/11 A2991 RMK AO1 SLP111 T03010106;||A||223|ICAO-K3A6
USI0000K3A6|NEWHALL|2011|08|27|05|10|34.3700|-118.5700|427.0|30.0||1|AUTO_4-USA|223|ICAO-K3A6|12.0||1|AUTO_4-USA|223|ICAO-K3A6|||||||1011.2||1|AUTO_4-USA|223|ICAO-K3A6|350|N-Normal|1|AUTO_4-USA|223|ICAO-K3A6|1.5|N-Normal|1|AUTO_4-USA|223|ICAO-K3A6|||||||||||||33|Derived||AUTO_4-USA|223|ICAO-K3A6|||||||||||||||||||||||||||||||||||||||||||||||||||||||||||||||||||||||||1013.2||1|AUTO_4-USA|223|ICAO-K3A6|0.0|4-Steady;-|1|AUTO_4-USA|223|ICAO-K3A6|||||||||||||||||||||||||||||||||||||MET087METAR K3A6 270510Z AUTO 35003KT 30/12 A2992 RMK AO1 SLP112 T02970117 10398 20297 54000;||A||223|ICAO-K3A6
USI0000K3A6|NEWHALL|2011|08|27|05|30|34.3700|-118.5700|427.0|30.0||1|AUTO_4-USA|223|ICAO-K3A6|11.0||1|AUTO_4-USA|223|ICAO-K3A6|||||||1011.3||1|AUTO_4-USA|223|ICAO-K3A6|350|N-Normal|1|AUTO_4-USA|223|ICAO-K3A6|1.5|N-Normal|1|AUTO_4-USA|223|ICAO-K3A6|||||||||||||31|Derived||AUTO_4-USA|223|ICAO-K3A6|||||||||||||||||||||||||||||||||||||||||||||||||||||||||||||||||||||||||1013.2||1|AUTO_4-USA|223|ICAO-K3A6|0.0|4-Steady;-|1|AUTO_4-USA|223|ICAO-K3A6|||||||||||||||||||||||||||||||||||||MET087METAR K3A6 270530Z AUTO 35003KT 30/11 A2992 RMK AO1 SLP113 T02970112 10398 20296 54000;||A||223|ICAO-K3A6
USI0000K3A6|NEWHALL|2011|08|27|05|50|34.3700|-118.5700|427.0|30.0||1|AUTO_4-USA|223|ICAO-K3A6|10.0||1|AUTO_4-USA|223|ICAO-K3A6|||||||1011.3||1|AUTO_4-USA|223|ICAO-K3A6|350|N-Normal|1|AUTO_4-USA|223|ICAO-K3A6|1.0|N-Normal|1|AUTO_4-USA|223|ICAO-K3A6|||||||||||||29|Derived||AUTO_4-USA|223|ICAO-K3A6|||||||||||||||||||||||||||||||||||||||||||||||||||||||||||||||||||||||||1013.2||1|AUTO_4-USA|223|ICAO-K3A6|0.0|4-Steady;-|1|AUTO_4-USA|223|ICAO-K3A6|||||||||||||||||||||||||||||||||||||MET087METAR K3A6 270550Z AUTO 35002KT 30/10 A2992 RMK AO1 SLP113 T02980103 10398 20296 54000;||A||223|ICAO-K3A6
USI0000K3A6|NEWHALL|2011|08|27|06|10|34.3700|-118.5700|427.0|29.0||1|AUTO_4-USA|223|ICAO-K3A6|11.0||1|AUTO_4-USA|223|ICAO-K3A6|||||||1011.2||1|AUTO_4-USA|223|ICAO-K3A6|350|N-Normal|1|AUTO_4-USA|223|ICAO-K3A6|1.5|N-Normal|1|AUTO_4-USA|223|ICAO-K3A6|||||||||||||33|Derived||AUTO_4-USA|223|ICAO-K3A6|||||||||||||||||||||||||||||||||||||||||||||||||||||||||||||||||||||||||1012.9||1|AUTO_4-USA|223|ICAO-K3A6|||||||||||||||||||||||||||||||||||||||||||MET079METAR K3A6 270610Z AUTO 35003KT 29/11 A2991 RMK AO1 SLP112 T02920112 403980239;||A||223|ICAO-K3A6
USI0000K3A6|NEWHALL|2011|08|27|06|30|34.3700|-118.5700|427.0|28.0||1|AUTO_4-USA|223|ICAO-K3A6|11.0||1|AUTO_4-USA|223|ICAO-K3A6|||||||1011.4||1|AUTO_4-USA|223|ICAO-K3A6|350|N-Normal|1|AUTO_4-USA|223|ICAO-K3A6|1.0|N-Normal|1|AUTO_4-USA|223|ICAO-K3A6|||||||||||||35|Derived||AUTO_4-USA|223|ICAO-K3A6|||||||||||||||||||||||||||||||||||||||||||||||||||||||||||||||||||||||||1013.2||1|AUTO_4-USA|223|ICAO-K3A6|||||||||||||||||||||||||||||||||||||||||||MET079METAR K3A6 270630Z AUTO 35002KT 28/11 A2992 RMK AO1 SLP114 T02820113 403980239;||A||223|ICAO-K3A6
USI0000K3A6|NEWHALL|2011|08|27|06|50|34.3700|-118.5700|427.0|27.0||1|AUTO_4-USA|223|ICAO-K3A6|12.0||1|AUTO_4-USA|223|ICAO-K3A6|||||||1011.5||1|AUTO_4-USA|223|ICAO-K3A6|350|N-Normal|1|AUTO_4-USA|223|ICAO-K3A6|1.0|N-Normal|1|AUTO_4-USA|223|ICAO-K3A6|||||||||||||39|Derived||AUTO_4-USA|223|ICAO-K3A6|||||||||||||||||||||||||||||||||||||||||||||||||||||||||||||||||||||||||1013.2||1|AUTO_4-USA|223|ICAO-K3A6|||||||||||||||||||||||||||||||||||||||||||MET079METAR K3A6 270650Z AUTO 35002KT 27/12 A2992 RMK AO1 SLP115 T02730117 403980239;||A||223|ICAO-K3A6
USI0000K3A6|NEWHALL|2011|08|27|07|10|34.3700|-118.5700|427.0|27.0||1|AUTO_4-USA|223|ICAO-K3A6|11.0||1|AUTO_4-USA|223|ICAO-K3A6|||||||1011.7||1|AUTO_4-USA|223|ICAO-K3A6|350|N-Normal|1|AUTO_4-USA|223|ICAO-K3A6|1.0|N-Normal|1|AUTO_4-USA|223|ICAO-K3A6|||||||||||||37|Derived||AUTO_4-USA|223|ICAO-K3A6|||||||||||||||||||||||||||||||||||||||||||||||||||||||||||||||||||||||||1013.2||1|AUTO_4-USA|223|ICAO-K3A6|||||||||||||||||||||||||||||||||||||||||||MET069METAR K3A6 270710Z AUTO 35002KT 27/11 A2992 RMK AO1 SLP117 T02700110;||A||223|ICAO-K3A6
USI0000K3A6|NEWHALL|2011|08|27|07|30|34.3700|-118.5700|427.0|27.0||1|AUTO_4-USA|223|ICAO-K3A6|11.0||1|AUTO_4-USA|223|ICAO-K3A6|||||||1011.7||1|AUTO_4-USA|223|ICAO-K3A6|350|N-Normal|1|AUTO_4-USA|223|ICAO-K3A6|1.0|N-Normal|1|AUTO_4-USA|223|ICAO-K3A6|||||||||||||37|Derived||AUTO_4-USA|223|ICAO-K3A6|||||||||||||||||||||||||||||||||||||||||||||||||||||||||||||||||||||||||1013.2||1|AUTO_4-USA|223|ICAO-K3A6|||||||||||||||||||||||||||||||||||||||||||MET069METAR K3A6 270730Z AUTO 35002KT 27/11 A2992 RMK AO1 SLP117 T02700114;||A||223|ICAO-K3A6
USI0000K3A6|NEWHALL|2011|08|27|07|50|34.3700|-118.5700|427.0|27.0||1|AUTO_4-USA|223|ICAO-K3A6|11.0||1|AUTO_4-USA|223|ICAO-K3A6|||||||1011.8||1|AUTO_4-USA|223|ICAO-K3A6|350|N-Normal|1|AUTO_4-USA|223|ICAO-K3A6|1.0|N-Normal|1|AUTO_4-USA|223|ICAO-K3A6|||||||||||||37|Derived||AUTO_4-USA|223|ICAO-K3A6|||||||||||||||||||||||||||||||||||||||||||||||||||||||||||||||||||||||||1013.5||1|AUTO_4-USA|223|ICAO-K3A6|||||||||||||||||||||||||||||||||||||||||||MET069METAR K3A6 270750Z AUTO 35002KT 27/11 A2993 RMK AO1 SLP118 T02740114;||A||223|ICAO-K3A6
USI0000K3A6|NEWHALL|2011|08|27|08|10|34.3700|-118.5700|427.0|27.0||1|AUTO_4-USA|223|ICAO-K3A6|12.0||1|AUTO_4-USA|223|ICAO-K3A6|||||||1011.9||1|AUTO_4-USA|223|ICAO-K3A6|350|N-Normal|1|AUTO_4-USA|223|ICAO-K3A6|1.0|N-Normal|1|AUTO_4-USA|223|ICAO-K3A6|||||||||||||39|Derived||AUTO_4-USA|223|ICAO-K3A6|||||||||||||||||||||||||||||||||||||||||||||||||||||||||||||||||||||||||1013.5||1|AUTO_4-USA|223|ICAO-K3A6|0.9|3-Decr-or-|1|AUTO_4-USA|223|ICAO-K3A6|||||||||||||||||||||||||||||||||||||MET075METAR K3A6 270810Z AUTO 35002KT 27/12 A2993 RMK AO1 SLP119 T02720116 53009;||A||223|ICAO-K3A6
USI0000K3A6|NEWHALL|2011|08|27|08|30|34.3700|-118.5700|427.0|26.0||1|AUTO_4-USA|223|ICAO-K3A6|11.0||1|AUTO_4-USA|223|ICAO-K3A6|||||||1011.8||1|AUTO_4-USA|223|ICAO-K3A6|350|N-Normal|1|AUTO_4-USA|223|ICAO-K3A6|1.0|N-Normal|1|AUTO_4-USA|223|ICAO-K3A6|||||||||||||39|Derived||AUTO_4-USA|223|ICAO-K3A6|||||||||||||||||||||||||||||||||||||||||||||||||||||||||||||||||||||||||1013.2||1|AUTO_4-USA|223|ICAO-K3A6|0.3|2-Incr-(st|1|AUTO_4-USA|223|ICAO-K3A6|||||||||||||||||||||||||||||||||||||MET075METAR K3A6 270830Z AUTO 35002KT 26/11 A2992 RMK AO1 SLP118 T02640109 52003;||A||223|ICAO-K3A6
USI0000K3A6|NEWHALL|2011|08|27|08|50|34.3700|-118.5700|427.0|27.0||1|AUTO_4-USA|223|ICAO-K3A6|11.0||1|AUTO_4-USA|223|ICAO-K3A6|||||||1011.7||1|AUTO_4-USA|223|ICAO-K3A6|350|N-Normal|1|AUTO_4-USA|223|ICAO-K3A6|0.5|N-Normal|1|AUTO_4-USA|223|ICAO-K3A6|||||||||||||37|Derived||AUTO_4-USA|223|ICAO-K3A6|||||||||||||||||||||||||||||||||||||||||||||||||||||||||||||||||||||||||1013.2||1|AUTO_4-USA|223|ICAO-K3A6|0.3|2-Incr-(st|1|AUTO_4-USA|223|ICAO-K3A6|||||||||||||||||||||||||||||||||||||MET075METAR K3A6 270850Z AUTO 35001KT 27/11 A2992 RMK AO1 SLP117 T02670112 52003;||A||223|ICAO-K3A6
USI0000K3A6|NEWHALL|2011|08|27|09|10|34.3700|-118.5700|427.0|26.0||1|AUTO_4-USA|223|ICAO-K3A6|11.0||1|AUTO_4-USA|223|ICAO-K3A6|||||||1011.3||1|AUTO_4-USA|223|ICAO-K3A6|350|N-Normal|1|AUTO_4-USA|223|ICAO-K3A6|0.5|N-Normal|1|AUTO_4-USA|223|ICAO-K3A6|||||||||||||39|Derived||AUTO_4-USA|223|ICAO-K3A6|||||||||||||||||||||||||||||||||||||||||||||||||||||||||||||||||||||||||1012.9||1|AUTO_4-USA|223|ICAO-K3A6|||||||||||||||||||||||||||||||||||||||||||MET069METAR K3A6 270910Z AUTO 35001KT 26/11 A2991 RMK AO1 SLP113 T02630108;||A||223|ICAO-K3A6
USI0000K3A6|NEWHALL|2011|08|27|09|30|34.3700|-118.5700|427.0|26.0||1|AUTO_4-USA|223|ICAO-K3A6|11.0||1|AUTO_4-USA|223|ICAO-K3A6|||||||1011.8||1|AUTO_4-USA|223|ICAO-K3A6|350|N-Normal|1|AUTO_4-USA|223|ICAO-K3A6|1.0|N-Normal|1|AUTO_4-USA|223|ICAO-K3A6|||||||||||||39|Derived||AUTO_4-USA|223|ICAO-K3A6|||||||||||||||||||||||||||||||||||||||||||||||||||||||||||||||||||||||||1013.2||1|AUTO_4-USA|223|ICAO-K3A6|||||||||||||||||||||||||||||||||||||||||||MET069METAR K3A6 270930Z AUTO 35002KT 26/11 A2992 RMK AO1 SLP118 T02630108;||A||223|ICAO-K3A6
USI0000K3A6|NEWHALL|2011|08|27|09|50|34.3700|-118.5700|427.0|26.0||1|AUTO_4-USA|223|ICAO-K3A6|11.0||1|AUTO_4-USA|223|ICAO-K3A6|||||||1011.8||1|AUTO_4-USA|223|ICAO-K3A6|350|N-Normal|1|AUTO_4-USA|223|ICAO-K3A6|1.0|N-Normal|1|AUTO_4-USA|223|ICAO-K3A6|||||||||||||39|Derived||AUTO_4-USA|223|ICAO-K3A6|||||||||||||||||||||||||||||||||||||||||||||||||||||||||||||||||||||||||1013.2||1|AUTO_4-USA|223|ICAO-K3A6|||||||||||||||||||||||||||||||||||||||||||MET069METAR K3A6 270950Z AUTO 35002KT 26/11 A2992 RMK AO1 SLP118 T02580111;||A||223|ICAO-K3A6
USI0000K3A6|NEWHALL|2011|08|27|10|10|34.3700|-118.5700|427.0|26.0||1|AUTO_4-USA|223|ICAO-K3A6|11.0||1|AUTO_4-USA|223|ICAO-K3A6|||||||1011.8||1|AUTO_4-USA|223|ICAO-K3A6|350|N-Normal|1|AUTO_4-USA|223|ICAO-K3A6|1.0|N-Normal|1|AUTO_4-USA|223|ICAO-K3A6|||||||||||||39|Derived||AUTO_4-USA|223|ICAO-K3A6|||||||||||||||||||||||||||||||||||||||||||||||||||||||||||||||||||||||||1013.2||1|AUTO_4-USA|223|ICAO-K3A6|||||||||||||||||||||||||||||||||||||||||||MET069METAR K3A6 271010Z AUTO 35002KT 26/11 A2992 RMK AO1 SLP118 T02590108;||A||223|ICAO-K3A6
USI0000K3A6|NEWHALL|2011|08|27|10|30|34.3700|-118.5700|427.0|26.0||1|AUTO_4-USA|223|ICAO-K3A6|10.0||1|AUTO_4-USA|223|ICAO-K3A6|||||||1011.8||1|AUTO_4-USA|223|ICAO-K3A6|350|N-Normal|1|AUTO_4-USA|223|ICAO-K3A6|1.0|N-Normal|1|AUTO_4-USA|223|ICAO-K3A6|||||||||||||37|Derived||AUTO_4-USA|223|ICAO-K3A6|||||||||||||||||||||||||||||||||||||||||||||||||||||||||||||||||||||||||1013.2||1|AUTO_4-USA|223|ICAO-K3A6|||||||||||||||||||||||||||||||||||||||||||MET069METAR K3A6 271030Z AUTO 35002KT 26/10 A2992 RMK AO1 SLP118 T02570103;||A||223|ICAO-K3A6
USI0000K3A6|NEWHALL|2011|08|27|10|50|34.3700|-118.5700|427.0|25.0||1|AUTO_4-USA|223|ICAO-K3A6|10.0||1|AUTO_4-USA|223|ICAO-K3A6|||||||1011.9||1|AUTO_4-USA|223|ICAO-K3A6|350|N-Normal|1|AUTO_4-USA|223|ICAO-K3A6|0.5|N-Normal|1|AUTO_4-USA|223|ICAO-K3A6|||||||||||||39|Derived||AUTO_4-USA|223|ICAO-K3A6|||||||||||||||||||||||||||||||||||||||||||||||||||||||||||||||||||||||||1013.2||1|AUTO_4-USA|223|ICAO-K3A6|||||||||||||||||||||||||||||||||||||||||||MET069METAR K3A6 271050Z AUTO 35001KT 25/10 A2992 RMK AO1 SLP119 T02510103;||A||223|ICAO-K3A6
USI0000K3A6|NEWHALL|2011|08|27|11|10|34.3700|-118.5700|427.0|25.0||1|AUTO_4-USA|223|ICAO-K3A6|10.0||1|AUTO_4-USA|223|ICAO-K3A6|||||||1011.9||1|AUTO_4-USA|223|ICAO-K3A6|350|N-Normal|1|AUTO_4-USA|223|ICAO-K3A6|1.0|N-Normal|1|AUTO_4-USA|223|ICAO-K3A6|||||||||||||39|Derived||AUTO_4-USA|223|ICAO-K3A6|||||||||||||||||||||||||||||||||||||||||||||||||||||||||||||||||||||||||1013.2||1|AUTO_4-USA|223|ICAO-K3A6|-0.6|5-Decr,-th|1|AUTO_4-USA|223|ICAO-K3A6|||||||||||||||||||||||||||||||||||||MET087METAR K3A6 271110Z AUTO 35002KT 25/10 A2992 RMK AO1 SLP119 T02500100 10298 20250 55006;||A||223|ICAO-K3A6
USI0000K3A6|NEWHALL|2011|08|27|11|30|34.3700|-118.5700|427.0|25.0||1|AUTO_4-USA|223|ICAO-K3A6|10.0||1|AUTO_4-USA|223|ICAO-K3A6|||||||1012.1||1|AUTO_4-USA|223|ICAO-K3A6|350|N-Normal|1|AUTO_4-USA|223|ICAO-K3A6|1.0|N-Normal|1|AUTO_4-USA|223|ICAO-K3A6|||||||||||||39|Derived||AUTO_4-USA|223|ICAO-K3A6|||||||||||||||||||||||||||||||||||||||||||||||||||||||||||||||||||||||||1013.5||1|AUTO_4-USA|223|ICAO-K3A6|0.3|3-Decr-or-|1|AUTO_4-USA|223|ICAO-K3A6|||||||||||||||||||||||||||||||||||||MET087METAR K3A6 271130Z AUTO 35002KT 25/10 A2993 RMK AO1 SLP121 T02510101 10298 20248 53003;||A||223|ICAO-K3A6
USI0000K3A6|NEWHALL|2011|08|27|11|50|34.3700|-118.5700|427.0|25.0||1|AUTO_4-USA|223|ICAO-K3A6|10.0||1|AUTO_4-USA|223|ICAO-K3A6|||||||1012.0||1|AUTO_4-USA|223|ICAO-K3A6|350|N-Normal|1|AUTO_4-USA|223|ICAO-K3A6|0.5|N-Normal|1|AUTO_4-USA|223|ICAO-K3A6|||||||||||||39|Derived||AUTO_4-USA|223|ICAO-K3A6|||||||||||||||||||||||||||||||||||||||||||||||||||||||||||||||||||||||||1013.2||1|AUTO_4-USA|223|ICAO-K3A6|0.3|3-Decr-or-|1|AUTO_4-USA|223|ICAO-K3A6|||||||||||||||||||||||||||||||||||||MET087METAR K3A6 271150Z AUTO 35001KT 25/10 A2992 RMK AO1 SLP120 T02480099 10297 20247 53003;||A||223|ICAO-K3A6
USI0000K3A6|NEWHALL|2011|08|27|12|10|34.3700|-118.5700|427.0|25.0||1|AUTO_4-USA|223|ICAO-K3A6|10.0||1|AUTO_4-USA|223|ICAO-K3A6|||||||1012.1||1|AUTO_4-USA|223|ICAO-K3A6|350|N-Normal|1|AUTO_4-USA|223|ICAO-K3A6|1.5|N-Normal|1|AUTO_4-USA|223|ICAO-K3A6|||||||||||||39|Derived||AUTO_4-USA|223|ICAO-K3A6|||||||||||||||||||||||||||||||||||||||||||||||||||||||||||||||||||||||||1013.2||1|AUTO_4-USA|223|ICAO-K3A6|||||||||||||||||||||||||||||||||||||||||||MET069METAR K3A6 271210Z AUTO 35003KT 25/10 A2992 RMK AO1 SLP121 T02480102;||A||223|ICAO-K3A6
USI0000K3A6|NEWHALL|2011|08|27|17|30|34.3700|-118.5700|427.0|39.0||1|AUTO_4-USA|223|ICAO-K3A6|14.0||1|AUTO_4-USA|223|ICAO-K3A6|||||||1013.3||1|AUTO_4-USA|223|ICAO-K3A6|350|N-Normal|1|AUTO_4-USA|223|ICAO-K3A6|0.5|N-Normal|1|AUTO_4-USA|223|ICAO-K3A6|||||||||||||23|Derived||AUTO_4-USA|223|ICAO-K3A6|||||||||||||||||||||||||||||||||||||||||||||||||||||||||||||||||||||||||1014.6||1|AUTO_4-USA|223|ICAO-K3A6|0.0|4-Steady;-|1|AUTO_4-USA|223|ICAO-K3A6|||||||||||||||||||||||||||||||||||||MET087METAR K3A6 271730Z AUTO 35001KT 39/14 A2996 RMK AO1 SLP133 T03930135 10393 20247 54000;||A||223|ICAO-K3A6
USI0000K3A6|NEWHALL|2011|08|27|17|50|34.3700|-118.5700|427.0|40.0||1|AUTO_4-USA|223|ICAO-K3A6|13.0||1|AUTO_4-USA|223|ICAO-K3A6|||||||1013.2||1|AUTO_4-USA|223|ICAO-K3A6|350|N-Normal|1|AUTO_4-USA|223|ICAO-K3A6|0.5|N-Normal|1|AUTO_4-USA|223|ICAO-K3A6|||||||||||||20|Derived||AUTO_4-USA|223|ICAO-K3A6|||||||||||||||||||||||||||||||||||||||||||||||||||||||||||||||||||||||||1014.6||1|AUTO_4-USA|223|ICAO-K3A6|0.0|4-Steady;-|1|AUTO_4-USA|223|ICAO-K3A6|||||||||||||||||||||||||||||||||||||MET087METAR K3A6 271750Z AUTO 35001KT 40/13 A2996 RMK AO1 SLP132 T04040131 10404 20247 54000;||A||223|ICAO-K3A6
USI0000K3A6|NEWHALL|2011|08|27|18|10|34.3700|-118.5700|427.0|41.0||1|AUTO_4-USA|223|ICAO-K3A6|15.0||1|AUTO_4-USA|223|ICAO-K3A6|||||||1012.9||1|AUTO_4-USA|223|ICAO-K3A6|010|N-Normal|1|AUTO_4-USA|223|ICAO-K3A6|0.5|N-Normal|1|AUTO_4-USA|223|ICAO-K3A6|||||||||||||22|Derived||AUTO_4-USA|223|ICAO-K3A6|||||||||||||||||||||||||||||||||||||||||||||||||||||||||||||||||||||||||1014.2||1|AUTO_4-USA|223|ICAO-K3A6|||||||||||||||||||||||||||||||||||||||||||MET069METAR K3A6 271810Z AUTO 01001KT 41/15 A2995 RMK AO1 SLP129 T04090149;||A||223|ICAO-K3A6
USI0000K3A6|NEWHALL|2011|08|27|18|30|34.3700|-118.5700|427.0|41.0||1|AUTO_4-USA|223|ICAO-K3A6|14.0||1|AUTO_4-USA|223|ICAO-K3A6|||||||1012.8||1|AUTO_4-USA|223|ICAO-K3A6|360|N-Normal|1|AUTO_4-USA|223|ICAO-K3A6|1.0|N-Normal|1|AUTO_4-USA|223|ICAO-K3A6|||||||||||||20|Derived||AUTO_4-USA|223|ICAO-K3A6|||||||||||||||||||||||||||||||||||||||||||||||||||||||||||||||||||||||||1014.2||1|AUTO_4-USA|223|ICAO-K3A6|||||||||||||||||||||||||||||||||||||||||||MET069METAR K3A6 271830Z AUTO 00002KT 41/14 A2995 RMK AO1 SLP128 T04110136;||A||223|ICAO-K3A6
USI0000K3A6|NEWHALL|2011|08|27|20|50|34.3700|-118.5700|427.0|42.0||1|AUTO_4-USA|223|ICAO-K3A6|14.0||1|AUTO_4-USA|223|ICAO-K3A6|||||||1011.7||1|AUTO_4-USA|223|ICAO-K3A6|020|N-Normal|1|AUTO_4-USA|223|ICAO-K3A6|2.6|N-Normal|1|AUTO_4-USA|223|ICAO-K3A6|||||||||||||19|Derived||AUTO_4-USA|223|ICAO-K3A6|||||||||||||||||||||||||||||||||||||||||||||||||||||||||||||||||||||||||1013.5||1|AUTO_4-USA|223|ICAO-K3A6|0.0|4-Steady;-|1|AUTO_4-USA|223|ICAO-K3A6|||||||||||||||||||||||||||||||||||||MET075METAR K3A6 272050Z AUTO 02005KT 42/14 A2993 RMK AO1 SLP117 T04220137 54000;||A||223|ICAO-K3A6
USI0000K3A6|NEWHALL|2011|08|27|21|30|34.3700|-118.5700|427.0|42.0||1|AUTO_4-USA|223|ICAO-K3A6|13.0||1|AUTO_4-USA|223|ICAO-K3A6|||||||1011.0||1|AUTO_4-USA|223|ICAO-K3A6|130|N-Normal|1|AUTO_4-USA|223|ICAO-K3A6|3.1|N-Normal|1|AUTO_4-USA|223|ICAO-K3A6|||||||||||||18|Derived||AUTO_4-USA|223|ICAO-K3A6|||||||||||||||||||||||||||||||||||||||||||||||||||||||||||||||||||||||||1013.2||1|AUTO_4-USA|223|ICAO-K3A6|||||||||||||||||||||||||||||||||||||||||||MET069METAR K3A6 272130Z AUTO 13006KT 42/13 A2992 RMK AO1 SLP110 T04230130;||A||223|ICAO-K3A6
USI0000K3A6|NEWHALL|2011|08|27|21|50|34.3700|-118.5700|427.0|42.0||1|AUTO_4-USA|223|ICAO-K3A6|13.0||1|AUTO_4-USA|223|ICAO-K3A6|||||||1010.5||1|AUTO_4-USA|223|ICAO-K3A6|030|N-Normal|1|AUTO_4-USA|223|ICAO-K3A6|3.6|N-Normal|1|AUTO_4-USA|223|ICAO-K3A6|||||||||||||18|Derived||AUTO_4-USA|223|ICAO-K3A6|||||||||||||||||||||||||||||||||||||||||||||||||||||||||||||||||||||||||1012.9||1|AUTO_4-USA|223|ICAO-K3A6|||||||||||||||||||||||||||||||||||||||||||MET069METAR K3A6 272150Z AUTO 03007KT 42/13 A2991 RMK AO1 SLP105 T04230130;||A||223|ICAO-K3A6
USI0000K3A6|NEWHALL|2011|08|27|22|10|34.3700|-118.5700|427.0|42.0||1|AUTO_4-USA|223|ICAO-K3A6|12.0||1|AUTO_4-USA|223|ICAO-K3A6|||||||1009.8||1|AUTO_4-USA|223|ICAO-K3A6|030|N-Normal|1|AUTO_4-USA|223|ICAO-K3A6|3.6|N-Normal|1|AUTO_4-USA|223|ICAO-K3A6|||||||||||||17|Derived||AUTO_4-USA|223|ICAO-K3A6|||||||||||||||||||||||||||||||||||||||||||||||||||||||||||||||||||||||||1012.5||1|AUTO_4-USA|223|ICAO-K3A6|||||||||||||||||||||||||||||||||||||||||||MET069METAR K3A6 272210Z AUTO 03007KT 42/12 A2990 RMK AO1 SLP098 T04160124;||A||223|ICAO-K3A6
USI0000K3A6|NEWHALL|2011|08|27|22|30|34.3700|-118.5700|427.0|41.0||1|AUTO_4-USA|223|ICAO-K3A6|12.0||1|AUTO_4-USA|223|ICAO-K3A6|||||||1009.7||1|AUTO_4-USA|223|ICAO-K3A6|360|N-Normal|1|AUTO_4-USA|223|ICAO-K3A6|3.1|N-Normal|1|AUTO_4-USA|223|ICAO-K3A6|||||||||||||18|Derived||AUTO_4-USA|223|ICAO-K3A6|||||||||||||||||||||||||||||||||||||||||||||||||||||||||||||||||||||||||1012.5||1|AUTO_4-USA|223|ICAO-K3A6|||||||||||||||||||||||||||||||||||||||||||MET069METAR K3A6 272230Z AUTO 36006KT 41/12 A2990 RMK AO1 SLP097 T04140123;||A||223|ICAO-K3A6
USI0000K3A6|NEWHALL|2011|08|27|22|50|34.3700|-118.5700|427.0|41.0||1|AUTO_4-USA|223|ICAO-K3A6|12.0||1|AUTO_4-USA|223|ICAO-K3A6|||||||1009.5||1|AUTO_4-USA|223|ICAO-K3A6|220|N-Normal|1|AUTO_4-USA|223|ICAO-K3A6|3.1|N-Normal|1|AUTO_4-USA|223|ICAO-K3A6|||||||||||||18|Derived||AUTO_4-USA|223|ICAO-K3A6|||||||||||||||||||||||||||||||||||||||||||||||||||||||||||||||||||||||||1012.5||1|AUTO_4-USA|223|ICAO-K3A6|||||||||||||||||||||||||||||||||||||||||||MET069METAR K3A6 272250Z AUTO 22006KT 41/12 A2990 RMK AO1 SLP095 T04110120;||A||223|ICAO-K3A6
USI0000K3A6|NEWHALL|2011|08|27|23|10|34.3700|-118.5700|427.0|41.0||1|AUTO_4-USA|223|ICAO-K3A6|11.0||1|AUTO_4-USA|223|ICAO-K3A6|||||||1009.3||1|AUTO_4-USA|223|ICAO-K3A6|280|N-Normal|1|AUTO_4-USA|223|ICAO-K3A6|3.6|N-Normal|1|AUTO_4-USA|223|ICAO-K3A6|||||||||||||17|Derived||AUTO_4-USA|223|ICAO-K3A6|||||||||||||||||||||||||||||||||||||||||||||||||||||||||||||||||||||||||1012.5||1|AUTO_4-USA|223|ICAO-K3A6|0.0|4-Steady;-|1|AUTO_4-USA|223|ICAO-K3A6|||||||||||||||||||||||||||||||||||||MET087METAR K3A6 272310Z AUTO 28007KT 41/11 A2990 RMK AO1 SLP093 T04090110 10436 20377 54000;||A||223|ICAO-K3A6
USI0000K3A6|NEWHALL|2011|08|27|23|30|34.3700|-118.5700|427.0|40.0||1|AUTO_4-USA|223|ICAO-K3A6|11.0||1|AUTO_4-USA|223|ICAO-K3A6|||||||1009.1||1|AUTO_4-USA|223|ICAO-K3A6|230|N-Normal|1|AUTO_4-USA|223|ICAO-K3A6|3.1|N-Normal|1|AUTO_4-USA|223|ICAO-K3A6|||||||||||||17|Derived||AUTO_4-USA|223|ICAO-K3A6|||||||||||||||||||||||||||||||||||||||||||||||||||||||||||||||||||||||||1012.5||1|AUTO_4-USA|223|ICAO-K3A6|0.0|4-Steady;-|1|AUTO_4-USA|223|ICAO-K3A6|||||||||||||||||||||||||||||||||||||MET087METAR K3A6 272330Z AUTO 23006KT 40/11 A2990 RMK AO1 SLP091 T04040106 10436 20394 54000;||A||223|ICAO-K3A6
USI0000K3A6|NEWHALL|2011|08|28|00|10|34.3700|-118.5700|427.0|40.0||1|AUTO_4-USA|223|ICAO-K3A6|10.0||1|AUTO_4-USA|223|ICAO-K3A6|||||||1008.7||1|AUTO_4-USA|223|ICAO-K3A6|110|N-Normal|1|AUTO_4-USA|223|ICAO-K3A6|3.1|N-Normal|1|AUTO_4-USA|223|ICAO-K3A6|||||||||||||16|Derived||AUTO_4-USA|223|ICAO-K3A6|||||||||||||||||||||||||||||||||||||||||||||||||||||||||||||||||||||||||1012.5||1|AUTO_4-USA|223|ICAO-K3A6|||||||||||||||||||||||||||||||||||||||||||MET069METAR K3A6 280010Z AUTO 11006KT 40/10 A2990 RMK AO1 SLP087 T03960100;||A||223|ICAO-K3A6
USI0000K3A6|NEWHALL|2011|08|28|00|30|34.3700|-118.5700|427.0|39.0||1|AUTO_4-USA|223|ICAO-K3A6|8.0||1|AUTO_4-USA|223|ICAO-K3A6|||||||1008.5||1|AUTO_4-USA|223|ICAO-K3A6|120|N-Normal|1|AUTO_4-USA|223|ICAO-K3A6|3.1|N-Normal|1|AUTO_4-USA|223|ICAO-K3A6|||||||||||||15|Derived||AUTO_4-USA|223|ICAO-K3A6|||||||||||||||||||||||||||||||||||||||||||||||||||||||||||||||||||||||||1012.5||1|AUTO_4-USA|223|ICAO-K3A6|||||||||||||||||||||||||||||||||||||||||||MET069METAR K3A6 280030Z AUTO 12006KT 39/08 A2990 RMK AO1 SLP085 T03890084;||A||223|ICAO-K3A6
USI0000K3A6|NEWHALL|2011|08|28|00|50|34.3700|-118.5700|427.0|37.0||1|AUTO_4-USA|223|ICAO-K3A6|8.0||1|AUTO_4-USA|223|ICAO-K3A6|||||||1008.3||1|AUTO_4-USA|223|ICAO-K3A6|160|N-Normal|1|AUTO_4-USA|223|ICAO-K3A6|3.6|N-Normal|1|AUTO_4-USA|223|ICAO-K3A6|8.7||1|AUTO_4-USA|223|ICAO-K3A6|||||||17|Derived||AUTO_4-USA|223|ICAO-K3A6|||||||||||||||||||||||||||||||||||||||||||||||||||||||||||||||||||||||||1012.2||1|AUTO_4-USA|223|ICAO-K3A6|||||||||||||||||||||||||||||||||||||||||||MET072METAR K3A6 280050Z AUTO 16007G17KT 37/08 A2989 RMK AO1 SLP083 T03740082;||A||223|ICAO-K3A6
USI0000K3A6|NEWHALL|2011|08|28|01|10|34.3700|-118.5700|427.0|37.0||1|AUTO_4-USA|223|ICAO-K3A6|8.0||1|AUTO_4-USA|223|ICAO-K3A6|||||||1008.2||1|AUTO_4-USA|223|ICAO-K3A6|310|N-Normal|1|AUTO_4-USA|223|ICAO-K3A6|3.6|N-Normal|1|AUTO_4-USA|223|ICAO-K3A6|8.7||1|AUTO_4-USA|223|ICAO-K3A6|||||||17|Derived||AUTO_4-USA|223|ICAO-K3A6|||||||||||||||||||||||||||||||||||||||||||||||||||||||||||||||||||||||||1012.2||1|AUTO_4-USA|223|ICAO-K3A6|||||||||||||||||||||||||||||||||||||||||||MET072METAR K3A6 280110Z AUTO 31007G17KT 37/08 A2989 RMK AO1 SLP082 T03690078;||A||223|ICAO-K3A6
USI0000K3A6|NEWHALL|2011|08|28|01|30|34.3700|-118.5700|427.0|36.0||1|AUTO_4-USA|223|ICAO-K3A6|7.0||1|AUTO_4-USA|223|ICAO-K3A6|||||||1008.4||1|AUTO_4-USA|223|ICAO-K3A6|070|N-Normal|1|AUTO_4-USA|223|ICAO-K3A6|2.6|N-Normal|1|AUTO_4-USA|223|ICAO-K3A6|||||||||||||17|Derived||AUTO_4-USA|223|ICAO-K3A6|||||||||||||||||||||||||||||||||||||||||||||||||||||||||||||||||||||||||1012.2||1|AUTO_4-USA|223|ICAO-K3A6|||||||||||||||||||||||||||||||||||||||||||MET069METAR K3A6 280130Z AUTO 07005KT 36/07 A2989 RMK AO1 SLP084 T03630073;||A||223|ICAO-K3A6
USI0000K3A6|NEWHALL|2011|08|28|01|50|34.3700|-118.5700|427.0|35.0||1|AUTO_4-USA|223|ICAO-K3A6|9.0||1|AUTO_4-USA|223|ICAO-K3A6|||||||1008.9||1|AUTO_4-USA|223|ICAO-K3A6|020|N-Normal|1|AUTO_4-USA|223|ICAO-K3A6|2.1|N-Normal|1|AUTO_4-USA|223|ICAO-K3A6|||||||||||||20|Derived||AUTO_4-USA|223|ICAO-K3A6|||||||||||||||||||||||||||||||||||||||||||||||||||||||||||||||||||||||||1012.9||1|AUTO_4-USA|223|ICAO-K3A6|||||||||||||||||||||||||||||||||||||||||||MET069METAR K3A6 280150Z AUTO 02004KT 35/09 A2991 RMK AO1 SLP089 T03470091;||A||223|ICAO-K3A6
USI0000K3A6|NEWHALL|2011|08|28|02|10|34.3700|-118.5700|427.0|33.0||1|AUTO_4-USA|223|ICAO-K3A6|9.0||1|AUTO_4-USA|223|ICAO-K3A6|||||||1009.2||1|AUTO_4-USA|223|ICAO-K3A6|360|N-Normal|1|AUTO_4-USA|223|ICAO-K3A6|2.6|N-Normal|1|AUTO_4-USA|223|ICAO-K3A6|||||||||||||23|Derived||AUTO_4-USA|223|ICAO-K3A6|||||||||||||||||||||||||||||||||||||||||||||||||||||||||||||||||||||||||1012.9||1|AUTO_4-USA|223|ICAO-K3A6|0.9|3-Decr-or-|1|AUTO_4-USA|223|ICAO-K3A6|||||||||||||||||||||||||||||||||||||MET075METAR K3A6 280210Z AUTO 36005KT 33/09 A2991 RMK AO1 SLP092 T03340094 53009;||A||223|ICAO-K3A6
USI0000K3A6|NEWHALL|2011|08|28|02|30|34.3700|-118.5700|427.0|33.0||1|AUTO_4-USA|223|ICAO-K3A6|9.0||1|AUTO_4-USA|223|ICAO-K3A6|||||||1009.3||1|AUTO_4-USA|223|ICAO-K3A6|360|N-Normal|1|AUTO_4-USA|223|ICAO-K3A6|1.5|N-Normal|1|AUTO_4-USA|223|ICAO-K3A6|||||||||||||23|Derived||AUTO_4-USA|223|ICAO-K3A6|||||||||||||||||||||||||||||||||||||||||||||||||||||||||||||||||||||||||1012.9||1|AUTO_4-USA|223|ICAO-K3A6|1.2|3-Decr-or-|1|AUTO_4-USA|223|ICAO-K3A6|||||||||||||||||||||||||||||||||||||MET075METAR K3A6 280230Z AUTO 36003KT 33/09 A2991 RMK AO1 SLP093 T03290090 53012;||A||223|ICAO-K3A6
USI0000K3A6|NEWHALL|2011|08|28|05|10|34.3700|-118.5700|427.0|29.0||1|AUTO_4-USA|223|ICAO-K3A6|9.0||1|AUTO_4-USA|223|ICAO-K3A6|||||||1010.3||1|AUTO_4-USA|223|ICAO-K3A6|360|N-Normal|1|AUTO_4-USA|223|ICAO-K3A6|1.0|N-Normal|1|AUTO_4-USA|223|ICAO-K3A6|||||||||||||29|Derived||AUTO_4-USA|223|ICAO-K3A6|||||||||||||||||||||||||||||||||||||||||||||||||||||||||||||||||||||||||1013.9||1|AUTO_4-USA|223|ICAO-K3A6|0.0|4-Steady;-|1|AUTO_4-USA|223|ICAO-K3A6|||||||||||||||||||||||||||||||||||||MET087METAR K3A6 280510Z AUTO 36002KT 29/09 A2994 RMK AO1 SLP103 T02930094 10409 20293 54000;||A||223|ICAO-K3A6
USI0000K3A6|NEWHALL|2011|08|28|05|30|34.3700|-118.5700|427.0|29.0||1|AUTO_4-USA|223|ICAO-K3A6|9.0||1|AUTO_4-USA|223|ICAO-K3A6|||||||1010.4||1|AUTO_4-USA|223|ICAO-K3A6|360|N-Normal|1|AUTO_4-USA|223|ICAO-K3A6|1.0|N-Normal|1|AUTO_4-USA|223|ICAO-K3A6|||||||||||||29|Derived||AUTO_4-USA|223|ICAO-K3A6|||||||||||||||||||||||||||||||||||||||||||||||||||||||||||||||||||||||||1013.9||1|AUTO_4-USA|223|ICAO-K3A6|0.0|4-Steady;-|1|AUTO_4-USA|223|ICAO-K3A6|||||||||||||||||||||||||||||||||||||MET087METAR K3A6 280530Z AUTO 36002KT 29/09 A2994 RMK AO1 SLP104 T02920093 10405 20292 54000;||A||223|ICAO-K3A6
USI0000K3A6|NEWHALL|2011|08|28|05|50|34.3700|-118.5700|427.0|29.0||1|AUTO_4-USA|223|ICAO-K3A6|10.0||1|AUTO_4-USA|223|ICAO-K3A6|||||||1010.3||1|AUTO_4-USA|223|ICAO-K3A6|360|N-Normal|1|AUTO_4-USA|223|ICAO-K3A6|1.0|N-Normal|1|AUTO_4-USA|223|ICAO-K3A6|||||||||||||31|Derived||AUTO_4-USA|223|ICAO-K3A6|||||||||||||||||||||||||||||||||||||||||||||||||||||||||||||||||||||||||1013.5||1|AUTO_4-USA|223|ICAO-K3A6|0.0|4-Steady;-|1|AUTO_4-USA|223|ICAO-K3A6|||||||||||||||||||||||||||||||||||||MET087METAR K3A6 280550Z AUTO 36002KT 29/10 A2993 RMK AO1 SLP103 T02890096 10400 20289 54000;||A||223|ICAO-K3A6
USI0000K3A6|NEWHALL|2011|08|28|06|10|34.3700|-118.5700|427.0|29.0||1|AUTO_4-USA|223|ICAO-K3A6|9.0||1|AUTO_4-USA|223|ICAO-K3A6|||||||1010.4||1|AUTO_4-USA|223|ICAO-K3A6|360|N-Normal|1|AUTO_4-USA|223|ICAO-K3A6|0.5|N-Normal|1|AUTO_4-USA|223|ICAO-K3A6|||||||||||||29|Derived||AUTO_4-USA|223|ICAO-K3A6|||||||||||||||||||||||||||||||||||||||||||||||||||||||||||||||||||||||||1013.5||1|AUTO_4-USA|223|ICAO-K3A6|||||||||||||||||||||||||||||||||||||||||||MET079METAR K3A6 280610Z AUTO 36001KT 29/09 A2993 RMK AO1 SLP104 T02870089 404360247;||A||223|ICAO-K3A6
USI0000K3A6|NEWHALL|2011|08|28|06|30|34.3700|-118.5700|427.0|28.0||1|AUTO_4-USA|223|ICAO-K3A6|11.0||1|AUTO_4-USA|223|ICAO-K3A6|||||||1010.5||1|AUTO_4-USA|223|ICAO-K3A6|360|N-Normal|1|AUTO_4-USA|223|ICAO-K3A6|1.0|N-Normal|1|AUTO_4-USA|223|ICAO-K3A6|||||||||||||35|Derived||AUTO_4-USA|223|ICAO-K3A6|||||||||||||||||||||||||||||||||||||||||||||||||||||||||||||||||||||||||1013.5||1|AUTO_4-USA|223|ICAO-K3A6|||||||||||||||||||||||||||||||||||||||||||MET079METAR K3A6 280630Z AUTO 36002KT 28/11 A2993 RMK AO1 SLP105 T02770112 404360247;||A||223|ICAO-K3A6
USI0000K3A6|NEWHALL|2011|08|28|06|50|34.3700|-118.5700|427.0|27.0||1|AUTO_4-USA|223|ICAO-K3A6|10.0||1|AUTO_4-USA|223|ICAO-K3A6|||||||1010.6||1|AUTO_4-USA|223|ICAO-K3A6|360|N-Normal|1|AUTO_4-USA|223|ICAO-K3A6|1.5|N-Normal|1|AUTO_4-USA|223|ICAO-K3A6|||||||||||||34|Derived||AUTO_4-USA|223|ICAO-K3A6|||||||||||||||||||||||||||||||||||||||||||||||||||||||||||||||||||||||||1013.5||1|AUTO_4-USA|223|ICAO-K3A6|||||||||||||||||||||||||||||||||||||||||||MET079METAR K3A6 280650Z AUTO 36003KT 27/10 A2993 RMK AO1 SLP106 T02710103 404360247;||A||223|ICAO-K3A6
USI0000K3A6|NEWHALL|2011|08|28|07|10|34.3700|-118.5700|427.0|28.0||1|AUTO_4-USA|223|ICAO-K3A6|9.0||1|AUTO_4-USA|223|ICAO-K3A6|||||||1010.7||1|AUTO_4-USA|223|ICAO-K3A6|360|N-Normal|1|AUTO_4-USA|223|ICAO-K3A6|1.0|N-Normal|1|AUTO_4-USA|223|ICAO-K3A6|||||||||||||30|Derived||AUTO_4-USA|223|ICAO-K3A6|||||||||||||||||||||||||||||||||||||||||||||||||||||||||||||||||||||||||1013.5||1|AUTO_4-USA|223|ICAO-K3A6|||||||||||||||||||||||||||||||||||||||||||MET069METAR K3A6 280710Z AUTO 36002KT 28/09 A2993 RMK AO1 SLP107 T02750093;||A||223|ICAO-K3A6
USI0000K3A6|NEWHALL|2011|08|28|07|50|34.3700|-118.5700|427.0|27.0||1|AUTO_4-USA|223|ICAO-K3A6|9.0||1|AUTO_4-USA|223|ICAO-K3A6|||||||1011.0||1|AUTO_4-USA|223|ICAO-K3A6|360|N-Normal|1|AUTO_4-USA|223|ICAO-K3A6|1.5|N-Normal|1|AUTO_4-USA|223|ICAO-K3A6|||||||||||||32|Derived||AUTO_4-USA|223|ICAO-K3A6|||||||||||||||||||||||||||||||||||||||||||||||||||||||||||||||||||||||||1013.9||1|AUTO_4-USA|223|ICAO-K3A6|||||||||||||||||||||||||||||||||||||||||||MET069METAR K3A6 280750Z AUTO 36003KT 27/09 A2994 RMK AO1 SLP110 T02680092;||A||223|ICAO-K3A6
USI0000K3A6|NEWHALL|2011|08|28|11|30|34.3700|-118.5700|427.0|25.0||1|AUTO_4-USA|223|ICAO-K3A6|8.0||1|AUTO_4-USA|223|ICAO-K3A6|||||||1010.9||1|AUTO_4-USA|223|ICAO-K3A6|360|N-Normal|1|AUTO_4-USA|223|ICAO-K3A6|1.5|N-Normal|1|AUTO_4-USA|223|ICAO-K3A6|||||||||||||34|Derived||AUTO_4-USA|223|ICAO-K3A6|||||||||||||||||||||||||||||||||||||||||||||||||||||||||||||||||||||||||1013.2||1|AUTO_4-USA|223|ICAO-K3A6|0.0|4-Steady;-|1|AUTO_4-USA|223|ICAO-K3A6|||||||||||||||||||||||||||||||||||||MET087METAR K3A6 281130Z AUTO 36003KT 25/08 A2992 RMK AO1 SLP109 T02510077 10292 20250 54000;||A||223|ICAO-K3A6
USI0000K3A6|NEWHALL|2011|08|28|17|30|34.3700|-118.5700|427.0|39.0||1|AUTO_4-USA|223|ICAO-K3A6|15.0||1|AUTO_4-USA|223|ICAO-K3A6|||||||1012.5||1|AUTO_4-USA|223|ICAO-K3A6|020|N-Normal|1|AUTO_4-USA|223|ICAO-K3A6|0.5|N-Normal|1|AUTO_4-USA|223|ICAO-K3A6|||||||||||||24|Derived||AUTO_4-USA|223|ICAO-K3A6|||||||||||||||||||||||||||||||||||||||||||||||||||||||||||||||||||||||||1013.9||1|AUTO_4-USA|223|ICAO-K3A6|0.0|4-Steady;-|1|AUTO_4-USA|223|ICAO-K3A6|||||||||||||||||||||||||||||||||||||MET087METAR K3A6 281730Z AUTO 02001KT 39/15 A2994 RMK AO1 SLP125 T03900147 10390 20244 54000;||A||223|ICAO-K3A6
USI0000K3A6|NEWHALL|2011|08|28|17|50|34.3700|-118.5700|427.0|40.0||1|AUTO_4-USA|223|ICAO-K3A6|14.0||1|AUTO_4-USA|223|ICAO-K3A6|||||||1012.3||1|AUTO_4-USA|223|ICAO-K3A6|290|N-Normal|1|AUTO_4-USA|223|ICAO-K3A6|1.0|N-Normal|1|AUTO_4-USA|223|ICAO-K3A6|||||||||||||21|Derived||AUTO_4-USA|223|ICAO-K3A6|||||||||||||||||||||||||||||||||||||||||||||||||||||||||||||||||||||||||1013.9||1|AUTO_4-USA|223|ICAO-K3A6|0.0|4-Steady;-|1|AUTO_4-USA|223|ICAO-K3A6|||||||||||||||||||||||||||||||||||||MET087METAR K3A6 281750Z AUTO 29002KT 40/14 A2994 RMK AO1 SLP123 T03980141 10399 20244 54000;||A||223|ICAO-K3A6
USI0000K3A6|NEWHALL|2011|08|28|18|10|34.3700|-118.5700|427.0|40.0||1|AUTO_4-USA|223|ICAO-K3A6|14.0||1|AUTO_4-USA|223|ICAO-K3A6|||||||1011.9||1|AUTO_4-USA|223|ICAO-K3A6|330|N-Normal|1|AUTO_4-USA|223|ICAO-K3A6|1.0|N-Normal|1|AUTO_4-USA|223|ICAO-K3A6|||||||||||||21|Derived||AUTO_4-USA|223|ICAO-K3A6|||||||||||||||||||||||||||||||||||||||||||||||||||||||||||||||||||||||||1013.5||1|AUTO_4-USA|223|ICAO-K3A6|||||||||||||||||||||||||||||||||||||||||||MET069METAR K3A6 281810Z AUTO 33002KT 40/14 A2993 RMK AO1 SLP119 T03990141;||A||223|ICAO-K3A6
USI0000K3A6|NEWHALL|2011|08|28|18|30|34.3700|-118.5700|427.0|40.0||1|AUTO_4-USA|223|ICAO-K3A6|13.0||1|AUTO_4-USA|223|ICAO-K3A6|||||||1011.5||1|AUTO_4-USA|223|ICAO-K3A6|350|N-Normal|1|AUTO_4-USA|223|ICAO-K3A6|0.5|N-Normal|1|AUTO_4-USA|223|ICAO-K3A6|||||||||||||20|Derived||AUTO_4-USA|223|ICAO-K3A6|||||||||||||||||||||||||||||||||||||||||||||||||||||||||||||||||||||||||1013.5||1|AUTO_4-USA|223|ICAO-K3A6|||||||||||||||||||||||||||||||||||||||||||MET069METAR K3A6 281830Z AUTO 35001KT 40/13 A2993 RMK AO1 SLP115 T04020129;||A||223|ICAO-K3A6
USI0000K3A6|NEWHALL|2011|08|28|18|50|34.3700|-118.5700|427.0|41.0||1|AUTO_4-USA|223|ICAO-K3A6|15.0||1|AUTO_4-USA|223|ICAO-K3A6|||||||1011.0||1|AUTO_4-USA|223|ICAO-K3A6|360|N-Normal|1|AUTO_4-USA|223|ICAO-K3A6|0.5|N-Normal|1|AUTO_4-USA|223|ICAO-K3A6|||||||||||||22|Derived||AUTO_4-USA|223|ICAO-K3A6|||||||||||||||||||||||||||||||||||||||||||||||||||||||||||||||||||||||||1013.5||1|AUTO_4-USA|223|ICAO-K3A6|||||||||||||||||||||||||||||||||||||||||||MET069METAR K3A6 281850Z AUTO 00001KT 41/15 A2993 RMK AO1 SLP110 T04130153;||A||223|ICAO-K3A6
USI0000K3A6|NEWHALL|2011|08|28|19|30|34.3700|-118.5700|427.0|43.0||1|AUTO_4-USA|223|ICAO-K3A6|14.0||1|AUTO_4-USA|223|ICAO-K3A6|||||||1010.1||1|AUTO_4-USA|223|ICAO-K3A6|330|N-Normal|1|AUTO_4-USA|223|ICAO-K3A6|1.0|N-Normal|1|AUTO_4-USA|223|ICAO-K3A6|||||||||||||18|Derived||AUTO_4-USA|223|ICAO-K3A6|||||||||||||||||||||||||||||||||||||||||||||||||||||||||||||||||||||||||1012.9||1|AUTO_4-USA|223|ICAO-K3A6|||||||||||||||||||||||||||||||||||||||||||MET069METAR K3A6 281930Z AUTO 33002KT 43/14 A2991 RMK AO1 SLP101 T04320137;||A||223|ICAO-K3A6
USI0000K3A6|NEWHALL|2011|08|28|20|30|34.3700|-118.5700|427.0|42.0||1|AUTO_4-USA|223|ICAO-K3A6|14.0||1|AUTO_4-USA|223|ICAO-K3A6|||||||1008.9||1|AUTO_4-USA|223|ICAO-K3A6|040|N-Normal|1|AUTO_4-USA|223|ICAO-K3A6|3.1|N-Normal|1|AUTO_4-USA|223|ICAO-K3A6|||||||||||||19|Derived||AUTO_4-USA|223|ICAO-K3A6|||||||||||||||||||||||||||||||||||||||||||||||||||||||||||||||||||||||||1012.2||1|AUTO_4-USA|223|ICAO-K3A6|-5.0|7-Decr-(st|1|AUTO_4-USA|223|ICAO-K3A6|||||||||||||||||||||||||||||||||||||MET075METAR K3A6 282030Z AUTO 04006KT 42/14 A2989 RMK AO1 SLP089 T04220137 57050;||A||223|ICAO-K3A6
USI0000K3A6|NEWHALL|2011|08|28|20|50|34.3700|-118.5700|427.0|42.0||1|AUTO_4-USA|223|ICAO-K3A6|14.0||1|AUTO_4-USA|223|ICAO-K3A6|||||||1008.7||1|AUTO_4-USA|223|ICAO-K3A6|360|N-Normal|1|AUTO_4-USA|223|ICAO-K3A6|2.1|N-Normal|1|AUTO_4-USA|223|ICAO-K3A6|||||||||||||19|Derived||AUTO_4-USA|223|ICAO-K3A6|||||||||||||||||||||||||||||||||||||||||||||||||||||||||||||||||||||||||1012.2||1|AUTO_4-USA|223|ICAO-K3A6|0.0|4-Steady;-|1|AUTO_4-USA|223|ICAO-K3A6|||||||||||||||||||||||||||||||||||||MET075METAR K3A6 282050Z AUTO 00004KT 42/14 A2989 RMK AO1 SLP087 T04230138 54000;||A||223|ICAO-K3A6
USI0000K3A6|NEWHALL|2011|08|28|21|10|34.3700|-118.5700|427.0|42.0||1|AUTO_4-USA|223|ICAO-K3A6|14.0||1|AUTO_4-USA|223|ICAO-K3A6|||||||1008.5||1|AUTO_4-USA|223|ICAO-K3A6|030|N-Normal|1|AUTO_4-USA|223|ICAO-K3A6|2.1|N-Normal|1|AUTO_4-USA|223|ICAO-K3A6|||||||||||||19|Derived||AUTO_4-USA|223|ICAO-K3A6|||||||||||||||||||||||||||||||||||||||||||||||||||||||||||||||||||||||||1012.2||1|AUTO_4-USA|223|ICAO-K3A6|||||||||||||||||||||||||||||||||||||||||||MET069METAR K3A6 282110Z AUTO 03004KT 42/14 A2989 RMK AO1 SLP085 T04190143;||A||223|ICAO-K3A6
USI0000K3A6|NEWHALL|2011|08|28|21|50|34.3700|-118.5700|427.0|41.0||1|AUTO_4-USA|223|ICAO-K3A6|10.0||1|AUTO_4-USA|223|ICAO-K3A6|||||||1008.0||1|AUTO_4-USA|223|ICAO-K3A6|050|N-Normal|1|AUTO_4-USA|223|ICAO-K3A6|3.1|N-Normal|1|AUTO_4-USA|223|ICAO-K3A6|||||||||||||15|Derived||AUTO_4-USA|223|ICAO-K3A6|||||||||||||||||||||||||||||||||||||||||||||||||||||||||||||||||||||||||1011.9||1|AUTO_4-USA|223|ICAO-K3A6|||||||||||||||||||||||||||||||||||||||||||MET069METAR K3A6 282150Z AUTO 05006KT 41/10 A2988 RMK AO1 SLP080 T04080101;||A||223|ICAO-K3A6
USI0000K3A6|NEWHALL|2011|08|28|22|10|34.3700|-118.5700|427.0|41.0||1|AUTO_4-USA|223|ICAO-K3A6|10.0||1|AUTO_4-USA|223|ICAO-K3A6|||||||1007.9||1|AUTO_4-USA|223|ICAO-K3A6|310|N-Normal|1|AUTO_4-USA|223|ICAO-K3A6|4.1|N-Normal|1|AUTO_4-USA|223|ICAO-K3A6|||||||||||||15|Derived||AUTO_4-USA|223|ICAO-K3A6|||||||||||||||||||||||||||||||||||||||||||||||||||||||||||||||||||||||||1011.5||1|AUTO_4-USA|223|ICAO-K3A6|||||||||||||||||||||||||||||||||||||||||||MET069METAR K3A6 282210Z AUTO 31008KT 41/10 A2987 RMK AO1 SLP079 T04060099;||A||223|ICAO-K3A6
USI0000K3A6|NEWHALL|2011|08|28|22|30|34.3700|-118.5700|427.0|40.0||1|AUTO_4-USA|223|ICAO-K3A6|9.0||1|AUTO_4-USA|223|ICAO-K3A6|||||||1007.6||1|AUTO_4-USA|223|ICAO-K3A6|030|N-Normal|1|AUTO_4-USA|223|ICAO-K3A6|3.6|N-Normal|1|AUTO_4-USA|223|ICAO-K3A6|||||||||||||15|Derived||AUTO_4-USA|223|ICAO-K3A6|||||||||||||||||||||||||||||||||||||||||||||||||||||||||||||||||||||||||1011.5||1|AUTO_4-USA|223|ICAO-K3A6|||||||||||||||||||||||||||||||||||||||||||MET069METAR K3A6 282230Z AUTO 03007KT 40/09 A2987 RMK AO1 SLP076 T03990093;||A||223|ICAO-K3A6
USI0000K3A6|NEWHALL|2011|08|28|22|50|34.3700|-118.5700|427.0|40.0||1|AUTO_4-USA|223|ICAO-K3A6|9.0||1|AUTO_4-USA|223|ICAO-K3A6|||||||1007.6||1|AUTO_4-USA|223|ICAO-K3A6|240|N-Normal|1|AUTO_4-USA|223|ICAO-K3A6|4.1|N-Normal|1|AUTO_4-USA|223|ICAO-K3A6|||||||||||||15|Derived||AUTO_4-USA|223|ICAO-K3A6|||||||||||||||||||||||||||||||||||||||||||||||||||||||||||||||||||||||||1011.5||1|AUTO_4-USA|223|ICAO-K3A6|||||||||||||||||||||||||||||||||||||||||||MET069METAR K3A6 282250Z AUTO 24008KT 40/09 A2987 RMK AO1 SLP076 T04030095;||A||223|ICAO-K3A6
USI0000K3A6|NEWHALL|2011|08|28|23|10|34.3700|-118.5700|427.0|40.0||1|AUTO_4-USA|223|ICAO-K3A6|9.0||1|AUTO_4-USA|223|ICAO-K3A6|||||||1007.5||1|AUTO_4-USA|223|ICAO-K3A6|060|N-Normal|1|AUTO_4-USA|223|ICAO-K3A6|2.6|N-Normal|1|AUTO_4-USA|223|ICAO-K3A6|||||||||||||15|Derived||AUTO_4-USA|223|ICAO-K3A6|||||||||||||||||||||||||||||||||||||||||||||||||||||||||||||||||||||||||1011.2||1|AUTO_4-USA|223|ICAO-K3A6|0.0|4-Steady;-|1|AUTO_4-USA|223|ICAO-K3A6|||||||||||||||||||||||||||||||||||||MET087METAR K3A6 282310Z AUTO 06005KT 40/09 A2986 RMK AO1 SLP075 T03970091 10436 20244 54000;||A||223|ICAO-K3A6
USI0000K3A6|NEWHALL|2011|08|28|23|30|34.3700|-118.5700|427.0|40.0||1|AUTO_4-USA|223|ICAO-K3A6|8.0||1|AUTO_4-USA|223|ICAO-K3A6|||||||1007.0||1|AUTO_4-USA|223|ICAO-K3A6|250|N-Normal|1|AUTO_4-USA|223|ICAO-K3A6|3.1|N-Normal|1|AUTO_4-USA|223|ICAO-K3A6|||||||||||||14|Derived||AUTO_4-USA|223|ICAO-K3A6|||||||||||||||||||||||||||||||||||||||||||||||||||||||||||||||||||||||||1010.8||1|AUTO_4-USA|223|ICAO-K3A6|-3.8|7-Decr-(st|1|AUTO_4-USA|223|ICAO-K3A6|||||||||||||||||||||||||||||||||||||MET087METAR K3A6 282330Z AUTO 25006KT 40/08 A2985 RMK AO1 SLP070 T03970082 10436 20390 57038;||A||223|ICAO-K3A6
USI0000K3A6|NEWHALL|2011|08|29|00|10|34.3700|-118.5700|427.0|38.0||1|AUTO_4-USA|223|ICAO-K3A6|6.0||1|AUTO_4-USA|223|ICAO-K3A6|||||||1007.0||1|AUTO_4-USA|223|ICAO-K3A6|070|N-Normal|1|AUTO_4-USA|223|ICAO-K3A6|2.6|N-Normal|1|AUTO_4-USA|223|ICAO-K3A6|||||||||||||14|Derived||AUTO_4-USA|223|ICAO-K3A6|||||||||||||||||||||||||||||||||||||||||||||||||||||||||||||||||||||||||1010.8||1|AUTO_4-USA|223|ICAO-K3A6|||||||||||||||||||||||||||||||||||||||||||MET069METAR K3A6 290010Z AUTO 07005KT 38/06 A2985 RMK AO1 SLP070 T03820059;||A||223|ICAO-K3A6
USI0000K3A6|NEWHALL|2011|08|29|00|30|34.3700|-118.5700|427.0|37.0||1|AUTO_4-USA|223|ICAO-K3A6|5.0||1|AUTO_4-USA|223|ICAO-K3A6|||||||1006.9||1|AUTO_4-USA|223|ICAO-K3A6|070|N-Normal|1|AUTO_4-USA|223|ICAO-K3A6|1.0|N-Normal|1|AUTO_4-USA|223|ICAO-K3A6|||||||||||||14|Derived||AUTO_4-USA|223|ICAO-K3A6|||||||||||||||||||||||||||||||||||||||||||||||||||||||||||||||||||||||||1010.8||1|AUTO_4-USA|223|ICAO-K3A6|||||||||||||||||||||||||||||||||||||||||||MET069METAR K3A6 290030Z AUTO 07002KT 37/05 A2985 RMK AO1 SLP069 T03740054;||A||223|ICAO-K3A6
USI0000K3A6|NEWHALL|2011|08|29|03|10|34.3700|-118.5700|427.0|27.0||1|AUTO_4-USA|223|ICAO-K3A6|11.0||1|AUTO_4-USA|223|ICAO-K3A6|||||||1007.5||1|AUTO_4-USA|223|ICAO-K3A6|360|N-Normal|1|AUTO_4-USA|223|ICAO-K3A6|3.1|N-Normal|1|AUTO_4-USA|223|ICAO-K3A6|||||||||||||37|Derived||AUTO_4-USA|223|ICAO-K3A6|||||||||||||||||||||||||||||||||||||||||||||||||||||||||||||||||||||||||1011.5||1|AUTO_4-USA|223|ICAO-K3A6|||||||||||||||||||||||||||||||||||||||||||MET069METAR K3A6 290310Z AUTO 36006KT 27/11 A2987 RMK AO1 SLP075 T02740106;||A||223|ICAO-K3A6
USI0000K3A6|NEWHALL|2011|08|29|03|30|34.3700|-118.5700|427.0|28.0||1|AUTO_4-USA|223|ICAO-K3A6|9.0||1|AUTO_4-USA|223|ICAO-K3A6|||||||1007.8||1|AUTO_4-USA|223|ICAO-K3A6|360|N-Normal|1|AUTO_4-USA|223|ICAO-K3A6|2.6|N-Normal|1|AUTO_4-USA|223|ICAO-K3A6|||||||||||||30|Derived||AUTO_4-USA|223|ICAO-K3A6|||||||||||||||||||||||||||||||||||||||||||||||||||||||||||||||||||||||||1011.5||1|AUTO_4-USA|223|ICAO-K3A6|||||||||||||||||||||||||||||||||||||||||||MET069METAR K3A6 290330Z AUTO 36005KT 28/09 A2987 RMK AO1 SLP078 T02800087;||A||223|ICAO-K3A6
USI0000K3A6|NEWHALL|2011|08|29|03|50|34.3700|-118.5700|427.0|28.0||1|AUTO_4-USA|223|ICAO-K3A6|8.0||1|AUTO_4-USA|223|ICAO-K3A6|||||||1007.9||1|AUTO_4-USA|223|ICAO-K3A6|360|N-Normal|1|AUTO_4-USA|223|ICAO-K3A6|2.1|N-Normal|1|AUTO_4-USA|223|ICAO-K3A6|||||||||||||28|Derived||AUTO_4-USA|223|ICAO-K3A6|||||||||||||||||||||||||||||||||||||||||||||||||||||||||||||||||||||||||1011.5||1|AUTO_4-USA|223|ICAO-K3A6|||||||||||||||||||||||||||||||||||||||||||MET069METAR K3A6 290350Z AUTO 36004KT 28/08 A2987 RMK AO1 SLP079 T02830075;||A||223|ICAO-K3A6
USI0000K3A6|NEWHALL|2011|08|29|04|10|34.3700|-118.5700|427.0|28.0||1|AUTO_4-USA|223|ICAO-K3A6|8.0||1|AUTO_4-USA|223|ICAO-K3A6|||||||1008.3||1|AUTO_4-USA|223|ICAO-K3A6|360|N-Normal|1|AUTO_4-USA|223|ICAO-K3A6|1.5|N-Normal|1|AUTO_4-USA|223|ICAO-K3A6|||||||||||||28|Derived||AUTO_4-USA|223|ICAO-K3A6|||||||||||||||||||||||||||||||||||||||||||||||||||||||||||||||||||||||||1011.9||1|AUTO_4-USA|223|ICAO-K3A6|||||||||||||||||||||||||||||||||||||||||||MET069METAR K3A6 290410Z AUTO 36003KT 28/08 A2988 RMK AO1 SLP083 T02840082;||A||223|ICAO-K3A6
USI0000K3A6|NEWHALL|2011|08|29|04|30|34.3700|-118.5700|427.0|27.0||1|AUTO_4-USA|223|ICAO-K3A6|10.0||1|AUTO_4-USA|223|ICAO-K3A6|||||||1008.4||1|AUTO_4-USA|223|ICAO-K3A6|360|N-Normal|1|AUTO_4-USA|223|ICAO-K3A6|1.5|N-Normal|1|AUTO_4-USA|223|ICAO-K3A6|||||||||||||34|Derived||AUTO_4-USA|223|ICAO-K3A6|||||||||||||||||||||||||||||||||||||||||||||||||||||||||||||||||||||||||1011.9||1|AUTO_4-USA|223|ICAO-K3A6|||||||||||||||||||||||||||||||||||||||||||MET069METAR K3A6 290430Z AUTO 36003KT 27/10 A2988 RMK AO1 SLP084 T02740097;||A||223|ICAO-K3A6
USI0000K3A6|NEWHALL|2011|08|29|04|50|34.3700|-118.5700|427.0|27.0||1|AUTO_4-USA|223|ICAO-K3A6|10.0||1|AUTO_4-USA|223|ICAO-K3A6|||||||1008.5||1|AUTO_4-USA|223|ICAO-K3A6|360|N-Normal|1|AUTO_4-USA|223|ICAO-K3A6|1.0|N-Normal|1|AUTO_4-USA|223|ICAO-K3A6|||||||||||||34|Derived||AUTO_4-USA|223|ICAO-K3A6|||||||||||||||||||||||||||||||||||||||||||||||||||||||||||||||||||||||||1011.9||1|AUTO_4-USA|223|ICAO-K3A6|||||||||||||||||||||||||||||||||||||||||||MET069METAR K3A6 290450Z AUTO 36002KT 27/10 A2988 RMK AO1 SLP085 T02690101;||A||223|ICAO-K3A6
USI0000K3A6|NEWHALL|2011|08|29|05|10|34.3700|-118.5700|427.0|26.0||1|AUTO_4-USA|223|ICAO-K3A6|9.0||1|AUTO_4-USA|223|ICAO-K3A6|||||||1008.6||1|AUTO_4-USA|223|ICAO-K3A6|360|N-Normal|1|AUTO_4-USA|223|ICAO-K3A6|1.0|N-Normal|1|AUTO_4-USA|223|ICAO-K3A6|||||||||||||34|Derived||AUTO_4-USA|223|ICAO-K3A6|||||||||||||||||||||||||||||||||||||||||||||||||||||||||||||||||||||||||1011.9||1|AUTO_4-USA|223|ICAO-K3A6|0.0|4-Steady;-|1|AUTO_4-USA|223|ICAO-K3A6|||||||||||||||||||||||||||||||||||||MET087METAR K3A6 290510Z AUTO 36002KT 26/09 A2988 RMK AO1 SLP086 T02630092 10399 20263 54000;||A||223|ICAO-K3A6
USI0000K3A6|NEWHALL|2011|08|29|05|30|34.3700|-118.5700|427.0|26.0||1|AUTO_4-USA|223|ICAO-K3A6|9.0||1|AUTO_4-USA|223|ICAO-K3A6|||||||1008.6||1|AUTO_4-USA|223|ICAO-K3A6|360|N-Normal|1|AUTO_4-USA|223|ICAO-K3A6|1.0|N-Normal|1|AUTO_4-USA|223|ICAO-K3A6|||||||||||||34|Derived||AUTO_4-USA|223|ICAO-K3A6|||||||||||||||||||||||||||||||||||||||||||||||||||||||||||||||||||||||||1011.9||1|AUTO_4-USA|223|ICAO-K3A6|0.0|4-Steady;-|1|AUTO_4-USA|223|ICAO-K3A6|||||||||||||||||||||||||||||||||||||MET087METAR K3A6 290530Z AUTO 36002KT 26/09 A2988 RMK AO1 SLP086 T02620086 10396 20262 54000;||A||223|ICAO-K3A6
USI0000K3A6|NEWHALL|2011|08|29|05|50|34.3700|-118.5700|427.0|26.0||1|AUTO_4-USA|223|ICAO-K3A6|9.0||1|AUTO_4-USA|223|ICAO-K3A6|||||||1008.7||1|AUTO_4-USA|223|ICAO-K3A6|360|N-Normal|1|AUTO_4-USA|223|ICAO-K3A6|2.1|N-Normal|1|AUTO_4-USA|223|ICAO-K3A6|||||||||||||34|Derived||AUTO_4-USA|223|ICAO-K3A6|||||||||||||||||||||||||||||||||||||||||||||||||||||||||||||||||||||||||1011.9||1|AUTO_4-USA|223|ICAO-K3A6|0.0|4-Steady;-|1|AUTO_4-USA|223|ICAO-K3A6|||||||||||||||||||||||||||||||||||||MET087METAR K3A6 290550Z AUTO 36004KT 26/09 A2988 RMK AO1 SLP087 T02620092 10387 20262 54000;||A||223|ICAO-K3A6
USI0000K3A6|NEWHALL|2011|08|29|12|30|34.3700|-118.5700|427.0|23.0||1|AUTO_4-USA|223|ICAO-K3A6|7.0||1|AUTO_4-USA|223|ICAO-K3A6|||||||1010.1||1|AUTO_4-USA|223|ICAO-K3A6|340|N-Normal|1|AUTO_4-USA|223|ICAO-K3A6|1.0|N-Normal|1|AUTO_4-USA|223|ICAO-K3A6|||||||||||||36|Derived||AUTO_4-USA|223|ICAO-K3A6|||||||||||||||||||||||||||||||||||||||||||||||||||||||||||||||||||||||||1011.5||1|AUTO_4-USA|223|ICAO-K3A6|||||||||||||||||||||||||||||||||||||||||||MET069METAR K3A6 291230Z AUTO 34002KT 23/07 A2987 RMK AO1 SLP101 T02290065;||A||223|ICAO-K3A6
USI0000K3A6|NEWHALL|2011|08|29|13|30|34.3700|-118.5700|427.0|23.0||1|AUTO_4-USA|223|ICAO-K3A6|5.0||1|AUTO_4-USA|223|ICAO-K3A6|||||||1010.7||1|AUTO_4-USA|223|ICAO-K3A6|340|N-Normal|1|AUTO_4-USA|223|ICAO-K3A6|1.0|N-Normal|1|AUTO_4-USA|223|ICAO-K3A6|||||||||||||31|Derived||AUTO_4-USA|223|ICAO-K3A6|||||||||||||||||||||||||||||||||||||||||||||||||||||||||||||||||||||||||1011.9||1|AUTO_4-USA|223|ICAO-K3A6|||||||||||||||||||||||||||||||||||||||||||MET069METAR K3A6 291330Z AUTO 34002KT 23/05 A2988 RMK AO1 SLP107 T02270047;||A||223|ICAO-K3A6
USI0000K3A6|NEWHALL|2011|08|29|13|50|34.3700|-118.5700|427.0|23.0||1|AUTO_4-USA|223|ICAO-K3A6|5.0||1|AUTO_4-USA|223|ICAO-K3A6|||||||1011.1||1|AUTO_4-USA|223|ICAO-K3A6|340|N-Normal|1|AUTO_4-USA|223|ICAO-K3A6|1.5|N-Normal|1|AUTO_4-USA|223|ICAO-K3A6|||||||||||||31|Derived||AUTO_4-USA|223|ICAO-K3A6|||||||||||||||||||||||||||||||||||||||||||||||||||||||||||||||||||||||||1012.2||1|AUTO_4-USA|223|ICAO-K3A6|||||||||||||||||||||||||||||||||||||||||||MET069METAR K3A6 291350Z AUTO 34003KT 23/05 A2989 RMK AO1 SLP111 T02330046;||A||223|ICAO-K3A6
USI0000K3A6|NEWHALL|2011|08|29|14|10|34.3700|-118.5700|427.0|25.0||1|AUTO_4-USA|223|ICAO-K3A6|6.0||1|AUTO_4-USA|223|ICAO-K3A6|||||||1011.1||1|AUTO_4-USA|223|ICAO-K3A6|340|N-Normal|1|AUTO_4-USA|223|ICAO-K3A6|1.0|N-Normal|1|AUTO_4-USA|223|ICAO-K3A6|||||||||||||30|Derived||AUTO_4-USA|223|ICAO-K3A6|||||||||||||||||||||||||||||||||||||||||||||||||||||||||||||||||||||||||1012.2||1|AUTO_4-USA|223|ICAO-K3A6|0.0|4-Steady;-|1|AUTO_4-USA|223|ICAO-K3A6|||||||||||||||||||||||||||||||||||||MET075METAR K3A6 291410Z AUTO 34002KT 25/06 A2989 RMK AO1 SLP111 T02460058 54000;||A||223|ICAO-K3A6
USI0000K3A6|NEWHALL|2011|08|29|14|30|34.3700|-118.5700|427.0|26.0||1|AUTO_4-USA|223|ICAO-K3A6|7.0||1|AUTO_4-USA|223|ICAO-K3A6|||||||1011.1||1|AUTO_4-USA|223|ICAO-K3A6|340|N-Normal|1|AUTO_4-USA|223|ICAO-K3A6|1.0|N-Normal|1|AUTO_4-USA|223|ICAO-K3A6|||||||||||||30|Derived||AUTO_4-USA|223|ICAO-K3A6|||||||||||||||||||||||||||||||||||||||||||||||||||||||||||||||||||||||||1012.2||1|AUTO_4-USA|223|ICAO-K3A6|0.0|4-Steady;-|1|AUTO_4-USA|223|ICAO-K3A6|||||||||||||||||||||||||||||||||||||MET075METAR K3A6 291430Z AUTO 34002KT 26/07 A2989 RMK AO1 SLP111 T02590065 54000;||A||223|ICAO-K3A6
USI0000K3A6|NEWHALL|2011|08|29|14|50|34.3700|-118.5700|427.0|28.0||1|AUTO_4-USA|223|ICAO-K3A6|7.0||1|AUTO_4-USA|223|ICAO-K3A6|||||||1011.2||1|AUTO_4-USA|223|ICAO-K3A6|340|N-Normal|1|AUTO_4-USA|223|ICAO-K3A6|0.5|N-Normal|1|AUTO_4-USA|223|ICAO-K3A6|||||||||||||26|Derived||AUTO_4-USA|223|ICAO-K3A6|||||||||||||||||||||||||||||||||||||||||||||||||||||||||||||||||||||||||1012.2||1|AUTO_4-USA|223|ICAO-K3A6|0.0|4-Steady;-|1|AUTO_4-USA|223|ICAO-K3A6|||||||||||||||||||||||||||||||||||||MET075METAR K3A6 291450Z AUTO 34001KT 28/07 A2989 RMK AO1 SLP112 T02760074 54000;||A||223|ICAO-K3A6
USI0000K3A6|NEWHALL|2011|08|29|15|10|34.3700|-118.5700|427.0|29.0||1|AUTO_4-USA|223|ICAO-K3A6|9.0||1|AUTO_4-USA|223|ICAO-K3A6|||||||1011.3||1|AUTO_4-USA|223|ICAO-K3A6|999|C-Calm|9|AUTO_4-USA|223|ICAO-K3A6|0.0|C-Calm|1|AUTO_4-USA|223|ICAO-K3A6|||||||||||||29|Derived||AUTO_4-USA|223|ICAO-K3A6|||||||||||||||||||||||||||||||||||||||||||||||||||||||||||||||||||||||||1012.5||1|AUTO_4-USA|223|ICAO-K3A6|||||||||||||||||||||||||||||||||||||||||||MET069METAR K3A6 291510Z AUTO 00000KT 29/09 A2990 RMK AO1 SLP113 T02930094;||A||223|ICAO-K3A6
USI0000K3A6|NEWHALL|2011|08|29|15|30|34.3700|-118.5700|427.0|31.0||1|AUTO_4-USA|223|ICAO-K3A6|11.0||1|AUTO_4-USA|223|ICAO-K3A6|||||||1011.3||1|AUTO_4-USA|223|ICAO-K3A6|999|C-Calm|9|AUTO_4-USA|223|ICAO-K3A6|0.0|C-Calm|1|AUTO_4-USA|223|ICAO-K3A6|||||||||||||29|Derived||AUTO_4-USA|223|ICAO-K3A6|||||||||||||||||||||||||||||||||||||||||||||||||||||||||||||||||||||||||1012.5||1|AUTO_4-USA|223|ICAO-K3A6|||||||||||||||||||||||||||||||||||||||||||MET069METAR K3A6 291530Z AUTO 00000KT 31/11 A2990 RMK AO1 SLP113 T03100108;||A||223|ICAO-K3A6
USI0000K3A6|NEWHALL|2011|08|29|15|50|34.3700|-118.5700|427.0|32.0||1|AUTO_4-USA|223|ICAO-K3A6|12.0||1|AUTO_4-USA|223|ICAO-K3A6|||||||1011.1||1|AUTO_4-USA|223|ICAO-K3A6|340|N-Normal|1|AUTO_4-USA|223|ICAO-K3A6|0.5|N-Normal|1|AUTO_4-USA|223|ICAO-K3A6|||||||||||||29|Derived||AUTO_4-USA|223|ICAO-K3A6|||||||||||||||||||||||||||||||||||||||||||||||||||||||||||||||||||||||||1012.2||1|AUTO_4-USA|223|ICAO-K3A6|||||||||||||||||||||||||||||||||||||||||||MET069METAR K3A6 291550Z AUTO 34001KT 32/12 A2989 RMK AO1 SLP111 T03250121;||A||223|ICAO-K3A6
USI0000K3A6|NEWHALL|2011|08|29|16|10|34.3700|-118.5700|427.0|34.0||1|AUTO_4-USA|223|ICAO-K3A6|11.0||1|AUTO_4-USA|223|ICAO-K3A6|||||||1010.9||1|AUTO_4-USA|223|ICAO-K3A6|340|N-Normal|1|AUTO_4-USA|223|ICAO-K3A6|0.5|N-Normal|1|AUTO_4-USA|223|ICAO-K3A6|||||||||||||24|Derived||AUTO_4-USA|223|ICAO-K3A6|||||||||||||||||||||||||||||||||||||||||||||||||||||||||||||||||||||||||1012.2||1|AUTO_4-USA|223|ICAO-K3A6|||||||||||||||||||||||||||||||||||||||||||MET069METAR K3A6 291610Z AUTO 34001KT 34/11 A2989 RMK AO1 SLP109 T03380110;||A||223|ICAO-K3A6
USI0000K3A6|NEWHALL|2011|08|29|16|30|34.3700|-118.5700|427.0|34.0||1|AUTO_4-USA|223|ICAO-K3A6|11.0||1|AUTO_4-USA|223|ICAO-K3A6|||||||1011.0||1|AUTO_4-USA|223|ICAO-K3A6|340|N-Normal|1|AUTO_4-USA|223|ICAO-K3A6|0.5|N-Normal|1|AUTO_4-USA|223|ICAO-K3A6|||||||||||||24|Derived||AUTO_4-USA|223|ICAO-K3A6|||||||||||||||||||||||||||||||||||||||||||||||||||||||||||||||||||||||||1012.2||1|AUTO_4-USA|223|ICAO-K3A6|||||||||||||||||||||||||||||||||||||||||||MET069METAR K3A6 291630Z AUTO 34001KT 34/11 A2989 RMK AO1 SLP110 T03390105;||A||223|ICAO-K3A6
USI0000K3A6|NEWHALL|2011|08|29|16|50|34.3700|-118.5700|427.0|34.0||1|AUTO_4-USA|223|ICAO-K3A6|10.0||1|AUTO_4-USA|223|ICAO-K3A6|||||||1010.9||1|AUTO_4-USA|223|ICAO-K3A6|340|N-Normal|1|AUTO_4-USA|223|ICAO-K3A6|1.0|N-Normal|1|AUTO_4-USA|223|ICAO-K3A6|||||||||||||23|Derived||AUTO_4-USA|223|ICAO-K3A6|||||||||||||||||||||||||||||||||||||||||||||||||||||||||||||||||||||||||1012.2||1|AUTO_4-USA|223|ICAO-K3A6|||||||||||||||||||||||||||||||||||||||||||MET069METAR K3A6 291650Z AUTO 34002KT 34/10 A2989 RMK AO1 SLP109 T03450103;||A||223|ICAO-K3A6
USI0000K3A6|NEWHALL|2011|08|29|17|10|34.3700|-118.5700|427.0|35.0||1|AUTO_4-USA|223|ICAO-K3A6|9.0||1|AUTO_4-USA|223|ICAO-K3A6|||||||1010.7||1|AUTO_4-USA|223|ICAO-K3A6|340|N-Normal|1|AUTO_4-USA|223|ICAO-K3A6|1.0|N-Normal|1|AUTO_4-USA|223|ICAO-K3A6|||||||||||||20|Derived||AUTO_4-USA|223|ICAO-K3A6|||||||||||||||||||||||||||||||||||||||||||||||||||||||||||||||||||||||||1012.2||1|AUTO_4-USA|223|ICAO-K3A6|0.3|0-Incr-the|1|AUTO_4-USA|223|ICAO-K3A6|||||||||||||||||||||||||||||||||||||MET087METAR K3A6 291710Z AUTO 34002KT 35/09 A2989 RMK AO1 SLP107 T03510095 10351 20223 50003;||A||223|ICAO-K3A6
USI0000K3A6|NEWHALL|2011|08|29|17|30|34.3700|-118.5700|427.0|36.0||1|AUTO_4-USA|223|ICAO-K3A6|11.0||1|AUTO_4-USA|223|ICAO-K3A6|||||||1010.5||1|AUTO_4-USA|223|ICAO-K3A6|340|N-Normal|1|AUTO_4-USA|223|ICAO-K3A6|1.0|N-Normal|1|AUTO_4-USA|223|ICAO-K3A6|||||||||||||22|Derived||AUTO_4-USA|223|ICAO-K3A6|||||||||||||||||||||||||||||||||||||||||||||||||||||||||||||||||||||||||1012.2||1|AUTO_4-USA|223|ICAO-K3A6|-0.3|8-Steady-o|1|AUTO_4-USA|223|ICAO-K3A6|||||||||||||||||||||||||||||||||||||MET087METAR K3A6 291730Z AUTO 34002KT 36/11 A2989 RMK AO1 SLP105 T03570106 10357 20223 58003;||A||223|ICAO-K3A6
USI0000K3A6|NEWHALL|2011|08|29|17|50|34.3700|-118.5700|427.0|37.0||1|AUTO_4-USA|223|ICAO-K3A6|9.0||1|AUTO_4-USA|223|ICAO-K3A6|||||||1010.5||1|AUTO_4-USA|223|ICAO-K3A6|340|N-Normal|1|AUTO_4-USA|223|ICAO-K3A6|1.0|N-Normal|1|AUTO_4-USA|223|ICAO-K3A6|||||||||||||18|Derived||AUTO_4-USA|223|ICAO-K3A6|||||||||||||||||||||||||||||||||||||||||||||||||||||||||||||||||||||||||1012.2||1|AUTO_4-USA|223|ICAO-K3A6|0.0|4-Steady;-|1|AUTO_4-USA|223|ICAO-K3A6|||||||||||||||||||||||||||||||||||||MET087METAR K3A6 291750Z AUTO 34002KT 37/09 A2989 RMK AO1 SLP105 T03690094 10369 20223 54000;||A||223|ICAO-K3A6
USI0000K3A6|NEWHALL|2011|08|29|18|10|34.3700|-118.5700|427.0|38.0||1|AUTO_4-USA|223|ICAO-K3A6|11.0||1|AUTO_4-USA|223|ICAO-K3A6|||||||1010.2||1|AUTO_4-USA|223|ICAO-K3A6|340|N-Normal|1|AUTO_4-USA|223|ICAO-K3A6|0.5|N-Normal|1|AUTO_4-USA|223|ICAO-K3A6|||||||||||||20|Derived||AUTO_4-USA|223|ICAO-K3A6|||||||||||||||||||||||||||||||||||||||||||||||||||||||||||||||||||||||||1012.2||1|AUTO_4-USA|223|ICAO-K3A6|||||||||||||||||||||||||||||||||||||||||||MET069METAR K3A6 291810Z AUTO 34001KT 38/11 A2989 RMK AO1 SLP102 T03830113;||A||223|ICAO-K3A6
USI0000K3A6|NEWHALL|2011|08|29|18|30|34.3700|-118.5700|427.0|39.0||1|AUTO_4-USA|223|ICAO-K3A6|11.0||1|AUTO_4-USA|223|ICAO-K3A6|||||||1009.9||1|AUTO_4-USA|223|ICAO-K3A6|340|N-Normal|1|AUTO_4-USA|223|ICAO-K3A6|1.0|N-Normal|1|AUTO_4-USA|223|ICAO-K3A6|||||||||||||18|Derived||AUTO_4-USA|223|ICAO-K3A6|||||||||||||||||||||||||||||||||||||||||||||||||||||||||||||||||||||||||1011.9||1|AUTO_4-USA|223|ICAO-K3A6|||||||||||||||||||||||||||||||||||||||||||MET069METAR K3A6 291830Z AUTO 34002KT 39/11 A2988 RMK AO1 SLP099 T03910112;||A||223|ICAO-K3A6
USI0000K3A6|NEWHALL|2011|08|29|18|50|34.3700|-118.5700|427.0|39.0||1|AUTO_4-USA|223|ICAO-K3A6|12.0||1|AUTO_4-USA|223|ICAO-K3A6|||||||1009.7||1|AUTO_4-USA|223|ICAO-K3A6|220|N-Normal|1|AUTO_4-USA|223|ICAO-K3A6|1.5|N-Normal|1|AUTO_4-USA|223|ICAO-K3A6|||||||||||||20|Derived||AUTO_4-USA|223|ICAO-K3A6|||||||||||||||||||||||||||||||||||||||||||||||||||||||||||||||||||||||||1011.9||1|AUTO_4-USA|223|ICAO-K3A6|||||||||||||||||||||||||||||||||||||||||||MET069METAR K3A6 291850Z AUTO 22003KT 39/12 A2988 RMK AO1 SLP097 T03870117;||A||223|ICAO-K3A6
USI0000K3A6|NEWHALL|2011|08|29|19|10|34.3700|-118.5700|427.0|38.0||1|AUTO_4-USA|223|ICAO-K3A6|14.0||1|AUTO_4-USA|223|ICAO-K3A6|||||||1009.4||1|AUTO_4-USA|223|ICAO-K3A6|110|N-Normal|1|AUTO_4-USA|223|ICAO-K3A6|1.0|N-Normal|1|AUTO_4-USA|223|ICAO-K3A6|||||||||||||24|Derived||AUTO_4-USA|223|ICAO-K3A6|||||||||||||||||||||||||||||||||||||||||||||||||||||||||||||||||||||||||1011.9||1|AUTO_4-USA|223|ICAO-K3A6|||||||||||||||||||||||||||||||||||||||||||MET069METAR K3A6 291910Z AUTO 11002KT 38/14 A2988 RMK AO1 SLP094 T03820135;||A||223|ICAO-K3A6
USI0000K3A6|NEWHALL|2011|08|30|01|30|34.3700|-118.5700|427.0|30.0||1|AUTO_4-USA|223|ICAO-K3A6|13.0||1|AUTO_4-USA|223|ICAO-K3A6|||||||1007.2||1|AUTO_4-USA|223|ICAO-K3A6|360|N-Normal|1|AUTO_4-USA|223|ICAO-K3A6|4.6|N-Normal|1|AUTO_4-USA|223|ICAO-K3A6|||||||||||||35|Derived||AUTO_4-USA|223|ICAO-K3A6|||||||||||||||||||||||||||||||||||||||||||||||||||||||||||||||||||||||||1009.8||1|AUTO_4-USA|223|ICAO-K3A6|||||||||||||||||||||||||||||||||||||||||||MET069METAR K3A6 300130Z AUTO 36009KT 30/13 A2982 RMK AO1 SLP072 T02960129;||A||223|ICAO-K3A6
USI0000K3A6|NEWHALL|2011|08|30|02|10|34.3700|-118.5700|427.0|27.0||1|AUTO_4-USA|223|ICAO-K3A6|12.0||1|AUTO_4-USA|223|ICAO-K3A6|||||||1007.1||1|AUTO_4-USA|223|ICAO-K3A6|360|N-Normal|1|AUTO_4-USA|223|ICAO-K3A6|3.6|N-Normal|1|AUTO_4-USA|223|ICAO-K3A6|||||||||||||39|Derived||AUTO_4-USA|223|ICAO-K3A6|||||||||||||||||||||||||||||||||||||||||||||||||||||||||||||||||||||||||1009.8||1|AUTO_4-USA|223|ICAO-K3A6|0.0|4-Steady;-|1|AUTO_4-USA|223|ICAO-K3A6|||||||||||||||||||||||||||||||||||||MET075METAR K3A6 300210Z AUTO 36007KT 27/12 A2982 RMK AO1 SLP071 T02720124 54000;||A||223|ICAO-K3A6
USI0000K3A6|NEWHALL|2011|08|30|02|30|34.3700|-118.5700|427.0|26.0||1|AUTO_4-USA|223|ICAO-K3A6|13.0||1|AUTO_4-USA|223|ICAO-K3A6|||||||1007.1||1|AUTO_4-USA|223|ICAO-K3A6|360|N-Normal|1|AUTO_4-USA|223|ICAO-K3A6|3.1|N-Normal|1|AUTO_4-USA|223|ICAO-K3A6|||||||||||||45|Derived||AUTO_4-USA|223|ICAO-K3A6|||||||||||||||||||||||||||||||||||||||||||||||||||||||||||||||||||||||||1009.8||1|AUTO_4-USA|223|ICAO-K3A6|0.0|4-Steady;-|1|AUTO_4-USA|223|ICAO-K3A6|||||||||||||||||||||||||||||||||||||MET075METAR K3A6 300230Z AUTO 36006KT 26/13 A2982 RMK AO1 SLP071 T02650126 54000;||A||223|ICAO-K3A6
USI0000K3A6|NEWHALL|2011|08|30|02|50|34.3700|-118.5700|427.0|26.0||1|AUTO_4-USA|223|ICAO-K3A6|12.0||1|AUTO_4-USA|223|ICAO-K3A6|||||||1007.4||1|AUTO_4-USA|223|ICAO-K3A6|360|N-Normal|1|AUTO_4-USA|223|ICAO-K3A6|2.6|N-Normal|1|AUTO_4-USA|223|ICAO-K3A6|||||||||||||42|Derived||AUTO_4-USA|223|ICAO-K3A6|||||||||||||||||||||||||||||||||||||||||||||||||||||||||||||||||||||||||1010.2||1|AUTO_4-USA|223|ICAO-K3A6|0.0|4-Steady;-|1|AUTO_4-USA|223|ICAO-K3A6|||||||||||||||||||||||||||||||||||||MET075METAR K3A6 300250Z AUTO 36005KT 26/12 A2983 RMK AO1 SLP074 T02600121 54000;||A||223|ICAO-K3A6
USI0000K3A6|NEWHALL|2011|08|30|03|50|34.3700|-118.5700|427.0|26.0||1|AUTO_4-USA|223|ICAO-K3A6|11.0||1|AUTO_4-USA|223|ICAO-K3A6|||||||1008.3||1|AUTO_4-USA|223|ICAO-K3A6|360|N-Normal|1|AUTO_4-USA|223|ICAO-K3A6|1.0|N-Normal|1|AUTO_4-USA|223|ICAO-K3A6|||||||||||||39|Derived||AUTO_4-USA|223|ICAO-K3A6|||||||||||||||||||||||||||||||||||||||||||||||||||||||||||||||||||||||||1010.8||1|AUTO_4-USA|223|ICAO-K3A6|||||||||||||||||||||||||||||||||||||||||||MET069METAR K3A6 300350Z AUTO 36002KT 26/11 A2985 RMK AO1 SLP083 T02580107;||A||223|ICAO-K3A6
USI0000K3A6|NEWHALL|2011|08|30|05|30|34.3700|-118.5700|427.0|24.0||1|AUTO_4-USA|223|ICAO-K3A6|11.0||1|AUTO_4-USA|223|ICAO-K3A6|||||||1008.8||1|AUTO_4-USA|223|ICAO-K3A6|070|N-Normal|1|AUTO_4-USA|223|ICAO-K3A6|1.0|N-Normal|1|AUTO_4-USA|223|ICAO-K3A6|||||||||||||44|Derived||AUTO_4-USA|223|ICAO-K3A6|||||||||||||||||||||||||||||||||||||||||||||||||||||||||||||||||||||||||1010.8||1|AUTO_4-USA|223|ICAO-K3A6|0.0|4-Steady;-|1|AUTO_4-USA|223|ICAO-K3A6|||||||||||||||||||||||||||||||||||||MET087METAR K3A6 300530Z AUTO 07002KT 24/11 A2985 RMK AO1 SLP088 T02350108 10408 20235 54000;||A||223|ICAO-K3A6
USI0000K3A6|NEWHALL|2011|08|30|05|50|34.3700|-118.5700|427.0|23.0||1|AUTO_4-USA|223|ICAO-K3A6|9.0||1|AUTO_4-USA|223|ICAO-K3A6|||||||1009.0||1|AUTO_4-USA|223|ICAO-K3A6|040|N-Normal|1|AUTO_4-USA|223|ICAO-K3A6|1.0|N-Normal|1|AUTO_4-USA|223|ICAO-K3A6|||||||||||||41|Derived||AUTO_4-USA|223|ICAO-K3A6|||||||||||||||||||||||||||||||||||||||||||||||||||||||||||||||||||||||||1010.8||1|AUTO_4-USA|223|ICAO-K3A6|0.0|4-Steady;-|1|AUTO_4-USA|223|ICAO-K3A6|||||||||||||||||||||||||||||||||||||MET087METAR K3A6 300550Z AUTO 04002KT 23/09 A2985 RMK AO1 SLP090 T02310091 10408 20231 54000;||A||223|ICAO-K3A6
USI0000K3A6|NEWHALL|2011|08|30|06|10|34.3700|-118.5700|427.0|23.0||1|AUTO_4-USA|223|ICAO-K3A6|10.0||1|AUTO_4-USA|223|ICAO-K3A6|||||||1009.2||1|AUTO_4-USA|223|ICAO-K3A6|360|N-Normal|1|AUTO_4-USA|223|ICAO-K3A6|1.0|N-Normal|1|AUTO_4-USA|223|ICAO-K3A6|||||||||||||44|Derived||AUTO_4-USA|223|ICAO-K3A6|||||||||||||||||||||||||||||||||||||||||||||||||||||||||||||||||||||||||1010.8||1|AUTO_4-USA|223|ICAO-K3A6|||||||||||||||||||||||||||||||||||||||||||MET079METAR K3A6 300610Z AUTO 36002KT 23/10 A2985 RMK AO1 SLP092 T02290103 404080223;||A||223|ICAO-K3A6
USI0000K3A6|NEWHALL|2011|08|30|06|30|34.3700|-118.5700|427.0|23.0||1|AUTO_4-USA|223|ICAO-K3A6|8.0||1|AUTO_4-USA|223|ICAO-K3A6|||||||1009.4||1|AUTO_4-USA|223|ICAO-K3A6|360|N-Normal|1|AUTO_4-USA|223|ICAO-K3A6|1.0|N-Normal|1|AUTO_4-USA|223|ICAO-K3A6|||||||||||||38|Derived||AUTO_4-USA|223|ICAO-K3A6|||||||||||||||||||||||||||||||||||||||||||||||||||||||||||||||||||||||||1010.8||1|AUTO_4-USA|223|ICAO-K3A6|||||||||||||||||||||||||||||||||||||||||||MET079METAR K3A6 300630Z AUTO 00002KT 23/08 A2985 RMK AO1 SLP094 T02260079 404080223;||A||223|ICAO-K3A6
USI0000K3A6|NEWHALL|2011|08|30|06|50|34.3700|-118.5700|427.0|23.0||1|AUTO_4-USA|223|ICAO-K3A6|8.0||1|AUTO_4-USA|223|ICAO-K3A6|||||||1009.7||1|AUTO_4-USA|223|ICAO-K3A6|320|N-Normal|1|AUTO_4-USA|223|ICAO-K3A6|1.5|N-Normal|1|AUTO_4-USA|223|ICAO-K3A6|||||||||||||38|Derived||AUTO_4-USA|223|ICAO-K3A6|||||||||||||||||||||||||||||||||||||||||||||||||||||||||||||||||||||||||1010.8||1|AUTO_4-USA|223|ICAO-K3A6|||||||||||||||||||||||||||||||||||||||||||MET079METAR K3A6 300650Z AUTO 32003KT 23/08 A2985 RMK AO1 SLP097 T02270079 404080223;||A||223|ICAO-K3A6
USI0000K3A6|NEWHALL|2011|08|30|07|10|34.3700|-118.5700|427.0|22.0||1|AUTO_4-USA|223|ICAO-K3A6|8.0||1|AUTO_4-USA|223|ICAO-K3A6|||||||1010.0||1|AUTO_4-USA|223|ICAO-K3A6|350|N-Normal|1|AUTO_4-USA|223|ICAO-K3A6|1.0|N-Normal|1|AUTO_4-USA|223|ICAO-K3A6|||||||||||||41|Derived||AUTO_4-USA|223|ICAO-K3A6|||||||||||||||||||||||||||||||||||||||||||||||||||||||||||||||||||||||||1010.8||1|AUTO_4-USA|223|ICAO-K3A6|||||||||||||||||||||||||||||||||||||||||||MET069METAR K3A6 300710Z AUTO 35002KT 22/08 A2985 RMK AO1 SLP100 T02230080;||A||223|ICAO-K3A6
USI0000K3A6|NEWHALL|2011|08|30|07|30|34.3700|-118.5700|427.0|22.0||1|AUTO_4-USA|223|ICAO-K3A6|8.0||1|AUTO_4-USA|223|ICAO-K3A6|||||||1010.1||1|AUTO_4-USA|223|ICAO-K3A6|360|N-Normal|1|AUTO_4-USA|223|ICAO-K3A6|0.5|N-Normal|1|AUTO_4-USA|223|ICAO-K3A6|||||||||||||41|Derived||AUTO_4-USA|223|ICAO-K3A6|||||||||||||||||||||||||||||||||||||||||||||||||||||||||||||||||||||||||1010.8||1|AUTO_4-USA|223|ICAO-K3A6|||||||||||||||||||||||||||||||||||||||||||MET069METAR K3A6 300730Z AUTO 36001KT 22/08 A2985 RMK AO1 SLP101 T02200077;||A||223|ICAO-K3A6
USI0000K3A6|NEWHALL|2011|08|30|07|50|34.3700|-118.5700|427.0|22.0||1|AUTO_4-USA|223|ICAO-K3A6|8.0||1|AUTO_4-USA|223|ICAO-K3A6|||||||1010.3||1|AUTO_4-USA|223|ICAO-K3A6|050|N-Normal|1|AUTO_4-USA|223|ICAO-K3A6|1.0|N-Normal|1|AUTO_4-USA|223|ICAO-K3A6|||||||||||||41|Derived||AUTO_4-USA|223|ICAO-K3A6|||||||||||||||||||||||||||||||||||||||||||||||||||||||||||||||||||||||||1011.2||1|AUTO_4-USA|223|ICAO-K3A6|||||||||||||||||||||||||||||||||||||||||||MET069METAR K3A6 300750Z AUTO 05002KT 22/08 A2986 RMK AO1 SLP103 T02190080;||A||223|ICAO-K3A6
USI0000K3A6|NEWHALL|2011|08|30|08|10|34.3700|-118.5700|427.0|22.0||1|AUTO_4-USA|223|ICAO-K3A6|9.0||1|AUTO_4-USA|223|ICAO-K3A6|||||||1010.4||1|AUTO_4-USA|223|ICAO-K3A6|360|N-Normal|1|AUTO_4-USA|223|ICAO-K3A6|1.0|N-Normal|1|AUTO_4-USA|223|ICAO-K3A6|||||||||||||44|Derived||AUTO_4-USA|223|ICAO-K3A6|||||||||||||||||||||||||||||||||||||||||||||||||||||||||||||||||||||||||1011.2||1|AUTO_4-USA|223|ICAO-K3A6|0.0|4-Steady;-|1|AUTO_4-USA|223|ICAO-K3A6|||||||||||||||||||||||||||||||||||||MET075METAR K3A6 300810Z AUTO 00002KT 22/09 A2986 RMK AO1 SLP104 T02230091 54000;||A||223|ICAO-K3A6
USI0000K3A6|NEWHALL|2011|08|30|08|30|34.3700|-118.5700|427.0|22.0||1|AUTO_4-USA|223|ICAO-K3A6|10.0||1|AUTO_4-USA|223|ICAO-K3A6|||||||1010.3||1|AUTO_4-USA|223|ICAO-K3A6|330|N-Normal|1|AUTO_4-USA|223|ICAO-K3A6|1.5|N-Normal|1|AUTO_4-USA|223|ICAO-K3A6|||||||||||||47|Derived||AUTO_4-USA|223|ICAO-K3A6|||||||||||||||||||||||||||||||||||||||||||||||||||||||||||||||||||||||||1011.2||1|AUTO_4-USA|223|ICAO-K3A6|0.3|3-Decr-or-|1|AUTO_4-USA|223|ICAO-K3A6|||||||||||||||||||||||||||||||||||||MET075METAR K3A6 300830Z AUTO 33003KT 22/10 A2986 RMK AO1 SLP103 T02190100 53003;||A||223|ICAO-K3A6
USI0000K3A6|NEWHALL|2011|08|30|08|50|34.3700|-118.5700|427.0|22.0||1|AUTO_4-USA|223|ICAO-K3A6|10.0||1|AUTO_4-USA|223|ICAO-K3A6|||||||1010.2||1|AUTO_4-USA|223|ICAO-K3A6|130|N-Normal|1|AUTO_4-USA|223|ICAO-K3A6|1.5|N-Normal|1|AUTO_4-USA|223|ICAO-K3A6|||||||||||||47|Derived||AUTO_4-USA|223|ICAO-K3A6|||||||||||||||||||||||||||||||||||||||||||||||||||||||||||||||||||||||||1010.8||1|AUTO_4-USA|223|ICAO-K3A6|0.3|3-Decr-or-|1|AUTO_4-USA|223|ICAO-K3A6|||||||||||||||||||||||||||||||||||||MET075METAR K3A6 300850Z AUTO 13003KT 22/10 A2985 RMK AO1 SLP102 T02180096 53003;||A||223|ICAO-K3A6
USI0000K3A6|NEWHALL|2011|08|30|09|10|34.3700|-118.5700|427.0|22.0||1|AUTO_4-USA|223|ICAO-K3A6|9.0||1|AUTO_4-USA|223|ICAO-K3A6|||||||1010.4||1|AUTO_4-USA|223|ICAO-K3A6|180|N-Normal|1|AUTO_4-USA|223|ICAO-K3A6|1.5|N-Normal|1|AUTO_4-USA|223|ICAO-K3A6|||||||||||||44|Derived||AUTO_4-USA|223|ICAO-K3A6|||||||||||||||||||||||||||||||||||||||||||||||||||||||||||||||||||||||||1011.2||1|AUTO_4-USA|223|ICAO-K3A6|||||||||||||||||||||||||||||||||||||||||||MET069METAR K3A6 300910Z AUTO 18003KT 22/09 A2986 RMK AO1 SLP104 T02160095;||A||223|ICAO-K3A6
USI0000K3A6|NEWHALL|2011|08|30|09|30|34.3700|-118.5700|427.0|21.0||1|AUTO_4-USA|223|ICAO-K3A6|10.0||1|AUTO_4-USA|223|ICAO-K3A6|||||||1010.2||1|AUTO_4-USA|223|ICAO-K3A6|330|N-Normal|1|AUTO_4-USA|223|ICAO-K3A6|1.5|N-Normal|1|AUTO_4-USA|223|ICAO-K3A6|||||||||||||50|Derived||AUTO_4-USA|223|ICAO-K3A6|||||||||||||||||||||||||||||||||||||||||||||||||||||||||||||||||||||||||1010.8||1|AUTO_4-USA|223|ICAO-K3A6|||||||||||||||||||||||||||||||||||||||||||MET069METAR K3A6 300930Z AUTO 33003KT 21/10 A2985 RMK AO1 SLP102 T02110099;||A||223|ICAO-K3A6
USI0000K3A6|NEWHALL|2011|08|30|09|50|34.3700|-118.5700|427.0|20.0||1|AUTO_4-USA|223|ICAO-K3A6|10.0||1|AUTO_4-USA|223|ICAO-K3A6|||||||1010.2||1|AUTO_4-USA|223|ICAO-K3A6|060|N-Normal|1|AUTO_4-USA|223|ICAO-K3A6|2.1|N-Normal|1|AUTO_4-USA|223|ICAO-K3A6|||||||||||||53|Derived||AUTO_4-USA|223|ICAO-K3A6|||||||||||||||||||||||||||||||||||||||||||||||||||||||||||||||||||||||||1010.8||1|AUTO_4-USA|223|ICAO-K3A6|||||||||||||||||||||||||||||||||||||||||||MET069METAR K3A6 300950Z AUTO 06004KT 20/10 A2985 RMK AO1 SLP102 T02040100;||A||223|ICAO-K3A6
USI0000K3A6|NEWHALL|2011|08|30|10|10|34.3700|-118.5700|427.0|20.0||1|AUTO_4-USA|223|ICAO-K3A6|10.0||1|AUTO_4-USA|223|ICAO-K3A6|||||||1010.3||1|AUTO_4-USA|223|ICAO-K3A6|020|N-Normal|1|AUTO_4-USA|223|ICAO-K3A6|1.5|N-Normal|1|AUTO_4-USA|223|ICAO-K3A6|||||||||||||53|Derived||AUTO_4-USA|223|ICAO-K3A6|||||||||||||||||||||||||||||||||||||||||||||||||||||||||||||||||||||||||1010.8||1|AUTO_4-USA|223|ICAO-K3A6|||||||||||||||||||||||||||||||||||||||||||MET069METAR K3A6 301010Z AUTO 02003KT 20/10 A2985 RMK AO1 SLP103 T01980101;||A||223|ICAO-K3A6
USI0000K3A6|NEWHALL|2011|08|30|10|30|34.3700|-118.5700|427.0|20.0||1|AUTO_4-USA|223|ICAO-K3A6|10.0||1|AUTO_4-USA|223|ICAO-K3A6|||||||1010.4||1|AUTO_4-USA|223|ICAO-K3A6|050|N-Normal|1|AUTO_4-USA|223|ICAO-K3A6|1.0|N-Normal|1|AUTO_4-USA|223|ICAO-K3A6|||||||||||||53|Derived||AUTO_4-USA|223|ICAO-K3A6|||||||||||||||||||||||||||||||||||||||||||||||||||||||||||||||||||||||||1010.8||1|AUTO_4-USA|223|ICAO-K3A6|||||||||||||||||||||||||||||||||||||||||||MET069METAR K3A6 301030Z AUTO 05002KT 20/10 A2985 RMK AO1 SLP104 T02000101;||A||223|ICAO-K3A6
USI0000K3A6|NEWHALL|2011|08|30|10|50|34.3700|-118.5700|427.0|19.0||1|AUTO_4-USA|223|ICAO-K3A6|11.0||1|AUTO_4-USA|223|ICAO-K3A6|||||||1010.4||1|AUTO_4-USA|223|ICAO-K3A6|030|N-Normal|1|AUTO_4-USA|223|ICAO-K3A6|2.1|N-Normal|1|AUTO_4-USA|223|ICAO-K3A6|||||||||||||60|Derived||AUTO_4-USA|223|ICAO-K3A6|||||||||||||||||||||||||||||||||||||||||||||||||||||||||||||||||||||||||1010.8||1|AUTO_4-USA|223|ICAO-K3A6|||||||||||||||||||||||||||||||||||||||||||MET069METAR K3A6 301050Z AUTO 03004KT 19/11 A2985 RMK AO1 SLP104 T01940110;||A||223|ICAO-K3A6
USI0000K3A6|NEWHALL|2011|08|30|13|50|34.3700|-118.5700|427.0|18.0||1|AUTO_4-USA|223|ICAO-K3A6|11.0||1|AUTO_4-USA|223|ICAO-K3A6|||||||1011.0||1|AUTO_4-USA|223|ICAO-K3A6|360|N-Normal|1|AUTO_4-USA|223|ICAO-K3A6|1.5|N-Normal|1|AUTO_4-USA|223|ICAO-K3A6|||||||||||||64|Derived||AUTO_4-USA|223|ICAO-K3A6|||||||||||||||||||||||||||||||||||||||||||||||||||||||||||||||||||||||||1011.5||1|AUTO_4-USA|223|ICAO-K3A6|||||||||||||||||||||||||||||||||||||||||||MET069METAR K3A6 301350Z AUTO 36003KT 18/11 A2987 RMK AO1 SLP110 T01820108;||A||223|ICAO-K3A6
USI0000K3A6|NEWHALL|2011|08|30|14|10|34.3700|-118.5700|427.0|19.0||1|AUTO_4-USA|223|ICAO-K3A6|11.0||1|AUTO_4-USA|223|ICAO-K3A6|||||||1011.0||1|AUTO_4-USA|223|ICAO-K3A6|360|N-Normal|1|AUTO_4-USA|223|ICAO-K3A6|1.0|N-Normal|1|AUTO_4-USA|223|ICAO-K3A6|||||||||||||60|Derived||AUTO_4-USA|223|ICAO-K3A6|||||||||||||||||||||||||||||||||||||||||||||||||||||||||||||||||||||||||1011.5||1|AUTO_4-USA|223|ICAO-K3A6|0.0|4-Steady;-|1|AUTO_4-USA|223|ICAO-K3A6|||||||||||||||||||||||||||||||||||||MET075METAR K3A6 301410Z AUTO 36002KT 19/11 A2987 RMK AO1 SLP110 T01930113 54000;||A||223|ICAO-K3A6
USI0000K3A6|NEWHALL|2011|08|30|14|30|34.3700|-118.5700|427.0|21.0||1|AUTO_4-USA|223|ICAO-K3A6|12.0||1|AUTO_4-USA|223|ICAO-K3A6|||||||1011.2||1|AUTO_4-USA|223|ICAO-K3A6|360|N-Normal|1|AUTO_4-USA|223|ICAO-K3A6|0.5|N-Normal|1|AUTO_4-USA|223|ICAO-K3A6|||||||||||||57|Derived||AUTO_4-USA|223|ICAO-K3A6|||||||||||||||||||||||||||||||||||||||||||||||||||||||||||||||||||||||||1011.5||1|AUTO_4-USA|223|ICAO-K3A6|0.0|4-Steady;-|1|AUTO_4-USA|223|ICAO-K3A6|||||||||||||||||||||||||||||||||||||MET075METAR K3A6 301430Z AUTO 36001KT 21/12 A2987 RMK AO1 SLP112 T02080117 54000;||A||223|ICAO-K3A6
USI0000K3A6|NEWHALL|2011|08|30|14|50|34.3700|-118.5700|427.0|22.0||1|AUTO_4-USA|223|ICAO-K3A6|12.0||1|AUTO_4-USA|223|ICAO-K3A6|||||||1011.4||1|AUTO_4-USA|223|ICAO-K3A6|360|N-Normal|1|AUTO_4-USA|223|ICAO-K3A6|0.5|N-Normal|1|AUTO_4-USA|223|ICAO-K3A6|||||||||||||53|Derived||AUTO_4-USA|223|ICAO-K3A6|||||||||||||||||||||||||||||||||||||||||||||||||||||||||||||||||||||||||1011.5||1|AUTO_4-USA|223|ICAO-K3A6|0.0|4-Steady;-|1|AUTO_4-USA|223|ICAO-K3A6|||||||||||||||||||||||||||||||||||||MET075METAR K3A6 301450Z AUTO 36001KT 22/12 A2987 RMK AO1 SLP114 T02180118 54000;||A||223|ICAO-K3A6
USI0000K3A6|NEWHALL|2011|08|31|03|10|34.3700|-118.5700|427.0|22.0||1|AUTO_4-USA|223|ICAO-K3A6|12.0||1|AUTO_4-USA|223|ICAO-K3A6|||||||1008.9||1|AUTO_4-USA|223|ICAO-K3A6|360|N-Normal|1|AUTO_4-USA|223|ICAO-K3A6|1.5|N-Normal|1|AUTO_4-USA|223|ICAO-K3A6|||||||||||||53|Derived||AUTO_4-USA|223|ICAO-K3A6|||||||||||||||||||||||||||||||||||||||||||||||||||||||||||||||||||||||||1009.5||1|AUTO_4-USA|223|ICAO-K3A6|||||||||||||||||||||||||||||||||||||||||||MET069METAR K3A6 310310Z AUTO 36003KT 22/12 A2981 RMK AO1 SLP089 T02160116;||A||223|ICAO-K3A6
USI0000K3A6|NEWHALL|2011|08|31|03|30|34.3700|-118.5700|427.0|22.0||1|AUTO_4-USA|223|ICAO-K3A6|11.0||1|AUTO_4-USA|223|ICAO-K3A6|||||||1009.2||1|AUTO_4-USA|223|ICAO-K3A6|360|N-Normal|1|AUTO_4-USA|223|ICAO-K3A6|0.5|N-Normal|1|AUTO_4-USA|223|ICAO-K3A6|||||||||||||50|Derived||AUTO_4-USA|223|ICAO-K3A6|||||||||||||||||||||||||||||||||||||||||||||||||||||||||||||||||||||||||1009.8||1|AUTO_4-USA|223|ICAO-K3A6|||||||||||||||||||||||||||||||||||||||||||MET069METAR K3A6 310330Z AUTO 36001KT 22/11 A2982 RMK AO1 SLP092 T02230110;||A||223|ICAO-K3A6
USI0000K3A6|NEWHALL|2011|08|31|03|50|34.3700|-118.5700|427.0|22.0||1|AUTO_4-USA|223|ICAO-K3A6|9.0||1|AUTO_4-USA|223|ICAO-K3A6|||||||1009.5||1|AUTO_4-USA|223|ICAO-K3A6|360|N-Normal|1|AUTO_4-USA|223|ICAO-K3A6|0.5|N-Normal|1|AUTO_4-USA|223|ICAO-K3A6|||||||||||||44|Derived||AUTO_4-USA|223|ICAO-K3A6|||||||||||||||||||||||||||||||||||||||||||||||||||||||||||||||||||||||||1009.8||1|AUTO_4-USA|223|ICAO-K3A6|||||||||||||||||||||||||||||||||||||||||||MET069METAR K3A6 310350Z AUTO 36001KT 22/09 A2982 RMK AO1 SLP095 T02200095;||A||223|ICAO-K3A6
USI0000K3A6|NEWHALL|2011|08|31|04|10|34.3700|-118.5700|427.0|21.0||1|AUTO_4-USA|223|ICAO-K3A6|11.0||1|AUTO_4-USA|223|ICAO-K3A6|||||||1009.7||1|AUTO_4-USA|223|ICAO-K3A6|360|N-Normal|1|AUTO_4-USA|223|ICAO-K3A6|0.5|N-Normal|1|AUTO_4-USA|223|ICAO-K3A6|||||||||||||53|Derived||AUTO_4-USA|223|ICAO-K3A6|||||||||||||||||||||||||||||||||||||||||||||||||||||||||||||||||||||||||1010.2||1|AUTO_4-USA|223|ICAO-K3A6|||||||||||||||||||||||||||||||||||||||||||MET069METAR K3A6 310410Z AUTO 36001KT 21/11 A2983 RMK AO1 SLP097 T02150106;||A||223|ICAO-K3A6
USI0000K3A6|NEWHALL|2011|08|31|04|30|34.3700|-118.5700|427.0|21.0||1|AUTO_4-USA|223|ICAO-K3A6|10.0||1|AUTO_4-USA|223|ICAO-K3A6|||||||1009.9||1|AUTO_4-USA|223|ICAO-K3A6|360|N-Normal|1|AUTO_4-USA|223|ICAO-K3A6|0.5|N-Normal|1|AUTO_4-USA|223|ICAO-K3A6|||||||||||||50|Derived||AUTO_4-USA|223|ICAO-K3A6|||||||||||||||||||||||||||||||||||||||||||||||||||||||||||||||||||||||||1010.2||1|AUTO_4-USA|223|ICAO-K3A6|||||||||||||||||||||||||||||||||||||||||||MET069METAR K3A6 310430Z AUTO 36001KT 21/10 A2983 RMK AO1 SLP099 T02120103;||A||223|ICAO-K3A6
USI0000K3A6|NEWHALL|2011|08|31|04|50|34.3700|-118.5700|427.0|21.0||1|AUTO_4-USA|223|ICAO-K3A6|9.0||1|AUTO_4-USA|223|ICAO-K3A6|||||||1010.0||1|AUTO_4-USA|223|ICAO-K3A6|360|N-Normal|1|AUTO_4-USA|223|ICAO-K3A6|1.0|N-Normal|1|AUTO_4-USA|223|ICAO-K3A6|||||||||||||46|Derived||AUTO_4-USA|223|ICAO-K3A6|||||||||||||||||||||||||||||||||||||||||||||||||||||||||||||||||||||||||1010.2||1|AUTO_4-USA|223|ICAO-K3A6|||||||||||||||||||||||||||||||||||||||||||MET069METAR K3A6 310450Z AUTO 36002KT 21/09 A2983 RMK AO1 SLP100 T02060095;||A||223|ICAO-K3A6
USI0000K3A6|NEWHALL|2011|08|31|05|10|34.3700|-118.5700|427.0|20.0||1|AUTO_4-USA|223|ICAO-K3A6|7.0||1|AUTO_4-USA|223|ICAO-K3A6|||||||1010.0||1|AUTO_4-USA|223|ICAO-K3A6|360|N-Normal|1|AUTO_4-USA|223|ICAO-K3A6|2.1|N-Normal|1|AUTO_4-USA|223|ICAO-K3A6|||||||||||||43|Derived||AUTO_4-USA|223|ICAO-K3A6|||||||||||||||||||||||||||||||||||||||||||||||||||||||||||||||||||||||||1010.2||1|AUTO_4-USA|223|ICAO-K3A6|0.0|4-Steady;-|1|AUTO_4-USA|223|ICAO-K3A6|||||||||||||||||||||||||||||||||||||MET087METAR K3A6 310510Z AUTO 36004KT 20/07 A2983 RMK AO1 SLP100 T02040074 10367 20204 54000;||A||223|ICAO-K3A6
USI0000K3A6|NEWHALL|2011|08|31|05|30|34.3700|-118.5700|427.0|20.0||1|AUTO_4-USA|223|ICAO-K3A6|7.0||1|AUTO_4-USA|223|ICAO-K3A6|||||||1010.0||1|AUTO_4-USA|223|ICAO-K3A6|360|N-Normal|1|AUTO_4-USA|223|ICAO-K3A6|3.1|N-Normal|1|AUTO_4-USA|223|ICAO-K3A6|||||||||||||43|Derived||AUTO_4-USA|223|ICAO-K3A6|||||||||||||||||||||||||||||||||||||||||||||||||||||||||||||||||||||||||1010.2||1|AUTO_4-USA|223|ICAO-K3A6|0.0|4-Steady;-|1|AUTO_4-USA|223|ICAO-K3A6|||||||||||||||||||||||||||||||||||||MET087METAR K3A6 310530Z AUTO 36006KT 20/07 A2983 RMK AO1 SLP100 T02040074 10367 20203 54000;||A||223|ICAO-K3A6
USI0000K3A6|NEWHALL|2011|08|31|05|50|34.3700|-118.5700|427.0|20.0||1|AUTO_4-USA|223|ICAO-K3A6|9.0||1|AUTO_4-USA|223|ICAO-K3A6|||||||1009.9||1|AUTO_4-USA|223|ICAO-K3A6|360|N-Normal|1|AUTO_4-USA|223|ICAO-K3A6|1.0|N-Normal|1|AUTO_4-USA|223|ICAO-K3A6|||||||||||||49|Derived||AUTO_4-USA|223|ICAO-K3A6|||||||||||||||||||||||||||||||||||||||||||||||||||||||||||||||||||||||||1010.2||1|AUTO_4-USA|223|ICAO-K3A6|0.0|4-Steady;-|1|AUTO_4-USA|223|ICAO-K3A6|||||||||||||||||||||||||||||||||||||MET087METAR K3A6 310550Z AUTO 36002KT 20/09 A2983 RMK AO1 SLP099 T02000086 10367 20200 54000;||A||223|ICAO-K3A6
USI0000K3A6|NEWHALL|2011|08|31|06|10|34.3700|-118.5700|427.0|20.0||1|AUTO_4-USA|223|ICAO-K3A6|9.0||1|AUTO_4-USA|223|ICAO-K3A6|||||||1010.0||1|AUTO_4-USA|223|ICAO-K3A6|360|N-Normal|1|AUTO_4-USA|223|ICAO-K3A6|1.0|N-Normal|1|AUTO_4-USA|223|ICAO-K3A6|||||||||||||49|Derived||AUTO_4-USA|223|ICAO-K3A6|||||||||||||||||||||||||||||||||||||||||||||||||||||||||||||||||||||||||1010.2||1|AUTO_4-USA|223|ICAO-K3A6|||||||||||||||||||||||||||||||||||||||||||MET079METAR K3A6 310610Z AUTO 36002KT 20/09 A2983 RMK AO1 SLP100 T01960086 403670173;||A||223|ICAO-K3A6
USI0000K3A6|NEWHALL|2011|08|31|06|30|34.3700|-118.5700|427.0|19.0||1|AUTO_4-USA|223|ICAO-K3A6|8.0||1|AUTO_4-USA|223|ICAO-K3A6|||||||1010.0||1|AUTO_4-USA|223|ICAO-K3A6|360|N-Normal|1|AUTO_4-USA|223|ICAO-K3A6|2.6|N-Normal|1|AUTO_4-USA|223|ICAO-K3A6|||||||||||||49|Derived||AUTO_4-USA|223|ICAO-K3A6|||||||||||||||||||||||||||||||||||||||||||||||||||||||||||||||||||||||||1010.2||1|AUTO_4-USA|223|ICAO-K3A6|||||||||||||||||||||||||||||||||||||||||||MET079METAR K3A6 310630Z AUTO 36005KT 19/08 A2983 RMK AO1 SLP100 T01940084 403670173;||A||223|ICAO-K3A6
USI0000K3A6|NEWHALL|2011|08|31|07|30|34.3700|-118.5700|427.0|18.0||1|AUTO_4-USA|223|ICAO-K3A6|11.0||1|AUTO_4-USA|223|ICAO-K3A6|||||||1010.1||1|AUTO_4-USA|223|ICAO-K3A6|360|N-Normal|1|AUTO_4-USA|223|ICAO-K3A6|0.5|N-Normal|1|AUTO_4-USA|223|ICAO-K3A6|||||||||||||64|Derived||AUTO_4-USA|223|ICAO-K3A6|||||||||||||||||||||||||||||||||||||||||||||||||||||||||||||||||||||||||1010.2||1|AUTO_4-USA|223|ICAO-K3A6|||||||||||||||||||||||||||||||||||||||||||MET069METAR K3A6 310730Z AUTO 36001KT 18/11 A2983 RMK AO1 SLP101 T01830106;||A||223|ICAO-K3A6
USI0000K3A6|NEWHALL|2011|08|31|07|50|34.3700|-118.5700|427.0|18.0||1|AUTO_4-USA|223|ICAO-K3A6|10.0||1|AUTO_4-USA|223|ICAO-K3A6|||||||1010.2||1|AUTO_4-USA|223|ICAO-K3A6|360|N-Normal|1|AUTO_4-USA|223|ICAO-K3A6|0.5|N-Normal|1|AUTO_4-USA|223|ICAO-K3A6|||||||||||||60|Derived||AUTO_4-USA|223|ICAO-K3A6|||||||||||||||||||||||||||||||||||||||||||||||||||||||||||||||||||||||||1010.2||1|AUTO_4-USA|223|ICAO-K3A6|||||||||||||||||||||||||||||||||||||||||||MET069METAR K3A6 310750Z AUTO 36001KT 18/10 A2983 RMK AO1 SLP102 T01780096;||A||223|ICAO-K3A6
USI0000K3A6|NEWHALL|2011|08|31|08|10|34.3700|-118.5700|427.0|18.0||1|AUTO_4-USA|223|ICAO-K3A6|11.0||1|AUTO_4-USA|223|ICAO-K3A6|||||||1010.2||1|AUTO_4-USA|223|ICAO-K3A6|360|N-Normal|1|AUTO_4-USA|223|ICAO-K3A6|0.5|N-Normal|1|AUTO_4-USA|223|ICAO-K3A6|||||||||||||64|Derived||AUTO_4-USA|223|ICAO-K3A6|||||||||||||||||||||||||||||||||||||||||||||||||||||||||||||||||||||||||1010.2||1|AUTO_4-USA|223|ICAO-K3A6|0.0|4-Steady;-|1|AUTO_4-USA|223|ICAO-K3A6|||||||||||||||||||||||||||||||||||||MET075METAR K3A6 310810Z AUTO 36001KT 18/11 A2983 RMK AO1 SLP102 T01800108 54000;||A||223|ICAO-K3A6
USI0000K3A6|NEWHALL|2011|08|31|08|30|34.3700|-118.5700|427.0|18.0||1|AUTO_4-USA|223|ICAO-K3A6|10.0||1|AUTO_4-USA|223|ICAO-K3A6|||||||1010.1||1|AUTO_4-USA|223|ICAO-K3A6|999|C-Calm|9|AUTO_4-USA|223|ICAO-K3A6|0.0|C-Calm|1|AUTO_4-USA|223|ICAO-K3A6|||||||||||||60|Derived||AUTO_4-USA|223|ICAO-K3A6|||||||||||||||||||||||||||||||||||||||||||||||||||||||||||||||||||||||||1010.2||1|AUTO_4-USA|223|ICAO-K3A6|-0.3|5-Decr,-th|1|AUTO_4-USA|223|ICAO-K3A6|||||||||||||||||||||||||||||||||||||MET075METAR K3A6 310830Z AUTO 00000KT 18/10 A2983 RMK AO1 SLP101 T01750104 55003;||A||223|ICAO-K3A6
USI0000K3A6|NEWHALL|2011|08|31|13|30|34.3700|-118.5700|427.0|14.0||1|AUTO_4-USA|223|ICAO-K3A6|11.0||1|AUTO_4-USA|223|ICAO-K3A6|||||||1010.8||1|AUTO_4-USA|223|ICAO-K3A6|360|N-Normal|1|AUTO_4-USA|223|ICAO-K3A6|1.0|N-Normal|1|AUTO_4-USA|223|ICAO-K3A6|||||||||||||82|Derived||AUTO_4-USA|223|ICAO-K3A6|||||||||||||||||||||||||||||||||||||||||||||||||||||||||||||||||||||||||1010.8||1|AUTO_4-USA|223|ICAO-K3A6|||||||||||||||||||||||||||||||||||||||||||MET069METAR K3A6 311330Z AUTO 36002KT 14/11 A2985 RMK AO1 SLP108 T01390110;||A||223|ICAO-K3A6
USI0000K3A6|NEWHALL|2011|08|31|13|50|34.3700|-118.5700|427.0|14.0||1|AUTO_4-USA|223|ICAO-K3A6|11.0||1|AUTO_4-USA|223|ICAO-K3A6|||||||1011.2||1|AUTO_4-USA|223|ICAO-K3A6|360|N-Normal|1|AUTO_4-USA|223|ICAO-K3A6|1.0|N-Normal|1|AUTO_4-USA|223|ICAO-K3A6|||||||||||||82|Derived||AUTO_4-USA|223|ICAO-K3A6|||||||||||||||||||||||||||||||||||||||||||||||||||||||||||||||||||||||||1010.8||1|AUTO_4-USA|223|ICAO-K3A6|||||||||||||||||||||||||||||||||||||||||||MET069METAR K3A6 311350Z AUTO 36002KT 14/11 A2985 RMK AO1 SLP112 T01420109;||A||223|ICAO-K3A6
USI0000K3A6|NEWHALL|2011|09|01|02|30|34.3700|-118.5700|427.0|22.0||1|AUTO_4-USA|223|ICAO-K3A6|8.0||1|AUTO_4-USA|223|ICAO-K3A6|||||||1009.2||1|AUTO_4-USA|223|ICAO-K3A6|360|N-Normal|1|AUTO_4-USA|223|ICAO-K3A6|1.0|N-Normal|1|AUTO_4-USA|223|ICAO-K3A6|||||||||||||41|Derived||AUTO_4-USA|223|ICAO-K3A6|||||||||||||||||||||||||||||||||||||||||||||||||||||||||||||||||||||||||1009.8||1|AUTO_4-USA|223|ICAO-K3A6|0.0|4-Steady;-|1|AUTO_4-USA|223|ICAO-K3A6|||||||||||||||||||||||||||||||||||||MET075METAR K3A6 010230Z AUTO 36002KT 22/08 A2982 RMK AO1 SLP092 T02160078 54000;||A||223|ICAO-K3A6
USI0000K3A6|NEWHALL|2011|09|01|02|50|34.3700|-118.5700|427.0|22.0||1|AUTO_4-USA|223|ICAO-K3A6|7.0||1|AUTO_4-USA|223|ICAO-K3A6|||||||1009.5||1|AUTO_4-USA|223|ICAO-K3A6|360|N-Normal|1|AUTO_4-USA|223|ICAO-K3A6|0.5|N-Normal|1|AUTO_4-USA|223|ICAO-K3A6|||||||||||||38|Derived||AUTO_4-USA|223|ICAO-K3A6|||||||||||||||||||||||||||||||||||||||||||||||||||||||||||||||||||||||||1009.8||1|AUTO_4-USA|223|ICAO-K3A6|0.0|4-Steady;-|1|AUTO_4-USA|223|ICAO-K3A6|||||||||||||||||||||||||||||||||||||MET075METAR K3A6 010250Z AUTO 36001KT 22/07 A2982 RMK AO1 SLP095 T02160074 54000;||A||223|ICAO-K3A6
USI0000K3A6|NEWHALL|2011|09|01|03|10|34.3700|-118.5700|427.0|21.0||1|AUTO_4-USA|223|ICAO-K3A6|8.0||1|AUTO_4-USA|223|ICAO-K3A6|||||||1009.8||1|AUTO_4-USA|223|ICAO-K3A6|360|N-Normal|1|AUTO_4-USA|223|ICAO-K3A6|1.0|N-Normal|1|AUTO_4-USA|223|ICAO-K3A6|||||||||||||43|Derived||AUTO_4-USA|223|ICAO-K3A6|||||||||||||||||||||||||||||||||||||||||||||||||||||||||||||||||||||||||1010.2||1|AUTO_4-USA|223|ICAO-K3A6|||||||||||||||||||||||||||||||||||||||||||MET069METAR K3A6 010310Z AUTO 36002KT 21/08 A2983 RMK AO1 SLP098 T02090078;||A||223|ICAO-K3A6
USI0000K3A6|NEWHALL|2011|09|01|08|50|34.3700|-118.5700|427.0|15.0||1|AUTO_4-USA|223|ICAO-K3A6|10.0||1|AUTO_4-USA|223|ICAO-K3A6|||||||1011.9||1|AUTO_4-USA|223|ICAO-K3A6|360|N-Normal|1|AUTO_4-USA|223|ICAO-K3A6|0.5|N-Normal|1|AUTO_4-USA|223|ICAO-K3A6|||||||||||||72|Derived||AUTO_4-USA|223|ICAO-K3A6|||||||||||||||||||||||||||||||||||||||||||||||||||||||||||||||||||||||||1011.2||1|AUTO_4-USA|223|ICAO-K3A6|0.0|4-Steady;-|1|AUTO_4-USA|223|ICAO-K3A6|||||||||||||||||||||||||||||||||||||MET075METAR K3A6 010850Z AUTO 00001KT 15/10 A2986 RMK AO1 SLP119 T01480096 54000;||A||223|ICAO-K3A6
USI0000K3A6|NEWHALL|2011|09|01|09|10|34.3700|-118.5700|427.0|14.0||1|AUTO_4-USA|223|ICAO-K3A6|9.0||1|AUTO_4-USA|223|ICAO-K3A6|||||||1012.2||1|AUTO_4-USA|223|ICAO-K3A6|360|N-Normal|1|AUTO_4-USA|223|ICAO-K3A6|0.5|N-Normal|1|AUTO_4-USA|223|ICAO-K3A6|||||||||||||72|Derived||AUTO_4-USA|223|ICAO-K3A6|||||||||||||||||||||||||||||||||||||||||||||||||||||||||||||||||||||||||1010.8||1|AUTO_4-USA|223|ICAO-K3A6|||||||||||||||||||||||||||||||||||||||||||MET069METAR K3A6 010910Z AUTO 36001KT 14/09 A2985 RMK AO1 SLP122 T01430091;||A||223|ICAO-K3A6
USI0000K3A6|NEWHALL|2011|09|01|09|30|34.3700|-118.5700|427.0|15.0||1|AUTO_4-USA|223|ICAO-K3A6|8.0||1|AUTO_4-USA|223|ICAO-K3A6|||||||1012.6||1|AUTO_4-USA|223|ICAO-K3A6|360|N-Normal|1|AUTO_4-USA|223|ICAO-K3A6|1.5|N-Normal|1|AUTO_4-USA|223|ICAO-K3A6|||||||||||||63|Derived||AUTO_4-USA|223|ICAO-K3A6|||||||||||||||||||||||||||||||||||||||||||||||||||||||||||||||||||||||||1011.2||1|AUTO_4-USA|223|ICAO-K3A6|||||||||||||||||||||||||||||||||||||||||||MET069METAR K3A6 010930Z AUTO 36003KT 15/08 A2986 RMK AO1 SLP126 T01460081;||A||223|ICAO-K3A6
USI0000K3A6|NEWHALL|2011|09|01|09|50|34.3700|-118.5700|427.0|15.0||1|AUTO_4-USA|223|ICAO-K3A6|8.0||1|AUTO_4-USA|223|ICAO-K3A6|||||||1012.6||1|AUTO_4-USA|223|ICAO-K3A6|360|N-Normal|1|AUTO_4-USA|223|ICAO-K3A6|0.5|N-Normal|1|AUTO_4-USA|223|ICAO-K3A6|||||||||||||63|Derived||AUTO_4-USA|223|ICAO-K3A6|||||||||||||||||||||||||||||||||||||||||||||||||||||||||||||||||||||||||1011.2||1|AUTO_4-USA|223|ICAO-K3A6|||||||||||||||||||||||||||||||||||||||||||MET069METAR K3A6 010950Z AUTO 36001KT 15/08 A2986 RMK AO1 SLP126 T01520082;||A||223|ICAO-K3A6
USI0000K3A6|NEWHALL|2011|09|01|13|10|34.3700|-118.5700|427.0|13.0||1|AUTO_4-USA|223|ICAO-K3A6|4.0||1|AUTO_4-USA|223|ICAO-K3A6|||||||1013.6||1|AUTO_4-USA|223|ICAO-K3A6|360|N-Normal|1|AUTO_4-USA|223|ICAO-K3A6|1.0|N-Normal|1|AUTO_4-USA|223|ICAO-K3A6|||||||||||||55|Derived||AUTO_4-USA|223|ICAO-K3A6|||||||||||||||||||||||||||||||||||||||||||||||||||||||||||||||||||||||||1012.2||1|AUTO_4-USA|223|ICAO-K3A6|||||||||||||||||||||||||||||||||||||||||||MET069METAR K3A6 011310Z AUTO 36002KT 13/04 A2989 RMK AO1 SLP136 T01290042;||A||223|ICAO-K3A6
USI0000K3A6|NEWHALL|2011|09|01|13|30|34.3700|-118.5700|427.0|13.0||1|AUTO_4-USA|223|ICAO-K3A6|7.0||1|AUTO_4-USA|223|ICAO-K3A6|||||||1013.8||1|AUTO_4-USA|223|ICAO-K3A6|090|N-Normal|1|AUTO_4-USA|223|ICAO-K3A6|0.5|N-Normal|1|AUTO_4-USA|223|ICAO-K3A6|||||||||||||67|Derived||AUTO_4-USA|223|ICAO-K3A6|||||||||||||||||||||||||||||||||||||||||||||||||||||||||||||||||||||||||1012.2||1|AUTO_4-USA|223|ICAO-K3A6|||||||||||||||||||||||||||||||||||||||||||MET069METAR K3A6 011330Z AUTO 09001KT 13/07 A2989 RMK AO1 SLP138 T01320067;||A||223|ICAO-K3A6
USI0000K3A6|NEWHALL|2011|09|01|13|50|34.3700|-118.5700|427.0|14.0||1|AUTO_4-USA|223|ICAO-K3A6|9.0||1|AUTO_4-USA|223|ICAO-K3A6|||||||1014.0||1|AUTO_4-USA|223|ICAO-K3A6|360|N-Normal|1|AUTO_4-USA|223|ICAO-K3A6|1.0|N-Normal|1|AUTO_4-USA|223|ICAO-K3A6|||||||||||||72|Derived||AUTO_4-USA|223|ICAO-K3A6|||||||||||||||||||||||||||||||||||||||||||||||||||||||||||||||||||||||||1012.2||1|AUTO_4-USA|223|ICAO-K3A6|||||||||||||||||||||||||||||||||||||||||||MET069METAR K3A6 011350Z AUTO 36002KT 14/09 A2989 RMK AO1 SLP140 T01390087;||A||223|ICAO-K3A6
USI0000K3A6|NEWHALL|2011|09|01|14|10|34.3700|-118.5700|427.0|15.0||1|AUTO_4-USA|223|ICAO-K3A6|9.0||1|AUTO_4-USA|223|ICAO-K3A6|||||||1013.9||1|AUTO_4-USA|223|ICAO-K3A6|360|N-Normal|1|AUTO_4-USA|223|ICAO-K3A6|1.5|N-Normal|1|AUTO_4-USA|223|ICAO-K3A6|||||||||||||68|Derived||AUTO_4-USA|223|ICAO-K3A6|||||||||||||||||||||||||||||||||||||||||||||||||||||||||||||||||||||||||1012.2||1|AUTO_4-USA|223|ICAO-K3A6|0.0|4-Steady;-|1|AUTO_4-USA|223|ICAO-K3A6|||||||||||||||||||||||||||||||||||||MET075METAR K3A6 011410Z AUTO 36003KT 15/09 A2989 RMK AO1 SLP139 T01520086 54000;||A||223|ICAO-K3A6
USI0000K3A6|NEWHALL|2011|09|01|14|30|34.3700|-118.5700|427.0|17.0||1|AUTO_4-USA|223|ICAO-K3A6|6.0||1|AUTO_4-USA|223|ICAO-K3A6|||||||1013.7||1|AUTO_4-USA|223|ICAO-K3A6|360|N-Normal|1|AUTO_4-USA|223|ICAO-K3A6|1.5|N-Normal|1|AUTO_4-USA|223|ICAO-K3A6|||||||||||||49|Derived||AUTO_4-USA|223|ICAO-K3A6|||||||||||||||||||||||||||||||||||||||||||||||||||||||||||||||||||||||||1012.2||1|AUTO_4-USA|223|ICAO-K3A6|0.0|4-Steady;-|1|AUTO_4-USA|223|ICAO-K3A6|||||||||||||||||||||||||||||||||||||MET075METAR K3A6 011430Z AUTO 36003KT 17/06 A2989 RMK AO1 SLP137 T01690064 54000;||A||223|ICAO-K3A6
USI0000K3A6|NEWHALL|2011|09|01|14|50|34.3700|-118.5700|427.0|18.0||1|AUTO_4-USA|223|ICAO-K3A6|6.0||1|AUTO_4-USA|223|ICAO-K3A6|||||||1013.6||1|AUTO_4-USA|223|ICAO-K3A6|360|N-Normal|1|AUTO_4-USA|223|ICAO-K3A6|1.0|N-Normal|1|AUTO_4-USA|223|ICAO-K3A6|||||||||||||46|Derived||AUTO_4-USA|223|ICAO-K3A6|||||||||||||||||||||||||||||||||||||||||||||||||||||||||||||||||||||||||1012.2||1|AUTO_4-USA|223|ICAO-K3A6|0.0|4-Steady;-|1|AUTO_4-USA|223|ICAO-K3A6|||||||||||||||||||||||||||||||||||||MET075METAR K3A6 011450Z AUTO 36002KT 18/06 A2989 RMK AO1 SLP136 T01830055 54000;||A||223|ICAO-K3A6
USI0000K3A6|NEWHALL|2011|09|01|15|10|34.3700|-118.5700|427.0|20.0||1|AUTO_4-USA|223|ICAO-K3A6|6.0||1|AUTO_4-USA|223|ICAO-K3A6|||||||1013.5||1|AUTO_4-USA|223|ICAO-K3A6|360|N-Normal|1|AUTO_4-USA|223|ICAO-K3A6|1.0|N-Normal|1|AUTO_4-USA|223|ICAO-K3A6|||||||||||||40|Derived||AUTO_4-USA|223|ICAO-K3A6|||||||||||||||||||||||||||||||||||||||||||||||||||||||||||||||||||||||||1012.2||1|AUTO_4-USA|223|ICAO-K3A6|||||||||||||||||||||||||||||||||||||||||||MET069METAR K3A6 011510Z AUTO 36002KT 20/06 A2989 RMK AO1 SLP135 T02010056;||A||223|ICAO-K3A6
USI0000K3A6|NEWHALL|2011|09|01|15|30|34.3700|-118.5700|427.0|20.0||1|AUTO_4-USA|223|ICAO-K3A6|6.0||1|AUTO_4-USA|223|ICAO-K3A6|||||||1013.6||1|AUTO_4-USA|223|ICAO-K3A6|360|N-Normal|1|AUTO_4-USA|223|ICAO-K3A6|1.5|N-Normal|1|AUTO_4-USA|223|ICAO-K3A6|||||||||||||40|Derived||AUTO_4-USA|223|ICAO-K3A6|||||||||||||||||||||||||||||||||||||||||||||||||||||||||||||||||||||||||1012.5||1|AUTO_4-USA|223|ICAO-K3A6|||||||||||||||||||||||||||||||||||||||||||MET069METAR K3A6 011530Z AUTO 36003KT 20/06 A2990 RMK AO1 SLP136 T01990059;||A||223|ICAO-K3A6
USI0000K3A6|NEWHALL|2011|09|01|15|50|34.3700|-118.5700|427.0|21.0||1|AUTO_4-USA|223|ICAO-K3A6|8.0||1|AUTO_4-USA|223|ICAO-K3A6|||||||1013.4||1|AUTO_4-USA|223|ICAO-K3A6|360|N-Normal|1|AUTO_4-USA|223|ICAO-K3A6|1.0|N-Normal|1|AUTO_4-USA|223|ICAO-K3A6|||||||||||||43|Derived||AUTO_4-USA|223|ICAO-K3A6|||||||||||||||||||||||||||||||||||||||||||||||||||||||||||||||||||||||||1012.5||1|AUTO_4-USA|223|ICAO-K3A6|||||||||||||||||||||||||||||||||||||||||||MET069METAR K3A6 011550Z AUTO 36002KT 21/08 A2990 RMK AO1 SLP134 T02090075;||A||223|ICAO-K3A6
USI0000K3A6|NEWHALL|2011|09|01|16|10|34.3700|-118.5700|427.0|23.0||1|AUTO_4-USA|223|ICAO-K3A6|9.0||1|AUTO_4-USA|223|ICAO-K3A6|||||||1013.3||1|AUTO_4-USA|223|ICAO-K3A6|360|N-Normal|1|AUTO_4-USA|223|ICAO-K3A6|0.5|N-Normal|1|AUTO_4-USA|223|ICAO-K3A6|||||||||||||41|Derived||AUTO_4-USA|223|ICAO-K3A6|||||||||||||||||||||||||||||||||||||||||||||||||||||||||||||||||||||||||1012.5||1|AUTO_4-USA|223|ICAO-K3A6|||||||||||||||||||||||||||||||||||||||||||MET069METAR K3A6 011610Z AUTO 36001KT 23/09 A2990 RMK AO1 SLP133 T02290086;||A||223|ICAO-K3A6
USI0000K3A6|NEWHALL|2011|09|01|16|30|34.3700|-118.5700|427.0|25.0||1|AUTO_4-USA|223|ICAO-K3A6|8.0||1|AUTO_4-USA|223|ICAO-K3A6|||||||1013.3||1|AUTO_4-USA|223|ICAO-K3A6|360|N-Normal|1|AUTO_4-USA|223|ICAO-K3A6|0.5|N-Normal|1|AUTO_4-USA|223|ICAO-K3A6|||||||||||||34|Derived||AUTO_4-USA|223|ICAO-K3A6|||||||||||||||||||||||||||||||||||||||||||||||||||||||||||||||||||||||||1012.5||1|AUTO_4-USA|223|ICAO-K3A6|||||||||||||||||||||||||||||||||||||||||||MET069METAR K3A6 011630Z AUTO 36001KT 25/08 A2990 RMK AO1 SLP133 T02490079;||A||223|ICAO-K3A6
USI0000K3A6|NEWHALL|2011|09|01|16|50|34.3700|-118.5700|427.0|26.0||1|AUTO_4-USA|223|ICAO-K3A6|8.0||1|AUTO_4-USA|223|ICAO-K3A6|||||||1013.1||1|AUTO_4-USA|223|ICAO-K3A6|360|N-Normal|1|AUTO_4-USA|223|ICAO-K3A6|1.0|N-Normal|1|AUTO_4-USA|223|ICAO-K3A6|||||||||||||32|Derived||AUTO_4-USA|223|ICAO-K3A6|||||||||||||||||||||||||||||||||||||||||||||||||||||||||||||||||||||||||1012.5||1|AUTO_4-USA|223|ICAO-K3A6|||||||||||||||||||||||||||||||||||||||||||MET069METAR K3A6 011650Z AUTO 36002KT 26/08 A2990 RMK AO1 SLP131 T02610081;||A||223|ICAO-K3A6
USI0000K3A6|NEWHALL|2011|09|01|17|10|34.3700|-118.5700|427.0|28.0||1|AUTO_4-USA|223|ICAO-K3A6|8.0||1|AUTO_4-USA|223|ICAO-K3A6|||||||1013.0||1|AUTO_4-USA|223|ICAO-K3A6|360|N-Normal|1|AUTO_4-USA|223|ICAO-K3A6|1.0|N-Normal|1|AUTO_4-USA|223|ICAO-K3A6|||||||||||||28|Derived||AUTO_4-USA|223|ICAO-K3A6|||||||||||||||||||||||||||||||||||||||||||||||||||||||||||||||||||||||||1012.5||1|AUTO_4-USA|223|ICAO-K3A6|0.9|3-Decr-or-|1|AUTO_4-USA|223|ICAO-K3A6|||||||||||||||||||||||||||||||||||||MET087METAR K3A6 011710Z AUTO 36002KT 28/08 A2990 RMK AO1 SLP130 T02760084 10276 20129 53009;||A||223|ICAO-K3A6
USI0000K3A6|NEWHALL|2011|09|01|17|30|34.3700|-118.5700|427.0|29.0||1|AUTO_4-USA|223|ICAO-K3A6|9.0||1|AUTO_4-USA|223|ICAO-K3A6|||||||1012.8||1|AUTO_4-USA|223|ICAO-K3A6|360|N-Normal|1|AUTO_4-USA|223|ICAO-K3A6|1.0|N-Normal|1|AUTO_4-USA|223|ICAO-K3A6|||||||||||||29|Derived||AUTO_4-USA|223|ICAO-K3A6|||||||||||||||||||||||||||||||||||||||||||||||||||||||||||||||||||||||||1012.5||1|AUTO_4-USA|223|ICAO-K3A6|1.2|2-Incr-(st|1|AUTO_4-USA|223|ICAO-K3A6|||||||||||||||||||||||||||||||||||||MET087METAR K3A6 011730Z AUTO 36002KT 29/09 A2990 RMK AO1 SLP128 T02910092 10291 20129 52012;||A||223|ICAO-K3A6
USI0000K3A6|NEWHALL|2011|09|01|17|50|34.3700|-118.5700|427.0|31.0||1|AUTO_4-USA|223|ICAO-K3A6|9.0||1|AUTO_4-USA|223|ICAO-K3A6|||||||1012.7||1|AUTO_4-USA|223|ICAO-K3A6|360|N-Normal|1|AUTO_4-USA|223|ICAO-K3A6|0.5|N-Normal|1|AUTO_4-USA|223|ICAO-K3A6|||||||||||||25|Derived||AUTO_4-USA|223|ICAO-K3A6|||||||||||||||||||||||||||||||||||||||||||||||||||||||||||||||||||||||||1012.5||1|AUTO_4-USA|223|ICAO-K3A6|1.2|2-Incr-(st|1|AUTO_4-USA|223|ICAO-K3A6|||||||||||||||||||||||||||||||||||||MET087METAR K3A6 011750Z AUTO 36001KT 31/09 A2990 RMK AO1 SLP127 T03070090 10307 20129 52012;||A||223|ICAO-K3A6
USI0000K3A6|NEWHALL|2011|09|01|18|10|34.3700|-118.5700|427.0|32.0||1|AUTO_4-USA|223|ICAO-K3A6|8.0||1|AUTO_4-USA|223|ICAO-K3A6|||||||1012.3||1|AUTO_4-USA|223|ICAO-K3A6|360|N-Normal|1|AUTO_4-USA|223|ICAO-K3A6|1.0|N-Normal|1|AUTO_4-USA|223|ICAO-K3A6|||||||||||||22|Derived||AUTO_4-USA|223|ICAO-K3A6|||||||||||||||||||||||||||||||||||||||||||||||||||||||||||||||||||||||||1012.5||1|AUTO_4-USA|223|ICAO-K3A6|||||||||||||||||||||||||||||||||||||||||||MET069METAR K3A6 011810Z AUTO 36002KT 32/08 A2990 RMK AO1 SLP123 T03160085;||A||223|ICAO-K3A6
USI0000K3A6|NEWHALL|2011|09|01|18|30|34.3700|-118.5700|427.0|32.0||1|AUTO_4-USA|223|ICAO-K3A6|8.0||1|AUTO_4-USA|223|ICAO-K3A6|||||||1012.1||1|AUTO_4-USA|223|ICAO-K3A6|360|N-Normal|1|AUTO_4-USA|223|ICAO-K3A6|1.0|N-Normal|1|AUTO_4-USA|223|ICAO-K3A6|||||||||||||22|Derived||AUTO_4-USA|223|ICAO-K3A6|||||||||||||||||||||||||||||||||||||||||||||||||||||||||||||||||||||||||1012.2||1|AUTO_4-USA|223|ICAO-K3A6|||||||||||||||||||||||||||||||||||||||||||MET069METAR K3A6 011830Z AUTO 36002KT 32/08 A2989 RMK AO1 SLP121 T03230078;||A||223|ICAO-K3A6
USI0000K3A6|NEWHALL|2011|09|02|03|10|34.3700|-118.5700|427.0|35.0||1|AUTO_4-USA|223|ICAO-K3A6|13.0||1|AUTO_4-USA|223|ICAO-K3A6|||||||1009.8||1|AUTO_4-USA|223|ICAO-K3A6|360|N-Normal|1|AUTO_4-USA|223|ICAO-K3A6|1.5|N-Normal|1|AUTO_4-USA|223|ICAO-K3A6|7.2||1|AUTO_4-USA|223|ICAO-K3A6|||||||26|Derived||AUTO_4-USA|223|ICAO-K3A6|||||||||||||||||||||||||||||||||||||||||||||||||||||||||||||||||||||||||1010.8||1|AUTO_4-USA|223|ICAO-K3A6|||||||||||||||||||||||||||||||||||||||||||MET072METAR K3A6 020310Z AUTO 36003G14KT 35/13 A2985 RMK AO1 SLP098 T03470126;||A||223|ICAO-K3A6
USI0000K3A6|NEWHALL|2011|09|02|03|30|34.3700|-118.5700|427.0|24.0||1|AUTO_4-USA|223|ICAO-K3A6|11.0||1|AUTO_4-USA|223|ICAO-K3A6|||||||1009.9||1|AUTO_4-USA|223|ICAO-K3A6|360|N-Normal|1|AUTO_4-USA|223|ICAO-K3A6|1.0|N-Normal|1|AUTO_4-USA|223|ICAO-K3A6|||||||||||||44|Derived||AUTO_4-USA|223|ICAO-K3A6|||||||||||||||||||||||||||||||||||||||||||||||||||||||||||||||||||||||||1011.2||1|AUTO_4-USA|223|ICAO-K3A6|||||||||||||||||||||||||||||||||||||||||||MET069METAR K3A6 020330Z AUTO 36002KT 24/11 A2986 RMK AO1 SLP099 T02360109;||A||223|ICAO-K3A6
USI0000K3A6|NEWHALL|2011|09|02|03|50|34.3700|-118.5700|427.0|23.0||1|AUTO_4-USA|223|ICAO-K3A6|9.0||1|AUTO_4-USA|223|ICAO-K3A6|||||||1009.7||1|AUTO_4-USA|223|ICAO-K3A6|360|N-Normal|1|AUTO_4-USA|223|ICAO-K3A6|1.0|N-Normal|1|AUTO_4-USA|223|ICAO-K3A6|||||||||||||41|Derived||AUTO_4-USA|223|ICAO-K3A6|||||||||||||||||||||||||||||||||||||||||||||||||||||||||||||||||||||||||1011.2||1|AUTO_4-USA|223|ICAO-K3A6|||||||||||||||||||||||||||||||||||||||||||MET069METAR K3A6 020350Z AUTO 36002KT 23/09 A2986 RMK AO1 SLP097 T02340086;||A||223|ICAO-K3A6
USI0000K3A6|NEWHALL|2011|09|02|04|10|34.3700|-118.5700|427.0|23.0||1|AUTO_4-USA|223|ICAO-K3A6|9.0||1|AUTO_4-USA|223|ICAO-K3A6|||||||1010.0||1|AUTO_4-USA|223|ICAO-K3A6|360|N-Normal|1|AUTO_4-USA|223|ICAO-K3A6|0.5|N-Normal|1|AUTO_4-USA|223|ICAO-K3A6|||||||||||||41|Derived||AUTO_4-USA|223|ICAO-K3A6|||||||||||||||||||||||||||||||||||||||||||||||||||||||||||||||||||||||||1011.5||1|AUTO_4-USA|223|ICAO-K3A6|||||||||||||||||||||||||||||||||||||||||||MET069METAR K3A6 020410Z AUTO 36001KT 23/09 A2987 RMK AO1 SLP100 T02280092;||A||223|ICAO-K3A6
USI0000K3A6|NEWHALL|2011|09|02|04|30|34.3700|-118.5700|427.0|22.0||1|AUTO_4-USA|223|ICAO-K3A6|10.0||1|AUTO_4-USA|223|ICAO-K3A6|||||||1010.0||1|AUTO_4-USA|223|ICAO-K3A6|360|N-Normal|1|AUTO_4-USA|223|ICAO-K3A6|1.0|N-Normal|1|AUTO_4-USA|223|ICAO-K3A6|||||||||||||47|Derived||AUTO_4-USA|223|ICAO-K3A6|||||||||||||||||||||||||||||||||||||||||||||||||||||||||||||||||||||||||1011.5||1|AUTO_4-USA|223|ICAO-K3A6|||||||||||||||||||||||||||||||||||||||||||MET069METAR K3A6 020430Z AUTO 36002KT 22/10 A2987 RMK AO1 SLP100 T02160098;||A||223|ICAO-K3A6
USI0000K3A6|NEWHALL|2011|09|02|04|50|34.3700|-118.5700|427.0|22.0||1|AUTO_4-USA|223|ICAO-K3A6|8.0||1|AUTO_4-USA|223|ICAO-K3A6|||||||1010.3||1|AUTO_4-USA|223|ICAO-K3A6|360|N-Normal|1|AUTO_4-USA|223|ICAO-K3A6|1.5|N-Normal|1|AUTO_4-USA|223|ICAO-K3A6|||||||||||||41|Derived||AUTO_4-USA|223|ICAO-K3A6|||||||||||||||||||||||||||||||||||||||||||||||||||||||||||||||||||||||||1011.5||1|AUTO_4-USA|223|ICAO-K3A6|||||||||||||||||||||||||||||||||||||||||||MET069METAR K3A6 020450Z AUTO 36003KT 22/08 A2987 RMK AO1 SLP103 T02160084;||A||223|ICAO-K3A6
USI0000K3A6|NEWHALL|2011|09|02|05|10|34.3700|-118.5700|427.0|21.0||1|AUTO_4-USA|223|ICAO-K3A6|7.0||1|AUTO_4-USA|223|ICAO-K3A6|||||||1010.5||1|AUTO_4-USA|223|ICAO-K3A6|360|N-Normal|1|AUTO_4-USA|223|ICAO-K3A6|1.5|N-Normal|1|AUTO_4-USA|223|ICAO-K3A6|||||||||||||40|Derived||AUTO_4-USA|223|ICAO-K3A6|||||||||||||||||||||||||||||||||||||||||||||||||||||||||||||||||||||||||1011.9||1|AUTO_4-USA|223|ICAO-K3A6|0.0|4-Steady;-|1|AUTO_4-USA|223|ICAO-K3A6|||||||||||||||||||||||||||||||||||||MET087METAR K3A6 020510Z AUTO 36003KT 21/07 A2988 RMK AO1 SLP105 T02100068 10347 20210 54000;||A||223|ICAO-K3A6
USI0000K3A6|NEWHALL|2011|09|02|05|30|34.3700|-118.5700|427.0|21.0||1|AUTO_4-USA|223|ICAO-K3A6|8.0||1|AUTO_4-USA|223|ICAO-K3A6|||||||1011.0||1|AUTO_4-USA|223|ICAO-K3A6|360|N-Normal|1|AUTO_4-USA|223|ICAO-K3A6|2.1|N-Normal|1|AUTO_4-USA|223|ICAO-K3A6|||||||||||||43|Derived||AUTO_4-USA|223|ICAO-K3A6|||||||||||||||||||||||||||||||||||||||||||||||||||||||||||||||||||||||||1011.9||1|AUTO_4-USA|223|ICAO-K3A6|0.0|4-Steady;-|1|AUTO_4-USA|223|ICAO-K3A6|||||||||||||||||||||||||||||||||||||MET087METAR K3A6 020530Z AUTO 36004KT 21/08 A2988 RMK AO1 SLP110 T02110083 10347 20210 54000;||A||223|ICAO-K3A6
USI0000K3A6|NEWHALL|2011|09|02|08|50|34.3700|-118.5700|427.0|18.0||1|AUTO_4-USA|223|ICAO-K3A6|8.0||1|AUTO_4-USA|223|ICAO-K3A6|||||||1012.4||1|AUTO_4-USA|223|ICAO-K3A6|360|N-Normal|1|AUTO_4-USA|223|ICAO-K3A6|1.0|N-Normal|1|AUTO_4-USA|223|ICAO-K3A6|||||||||||||52|Derived||AUTO_4-USA|223|ICAO-K3A6|||||||||||||||||||||||||||||||||||||||||||||||||||||||||||||||||||||||||1012.5||1|AUTO_4-USA|223|ICAO-K3A6|0.0|4-Steady;-|1|AUTO_4-USA|223|ICAO-K3A6|||||||||||||||||||||||||||||||||||||MET075METAR K3A6 020850Z AUTO 36002KT 18/08 A2990 RMK AO1 SLP124 T01820076 54000;||A||223|ICAO-K3A6
USI0000K3A6|NEWHALL|2011|09|02|09|10|34.3700|-118.5700|427.0|18.0||1|AUTO_4-USA|223|ICAO-K3A6|7.0||1|AUTO_4-USA|223|ICAO-K3A6|||||||1012.5||1|AUTO_4-USA|223|ICAO-K3A6|360|N-Normal|1|AUTO_4-USA|223|ICAO-K3A6|0.5|N-Normal|1|AUTO_4-USA|223|ICAO-K3A6|||||||||||||49|Derived||AUTO_4-USA|223|ICAO-K3A6|||||||||||||||||||||||||||||||||||||||||||||||||||||||||||||||||||||||||1012.5||1|AUTO_4-USA|223|ICAO-K3A6|||||||||||||||||||||||||||||||||||||||||||MET069METAR K3A6 020910Z AUTO 36001KT 18/07 A2990 RMK AO1 SLP125 T01770071;||A||223|ICAO-K3A6
USI0000K3A6|NEWHALL|2011|09|02|09|30|34.3700|-118.5700|427.0|17.0||1|AUTO_4-USA|223|ICAO-K3A6|8.0||1|AUTO_4-USA|223|ICAO-K3A6|||||||1012.6||1|AUTO_4-USA|223|ICAO-K3A6|360|N-Normal|1|AUTO_4-USA|223|ICAO-K3A6|1.0|N-Normal|1|AUTO_4-USA|223|ICAO-K3A6|||||||||||||56|Derived||AUTO_4-USA|223|ICAO-K3A6|||||||||||||||||||||||||||||||||||||||||||||||||||||||||||||||||||||||||1012.5||1|AUTO_4-USA|223|ICAO-K3A6|||||||||||||||||||||||||||||||||||||||||||MET069METAR K3A6 020930Z AUTO 36002KT 17/08 A2990 RMK AO1 SLP126 T01720078;||A||223|ICAO-K3A6
USI0000K3A6|NEWHALL|2011|09|02|09|50|34.3700|-118.5700|427.0|18.0||1|AUTO_4-USA|223|ICAO-K3A6|7.0||1|AUTO_4-USA|223|ICAO-K3A6|||||||1012.7||1|AUTO_4-USA|223|ICAO-K3A6|360|N-Normal|1|AUTO_4-USA|223|ICAO-K3A6|1.0|N-Normal|1|AUTO_4-USA|223|ICAO-K3A6|||||||||||||49|Derived||AUTO_4-USA|223|ICAO-K3A6|||||||||||||||||||||||||||||||||||||||||||||||||||||||||||||||||||||||||1012.5||1|AUTO_4-USA|223|ICAO-K3A6|||||||||||||||||||||||||||||||||||||||||||MET069METAR K3A6 020950Z AUTO 36002KT 18/07 A2990 RMK AO1 SLP127 T01760069;||A||223|ICAO-K3A6
USI0000K3A6|NEWHALL|2011|09|02|15|10|34.3700|-118.5700|427.0|22.0||1|AUTO_4-USA|223|ICAO-K3A6|5.0||1|AUTO_4-USA|223|ICAO-K3A6|||||||1013.5||1|AUTO_4-USA|223|ICAO-K3A6|360|N-Normal|1|AUTO_4-USA|223|ICAO-K3A6|0.5|N-Normal|1|AUTO_4-USA|223|ICAO-K3A6|||||||||||||33|Derived||AUTO_4-USA|223|ICAO-K3A6|||||||||||||||||||||||||||||||||||||||||||||||||||||||||||||||||||||||||1013.2||1|AUTO_4-USA|223|ICAO-K3A6|||||||||||||||||||||||||||||||||||||||||||MET069METAR K3A6 021510Z AUTO 36001KT 22/05 A2992 RMK AO1 SLP135 T02250046;||A||223|ICAO-K3A6
USI0000K3A6|NEWHALL|2011|09|02|15|30|34.3700|-118.5700|427.0|24.0||1|AUTO_4-USA|223|ICAO-K3A6|4.0||1|AUTO_4-USA|223|ICAO-K3A6|||||||1013.7||1|AUTO_4-USA|223|ICAO-K3A6|360|N-Normal|1|AUTO_4-USA|223|ICAO-K3A6|1.0|N-Normal|1|AUTO_4-USA|223|ICAO-K3A6|||||||||||||27|Derived||AUTO_4-USA|223|ICAO-K3A6|||||||||||||||||||||||||||||||||||||||||||||||||||||||||||||||||||||||||1013.5||1|AUTO_4-USA|223|ICAO-K3A6|||||||||||||||||||||||||||||||||||||||||||MET069METAR K3A6 021530Z AUTO 36002KT 24/04 A2993 RMK AO1 SLP137 T02400044;||A||223|ICAO-K3A6
USI0000K3A6|NEWHALL|2011|09|02|15|50|34.3700|-118.5700|427.0|25.0||1|AUTO_4-USA|223|ICAO-K3A6|5.0||1|AUTO_4-USA|223|ICAO-K3A6|||||||1013.7||1|AUTO_4-USA|223|ICAO-K3A6|360|N-Normal|1|AUTO_4-USA|223|ICAO-K3A6|0.5|N-Normal|1|AUTO_4-USA|223|ICAO-K3A6|||||||||||||28|Derived||AUTO_4-USA|223|ICAO-K3A6|||||||||||||||||||||||||||||||||||||||||||||||||||||||||||||||||||||||||1013.5||1|AUTO_4-USA|223|ICAO-K3A6|||||||||||||||||||||||||||||||||||||||||||MET069METAR K3A6 021550Z AUTO 36001KT 25/05 A2993 RMK AO1 SLP137 T02510048;||A||223|ICAO-K3A6
USI0000K3A6|NEWHALL|2011|09|02|16|10|34.3700|-118.5700|427.0|27.0||1|AUTO_4-USA|223|ICAO-K3A6|6.0||1|AUTO_4-USA|223|ICAO-K3A6|||||||1013.6||1|AUTO_4-USA|223|ICAO-K3A6|360|N-Normal|1|AUTO_4-USA|223|ICAO-K3A6|0.5|N-Normal|1|AUTO_4-USA|223|ICAO-K3A6|||||||||||||26|Derived||AUTO_4-USA|223|ICAO-K3A6|||||||||||||||||||||||||||||||||||||||||||||||||||||||||||||||||||||||||1013.5||1|AUTO_4-USA|223|ICAO-K3A6|||||||||||||||||||||||||||||||||||||||||||MET069METAR K3A6 021610Z AUTO 36001KT 27/06 A2993 RMK AO1 SLP136 T02720060;||A||223|ICAO-K3A6
USI0000K3A6|NEWHALL|2011|09|02|16|30|34.3700|-118.5700|427.0|16.0||1|AUTO_4-USA|223|ICAO-K3A6|6.0||1|AUTO_4-USA|223|ICAO-K3A6|||||||1013.7||1|AUTO_4-USA|223|ICAO-K3A6|360|N-Normal|1|AUTO_4-USA|223|ICAO-K3A6|1.0|N-Normal|1|AUTO_4-USA|223|ICAO-K3A6|||||||||||||52|Derived||AUTO_4-USA|223|ICAO-K3A6|||||||||||||||||||||||||||||||||||||||||||||||||||||||||||||||||||||||||1013.5||1|AUTO_4-USA|223|ICAO-K3A6|||||||||||||||||||||||||||||||||||||||||||MET069METAR K3A6 021630Z AUTO 36002KT 16/06 A2993 RMK AO1 SLP137 T01620059;||A||223|ICAO-K3A6
USI0000K3A6|NEWHALL|2011|09|02|16|50|34.3700|-118.5700|427.0|29.0||1|AUTO_4-USA|223|ICAO-K3A6|7.0||1|AUTO_4-USA|223|ICAO-K3A6|||||||1013.7||1|AUTO_4-USA|223|ICAO-K3A6|360|N-Normal|1|AUTO_4-USA|223|ICAO-K3A6|0.5|N-Normal|1|AUTO_4-USA|223|ICAO-K3A6|||||||||||||25|Derived||AUTO_4-USA|223|ICAO-K3A6|||||||||||||||||||||||||||||||||||||||||||||||||||||||||||||||||||||||||1013.9||1|AUTO_4-USA|223|ICAO-K3A6|||||||||||||||||||||||||||||||||||||||||||MET069METAR K3A6 021650Z AUTO 36001KT 29/07 A2994 RMK AO1 SLP137 T02920071;||A||223|ICAO-K3A6
USI0000K3A6|NEWHALL|2011|09|02|18|50|34.3700|-118.5700|427.0|34.0||1|AUTO_4-USA|223|ICAO-K3A6|9.0||1|AUTO_4-USA|223|ICAO-K3A6|||||||1013.3||1|AUTO_4-USA|223|ICAO-K3A6|360|N-Normal|1|AUTO_4-USA|223|ICAO-K3A6|1.5|N-Normal|1|AUTO_4-USA|223|ICAO-K3A6|||||||||||||21|Derived||AUTO_4-USA|223|ICAO-K3A6|||||||||||||||||||||||||||||||||||||||||||||||||||||||||||||||||||||||||1013.5||1|AUTO_4-USA|223|ICAO-K3A6|||||||||||||||||||||||||||||||||||||||||||MET069METAR K3A6 021850Z AUTO 36003KT 34/09 A2993 RMK AO1 SLP133 T03430095;||A||223|ICAO-K3A6
USI0000K3A6|NEWHALL|2011|09|02|20|30|34.3700|-118.5700|427.0|35.0||1|AUTO_4-USA|223|ICAO-K3A6|10.0||1|AUTO_4-USA|223|ICAO-K3A6|||||||1012.5||1|AUTO_4-USA|223|ICAO-K3A6|360|N-Normal|1|AUTO_4-USA|223|ICAO-K3A6|1.5|N-Normal|1|AUTO_4-USA|223|ICAO-K3A6|||||||||||||22|Derived||AUTO_4-USA|223|ICAO-K3A6|||||||||||||||||||||||||||||||||||||||||||||||||||||||||||||||||||||||||1013.2||1|AUTO_4-USA|223|ICAO-K3A6|0.0|4-Steady;-|1|AUTO_4-USA|223|ICAO-K3A6|||||||||||||||||||||||||||||||||||||MET075METAR K3A6 022030Z AUTO 36003KT 35/10 A2992 RMK AO1 SLP125 T03460104 54000;||A||223|ICAO-K3A6
USI0000K3A6|NEWHALL|2011|09|02|20|50|34.3700|-118.5700|427.0|35.0||1|AUTO_4-USA|223|ICAO-K3A6|10.0||1|AUTO_4-USA|223|ICAO-K3A6|||||||1012.1||1|AUTO_4-USA|223|ICAO-K3A6|360|N-Normal|1|AUTO_4-USA|223|ICAO-K3A6|2.1|N-Normal|1|AUTO_4-USA|223|ICAO-K3A6|||||||||||||22|Derived||AUTO_4-USA|223|ICAO-K3A6|||||||||||||||||||||||||||||||||||||||||||||||||||||||||||||||||||||||||1012.9||1|AUTO_4-USA|223|ICAO-K3A6|0.0|4-Steady;-|1|AUTO_4-USA|223|ICAO-K3A6|||||||||||||||||||||||||||||||||||||MET075METAR K3A6 022050Z AUTO 36004KT 35/10 A2991 RMK AO1 SLP121 T03460104 54000;||A||223|ICAO-K3A6
USI0000K3A6|NEWHALL|2011|09|02|21|10|34.3700|-118.5700|427.0|34.0||1|AUTO_4-USA|223|ICAO-K3A6|10.0||1|AUTO_4-USA|223|ICAO-K3A6|||||||1011.7||1|AUTO_4-USA|223|ICAO-K3A6|360|N-Normal|1|AUTO_4-USA|223|ICAO-K3A6|3.1|N-Normal|1|AUTO_4-USA|223|ICAO-K3A6|||||||||||||23|Derived||AUTO_4-USA|223|ICAO-K3A6|||||||||||||||||||||||||||||||||||||||||||||||||||||||||||||||||||||||||1012.9||1|AUTO_4-USA|223|ICAO-K3A6|||||||||||||||||||||||||||||||||||||||||||MET069METAR K3A6 022110Z AUTO 36006KT 34/10 A2991 RMK AO1 SLP117 T03450097;||A||223|ICAO-K3A6
USI0000K3A6|NEWHALL|2011|09|02|21|30|34.3700|-118.5700|427.0|35.0||1|AUTO_4-USA|223|ICAO-K3A6|11.0||1|AUTO_4-USA|223|ICAO-K3A6|||||||1011.1||1|AUTO_4-USA|223|ICAO-K3A6|360|N-Normal|1|AUTO_4-USA|223|ICAO-K3A6|3.1|N-Normal|1|AUTO_4-USA|223|ICAO-K3A6|||||||||||||23|Derived||AUTO_4-USA|223|ICAO-K3A6|||||||||||||||||||||||||||||||||||||||||||||||||||||||||||||||||||||||||1012.5||1|AUTO_4-USA|223|ICAO-K3A6|||||||||||||||||||||||||||||||||||||||||||MET069METAR K3A6 022130Z AUTO 36006KT 35/11 A2990 RMK AO1 SLP111 T03520109;||A||223|ICAO-K3A6
USI0000K3A6|NEWHALL|2011|09|02|21|50|34.3700|-118.5700|427.0|35.0||1|AUTO_4-USA|223|ICAO-K3A6|9.0||1|AUTO_4-USA|223|ICAO-K3A6|||||||1010.6||1|AUTO_4-USA|223|ICAO-K3A6|360|N-Normal|1|AUTO_4-USA|223|ICAO-K3A6|2.6|N-Normal|1|AUTO_4-USA|223|ICAO-K3A6|||||||||||||20|Derived||AUTO_4-USA|223|ICAO-K3A6|||||||||||||||||||||||||||||||||||||||||||||||||||||||||||||||||||||||||1012.5||1|AUTO_4-USA|223|ICAO-K3A6|||||||||||||||||||||||||||||||||||||||||||MET069METAR K3A6 022150Z AUTO 36005KT 35/09 A2990 RMK AO1 SLP106 T03480092;||A||223|ICAO-K3A6
USI0000K3A6|NEWHALL|2011|09|03|00|30|34.3700|-118.5700|427.0|30.0||1|AUTO_4-USA|223|ICAO-K3A6|11.0||1|AUTO_4-USA|223|ICAO-K3A6|||||||1009.9||1|AUTO_4-USA|223|ICAO-K3A6|360|N-Normal|1|AUTO_4-USA|223|ICAO-K3A6|3.1|N-Normal|1|AUTO_4-USA|223|ICAO-K3A6|||||||||||||31|Derived||AUTO_4-USA|223|ICAO-K3A6|||||||||||||||||||||||||||||||||||||||||||||||||||||||||||||||||||||||||1011.9||1|AUTO_4-USA|223|ICAO-K3A6|||||||||||||||||||||||||||||||||||||||||||MET069METAR K3A6 030030Z AUTO 36006KT 30/11 A2988 RMK AO1 SLP099 T03050109;||A||223|ICAO-K3A6
USI0000K3A6|NEWHALL|2011|09|03|00|50|34.3700|-118.5700|427.0|29.0||1|AUTO_4-USA|223|ICAO-K3A6|12.0||1|AUTO_4-USA|223|ICAO-K3A6|||||||1009.9||1|AUTO_4-USA|223|ICAO-K3A6|360|N-Normal|1|AUTO_4-USA|223|ICAO-K3A6|3.6|N-Normal|1|AUTO_4-USA|223|ICAO-K3A6|||||||||||||35|Derived||AUTO_4-USA|223|ICAO-K3A6|||||||||||||||||||||||||||||||||||||||||||||||||||||||||||||||||||||||||1011.9||1|AUTO_4-USA|223|ICAO-K3A6|||||||||||||||||||||||||||||||||||||||||||MET069METAR K3A6 030050Z AUTO 36007KT 29/12 A2988 RMK AO1 SLP099 T02940119;||A||223|ICAO-K3A6
USI0000K3A6|NEWHALL|2011|09|03|01|10|34.3700|-118.5700|427.0|28.0||1|AUTO_4-USA|223|ICAO-K3A6|12.0||1|AUTO_4-USA|223|ICAO-K3A6|||||||1009.9||1|AUTO_4-USA|223|ICAO-K3A6|360|N-Normal|1|AUTO_4-USA|223|ICAO-K3A6|3.6|N-Normal|1|AUTO_4-USA|223|ICAO-K3A6|||||||||||||37|Derived||AUTO_4-USA|223|ICAO-K3A6|||||||||||||||||||||||||||||||||||||||||||||||||||||||||||||||||||||||||1011.9||1|AUTO_4-USA|223|ICAO-K3A6|||||||||||||||||||||||||||||||||||||||||||MET069METAR K3A6 030110Z AUTO 36007KT 28/12 A2988 RMK AO1 SLP099 T02840119;||A||223|ICAO-K3A6
USI0000K3A6|NEWHALL|2011|09|03|01|30|34.3700|-118.5700|427.0|27.0||1|AUTO_4-USA|223|ICAO-K3A6|12.0||1|AUTO_4-USA|223|ICAO-K3A6|||||||1010.0||1|AUTO_4-USA|223|ICAO-K3A6|360|N-Normal|1|AUTO_4-USA|223|ICAO-K3A6|3.1|N-Normal|1|AUTO_4-USA|223|ICAO-K3A6|||||||||||||39|Derived||AUTO_4-USA|223|ICAO-K3A6|||||||||||||||||||||||||||||||||||||||||||||||||||||||||||||||||||||||||1011.9||1|AUTO_4-USA|223|ICAO-K3A6|||||||||||||||||||||||||||||||||||||||||||MET069METAR K3A6 030130Z AUTO 36006KT 27/12 A2988 RMK AO1 SLP100 T02660119;||A||223|ICAO-K3A6
USI0000K3A6|NEWHALL|2011|09|03|02|10|34.3700|-118.5700|427.0|24.0||1|AUTO_4-USA|223|ICAO-K3A6|11.0||1|AUTO_4-USA|223|ICAO-K3A6|||||||1010.0||1|AUTO_4-USA|223|ICAO-K3A6|360|N-Normal|1|AUTO_4-USA|223|ICAO-K3A6|3.6|N-Normal|1|AUTO_4-USA|223|ICAO-K3A6|||||||||||||44|Derived||AUTO_4-USA|223|ICAO-K3A6|||||||||||||||||||||||||||||||||||||||||||||||||||||||||||||||||||||||||1011.9||1|AUTO_4-USA|223|ICAO-K3A6|0.0|4-Steady;-|1|AUTO_4-USA|223|ICAO-K3A6|||||||||||||||||||||||||||||||||||||MET075METAR K3A6 030210Z AUTO 36007KT 24/11 A2988 RMK AO1 SLP100 T02410110 54000;||A||223|ICAO-K3A6
USI0000K3A6|NEWHALL|2011|09|03|02|30|34.3700|-118.5700|427.0|23.0||1|AUTO_4-USA|223|ICAO-K3A6|11.0||1|AUTO_4-USA|223|ICAO-K3A6|||||||1010.3||1|AUTO_4-USA|223|ICAO-K3A6|360|N-Normal|1|AUTO_4-USA|223|ICAO-K3A6|3.1|N-Normal|1|AUTO_4-USA|223|ICAO-K3A6|||||||||||||47|Derived||AUTO_4-USA|223|ICAO-K3A6|||||||||||||||||||||||||||||||||||||||||||||||||||||||||||||||||||||||||1012.2||1|AUTO_4-USA|223|ICAO-K3A6|0.0|4-Steady;-|1|AUTO_4-USA|223|ICAO-K3A6|||||||||||||||||||||||||||||||||||||MET075METAR K3A6 030230Z AUTO 36006KT 23/11 A2989 RMK AO1 SLP103 T02290113 54000;||A||223|ICAO-K3A6
USI0000K3A6|NEWHALL|2011|09|03|02|50|34.3700|-118.5700|427.0|22.0||1|AUTO_4-USA|223|ICAO-K3A6|11.0||1|AUTO_4-USA|223|ICAO-K3A6|||||||1010.4||1|AUTO_4-USA|223|ICAO-K3A6|360|N-Normal|1|AUTO_4-USA|223|ICAO-K3A6|2.6|N-Normal|1|AUTO_4-USA|223|ICAO-K3A6|||||||||||||50|Derived||AUTO_4-USA|223|ICAO-K3A6|||||||||||||||||||||||||||||||||||||||||||||||||||||||||||||||||||||||||1012.2||1|AUTO_4-USA|223|ICAO-K3A6|0.0|4-Steady;-|1|AUTO_4-USA|223|ICAO-K3A6|||||||||||||||||||||||||||||||||||||MET075METAR K3A6 030250Z AUTO 36005KT 22/11 A2989 RMK AO1 SLP104 T02220112 54000;||A||223|ICAO-K3A6
USI0000K3A6|NEWHALL|2011|09|03|03|30|34.3700|-118.5700|427.0|24.0||1|AUTO_4-USA|223|ICAO-K3A6|10.0||1|AUTO_4-USA|223|ICAO-K3A6|||||||1010.5||1|AUTO_4-USA|223|ICAO-K3A6|360|N-Normal|1|AUTO_4-USA|223|ICAO-K3A6|1.0|N-Normal|1|AUTO_4-USA|223|ICAO-K3A6|||||||||||||41|Derived||AUTO_4-USA|223|ICAO-K3A6|||||||||||||||||||||||||||||||||||||||||||||||||||||||||||||||||||||||||1012.2||1|AUTO_4-USA|223|ICAO-K3A6|||||||||||||||||||||||||||||||||||||||||||MET069METAR K3A6 030330Z AUTO 36002KT 24/10 A2989 RMK AO1 SLP105 T02360099;||A||223|ICAO-K3A6
USI0000K3A6|NEWHALL|2011|09|03|03|50|34.3700|-118.5700|427.0|24.0||1|AUTO_4-USA|223|ICAO-K3A6|11.0||1|AUTO_4-USA|223|ICAO-K3A6|||||||1010.8||1|AUTO_4-USA|223|ICAO-K3A6|360|N-Normal|1|AUTO_4-USA|223|ICAO-K3A6|1.0|N-Normal|1|AUTO_4-USA|223|ICAO-K3A6|||||||||||||44|Derived||AUTO_4-USA|223|ICAO-K3A6|||||||||||||||||||||||||||||||||||||||||||||||||||||||||||||||||||||||||1012.5||1|AUTO_4-USA|223|ICAO-K3A6|||||||||||||||||||||||||||||||||||||||||||MET069METAR K3A6 030350Z AUTO 36002KT 24/11 A2990 RMK AO1 SLP108 T02360106;||A||223|ICAO-K3A6
USI0000K3A6|NEWHALL|2011|09|03|04|10|34.3700|-118.5700|427.0|24.0||1|AUTO_4-USA|223|ICAO-K3A6|10.0||1|AUTO_4-USA|223|ICAO-K3A6|||||||1011.0||1|AUTO_4-USA|223|ICAO-K3A6|360|N-Normal|1|AUTO_4-USA|223|ICAO-K3A6|1.5|N-Normal|1|AUTO_4-USA|223|ICAO-K3A6|||||||||||||41|Derived||AUTO_4-USA|223|ICAO-K3A6|||||||||||||||||||||||||||||||||||||||||||||||||||||||||||||||||||||||||1012.5||1|AUTO_4-USA|223|ICAO-K3A6|||||||||||||||||||||||||||||||||||||||||||MET069METAR K3A6 030410Z AUTO 36003KT 24/10 A2990 RMK AO1 SLP110 T02360099;||A||223|ICAO-K3A6
USI0000K3A6|NEWHALL|2011|09|03|04|30|34.3700|-118.5700|427.0|22.0||1|AUTO_4-USA|223|ICAO-K3A6|11.0||1|AUTO_4-USA|223|ICAO-K3A6|||||||1011.2||1|AUTO_4-USA|223|ICAO-K3A6|360|N-Normal|1|AUTO_4-USA|223|ICAO-K3A6|1.0|N-Normal|1|AUTO_4-USA|223|ICAO-K3A6|||||||||||||50|Derived||AUTO_4-USA|223|ICAO-K3A6|||||||||||||||||||||||||||||||||||||||||||||||||||||||||||||||||||||||||1012.9||1|AUTO_4-USA|223|ICAO-K3A6|||||||||||||||||||||||||||||||||||||||||||MET069METAR K3A6 030430Z AUTO 36002KT 22/11 A2991 RMK AO1 SLP112 T02250109;||A||223|ICAO-K3A6
USI0000K3A6|NEWHALL|2011|09|03|04|50|34.3700|-118.5700|427.0|21.0||1|AUTO_4-USA|223|ICAO-K3A6|10.0||1|AUTO_4-USA|223|ICAO-K3A6|||||||1011.5||1|AUTO_4-USA|223|ICAO-K3A6|360|N-Normal|1|AUTO_4-USA|223|ICAO-K3A6|1.0|N-Normal|1|AUTO_4-USA|223|ICAO-K3A6|||||||||||||50|Derived||AUTO_4-USA|223|ICAO-K3A6|||||||||||||||||||||||||||||||||||||||||||||||||||||||||||||||||||||||||1012.9||1|AUTO_4-USA|223|ICAO-K3A6|||||||||||||||||||||||||||||||||||||||||||MET069METAR K3A6 030450Z AUTO 36002KT 21/10 A2991 RMK AO1 SLP115 T02130104;||A||223|ICAO-K3A6
USI0000K3A6|NEWHALL|2011|09|03|05|10|34.3700|-118.5700|427.0|21.0||1|AUTO_4-USA|223|ICAO-K3A6|9.0||1|AUTO_4-USA|223|ICAO-K3A6|||||||1011.6||1|AUTO_4-USA|223|ICAO-K3A6|360|N-Normal|1|AUTO_4-USA|223|ICAO-K3A6|1.5|N-Normal|1|AUTO_4-USA|223|ICAO-K3A6|||||||||||||46|Derived||AUTO_4-USA|223|ICAO-K3A6|||||||||||||||||||||||||||||||||||||||||||||||||||||||||||||||||||||||||1012.9||1|AUTO_4-USA|223|ICAO-K3A6|0.0|4-Steady;-|1|AUTO_4-USA|223|ICAO-K3A6|||||||||||||||||||||||||||||||||||||MET087METAR K3A6 030510Z AUTO 36003KT 21/09 A2991 RMK AO1 SLP116 T02070093 10311 20206 54000;||A||223|ICAO-K3A6
USI0000K3A6|NEWHALL|2011|09|03|05|30|34.3700|-118.5700|427.0|21.0||1|AUTO_4-USA|223|ICAO-K3A6|9.0||1|AUTO_4-USA|223|ICAO-K3A6|||||||1011.9||1|AUTO_4-USA|223|ICAO-K3A6|360|N-Normal|1|AUTO_4-USA|223|ICAO-K3A6|0.5|N-Normal|1|AUTO_4-USA|223|ICAO-K3A6|||||||||||||46|Derived||AUTO_4-USA|223|ICAO-K3A6|||||||||||||||||||||||||||||||||||||||||||||||||||||||||||||||||||||||||1013.2||1|AUTO_4-USA|223|ICAO-K3A6|3.2|2-Incr-(st|1|AUTO_4-USA|223|ICAO-K3A6|||||||||||||||||||||||||||||||||||||MET087METAR K3A6 030530Z AUTO 36001KT 21/09 A2992 RMK AO1 SLP119 T02070086 10311 20206 52032;||A||223|ICAO-K3A6
USI0000K3A6|NEWHALL|2011|09|03|05|50|34.3700|-118.5700|427.0|20.0||1|AUTO_4-USA|223|ICAO-K3A6|8.0||1|AUTO_4-USA|223|ICAO-K3A6|||||||1012.0||1|AUTO_4-USA|223|ICAO-K3A6|999|C-Calm|9|AUTO_4-USA|223|ICAO-K3A6|0.0|C-Calm|1|AUTO_4-USA|223|ICAO-K3A6|||||||||||||46|Derived||AUTO_4-USA|223|ICAO-K3A6|||||||||||||||||||||||||||||||||||||||||||||||||||||||||||||||||||||||||1013.2||1|AUTO_4-USA|223|ICAO-K3A6|3.2|2-Incr-(st|1|AUTO_4-USA|223|ICAO-K3A6|||||||||||||||||||||||||||||||||||||MET087METAR K3A6 030550Z AUTO 00000KT 20/08 A2992 RMK AO1 SLP120 T02040080 10311 20204 52032;||A||223|ICAO-K3A6
USI0000K3A6|NEWHALL|2011|09|03|06|10|34.3700|-118.5700|427.0|20.0||1|AUTO_4-USA|223|ICAO-K3A6|9.0||1|AUTO_4-USA|223|ICAO-K3A6|||||||1012.1||1|AUTO_4-USA|223|ICAO-K3A6|360|N-Normal|1|AUTO_4-USA|223|ICAO-K3A6|0.5|N-Normal|1|AUTO_4-USA|223|ICAO-K3A6|||||||||||||49|Derived||AUTO_4-USA|223|ICAO-K3A6|||||||||||||||||||||||||||||||||||||||||||||||||||||||||||||||||||||||||1013.2||1|AUTO_4-USA|223|ICAO-K3A6|||||||||||||||||||||||||||||||||||||||||||MET079METAR K3A6 030610Z AUTO 36001KT 20/09 A2992 RMK AO1 SLP121 T02010090 403620162;||A||223|ICAO-K3A6
USI0000K3A6|NEWHALL|2011|09|03|06|30|34.3700|-118.5700|427.0|20.0||1|AUTO_4-USA|223|ICAO-K3A6|8.0||1|AUTO_4-USA|223|ICAO-K3A6|||||||1012.3||1|AUTO_4-USA|223|ICAO-K3A6|360|N-Normal|1|AUTO_4-USA|223|ICAO-K3A6|0.5|N-Normal|1|AUTO_4-USA|223|ICAO-K3A6|||||||||||||46|Derived||AUTO_4-USA|223|ICAO-K3A6|||||||||||||||||||||||||||||||||||||||||||||||||||||||||||||||||||||||||1013.5||1|AUTO_4-USA|223|ICAO-K3A6|||||||||||||||||||||||||||||||||||||||||||MET079METAR K3A6 030630Z AUTO 36001KT 20/08 A2993 RMK AO1 SLP123 T01950082 403620162;||A||223|ICAO-K3A6
USI0000K3A6|NEWHALL|2011|09|03|06|50|34.3700|-118.5700|427.0|19.0||1|AUTO_4-USA|223|ICAO-K3A6|8.0||1|AUTO_4-USA|223|ICAO-K3A6|||||||1012.4||1|AUTO_4-USA|223|ICAO-K3A6|360|N-Normal|1|AUTO_4-USA|223|ICAO-K3A6|0.5|N-Normal|1|AUTO_4-USA|223|ICAO-K3A6|||||||||||||49|Derived||AUTO_4-USA|223|ICAO-K3A6|||||||||||||||||||||||||||||||||||||||||||||||||||||||||||||||||||||||||1013.5||1|AUTO_4-USA|223|ICAO-K3A6|||||||||||||||||||||||||||||||||||||||||||MET079METAR K3A6 030650Z AUTO 36001KT 19/08 A2993 RMK AO1 SLP124 T01910084 403620162;||A||223|ICAO-K3A6
USI0000K3A6|NEWHALL|2011|09|03|07|30|34.3700|-118.5700|427.0|19.0||1|AUTO_4-USA|223|ICAO-K3A6|9.0||1|AUTO_4-USA|223|ICAO-K3A6|||||||1012.3||1|AUTO_4-USA|223|ICAO-K3A6|360|N-Normal|1|AUTO_4-USA|223|ICAO-K3A6|1.5|N-Normal|1|AUTO_4-USA|223|ICAO-K3A6|||||||||||||52|Derived||AUTO_4-USA|223|ICAO-K3A6|||||||||||||||||||||||||||||||||||||||||||||||||||||||||||||||||||||||||1013.2||1|AUTO_4-USA|223|ICAO-K3A6|||||||||||||||||||||||||||||||||||||||||||MET069METAR K3A6 030730Z AUTO 36003KT 19/09 A2992 RMK AO1 SLP123 T01940090;||A||223|ICAO-K3A6
USI0000K3A6|NEWHALL|2011|09|03|07|50|34.3700|-118.5700|427.0|19.0||1|AUTO_4-USA|223|ICAO-K3A6|9.0||1|AUTO_4-USA|223|ICAO-K3A6|||||||1012.3||1|AUTO_4-USA|223|ICAO-K3A6|360|N-Normal|1|AUTO_4-USA|223|ICAO-K3A6|1.5|N-Normal|1|AUTO_4-USA|223|ICAO-K3A6|||||||||||||52|Derived||AUTO_4-USA|223|ICAO-K3A6|||||||||||||||||||||||||||||||||||||||||||||||||||||||||||||||||||||||||1013.2||1|AUTO_4-USA|223|ICAO-K3A6|||||||||||||||||||||||||||||||||||||||||||MET069METAR K3A6 030750Z AUTO 36003KT 19/09 A2992 RMK AO1 SLP123 T01880090;||A||223|ICAO-K3A6
USI0000K3A6|NEWHALL|2011|09|03|09|30|34.3700|-118.5700|427.0|18.0||1|AUTO_4-USA|223|ICAO-K3A6|9.0||1|AUTO_4-USA|223|ICAO-K3A6|||||||1012.3||1|AUTO_4-USA|223|ICAO-K3A6|360|N-Normal|1|AUTO_4-USA|223|ICAO-K3A6|1.0|N-Normal|1|AUTO_4-USA|223|ICAO-K3A6|||||||||||||56|Derived||AUTO_4-USA|223|ICAO-K3A6|||||||||||||||||||||||||||||||||||||||||||||||||||||||||||||||||||||||||1012.9||1|AUTO_4-USA|223|ICAO-K3A6|||||||||||||||||||||||||||||||||||||||||||MET069METAR K3A6 030930Z AUTO 36002KT 18/09 A2991 RMK AO1 SLP123 T01770092;||A||223|ICAO-K3A6
USI0000K3A6|NEWHALL|2011|09|03|09|50|34.3700|-118.5700|427.0|18.0||1|AUTO_4-USA|223|ICAO-K3A6|8.0||1|AUTO_4-USA|223|ICAO-K3A6|||||||1012.5||1|AUTO_4-USA|223|ICAO-K3A6|360|N-Normal|1|AUTO_4-USA|223|ICAO-K3A6|1.0|N-Normal|1|AUTO_4-USA|223|ICAO-K3A6|||||||||||||52|Derived||AUTO_4-USA|223|ICAO-K3A6|||||||||||||||||||||||||||||||||||||||||||||||||||||||||||||||||||||||||1012.9||1|AUTO_4-USA|223|ICAO-K3A6|||||||||||||||||||||||||||||||||||||||||||MET069METAR K3A6 030950Z AUTO 36002KT 18/08 A2991 RMK AO1 SLP125 T01760084;||A||223|ICAO-K3A6
USI0000K3A6|NEWHALL|2011|09|03|10|10|34.3700|-118.5700|427.0|18.0||1|AUTO_4-USA|223|ICAO-K3A6|9.0||1|AUTO_4-USA|223|ICAO-K3A6|||||||1012.7||1|AUTO_4-USA|223|ICAO-K3A6|360|N-Normal|1|AUTO_4-USA|223|ICAO-K3A6|1.0|N-Normal|1|AUTO_4-USA|223|ICAO-K3A6|||||||||||||56|Derived||AUTO_4-USA|223|ICAO-K3A6|||||||||||||||||||||||||||||||||||||||||||||||||||||||||||||||||||||||||1012.9||1|AUTO_4-USA|223|ICAO-K3A6|||||||||||||||||||||||||||||||||||||||||||MET069METAR K3A6 031010Z AUTO 36002KT 18/09 A2991 RMK AO1 SLP127 T01830088;||A||223|ICAO-K3A6
USI0000K3A6|NEWHALL|2011|09|03|10|30|34.3700|-118.5700|427.0|18.0||1|AUTO_4-USA|223|ICAO-K3A6|8.0||1|AUTO_4-USA|223|ICAO-K3A6|||||||1012.6||1|AUTO_4-USA|223|ICAO-K3A6|360|N-Normal|1|AUTO_4-USA|223|ICAO-K3A6|1.0|N-Normal|1|AUTO_4-USA|223|ICAO-K3A6|||||||||||||52|Derived||AUTO_4-USA|223|ICAO-K3A6|||||||||||||||||||||||||||||||||||||||||||||||||||||||||||||||||||||||||1012.9||1|AUTO_4-USA|223|ICAO-K3A6|||||||||||||||||||||||||||||||||||||||||||MET069METAR K3A6 031030Z AUTO 36002KT 18/08 A2991 RMK AO1 SLP126 T01790084;||A||223|ICAO-K3A6
USI0000K3A6|NEWHALL|2011|09|04|07|10|34.3700|-118.5700|427.0|21.0||1|AUTO_4-USA|223|ICAO-K3A6|6.0||1|AUTO_4-USA|223|ICAO-K3A6|||||||1012.9||1|AUTO_4-USA|223|ICAO-K3A6|360|N-Normal|1|AUTO_4-USA|223|ICAO-K3A6|1.0|N-Normal|1|AUTO_4-USA|223|ICAO-K3A6|||||||||||||38|Derived||AUTO_4-USA|223|ICAO-K3A6|||||||||||||||||||||||||||||||||||||||||||||||||||||||||||||||||||||||||1012.9||1|AUTO_4-USA|223|ICAO-K3A6|||||||||||||||||||||||||||||||||||||||||||MET069METAR K3A6 040710Z AUTO 36002KT 21/06 A2991 RMK AO1 SLP129 T02060064;||A||223|ICAO-K3A6
USI0000K3A6|NEWHALL|2011|09|04|07|30|34.3700|-118.5700|427.0|20.0||1|AUTO_4-USA|223|ICAO-K3A6|6.0||1|AUTO_4-USA|223|ICAO-K3A6|||||||1013.1||1|AUTO_4-USA|223|ICAO-K3A6|360|N-Normal|1|AUTO_4-USA|223|ICAO-K3A6|1.0|N-Normal|1|AUTO_4-USA|223|ICAO-K3A6|||||||||||||40|Derived||AUTO_4-USA|223|ICAO-K3A6|||||||||||||||||||||||||||||||||||||||||||||||||||||||||||||||||||||||||1012.9||1|AUTO_4-USA|223|ICAO-K3A6|||||||||||||||||||||||||||||||||||||||||||MET069METAR K3A6 040730Z AUTO 36002KT 20/06 A2991 RMK AO1 SLP131 T02050064;||A||223|ICAO-K3A6
USI0000K3A6|NEWHALL|2011|09|04|07|50|34.3700|-118.5700|427.0|20.0||1|AUTO_4-USA|223|ICAO-K3A6|6.0||1|AUTO_4-USA|223|ICAO-K3A6|||||||1013.1||1|AUTO_4-USA|223|ICAO-K3A6|360|N-Normal|1|AUTO_4-USA|223|ICAO-K3A6|0.5|N-Normal|1|AUTO_4-USA|223|ICAO-K3A6|||||||||||||40|Derived||AUTO_4-USA|223|ICAO-K3A6|||||||||||||||||||||||||||||||||||||||||||||||||||||||||||||||||||||||||1012.9||1|AUTO_4-USA|223|ICAO-K3A6|||||||||||||||||||||||||||||||||||||||||||MET069METAR K3A6 040750Z AUTO 36001KT 20/06 A2991 RMK AO1 SLP131 T02040063;||A||223|ICAO-K3A6
USI0000K3A6|NEWHALL|2011|09|05|06|30|34.3700|-118.5700|427.0|23.0||1|AUTO_4-USA|223|ICAO-K3A6|9.0||1|AUTO_4-USA|223|ICAO-K3A6|||||||1012.7||1|AUTO_4-USA|223|ICAO-K3A6|200|N-Normal|1|AUTO_4-USA|223|ICAO-K3A6|0.5|N-Normal|1|AUTO_4-USA|223|ICAO-K3A6|||||||||||||41|Derived||AUTO_4-USA|223|ICAO-K3A6|||||||||||||||||||||||||||||||||||||||||||||||||||||||||||||||||||||||||1013.2||1|AUTO_4-USA|223|ICAO-K3A6|||||||||||||||||||||||||||||||||||||||||||MET079METAR K3A6 050630Z AUTO 20001KT 23/09 A2992 RMK AO1 SLP127 T02280095 403840165;||A||223|ICAO-K3A6
