Station_ID|Station_name|Year|Month|Day|Hour|Minute|Latitude|Longitude|Elevation|temperature|temperature_Measurement_Code|temperature_Quality_Code|temperature_Report_Type|temperature_Source_Code|temperature_Source_Station_ID|dew_point_temperature|dew_point_temperature_Measurement_Code|dew_point_temperature_Quality_Code|dew_point_temperature_Report_Type|dew_point_temperature_Source_Code|dew_point_temperature_Source_Station_ID|station_level_pressure|station_level_pressure_Measurement_Code|station_level_pressure_Quality_Code|station_level_pressure_Report_Type|station_level_pressure_Source_Code|station_level_pressure_Source_Station_ID|sea_level_pressure|sea_level_pressure_Measurement_Code|sea_level_pressure_Quality_Code|sea_level_pressure_Report_Type|sea_level_pressure_Source_Code|sea_level_pressure_Source_Station_ID|wind_direction|wind_direction_Measurement_Code|wind_direction_Quality_Code|wind_direction_Report_Type|wind_direction_Source_Code|wind_direction_Source_Station_ID|wind_speed|wind_speed_Measurement_Code|wind_speed_Quality_Code|wind_speed_Report_Type|wind_speed_Source_Code|wind_speed_Source_Station_ID|wind_gust|wind_gust_Measurement_Code|wind_gust_Quality_Code|wind_gust_Report_Type|wind_gust_Source_Code|wind_gust_Source_Station_ID|precipitation|precipitation_Measurement_Code|precipitation_Quality_Code|precipitation_Report_Type|precipitation_Source_Code|precipitation_Source_Station_ID|relative_humidity|relative_humidity_Measurement_Code|relative_humidity_Quality_Code|relative_humidity_Report_Type|relative_humidity_Source_Code|relative_humidity_Source_Station_ID|wet_bulb_temperature|wet_bulb_temperature_Measurement_Code|wet_bulb_temperature_Quality_Code|wet_bulb_temperature_Report_Type|wet_bulb_temperature_Source_Code|wet_bulb_temperature_Source_Station_ID|pres_wx_MW1|pres_wx_MW1_Measurement_Code|pres_wx_MW1_Quality_Code|pres_wx_MW1_Report_Type|pres_wx_MW1_Source_Code|pres_wx_MW1_Source_Station_ID|pres_wx_MW2|pres_wx_MW2_Measurement_Code|pres_wx_MW2_Quality_Code|pres_wx_MW2_Report_Type|pres_wx_MW2_Source_Code|pres_wx_MW2_Source_Station_ID|pres_wx_MW3|pres_wx_MW3_Measurement_Code|pres_wx_MW3_Quality_Code|pres_wx_MW3_Report_Type|pres_wx_MW3_Source_Code|pres_wx_MW3_Source_Station_ID|pres_wx_AU1|pres_wx_AU1_Measurement_Code|pres_wx_AU1_Quality_Code|pres_wx_AU1_Report_Type|pres_wx_AU1_Source_Code|pres_wx_AU1_Source_Station_ID|pres_wx_AU2|pres_wx_AU2_Measurement_Code|pres_wx_AU2_Quality_Code|pres_wx_AU2_Report_Type|pres_wx_AU2_Source_Code|pres_wx_AU2_Source_Station_ID|pres_wx_AU3|pres_wx_AU3_Measurement_Code|pres_wx_AU3_Quality_Code|pres_wx_AU3_Report_Type|pres_wx_AU3_Source_Code|pres_wx_AU3_Source_Station_ID|pres_wx_AW1|pres_wx_AW1_Measurement_Code|pres_wx_AW1_Quality_Code|pres_wx_AW1_Report_Type|pres_wx_AW1_Source_Code|pres_wx_AW1_Source_Station_ID|pres_wx_AW2|pres_wx_AW2_Measurement_Code|pres_wx_AW2_Quality_Code|pres_wx_AW2_Report_Type|pres_wx_AW2_Source_Code|pres_wx_AW2_Source_Station_ID|pres_wx_AW3|pres_wx_AW3_Measurement_Code|pres_wx_AW3_Quality_Code|pres_wx_AW3_Report_Type|pres_wx_AW3_Source_Code|pres_wx_AW3_Source_Station_ID|snow_depth|snow_depth_Measurement_Code|snow_depth_Quality_Code|snow_depth_Report_Type|snow_depth_Source_Code|snow_depth_Source_Station_ID|visibility|visibility_Measurement_Code|visibility_Quality_Code|visibility_Report_Type|visibility_Source_Code|visibility_Source_Station_ID|altimeter|altimeter_Measurement_Code|altimeter_Quality_Code|altimeter_Report_Type|altimeter_Source_Code|altimeter_Source_Station_ID|pressure_3hr_change|pressure_3hr_change_Measurement_Code|pressure_3hr_change_Quality_Code|pressure_3hr_change_Report_Type|pressure_3hr_change_Source_Code|pressure_3hr_change_Source_Station_ID|sky_cover_1|sky_cover_1_Measurement_Code|sky_cover_1_Quality_Code|sky_cover_1_Report_Type|sky_cover_1_Source_Code|sky_cover_1_Source_Station_ID|sky_cover_baseht_1|sky_cover_baseht_1_Measurement_Code|sky_cover_baseht_1_Quality_Code|sky_cover_baseht_1_Report_Type|sky_cover_baseht_1_Source_Code|sky_cover_baseht_1_Source_Station_ID|sky_cover_2|sky_cover_2_Measurement_Code|sky_cover_2_Quality_Code|sky_cover_2_Report_Type|sky_cover_2_Source_Code|sky_cover_2_Source_Station_ID|sky_cover_baseht_2|sky_cover_baseht_2_Measurement_Code|sky_cover_baseht_2_Quality_Code|sky_cover_baseht_2_Report_Type|sky_cover_baseht_2_Source_Code|sky_cover_baseht_2_Source_Station_ID|sky_cover_3|sky_cover_3_Measurement_Code|sky_cover_3_Quality_Code|sky_cover_3_Report_Type|sky_cover_3_Source_Code|sky_cover_3_Source_Station_ID|sky_cover_baseht_3|sky_cover_baseht_3_Measurement_Code|sky_cover_baseht_3_Quality_Code|sky_cover_baseht_3_Report_Type|sky_cover_baseht_3_Source_Code|sky_cover_baseht_3_Source_Station_ID|remarks|remarks_Measurement_Code|remarks_Quality_Code|remarks_Report_Type|remarks_Source_Code|remarks_Source_Station_ID
USI0000KGXA|GRAY BUTTE FLD|2011|08|25|02|32|34.5639|-117.6750|920.5|30.0||1|FM16-SPECI|223|ICAO-KGXA|2.0||1|FM16-SPECI|223|ICAO-KGXA|||||||1007.4||1|FM16-SPECI|223|ICAO-KGXA|270|N-Normal|1|FM16-SPECI|223|ICAO-KGXA|3.1|N-Normal|1|FM16-SPECI|223|ICAO-KGXA|||||||||||||17|Derived||FM16-SPECI|223|ICAO-KGXA|||||||||||||||||||||||||||||||||||||||||||||||||||||||||||||||||||||||||1013.9||1|FM16-SPECI|223|ICAO-KGXA|||||||||||||||||||||||||||||||||||||||||||MET070SPECI KGXA 250232Z AUTO 27006KT 10SM CLR 30/02 A2994 RMK AO2 SLP074 $;||F||223|ICAO-KGXA
USI0000KGXA|GRAY BUTTE FLD|2011|08|25|03|00|34.5639|-117.6750|920.5|28.0||1|FM15-METAR|223|ICAO-KGXA|3.0||1|FM15-METAR|223|ICAO-KGXA|||||||1007.8||1|FM15-METAR|223|ICAO-KGXA|290|N-Normal|1|FM15-METAR|223|ICAO-KGXA|4.6|N-Normal|1|FM15-METAR|223|ICAO-KGXA|||||||||||||20|Derived||FM15-METAR|223|ICAO-KGXA|||||||||||||||||||||||||||||||||||||||||||||||||||||||||||||||||||||||||1014.2||1|FM15-METAR|223|ICAO-KGXA|1.4|3-Decr-or-|1|FM15-METAR|223|ICAO-KGXA|||||||||||||||||||||||||||||||||||||MET086METAR KGXA 250255Z AUTO 29009KT 10SM CLR 28/03 A2995 RMK AO2 SLP078 T02840034 53014 $;||F||223|ICAO-KGXA
USI0000KGXA|GRAY BUTTE FLD|2011|08|25|04|00|34.5639|-117.6750|920.5|27.0||1|FM15-METAR|223|ICAO-KGXA|6.0||1|FM15-METAR|223|ICAO-KGXA|||||||1007.9||1|FM15-METAR|223|ICAO-KGXA|250|N-Normal|1|FM15-METAR|223|ICAO-KGXA|4.1|N-Normal|1|FM15-METAR|223|ICAO-KGXA|||||||||||||26|Derived||FM15-METAR|223|ICAO-KGXA|||||||||||||||||||||||||||||||||||||||||||||||||||||||||||||||||||||||||1014.2||1|FM15-METAR|223|ICAO-KGXA|||||||||||||||||||||||||||||||||||||||||||MET080METAR KGXA 250355Z AUTO 25008KT 10SM CLR 27/06 A2995 RMK AO2 SLP079 T02690057 $;||F||223|ICAO-KGXA
USI0000KGXA|GRAY BUTTE FLD|2011|08|25|05|00|34.5639|-117.6750|920.5|26.0||1|FM15-METAR|223|ICAO-KGXA|2.0||1|FM15-METAR|223|ICAO-KGXA|||||||1007.5||1|FM15-METAR|223|ICAO-KGXA|240|N-Normal|1|FM15-METAR|223|ICAO-KGXA|3.1|N-Normal|1|FM15-METAR|223|ICAO-KGXA|||||||||||||21|Derived||FM15-METAR|223|ICAO-KGXA|||||||||||||||||||||||||||||||||||||||||||||||||||||||||||||||||||||||||1014.2||1|FM15-METAR|223|ICAO-KGXA|||||||||||||||||||||||||||||||||||||||||||MET080METAR KGXA 250455Z AUTO 24006KT 10SM CLR 26/02 A2995 RMK AO2 SLP075 T02620022 $;||F||223|ICAO-KGXA
USI0000KGXA|GRAY BUTTE FLD|2011|08|25|06|00|34.5639|-117.6750|920.5|27.0||1|FM15-METAR|223|ICAO-KGXA|1.0||1|FM15-METAR|223|ICAO-KGXA|||||||1007.2||1|FM15-METAR|223|ICAO-KGXA|230|N-Normal|1|FM15-METAR|223|ICAO-KGXA|2.6|N-Normal|1|FM15-METAR|223|ICAO-KGXA|||||||||||||18|Derived||FM15-METAR|223|ICAO-KGXA|||||||||||||||||||||||||||||||||||||||||||||||||||||||||||||||||||||||||1014.2||1|FM15-METAR|223|ICAO-KGXA|0.2|2-Incr-(st|1|FM15-METAR|223|ICAO-KGXA|||||||||||||||||||||||||||||||||||||MET098METAR KGXA 250555Z AUTO 23005KT 10SM CLR 27/01 A2995 RMK AO2 SLP072 T02710007 10371 20254 52002 $;||F||223|ICAO-KGXA
USI0000KGXA|GRAY BUTTE FLD|2011|08|25|07|00|34.5639|-117.6750|920.5|24.0||1|FM15-METAR|223|ICAO-KGXA|2.0||1|FM15-METAR|223|ICAO-KGXA|||||||1007.7||1|FM15-METAR|223|ICAO-KGXA|160|N-Normal|1|FM15-METAR|223|ICAO-KGXA|0.5|N-Normal|1|FM15-METAR|223|ICAO-KGXA|||||||||||||24|Derived||FM15-METAR|223|ICAO-KGXA|||||||||||||||||||||||||||||||||||||||||||||||||||||||||||||||||||||||||1014.6||1|FM15-METAR|223|ICAO-KGXA|||||||||||||||||||||||||||||||||||||||||||MET080METAR KGXA 250655Z AUTO 16001KT 10SM CLR 24/02 A2996 RMK AO2 SLP077 T02400017 $;||F||223|ICAO-KGXA
USI0000KGXA|GRAY BUTTE FLD|2011|08|25|08|00|34.5639|-117.6750|920.5|23.0||1|FM15-METAR|223|ICAO-KGXA|3.0||1|FM15-METAR|223|ICAO-KGXA|||||||1007.9||1|FM15-METAR|223|ICAO-KGXA|130|N-Normal|1|FM15-METAR|223|ICAO-KGXA|0.5|N-Normal|1|FM15-METAR|223|ICAO-KGXA|||||||||||||27|Derived||FM15-METAR|223|ICAO-KGXA|||||||||||||||||||||||||||||||||||||||||||||||||||||||||||||||||||||||||1014.6||1|FM15-METAR|223|ICAO-KGXA|||||||||||||||||||||||||||||||||||||||||||MET080METAR KGXA 250755Z AUTO 13001KT 10SM CLR 23/03 A2996 RMK AO2 SLP079 T02300031 $;||F||223|ICAO-KGXA
USI0000KGXA|GRAY BUTTE FLD|2011|08|25|09|00|34.5639|-117.6750|920.5|22.0||1|FM15-METAR|223|ICAO-KGXA|3.0||1|FM15-METAR|223|ICAO-KGXA|||||||1008.0||1|FM15-METAR|223|ICAO-KGXA|230|N-Normal|1|FM15-METAR|223|ICAO-KGXA|2.1|N-Normal|1|FM15-METAR|223|ICAO-KGXA|||||||||||||29|Derived||FM15-METAR|223|ICAO-KGXA|||||||||||||||||||||||||||||||||||||||||||||||||||||||||||||||||||||||||1014.2||1|FM15-METAR|223|ICAO-KGXA|0.8|2-Incr-(st|1|FM15-METAR|223|ICAO-KGXA|||||||||||||||||||||||||||||||||||||MET086METAR KGXA 250855Z AUTO 23004KT 10SM CLR 22/03 A2995 RMK AO2 SLP080 T02150029 54001 $;||F||223|ICAO-KGXA
USI0000KGXA|GRAY BUTTE FLD|2011|08|25|10|00|34.5639|-117.6750|920.5|21.0||1|FM15-METAR|223|ICAO-KGXA|4.0||1|FM15-METAR|223|ICAO-KGXA|||||||1007.9||1|FM15-METAR|223|ICAO-KGXA|200|N-Normal|1|FM15-METAR|223|ICAO-KGXA|2.1|N-Normal|1|FM15-METAR|223|ICAO-KGXA|||||||||||||33|Derived||FM15-METAR|223|ICAO-KGXA|||||||||||||||||||||||||||||||||||||||||||||||||||||||||||||||||||||||||1014.2||1|FM15-METAR|223|ICAO-KGXA|||||||||||||||||||||||||||||||||||||||||||MET091METAR KGXA 250955Z AUTO 20004KT 10SM 21/04 A2995 RMK AO2 SLP079 T02130039 PWINO PNO TSNO $;||F||223|ICAO-KGXA
USI0000KGXA|GRAY BUTTE FLD|2011|08|25|14|00|34.5639|-117.6750|920.5|26.0||1|FM15-METAR|223|ICAO-KGXA|7.0||1|FM15-METAR|223|ICAO-KGXA|||||||1009.3||1|FM15-METAR|223|ICAO-KGXA|140|N-Normal|1|FM15-METAR|223|ICAO-KGXA|0.5|N-Normal|1|FM15-METAR|223|ICAO-KGXA|||||||||||||30|Derived||FM15-METAR|223|ICAO-KGXA|||||||||||||||||||||||||||||||||||||||||||||||||||||||||||||||||||||||||1015.2||1|FM15-METAR|223|ICAO-KGXA|||||||||||||||||||||||||||||||||||||||||||MET078METAR KGXA 251355Z AUTO 14001KT 10SM CLR 26/07 A2998 RMK AO2 SLP093 T02630070;||F||223|ICAO-KGXA
USI0000KGXA|GRAY BUTTE FLD|2011|08|25|15|00|34.5639|-117.6750|920.5|29.0||1|FM15-METAR|223|ICAO-KGXA|7.0||1|FM15-METAR|223|ICAO-KGXA|||||||1009.6||1|FM15-METAR|223|ICAO-KGXA|040|N-Normal|1|FM15-METAR|223|ICAO-KGXA|1.0|N-Normal|1|FM15-METAR|223|ICAO-KGXA|||||||||||||25|Derived||FM15-METAR|223|ICAO-KGXA|||||||||||||||||||||||||||||||||||||||||||||||||||||||||||||||||||||||||1015.6||1|FM15-METAR|223|ICAO-KGXA|0.9|2-Incr-(st|1|FM15-METAR|223|ICAO-KGXA|||||||||||||||||||||||||||||||||||||MET084METAR KGXA 251455Z AUTO 04002KT 10SM CLR 29/07 A2999 RMK AO2 SLP096 T02920069 52009;||F||223|ICAO-KGXA
USI0000KGXA|GRAY BUTTE FLD|2011|08|25|16|00|34.5639|-117.6750|920.5|33.0||1|FM15-METAR|223|ICAO-KGXA|5.0||1|FM15-METAR|223|ICAO-KGXA|||||||1009.3||1|FM15-METAR|223|ICAO-KGXA|999|V-Variable|9|FM15-METAR|223|ICAO-KGXA|1.5|V-Variable|1|FM15-METAR|223|ICAO-KGXA|||||||||||||17|Derived||FM15-METAR|223|ICAO-KGXA|||||||||||||||||||||||||||||||||||||||||||||||||||||||||||||||||||||||||1015.6||1|FM15-METAR|223|ICAO-KGXA|||||||||||||||||||||||||||||||||||||||||||MET078METAR KGXA 251555Z AUTO VRB03KT 10SM CLR 33/05 A2999 RMK AO2 SLP093 T03270052;||F||223|ICAO-KGXA
USI0000KGXA|GRAY BUTTE FLD|2011|08|25|17|00|34.5639|-117.6750|920.5|34.0||1|FM15-METAR|223|ICAO-KGXA|4.0||1|FM15-METAR|223|ICAO-KGXA|||||||1009.2||1|FM15-METAR|223|ICAO-KGXA|999|V-Variable|9|FM15-METAR|223|ICAO-KGXA|1.5|V-Variable|1|FM15-METAR|223|ICAO-KGXA|||||||||||||15|Derived||FM15-METAR|223|ICAO-KGXA|||||||||||||||||||||||||||||||||||||||||||||||||||||||||||||||||||||||||1015.6||1|FM15-METAR|223|ICAO-KGXA|||||||||||||||||||||||||||||||||||||||||||MET078METAR KGXA 251655Z AUTO VRB03KT 10SM CLR 34/04 A2999 RMK AO2 SLP092 T03430040;||F||223|ICAO-KGXA
USI0000KGXA|GRAY BUTTE FLD|2011|08|25|18|00|34.5639|-117.6750|920.5|36.0||1|FM15-METAR|223|ICAO-KGXA|3.0||1|FM15-METAR|223|ICAO-KGXA|||||||1008.2||1|FM15-METAR|223|ICAO-KGXA|999|V-Variable|9|FM15-METAR|223|ICAO-KGXA|3.1|V-Variable|1|FM15-METAR|223|ICAO-KGXA|||||||||||||13|Derived||FM15-METAR|223|ICAO-KGXA|||||||||||||||||||||||||||||||||||||||||||||||||||||||||||||||||||||||||1014.9||1|FM15-METAR|223|ICAO-KGXA|-0.4|8-Steady-o|1|FM15-METAR|223|ICAO-KGXA|||||||||||||||||||||||||||||||||||||MET099METAR KGXA 251755Z AUTO VRB06KT 10SM FEW240 36/03 A2997 RMK AO2 SLP082 T03550033 10344 20183 58004;||F||223|ICAO-KGXA
USI0000KGXA|GRAY BUTTE FLD|2011|08|25|19|00|34.5639|-117.6750|920.5|38.0||1|FM15-METAR|223|ICAO-KGXA|3.0||1|FM15-METAR|223|ICAO-KGXA|||||||1007.6||1|FM15-METAR|223|ICAO-KGXA|999|V-Variable|9|FM15-METAR|223|ICAO-KGXA|1.5|V-Variable|1|FM15-METAR|223|ICAO-KGXA|||||||||||||11|Derived||FM15-METAR|223|ICAO-KGXA|||||||||||||||||||||||||||||||||||||||||||||||||||||||||||||||||||||||||1014.2||1|FM15-METAR|223|ICAO-KGXA|||||||||||||||||||||||||||||||||||||||||||MET078METAR KGXA 251855Z AUTO VRB03KT 10SM CLR 38/03 A2995 RMK AO2 SLP076 T03770034;||F||223|ICAO-KGXA
USI0000KGXA|GRAY BUTTE FLD|2011|08|25|20|00|34.5639|-117.6750|920.5|38.0||1|FM15-METAR|223|ICAO-KGXA|4.0||1|FM15-METAR|223|ICAO-KGXA|||||||1006.8||1|FM15-METAR|223|ICAO-KGXA|999|V-Variable|9|FM15-METAR|223|ICAO-KGXA|2.6|V-Variable|1|FM15-METAR|223|ICAO-KGXA|||||||||||||12|Derived||FM15-METAR|223|ICAO-KGXA|||||||||||||||||||||||||||||||||||||||||||||||||||||||||||||||||||||||||1013.5||1|FM15-METAR|223|ICAO-KGXA|||||||||||||||||||||||||||||||||||||||||||MET081METAR KGXA 251955Z AUTO VRB05KT 10SM FEW120 38/04 A2993 RMK AO2 SLP068 T03820036;||F||223|ICAO-KGXA
USI0000KGXA|GRAY BUTTE FLD|2011|08|25|21|00|34.5639|-117.6750|920.5|39.0||1|FM15-METAR|223|ICAO-KGXA|4.0||1|FM15-METAR|223|ICAO-KGXA|||||||1006.2||1|FM15-METAR|223|ICAO-KGXA|999|V-Variable|9|FM15-METAR|223|ICAO-KGXA|0.5|V-Variable|1|FM15-METAR|223|ICAO-KGXA|||||||||||||11|Derived||FM15-METAR|223|ICAO-KGXA|||||||||||||||||||||||||||||||||||||||||||||||||||||||||||||||||||||||||1012.9||1|FM15-METAR|223|ICAO-KGXA|-2.1|7-Decr-(st|1|FM15-METAR|223|ICAO-KGXA|||||||||||||||||||||||||||||||||||||MET087METAR KGXA 252055Z AUTO VRB01KT 10SM FEW130 39/04 A2991 RMK AO2 SLP062 T03880036 57021;||F||223|ICAO-KGXA
USI0000KGXA|GRAY BUTTE FLD|2011|08|25|22|00|34.5639|-117.6750|920.5|38.0||1|FM15-METAR|223|ICAO-KGXA|4.0||1|FM15-METAR|223|ICAO-KGXA|||||||1005.8||1|FM15-METAR|223|ICAO-KGXA|290|N-Normal|1|FM15-METAR|223|ICAO-KGXA|6.2|N-Normal|1|FM15-METAR|223|ICAO-KGXA|10.3||1|FM15-METAR|223|ICAO-KGXA|||||||12|Derived||FM15-METAR|223|ICAO-KGXA|||||||||||||||||||||||||||||||||||||||||||||||||||||||||||||||||||||||||1012.2||1|FM15-METAR|223|ICAO-KGXA|||||||||||||||||||||||||||||||||||||||||||MET092METAR KGXA 252155Z AUTO 29012G20KT 280V340 10SM FEW130 38/04 A2989 RMK AO2 SLP058 T03790036;||F||223|ICAO-KGXA
USI0000KGXA|GRAY BUTTE FLD|2011|08|25|23|00|34.5639|-117.6750|920.5|37.0||1|FM15-METAR|223|ICAO-KGXA|4.0||1|FM15-METAR|223|ICAO-KGXA|||||||1005.8||1|FM15-METAR|223|ICAO-KGXA|300|N-Normal|1|FM15-METAR|223|ICAO-KGXA|7.7|N-Normal|1|FM15-METAR|223|ICAO-KGXA|10.3||1|FM15-METAR|223|ICAO-KGXA|||||||13|Derived||FM15-METAR|223|ICAO-KGXA|||||||||||||||||||||||||||||||||||||||||||||||||||||||||||||||||||||||||1011.9||1|FM15-METAR|223|ICAO-KGXA|||||||||||||||||||||||||||||||||||||||||||MET081METAR KGXA 252255Z AUTO 30015G20KT 10SM CLR 37/04 A2988 RMK AO2 SLP058 T03740039;||F||223|ICAO-KGXA
USI0000KGXA|GRAY BUTTE FLD|2011|08|26|00|00|34.5639|-117.6750|920.5|36.0||1|FM15-METAR|223|ICAO-KGXA|3.0||1|FM15-METAR|223|ICAO-KGXA|||||||1006.6||1|FM15-METAR|223|ICAO-KGXA|300|N-Normal|1|FM15-METAR|223|ICAO-KGXA|7.2|N-Normal|1|FM15-METAR|223|ICAO-KGXA|10.3||1|FM15-METAR|223|ICAO-KGXA|||||||13|Derived||FM15-METAR|223|ICAO-KGXA|||||||||||||||||||||||||||||||||||||||||||||||||||||||||||||||||||||||||1012.2||1|FM15-METAR|223|ICAO-KGXA|-0.6|5-Decr,-th|1|FM15-METAR|223|ICAO-KGXA|||||||||||||||||||||||||||||||||||||MET109METAR KGXA 252355Z AUTO 30014G20KT 10SM CLR 36/03 A2989 RMK AO2 SLP066 T03600026 10398 20341 403980212 55006;||F||223|ICAO-KGXA
USI0000KGXA|GRAY BUTTE FLD|2011|08|26|01|00|34.5639|-117.6750|920.5|34.0||1|FM15-METAR|223|ICAO-KGXA|1.0||1|FM15-METAR|223|ICAO-KGXA|||||||1007.0||1|FM15-METAR|223|ICAO-KGXA|290|N-Normal|1|FM15-METAR|223|ICAO-KGXA|6.7|N-Normal|1|FM15-METAR|223|ICAO-KGXA|10.3||1|FM15-METAR|223|ICAO-KGXA|||||||12|Derived||FM15-METAR|223|ICAO-KGXA|||||||||||||||||||||||||||||||||||||||||||||||||||||||||||||||||||||||||1012.5||1|FM15-METAR|223|ICAO-KGXA|||||||||||||||||||||||||||||||||||||||||||MET081METAR KGXA 260055Z AUTO 29013G20KT 10SM CLR 34/01 A2990 RMK AO2 SLP070 T03360012;||F||223|ICAO-KGXA
USI0000KGXA|GRAY BUTTE FLD|2011|08|26|02|00|34.5639|-117.6750|920.5|31.0||1|FM15-METAR|223|ICAO-KGXA|0.0||1|FM15-METAR|223|ICAO-KGXA|||||||1006.9||1|FM15-METAR|223|ICAO-KGXA|280|N-Normal|1|FM15-METAR|223|ICAO-KGXA|4.6|N-Normal|1|FM15-METAR|223|ICAO-KGXA|||||||||||||13|Derived||FM15-METAR|223|ICAO-KGXA|||||||||||||||||||||||||||||||||||||||||||||||||||||||||||||||||||||||||1012.9||1|FM15-METAR|223|ICAO-KGXA|||||||||||||||||||||||||||||||||||||||||||MET078METAR KGXA 260155Z AUTO 28009KT 10SM CLR 31/00 A2991 RMK AO2 SLP069 T03130003;||F||223|ICAO-KGXA
USI0000KGXA|GRAY BUTTE FLD|2011|08|26|03|00|34.5639|-117.6750|920.5|31.0||1|FM15-METAR|223|ICAO-KGXA|0.0||1|FM15-METAR|223|ICAO-KGXA|||||||1007.2||1|FM15-METAR|223|ICAO-KGXA|250|N-Normal|1|FM15-METAR|223|ICAO-KGXA|3.6|N-Normal|1|FM15-METAR|223|ICAO-KGXA|||||||||||||13|Derived||FM15-METAR|223|ICAO-KGXA|||||||||||||||||||||||||||||||||||||||||||||||||||||||||||||||||||||||||1013.5||1|FM15-METAR|223|ICAO-KGXA|1.4|3-Decr-or-|1|FM15-METAR|223|ICAO-KGXA|||||||||||||||||||||||||||||||||||||MET086METAR KGXA 260255Z AUTO 25007KT 10SM CLR 31/00 A2993 RMK AO2 SLP072 T03070000 53014 $;||F||223|ICAO-KGXA
USI0000KGXA|GRAY BUTTE FLD|2011|08|26|04|00|34.5639|-117.6750|920.5|30.0||1|FM15-METAR|223|ICAO-KGXA|0.0||1|FM15-METAR|223|ICAO-KGXA|||||||1007.3||1|FM15-METAR|223|ICAO-KGXA|260|N-Normal|1|FM15-METAR|223|ICAO-KGXA|2.1|N-Normal|1|FM15-METAR|223|ICAO-KGXA|||||||||||||14|Derived||FM15-METAR|223|ICAO-KGXA|||||||||||||||||||||||||||||||||||||||||||||||||||||||||||||||||||||||||1014.2||1|FM15-METAR|223|ICAO-KGXA|||||||||||||||||||||||||||||||||||||||||||MET080METAR KGXA 260355Z AUTO 26004KT 10SM CLR 30/00 A2995 RMK AO2 SLP073 T03000002 $;||F||223|ICAO-KGXA
USI0000KGXA|GRAY BUTTE FLD|2011|08|26|05|00|34.5639|-117.6750|920.5|27.0||1|FM15-METAR|223|ICAO-KGXA|1.0||1|FM15-METAR|223|ICAO-KGXA|||||||1007.9||1|FM15-METAR|223|ICAO-KGXA|360|N-Normal|1|FM15-METAR|223|ICAO-KGXA|0.5|N-Normal|1|FM15-METAR|223|ICAO-KGXA|||||||||||||18|Derived||FM15-METAR|223|ICAO-KGXA|||||||||||||||||||||||||||||||||||||||||||||||||||||||||||||||||||||||||1014.6||1|FM15-METAR|223|ICAO-KGXA|||||||||||||||||||||||||||||||||||||||||||MET080METAR KGXA 260455Z AUTO 36001KT 10SM CLR 27/01 A2996 RMK AO2 SLP079 T02690009 $;||F||223|ICAO-KGXA
USI0000KGXA|GRAY BUTTE FLD|2011|08|26|06|00|34.5639|-117.6750|920.5|25.0||1|FM15-METAR|223|ICAO-KGXA|1.0||1|FM15-METAR|223|ICAO-KGXA|||||||1008.3||1|FM15-METAR|223|ICAO-KGXA|210|N-Normal|1|FM15-METAR|223|ICAO-KGXA|1.0|N-Normal|1|FM15-METAR|223|ICAO-KGXA|||||||||||||21|Derived||FM15-METAR|223|ICAO-KGXA|||||||||||||||||||||||||||||||||||||||||||||||||||||||||||||||||||||||||1014.9||1|FM15-METAR|223|ICAO-KGXA|1.1|2-Incr-(st|1|FM15-METAR|223|ICAO-KGXA|||||||||||||||||||||||||||||||||||||MET101METAR KGXA 260555Z AUTO 21002KT 10SM SCT210 25/01 A2997 RMK AO2 SLP083 T02530007 10376 20269 52011 $;||F||223|ICAO-KGXA
USI0000KGXA|GRAY BUTTE FLD|2011|08|26|07|00|34.5639|-117.6750|920.5|24.0||1|FM15-METAR|223|ICAO-KGXA|2.0||1|FM15-METAR|223|ICAO-KGXA|||||||1007.9||1|FM15-METAR|223|ICAO-KGXA|130|N-Normal|1|FM15-METAR|223|ICAO-KGXA|1.0|N-Normal|1|FM15-METAR|223|ICAO-KGXA|||||||||||||24|Derived||FM15-METAR|223|ICAO-KGXA|||||||||||||||||||||||||||||||||||||||||||||||||||||||||||||||||||||||||1014.9||1|FM15-METAR|223|ICAO-KGXA|||||||||||||||||||||||||||||||||||||||||||MET083METAR KGXA 260655Z AUTO 13002KT 10SM SCT200 24/02 A2997 RMK AO2 SLP079 T02390022 $;||F||223|ICAO-KGXA
USI0000KGXA|GRAY BUTTE FLD|2011|08|26|08|00|34.5639|-117.6750|920.5|23.0||1|FM15-METAR|223|ICAO-KGXA|4.0||1|FM15-METAR|223|ICAO-KGXA|||||||1007.9||1|FM15-METAR|223|ICAO-KGXA|170|N-Normal|1|FM15-METAR|223|ICAO-KGXA|2.1|N-Normal|1|FM15-METAR|223|ICAO-KGXA|||||||||||||29|Derived||FM15-METAR|223|ICAO-KGXA|||||||||||||||||||||||||||||||||||||||||||||||||||||||||||||||||||||||||1014.6||1|FM15-METAR|223|ICAO-KGXA|||||||||||||||||||||||||||||||||||||||||||MET080METAR KGXA 260755Z AUTO 17004KT 10SM CLR 23/04 A2996 RMK AO2 SLP079 T02330040 $;||F||223|ICAO-KGXA
USI0000KGXA|GRAY BUTTE FLD|2011|08|26|09|00|34.5639|-117.6750|920.5|22.0||1|FM15-METAR|223|ICAO-KGXA|4.0||1|FM15-METAR|223|ICAO-KGXA|||||||1007.8||1|FM15-METAR|223|ICAO-KGXA|180|N-Normal|1|FM15-METAR|223|ICAO-KGXA|2.1|N-Normal|1|FM15-METAR|223|ICAO-KGXA|||||||||||||31|Derived||FM15-METAR|223|ICAO-KGXA|||||||||||||||||||||||||||||||||||||||||||||||||||||||||||||||||||||||||1014.6||1|FM15-METAR|223|ICAO-KGXA|-0.4|7-Decr-(st|1|FM15-METAR|223|ICAO-KGXA|||||||||||||||||||||||||||||||||||||MET086METAR KGXA 260855Z AUTO 18004KT 10SM CLR 22/04 A2996 RMK AO2 SLP078 T02230035 57004 $;||F||223|ICAO-KGXA
USI0000KGXA|GRAY BUTTE FLD|2011|08|26|10|00|34.5639|-117.6750|920.5|23.0||1|FM15-METAR|223|ICAO-KGXA|5.0||1|FM15-METAR|223|ICAO-KGXA|||||||1007.8||1|FM15-METAR|223|ICAO-KGXA|160|N-Normal|1|FM15-METAR|223|ICAO-KGXA|2.6|N-Normal|1|FM15-METAR|223|ICAO-KGXA|||||||||||||31|Derived||FM15-METAR|223|ICAO-KGXA|||||||||||||||||||||||||||||||||||||||||||||||||||||||||||||||||||||||||1014.2||1|FM15-METAR|223|ICAO-KGXA|||||||||||||||||||||||||||||||||||||||||||MET080METAR KGXA 260955Z AUTO 16005KT 10SM CLR 23/05 A2995 RMK AO2 SLP078 T02280046 $;||F||223|ICAO-KGXA
USI0000KGXA|GRAY BUTTE FLD|2011|08|26|11|00|34.5639|-117.6750|920.5|23.0||1|FM15-METAR|223|ICAO-KGXA|4.0||1|FM15-METAR|223|ICAO-KGXA|||||||1007.6||1|FM15-METAR|223|ICAO-KGXA|180|N-Normal|1|FM15-METAR|223|ICAO-KGXA|2.6|N-Normal|1|FM15-METAR|223|ICAO-KGXA|||||||||||||29|Derived||FM15-METAR|223|ICAO-KGXA|||||||||||||||||||||||||||||||||||||||||||||||||||||||||||||||||||||||||1013.9||1|FM15-METAR|223|ICAO-KGXA|||||||||||||||||||||||||||||||||||||||||||MET080METAR KGXA 261055Z AUTO 18005KT 10SM CLR 23/04 A2994 RMK AO2 SLP076 T02250036 $;||F||223|ICAO-KGXA
USI0000KGXA|GRAY BUTTE FLD|2011|08|26|12|00|34.5639|-117.6750|920.5|22.0||1|FM15-METAR|223|ICAO-KGXA|5.0||1|FM15-METAR|223|ICAO-KGXA|||||||1008.7||1|FM15-METAR|223|ICAO-KGXA|090|N-Normal|1|FM15-METAR|223|ICAO-KGXA|2.1|N-Normal|1|FM15-METAR|223|ICAO-KGXA|||||||||||||33|Derived||FM15-METAR|223|ICAO-KGXA|||||||||||||||||||||||||||||||||||||||||||||||||||||||||||||||||||||||||1014.6||1|FM15-METAR|223|ICAO-KGXA|0.2|3-Decr-or-|1|FM15-METAR|223|ICAO-KGXA|||||||||||||||||||||||||||||||||||||MET096METAR KGXA 261155Z AUTO 09004KT 10SM CLR 22/05 A2996 RMK AO2 SLP087 T02150051 10272 20221 53002;||F||223|ICAO-KGXA
USI0000KGXA|GRAY BUTTE FLD|2011|08|26|13|00|34.5639|-117.6750|920.5|23.0||1|FM15-METAR|223|ICAO-KGXA|5.0||1|FM15-METAR|223|ICAO-KGXA|||||||1009.4||1|FM15-METAR|223|ICAO-KGXA|140|N-Normal|1|FM15-METAR|223|ICAO-KGXA|2.6|N-Normal|1|FM15-METAR|223|ICAO-KGXA|||||||||||||31|Derived||FM15-METAR|223|ICAO-KGXA|||||||||||||||||||||||||||||||||||||||||||||||||||||||||||||||||||||||||1015.2||1|FM15-METAR|223|ICAO-KGXA|||||||||||||||||||||||||||||||||||||||||||MET081METAR KGXA 261255Z AUTO 14005KT 10SM BKN150 23/05 A2998 RMK AO2 SLP094 T02310053;||F||223|ICAO-KGXA
USI0000KGXA|GRAY BUTTE FLD|2011|08|26|14|00|34.5639|-117.6750|920.5|30.0||1|FM15-METAR|223|ICAO-KGXA|5.0||1|FM15-METAR|223|ICAO-KGXA|||||||1009.2||1|FM15-METAR|223|ICAO-KGXA|160|N-Normal|1|FM15-METAR|223|ICAO-KGXA|1.0|N-Normal|1|FM15-METAR|223|ICAO-KGXA|||||||||||||20|Derived||FM15-METAR|223|ICAO-KGXA|||||||||||||||||||||||||||||||||||||||||||||||||||||||||||||||||||||||||1015.6||1|FM15-METAR|223|ICAO-KGXA|||||||||||||||||||||||||||||||||||||||||||MET081METAR KGXA 261355Z AUTO 16002KT 10SM BKN170 30/05 A2999 RMK AO2 SLP092 T02950051;||F||223|ICAO-KGXA
USI0000KGXA|GRAY BUTTE FLD|2011|08|26|15|00|34.5639|-117.6750|920.5|34.0||1|FM15-METAR|223|ICAO-KGXA|3.0||1|FM15-METAR|223|ICAO-KGXA|||||||1008.6||1|FM15-METAR|223|ICAO-KGXA|010|N-Normal|1|FM15-METAR|223|ICAO-KGXA|0.5|N-Normal|1|FM15-METAR|223|ICAO-KGXA|||||||||||||14|Derived||FM15-METAR|223|ICAO-KGXA|||||||||||||||||||||||||||||||||||||||||||||||||||||||||||||||||||||||||1015.9||1|FM15-METAR|223|ICAO-KGXA|1.0|2-Incr-(st|1|FM15-METAR|223|ICAO-KGXA|||||||||||||||||||||||||||||||||||||MET087METAR KGXA 261455Z AUTO 01001KT 10SM FEW230 34/03 A3000 RMK AO2 SLP086 T03400032 52010;||F||223|ICAO-KGXA
USI0000KGXA|GRAY BUTTE FLD|2011|08|26|16|00|34.5639|-117.6750|920.5|35.0||1|FM15-METAR|223|ICAO-KGXA|3.0||1|FM15-METAR|223|ICAO-KGXA|||||||1008.7||1|FM15-METAR|223|ICAO-KGXA|030|N-Normal|1|FM15-METAR|223|ICAO-KGXA|2.1|N-Normal|1|FM15-METAR|223|ICAO-KGXA|||||||||||||13|Derived||FM15-METAR|223|ICAO-KGXA|||||||||||||||||||||||||||||||||||||||||||||||||||||||||||||||||||||||||1015.9||1|FM15-METAR|223|ICAO-KGXA|||||||||||||||||||||||||||||||||||||||||||MET081METAR KGXA 261555Z AUTO 03004KT 10SM BKN220 35/03 A3000 RMK AO2 SLP087 T03450028;||F||223|ICAO-KGXA
USI0000KGXA|GRAY BUTTE FLD|2011|08|26|17|00|34.5639|-117.6750|920.5|36.0||1|FM15-METAR|223|ICAO-KGXA|2.0||1|FM15-METAR|223|ICAO-KGXA|||||||1009.0||1|FM15-METAR|223|ICAO-KGXA|340|N-Normal|1|FM15-METAR|223|ICAO-KGXA|2.6|N-Normal|1|FM15-METAR|223|ICAO-KGXA|||||||||||||12|Derived||FM15-METAR|223|ICAO-KGXA|||||||||||||||||||||||||||||||||||||||||||||||||||||||||||||||||||||||||1015.9||1|FM15-METAR|223|ICAO-KGXA|||||||FEW:02|02-Two-okt|4|FM15-METAR|223|ICAO-KGXA|||||||SCT:04|04-Four-ok|4|FM15-METAR|223|ICAO-KGXA|||||||||||||||||||MET088METAR KGXA 261655Z AUTO 34005KT 10SM FEW160 SCT230 36/02 A3000 RMK AO2 SLP090 T03560021;||F||223|ICAO-KGXA
USI0000KGXA|GRAY BUTTE FLD|2011|08|26|18|00|34.5639|-117.6750|920.5|37.0||1|FM15-METAR|223|ICAO-KGXA|3.0||1|FM15-METAR|223|ICAO-KGXA|||||||1008.8||1|FM15-METAR|223|ICAO-KGXA|999|V-Variable|9|FM15-METAR|223|ICAO-KGXA|1.5|V-Variable|1|FM15-METAR|223|ICAO-KGXA|||||||||||||12|Derived||FM15-METAR|223|ICAO-KGXA|||||||||||||||||||||||||||||||||||||||||||||||||||||||||||||||||||||||||1015.6||1|FM15-METAR|223|ICAO-KGXA|-0.2|7-Decr-(st|1|FM15-METAR|223|ICAO-KGXA|||||||||||||||||||||||||||||||||||||MET099METAR KGXA 261755Z AUTO VRB03KT 10SM FEW150 37/03 A2999 RMK AO2 SLP088 T03680029 10368 20214 57002;||F||223|ICAO-KGXA
USI0000KGXA|GRAY BUTTE FLD|2011|08|26|19|00|34.5639|-117.6750|920.5|38.0||1|FM15-METAR|223|ICAO-KGXA|3.0||1|FM15-METAR|223|ICAO-KGXA|||||||1008.7||1|FM15-METAR|223|ICAO-KGXA|330|N-Normal|1|FM15-METAR|223|ICAO-KGXA|3.6|N-Normal|1|FM15-METAR|223|ICAO-KGXA|||||||||||||11|Derived||FM15-METAR|223|ICAO-KGXA|||||||||||||||||||||||||||||||||||||||||||||||||||||||||||||||||||||||||1015.2||1|FM15-METAR|223|ICAO-KGXA|||||||FEW:02|02-Two-okt|4|FM15-METAR|223|ICAO-KGXA|||||||SCT:04|04-Four-ok|4|FM15-METAR|223|ICAO-KGXA|||||||||||||||||||MET088METAR KGXA 261855Z AUTO 33007KT 10SM FEW060 SCT190 38/03 A2998 RMK AO2 SLP087 T03800031;||F||223|ICAO-KGXA
USI0000KGXA|GRAY BUTTE FLD|2011|08|26|20|00|34.5639|-117.6750|920.5|39.0||1|FM15-METAR|223|ICAO-KGXA|3.0||1|FM15-METAR|223|ICAO-KGXA|||||||1008.1||1|FM15-METAR|223|ICAO-KGXA|260|N-Normal|1|FM15-METAR|223|ICAO-KGXA|4.1|N-Normal|1|FM15-METAR|223|ICAO-KGXA|7.2||1|FM15-METAR|223|ICAO-KGXA|||||||11|Derived||FM15-METAR|223|ICAO-KGXA|||||||||||||||||||||||||||||||||||||||||||||||||||||||||||||||||||||||||1014.9||1|FM15-METAR|223|ICAO-KGXA|||||||||||||||||||||||||||||||||||||||||||MET092METAR KGXA 261955Z AUTO 26008G14KT 250V330 10SM FEW130 39/03 A2997 RMK AO2 SLP081 T03880033;||F||223|ICAO-KGXA
USI0000KGXA|GRAY BUTTE FLD|2011|08|26|21|00|34.5639|-117.6750|920.5|36.0||1|FM15-METAR|223|ICAO-KGXA|5.0||1|FM15-METAR|223|ICAO-KGXA|||||||1008.3||1|FM15-METAR|223|ICAO-KGXA|280|N-Normal|1|FM15-METAR|223|ICAO-KGXA|5.1|N-Normal|1|FM15-METAR|223|ICAO-KGXA|8.2||1|FM15-METAR|223|ICAO-KGXA|||||||14|Derived||FM15-METAR|223|ICAO-KGXA|||||||||||||||||||||||||||||||||||||||||||||||||||||||||||||||||||||||||1014.6||1|FM15-METAR|223|ICAO-KGXA|-1.1|7-Decr-(st|1|FM15-METAR|223|ICAO-KGXA|||||||||||||||||||||||||||||||||||||MET090METAR KGXA 262055Z AUTO 28010G16KT 10SM SCT160 36/05 A2996 RMK AO2 SLP083 T03610053 57011;||F||223|ICAO-KGXA
USI0000KGXA|GRAY BUTTE FLD|2011|08|26|22|00|34.5639|-117.6750|920.5|37.0||1|FM15-METAR|223|ICAO-KGXA|5.0||1|FM15-METAR|223|ICAO-KGXA|||||||1007.8||1|FM15-METAR|223|ICAO-KGXA|260|N-Normal|1|FM15-METAR|223|ICAO-KGXA|4.1|N-Normal|1|FM15-METAR|223|ICAO-KGXA|||||||||||||14|Derived||FM15-METAR|223|ICAO-KGXA|||||||||||||||||||||||||||||||||||||||||||||||||||||||||||||||||||||||||1014.2||1|FM15-METAR|223|ICAO-KGXA|||||||||||||||||||||||||||||||||||||||||||MET091METAR KGXA 262155Z AUTO 26008KT 10SM 37/05 A2995 RMK AO2 SLP078 T03660048 PWINO PNO TSNO $;||F||223|ICAO-KGXA
USI0000KGXA|GRAY BUTTE FLD|2011|08|26|23|00|34.5639|-117.6750|920.5|36.0||1|FM15-METAR|223|ICAO-KGXA|3.0||1|FM15-METAR|223|ICAO-KGXA|||||||1007.7||1|FM15-METAR|223|ICAO-KGXA|270|N-Normal|1|FM15-METAR|223|ICAO-KGXA|4.6|N-Normal|1|FM15-METAR|223|ICAO-KGXA|||||||||||||13|Derived||FM15-METAR|223|ICAO-KGXA|||||||||||||||||||||||||||||||||||||||||||||||||||||||||||||||||||||||||1013.9||1|FM15-METAR|223|ICAO-KGXA|||||||||||||||||||||||||||||||||||||||||||MET081METAR KGXA 262255Z AUTO 27009KT 10SM FEW130 36/03 A2994 RMK AO2 SLP077 T03610034;||F||223|ICAO-KGXA
USI0000KGXA|GRAY BUTTE FLD|2011|08|27|00|00|34.5639|-117.6750|920.5|37.0||1|FM15-METAR|223|ICAO-KGXA|5.0||1|FM15-METAR|223|ICAO-KGXA|||||||1007.5||1|FM15-METAR|223|ICAO-KGXA|290|N-Normal|1|FM15-METAR|223|ICAO-KGXA|4.1|N-Normal|1|FM15-METAR|223|ICAO-KGXA|||||||||||||14|Derived||FM15-METAR|223|ICAO-KGXA|||||||||||||||||||||||||||||||||||||||||||||||||||||||||||||||||||||||||1013.5||1|FM15-METAR|223|ICAO-KGXA|-0.8|6-Decr,-th|1|FM15-METAR|223|ICAO-KGXA|||||||||||||||||||||||||||||||||||||MET114METAR KGXA 262355Z AUTO 29008KT 250V310 10SM CLR 37/05 A2993 RMK AO2 SLP075 T03680050 10392 20357 403920214 56008;||F||223|ICAO-KGXA
USI0000KGXA|GRAY BUTTE FLD|2011|08|27|01|00|34.5639|-117.6750|920.5|34.0||1|FM15-METAR|223|ICAO-KGXA|7.0||1|FM15-METAR|223|ICAO-KGXA|||||||1008.2||1|FM15-METAR|223|ICAO-KGXA|280|N-Normal|1|FM15-METAR|223|ICAO-KGXA|4.6|N-Normal|1|FM15-METAR|223|ICAO-KGXA|||||||||||||19|Derived||FM15-METAR|223|ICAO-KGXA|||||||||||||||||||||||||||||||||||||||||||||||||||||||||||||||||||||||||1014.2||1|FM15-METAR|223|ICAO-KGXA|||||||||||||||||||||||||||||||||||||||||||MET081METAR KGXA 270055Z AUTO 28009KT 10SM FEW130 34/07 A2995 RMK AO2 SLP082 T03430067;||F||223|ICAO-KGXA
USI0000KGXA|GRAY BUTTE FLD|2011|08|27|02|00|34.5639|-117.6750|920.5|32.0||1|FM15-METAR|223|ICAO-KGXA|7.0||1|FM15-METAR|223|ICAO-KGXA|||||||1008.3||1|FM15-METAR|223|ICAO-KGXA|270|N-Normal|1|FM15-METAR|223|ICAO-KGXA|3.1|N-Normal|1|FM15-METAR|223|ICAO-KGXA|||||||||||||21|Derived||FM15-METAR|223|ICAO-KGXA|||||||||||||||||||||||||||||||||||||||||||||||||||||||||||||||||||||||||1014.9||1|FM15-METAR|223|ICAO-KGXA|||||||||||||||||||||||||||||||||||||||||||MET081METAR KGXA 270155Z AUTO 27006KT 10SM FEW240 32/07 A2997 RMK AO2 SLP083 T03180070;||F||223|ICAO-KGXA
USI0000KGXA|GRAY BUTTE FLD|2011|08|27|03|00|34.5639|-117.6750|920.5|30.0||1|FM15-METAR|223|ICAO-KGXA|8.0||1|FM15-METAR|223|ICAO-KGXA|||||||1008.4||1|FM15-METAR|223|ICAO-KGXA|230|N-Normal|1|FM15-METAR|223|ICAO-KGXA|2.6|N-Normal|1|FM15-METAR|223|ICAO-KGXA|||||||||||||25|Derived||FM15-METAR|223|ICAO-KGXA|||||||||||||||||||||||||||||||||||||||||||||||||||||||||||||||||||||||||1015.6||1|FM15-METAR|223|ICAO-KGXA|1.8|2-Incr-(st|1|FM15-METAR|223|ICAO-KGXA|||||||||||||||||||||||||||||||||||||MET086METAR KGXA 270255Z AUTO 23005KT 10SM CLR 30/08 A2999 RMK AO2 SLP084 T03040082 52018 $;||F||223|ICAO-KGXA
USI0000KGXA|GRAY BUTTE FLD|2011|08|27|04|00|34.5639|-117.6750|920.5|27.0||1|FM15-METAR|223|ICAO-KGXA|8.0||1|FM15-METAR|223|ICAO-KGXA|||||||1009.2||1|FM15-METAR|223|ICAO-KGXA|180|N-Normal|1|FM15-METAR|223|ICAO-KGXA|2.1|N-Normal|1|FM15-METAR|223|ICAO-KGXA|||||||||||||30|Derived||FM15-METAR|223|ICAO-KGXA|||||||||||||||||||||||||||||||||||||||||||||||||||||||||||||||||||||||||1015.9||1|FM15-METAR|223|ICAO-KGXA|||||||||||||||||||||||||||||||||||||||||||MET080METAR KGXA 270355Z AUTO 18004KT 10SM CLR 27/08 A3000 RMK AO2 SLP092 T02700082 $;||F||223|ICAO-KGXA
USI0000KGXA|GRAY BUTTE FLD|2011|08|27|05|00|34.5639|-117.6750|920.5|25.0||1|FM15-METAR|223|ICAO-KGXA|9.0||1|FM15-METAR|223|ICAO-KGXA|||||||1009.3||1|FM15-METAR|223|ICAO-KGXA|160|N-Normal|1|FM15-METAR|223|ICAO-KGXA|1.0|N-Normal|1|FM15-METAR|223|ICAO-KGXA|||||||||||||36|Derived||FM15-METAR|223|ICAO-KGXA|||||||||||||||||||||||||||||||||||||||||||||||||||||||||||||||||||||||||1015.9||1|FM15-METAR|223|ICAO-KGXA|||||||||||||||||||||||||||||||||||||||||||MET080METAR KGXA 270455Z AUTO 16002KT 10SM CLR 25/09 A3000 RMK AO2 SLP093 T02540087 $;||F||223|ICAO-KGXA
USI0000KGXA|GRAY BUTTE FLD|2011|08|27|06|00|34.5639|-117.6750|920.5|25.0||1|FM15-METAR|223|ICAO-KGXA|9.0||1|FM15-METAR|223|ICAO-KGXA|||||||1009.2||1|FM15-METAR|223|ICAO-KGXA|180|N-Normal|1|FM15-METAR|223|ICAO-KGXA|2.1|N-Normal|1|FM15-METAR|223|ICAO-KGXA|||||||||||||36|Derived||FM15-METAR|223|ICAO-KGXA|||||||||||||||||||||||||||||||||||||||||||||||||||||||||||||||||||||||||1015.9||1|FM15-METAR|223|ICAO-KGXA|0.2|2-Incr-(st|1|FM15-METAR|223|ICAO-KGXA|||||||||||||||||||||||||||||||||||||MET098METAR KGXA 270555Z AUTO 18004KT 10SM CLR 25/09 A3000 RMK AO2 SLP092 T02500086 10368 20253 52002 $;||F||223|ICAO-KGXA
USI0000KGXA|GRAY BUTTE FLD|2011|08|27|07|00|34.5639|-117.6750|920.5|25.0||1|FM15-METAR|223|ICAO-KGXA|9.0||1|FM15-METAR|223|ICAO-KGXA|||||||1009.2||1|FM15-METAR|223|ICAO-KGXA|160|N-Normal|1|FM15-METAR|223|ICAO-KGXA|2.1|N-Normal|1|FM15-METAR|223|ICAO-KGXA|||||||||||||36|Derived||FM15-METAR|223|ICAO-KGXA|||||||||||||||||||||||||||||||||||||||||||||||||||||||||||||||||||||||||1015.9||1|FM15-METAR|223|ICAO-KGXA|||||||||||||||||||||||||||||||||||||||||||MET080METAR KGXA 270655Z AUTO 16004KT 10SM CLR 25/09 A3000 RMK AO2 SLP092 T02450091 $;||F||223|ICAO-KGXA
USI0000KGXA|GRAY BUTTE FLD|2011|08|27|08|00|34.5639|-117.6750|920.5|25.0||1|FM15-METAR|223|ICAO-KGXA|9.0||1|FM15-METAR|223|ICAO-KGXA|||||||1008.8||1|FM15-METAR|223|ICAO-KGXA|170|N-Normal|1|FM15-METAR|223|ICAO-KGXA|3.1|N-Normal|1|FM15-METAR|223|ICAO-KGXA|||||||||||||36|Derived||FM15-METAR|223|ICAO-KGXA|||||||||||||||||||||||||||||||||||||||||||||||||||||||||||||||||||||||||1015.9||1|FM15-METAR|223|ICAO-KGXA|||||||||||||||||||||||||||||||||||||||||||MET080METAR KGXA 270755Z AUTO 17006KT 10SM CLR 25/09 A3000 RMK AO2 SLP088 T02500086 $;||F||223|ICAO-KGXA
USI0000KGXA|GRAY BUTTE FLD|2011|08|27|09|00|34.5639|-117.6750|920.5|24.0||1|FM15-METAR|223|ICAO-KGXA|9.0||1|FM15-METAR|223|ICAO-KGXA|||||||1009.1||1|FM15-METAR|223|ICAO-KGXA|180|N-Normal|1|FM15-METAR|223|ICAO-KGXA|2.1|N-Normal|1|FM15-METAR|223|ICAO-KGXA|||||||||||||39|Derived||FM15-METAR|223|ICAO-KGXA|||||||||||||||||||||||||||||||||||||||||||||||||||||||||||||||||||||||||1015.6||1|FM15-METAR|223|ICAO-KGXA|-0.3|7-Decr-(st|1|FM15-METAR|223|ICAO-KGXA|||||||||||||||||||||||||||||||||||||MET086METAR KGXA 270855Z AUTO 18004KT 10SM CLR 24/09 A2999 RMK AO2 SLP091 T02430091 57003 $;||F||223|ICAO-KGXA
USI0000KGXA|GRAY BUTTE FLD|2011|08|27|10|00|34.5639|-117.6750|920.5|24.0||1|FM15-METAR|223|ICAO-KGXA|9.0||1|FM15-METAR|223|ICAO-KGXA|||||||1008.9||1|FM15-METAR|223|ICAO-KGXA|180|N-Normal|1|FM15-METAR|223|ICAO-KGXA|2.1|N-Normal|1|FM15-METAR|223|ICAO-KGXA|||||||||||||39|Derived||FM15-METAR|223|ICAO-KGXA|||||||||||||||||||||||||||||||||||||||||||||||||||||||||||||||||||||||||1015.6||1|FM15-METAR|223|ICAO-KGXA|||||||||||||||||||||||||||||||||||||||||||MET080METAR KGXA 270955Z AUTO 18004KT 10SM CLR 24/09 A2999 RMK AO2 SLP089 T02360094 $;||F||223|ICAO-KGXA
USI0000KGXA|GRAY BUTTE FLD|2011|08|27|11|00|34.5639|-117.6750|920.5|23.0||1|FM15-METAR|223|ICAO-KGXA|9.0||1|FM15-METAR|223|ICAO-KGXA|||||||1009.5||1|FM15-METAR|223|ICAO-KGXA|170|N-Normal|1|FM15-METAR|223|ICAO-KGXA|2.1|N-Normal|1|FM15-METAR|223|ICAO-KGXA|||||||||||||41|Derived||FM15-METAR|223|ICAO-KGXA|||||||||||||||||||||||||||||||||||||||||||||||||||||||||||||||||||||||||1015.9||1|FM15-METAR|223|ICAO-KGXA|||||||||||||||||||||||||||||||||||||||||||MET080METAR KGXA 271055Z AUTO 17004KT 10SM CLR 23/09 A3000 RMK AO2 SLP095 T02280094 $;||F||223|ICAO-KGXA
USI0000KGXA|GRAY BUTTE FLD|2011|08|27|12|00|34.5639|-117.6750|920.5|22.0||1|FM15-METAR|223|ICAO-KGXA|10.0||1|FM15-METAR|223|ICAO-KGXA|||||||1009.7||1|FM15-METAR|223|ICAO-KGXA|170|N-Normal|1|FM15-METAR|223|ICAO-KGXA|2.1|N-Normal|1|FM15-METAR|223|ICAO-KGXA|||||||||||||47|Derived||FM15-METAR|223|ICAO-KGXA|||||||||||||||||||||||||||||||||||||||||||||||||||||||||||||||||||||||||1015.9||1|FM15-METAR|223|ICAO-KGXA|0.3|2-Incr-(st|1|FM15-METAR|223|ICAO-KGXA|||||||||||||||||||||||||||||||||||||MET098METAR KGXA 271155Z AUTO 17004KT 10SM CLR 22/10 A3000 RMK AO2 SLP097 T02230096 10252 20228 52003 $;||F||223|ICAO-KGXA
USI0000KGXA|GRAY BUTTE FLD|2011|08|27|13|00|34.5639|-117.6750|920.5|24.0||1|FM15-METAR|223|ICAO-KGXA|10.0||1|FM15-METAR|223|ICAO-KGXA|||||||1010.6||1|FM15-METAR|223|ICAO-KGXA|160|N-Normal|1|FM15-METAR|223|ICAO-KGXA|2.1|N-Normal|1|FM15-METAR|223|ICAO-KGXA|||||||||||||41|Derived||FM15-METAR|223|ICAO-KGXA|||||||||||||||||||||||||||||||||||||||||||||||||||||||||||||||||||||||||1016.6||1|FM15-METAR|223|ICAO-KGXA|||||||||||||||||||||||||||||||||||||||||||MET080METAR KGXA 271255Z AUTO 16004KT 10SM CLR 24/10 A3002 RMK AO2 SLP106 T02390097 $;||F||223|ICAO-KGXA
USI0000KGXA|GRAY BUTTE FLD|2011|08|27|14|00|34.5639|-117.6750|920.5|29.0||1|FM15-METAR|223|ICAO-KGXA|10.0||1|FM15-METAR|223|ICAO-KGXA|||||||1010.6||1|FM15-METAR|223|ICAO-KGXA|120|N-Normal|1|FM15-METAR|223|ICAO-KGXA|1.5|N-Normal|1|FM15-METAR|223|ICAO-KGXA|||||||||||||31|Derived||FM15-METAR|223|ICAO-KGXA|||||||||||||||||||||||||||||||||||||||||||||||||||||||||||||||||||||||||1016.9||1|FM15-METAR|223|ICAO-KGXA|||||||||||||||||||||||||||||||||||||||||||MET085METAR KGXA 271355Z AUTO 12003KT 10SM CLR 29/10 A3003 RMK AO2 SLP106 T02940096 TSNO $;||F||223|ICAO-KGXA
USI0000KGXA|GRAY BUTTE FLD|2011|08|27|15|00|34.5639|-117.6750|920.5|34.0||1|FM15-METAR|223|ICAO-KGXA|7.0||1|FM15-METAR|223|ICAO-KGXA|||||||1010.1||1|FM15-METAR|223|ICAO-KGXA|999|V-Variable|9|FM15-METAR|223|ICAO-KGXA|1.0|V-Variable|1|FM15-METAR|223|ICAO-KGXA|||||||||||||19|Derived||FM15-METAR|223|ICAO-KGXA|||||||||||||||||||||||||||||||||||||||||||||||||||||||||||||||||||||||||1017.3||1|FM15-METAR|223|ICAO-KGXA|1.3|1-Incr-the|1|FM15-METAR|223|ICAO-KGXA|||||||||||||||||||||||||||||||||||||MET086METAR KGXA 271455Z AUTO VRB02KT 10SM CLR 34/07 A3004 RMK AO2 SLP101 T03400069 51013 $;||F||223|ICAO-KGXA
USI0000KGXA|GRAY BUTTE FLD|2011|08|27|16|00|34.5639|-117.6750|920.5|35.0||1|FM15-METAR|223|ICAO-KGXA|7.0||1|FM15-METAR|223|ICAO-KGXA|||||||1010.9||1|FM15-METAR|223|ICAO-KGXA|280|N-Normal|1|FM15-METAR|223|ICAO-KGXA|1.0|N-Normal|1|FM15-METAR|223|ICAO-KGXA|||||||||||||18|Derived||FM15-METAR|223|ICAO-KGXA|||||||||||||||||||||||||||||||||||||||||||||||||||||||||||||||||||||||||1017.6||1|FM15-METAR|223|ICAO-KGXA|||||||||||||||||||||||||||||||||||||||||||MET080METAR KGXA 271555Z AUTO 28002KT 10SM CLR 35/07 A3005 RMK AO2 SLP109 T03510069 $;||F||223|ICAO-KGXA
USI0000KGXA|GRAY BUTTE FLD|2011|08|27|17|00|34.5639|-117.6750|920.5|36.0||1|FM15-METAR|223|ICAO-KGXA|7.0||1|FM15-METAR|223|ICAO-KGXA|||||||1010.6||1|FM15-METAR|223|ICAO-KGXA|999|V-Variable|9|FM15-METAR|223|ICAO-KGXA|2.6|V-Variable|1|FM15-METAR|223|ICAO-KGXA|||||||||||||17|Derived||FM15-METAR|223|ICAO-KGXA|||||||||||||||||||||||||||||||||||||||||||||||||||||||||||||||||||||||||1017.3||1|FM15-METAR|223|ICAO-KGXA|||||||||||||||||||||||||||||||||||||||||||MET080METAR KGXA 271655Z AUTO VRB05KT 10SM CLR 36/07 A3004 RMK AO2 SLP106 T03640065 $;||F||223|ICAO-KGXA
USI0000KGXA|GRAY BUTTE FLD|2011|08|27|18|00|34.5639|-117.6750|920.5|37.0||1|FM15-METAR|223|ICAO-KGXA|7.0||1|FM15-METAR|223|ICAO-KGXA|||||||1010.3||1|FM15-METAR|223|ICAO-KGXA|999|V-Variable|9|FM15-METAR|223|ICAO-KGXA|2.6|V-Variable|1|FM15-METAR|223|ICAO-KGXA|||||||||||||16|Derived||FM15-METAR|223|ICAO-KGXA|||||||||||||||||||||||||||||||||||||||||||||||||||||||||||||||||||||||||1016.9||1|FM15-METAR|223|ICAO-KGXA|-0.3|8-Steady-o|1|FM15-METAR|223|ICAO-KGXA|||||||||||||||||||||||||||||||||||||MET098METAR KGXA 271755Z AUTO VRB05KT 10SM CLR 37/07 A3003 RMK AO2 SLP103 T03710067 10364 20222 58003 $;||F||223|ICAO-KGXA
USI0000KGXA|GRAY BUTTE FLD|2011|08|27|19|00|34.5639|-117.6750|920.5|37.0||1|FM15-METAR|223|ICAO-KGXA|7.0||1|FM15-METAR|223|ICAO-KGXA|||||||1009.9||1|FM15-METAR|223|ICAO-KGXA|999|V-Variable|9|FM15-METAR|223|ICAO-KGXA|2.6|V-Variable|1|FM15-METAR|223|ICAO-KGXA|||||||||||||16|Derived||FM15-METAR|223|ICAO-KGXA|||||||||||||||||||||||||||||||||||||||||||||||||||||||||||||||||||||||||1016.6||1|FM15-METAR|223|ICAO-KGXA|||||||||||||||||||||||||||||||||||||||||||MET094METAR KGXA 271855Z AUTO VRB05KT 10SM FEW180 37/07 A3002 RMK AO2 LTG DSNT E SLP099 T03690067 $;||F||223|ICAO-KGXA
USI0000KGXA|GRAY BUTTE FLD|2011|08|27|20|00|34.5639|-117.6750|920.5|37.0||1|FM15-METAR|223|ICAO-KGXA|7.0||1|FM15-METAR|223|ICAO-KGXA|||||||1009.2||1|FM15-METAR|223|ICAO-KGXA|060|N-Normal|1|FM15-METAR|223|ICAO-KGXA|2.1|N-Normal|1|FM15-METAR|223|ICAO-KGXA|||||||||||||16|Derived||FM15-METAR|223|ICAO-KGXA|||||||||||||||||||||||||||||||||||||||||||||||||||||||||||||||||||||||||1015.9||1|FM15-METAR|223|ICAO-KGXA|||||||FEW:02|02-Two-okt|4|FM15-METAR|223|ICAO-KGXA|||||||SCT:04|04-Four-ok|4|FM15-METAR|223|ICAO-KGXA|||||||||||||||||||MET102METAR KGXA 271955Z AUTO 06004KT 10SM FEW100 SCT140 37/07 A3000 RMK AO2 LTG DSNT SE SLP092 T03670066 $;||F||223|ICAO-KGXA
USI0000KGXA|GRAY BUTTE FLD|2011|08|27|21|00|34.5639|-117.6750|920.5|31.0||1|FM15-METAR|223|ICAO-KGXA|11.0||1|FM15-METAR|223|ICAO-KGXA|||||||1010.4||1|FM15-METAR|223|ICAO-KGXA|999|V-Variable|9|FM15-METAR|223|ICAO-KGXA|2.6|V-Variable|1|FM15-METAR|223|ICAO-KGXA|||||||0.5|9-Missing|9|FM15-METAR|223|ICAO-KGXA|29|Derived||FM15-METAR|223|ICAO-KGXA|||||||||||||||||||||||||||||||||||||||||||SHRA:81|SHRA:81-Ra|1|FM15-METAR|223|ICAO-KGXA|||||||||||||||||||||||||1015.9||1|FM15-METAR|223|ICAO-KGXA|-0.9|8-Steady-o|1|FM15-METAR|223|ICAO-KGXA|FEW:02|02-Two-okt|4|FM15-METAR|223|ICAO-KGXA|||||||SCT:04|04-Four-ok|4|FM15-METAR|223|ICAO-KGXA|||||||||||||||||||MET141METAR KGXA 272055Z AUTO VRB05KT 10SM -SHRA FEW041 SCT130 31/11 A3000 RMK AO2 WSHFT 2016 LTG DSNT NW SHRAB2039 SLP104 P0002 T03130113 58009 $;||F||223|ICAO-KGXA
USI0000KGXA|GRAY BUTTE FLD|2011|08|27|23|00|34.5639|-117.6750|920.5|35.0||1|FM15-METAR|223|ICAO-KGXA|10.0||1|FM15-METAR|223|ICAO-KGXA|||||||1009.7||1|FM15-METAR|223|ICAO-KGXA|100|N-Normal|1|FM15-METAR|223|ICAO-KGXA|4.1|N-Normal|1|FM15-METAR|223|ICAO-KGXA|||||||||||||22|Derived||FM15-METAR|223|ICAO-KGXA|||||||||||||||||||||||||||||||||||||||||||TS:91|TS:91-Thun|1|FM15-METAR|223|ICAO-KGXA|||||||||||||||||||||||||1015.9||1|FM15-METAR|223|ICAO-KGXA|||||||||||||||||||||||||||||||||||||||||||MET086METAR KGXA 272255Z AUTO 10008KT 10SM TS SCT110 35/10 A3000 RMK AO2 SLP097 T03450103 $;||F||223|ICAO-KGXA
USI0000KGXA|GRAY BUTTE FLD|2011|08|28|00|00|34.5639|-117.6750|920.5|35.0||1|FM15-METAR|223|ICAO-KGXA|10.0||1|FM15-METAR|223|ICAO-KGXA|||||||1009.2||1|FM15-METAR|223|ICAO-KGXA|180|N-Normal|1|FM15-METAR|223|ICAO-KGXA|3.6|N-Normal|1|FM15-METAR|223|ICAO-KGXA|||||||||||||22|Derived||FM15-METAR|223|ICAO-KGXA|||||||||||||||||||||||||||||||||||||||||||||||||||||||||||||||||||||||||1015.2||1|FM15-METAR|223|ICAO-KGXA|-0.8|6-Decr,-th|1|FM15-METAR|223|ICAO-KGXA|||||||||||||||||||||||||||||||||||||MET125METAR KGXA 272355Z AUTO 18007KT 10SM CLR 35/10 A2998 RMK AO2 LTG DSNT N SLP092 60002 T03460103 10384 20266 403840222 56008 $;||F||223|ICAO-KGXA
USI0000KGXA|GRAY BUTTE FLD|2011|08|28|01|00|34.5639|-117.6750|920.5|33.0||1|FM15-METAR|223|ICAO-KGXA|11.0||1|FM15-METAR|223|ICAO-KGXA|||||||1009.3||1|FM15-METAR|223|ICAO-KGXA|210|N-Normal|1|FM15-METAR|223|ICAO-KGXA|1.0|N-Normal|1|FM15-METAR|223|ICAO-KGXA|||||||||||||26|Derived||FM15-METAR|223|ICAO-KGXA|||||||||||||||||||||||||||||||||||||||||||||||||||||||||||||||||||||||||1015.2||1|FM15-METAR|223|ICAO-KGXA|||||||||||||||||||||||||||||||||||||||||||MET080METAR KGXA 280055Z AUTO 21002KT 10SM CLR 33/11 A2998 RMK AO2 SLP093 T03330106 $;||F||223|ICAO-KGXA
USI0000KGXA|GRAY BUTTE FLD|2011|08|28|02|00|34.5639|-117.6750|920.5|31.0||1|FM15-METAR|223|ICAO-KGXA|13.0||1|FM15-METAR|223|ICAO-KGXA|||||||1009.2||1|FM15-METAR|223|ICAO-KGXA|280|N-Normal|1|FM15-METAR|223|ICAO-KGXA|1.5|N-Normal|1|FM15-METAR|223|ICAO-KGXA|||||||||||||33|Derived||FM15-METAR|223|ICAO-KGXA|||||||||||||||||||||||||||||||||||||||||||||||||||||||||||||||||||||||||1015.9||1|FM15-METAR|223|ICAO-KGXA|||||||||||||||||||||||||||||||||||||||||||MET080METAR KGXA 280155Z AUTO 28003KT 10SM CLR 31/13 A3000 RMK AO2 SLP092 T03080126 $;||F||223|ICAO-KGXA
USI0000KGXA|GRAY BUTTE FLD|2011|08|28|03|00|34.5639|-117.6750|920.5|28.0||1|FM15-METAR|223|ICAO-KGXA|12.0||1|FM15-METAR|223|ICAO-KGXA|||||||1009.9||1|FM15-METAR|223|ICAO-KGXA|270|N-Normal|1|FM15-METAR|223|ICAO-KGXA|2.1|N-Normal|1|FM15-METAR|223|ICAO-KGXA|||||||||||||37|Derived||FM15-METAR|223|ICAO-KGXA|||||||||||||||||||||||||||||||||||||||||||||||||||||||||||||||||||||||||1016.6||1|FM15-METAR|223|ICAO-KGXA|1.4|3-Decr-or-|1|FM15-METAR|223|ICAO-KGXA|||||||||||||||||||||||||||||||||||||MET086METAR KGXA 280255Z AUTO 27004KT 10SM CLR 28/12 A3002 RMK AO2 SLP099 T02790120 53014 $;||F||223|ICAO-KGXA
USI0000KGXA|GRAY BUTTE FLD|2011|08|28|04|00|34.5639|-117.6750|920.5|26.0||1|FM15-METAR|223|ICAO-KGXA|11.0||1|FM15-METAR|223|ICAO-KGXA|||||||1010.1||1|FM15-METAR|223|ICAO-KGXA|210|N-Normal|1|FM15-METAR|223|ICAO-KGXA|2.6|N-Normal|1|FM15-METAR|223|ICAO-KGXA|||||||||||||39|Derived||FM15-METAR|223|ICAO-KGXA|||||||||||||||||||||||||||||||||||||||||||||||||||||||||||||||||||||||||1016.9||1|FM15-METAR|223|ICAO-KGXA|||||||||||||||||||||||||||||||||||||||||||MET076METAR KGXA 280355Z AUTO 21005KT 10SM 26/11 A3003 RMK AO2 SLP101 T02620114 $;||F||223|ICAO-KGXA
USI0000KGXA|GRAY BUTTE FLD|2011|08|28|05|00|34.5639|-117.6750|920.5|25.0||1|FM15-METAR|223|ICAO-KGXA|10.0||1|FM15-METAR|223|ICAO-KGXA|||||||1009.9||1|FM15-METAR|223|ICAO-KGXA|240|N-Normal|1|FM15-METAR|223|ICAO-KGXA|1.5|N-Normal|1|FM15-METAR|223|ICAO-KGXA|||||||||||||39|Derived||FM15-METAR|223|ICAO-KGXA|||||||||||||||||||||||||||||||||||||||||||||||||||||||||||||||||||||||||1016.6||1|FM15-METAR|223|ICAO-KGXA|||||||||||||||||||||||||||||||||||||||||||MET076METAR KGXA 280455Z AUTO 24003KT 10SM 25/10 A3002 RMK AO2 SLP099 T02510101 $;||F||223|ICAO-KGXA
USI0000KGXA|GRAY BUTTE FLD|2011|08|28|06|00|34.5639|-117.6750|920.5|24.0||1|FM15-METAR|223|ICAO-KGXA|10.0||1|FM15-METAR|223|ICAO-KGXA|||||||1010.0||1|FM15-METAR|223|ICAO-KGXA|190|N-Normal|1|FM15-METAR|223|ICAO-KGXA|2.1|N-Normal|1|FM15-METAR|223|ICAO-KGXA|||||||||||||41|Derived||FM15-METAR|223|ICAO-KGXA|||||||||||||||||||||||||||||||||||||||||||||||||||||||||||||||||||||||||1016.6||1|FM15-METAR|223|ICAO-KGXA|0.0|4-Steady;-|1|FM15-METAR|223|ICAO-KGXA|||||||||||||||||||||||||||||||||||||MET094METAR KGXA 280555Z AUTO 19004KT 10SM 24/10 A3002 RMK AO2 SLP100 T02420100 10353 20248 54000 $;||F||223|ICAO-KGXA
USI0000KGXA|GRAY BUTTE FLD|2011|08|28|07|00|34.5639|-117.6750|920.5|24.0||1|FM15-METAR|223|ICAO-KGXA|9.0||1|FM15-METAR|223|ICAO-KGXA|||||||1010.0||1|FM15-METAR|223|ICAO-KGXA|210|N-Normal|1|FM15-METAR|223|ICAO-KGXA|2.6|N-Normal|1|FM15-METAR|223|ICAO-KGXA|||||||||||||39|Derived||FM15-METAR|223|ICAO-KGXA|||||||||||||||||||||||||||||||||||||||||||||||||||||||||||||||||||||||||1016.6||1|FM15-METAR|223|ICAO-KGXA|||||||||||||||||||||||||||||||||||||||||||MET076METAR KGXA 280655Z AUTO 21005KT 10SM 24/09 A3002 RMK AO2 SLP100 T02420091 $;||F||223|ICAO-KGXA
USI0000KGXA|GRAY BUTTE FLD|2011|08|28|08|00|34.5639|-117.6750|920.5|23.0||1|FM15-METAR|223|ICAO-KGXA|9.0||1|FM15-METAR|223|ICAO-KGXA|||||||1009.9||1|FM15-METAR|223|ICAO-KGXA|190|N-Normal|1|FM15-METAR|223|ICAO-KGXA|2.1|N-Normal|1|FM15-METAR|223|ICAO-KGXA|||||||||||||41|Derived||FM15-METAR|223|ICAO-KGXA|||||||||||||||||||||||||||||||||||||||||||||||||||||||||||||||||||||||||1016.3||1|FM15-METAR|223|ICAO-KGXA|||||||||||||||||||||||||||||||||||||||||||MET076METAR KGXA 280755Z AUTO 19004KT 10SM 23/09 A3001 RMK AO2 SLP099 T02290093 $;||F||223|ICAO-KGXA
USI0000KGXA|GRAY BUTTE FLD|2011|08|28|09|00|34.5639|-117.6750|920.5|23.0||1|FM15-METAR|223|ICAO-KGXA|9.0||1|FM15-METAR|223|ICAO-KGXA|||||||1010.5||1|FM15-METAR|223|ICAO-KGXA|190|N-Normal|1|FM15-METAR|223|ICAO-KGXA|2.1|N-Normal|1|FM15-METAR|223|ICAO-KGXA|||||||||||||41|Derived||FM15-METAR|223|ICAO-KGXA|||||||||||||||||||||||||||||||||||||||||||||||||||||||||||||||||||||||||1015.9||1|FM15-METAR|223|ICAO-KGXA|-0.6|8-Steady-o|1|FM15-METAR|223|ICAO-KGXA|||||||||||||||||||||||||||||||||||||MET082METAR KGXA 280855Z AUTO 19004KT 10SM 23/09 A3000 RMK AO2 SLP105 T02290092 58006 $;||F||223|ICAO-KGXA
USI0000KGXA|GRAY BUTTE FLD|2011|08|28|10|00|34.5639|-117.6750|920.5|22.0||1|FM15-METAR|223|ICAO-KGXA|10.0||1|FM15-METAR|223|ICAO-KGXA|||||||1010.0||1|FM15-METAR|223|ICAO-KGXA|170|N-Normal|1|FM15-METAR|223|ICAO-KGXA|2.1|N-Normal|1|FM15-METAR|223|ICAO-KGXA|||||||||||||47|Derived||FM15-METAR|223|ICAO-KGXA|||||||||||||||||||||||||||||||||||||||||||||||||||||||||||||||||||||||||1015.9||1|FM15-METAR|223|ICAO-KGXA|||||||||||||||||||||||||||||||||||||||||||MET076METAR KGXA 280955Z AUTO 17004KT 10SM 22/10 A3000 RMK AO2 SLP100 T02190095 $;||F||223|ICAO-KGXA
USI0000KGXA|GRAY BUTTE FLD|2011|08|28|11|00|34.5639|-117.6750|920.5|22.0||1|FM15-METAR|223|ICAO-KGXA|11.0||1|FM15-METAR|223|ICAO-KGXA|||||||1009.8||1|FM15-METAR|223|ICAO-KGXA|180|N-Normal|1|FM15-METAR|223|ICAO-KGXA|2.6|N-Normal|1|FM15-METAR|223|ICAO-KGXA|||||||||||||50|Derived||FM15-METAR|223|ICAO-KGXA|||||||||||||||||||||||||||||||||||||||||||||||||||||||||||||||||||||||||1015.6||1|FM15-METAR|223|ICAO-KGXA|||||||||||||||||||||||||||||||||||||||||||MET076METAR KGXA 281055Z AUTO 18005KT 10SM 22/11 A2999 RMK AO2 SLP098 T02180109 $;||F||223|ICAO-KGXA
USI0000KGXA|GRAY BUTTE FLD|2011|08|28|12|00|34.5639|-117.6750|920.5|21.0||1|FM15-METAR|223|ICAO-KGXA|11.0||1|FM15-METAR|223|ICAO-KGXA|||||||1010.1||1|FM15-METAR|223|ICAO-KGXA|180|N-Normal|1|FM15-METAR|223|ICAO-KGXA|2.6|N-Normal|1|FM15-METAR|223|ICAO-KGXA|||||||||||||53|Derived||FM15-METAR|223|ICAO-KGXA|||||||||||||||||||||||||||||||||||||||||||||||||||||||||||||||||||||||||1015.9||1|FM15-METAR|223|ICAO-KGXA|-0.2|7-Decr-(st|1|FM15-METAR|223|ICAO-KGXA|||||||||||||||||||||||||||||||||||||MET100METAR KGXA 281155Z AUTO 18005KT 10SM 21/11 A3000 RMK AO2 SLP101 70002 T02130109 10247 20213 57002 $;||F||223|ICAO-KGXA
USI0000KGXA|GRAY BUTTE FLD|2011|08|28|13|00|34.5639|-117.6750|920.5|22.0||1|FM15-METAR|223|ICAO-KGXA|11.0||1|FM15-METAR|223|ICAO-KGXA|||||||1010.7||1|FM15-METAR|223|ICAO-KGXA|160|N-Normal|1|FM15-METAR|223|ICAO-KGXA|2.6|N-Normal|1|FM15-METAR|223|ICAO-KGXA|||||||||||||50|Derived||FM15-METAR|223|ICAO-KGXA|||||||||||||||||||||||||||||||||||||||||||||||||||||||||||||||||||||||||1016.3||1|FM15-METAR|223|ICAO-KGXA|||||||||||||||||||||||||||||||||||||||||||MET076METAR KGXA 281255Z AUTO 16005KT 10SM 22/11 A3001 RMK AO2 SLP107 T02200112 $;||F||223|ICAO-KGXA
USI0000KGXA|GRAY BUTTE FLD|2011|08|28|14|00|34.5639|-117.6750|920.5|29.0||1|FM15-METAR|223|ICAO-KGXA|10.0||1|FM15-METAR|223|ICAO-KGXA|||||||1010.3||1|FM15-METAR|223|ICAO-KGXA|150|N-Normal|1|FM15-METAR|223|ICAO-KGXA|1.5|N-Normal|1|FM15-METAR|223|ICAO-KGXA|||||||||||||31|Derived||FM15-METAR|223|ICAO-KGXA|||||||||||||||||||||||||||||||||||||||||||||||||||||||||||||||||||||||||1016.6||1|FM15-METAR|223|ICAO-KGXA|||||||||||||||||||||||||||||||||||||||||||MET076METAR KGXA 281355Z AUTO 15003KT 10SM 29/10 A3002 RMK AO2 SLP103 T02900096 $;||F||223|ICAO-KGXA
USI0000KGXA|GRAY BUTTE FLD|2011|08|28|15|00|34.5639|-117.6750|920.5|34.0||1|FM15-METAR|223|ICAO-KGXA|7.0||1|FM15-METAR|223|ICAO-KGXA|||||||1010.1||1|FM15-METAR|223|ICAO-KGXA|080|N-Normal|1|FM15-METAR|223|ICAO-KGXA|1.5|N-Normal|1|FM15-METAR|223|ICAO-KGXA|||||||||||||19|Derived||FM15-METAR|223|ICAO-KGXA|||||||||||||||||||||||||||||||||||||||||||||||||||||||||||||||||||||||||1016.6||1|FM15-METAR|223|ICAO-KGXA|0.8|2-Incr-(st|1|FM15-METAR|223|ICAO-KGXA|||||||||||||||||||||||||||||||||||||MET082METAR KGXA 281455Z AUTO 08003KT 10SM 34/07 A3002 RMK AO2 SLP101 T03370067 52008 $;||F||223|ICAO-KGXA
USI0000KGXA|GRAY BUTTE FLD|2011|08|28|16|00|34.5639|-117.6750|920.5|34.0||1|FM15-METAR|223|ICAO-KGXA|8.0||1|FM15-METAR|223|ICAO-KGXA|||||||1010.2||1|FM15-METAR|223|ICAO-KGXA|100|N-Normal|1|FM15-METAR|223|ICAO-KGXA|1.0|N-Normal|1|FM15-METAR|223|ICAO-KGXA|||||||||||||20|Derived||FM15-METAR|223|ICAO-KGXA|||||||||||||||||||||||||||||||||||||||||||||||||||||||||||||||||||||||||1016.6||1|FM15-METAR|223|ICAO-KGXA|||||||||||||||||||||||||||||||||||||||||||MET076METAR KGXA 281555Z AUTO 10002KT 10SM 34/08 A3002 RMK AO2 SLP102 T03440075 $;||F||223|ICAO-KGXA
USI0000KGXA|GRAY BUTTE FLD|2011|08|28|17|00|34.5639|-117.6750|920.5|36.0||1|FM15-METAR|223|ICAO-KGXA|5.0||1|FM15-METAR|223|ICAO-KGXA|||||||1010.1||1|FM15-METAR|223|ICAO-KGXA|999|V-Variable|9|FM15-METAR|223|ICAO-KGXA|1.5|V-Variable|1|FM15-METAR|223|ICAO-KGXA|||||||||||||14|Derived||FM15-METAR|223|ICAO-KGXA|||||||||||||||||||||||||||||||||||||||||||||||||||||||||||||||||||||||||1016.6||1|FM15-METAR|223|ICAO-KGXA|||||||||||||||||||||||||||||||||||||||||||MET076METAR KGXA 281655Z AUTO VRB03KT 10SM 36/05 A3002 RMK AO2 SLP101 T03570052 $;||F||223|ICAO-KGXA
USI0000KGXA|GRAY BUTTE FLD|2011|08|28|18|00|34.5639|-117.6750|920.5|37.0||1|FM15-METAR|223|ICAO-KGXA|6.0||1|FM15-METAR|223|ICAO-KGXA|||||||1009.5||1|FM15-METAR|223|ICAO-KGXA|320|N-Normal|1|FM15-METAR|223|ICAO-KGXA|4.6|N-Normal|1|FM15-METAR|223|ICAO-KGXA|6.2||1|FM15-METAR|223|ICAO-KGXA|||||||15|Derived||FM15-METAR|223|ICAO-KGXA|||||||||||||||||||||||||||||||||||||||||||||||||||||||||||||||||||||||||1015.9||1|FM15-METAR|223|ICAO-KGXA|-0.7|8-Steady-o|1|FM15-METAR|223|ICAO-KGXA|||||||||||||||||||||||||||||||||||||MET105METAR KGXA 281755Z AUTO 32009G12KT 220V340 10SM 37/06 A3000 RMK AO2 SLP095 T03680056 10362 20207 58007 $;||F||223|ICAO-KGXA
USI0000KGXA|GRAY BUTTE FLD|2011|08|28|19|00|34.5639|-117.6750|920.5|38.0||1|FM15-METAR|223|ICAO-KGXA|6.0||1|FM15-METAR|223|ICAO-KGXA|||||||1008.7||1|FM15-METAR|223|ICAO-KGXA|999|V-Variable|9|FM15-METAR|223|ICAO-KGXA|2.6|V-Variable|1|FM15-METAR|223|ICAO-KGXA|||||||||||||14|Derived||FM15-METAR|223|ICAO-KGXA|||||||||||||||||||||||||||||||||||||||||||||||||||||||||||||||||||||||||1015.6||1|FM15-METAR|223|ICAO-KGXA|||||||||||||||||||||||||||||||||||||||||||MET076METAR KGXA 281855Z AUTO VRB05KT 10SM 38/06 A2999 RMK AO2 SLP087 T03810061 $;||F||223|ICAO-KGXA
USI0000KGXA|GRAY BUTTE FLD|2011|08|28|20|00|34.5639|-117.6750|920.5|39.0||1|FM15-METAR|223|ICAO-KGXA|6.0||1|FM15-METAR|223|ICAO-KGXA|||||||1007.8||1|FM15-METAR|223|ICAO-KGXA|280|N-Normal|1|FM15-METAR|223|ICAO-KGXA|3.6|N-Normal|1|FM15-METAR|223|ICAO-KGXA|6.2||1|FM15-METAR|223|ICAO-KGXA|||||||13|Derived||FM15-METAR|223|ICAO-KGXA|||||||||||||||||||||||||||||||||||||||||||||||||||||||||||||||||||||||||1014.6||1|FM15-METAR|223|ICAO-KGXA|||||||||||||||||||||||||||||||||||||||||||MET087METAR KGXA 281955Z AUTO 28007G12KT 180V340 10SM 39/06 A2996 RMK AO2 SLP078 T03860059 $;||F||223|ICAO-KGXA
USI0000KGXA|GRAY BUTTE FLD|2011|08|28|21|00|34.5639|-117.6750|920.5|39.0||1|FM15-METAR|223|ICAO-KGXA|5.0||1|FM15-METAR|223|ICAO-KGXA|||||||1006.9||1|FM15-METAR|223|ICAO-KGXA|330|N-Normal|1|FM15-METAR|223|ICAO-KGXA|3.1|N-Normal|1|FM15-METAR|223|ICAO-KGXA|7.7||1|FM15-METAR|223|ICAO-KGXA|||||||12|Derived||FM15-METAR|223|ICAO-KGXA|||||||||||||||||||||||||||||||||||||||||||||||||||||||||||||||||||||||||1013.9||1|FM15-METAR|223|ICAO-KGXA|-2.1|7-Decr-(st|1|FM15-METAR|223|ICAO-KGXA|||||||||||||||||||||||||||||||||||||MET085METAR KGXA 282055Z AUTO 33006G15KT 10SM 39/05 A2994 RMK AO2 SLP069 T03860053 57021 $;||F||223|ICAO-KGXA
USI0000KGXA|GRAY BUTTE FLD|2011|08|28|22|00|34.5639|-117.6750|920.5|39.0||1|FM15-METAR|223|ICAO-KGXA|5.0||1|FM15-METAR|223|ICAO-KGXA|||||||1006.3||1|FM15-METAR|223|ICAO-KGXA|280|N-Normal|1|FM15-METAR|223|ICAO-KGXA|5.1|N-Normal|1|FM15-METAR|223|ICAO-KGXA|8.2||1|FM15-METAR|223|ICAO-KGXA|||||||12|Derived||FM15-METAR|223|ICAO-KGXA|||||||||||||||||||||||||||||||||||||||||||||||||||||||||||||||||||||||||1012.9||1|FM15-METAR|223|ICAO-KGXA|||||||||||||||||||||||||||||||||||||||||||MET079METAR KGXA 282155Z AUTO 28010G16KT 10SM 39/05 A2991 RMK AO2 SLP063 T03930054 $;||F||223|ICAO-KGXA
USI0000KGXA|GRAY BUTTE FLD|2011|08|28|23|00|34.5639|-117.6750|920.5|39.0||1|FM15-METAR|223|ICAO-KGXA|6.0||1|FM15-METAR|223|ICAO-KGXA|||||||1006.1||1|FM15-METAR|223|ICAO-KGXA|260|N-Normal|1|FM15-METAR|223|ICAO-KGXA|5.1|N-Normal|1|FM15-METAR|223|ICAO-KGXA|7.7||1|FM15-METAR|223|ICAO-KGXA|||||||13|Derived||FM15-METAR|223|ICAO-KGXA|||||||||||||||||||||||||||||||||||||||||||||||||||||||||||||||||||||||||1012.5||1|FM15-METAR|223|ICAO-KGXA|||||||||||||||||||||||||||||||||||||||||||MET079METAR KGXA 282255Z AUTO 26010G15KT 10SM 39/06 A2990 RMK AO2 SLP061 T03860056 $;||F||223|ICAO-KGXA
USI0000KGXA|GRAY BUTTE FLD|2011|08|29|00|00|34.5639|-117.6750|920.5|37.0||1|FM15-METAR|223|ICAO-KGXA|5.0||1|FM15-METAR|223|ICAO-KGXA|||||||1006.5||1|FM15-METAR|223|ICAO-KGXA|270|N-Normal|1|FM15-METAR|223|ICAO-KGXA|6.7|N-Normal|1|FM15-METAR|223|ICAO-KGXA|9.8||1|FM15-METAR|223|ICAO-KGXA|||||||14|Derived||FM15-METAR|223|ICAO-KGXA|||||||||||||||||||||||||||||||||||||||||||||||||||||||||||||||||||||||||1012.5||1|FM15-METAR|223|ICAO-KGXA|-0.9|6-Decr,-th|1|FM15-METAR|223|ICAO-KGXA|||||||||||||||||||||||||||||||||||||MET107METAR KGXA 282355Z AUTO 27013G19KT 10SM 37/05 A2990 RMK AO2 SLP065 T03670047 10396 20352 403960207 56009 $;||F||223|ICAO-KGXA
USI0000KGXA|GRAY BUTTE FLD|2011|08|29|01|00|34.5639|-117.6750|920.5|34.0||1|FM15-METAR|223|ICAO-KGXA|7.0||1|FM15-METAR|223|ICAO-KGXA|||||||1006.9||1|FM15-METAR|223|ICAO-KGXA|280|N-Normal|1|FM15-METAR|223|ICAO-KGXA|5.7|N-Normal|1|FM15-METAR|223|ICAO-KGXA|8.7||1|FM15-METAR|223|ICAO-KGXA|||||||19|Derived||FM15-METAR|223|ICAO-KGXA|||||||||||||||||||||||||||||||||||||||||||||||||||||||||||||||||||||||||1012.9||1|FM15-METAR|223|ICAO-KGXA|||||||||||||||||||||||||||||||||||||||||||MET079METAR KGXA 290055Z AUTO 28011G17KT 10SM 34/07 A2991 RMK AO2 SLP069 T03420067 $;||F||223|ICAO-KGXA
USI0000KGXA|GRAY BUTTE FLD|2011|08|29|02|00|34.5639|-117.6750|920.5|31.0||1|FM15-METAR|223|ICAO-KGXA|7.0||1|FM15-METAR|223|ICAO-KGXA|||||||1006.8||1|FM15-METAR|223|ICAO-KGXA|270|N-Normal|1|FM15-METAR|223|ICAO-KGXA|4.1|N-Normal|1|FM15-METAR|223|ICAO-KGXA|||||||||||||22|Derived||FM15-METAR|223|ICAO-KGXA|||||||||||||||||||||||||||||||||||||||||||||||||||||||||||||||||||||||||1013.2||1|FM15-METAR|223|ICAO-KGXA|||||||||||||||||||||||||||||||||||||||||||MET076METAR KGXA 290155Z AUTO 27008KT 10SM 31/07 A2992 RMK AO2 SLP068 T03130069 $;||F||223|ICAO-KGXA
USI0000KGXA|GRAY BUTTE FLD|2011|08|29|03|00|34.5639|-117.6750|920.5|31.0||1|FM15-METAR|223|ICAO-KGXA|7.0||1|FM15-METAR|223|ICAO-KGXA|||||||1006.5||1|FM15-METAR|223|ICAO-KGXA|270|N-Normal|1|FM15-METAR|223|ICAO-KGXA|4.6|N-Normal|1|FM15-METAR|223|ICAO-KGXA|||||||||||||22|Derived||FM15-METAR|223|ICAO-KGXA|||||||||||||||||||||||||||||||||||||||||||||||||||||||||||||||||||||||||1013.2||1|FM15-METAR|223|ICAO-KGXA|0.8|2-Incr-(st|1|FM15-METAR|223|ICAO-KGXA|||||||||||||||||||||||||||||||||||||MET097METAR KGXA 290255Z AUTO 27009KT 10SM 31/07 A2992 RMK AO2 SLP065 T03100065 52008 PWINO PNO TSNO $;||F||223|ICAO-KGXA
USI0000KGXA|GRAY BUTTE FLD|2011|08|29|15|00|34.5639|-117.6750|920.5|32.0||1|FM15-METAR|223|ICAO-KGXA|3.0||1|FM15-METAR|223|ICAO-KGXA|||||||1007.3||1|FM15-METAR|223|ICAO-KGXA|280|N-Normal|1|FM15-METAR|223|ICAO-KGXA|2.1|N-Normal|1|FM15-METAR|223|ICAO-KGXA|||||||||||||16|Derived||FM15-METAR|223|ICAO-KGXA|||||||||||||||||||||||||||||||||||||||||||||||||||||||||||||||||||||||||1014.2||1|FM15-METAR|223|ICAO-KGXA|0.7|2-Incr-(st|1|FM15-METAR|223|ICAO-KGXA|||||||||||||||||||||||||||||||||||||MET088METAR KGXA 291455Z AUTO 28004KT 32/03 A2995 RMK AO2 SLP073 T03180027 52007 PWINO TSNO $;||F||223|ICAO-KGXA
USI0000KGXA|GRAY BUTTE FLD|2011|08|29|16|00|34.5639|-117.6750|920.5|34.0||1|FM15-METAR|223|ICAO-KGXA|4.0||1|FM15-METAR|223|ICAO-KGXA|||||||1007.3||1|FM15-METAR|223|ICAO-KGXA|290|N-Normal|1|FM15-METAR|223|ICAO-KGXA|2.6|N-Normal|1|FM15-METAR|223|ICAO-KGXA|||||||||||||15|Derived||FM15-METAR|223|ICAO-KGXA|||||||||||||||||||||||||||||||||||||||||||||||||||||||||||||||||||||||||1014.2||1|FM15-METAR|223|ICAO-KGXA|||||||||||||||||||||||||||||||||||||||||||MET082METAR KGXA 291555Z AUTO 29005KT 34/04 A2995 RMK AO2 SLP073 T03360035 PWINO TSNO $;||F||223|ICAO-KGXA
USI0000KGXA|GRAY BUTTE FLD|2011|08|29|17|00|34.5639|-117.6750|920.5|37.0||1|FM15-METAR|223|ICAO-KGXA|1.0||1|FM15-METAR|223|ICAO-KGXA|||||||1006.6||1|FM15-METAR|223|ICAO-KGXA|290|N-Normal|1|FM15-METAR|223|ICAO-KGXA|5.1|N-Normal|1|FM15-METAR|223|ICAO-KGXA|7.2||1|FM15-METAR|223|ICAO-KGXA|||||||10|Derived||FM15-METAR|223|ICAO-KGXA|||||||||||||||||||||||||||||||||||||||||||||||||||||||||||||||||||||||||1013.9||1|FM15-METAR|223|ICAO-KGXA|||||||||||||||||||||||||||||||||||||||||||MET085METAR KGXA 291655Z AUTO 29010G14KT 37/01 A2994 RMK AO2 SLP066 T03740006 PWINO TSNO $;||F||223|ICAO-KGXA
USI0000KGXA|GRAY BUTTE FLD|2011|08|29|18|00|34.5639|-117.6750|920.5|38.0||1|FM15-METAR|223|ICAO-KGXA|-1.0||1|FM15-METAR|223|ICAO-KGXA|||||||1006.3||1|FM15-METAR|223|ICAO-KGXA|999|V-Variable|9|FM15-METAR|223|ICAO-KGXA|3.1|V-Variable|1|FM15-METAR|223|ICAO-KGXA|||||||||||||8|Derived||FM15-METAR|223|ICAO-KGXA|||||||||||||||||||||||||||||||||||||||||||||||||||||||||||||||||||||||||1013.5||1|FM15-METAR|223|ICAO-KGXA|-0.6|8-Steady-o|1|FM15-METAR|223|ICAO-KGXA|||||||||||||||||||||||||||||||||||||MET101METAR KGXA 291755Z AUTO VRB06KT 38/M01 A2993 RMK AO2 SLP063 T03791006 10374 20204 58006 PWINO TSNO $;||F||223|ICAO-KGXA
USI0000KGXA|GRAY BUTTE FLD|2011|08|29|19|00|34.5639|-117.6750|920.5|39.0||1|FM15-METAR|223|ICAO-KGXA|-2.0||1|FM15-METAR|223|ICAO-KGXA|||||||1006.1||1|FM15-METAR|223|ICAO-KGXA|300|N-Normal|1|FM15-METAR|223|ICAO-KGXA|4.1|N-Normal|1|FM15-METAR|223|ICAO-KGXA|7.7||1|FM15-METAR|223|ICAO-KGXA|||||||7|Derived||FM15-METAR|223|ICAO-KGXA|||||||||||||||||||||||||||||||||||||||||||||||||||||||||||||||||||||||||1012.9||1|FM15-METAR|223|ICAO-KGXA|||||||||||||||||||||||||||||||||||||||||||MET086METAR KGXA 291855Z AUTO 30008G15KT 39/M02 A2991 RMK AO2 SLP061 T03851022 PWINO TSNO $;||F||223|ICAO-KGXA
USI0000KGXA|GRAY BUTTE FLD|2011|08|29|20|00|34.5639|-117.6750|920.5|39.0||1|FM15-METAR|223|ICAO-KGXA|-3.0||1|FM15-METAR|223|ICAO-KGXA|||||||1005.5||1|FM15-METAR|223|ICAO-KGXA|250|N-Normal|1|FM15-METAR|223|ICAO-KGXA|3.6|N-Normal|1|FM15-METAR|223|ICAO-KGXA|7.7||1|FM15-METAR|223|ICAO-KGXA|||||||7|Derived||FM15-METAR|223|ICAO-KGXA|||||||||||||||||||||||||||||||||||||||||||||||||||||||||||||||||||||||||1012.5||1|FM15-METAR|223|ICAO-KGXA|||||||||||||||||||||||||||||||||||||||||||MET086METAR KGXA 291955Z AUTO 25007G15KT 39/M03 A2990 RMK AO2 SLP055 T03931028 PWINO TSNO $;||F||223|ICAO-KGXA
USI0000KGXA|GRAY BUTTE FLD|2011|08|29|21|00|34.5639|-117.6750|920.5|39.0||1|FM15-METAR|223|ICAO-KGXA|-3.0||1|FM15-METAR|223|ICAO-KGXA|||||||1004.9||1|FM15-METAR|223|ICAO-KGXA|270|N-Normal|1|FM15-METAR|223|ICAO-KGXA|5.1|N-Normal|1|FM15-METAR|223|ICAO-KGXA|9.3||1|FM15-METAR|223|ICAO-KGXA|||||||7|Derived||FM15-METAR|223|ICAO-KGXA|||||||||||||||||||||||||||||||||||||||||||||||||||||||||||||||||||||||||1011.5||1|FM15-METAR|223|ICAO-KGXA|-1.7|7-Decr-(st|1|FM15-METAR|223|ICAO-KGXA|||||||||||||||||||||||||||||||||||||MET092METAR KGXA 292055Z AUTO 27010G18KT 39/M03 A2987 RMK AO2 SLP049 T03911027 57017 PWINO TSNO $;||F||223|ICAO-KGXA
USI0000KGXA|GRAY BUTTE FLD|2011|08|29|22|00|34.5639|-117.6750|920.5|38.0||1|FM15-METAR|223|ICAO-KGXA|-3.0||1|FM15-METAR|223|ICAO-KGXA|||||||1004.7||1|FM15-METAR|223|ICAO-KGXA|280|N-Normal|1|FM15-METAR|223|ICAO-KGXA|6.7|N-Normal|1|FM15-METAR|223|ICAO-KGXA|9.3||1|FM15-METAR|223|ICAO-KGXA|||||||7|Derived||FM15-METAR|223|ICAO-KGXA|||||||||||||||||||||||||||||||||||||||||||||||||||||||||||||||||||||||||1011.2||1|FM15-METAR|223|ICAO-KGXA|||||||||||||||||||||||||||||||||||||||||||MET086METAR KGXA 292155Z AUTO 28013G18KT 38/M03 A2986 RMK AO2 SLP047 T03821031 PWINO TSNO $;||F||223|ICAO-KGXA
USI0000KGXA|GRAY BUTTE FLD|2011|08|29|23|00|34.5639|-117.6750|920.5|38.0||1|FM15-METAR|223|ICAO-KGXA|-4.0||1|FM15-METAR|223|ICAO-KGXA|||||||1004.5||1|FM15-METAR|223|ICAO-KGXA|300|N-Normal|1|FM15-METAR|223|ICAO-KGXA|7.7|N-Normal|1|FM15-METAR|223|ICAO-KGXA|10.3||1|FM15-METAR|223|ICAO-KGXA|||||||7|Derived||FM15-METAR|223|ICAO-KGXA|||||||||||||||||||||||||||||||||||||||||||||||||||||||||||||||||||||||||1010.8||1|FM15-METAR|223|ICAO-KGXA|||||||||||||||||||||||||||||||||||||||||||MET086METAR KGXA 292255Z AUTO 30015G20KT 38/M04 A2985 RMK AO2 SLP045 T03761039 PWINO TSNO $;||F||223|ICAO-KGXA
USI0000KGXA|GRAY BUTTE FLD|2011|08|30|00|00|34.5639|-117.6750|920.5|36.0||1|FM15-METAR|223|ICAO-KGXA|-3.0||1|FM15-METAR|223|ICAO-KGXA|||||||1004.6||1|FM15-METAR|223|ICAO-KGXA|290|N-Normal|1|FM15-METAR|223|ICAO-KGXA|8.7|N-Normal|1|FM15-METAR|223|ICAO-KGXA|11.3||1|FM15-METAR|223|ICAO-KGXA|||||||8|Derived||FM15-METAR|223|ICAO-KGXA|||||||||||||||||||||||||||||||||||||||||||||||||||||||||||||||||||||||||1010.5||1|FM15-METAR|223|ICAO-KGXA|-1.0|7-Decr-(st|1|FM15-METAR|223|ICAO-KGXA|||||||||||||||||||||||||||||||||||||MET114METAR KGXA 292355Z AUTO 29017G22KT 36/M03 A2984 RMK AO2 SLP046 T03611028 10397 20370 403970296 57010 PWINO TSNO $;||F||223|ICAO-KGXA
USI0000KGXA|GRAY BUTTE FLD|2011|08|30|01|00|34.5639|-117.6750|920.5|34.0||1|FM15-METAR|223|ICAO-KGXA|-1.0||1|FM15-METAR|223|ICAO-KGXA|||||||1005.0||1|FM15-METAR|223|ICAO-KGXA|280|N-Normal|1|FM15-METAR|223|ICAO-KGXA|5.1|N-Normal|1|FM15-METAR|223|ICAO-KGXA|||||||||||||11|Derived||FM15-METAR|223|ICAO-KGXA|||||||||||||||||||||||||||||||||||||||||||||||||||||||||||||||||||||||||1010.8||1|FM15-METAR|223|ICAO-KGXA|||||||||||||||||||||||||||||||||||||||||||MET083METAR KGXA 300055Z AUTO 28010KT 34/M01 A2985 RMK AO2 SLP050 T03371012 PWINO TSNO $;||F||223|ICAO-KGXA
USI0000KGXA|GRAY BUTTE FLD|2011|08|30|02|00|34.5639|-117.6750|920.5|30.0||1|FM15-METAR|223|ICAO-KGXA|2.0||1|FM15-METAR|223|ICAO-KGXA|||||||1004.7||1|FM15-METAR|223|ICAO-KGXA|290|N-Normal|1|FM15-METAR|223|ICAO-KGXA|5.7|N-Normal|1|FM15-METAR|223|ICAO-KGXA|||||||||||||17|Derived||FM15-METAR|223|ICAO-KGXA|||||||||||||||||||||||||||||||||||||||||||||||||||||||||||||||||||||||||1011.2||1|FM15-METAR|223|ICAO-KGXA|||||||||||||||||||||||||||||||||||||||||||MET082METAR KGXA 300155Z AUTO 29011KT 30/02 A2986 RMK AO2 SLP047 T03040015 PWINO TSNO $;||F||223|ICAO-KGXA
USI0000KGXA|GRAY BUTTE FLD|2011|08|30|03|00|34.5639|-117.6750|920.5|27.0||1|FM15-METAR|223|ICAO-KGXA|5.0||1|FM15-METAR|223|ICAO-KGXA|||||||1005.6||1|FM15-METAR|223|ICAO-KGXA|260|N-Normal|1|FM15-METAR|223|ICAO-KGXA|2.1|N-Normal|1|FM15-METAR|223|ICAO-KGXA|||||||||||||24|Derived||FM15-METAR|223|ICAO-KGXA|||||||||||||||||||||||||||||||||||||||||||||||||||||||||||||||||||||||||1011.9||1|FM15-METAR|223|ICAO-KGXA|1.3|3-Decr-or-|1|FM15-METAR|223|ICAO-KGXA|||||||||||||||||||||||||||||||||||||MET088METAR KGXA 300255Z AUTO 26004KT 27/05 A2988 RMK AO2 SLP056 T02710045 53013 PWINO TSNO $;||F||223|ICAO-KGXA
USI0000KGXA|GRAY BUTTE FLD|2011|08|30|04|00|34.5639|-117.6750|920.5|25.0||1|FM15-METAR|223|ICAO-KGXA|5.0||1|FM15-METAR|223|ICAO-KGXA|||||||1005.8||1|FM15-METAR|223|ICAO-KGXA|250|N-Normal|1|FM15-METAR|223|ICAO-KGXA|2.6|N-Normal|1|FM15-METAR|223|ICAO-KGXA|||||||||||||28|Derived||FM15-METAR|223|ICAO-KGXA|||||||||||||||||||||||||||||||||||||||||||||||||||||||||||||||||||||||||1012.2||1|FM15-METAR|223|ICAO-KGXA|||||||||||||||||||||||||||||||||||||||||||MET082METAR KGXA 300355Z AUTO 25005KT 25/05 A2989 RMK AO2 SLP058 T02500046 PWINO TSNO $;||F||223|ICAO-KGXA
USI0000KGXA|GRAY BUTTE FLD|2011|08|30|05|00|34.5639|-117.6750|920.5|23.0||1|FM15-METAR|223|ICAO-KGXA|3.0||1|FM15-METAR|223|ICAO-KGXA|||||||1005.4||1|FM15-METAR|223|ICAO-KGXA|130|N-Normal|1|FM15-METAR|223|ICAO-KGXA|1.5|N-Normal|1|FM15-METAR|223|ICAO-KGXA|||||||||||||27|Derived||FM15-METAR|223|ICAO-KGXA|||||||||||||||||||||||||||||||||||||||||||||||||||||||||||||||||||||||||1012.2||1|FM15-METAR|223|ICAO-KGXA|||||||||||||||||||||||||||||||||||||||||||MET082METAR KGXA 300455Z AUTO 13003KT 23/03 A2989 RMK AO2 SLP054 T02330029 PWINO TSNO $;||F||223|ICAO-KGXA
USI0000KGXA|GRAY BUTTE FLD|2011|08|30|06|00|34.5639|-117.6750|920.5|23.0||1|FM15-METAR|223|ICAO-KGXA|-2.0||1|FM15-METAR|223|ICAO-KGXA|||||||1005.5||1|FM15-METAR|223|ICAO-KGXA|190|N-Normal|1|FM15-METAR|223|ICAO-KGXA|2.1|N-Normal|1|FM15-METAR|223|ICAO-KGXA|||||||||||||19|Derived||FM15-METAR|223|ICAO-KGXA|||||||||||||||||||||||||||||||||||||||||||||||||||||||||||||||||||||||||1012.2||1|FM15-METAR|223|ICAO-KGXA|0.2|2-Incr-(st|1|FM15-METAR|223|ICAO-KGXA|||||||||||||||||||||||||||||||||||||MET105METAR KGXA 300555Z AUTO 19004KT 23/M02 A2989 RMK AO2 SLP055 T02281021 10375 20226 52002 PWINO PNO TSNO $;||F||223|ICAO-KGXA
USI0000KGXA|GRAY BUTTE FLD|2011|08|30|14|00|34.5639|-117.6750|920.5|26.0||1|FM15-METAR|223|ICAO-KGXA|2.0||1|FM15-METAR|223|ICAO-KGXA|||||||1006.6||1|FM15-METAR|223|ICAO-KGXA|150|N-Normal|1|FM15-METAR|223|ICAO-KGXA|0.5|N-Normal|1|FM15-METAR|223|ICAO-KGXA|||||||||||||21|Derived||FM15-METAR|223|ICAO-KGXA|||||||||||||||||||||||||||||||||||||||||||||||||||||||||||||||||||||||||1012.2||1|FM15-METAR|223|ICAO-KGXA|||||||||||||||||||||||||||||||||||||||||||MET078METAR KGXA 301355Z AUTO 15001KT 10SM CLR 26/02 A2989 RMK AO2 SLP066 T02600020;||F||223|ICAO-KGXA
USI0000KGXA|GRAY BUTTE FLD|2011|08|30|15|00|34.5639|-117.6750|920.5|28.0||1|FM15-METAR|223|ICAO-KGXA|3.0||1|FM15-METAR|223|ICAO-KGXA|||||||1006.6||1|FM15-METAR|223|ICAO-KGXA|330|N-Normal|1|FM15-METAR|223|ICAO-KGXA|1.5|N-Normal|1|FM15-METAR|223|ICAO-KGXA|||||||||||||20|Derived||FM15-METAR|223|ICAO-KGXA|||||||||||||||||||||||||||||||||||||||||||||||||||||||||||||||||||||||||1012.2||1|FM15-METAR|223|ICAO-KGXA|0.4|1-Incr-the|1|FM15-METAR|223|ICAO-KGXA|||||||||||||||||||||||||||||||||||||MET084METAR KGXA 301455Z AUTO 33003KT 10SM CLR 28/03 A2989 RMK AO2 SLP066 T02770030 51004;||F||223|ICAO-KGXA
USI0000KGXA|GRAY BUTTE FLD|2011|08|30|16|00|34.5639|-117.6750|920.5|30.0||1|FM15-METAR|223|ICAO-KGXA|1.0||1|FM15-METAR|223|ICAO-KGXA|||||||1006.8||1|FM15-METAR|223|ICAO-KGXA|030|N-Normal|1|FM15-METAR|223|ICAO-KGXA|1.0|N-Normal|1|FM15-METAR|223|ICAO-KGXA|||||||||||||15|Derived||FM15-METAR|223|ICAO-KGXA|||||||||||||||||||||||||||||||||||||||||||||||||||||||||||||||||||||||||1012.5||1|FM15-METAR|223|ICAO-KGXA|||||||||||||||||||||||||||||||||||||||||||MET078METAR KGXA 301555Z AUTO 03002KT 10SM CLR 30/01 A2990 RMK AO2 SLP068 T02970008;||F||223|ICAO-KGXA
USI0000KGXA|GRAY BUTTE FLD|2011|08|30|17|00|34.5639|-117.6750|920.5|30.0||1|FM15-METAR|223|ICAO-KGXA|0.0||1|FM15-METAR|223|ICAO-KGXA|||||||1006.9||1|FM15-METAR|223|ICAO-KGXA|360|N-Normal|1|FM15-METAR|223|ICAO-KGXA|2.1|N-Normal|1|FM15-METAR|223|ICAO-KGXA|||||||||||||14|Derived||FM15-METAR|223|ICAO-KGXA|||||||||||||||||||||||||||||||||||||||||||||||||||||||||||||||||||||||||1012.5||1|FM15-METAR|223|ICAO-KGXA|||||||||||||||||||||||||||||||||||||||||||MET091METAR KGXA 301655Z AUTO 36004KT 10SM 30/00 A2990 RMK AO2 SLP069 T02990004 PWINO PNO TSNO $;||F||223|ICAO-KGXA
USI0000KGXA|GRAY BUTTE FLD|2011|08|30|18|00|34.5639|-117.6750|920.5|34.0||1|FM15-METAR|223|ICAO-KGXA|-1.0||1|FM15-METAR|223|ICAO-KGXA|||||||1005.5||1|FM15-METAR|223|ICAO-KGXA|350|N-Normal|1|FM15-METAR|223|ICAO-KGXA|2.6|N-Normal|1|FM15-METAR|223|ICAO-KGXA|||||||||||||11|Derived||FM15-METAR|223|ICAO-KGXA|||||||||||||||||||||||||||||||||||||||||||||||||||||||||||||||||||||||||1011.5||1|FM15-METAR|223|ICAO-KGXA|-0.7|8-Steady-o|1|FM15-METAR|223|ICAO-KGXA|||||||||||||||||||||||||||||||||||||MET097METAR KGXA 301755Z AUTO 35005KT 10SM CLR 34/M01 A2987 RMK AO2 SLP055 T03381015 10317 20166 58007;||F||223|ICAO-KGXA
USI0000KGXA|GRAY BUTTE FLD|2011|08|30|19|00|34.5639|-117.6750|920.5|36.0||1|FM15-METAR|223|ICAO-KGXA|-2.0||1|FM15-METAR|223|ICAO-KGXA|||||||1004.8||1|FM15-METAR|223|ICAO-KGXA|999|V-Variable|9|FM15-METAR|223|ICAO-KGXA|1.5|V-Variable|1|FM15-METAR|223|ICAO-KGXA|||||||||||||9|Derived||FM15-METAR|223|ICAO-KGXA|||||||||||||||||||||||||||||||||||||||||||||||||||||||||||||||||||||||||1010.8||1|FM15-METAR|223|ICAO-KGXA|||||||||||||||||||||||||||||||||||||||||||MET079METAR KGXA 301855Z AUTO VRB03KT 10SM CLR 36/M02 A2985 RMK AO2 SLP048 T03581018;||F||223|ICAO-KGXA
USI0000KGXA|GRAY BUTTE FLD|2011|08|30|20|00|34.5639|-117.6750|920.5|38.0||1|FM15-METAR|223|ICAO-KGXA|-3.0||1|FM15-METAR|223|ICAO-KGXA|||||||1003.6||1|FM15-METAR|223|ICAO-KGXA|310|N-Normal|1|FM15-METAR|223|ICAO-KGXA|4.1|N-Normal|1|FM15-METAR|223|ICAO-KGXA|13.4||1|FM15-METAR|223|ICAO-KGXA|||||||7|Derived||FM15-METAR|223|ICAO-KGXA|||||||||||||||||||||||||||||||||||||||||||||||||||||||||||||||||||||||||1009.8||1|FM15-METAR|223|ICAO-KGXA|||||||||||||||||||||||||||||||||||||||||||MET090METAR KGXA 301955Z AUTO 31008G26KT 230V330 10SM CLR 38/M03 A2982 RMK AO2 SLP036 T03771028;||F||223|ICAO-KGXA
USI0000KGXA|GRAY BUTTE FLD|2011|08|30|21|00|34.5639|-117.6750|920.5|37.0||1|FM15-METAR|223|ICAO-KGXA|-2.0||1|FM15-METAR|223|ICAO-KGXA|||||||1003.4||1|FM15-METAR|223|ICAO-KGXA|180|N-Normal|1|FM15-METAR|223|ICAO-KGXA|8.2|N-Normal|1|FM15-METAR|223|ICAO-KGXA|12.9||1|FM15-METAR|223|ICAO-KGXA|||||||8|Derived||FM15-METAR|223|ICAO-KGXA|||||||||||||||||||||||||||||||||||||||||||||||||||||||||||||||||||||||||1009.1||1|FM15-METAR|223|ICAO-KGXA|-2.0|7-Decr-(st|1|FM15-METAR|223|ICAO-KGXA|||||||||||||||||||||||||||||||||||||MET098METAR KGXA 302055Z AUTO 18016G25KT 6SM CLR 37/M02 A2980 RMK AO2 WSHFT 1956 SLP034 T03701023 57020;||F||223|ICAO-KGXA
USI0000KGXA|GRAY BUTTE FLD|2011|08|30|22|00|34.5639|-117.6750|920.5|37.0||1|FM15-METAR|223|ICAO-KGXA|-5.0||1|FM15-METAR|223|ICAO-KGXA|||||||1003.1||1|FM15-METAR|223|ICAO-KGXA|180|N-Normal|1|FM15-METAR|223|ICAO-KGXA|6.2|N-Normal|1|FM15-METAR|223|ICAO-KGXA|10.3||1|FM15-METAR|223|ICAO-KGXA|||||||7|Derived||FM15-METAR|223|ICAO-KGXA|||||||||||||||||||||||||||||||||||||||||||||||||||||||||||||||||||||||||1008.8||1|FM15-METAR|223|ICAO-KGXA|||||||||||||||||||||||||||||||||||||||||||MET082METAR KGXA 302155Z AUTO 18012G20KT 10SM CLR 37/M05 A2979 RMK AO2 SLP031 T03691051;||F||223|ICAO-KGXA
USI0000KGXA|GRAY BUTTE FLD|2011|08|30|23|00|34.5639|-117.6750|920.5|36.0||1|FM15-METAR|223|ICAO-KGXA|-10.0||1|FM15-METAR|223|ICAO-KGXA|||||||1002.9||1|FM15-METAR|223|ICAO-KGXA|200|N-Normal|1|FM15-METAR|223|ICAO-KGXA|6.2|N-Normal|1|FM15-METAR|223|ICAO-KGXA|9.3||1|FM15-METAR|223|ICAO-KGXA|||||||5|Derived||FM15-METAR|223|ICAO-KGXA|||||||||||||||||||||||||||||||||||||||||||||||||||||||||||||||||||||||||1008.5||1|FM15-METAR|223|ICAO-KGXA|||||||||||||||||||||||||||||||||||||||||||MET084METAR KGXA 302255Z AUTO 20012G18KT 10SM CLR 36/M10 A2978 RMK AO2 SLP029 T03581098 $;||F||223|ICAO-KGXA
USI0000KGXA|GRAY BUTTE FLD|2011|08|31|00|00|34.5639|-117.6750|920.5|34.0||1|FM15-METAR|223|ICAO-KGXA|-11.0||1|FM15-METAR|223|ICAO-KGXA|||||||1003.6||1|FM15-METAR|223|ICAO-KGXA|210|N-Normal|1|FM15-METAR|223|ICAO-KGXA|4.6|N-Normal|1|FM15-METAR|223|ICAO-KGXA|8.2||1|FM15-METAR|223|ICAO-KGXA|||||||5|Derived||FM15-METAR|223|ICAO-KGXA|||||||||||||||||||||||||||||||||||||||||||||||||||||||||||||||||||||||||1008.5||1|FM15-METAR|223|ICAO-KGXA|-0.5|6-Decr,-th|1|FM15-METAR|223|ICAO-KGXA|||||||||||||||||||||||||||||||||||||MET112METAR KGXA 302355Z AUTO 21009G16KT 10SM CLR 34/M11 A2978 RMK AO2 SLP036 T03431108 10381 20318 403810215 56005 $;||F||223|ICAO-KGXA
USI0000KGXA|GRAY BUTTE FLD|2011|08|31|01|00|34.5639|-117.6750|920.5|31.0||1|FM15-METAR|223|ICAO-KGXA|-13.0||1|FM15-METAR|223|ICAO-KGXA|||||||1003.8||1|FM15-METAR|223|ICAO-KGXA|220|N-Normal|1|FM15-METAR|223|ICAO-KGXA|5.7|N-Normal|1|FM15-METAR|223|ICAO-KGXA|||||||||||||5|Derived||FM15-METAR|223|ICAO-KGXA|||||||||||||||||||||||||||||||||||||||||||||||||||||||||||||||||||||||||1008.5||1|FM15-METAR|223|ICAO-KGXA|||||||||||||||||||||||||||||||||||||||||||MET081METAR KGXA 310055Z AUTO 22011KT 10SM CLR 31/M13 A2978 RMK AO2 SLP038 T03141128 $;||F||223|ICAO-KGXA
USI0000KGXA|GRAY BUTTE FLD|2011|08|31|02|00|34.5639|-117.6750|920.5|28.0||1|FM15-METAR|223|ICAO-KGXA|-14.0||1|FM15-METAR|223|ICAO-KGXA|||||||1003.7||1|FM15-METAR|223|ICAO-KGXA|230|N-Normal|1|FM15-METAR|223|ICAO-KGXA|3.6|N-Normal|1|FM15-METAR|223|ICAO-KGXA|||||||||||||5|Derived||FM15-METAR|223|ICAO-KGXA|||||||||||||||||||||||||||||||||||||||||||||||||||||||||||||||||||||||||1008.8||1|FM15-METAR|223|ICAO-KGXA|||||||||||||||||||||||||||||||||||||||||||MET092METAR KGXA 310155Z AUTO 23007KT 10SM 28/M14 A2979 RMK AO2 SLP037 T02841141 PWINO PNO TSNO $;||F||223|ICAO-KGXA
USI0000KGXA|GRAY BUTTE FLD|2011|08|31|14|00|34.5639|-117.6750|920.5|22.0||1|FM15-METAR|223|ICAO-KGXA|-1.0||1|FM15-METAR|223|ICAO-KGXA|||||||1006.5||1|FM15-METAR|223|ICAO-KGXA|999|C-Calm|9|FM15-METAR|223|ICAO-KGXA|0.0|C-Calm|1|FM15-METAR|223|ICAO-KGXA|||||||||||||22|Derived||FM15-METAR|223|ICAO-KGXA|||||||||||||||||||||||||||||||||||||||||||||||||||||||||||||||||||||||||1010.8||1|FM15-METAR|223|ICAO-KGXA|||||||||||||||||||||||||||||||||||||||||||MET079METAR KGXA 311355Z AUTO 00000KT 10SM CLR 22/M01 A2985 RMK AO2 SLP065 T02221006;||F||223|ICAO-KGXA
USI0000KGXA|GRAY BUTTE FLD|2011|08|31|15|00|34.5639|-117.6750|920.5|25.0||1|FM15-METAR|223|ICAO-KGXA|-3.0||1|FM15-METAR|223|ICAO-KGXA|||||||1006.4||1|FM15-METAR|223|ICAO-KGXA|330|N-Normal|1|FM15-METAR|223|ICAO-KGXA|1.0|N-Normal|1|FM15-METAR|223|ICAO-KGXA|||||||||||||15|Derived||FM15-METAR|223|ICAO-KGXA|||||||||||||||||||||||||||||||||||||||||||||||||||||||||||||||||||||||||1011.2||1|FM15-METAR|223|ICAO-KGXA|1.2|1-Incr-the|1|FM15-METAR|223|ICAO-KGXA|||||||||||||||||||||||||||||||||||||MET085METAR KGXA 311455Z AUTO 33002KT 10SM CLR 25/M03 A2986 RMK AO2 SLP064 T02451031 51012;||F||223|ICAO-KGXA
USI0000KGXA|GRAY BUTTE FLD|2011|08|31|16|00|34.5639|-117.6750|920.5|25.0||1|FM15-METAR|223|ICAO-KGXA|-3.0||1|FM15-METAR|223|ICAO-KGXA|||||||1007.3||1|FM15-METAR|223|ICAO-KGXA|999|V-Variable|9|FM15-METAR|223|ICAO-KGXA|2.1|V-Variable|1|FM15-METAR|223|ICAO-KGXA|||||||||||||15|Derived||FM15-METAR|223|ICAO-KGXA|||||||||||||||||||||||||||||||||||||||||||||||||||||||||||||||||||||||||1011.9||1|FM15-METAR|223|ICAO-KGXA|||||||||||||||||||||||||||||||||||||||||||MET079METAR KGXA 311555Z AUTO VRB04KT 10SM CLR 25/M03 A2988 RMK AO2 SLP073 T02521033;||F||223|ICAO-KGXA
USI0000KGXA|GRAY BUTTE FLD|2011|08|31|17|00|34.5639|-117.6750|920.5|29.0||1|FM15-METAR|223|ICAO-KGXA|-3.0||1|FM15-METAR|223|ICAO-KGXA|||||||1007.3||1|FM15-METAR|223|ICAO-KGXA|999|V-Variable|9|FM15-METAR|223|ICAO-KGXA|1.5|V-Variable|1|FM15-METAR|223|ICAO-KGXA|||||||||||||12|Derived||FM15-METAR|223|ICAO-KGXA|||||||||||||||||||||||||||||||||||||||||||||||||||||||||||||||||||||||||1011.5||1|FM15-METAR|223|ICAO-KGXA|||||||||||||||||||||||||||||||||||||||||||MET079METAR KGXA 311655Z AUTO VRB03KT 10SM CLR 29/M03 A2987 RMK AO2 SLP073 T02861031;||F||223|ICAO-KGXA
USI0000KGXA|GRAY BUTTE FLD|2011|08|31|18|00|34.5639|-117.6750|920.5|32.0||1|FM15-METAR|223|ICAO-KGXA|-6.0||1|FM15-METAR|223|ICAO-KGXA|||||||1006.7||1|FM15-METAR|223|ICAO-KGXA|999|V-Variable|9|FM15-METAR|223|ICAO-KGXA|1.5|V-Variable|1|FM15-METAR|223|ICAO-KGXA|||||||||||||8|Derived||FM15-METAR|223|ICAO-KGXA|||||||||||||||||||||||||||||||||||||||||||||||||||||||||||||||||||||||||1011.2||1|FM15-METAR|223|ICAO-KGXA|-0.2|8-Steady-o|1|FM15-METAR|223|ICAO-KGXA|||||||||||||||||||||||||||||||||||||MET097METAR KGXA 311755Z AUTO VRB03KT 10SM CLR 32/M06 A2986 RMK AO2 SLP067 T03151058 10287 20123 58002;||F||223|ICAO-KGXA
USI0000KGXA|GRAY BUTTE FLD|2011|08|31|19|00|34.5639|-117.6750|920.5|34.0||1|FM15-METAR|223|ICAO-KGXA|-10.0||1|FM15-METAR|223|ICAO-KGXA|||||||1005.9||1|FM15-METAR|223|ICAO-KGXA|330|N-Normal|1|FM15-METAR|223|ICAO-KGXA|3.1|N-Normal|1|FM15-METAR|223|ICAO-KGXA|||||||||||||5|Derived||FM15-METAR|223|ICAO-KGXA|||||||||||||||||||||||||||||||||||||||||||||||||||||||||||||||||||||||||1010.5||1|FM15-METAR|223|ICAO-KGXA|||||||||||||||||||||||||||||||||||||||||||MET079METAR KGXA 311855Z AUTO 33006KT 10SM CLR 34/M10 A2984 RMK AO2 SLP059 T03361096;||F||223|ICAO-KGXA
USI0000KGXA|GRAY BUTTE FLD|2011|08|31|20|00|34.5639|-117.6750|920.5|34.0||1|FM15-METAR|223|ICAO-KGXA|-11.0||1|FM15-METAR|223|ICAO-KGXA|||||||1005.2||1|FM15-METAR|223|ICAO-KGXA|999|V-Variable|9|FM15-METAR|223|ICAO-KGXA|1.5|V-Variable|1|FM15-METAR|223|ICAO-KGXA|||||||||||||5|Derived||FM15-METAR|223|ICAO-KGXA|||||||||||||||||||||||||||||||||||||||||||||||||||||||||||||||||||||||||1009.8||1|FM15-METAR|223|ICAO-KGXA|||||||||||||||||||||||||||||||||||||||||||MET079METAR KGXA 311955Z AUTO VRB03KT 10SM CLR 34/M11 A2982 RMK AO2 SLP052 T03411108;||F||223|ICAO-KGXA
USI0000KGXA|GRAY BUTTE FLD|2011|08|31|21|00|34.5639|-117.6750|920.5|35.0||1|FM15-METAR|223|ICAO-KGXA|-10.0||1|FM15-METAR|223|ICAO-KGXA|||||||1004.6||1|FM15-METAR|223|ICAO-KGXA|999|V-Variable|9|FM15-METAR|223|ICAO-KGXA|3.1|V-Variable|1|FM15-METAR|223|ICAO-KGXA|||||||||||||5|Derived||FM15-METAR|223|ICAO-KGXA|||||||||||||||||||||||||||||||||||||||||||||||||||||||||||||||||||||||||1009.5||1|FM15-METAR|223|ICAO-KGXA|-1.7|7-Decr-(st|1|FM15-METAR|223|ICAO-KGXA|||||||||||||||||||||||||||||||||||||MET085METAR KGXA 312055Z AUTO VRB06KT 10SM CLR 35/M10 A2981 RMK AO2 SLP046 T03481104 57017;||F||223|ICAO-KGXA
USI0000KGXA|GRAY BUTTE FLD|2011|08|31|22|00|34.5639|-117.6750|920.5|35.0||1|FM15-METAR|223|ICAO-KGXA|-10.0||1|FM15-METAR|223|ICAO-KGXA|||||||1003.9||1|FM15-METAR|223|ICAO-KGXA|270|N-Normal|1|FM15-METAR|223|ICAO-KGXA|5.1|N-Normal|1|FM15-METAR|223|ICAO-KGXA|7.2||1|FM15-METAR|223|ICAO-KGXA|||||||5|Derived||FM15-METAR|223|ICAO-KGXA|||||||||||||||||||||||||||||||||||||||||||||||||||||||||||||||||||||||||1009.1||1|FM15-METAR|223|ICAO-KGXA|||||||||||||||||||||||||||||||||||||||||||MET082METAR KGXA 312155Z AUTO 27010G14KT 10SM CLR 35/M10 A2980 RMK AO2 SLP039 T03521101;||F||223|ICAO-KGXA
USI0000KGXA|GRAY BUTTE FLD|2011|08|31|23|00|34.5639|-117.6750|920.5|34.0||1|FM15-METAR|223|ICAO-KGXA|-11.0||1|FM15-METAR|223|ICAO-KGXA|||||||1004.7||1|FM15-METAR|223|ICAO-KGXA|210|N-Normal|1|FM15-METAR|223|ICAO-KGXA|3.6|N-Normal|1|FM15-METAR|223|ICAO-KGXA|8.2||1|FM15-METAR|223|ICAO-KGXA|||||||5|Derived||FM15-METAR|223|ICAO-KGXA|||||||||||||||||||||||||||||||||||||||||||||||||||||||||||||||||||||||||1008.8||1|FM15-METAR|223|ICAO-KGXA|||||||||||||||||||||||||||||||||||||||||||MET085METAR KGXA 312255Z AUTO 21007G16KT 10SM FEW240 34/M11 A2979 RMK AO2 SLP047 T03391111;||F||223|ICAO-KGXA
USI0000KGXA|GRAY BUTTE FLD|2011|09|01|00|00|34.5639|-117.6750|920.5|33.0||1|FM15-METAR|223|ICAO-KGXA|-12.0||1|FM15-METAR|223|ICAO-KGXA|||||||1005.1||1|FM15-METAR|223|ICAO-KGXA|230|N-Normal|1|FM15-METAR|223|ICAO-KGXA|3.1|N-Normal|1|FM15-METAR|223|ICAO-KGXA|6.7||1|FM15-METAR|223|ICAO-KGXA|||||||5|Derived||FM15-METAR|223|ICAO-KGXA|||||||||||||||||||||||||||||||||||||||||||||||||||||||||||||||||||||||||1008.8||1|FM15-METAR|223|ICAO-KGXA|-0.3|7-Decr-(st|1|FM15-METAR|223|ICAO-KGXA|||||||||||||||||||||||||||||||||||||MET112METAR KGXA 312355Z AUTO 23006G13KT 10SM CLR 33/M12 A2979 RMK AO2 SLP051 T03301117 10362 20286 403620219 57003 $;||F||223|ICAO-KGXA
USI0000KGXA|GRAY BUTTE FLD|2011|09|01|01|00|34.5639|-117.6750|920.5|30.0||1|FM15-METAR|223|ICAO-KGXA|-14.0||1|FM15-METAR|223|ICAO-KGXA|||||||1005.2||1|FM15-METAR|223|ICAO-KGXA|220|N-Normal|1|FM15-METAR|223|ICAO-KGXA|3.1|N-Normal|1|FM15-METAR|223|ICAO-KGXA|||||||||||||5|Derived||FM15-METAR|223|ICAO-KGXA|||||||||||||||||||||||||||||||||||||||||||||||||||||||||||||||||||||||||1009.1||1|FM15-METAR|223|ICAO-KGXA|||||||||||||||||||||||||||||||||||||||||||MET081METAR KGXA 010055Z AUTO 22006KT 10SM CLR 30/M14 A2980 RMK AO2 SLP052 T03021136 $;||F||223|ICAO-KGXA
USI0000KGXA|GRAY BUTTE FLD|2011|09|01|02|00|34.5639|-117.6750|920.5|26.0||1|FM15-METAR|223|ICAO-KGXA|||||||||||||1005.1||1|FM15-METAR|223|ICAO-KGXA|290|N-Normal|1|FM15-METAR|223|ICAO-KGXA|4.1|N-Normal|1|FM15-METAR|223|ICAO-KGXA|||||||||||||||||||||||||||||||||||||||||||||||||||||||||||||||||||||||||||||||||||||||||||1009.8||1|FM15-METAR|223|ICAO-KGXA|||||||||||||||||||||||||||||||||||||||||||MET081METAR KGXA 010155Z AUTO 29008KT 10SM CLR 26/M01 A2982 RMK AO2 SLP051 T02571008 $;||F||223|ICAO-KGXA
USI0000KGXA|GRAY BUTTE FLD|2011|09|01|03|00|34.5639|-117.6750|920.5|22.0||1|FM15-METAR|223|ICAO-KGXA|-3.0||1|FM15-METAR|223|ICAO-KGXA|||||||1006.5||1|FM15-METAR|223|ICAO-KGXA|020|N-Normal|1|FM15-METAR|223|ICAO-KGXA|0.5|N-Normal|1|FM15-METAR|223|ICAO-KGXA|||||||||||||19|Derived||FM15-METAR|223|ICAO-KGXA|||||||||||||||||||||||||||||||||||||||||||||||||||||||||||||||||||||||||1010.5||1|FM15-METAR|223|ICAO-KGXA|1.4|3-Decr-or-|1|FM15-METAR|223|ICAO-KGXA|||||||||||||||||||||||||||||||||||||MET087METAR KGXA 010255Z AUTO 02001KT 10SM CLR 22/M03 A2984 RMK AO2 SLP065 T02181034 53014 $;||F||223|ICAO-KGXA
USI0000KGXA|GRAY BUTTE FLD|2011|09|01|04|00|34.5639|-117.6750|920.5|21.0||1|FM15-METAR|223|ICAO-KGXA|-2.0||1|FM15-METAR|223|ICAO-KGXA|||||||1006.8||1|FM15-METAR|223|ICAO-KGXA|260|N-Normal|1|FM15-METAR|223|ICAO-KGXA|2.1|N-Normal|1|FM15-METAR|223|ICAO-KGXA|||||||||||||21|Derived||FM15-METAR|223|ICAO-KGXA|||||||||||||||||||||||||||||||||||||||||||||||||||||||||||||||||||||||||1010.8||1|FM15-METAR|223|ICAO-KGXA|||||||||||||||||||||||||||||||||||||||||||MET081METAR KGXA 010355Z AUTO 26004KT 10SM CLR 21/M02 A2985 RMK AO2 SLP068 T02081024 $;||F||223|ICAO-KGXA
USI0000KGXA|GRAY BUTTE FLD|2011|09|01|05|00|34.5639|-117.6750|920.5|18.0||1|FM15-METAR|223|ICAO-KGXA|-2.0||1|FM15-METAR|223|ICAO-KGXA|||||||1007.2||1|FM15-METAR|223|ICAO-KGXA|999|C-Calm|9|FM15-METAR|223|ICAO-KGXA|0.0|C-Calm|1|FM15-METAR|223|ICAO-KGXA|||||||||||||26|Derived||FM15-METAR|223|ICAO-KGXA|||||||||||||||||||||||||||||||||||||||||||||||||||||||||||||||||||||||||1011.2||1|FM15-METAR|223|ICAO-KGXA|||||||||||||||||||||||||||||||||||||||||||MET081METAR KGXA 010455Z AUTO 00000KT 10SM CLR 18/M02 A2986 RMK AO2 SLP072 T01751024 $;||F||223|ICAO-KGXA
USI0000KGXA|GRAY BUTTE FLD|2011|09|01|06|00|34.5639|-117.6750|920.5|15.0||1|FM15-METAR|223|ICAO-KGXA|-1.0||1|FM15-METAR|223|ICAO-KGXA|||||||1007.0||1|FM15-METAR|223|ICAO-KGXA|150|N-Normal|1|FM15-METAR|223|ICAO-KGXA|2.6|N-Normal|1|FM15-METAR|223|ICAO-KGXA|||||||||||||34|Derived||FM15-METAR|223|ICAO-KGXA|||||||||||||||||||||||||||||||||||||||||||||||||||||||||||||||||||||||||1011.2||1|FM15-METAR|223|ICAO-KGXA|0.5|2-Incr-(st|1|FM15-METAR|223|ICAO-KGXA|||||||||||||||||||||||||||||||||||||MET099METAR KGXA 010555Z AUTO 15005KT 10SM CLR 15/M01 A2986 RMK AO2 SLP070 T01501008 10340 20171 52005 $;||F||223|ICAO-KGXA
USI0000KGXA|GRAY BUTTE FLD|2011|09|01|07|00|34.5639|-117.6750|920.5|14.0||1|FM15-METAR|223|ICAO-KGXA|-2.0||1|FM15-METAR|223|ICAO-KGXA|||||||1006.8||1|FM15-METAR|223|ICAO-KGXA|150|N-Normal|1|FM15-METAR|223|ICAO-KGXA|2.1|N-Normal|1|FM15-METAR|223|ICAO-KGXA|||||||||||||33|Derived||FM15-METAR|223|ICAO-KGXA|||||||||||||||||||||||||||||||||||||||||||||||||||||||||||||||||||||||||1011.2||1|FM15-METAR|223|ICAO-KGXA|||||||||||||||||||||||||||||||||||||||||||MET081METAR KGXA 010655Z AUTO 15004KT 10SM CLR 14/M02 A2986 RMK AO2 SLP068 T01441022 $;||F||223|ICAO-KGXA
USI0000KGXA|GRAY BUTTE FLD|2011|09|01|08|00|34.5639|-117.6750|920.5|17.0||1|FM15-METAR|223|ICAO-KGXA|-4.0||1|FM15-METAR|223|ICAO-KGXA|||||||1006.2||1|FM15-METAR|223|ICAO-KGXA|110|N-Normal|1|FM15-METAR|223|ICAO-KGXA|2.6|N-Normal|1|FM15-METAR|223|ICAO-KGXA|||||||||||||24|Derived||FM15-METAR|223|ICAO-KGXA|||||||||||||||||||||||||||||||||||||||||||||||||||||||||||||||||||||||||1011.2||1|FM15-METAR|223|ICAO-KGXA|||||||||||||||||||||||||||||||||||||||||||MET077METAR KGXA 010755Z AUTO 11005KT 10SM 17/M04 A2986 RMK AO2 SLP062 T01691041 $;||F||223|ICAO-KGXA
USI0000KGXA|GRAY BUTTE FLD|2011|09|01|09|00|34.5639|-117.6750|920.5|13.0||1|FM15-METAR|223|ICAO-KGXA|-4.0||1|FM15-METAR|223|ICAO-KGXA|||||||1006.8||1|FM15-METAR|223|ICAO-KGXA|150|N-Normal|1|FM15-METAR|223|ICAO-KGXA|2.1|N-Normal|1|FM15-METAR|223|ICAO-KGXA|||||||||||||31|Derived||FM15-METAR|223|ICAO-KGXA|||||||||||||||||||||||||||||||||||||||||||||||||||||||||||||||||||||||||1011.2||1|FM15-METAR|223|ICAO-KGXA|-0.2|7-Decr-(st|1|FM15-METAR|223|ICAO-KGXA|||||||||||||||||||||||||||||||||||||MET083METAR KGXA 010855Z AUTO 15004KT 10SM 13/M04 A2986 RMK AO2 SLP068 T01321037 54001 $;||F||223|ICAO-KGXA
USI0000KGXA|GRAY BUTTE FLD|2011|09|01|10|00|34.5639|-117.6750|920.5|12.0||1|FM15-METAR|223|ICAO-KGXA|-3.0||1|FM15-METAR|223|ICAO-KGXA|||||||1007.3||1|FM15-METAR|223|ICAO-KGXA|160|N-Normal|1|FM15-METAR|223|ICAO-KGXA|2.6|N-Normal|1|FM15-METAR|223|ICAO-KGXA|||||||||||||35|Derived||FM15-METAR|223|ICAO-KGXA|||||||||||||||||||||||||||||||||||||||||||||||||||||||||||||||||||||||||1011.5||1|FM15-METAR|223|ICAO-KGXA|||||||||||||||||||||||||||||||||||||||||||MET077METAR KGXA 010955Z AUTO 16005KT 10SM 12/M03 A2987 RMK AO2 SLP073 T01211028 $;||F||223|ICAO-KGXA
USI0000KGXA|GRAY BUTTE FLD|2011|09|01|11|00|34.5639|-117.6750|920.5|12.0||1|FM15-METAR|223|ICAO-KGXA|-5.0||1|FM15-METAR|223|ICAO-KGXA|||||||1007.3||1|FM15-METAR|223|ICAO-KGXA|160|N-Normal|1|FM15-METAR|223|ICAO-KGXA|3.1|N-Normal|1|FM15-METAR|223|ICAO-KGXA|||||||||||||30|Derived||FM15-METAR|223|ICAO-KGXA|||||||||||||||||||||||||||||||||||||||||||||||||||||||||||||||||||||||||1011.5||1|FM15-METAR|223|ICAO-KGXA|||||||||||||||||||||||||||||||||||||||||||MET077METAR KGXA 011055Z AUTO 16006KT 10SM 12/M05 A2987 RMK AO2 SLP073 T01241046 $;||F||223|ICAO-KGXA
USI0000KGXA|GRAY BUTTE FLD|2011|09|01|12|00|34.5639|-117.6750|920.5|12.0||1|FM15-METAR|223|ICAO-KGXA|-5.0||1|FM15-METAR|223|ICAO-KGXA|||||||1007.6||1|FM15-METAR|223|ICAO-KGXA|160|N-Normal|1|FM15-METAR|223|ICAO-KGXA|2.6|N-Normal|1|FM15-METAR|223|ICAO-KGXA|||||||||||||30|Derived||FM15-METAR|223|ICAO-KGXA|||||||||||||||||||||||||||||||||||||||||||||||||||||||||||||||||||||||||1011.5||1|FM15-METAR|223|ICAO-KGXA|0.2|2-Incr-(st|1|FM15-METAR|223|ICAO-KGXA|||||||||||||||||||||||||||||||||||||MET097METAR KGXA 011155Z AUTO 16005KT 10SM CLR 12/M05 A2987 RMK AO2 SLP076 T01201050 10188 20120 52002;||F||223|ICAO-KGXA
USI0000KGXA|GRAY BUTTE FLD|2011|09|01|13|00|34.5639|-117.6750|920.5|13.0||1|FM15-METAR|223|ICAO-KGXA|-6.0||1|FM15-METAR|223|ICAO-KGXA|||||||1008.7||1|FM15-METAR|223|ICAO-KGXA|160|N-Normal|1|FM15-METAR|223|ICAO-KGXA|1.5|N-Normal|1|FM15-METAR|223|ICAO-KGXA|||||||||||||26|Derived||FM15-METAR|223|ICAO-KGXA|||||||||||||||||||||||||||||||||||||||||||||||||||||||||||||||||||||||||1012.2||1|FM15-METAR|223|ICAO-KGXA|||||||||||||||||||||||||||||||||||||||||||MET079METAR KGXA 011255Z AUTO 16003KT 10SM CLR 13/M06 A2989 RMK AO2 SLP087 T01271058;||F||223|ICAO-KGXA
USI0000KGXA|GRAY BUTTE FLD|2011|09|01|14|00|34.5639|-117.6750|920.5|21.0||1|FM15-METAR|223|ICAO-KGXA|-6.0||1|FM15-METAR|223|ICAO-KGXA|||||||1008.5||1|FM15-METAR|223|ICAO-KGXA|150|N-Normal|1|FM15-METAR|223|ICAO-KGXA|1.0|N-Normal|1|FM15-METAR|223|ICAO-KGXA|||||||||||||16|Derived||FM15-METAR|223|ICAO-KGXA|||||||||||||||||||||||||||||||||||||||||||||||||||||||||||||||||||||||||1012.5||1|FM15-METAR|223|ICAO-KGXA|||||||||||||||||||||||||||||||||||||||||||MET079METAR KGXA 011355Z AUTO 15002KT 10SM CLR 21/M06 A2990 RMK AO2 SLP085 T02071062;||F||223|ICAO-KGXA
USI0000KGXA|GRAY BUTTE FLD|2011|09|01|15|00|34.5639|-117.6750|920.5|25.0||1|FM15-METAR|223|ICAO-KGXA|-7.0||1|FM15-METAR|223|ICAO-KGXA|||||||1008.8||1|FM15-METAR|223|ICAO-KGXA|050|N-Normal|1|FM15-METAR|223|ICAO-KGXA|1.5|N-Normal|1|FM15-METAR|223|ICAO-KGXA|||||||||||||11|Derived||FM15-METAR|223|ICAO-KGXA|||||||||||||||||||||||||||||||||||||||||||||||||||||||||||||||||||||||||1012.9||1|FM15-METAR|223|ICAO-KGXA|1.2|2-Incr-(st|1|FM15-METAR|223|ICAO-KGXA|||||||||||||||||||||||||||||||||||||MET085METAR KGXA 011455Z AUTO 05003KT 10SM CLR 25/M07 A2991 RMK AO2 SLP088 T02491067 52012;||F||223|ICAO-KGXA
USI0000KGXA|GRAY BUTTE FLD|2011|09|01|16|00|34.5639|-117.6750|920.5|27.0||1|FM15-METAR|223|ICAO-KGXA|-10.0||1|FM15-METAR|223|ICAO-KGXA|||||||1008.8||1|FM15-METAR|223|ICAO-KGXA|999|V-Variable|9|FM15-METAR|223|ICAO-KGXA|2.1|V-Variable|1|FM15-METAR|223|ICAO-KGXA|||||||||||||8|Derived||FM15-METAR|223|ICAO-KGXA|||||||||||||||||||||||||||||||||||||||||||||||||||||||||||||||||||||||||1013.2||1|FM15-METAR|223|ICAO-KGXA|||||||||||||||||||||||||||||||||||||||||||MET079METAR KGXA 011555Z AUTO VRB04KT 10SM CLR 27/M10 A2992 RMK AO2 SLP088 T02741101;||F||223|ICAO-KGXA
USI0000KGXA|GRAY BUTTE FLD|2011|09|01|17|00|34.5639|-117.6750|920.5|30.0||1|FM15-METAR|223|ICAO-KGXA|-13.0||1|FM15-METAR|223|ICAO-KGXA|||||||1009.0||1|FM15-METAR|223|ICAO-KGXA|050|N-Normal|1|FM15-METAR|223|ICAO-KGXA|1.5|N-Normal|1|FM15-METAR|223|ICAO-KGXA|||||||||||||5|Derived||FM15-METAR|223|ICAO-KGXA|||||||||||||||||||||||||||||||||||||||||||||||||||||||||||||||||||||||||1013.2||1|FM15-METAR|223|ICAO-KGXA|||||||||||||||||||||||||||||||||||||||||||MET079METAR KGXA 011655Z AUTO 05003KT 10SM CLR 30/M13 A2992 RMK AO2 SLP090 T03021127;||F||223|ICAO-KGXA
USI0000KGXA|GRAY BUTTE FLD|2011|09|01|18|00|34.5639|-117.6750|920.5|32.0||1|FM15-METAR|223|ICAO-KGXA|-12.0||1|FM15-METAR|223|ICAO-KGXA|||||||1008.7||1|FM15-METAR|223|ICAO-KGXA|010|N-Normal|1|FM15-METAR|223|ICAO-KGXA|3.1|N-Normal|1|FM15-METAR|223|ICAO-KGXA|||||||||||||5|Derived||FM15-METAR|223|ICAO-KGXA|||||||||||||||||||||||||||||||||||||||||||||||||||||||||||||||||||||||||1012.9||1|FM15-METAR|223|ICAO-KGXA|0.1|0-Incr-the|1|FM15-METAR|223|ICAO-KGXA|||||||||||||||||||||||||||||||||||||MET100METAR KGXA 011755Z AUTO 01006KT 10SM FEW240 32/M12 A2991 RMK AO2 SLP087 T03211123 10304 20112 50001;||F||223|ICAO-KGXA
USI0000KGXA|GRAY BUTTE FLD|2011|09|01|19|00|34.5639|-117.6750|920.5|33.0||1|FM15-METAR|223|ICAO-KGXA|-12.0||1|FM15-METAR|223|ICAO-KGXA|||||||1008.3||1|FM15-METAR|223|ICAO-KGXA|999|V-Variable|9|FM15-METAR|223|ICAO-KGXA|1.0|V-Variable|1|FM15-METAR|223|ICAO-KGXA|||||||||||||5|Derived||FM15-METAR|223|ICAO-KGXA|||||||||||||||||||||||||||||||||||||||||||||||||||||||||||||||||||||||||1012.5||1|FM15-METAR|223|ICAO-KGXA|||||||||||||||||||||||||||||||||||||||||||MET079METAR KGXA 011855Z AUTO VRB02KT 10SM CLR 33/M12 A2990 RMK AO2 SLP083 T03301117;||F||223|ICAO-KGXA
USI0000KGXA|GRAY BUTTE FLD|2011|09|01|20|00|34.5639|-117.6750|920.5|35.0||1|FM15-METAR|223|ICAO-KGXA|-10.0||1|FM15-METAR|223|ICAO-KGXA|||||||1007.0||1|FM15-METAR|223|ICAO-KGXA|250|N-Normal|1|FM15-METAR|223|ICAO-KGXA|1.0|N-Normal|1|FM15-METAR|223|ICAO-KGXA|||||||||||||5|Derived||FM15-METAR|223|ICAO-KGXA|||||||||||||||||||||||||||||||||||||||||||||||||||||||||||||||||||||||||1012.2||1|FM15-METAR|223|ICAO-KGXA|||||||||||||||||||||||||||||||||||||||||||MET079METAR KGXA 011955Z AUTO 25002KT 10SM CLR 35/M10 A2989 RMK AO2 SLP070 T03501103;||F||223|ICAO-KGXA
USI0000KGXA|GRAY BUTTE FLD|2011|09|01|21|00|34.5639|-117.6750|920.5|35.0||1|FM15-METAR|223|ICAO-KGXA|-9.0||1|FM15-METAR|223|ICAO-KGXA|||||||1007.0||1|FM15-METAR|223|ICAO-KGXA|999|V-Variable|9|FM15-METAR|223|ICAO-KGXA|3.1|V-Variable|1|FM15-METAR|223|ICAO-KGXA|||||||||||||5|Derived||FM15-METAR|223|ICAO-KGXA|||||||||||||||||||||||||||||||||||||||||||||||||||||||||||||||||||||||||1011.5||1|FM15-METAR|223|ICAO-KGXA|-1.4|7-Decr-(st|1|FM15-METAR|223|ICAO-KGXA|||||||||||||||||||||||||||||||||||||MET085METAR KGXA 012055Z AUTO VRB06KT 10SM CLR 35/M09 A2987 RMK AO2 SLP070 T03491094 57014;||F||223|ICAO-KGXA
USI0000KGXA|GRAY BUTTE FLD|2011|09|01|22|00|34.5639|-117.6750|920.5|35.0||1|FM15-METAR|223|ICAO-KGXA|-8.0||1|FM15-METAR|223|ICAO-KGXA|||||||1007.0||1|FM15-METAR|223|ICAO-KGXA|999|V-Variable|9|FM15-METAR|223|ICAO-KGXA|3.1|V-Variable|1|FM15-METAR|223|ICAO-KGXA|||||||||||||6|Derived||FM15-METAR|223|ICAO-KGXA|||||||||||||||||||||||||||||||||||||||||||||||||||||||||||||||||||||||||1011.2||1|FM15-METAR|223|ICAO-KGXA|||||||||||||||||||||||||||||||||||||||||||MET084METAR KGXA 012155Z AUTO VRB06KT 10SM FEW120 35/M08 A2986 RMK AO2 SLP070 T03491078 $;||F||223|ICAO-KGXA
USI0000KGXA|GRAY BUTTE FLD|2011|09|01|23|00|34.5639|-117.6750|920.5|34.0||1|FM15-METAR|223|ICAO-KGXA|-6.0||1|FM15-METAR|223|ICAO-KGXA|||||||1007.0||1|FM15-METAR|223|ICAO-KGXA|300|N-Normal|1|FM15-METAR|223|ICAO-KGXA|5.7|N-Normal|1|FM15-METAR|223|ICAO-KGXA|9.3||1|FM15-METAR|223|ICAO-KGXA|||||||7|Derived||FM15-METAR|223|ICAO-KGXA|||||||||||||||||||||||||||||||||||||||||||||||||||||||||||||||||||||||||1011.2||1|FM15-METAR|223|ICAO-KGXA|||||||||||||||||||||||||||||||||||||||||||MET092METAR KGXA 012255Z AUTO 30011G18KT 270V330 10SM CLR 34/M06 A2986 RMK AO2 SLP070 T03401059 $;||F||223|ICAO-KGXA
USI0000KGXA|GRAY BUTTE FLD|2011|09|02|00|00|34.5639|-117.6750|920.5|32.0||1|FM15-METAR|223|ICAO-KGXA|-3.0||1|FM15-METAR|223|ICAO-KGXA|||||||1007.4||1|FM15-METAR|223|ICAO-KGXA|290|N-Normal|1|FM15-METAR|223|ICAO-KGXA|7.7|N-Normal|1|FM15-METAR|223|ICAO-KGXA|10.3||1|FM15-METAR|223|ICAO-KGXA|||||||10|Derived||FM15-METAR|223|ICAO-KGXA|||||||||||||||||||||||||||||||||||||||||||||||||||||||||||||||||||||||||1011.2||1|FM15-METAR|223|ICAO-KGXA|-0.3|7-Decr-(st|1|FM15-METAR|223|ICAO-KGXA|||||||||||||||||||||||||||||||||||||MET112METAR KGXA 012355Z AUTO 29015G20KT 10SM CLR 32/M03 A2986 RMK AO2 SLP074 T03191027 10358 20305 403580112 57003 $;||F||223|ICAO-KGXA
USI0000KGXA|GRAY BUTTE FLD|2011|09|02|01|00|34.5639|-117.6750|920.5|30.0||1|FM15-METAR|223|ICAO-KGXA|-4.0||1|FM15-METAR|223|ICAO-KGXA|||||||1007.8||1|FM15-METAR|223|ICAO-KGXA|250|N-Normal|1|FM15-METAR|223|ICAO-KGXA|2.6|N-Normal|1|FM15-METAR|223|ICAO-KGXA|||||||||||||11|Derived||FM15-METAR|223|ICAO-KGXA|||||||||||||||||||||||||||||||||||||||||||||||||||||||||||||||||||||||||1011.2||1|FM15-METAR|223|ICAO-KGXA|||||||||||||||||||||||||||||||||||||||||||MET081METAR KGXA 020055Z AUTO 25005KT 10SM CLR 30/M04 A2986 RMK AO2 SLP078 T03001043 $;||F||223|ICAO-KGXA
USI0000KGXA|GRAY BUTTE FLD|2011|09|02|02|00|34.5639|-117.6750|920.5|25.0||1|FM15-METAR|223|ICAO-KGXA|-3.0||1|FM15-METAR|223|ICAO-KGXA|||||||1007.6||1|FM15-METAR|223|ICAO-KGXA|310|N-Normal|1|FM15-METAR|223|ICAO-KGXA|2.1|N-Normal|1|FM15-METAR|223|ICAO-KGXA|||||||||||||15|Derived||FM15-METAR|223|ICAO-KGXA|||||||||||||||||||||||||||||||||||||||||||||||||||||||||||||||||||||||||1011.5||1|FM15-METAR|223|ICAO-KGXA|||||||||||||||||||||||||||||||||||||||||||MET081METAR KGXA 020155Z AUTO 31004KT 10SM CLR 25/M03 A2987 RMK AO2 SLP076 T02511030 $;||F||223|ICAO-KGXA
USI0000KGXA|GRAY BUTTE FLD|2011|09|02|03|00|34.5639|-117.6750|920.5|23.0||1|FM15-METAR|223|ICAO-KGXA|-3.0||1|FM15-METAR|223|ICAO-KGXA|||||||1007.8||1|FM15-METAR|223|ICAO-KGXA|190|N-Normal|1|FM15-METAR|223|ICAO-KGXA|1.0|N-Normal|1|FM15-METAR|223|ICAO-KGXA|||||||||||||17|Derived||FM15-METAR|223|ICAO-KGXA|||||||||||||||||||||||||||||||||||||||||||||||||||||||||||||||||||||||||1012.2||1|FM15-METAR|223|ICAO-KGXA|1.1|3-Decr-or-|1|FM15-METAR|223|ICAO-KGXA|||||||||||||||||||||||||||||||||||||MET087METAR KGXA 020255Z AUTO 19002KT 10SM CLR 23/M03 A2989 RMK AO2 SLP078 T02261031 53011 $;||F||223|ICAO-KGXA
USI0000KGXA|GRAY BUTTE FLD|2011|09|02|04|00|34.5639|-117.6750|920.5|19.0||1|FM15-METAR|223|ICAO-KGXA|-2.0||1|FM15-METAR|223|ICAO-KGXA|||||||1008.9||1|FM15-METAR|223|ICAO-KGXA|090|N-Normal|1|FM15-METAR|223|ICAO-KGXA|1.5|N-Normal|1|FM15-METAR|223|ICAO-KGXA|||||||||||||24|Derived||FM15-METAR|223|ICAO-KGXA|||||||||||||||||||||||||||||||||||||||||||||||||||||||||||||||||||||||||1012.9||1|FM15-METAR|223|ICAO-KGXA|||||||||||||||||||||||||||||||||||||||||||MET081METAR KGXA 020355Z AUTO 09003KT 10SM CLR 19/M02 A2991 RMK AO2 SLP089 T01871025 $;||F||223|ICAO-KGXA
USI0000KGXA|GRAY BUTTE FLD|2011|09|02|05|00|34.5639|-117.6750|920.5|18.0||1|FM15-METAR|223|ICAO-KGXA|-2.0||1|FM15-METAR|223|ICAO-KGXA|||||||1009.2||1|FM15-METAR|223|ICAO-KGXA|170|N-Normal|1|FM15-METAR|223|ICAO-KGXA|2.1|N-Normal|1|FM15-METAR|223|ICAO-KGXA|||||||||||||26|Derived||FM15-METAR|223|ICAO-KGXA|||||||||||||||||||||||||||||||||||||||||||||||||||||||||||||||||||||||||1013.5||1|FM15-METAR|223|ICAO-KGXA|||||||||||||||||||||||||||||||||||||||||||MET081METAR KGXA 020455Z AUTO 17004KT 10SM CLR 18/M02 A2993 RMK AO2 SLP092 T01781021 $;||F||223|ICAO-KGXA
USI0000KGXA|GRAY BUTTE FLD|2011|09|02|06|00|34.5639|-117.6750|920.5|17.0||1|FM15-METAR|223|ICAO-KGXA|-2.0||1|FM15-METAR|223|ICAO-KGXA|||||||1009.1||1|FM15-METAR|223|ICAO-KGXA|180|N-Normal|1|FM15-METAR|223|ICAO-KGXA|1.5|N-Normal|1|FM15-METAR|223|ICAO-KGXA|||||||||||||27|Derived||FM15-METAR|223|ICAO-KGXA|||||||||||||||||||||||||||||||||||||||||||||||||||||||||||||||||||||||||1013.5||1|FM15-METAR|223|ICAO-KGXA|1.4|1-Incr-the|1|FM15-METAR|223|ICAO-KGXA|||||||||||||||||||||||||||||||||||||MET099METAR KGXA 020555Z AUTO 18003KT 10SM CLR 17/M02 A2993 RMK AO2 SLP091 T01681024 10345 20169 51014 $;||F||223|ICAO-KGXA
USI0000KGXA|GRAY BUTTE FLD|2011|09|02|07|00|34.5639|-117.6750|920.5|17.0||1|FM15-METAR|223|ICAO-KGXA|-3.0||1|FM15-METAR|223|ICAO-KGXA|||||||1009.1||1|FM15-METAR|223|ICAO-KGXA|170|N-Normal|1|FM15-METAR|223|ICAO-KGXA|2.6|N-Normal|1|FM15-METAR|223|ICAO-KGXA|||||||||||||25|Derived||FM15-METAR|223|ICAO-KGXA|||||||||||||||||||||||||||||||||||||||||||||||||||||||||||||||||||||||||1013.9||1|FM15-METAR|223|ICAO-KGXA|||||||||||||||||||||||||||||||||||||||||||MET081METAR KGXA 020655Z AUTO 17005KT 10SM CLR 17/M03 A2994 RMK AO2 SLP091 T01671030 $;||F||223|ICAO-KGXA
USI0000KGXA|GRAY BUTTE FLD|2011|09|02|08|00|34.5639|-117.6750|920.5|17.0||1|FM15-METAR|223|ICAO-KGXA|-2.0||1|FM15-METAR|223|ICAO-KGXA|||||||1008.7||1|FM15-METAR|223|ICAO-KGXA|160|N-Normal|1|FM15-METAR|223|ICAO-KGXA|1.5|N-Normal|1|FM15-METAR|223|ICAO-KGXA|||||||||||||27|Derived||FM15-METAR|223|ICAO-KGXA|||||||||||||||||||||||||||||||||||||||||||||||||||||||||||||||||||||||||1013.5||1|FM15-METAR|223|ICAO-KGXA|||||||||||||||||||||||||||||||||||||||||||MET077METAR KGXA 020755Z AUTO 16003KT 10SM 17/M02 A2993 RMK AO2 SLP087 T01661025 $;||F||223|ICAO-KGXA
USI0000KGXA|GRAY BUTTE FLD|2011|09|02|09|00|34.5639|-117.6750|920.5|16.0||1|FM15-METAR|223|ICAO-KGXA|-4.0||1|FM15-METAR|223|ICAO-KGXA|||||||1008.8||1|FM15-METAR|223|ICAO-KGXA|170|N-Normal|1|FM15-METAR|223|ICAO-KGXA|2.1|N-Normal|1|FM15-METAR|223|ICAO-KGXA|||||||||||||25|Derived||FM15-METAR|223|ICAO-KGXA|||||||||||||||||||||||||||||||||||||||||||||||||||||||||||||||||||||||||1013.5||1|FM15-METAR|223|ICAO-KGXA|-0.3|7-Decr-(st|1|FM15-METAR|223|ICAO-KGXA|||||||||||||||||||||||||||||||||||||MET083METAR KGXA 020855Z AUTO 17004KT 10SM 16/M04 A2993 RMK AO2 SLP088 T01621038 54001 $;||F||223|ICAO-KGXA
USI0000KGXA|GRAY BUTTE FLD|2011|09|02|10|00|34.5639|-117.6750|920.5|16.0||1|FM15-METAR|223|ICAO-KGXA|-5.0||1|FM15-METAR|223|ICAO-KGXA|||||||1008.7||1|FM15-METAR|223|ICAO-KGXA|160|N-Normal|1|FM15-METAR|223|ICAO-KGXA|2.1|N-Normal|1|FM15-METAR|223|ICAO-KGXA|||||||||||||23|Derived||FM15-METAR|223|ICAO-KGXA|||||||||||||||||||||||||||||||||||||||||||||||||||||||||||||||||||||||||1013.5||1|FM15-METAR|223|ICAO-KGXA|||||||||||||||||||||||||||||||||||||||||||MET077METAR KGXA 020955Z AUTO 16004KT 10SM 16/M05 A2993 RMK AO2 SLP087 T01611047 $;||F||223|ICAO-KGXA
USI0000KGXA|GRAY BUTTE FLD|2011|09|02|11|00|34.5639|-117.6750|920.5|16.0||1|FM15-METAR|223|ICAO-KGXA|-5.0||1|FM15-METAR|223|ICAO-KGXA|||||||1009.2||1|FM15-METAR|223|ICAO-KGXA|170|N-Normal|1|FM15-METAR|223|ICAO-KGXA|2.6|N-Normal|1|FM15-METAR|223|ICAO-KGXA|||||||||||||23|Derived||FM15-METAR|223|ICAO-KGXA|||||||||||||||||||||||||||||||||||||||||||||||||||||||||||||||||||||||||1013.9||1|FM15-METAR|223|ICAO-KGXA|||||||||||||||||||||||||||||||||||||||||||MET077METAR KGXA 021055Z AUTO 17005KT 10SM 16/M05 A2994 RMK AO2 SLP092 T01611047 $;||F||223|ICAO-KGXA
USI0000KGXA|GRAY BUTTE FLD|2011|09|02|12|00|34.5639|-117.6750|920.5|17.0||1|FM15-METAR|223|ICAO-KGXA|-5.0||1|FM15-METAR|223|ICAO-KGXA|||||||1009.8||1|FM15-METAR|223|ICAO-KGXA|160|N-Normal|1|FM15-METAR|223|ICAO-KGXA|2.6|N-Normal|1|FM15-METAR|223|ICAO-KGXA|||||||||||||22|Derived||FM15-METAR|223|ICAO-KGXA|||||||||||||||||||||||||||||||||||||||||||||||||||||||||||||||||||||||||1014.2||1|FM15-METAR|223|ICAO-KGXA|0.5|3-Decr-or-|1|FM15-METAR|223|ICAO-KGXA|||||||||||||||||||||||||||||||||||||MET095METAR KGXA 021155Z AUTO 16005KT 10SM 17/M05 A2995 RMK AO2 SLP098 T01651055 10205 20153 53005 $;||F||223|ICAO-KGXA
USI0000KGXA|GRAY BUTTE FLD|2011|09|02|13|00|34.5639|-117.6750|920.5|17.0||1|FM15-METAR|223|ICAO-KGXA|-4.0||1|FM15-METAR|223|ICAO-KGXA|||||||1010.7||1|FM15-METAR|223|ICAO-KGXA|160|N-Normal|1|FM15-METAR|223|ICAO-KGXA|1.5|N-Normal|1|FM15-METAR|223|ICAO-KGXA|||||||||||||24|Derived||FM15-METAR|223|ICAO-KGXA|||||||||||||||||||||||||||||||||||||||||||||||||||||||||||||||||||||||||1014.6||1|FM15-METAR|223|ICAO-KGXA|||||||||||||||||||||||||||||||||||||||||||MET077METAR KGXA 021255Z AUTO 16003KT 10SM 17/M04 A2996 RMK AO2 SLP107 T01661041 $;||F||223|ICAO-KGXA
USI0000KGXA|GRAY BUTTE FLD|2011|09|02|14|00|34.5639|-117.6750|920.5|23.0||1|FM15-METAR|223|ICAO-KGXA|-4.0||1|FM15-METAR|223|ICAO-KGXA|||||||1010.7||1|FM15-METAR|223|ICAO-KGXA|120|N-Normal|1|FM15-METAR|223|ICAO-KGXA|0.5|N-Normal|1|FM15-METAR|223|ICAO-KGXA|||||||||||||16|Derived||FM15-METAR|223|ICAO-KGXA|||||||||||||||||||||||||||||||||||||||||||||||||||||||||||||||||||||||||1014.9||1|FM15-METAR|223|ICAO-KGXA|||||||||||||||||||||||||||||||||||||||||||MET077METAR KGXA 021355Z AUTO 12001KT 10SM 23/M04 A2997 RMK AO2 SLP107 T02341042 $;||F||223|ICAO-KGXA
USI0000KGXA|GRAY BUTTE FLD|2011|09|02|15|00|34.5639|-117.6750|920.5|28.0||1|FM15-METAR|223|ICAO-KGXA|-5.0||1|FM15-METAR|223|ICAO-KGXA|||||||1010.5||1|FM15-METAR|223|ICAO-KGXA|130|N-Normal|1|FM15-METAR|223|ICAO-KGXA|1.0|N-Normal|1|FM15-METAR|223|ICAO-KGXA|||||||||||||11|Derived||FM15-METAR|223|ICAO-KGXA|||||||||||||||||||||||||||||||||||||||||||||||||||||||||||||||||||||||||1015.2||1|FM15-METAR|223|ICAO-KGXA|1.0|2-Incr-(st|1|FM15-METAR|223|ICAO-KGXA|||||||||||||||||||||||||||||||||||||MET083METAR KGXA 021455Z AUTO 13002KT 10SM 28/M05 A2998 RMK AO2 SLP105 T02781051 52010 $;||F||223|ICAO-KGXA
USI0000KGXA|GRAY BUTTE FLD|2011|09|02|16|00|34.5639|-117.6750|920.5|31.0||1|FM15-METAR|223|ICAO-KGXA|-5.0||1|FM15-METAR|223|ICAO-KGXA|||||||1011.3||1|FM15-METAR|223|ICAO-KGXA|170|N-Normal|1|FM15-METAR|223|ICAO-KGXA|0.5|N-Normal|1|FM15-METAR|223|ICAO-KGXA|||||||||||||9|Derived||FM15-METAR|223|ICAO-KGXA|||||||||||||||||||||||||||||||||||||||||||||||||||||||||||||||||||||||||1015.9||1|FM15-METAR|223|ICAO-KGXA|||||||||||||||||||||||||||||||||||||||||||MET077METAR KGXA 021555Z AUTO 17001KT 10SM 31/M05 A3000 RMK AO2 SLP113 T03071052 $;||F||223|ICAO-KGXA
USI0000KGXA|GRAY BUTTE FLD|2011|09|02|17|00|34.5639|-117.6750|920.5|31.0||1|FM15-METAR|223|ICAO-KGXA|-6.0||1|FM15-METAR|223|ICAO-KGXA|||||||1011.4||1|FM15-METAR|223|ICAO-KGXA|020|N-Normal|1|FM15-METAR|223|ICAO-KGXA|2.1|N-Normal|1|FM15-METAR|223|ICAO-KGXA|||||||||||||9|Derived||FM15-METAR|223|ICAO-KGXA|||||||||||||||||||||||||||||||||||||||||||||||||||||||||||||||||||||||||1015.9||1|FM15-METAR|223|ICAO-KGXA|||||||||||||||||||||||||||||||||||||||||||MET077METAR KGXA 021655Z AUTO 02004KT 10SM 31/M06 A3000 RMK AO2 SLP114 T03121058 $;||F||223|ICAO-KGXA
USI0000KGXA|GRAY BUTTE FLD|2011|09|02|18|00|34.5639|-117.6750|920.5|33.0||1|FM15-METAR|223|ICAO-KGXA|-6.0||1|FM15-METAR|223|ICAO-KGXA|||||||1010.7||1|FM15-METAR|223|ICAO-KGXA|999|V-Variable|9|FM15-METAR|223|ICAO-KGXA|1.5|V-Variable|1|FM15-METAR|223|ICAO-KGXA|||||||||||||8|Derived||FM15-METAR|223|ICAO-KGXA|||||||||||||||||||||||||||||||||||||||||||||||||||||||||||||||||||||||||1015.2||1|FM15-METAR|223|ICAO-KGXA|0.0|0-Incr-the|1|FM15-METAR|223|ICAO-KGXA|||||||||||||||||||||||||||||||||||||MET095METAR KGXA 021755Z AUTO VRB03KT 10SM 33/M06 A2998 RMK AO2 SLP107 T03291056 10313 20157 50000 $;||F||223|ICAO-KGXA
USI0000KGXA|GRAY BUTTE FLD|2011|09|02|19|00|34.5639|-117.6750|920.5|34.0||1|FM15-METAR|223|ICAO-KGXA|-4.0||1|FM15-METAR|223|ICAO-KGXA|||||||1009.6||1|FM15-METAR|223|ICAO-KGXA|999|V-Variable|9|FM15-METAR|223|ICAO-KGXA|3.1|V-Variable|1|FM15-METAR|223|ICAO-KGXA|||||||||||||8|Derived||FM15-METAR|223|ICAO-KGXA|||||||||||||||||||||||||||||||||||||||||||||||||||||||||||||||||||||||||1014.6||1|FM15-METAR|223|ICAO-KGXA|||||||||||||||||||||||||||||||||||||||||||MET077METAR KGXA 021855Z AUTO VRB06KT 10SM 34/M04 A2996 RMK AO2 SLP096 T03431042 $;||F||223|ICAO-KGXA
USI0000KGXA|GRAY BUTTE FLD|2011|09|02|20|00|34.5639|-117.6750|920.5|35.0||1|FM15-METAR|223|ICAO-KGXA|-3.0||1|FM15-METAR|223|ICAO-KGXA|||||||1008.9||1|FM15-METAR|223|ICAO-KGXA|330|N-Normal|1|FM15-METAR|223|ICAO-KGXA|4.1|N-Normal|1|FM15-METAR|223|ICAO-KGXA|8.2||1|FM15-METAR|223|ICAO-KGXA|||||||9|Derived||FM15-METAR|223|ICAO-KGXA|||||||||||||||||||||||||||||||||||||||||||||||||||||||||||||||||||||||||1013.9||1|FM15-METAR|223|ICAO-KGXA|||||||||||||||||||||||||||||||||||||||||||MET080METAR KGXA 021955Z AUTO 33008G16KT 10SM 35/M03 A2994 RMK AO2 SLP089 T03471031 $;||F||223|ICAO-KGXA
USI0000KGXA|GRAY BUTTE FLD|2011|09|02|21|00|34.5639|-117.6750|920.5|36.0||1|FM15-METAR|223|ICAO-KGXA|-3.0||1|FM15-METAR|223|ICAO-KGXA|||||||1008.0||1|FM15-METAR|223|ICAO-KGXA|260|N-Normal|1|FM15-METAR|223|ICAO-KGXA|4.6|N-Normal|1|FM15-METAR|223|ICAO-KGXA|6.7||1|FM15-METAR|223|ICAO-KGXA|||||||8|Derived||FM15-METAR|223|ICAO-KGXA|||||||||||||||||||||||||||||||||||||||||||||||||||||||||||||||||||||||||1013.2||1|FM15-METAR|223|ICAO-KGXA|-2.0|7-Decr-(st|1|FM15-METAR|223|ICAO-KGXA|||||||||||||||||||||||||||||||||||||MET094METAR KGXA 022055Z AUTO 26009G13KT 220V290 10SM 36/M03 A2992 RMK AO2 SLP080 T03641029 57020 $;||F||223|ICAO-KGXA
USI0000KGXA|GRAY BUTTE FLD|2011|09|02|22|00|34.5639|-117.6750|920.5|36.0||1|FM15-METAR|223|ICAO-KGXA|-3.0||1|FM15-METAR|223|ICAO-KGXA|||||||1007.7||1|FM15-METAR|223|ICAO-KGXA|280|N-Normal|1|FM15-METAR|223|ICAO-KGXA|2.1|N-Normal|1|FM15-METAR|223|ICAO-KGXA|6.2||1|FM15-METAR|223|ICAO-KGXA|||||||8|Derived||FM15-METAR|223|ICAO-KGXA|||||||||||||||||||||||||||||||||||||||||||||||||||||||||||||||||||||||||1012.5||1|FM15-METAR|223|ICAO-KGXA|||||||||||||||||||||||||||||||||||||||||||MET080METAR KGXA 022155Z AUTO 28004G12KT 10SM 36/M03 A2990 RMK AO2 SLP077 T03571026 $;||F||223|ICAO-KGXA
USI0000KGXA|GRAY BUTTE FLD|2011|09|02|23|00|34.5639|-117.6750|920.5|36.0||1|FM15-METAR|223|ICAO-KGXA|-2.0||1|FM15-METAR|223|ICAO-KGXA|||||||1007.3||1|FM15-METAR|223|ICAO-KGXA|999|V-Variable|9|FM15-METAR|223|ICAO-KGXA|1.5|V-Variable|1|FM15-METAR|223|ICAO-KGXA|||||||||||||9|Derived||FM15-METAR|223|ICAO-KGXA|||||||||||||||||||||||||||||||||||||||||||||||||||||||||||||||||||||||||1012.5||1|FM15-METAR|223|ICAO-KGXA|||||||||||||||||||||||||||||||||||||||||||MET077METAR KGXA 022255Z AUTO VRB03KT 10SM 36/M02 A2990 RMK AO2 SLP073 T03591024 $;||F||223|ICAO-KGXA
USI0000KGXA|GRAY BUTTE FLD|2011|09|03|00|00|34.5639|-117.6750|920.5|34.0||1|FM15-METAR|223|ICAO-KGXA|-2.0||1|FM15-METAR|223|ICAO-KGXA|||||||1007.6||1|FM15-METAR|223|ICAO-KGXA|290|N-Normal|1|FM15-METAR|223|ICAO-KGXA|4.1|N-Normal|1|FM15-METAR|223|ICAO-KGXA|8.2||1|FM15-METAR|223|ICAO-KGXA|||||||10|Derived||FM15-METAR|223|ICAO-KGXA|||||||||||||||||||||||||||||||||||||||||||||||||||||||||||||||||||||||||1012.5||1|FM15-METAR|223|ICAO-KGXA|-0.6|5-Decr,-th|1|FM15-METAR|223|ICAO-KGXA|||||||||||||||||||||||||||||||||||||MET119METAR KGXA 022355Z AUTO 29008G16KT 10SM 34/M02 A2990 RMK AO2 WSHFT 2323 SLP076 T03411023 10365 20314 403650153 55006 $;||F||223|ICAO-KGXA
USI0000KGXA|GRAY BUTTE FLD|2011|09|03|01|00|34.5639|-117.6750|920.5|33.0||1|FM15-METAR|223|ICAO-KGXA|0.0||1|FM15-METAR|223|ICAO-KGXA|||||||1008.1||1|FM15-METAR|223|ICAO-KGXA|270|N-Normal|1|FM15-METAR|223|ICAO-KGXA|5.1|N-Normal|1|FM15-METAR|223|ICAO-KGXA|||||||||||||12|Derived||FM15-METAR|223|ICAO-KGXA|||||||||||||||||||||||||||||||||||||||||||||||||||||||||||||||||||||||||1012.5||1|FM15-METAR|223|ICAO-KGXA|||||||||||||||||||||||||||||||||||||||||||MET091METAR KGXA 030055Z AUTO 27010KT 10SM 33/00 A2990 RMK AO2 SLP081 T03280001 PWINO PNO TSNO $;||F||223|ICAO-KGXA
USI0000KGXA|GRAY BUTTE FLD|2011|09|06|14|00|34.5639|-117.6750|920.5|23.0||1|FM15-METAR|223|ICAO-KGXA|3.0||1|FM15-METAR|223|ICAO-KGXA|||||||1014.2||1|FM15-METAR|223|ICAO-KGXA|060|N-Normal|1|FM15-METAR|223|ICAO-KGXA|1.0|N-Normal|1|FM15-METAR|223|ICAO-KGXA|||||||||||||27|Derived||FM15-METAR|223|ICAO-KGXA|||||||||||||||||||||||||||||||||||||||||||||||||||||||||||||||||||||||||1018.0||1|FM15-METAR|223|ICAO-KGXA|||||||||||||||||||||||||||||||||||||||||||MET078METAR KGXA 061355Z AUTO 06002KT 10SM CLR 23/03 A3006 RMK AO2 SLP142 T02280034;||F||223|ICAO-KGXA
USI0000KGXA|GRAY BUTTE FLD|2011|09|06|16|00|34.5639|-117.6750|920.5|28.0||1|FM15-METAR|223|ICAO-KGXA|4.0||1|FM15-METAR|223|ICAO-KGXA|||||||1012.9||1|FM15-METAR|223|ICAO-KGXA|999|V-Variable|9|FM15-METAR|223|ICAO-KGXA|1.5|V-Variable|1|FM15-METAR|223|ICAO-KGXA|||||||||||||21|Derived||FM15-METAR|223|ICAO-KGXA|||||||||||||||||||||||||||||||||||||||||||||||||||||||||||||||||||||||||1018.3||1|FM15-METAR|223|ICAO-KGXA|||||||||||||||||||||||||||||||||||||||||||MET078METAR KGXA 061555Z AUTO VRB03KT 10SM CLR 28/04 A3007 RMK AO2 SLP129 T02750042;||F||223|ICAO-KGXA
USI0000KGXA|GRAY BUTTE FLD|2011|09|06|17|00|34.5639|-117.6750|920.5|29.0||1|FM15-METAR|223|ICAO-KGXA|4.0||1|FM15-METAR|223|ICAO-KGXA|||||||1012.2||1|FM15-METAR|223|ICAO-KGXA|999|V-Variable|9|FM15-METAR|223|ICAO-KGXA|2.1|V-Variable|1|FM15-METAR|223|ICAO-KGXA|||||||||||||20|Derived||FM15-METAR|223|ICAO-KGXA|||||||||||||||||||||||||||||||||||||||||||||||||||||||||||||||||||||||||1018.6||1|FM15-METAR|223|ICAO-KGXA|||||||||||||||||||||||||||||||||||||||||||MET078METAR KGXA 061655Z AUTO VRB04KT 10SM CLR 29/04 A3008 RMK AO2 SLP122 T02910043;||F||223|ICAO-KGXA
USI0000KGXA|GRAY BUTTE FLD|2011|09|06|18|00|34.5639|-117.6750|920.5|31.0||1|FM15-METAR|223|ICAO-KGXA|4.0||1|FM15-METAR|223|ICAO-KGXA|||||||1011.1||1|FM15-METAR|223|ICAO-KGXA|010|N-Normal|1|FM15-METAR|223|ICAO-KGXA|3.1|N-Normal|1|FM15-METAR|223|ICAO-KGXA|||||||||||||18|Derived||FM15-METAR|223|ICAO-KGXA|||||||||||||||||||||||||||||||||||||||||||||||||||||||||||||||||||||||||1018.0||1|FM15-METAR|223|ICAO-KGXA|0.1|0-Incr-the|1|FM15-METAR|223|ICAO-KGXA|||||||||||||||||||||||||||||||||||||MET096METAR KGXA 061755Z AUTO 01006KT 10SM CLR 31/04 A3006 RMK AO2 SLP111 T03130038 10304 20165 50001;||F||223|ICAO-KGXA
USI0000KGXA|GRAY BUTTE FLD|2011|09|06|19|00|34.5639|-117.6750|920.5|32.0||1|FM15-METAR|223|ICAO-KGXA|3.0||1|FM15-METAR|223|ICAO-KGXA|||||||1010.2||1|FM15-METAR|223|ICAO-KGXA|360|N-Normal|1|FM15-METAR|223|ICAO-KGXA|3.6|N-Normal|1|FM15-METAR|223|ICAO-KGXA|5.1||1|FM15-METAR|223|ICAO-KGXA|||||||16|Derived||FM15-METAR|223|ICAO-KGXA|||||||||||||||||||||||||||||||||||||||||||||||||||||||||||||||||||||||||1017.6||1|FM15-METAR|223|ICAO-KGXA|||||||||||||||||||||||||||||||||||||||||||MET081METAR KGXA 061855Z AUTO 36007G10KT 10SM CLR 32/03 A3005 RMK AO2 SLP102 T03220025;||F||223|ICAO-KGXA
USI0000KGXA|GRAY BUTTE FLD|2011|09|06|20|00|34.5639|-117.6750|920.5|34.0||1|FM15-METAR|223|ICAO-KGXA|2.0||1|FM15-METAR|223|ICAO-KGXA|||||||1009.4||1|FM15-METAR|223|ICAO-KGXA|070|N-Normal|1|FM15-METAR|223|ICAO-KGXA|4.1|N-Normal|1|FM15-METAR|223|ICAO-KGXA|6.2||1|FM15-METAR|223|ICAO-KGXA|||||||13|Derived||FM15-METAR|223|ICAO-KGXA|||||||||||||||||||||||||||||||||||||||||||||||||||||||||||||||||||||||||1016.9||1|FM15-METAR|223|ICAO-KGXA|||||||||||||||||||||||||||||||||||||||||||MET089METAR KGXA 061955Z AUTO 07008G12KT 030V130 10SM CLR 34/02 A3003 RMK AO2 SLP094 T03400016;||F||223|ICAO-KGXA
USI0000KGXA|GRAY BUTTE FLD|2011|09|06|21|00|34.5639|-117.6750|920.5|34.0||1|FM15-METAR|223|ICAO-KGXA|2.0||1|FM15-METAR|223|ICAO-KGXA|||||||1008.6||1|FM15-METAR|223|ICAO-KGXA|999|V-Variable|9|FM15-METAR|223|ICAO-KGXA|2.1|V-Variable|1|FM15-METAR|223|ICAO-KGXA|||||||||||||13|Derived||FM15-METAR|223|ICAO-KGXA|||||||||||||||||||||||||||||||||||||||||||||||||||||||||||||||||||||||||1016.3||1|FM15-METAR|223|ICAO-KGXA|-1.7|7-Decr-(st|1|FM15-METAR|223|ICAO-KGXA|||||||||||||||||||||||||||||||||||||MET084METAR KGXA 062055Z AUTO VRB04KT 10SM CLR 34/02 A3001 RMK AO2 SLP086 T03410019 57017;||F||223|ICAO-KGXA
USI0000KGXA|GRAY BUTTE FLD|2011|09|06|22|00|34.5639|-117.6750|920.5|34.0||1|FM15-METAR|223|ICAO-KGXA|2.0||1|FM15-METAR|223|ICAO-KGXA|||||||1008.0||1|FM15-METAR|223|ICAO-KGXA|999|V-Variable|9|FM15-METAR|223|ICAO-KGXA|2.1|V-Variable|1|FM15-METAR|223|ICAO-KGXA|||||||||||||13|Derived||FM15-METAR|223|ICAO-KGXA|||||||||||||||||||||||||||||||||||||||||||||||||||||||||||||||||||||||||1015.9||1|FM15-METAR|223|ICAO-KGXA|||||||||||||||||||||||||||||||||||||||||||MET078METAR KGXA 062155Z AUTO VRB04KT 10SM CLR 34/02 A3000 RMK AO2 SLP080 T03400022;||F||223|ICAO-KGXA
USI0000KGXA|GRAY BUTTE FLD|2011|09|06|23|00|34.5639|-117.6750|920.5|34.0||1|FM15-METAR|223|ICAO-KGXA|2.0||1|FM15-METAR|223|ICAO-KGXA|||||||1007.8||1|FM15-METAR|223|ICAO-KGXA|040|N-Normal|1|FM15-METAR|223|ICAO-KGXA|3.1|N-Normal|1|FM15-METAR|223|ICAO-KGXA|7.2||1|FM15-METAR|223|ICAO-KGXA|||||||13|Derived||FM15-METAR|223|ICAO-KGXA|||||||||||||||||||||||||||||||||||||||||||||||||||||||||||||||||||||||||1015.6||1|FM15-METAR|223|ICAO-KGXA|||||||||||||||||||||||||||||||||||||||||||MET083METAR KGXA 062255Z AUTO 04006G14KT 10SM CLR 34/02 A2999 RMK AO2 SLP078 T03370024 $;||F||223|ICAO-KGXA
USI0000KGXA|GRAY BUTTE FLD|2011|09|07|00|00|34.5639|-117.6750|920.5|33.0||1|FM15-METAR|223|ICAO-KGXA|2.0||1|FM15-METAR|223|ICAO-KGXA|||||||1010.7||1|FM15-METAR|223|ICAO-KGXA|999|V-Variable|9|FM15-METAR|223|ICAO-KGXA|1.0|V-Variable|1|FM15-METAR|223|ICAO-KGXA|||||||||||||14|Derived||FM15-METAR|223|ICAO-KGXA|||||||||||||||||||||||||||||||||||||||||||||||||||||||||||||||||||||||||1015.2||1|FM15-METAR|223|ICAO-KGXA|-0.7|7-Decr-(st|1|FM15-METAR|223|ICAO-KGXA|||||||||||||||||||||||||||||||||||||MET108METAR KGXA 062355Z AUTO VRB02KT 10SM CLR 33/02 A2998 RMK AO2 SLP107 T03330015 10346 20293 403460201 57007 $;||F||223|ICAO-KGXA
USI0000KGXA|GRAY BUTTE FLD|2011|09|07|01|00|34.5639|-117.6750|920.5|32.0||1|FM15-METAR|223|ICAO-KGXA|1.0||1|FM15-METAR|223|ICAO-KGXA|||||||1010.9||1|FM15-METAR|223|ICAO-KGXA|050|N-Normal|1|FM15-METAR|223|ICAO-KGXA|2.1|N-Normal|1|FM15-METAR|223|ICAO-KGXA|||||||||||||14|Derived||FM15-METAR|223|ICAO-KGXA|||||||||||||||||||||||||||||||||||||||||||||||||||||||||||||||||||||||||1015.6||1|FM15-METAR|223|ICAO-KGXA|||||||||||||||||||||||||||||||||||||||||||MET080METAR KGXA 070055Z AUTO 05004KT 10SM CLR 32/01 A2999 RMK AO2 SLP109 T03220009 $;||F||223|ICAO-KGXA
USI0000KGXA|GRAY BUTTE FLD|2011|09|07|02|00|34.5639|-117.6750|920.5|29.0||1|FM15-METAR|223|ICAO-KGXA|1.0||1|FM15-METAR|223|ICAO-KGXA|||||||1011.1||1|FM15-METAR|223|ICAO-KGXA|060|N-Normal|1|FM15-METAR|223|ICAO-KGXA|1.5|N-Normal|1|FM15-METAR|223|ICAO-KGXA|||||||||||||16|Derived||FM15-METAR|223|ICAO-KGXA|||||||||||||||||||||||||||||||||||||||||||||||||||||||||||||||||||||||||1016.3||1|FM15-METAR|223|ICAO-KGXA|||||||||||||||||||||||||||||||||||||||||||MET080METAR KGXA 070155Z AUTO 06003KT 10SM CLR 29/01 A3001 RMK AO2 SLP111 T02890011 $;||F||223|ICAO-KGXA
USI0000KGXA|GRAY BUTTE FLD|2011|09|07|03|00|34.5639|-117.6750|920.5|25.0||1|FM15-METAR|223|ICAO-KGXA|2.0||1|FM15-METAR|223|ICAO-KGXA|||||||1012.0||1|FM15-METAR|223|ICAO-KGXA|160|N-Normal|1|FM15-METAR|223|ICAO-KGXA|2.1|N-Normal|1|FM15-METAR|223|ICAO-KGXA|||||||||||||22|Derived||FM15-METAR|223|ICAO-KGXA|||||||||||||||||||||||||||||||||||||||||||||||||||||||||||||||||||||||||1016.9||1|FM15-METAR|223|ICAO-KGXA|1.3|3-Decr-or-|1|FM15-METAR|223|ICAO-KGXA|||||||||||||||||||||||||||||||||||||MET089METAR KGXA 070255Z AUTO 16004KT 10SM FEW110 25/02 A3003 RMK AO2 SLP120 T02490024 53013 $;||F||223|ICAO-KGXA
USI0000KGXA|GRAY BUTTE FLD|2011|09|07|04|00|34.5639|-117.6750|920.5|25.0||1|FM15-METAR|223|ICAO-KGXA|3.0||1|FM15-METAR|223|ICAO-KGXA|||||||1012.2||1|FM15-METAR|223|ICAO-KGXA|999|V-Variable|9|FM15-METAR|223|ICAO-KGXA|2.1|V-Variable|1|FM15-METAR|223|ICAO-KGXA|||||||||||||24|Derived||FM15-METAR|223|ICAO-KGXA|||||||||||||||||||||||||||||||||||||||||||||||||||||||||||||||||||||||||1017.6||1|FM15-METAR|223|ICAO-KGXA|||||||||||||||||||||||||||||||||||||||||||MET080METAR KGXA 070355Z AUTO VRB04KT 10SM CLR 25/03 A3005 RMK AO2 SLP122 T02540031 $;||F||223|ICAO-KGXA
USI0000KGXA|GRAY BUTTE FLD|2011|09|07|05|00|34.5639|-117.6750|920.5|24.0||1|FM15-METAR|223|ICAO-KGXA|7.0||1|FM15-METAR|223|ICAO-KGXA|||||||1012.6||1|FM15-METAR|223|ICAO-KGXA|230|N-Normal|1|FM15-METAR|223|ICAO-KGXA|1.0|N-Normal|1|FM15-METAR|223|ICAO-KGXA|||||||||||||34|Derived||FM15-METAR|223|ICAO-KGXA|||||||||||||||||||||||||||||||||||||||||||||||||||||||||||||||||||||||||1018.0||1|FM15-METAR|223|ICAO-KGXA|||||||||||||||||||||||||||||||||||||||||||MET080METAR KGXA 070455Z AUTO 23002KT 10SM CLR 24/07 A3006 RMK AO2 SLP126 T02420069 $;||F||223|ICAO-KGXA
USI0000KGXA|GRAY BUTTE FLD|2011|09|07|06|00|34.5639|-117.6750|920.5|21.0||1|FM15-METAR|223|ICAO-KGXA|5.0||1|FM15-METAR|223|ICAO-KGXA|||||||1012.9||1|FM15-METAR|223|ICAO-KGXA|160|N-Normal|1|FM15-METAR|223|ICAO-KGXA|2.1|N-Normal|1|FM15-METAR|223|ICAO-KGXA|||||||||||||35|Derived||FM15-METAR|223|ICAO-KGXA|||||||||||||||||||||||||||||||||||||||||||||||||||||||||||||||||||||||||1018.0||1|FM15-METAR|223|ICAO-KGXA|1.0|1-Incr-the|1|FM15-METAR|223|ICAO-KGXA|||||||||||||||||||||||||||||||||||||MET094METAR KGXA 070555Z AUTO 16004KT 10SM 21/05 A3006 RMK AO2 SLP129 T02110050 10340 20241 51010 $;||F||223|ICAO-KGXA
USI0000KGXA|GRAY BUTTE FLD|2011|09|07|07|00|34.5639|-117.6750|920.5|20.0||1|FM15-METAR|223|ICAO-KGXA|5.0||1|FM15-METAR|223|ICAO-KGXA|||||||1012.9||1|FM15-METAR|223|ICAO-KGXA|180|N-Normal|1|FM15-METAR|223|ICAO-KGXA|2.1|N-Normal|1|FM15-METAR|223|ICAO-KGXA|||||||||||||38|Derived||FM15-METAR|223|ICAO-KGXA|||||||||||||||||||||||||||||||||||||||||||||||||||||||||||||||||||||||||1018.0||1|FM15-METAR|223|ICAO-KGXA|||||||||||||||||||||||||||||||||||||||||||MET076METAR KGXA 070655Z AUTO 18004KT 10SM 20/05 A3006 RMK AO2 SLP129 T02020054 $;||F||223|ICAO-KGXA
USI0000KGXA|GRAY BUTTE FLD|2011|09|07|08|00|34.5639|-117.6750|920.5|19.0||1|FM15-METAR|223|ICAO-KGXA|6.0||1|FM15-METAR|223|ICAO-KGXA|||||||1012.5||1|FM15-METAR|223|ICAO-KGXA|180|N-Normal|1|FM15-METAR|223|ICAO-KGXA|1.5|N-Normal|1|FM15-METAR|223|ICAO-KGXA|||||||||||||43|Derived||FM15-METAR|223|ICAO-KGXA|||||||||||||||||||||||||||||||||||||||||||||||||||||||||||||||||||||||||1017.6||1|FM15-METAR|223|ICAO-KGXA|||||||||||||||||||||||||||||||||||||||||||MET076METAR KGXA 070755Z AUTO 18003KT 10SM 19/06 A3005 RMK AO2 SLP125 T01940055 $;||F||223|ICAO-KGXA
USI0000KGXA|GRAY BUTTE FLD|2011|09|07|09|00|34.5639|-117.6750|920.5|19.0||1|FM15-METAR|223|ICAO-KGXA|5.0||1|FM15-METAR|223|ICAO-KGXA|||||||1012.6||1|FM15-METAR|223|ICAO-KGXA|170|N-Normal|1|FM15-METAR|223|ICAO-KGXA|2.1|N-Normal|1|FM15-METAR|223|ICAO-KGXA|||||||||||||40|Derived||FM15-METAR|223|ICAO-KGXA|||||||||||||||||||||||||||||||||||||||||||||||||||||||||||||||||||||||||1017.6||1|FM15-METAR|223|ICAO-KGXA|-0.3|7-Decr-(st|1|FM15-METAR|223|ICAO-KGXA|||||||||||||||||||||||||||||||||||||MET082METAR KGXA 070855Z AUTO 17004KT 10SM 19/05 A3005 RMK AO2 SLP126 T01900048 54001 $;||F||223|ICAO-KGXA
USI0000KGXA|GRAY BUTTE FLD|2011|09|07|10|00|34.5639|-117.6750|920.5|18.0||1|FM15-METAR|223|ICAO-KGXA|4.0||1|FM15-METAR|223|ICAO-KGXA|||||||1013.1||1|FM15-METAR|223|ICAO-KGXA|170|N-Normal|1|FM15-METAR|223|ICAO-KGXA|2.1|N-Normal|1|FM15-METAR|223|ICAO-KGXA|||||||||||||40|Derived||FM15-METAR|223|ICAO-KGXA|||||||||||||||||||||||||||||||||||||||||||||||||||||||||||||||||||||||||1018.0||1|FM15-METAR|223|ICAO-KGXA|||||||||||||||||||||||||||||||||||||||||||MET076METAR KGXA 070955Z AUTO 17004KT 10SM 18/04 A3006 RMK AO2 SLP131 T01830038 $;||F||223|ICAO-KGXA
USI0000KGXA|GRAY BUTTE FLD|2011|09|07|11|00|34.5639|-117.6750|920.5|18.0||1|FM15-METAR|223|ICAO-KGXA|4.0||1|FM15-METAR|223|ICAO-KGXA|||||||1013.4||1|FM15-METAR|223|ICAO-KGXA|170|N-Normal|1|FM15-METAR|223|ICAO-KGXA|2.1|N-Normal|1|FM15-METAR|223|ICAO-KGXA|||||||||||||40|Derived||FM15-METAR|223|ICAO-KGXA|||||||||||||||||||||||||||||||||||||||||||||||||||||||||||||||||||||||||1018.3||1|FM15-METAR|223|ICAO-KGXA|||||||||||||||||||||||||||||||||||||||||||MET076METAR KGXA 071055Z AUTO 17004KT 10SM 18/04 A3007 RMK AO2 SLP134 T01790036 $;||F||223|ICAO-KGXA
USI0000KGXA|GRAY BUTTE FLD|2011|09|07|12|00|34.5639|-117.6750|920.5|18.0||1|FM15-METAR|223|ICAO-KGXA|3.0||1|FM15-METAR|223|ICAO-KGXA|||||||1013.8||1|FM15-METAR|223|ICAO-KGXA|170|N-Normal|1|FM15-METAR|223|ICAO-KGXA|2.6|N-Normal|1|FM15-METAR|223|ICAO-KGXA|||||||||||||37|Derived||FM15-METAR|223|ICAO-KGXA|||||||||||||||||||||||||||||||||||||||||||||||||||||||||||||||||||||||||1018.6||1|FM15-METAR|223|ICAO-KGXA|0.7|2-Incr-(st|1|FM15-METAR|223|ICAO-KGXA|||||||||||||||||||||||||||||||||||||MET094METAR KGXA 071155Z AUTO 17005KT 10SM 18/03 A3008 RMK AO2 SLP138 T01760030 10240 20177 52007 $;||F||223|ICAO-KGXA
USI0000KGXA|GRAY BUTTE FLD|2011|09|07|13|00|34.5639|-117.6750|920.5|19.0||1|FM15-METAR|223|ICAO-KGXA|3.0||1|FM15-METAR|223|ICAO-KGXA|||||||1014.5||1|FM15-METAR|223|ICAO-KGXA|170|N-Normal|1|FM15-METAR|223|ICAO-KGXA|2.1|N-Normal|1|FM15-METAR|223|ICAO-KGXA|||||||||||||35|Derived||FM15-METAR|223|ICAO-KGXA|||||||||||||||||||||||||||||||||||||||||||||||||||||||||||||||||||||||||1019.3||1|FM15-METAR|223|ICAO-KGXA|||||||||||||||||||||||||||||||||||||||||||MET078METAR KGXA 071255Z AUTO 17004KT 10SM CLR 19/03 A3010 RMK AO2 SLP145 T01850031;||F||223|ICAO-KGXA
USI0000KGXA|GRAY BUTTE FLD|2011|09|07|14|00|34.5639|-117.6750|920.5|24.0||1|FM15-METAR|223|ICAO-KGXA|5.0||1|FM15-METAR|223|ICAO-KGXA|||||||1014.7||1|FM15-METAR|223|ICAO-KGXA|160|N-Normal|1|FM15-METAR|223|ICAO-KGXA|1.5|N-Normal|1|FM15-METAR|223|ICAO-KGXA|||||||||||||29|Derived||FM15-METAR|223|ICAO-KGXA|||||||||||||||||||||||||||||||||||||||||||||||||||||||||||||||||||||||||1019.6||1|FM15-METAR|223|ICAO-KGXA|||||||||||||||||||||||||||||||||||||||||||MET078METAR KGXA 071355Z AUTO 16003KT 10SM CLR 24/05 A3011 RMK AO2 SLP147 T02400049;||F||223|ICAO-KGXA
USI0000KGXA|GRAY BUTTE FLD|2011|09|07|15|00|34.5639|-117.6750|920.5|30.0||1|FM15-METAR|223|ICAO-KGXA|4.0||1|FM15-METAR|223|ICAO-KGXA|||||||1014.6||1|FM15-METAR|223|ICAO-KGXA|280|N-Normal|1|FM15-METAR|223|ICAO-KGXA|1.0|N-Normal|1|FM15-METAR|223|ICAO-KGXA|||||||||||||19|Derived||FM15-METAR|223|ICAO-KGXA|||||||||||||||||||||||||||||||||||||||||||||||||||||||||||||||||||||||||1020.0||1|FM15-METAR|223|ICAO-KGXA|1.2|2-Incr-(st|1|FM15-METAR|223|ICAO-KGXA|||||||||||||||||||||||||||||||||||||MET084METAR KGXA 071455Z AUTO 28002KT 10SM CLR 30/04 A3012 RMK AO2 SLP146 T02990035 52012;||F||223|ICAO-KGXA
USI0000KGXA|GRAY BUTTE FLD|2011|09|07|16|00|34.5639|-117.6750|920.5|31.0||1|FM15-METAR|223|ICAO-KGXA|3.0||1|FM15-METAR|223|ICAO-KGXA|||||||1014.5||1|FM15-METAR|223|ICAO-KGXA|999|V-Variable|9|FM15-METAR|223|ICAO-KGXA|1.5|V-Variable|1|FM15-METAR|223|ICAO-KGXA|||||||||||||17|Derived||FM15-METAR|223|ICAO-KGXA|||||||||||||||||||||||||||||||||||||||||||||||||||||||||||||||||||||||||1020.3||1|FM15-METAR|223|ICAO-KGXA|||||||||||||||||||||||||||||||||||||||||||MET078METAR KGXA 071555Z AUTO VRB03KT 10SM CLR 31/03 A3013 RMK AO2 SLP145 T03090030;||F||223|ICAO-KGXA
USI0000KGXA|GRAY BUTTE FLD|2011|09|07|17|00|34.5639|-117.6750|920.5|32.0||1|FM15-METAR|223|ICAO-KGXA|3.0||1|FM15-METAR|223|ICAO-KGXA|||||||1014.4||1|FM15-METAR|223|ICAO-KGXA|999|V-Variable|9|FM15-METAR|223|ICAO-KGXA|1.0|V-Variable|1|FM15-METAR|223|ICAO-KGXA|||||||||||||16|Derived||FM15-METAR|223|ICAO-KGXA|||||||||||||||||||||||||||||||||||||||||||||||||||||||||||||||||||||||||1020.0||1|FM15-METAR|223|ICAO-KGXA|||||||||||||||||||||||||||||||||||||||||||MET078METAR KGXA 071655Z AUTO VRB02KT 10SM CLR 32/03 A3012 RMK AO2 SLP144 T03240033;||F||223|ICAO-KGXA
USI0000KGXA|GRAY BUTTE FLD|2011|09|07|18|00|34.5639|-117.6750|920.5|35.0||1|FM15-METAR|223|ICAO-KGXA|2.0||1|FM15-METAR|223|ICAO-KGXA|||||||1013.9||1|FM15-METAR|223|ICAO-KGXA|999|V-Variable|9|FM15-METAR|223|ICAO-KGXA|1.0|V-Variable|1|FM15-METAR|223|ICAO-KGXA|||||||||||||12|Derived||FM15-METAR|223|ICAO-KGXA|||||||||||||||||||||||||||||||||||||||||||||||||||||||||||||||||||||||||1019.3||1|FM15-METAR|223|ICAO-KGXA|-0.4|8-Steady-o|1|FM15-METAR|223|ICAO-KGXA|||||||||||||||||||||||||||||||||||||MET114METAR KGXA 071755Z AUTO VRB02KT 10SM CLR 35/02 A3010 RMK AO2 PK WND 06045/1723 SLP139 T03480016 10328 20174 58004;||F||223|ICAO-KGXA
USI0000KGXA|GRAY BUTTE FLD|2011|09|07|19|00|34.5639|-117.6750|920.5|36.0||1|FM15-METAR|223|ICAO-KGXA|2.0||1|FM15-METAR|223|ICAO-KGXA|||||||1013.1||1|FM15-METAR|223|ICAO-KGXA|999|V-Variable|9|FM15-METAR|223|ICAO-KGXA|3.1|V-Variable|1|FM15-METAR|223|ICAO-KGXA|||||||||||||12|Derived||FM15-METAR|223|ICAO-KGXA|||||||||||||||||||||||||||||||||||||||||||||||||||||||||||||||||||||||||1019.0||1|FM15-METAR|223|ICAO-KGXA|||||||||||||||||||||||||||||||||||||||||||MET078METAR KGXA 071855Z AUTO VRB06KT 10SM CLR 36/02 A3009 RMK AO2 SLP131 T03590015;||F||223|ICAO-KGXA
USI0000KGXA|GRAY BUTTE FLD|2011|09|07|20|00|34.5639|-117.6750|920.5|36.0||1|FM15-METAR|223|ICAO-KGXA|1.0||1|FM15-METAR|223|ICAO-KGXA|||||||1012.8||1|FM15-METAR|223|ICAO-KGXA|999|V-Variable|9|FM15-METAR|223|ICAO-KGXA|3.1|V-Variable|1|FM15-METAR|223|ICAO-KGXA|||||||||||||11|Derived||FM15-METAR|223|ICAO-KGXA|||||||||||||||||||||||||||||||||||||||||||||||||||||||||||||||||||||||||1018.3||1|FM15-METAR|223|ICAO-KGXA|||||||||||||||||||||||||||||||||||||||||||MET078METAR KGXA 071955Z AUTO VRB06KT 10SM CLR 36/01 A3007 RMK AO2 SLP128 T03560013;||F||223|ICAO-KGXA
USI0000KGXA|GRAY BUTTE FLD|2011|09|07|21|00|34.5639|-117.6750|920.5|37.0||1|FM15-METAR|223|ICAO-KGXA|1.0||1|FM15-METAR|223|ICAO-KGXA|||||||1011.9||1|FM15-METAR|223|ICAO-KGXA|999|V-Variable|9|FM15-METAR|223|ICAO-KGXA|1.5|V-Variable|1|FM15-METAR|223|ICAO-KGXA|||||||||||||10|Derived||FM15-METAR|223|ICAO-KGXA|||||||||||||||||||||||||||||||||||||||||||||||||||||||||||||||||||||||||1017.6||1|FM15-METAR|223|ICAO-KGXA|-1.8|7-Decr-(st|1|FM15-METAR|223|ICAO-KGXA|||||||||||||||||||||||||||||||||||||MET084METAR KGXA 072055Z AUTO VRB03KT 10SM CLR 37/01 A3005 RMK AO2 SLP119 T03670014 57018;||F||223|ICAO-KGXA
USI0000KGXA|GRAY BUTTE FLD|2011|09|07|22|00|34.5639|-117.6750|920.5|37.0||1|FM15-METAR|223|ICAO-KGXA|2.0||1|FM15-METAR|223|ICAO-KGXA|||||||1011.4||1|FM15-METAR|223|ICAO-KGXA|999|V-Variable|9|FM15-METAR|223|ICAO-KGXA|2.1|V-Variable|1|FM15-METAR|223|ICAO-KGXA|||||||||||||11|Derived||FM15-METAR|223|ICAO-KGXA|||||||||||||||||||||||||||||||||||||||||||||||||||||||||||||||||||||||||1016.9||1|FM15-METAR|223|ICAO-KGXA|||||||||||||||||||||||||||||||||||||||||||MET081METAR KGXA 072155Z AUTO VRB04KT 10SM FEW130 37/02 A3003 RMK AO2 SLP114 T03660018;||F||223|ICAO-KGXA
USI0000KGXA|GRAY BUTTE FLD|2011|09|07|23|00|34.5639|-117.6750|920.5|35.0||1|FM15-METAR|223|ICAO-KGXA|3.0||1|FM15-METAR|223|ICAO-KGXA|||||||1011.4||1|FM15-METAR|223|ICAO-KGXA|280|N-Normal|1|FM15-METAR|223|ICAO-KGXA|2.6|N-Normal|1|FM15-METAR|223|ICAO-KGXA|||||||||||||13|Derived||FM15-METAR|223|ICAO-KGXA|||||||||||||||||||||||||||||||||||||||||||||||||||||||||||||||||||||||||1016.6||1|FM15-METAR|223|ICAO-KGXA|||||||||||||||||||||||||||||||||||||||||||MET083METAR KGXA 072255Z AUTO 28005KT 10SM FEW130 35/03 A3002 RMK AO2 SLP114 T03510025 $;||F||223|ICAO-KGXA
USI0000KGXA|GRAY BUTTE FLD|2011|09|08|00|00|34.5639|-117.6750|920.5|35.0||1|FM15-METAR|223|ICAO-KGXA|2.0||1|FM15-METAR|223|ICAO-KGXA|||||||1011.6||1|FM15-METAR|223|ICAO-KGXA|320|N-Normal|1|FM15-METAR|223|ICAO-KGXA|3.1|N-Normal|1|FM15-METAR|223|ICAO-KGXA|||||||||||||12|Derived||FM15-METAR|223|ICAO-KGXA|||||||||||||||||||||||||||||||||||||||||||||||||||||||||||||||||||||||||1016.6||1|FM15-METAR|223|ICAO-KGXA|-0.7|6-Decr,-th|1|FM15-METAR|223|ICAO-KGXA|||||||||||||||||||||||||||||||||||||MET111METAR KGXA 072355Z AUTO 32006KT 10SM BKN130 35/02 A3002 RMK AO2 SLP116 T03510023 10371 20330 403710174 56007 $;||F||223|ICAO-KGXA
USI0000KGXA|GRAY BUTTE FLD|2011|09|08|01|00|34.5639|-117.6750|920.5|33.0||1|FM15-METAR|223|ICAO-KGXA|7.0||1|FM15-METAR|223|ICAO-KGXA|||||||1011.9||1|FM15-METAR|223|ICAO-KGXA|240|N-Normal|1|FM15-METAR|223|ICAO-KGXA|2.6|N-Normal|1|FM15-METAR|223|ICAO-KGXA|||||||||||||20|Derived||FM15-METAR|223|ICAO-KGXA|||||||||||||||||||||||||||||||||||||||||||||||||||||||||||||||||||||||||1016.9||1|FM15-METAR|223|ICAO-KGXA|||||||||||||||||||||||||||||||||||||||||||MET083METAR KGXA 080055Z AUTO 24005KT 10SM BKN130 33/07 A3003 RMK AO2 SLP119 T03310069 $;||F||223|ICAO-KGXA
USI0000KGXA|GRAY BUTTE FLD|2011|09|08|02|00|34.5639|-117.6750|920.5|31.0||1|FM15-METAR|223|ICAO-KGXA|6.0||1|FM15-METAR|223|ICAO-KGXA|||||||1011.6||1|FM15-METAR|223|ICAO-KGXA|270|N-Normal|1|FM15-METAR|223|ICAO-KGXA|3.6|N-Normal|1|FM15-METAR|223|ICAO-KGXA|||||||||||||21|Derived||FM15-METAR|223|ICAO-KGXA|||||||||||||||||||||||||||||||||||||||||||||||||||||||||||||||||||||||||1017.3||1|FM15-METAR|223|ICAO-KGXA|||||||||||||||||||||||||||||||||||||||||||MET083METAR KGXA 080155Z AUTO 27007KT 10SM SCT130 31/06 A3004 RMK AO2 SLP116 T03100058 $;||F||223|ICAO-KGXA
USI0000KGXA|GRAY BUTTE FLD|2011|09|08|03|00|34.5639|-117.6750|920.5|29.0||1|FM15-METAR|223|ICAO-KGXA|6.0||1|FM15-METAR|223|ICAO-KGXA|||||||1011.9||1|FM15-METAR|223|ICAO-KGXA|260|N-Normal|1|FM15-METAR|223|ICAO-KGXA|3.6|N-Normal|1|FM15-METAR|223|ICAO-KGXA|||||||||||||23|Derived||FM15-METAR|223|ICAO-KGXA|||||||||||||||||||||||||||||||||||||||||||||||||||||||||||||||||||||||||1018.0||1|FM15-METAR|223|ICAO-KGXA|1.3|3-Decr-or-|1|FM15-METAR|223|ICAO-KGXA|||||||||||||||||||||||||||||||||||||MET086METAR KGXA 080255Z AUTO 26007KT 10SM CLR 29/06 A3006 RMK AO2 SLP119 T02930061 53013 $;||F||223|ICAO-KGXA
USI0000KGXA|GRAY BUTTE FLD|2011|09|08|04|00|34.5639|-117.6750|920.5|28.0||1|FM15-METAR|223|ICAO-KGXA|7.0||1|FM15-METAR|223|ICAO-KGXA|||||||1012.8||1|FM15-METAR|223|ICAO-KGXA|310|N-Normal|1|FM15-METAR|223|ICAO-KGXA|3.1|N-Normal|1|FM15-METAR|223|ICAO-KGXA|||||||||||||26|Derived||FM15-METAR|223|ICAO-KGXA|||||||||||||||||||||||||||||||||||||||||||||||||||||||||||||||||||||||||1019.0||1|FM15-METAR|223|ICAO-KGXA|||||||||||||||||||||||||||||||||||||||||||MET080METAR KGXA 080355Z AUTO 31006KT 10SM CLR 28/07 A3009 RMK AO2 SLP128 T02760074 $;||F||223|ICAO-KGXA
USI0000KGXA|GRAY BUTTE FLD|2011|09|08|05|00|34.5639|-117.6750|920.5|26.0||1|FM15-METAR|223|ICAO-KGXA|7.0||1|FM15-METAR|223|ICAO-KGXA|||||||1013.0||1|FM15-METAR|223|ICAO-KGXA|190|N-Normal|1|FM15-METAR|223|ICAO-KGXA|1.5|N-Normal|1|FM15-METAR|223|ICAO-KGXA|||||||||||||30|Derived||FM15-METAR|223|ICAO-KGXA|||||||||||||||||||||||||||||||||||||||||||||||||||||||||||||||||||||||||1019.3||1|FM15-METAR|223|ICAO-KGXA|||||||||||||||||||||||||||||||||||||||||||MET080METAR KGXA 080455Z AUTO 19003KT 10SM CLR 26/07 A3010 RMK AO2 SLP130 T02560073 $;||F||223|ICAO-KGXA
USI0000KGXA|GRAY BUTTE FLD|2011|09|08|06|00|34.5639|-117.6750|920.5|23.0||1|FM15-METAR|223|ICAO-KGXA|7.0||1|FM15-METAR|223|ICAO-KGXA|||||||1013.0||1|FM15-METAR|223|ICAO-KGXA|200|N-Normal|1|FM15-METAR|223|ICAO-KGXA|2.1|N-Normal|1|FM15-METAR|223|ICAO-KGXA|||||||||||||36|Derived||FM15-METAR|223|ICAO-KGXA|||||||||||||||||||||||||||||||||||||||||||||||||||||||||||||||||||||||||1019.0||1|FM15-METAR|223|ICAO-KGXA|0.9|1-Incr-the|1|FM15-METAR|223|ICAO-KGXA|||||||||||||||||||||||||||||||||||||MET098METAR KGXA 080555Z AUTO 20004KT 10SM CLR 23/07 A3009 RMK AO2 SLP130 T02340066 10353 20253 51009 $;||F||223|ICAO-KGXA
USI0000KGXA|GRAY BUTTE FLD|2011|09|08|07|00|34.5639|-117.6750|920.5|21.0||1|FM15-METAR|223|ICAO-KGXA|7.0||1|FM15-METAR|223|ICAO-KGXA|||||||1013.3||1|FM15-METAR|223|ICAO-KGXA|180|N-Normal|1|FM15-METAR|223|ICAO-KGXA|1.0|N-Normal|1|FM15-METAR|223|ICAO-KGXA|||||||||||||40|Derived||FM15-METAR|223|ICAO-KGXA|||||||||||||||||||||||||||||||||||||||||||||||||||||||||||||||||||||||||1019.3||1|FM15-METAR|223|ICAO-KGXA|||||||||||||||||||||||||||||||||||||||||||MET080METAR KGXA 080655Z AUTO 18002KT 10SM CLR 21/07 A3010 RMK AO2 SLP133 T02130066 $;||F||223|ICAO-KGXA
USI0000KGXA|GRAY BUTTE FLD|2011|09|08|08|00|34.5639|-117.6750|920.5|21.0||1|FM15-METAR|223|ICAO-KGXA|7.0||1|FM15-METAR|223|ICAO-KGXA|||||||1013.3||1|FM15-METAR|223|ICAO-KGXA|170|N-Normal|1|FM15-METAR|223|ICAO-KGXA|2.6|N-Normal|1|FM15-METAR|223|ICAO-KGXA|||||||||||||40|Derived||FM15-METAR|223|ICAO-KGXA|||||||||||||||||||||||||||||||||||||||||||||||||||||||||||||||||||||||||1019.0||1|FM15-METAR|223|ICAO-KGXA|||||||||||||||||||||||||||||||||||||||||||MET080METAR KGXA 080755Z AUTO 17005KT 10SM CLR 21/07 A3009 RMK AO2 SLP133 T02080072 $;||F||223|ICAO-KGXA
USI0000KGXA|GRAY BUTTE FLD|2011|09|08|09|00|34.5639|-117.6750|920.5|21.0||1|FM15-METAR|223|ICAO-KGXA|7.0||1|FM15-METAR|223|ICAO-KGXA|||||||1012.8||1|FM15-METAR|223|ICAO-KGXA|170|N-Normal|1|FM15-METAR|223|ICAO-KGXA|2.6|N-Normal|1|FM15-METAR|223|ICAO-KGXA|||||||||||||40|Derived||FM15-METAR|223|ICAO-KGXA|||||||||||||||||||||||||||||||||||||||||||||||||||||||||||||||||||||||||1018.6||1|FM15-METAR|223|ICAO-KGXA|-0.3|8-Steady-o|1|FM15-METAR|223|ICAO-KGXA|||||||||||||||||||||||||||||||||||||MET086METAR KGXA 080855Z AUTO 17005KT 10SM CLR 21/07 A3008 RMK AO2 SLP128 T02080070 58003 $;||F||223|ICAO-KGXA
USI0000KGXA|GRAY BUTTE FLD|2011|09|08|10|00|34.5639|-117.6750|920.5|20.0||1|FM15-METAR|223|ICAO-KGXA|7.0||1|FM15-METAR|223|ICAO-KGXA|||||||1012.8||1|FM15-METAR|223|ICAO-KGXA|170|N-Normal|1|FM15-METAR|223|ICAO-KGXA|2.1|N-Normal|1|FM15-METAR|223|ICAO-KGXA|||||||||||||43|Derived||FM15-METAR|223|ICAO-KGXA|||||||||||||||||||||||||||||||||||||||||||||||||||||||||||||||||||||||||1018.6||1|FM15-METAR|223|ICAO-KGXA|||||||||||||||||||||||||||||||||||||||||||MET076METAR KGXA 080955Z AUTO 17004KT 10SM 20/07 A3008 RMK AO2 SLP128 T02020069 $;||F||223|ICAO-KGXA
USI0000KGXA|GRAY BUTTE FLD|2011|09|08|11|00|34.5639|-117.6750|920.5|19.0||1|FM15-METAR|223|ICAO-KGXA|6.0||1|FM15-METAR|223|ICAO-KGXA|||||||1013.2||1|FM15-METAR|223|ICAO-KGXA|160|N-Normal|1|FM15-METAR|223|ICAO-KGXA|2.1|N-Normal|1|FM15-METAR|223|ICAO-KGXA|||||||||||||43|Derived||FM15-METAR|223|ICAO-KGXA|||||||||||||||||||||||||||||||||||||||||||||||||||||||||||||||||||||||||1018.6||1|FM15-METAR|223|ICAO-KGXA|||||||||||||||||||||||||||||||||||||||||||MET076METAR KGXA 081055Z AUTO 16004KT 10SM 19/06 A3008 RMK AO2 SLP132 T01920058 $;||F||223|ICAO-KGXA
USI0000KGXA|GRAY BUTTE FLD|2011|09|08|12|00|34.5639|-117.6750|920.5|20.0||1|FM15-METAR|223|ICAO-KGXA|7.0||1|FM15-METAR|223|ICAO-KGXA|||||||1013.3||1|FM15-METAR|223|ICAO-KGXA|170|N-Normal|1|FM15-METAR|223|ICAO-KGXA|2.1|N-Normal|1|FM15-METAR|223|ICAO-KGXA|||||||||||||43|Derived||FM15-METAR|223|ICAO-KGXA|||||||||||||||||||||||||||||||||||||||||||||||||||||||||||||||||||||||||1018.6||1|FM15-METAR|223|ICAO-KGXA|0.0|4-Steady;-|1|FM15-METAR|223|ICAO-KGXA|||||||||||||||||||||||||||||||||||||MET096METAR KGXA 081155Z AUTO 17004KT 10SM CLR 20/07 A3008 RMK AO2 SLP133 T01970065 10259 20191 54000;||F||223|ICAO-KGXA
USI0000KGXA|GRAY BUTTE FLD|2011|09|08|13|00|34.5639|-117.6750|920.5|20.0||1|FM15-METAR|223|ICAO-KGXA|6.0||1|FM15-METAR|223|ICAO-KGXA|||||||1013.9||1|FM15-METAR|223|ICAO-KGXA|160|N-Normal|1|FM15-METAR|223|ICAO-KGXA|1.5|N-Normal|1|FM15-METAR|223|ICAO-KGXA|||||||||||||40|Derived||FM15-METAR|223|ICAO-KGXA|||||||||||||||||||||||||||||||||||||||||||||||||||||||||||||||||||||||||1019.0||1|FM15-METAR|223|ICAO-KGXA|||||||||||||||||||||||||||||||||||||||||||MET078METAR KGXA 081255Z AUTO 16003KT 10SM CLR 20/06 A3009 RMK AO2 SLP139 T01980063;||F||223|ICAO-KGXA
USI0000KGXA|GRAY BUTTE FLD|2011|09|08|14|00|34.5639|-117.6750|920.5|26.0||1|FM15-METAR|223|ICAO-KGXA|7.0||1|FM15-METAR|223|ICAO-KGXA|||||||1013.5||1|FM15-METAR|223|ICAO-KGXA|150|N-Normal|1|FM15-METAR|223|ICAO-KGXA|0.5|N-Normal|1|FM15-METAR|223|ICAO-KGXA|||||||||||||30|Derived||FM15-METAR|223|ICAO-KGXA|||||||||||||||||||||||||||||||||||||||||||||||||||||||||||||||||||||||||1019.3||1|FM15-METAR|223|ICAO-KGXA|||||||||||||||||||||||||||||||||||||||||||MET078METAR KGXA 081355Z AUTO 15001KT 10SM CLR 26/07 A3010 RMK AO2 SLP135 T02570068;||F||223|ICAO-KGXA
USI0000KGXA|GRAY BUTTE FLD|2011|09|08|15|00|34.5639|-117.6750|920.5|28.0||1|FM15-METAR|223|ICAO-KGXA|7.0||1|FM15-METAR|223|ICAO-KGXA|||||||1013.6||1|FM15-METAR|223|ICAO-KGXA|020|N-Normal|1|FM15-METAR|223|ICAO-KGXA|1.5|N-Normal|1|FM15-METAR|223|ICAO-KGXA|||||||||||||26|Derived||FM15-METAR|223|ICAO-KGXA|||||||||||||||||||||||||||||||||||||||||||||||||||||||||||||||||||||||||1019.3||1|FM15-METAR|223|ICAO-KGXA|0.7|2-Incr-(st|1|FM15-METAR|223|ICAO-KGXA|||||||||||||||||||||||||||||||||||||MET084METAR KGXA 081455Z AUTO 02003KT 10SM CLR 28/07 A3010 RMK AO2 SLP136 T02810066 52007;||F||223|ICAO-KGXA
USI0000KGXA|GRAY BUTTE FLD|2011|09|08|16|00|34.5639|-117.6750|920.5|31.0||1|FM15-METAR|223|ICAO-KGXA|6.0||1|FM15-METAR|223|ICAO-KGXA|||||||1013.4||1|FM15-METAR|223|ICAO-KGXA|999|V-Variable|9|FM15-METAR|223|ICAO-KGXA|2.1|V-Variable|1|FM15-METAR|223|ICAO-KGXA|||||||||||||21|Derived||FM15-METAR|223|ICAO-KGXA|||||||||||||||||||||||||||||||||||||||||||||||||||||||||||||||||||||||||1019.3||1|FM15-METAR|223|ICAO-KGXA|||||||||||||||||||||||||||||||||||||||||||MET078METAR KGXA 081555Z AUTO VRB04KT 10SM CLR 31/06 A3010 RMK AO2 SLP134 T03060060;||F||223|ICAO-KGXA
USI0000KGXA|GRAY BUTTE FLD|2011|09|08|17|00|34.5639|-117.6750|920.5|33.0||1|FM15-METAR|223|ICAO-KGXA|5.0||1|FM15-METAR|223|ICAO-KGXA|||||||1012.6||1|FM15-METAR|223|ICAO-KGXA|300|N-Normal|1|FM15-METAR|223|ICAO-KGXA|4.6|N-Normal|1|FM15-METAR|223|ICAO-KGXA|8.2||1|FM15-METAR|223|ICAO-KGXA|||||||17|Derived||FM15-METAR|223|ICAO-KGXA|||||||||||||||||||||||||||||||||||||||||||||||||||||||||||||||||||||||||1018.6||1|FM15-METAR|223|ICAO-KGXA|||||||||||||||||||||||||||||||||||||||||||MET081METAR KGXA 081655Z AUTO 30009G16KT 10SM CLR 33/05 A3008 RMK AO2 SLP126 T03300054;||F||223|ICAO-KGXA
USI0000KGXA|GRAY BUTTE FLD|2011|09|08|18|00|34.5639|-117.6750|920.5|35.0||1|FM15-METAR|223|ICAO-KGXA|4.0||1|FM15-METAR|223|ICAO-KGXA|||||||1012.1||1|FM15-METAR|223|ICAO-KGXA|999|V-Variable|9|FM15-METAR|223|ICAO-KGXA|2.6|V-Variable|1|FM15-METAR|223|ICAO-KGXA|||||||||||||14|Derived||FM15-METAR|223|ICAO-KGXA|||||||||||||||||||||||||||||||||||||||||||||||||||||||||||||||||||||||||1018.0||1|FM15-METAR|223|ICAO-KGXA|-1.3|8-Steady-o|1|FM15-METAR|223|ICAO-KGXA|||||||||||||||||||||||||||||||||||||MET096METAR KGXA 081755Z AUTO VRB05KT 10SM CLR 35/04 A3006 RMK AO2 SLP121 T03490040 10334 20192 58013;||F||223|ICAO-KGXA
USI0000KGXA|GRAY BUTTE FLD|2011|09|08|19|00|34.5639|-117.6750|920.5|35.0||1|FM15-METAR|223|ICAO-KGXA|3.0||1|FM15-METAR|223|ICAO-KGXA|||||||1011.2||1|FM15-METAR|223|ICAO-KGXA|330|N-Normal|1|FM15-METAR|223|ICAO-KGXA|5.7|N-Normal|1|FM15-METAR|223|ICAO-KGXA|8.7||1|FM15-METAR|223|ICAO-KGXA|||||||13|Derived||FM15-METAR|223|ICAO-KGXA|||||||||||||||||||||||||||||||||||||||||||||||||||||||||||||||||||||||||1016.9||1|FM15-METAR|223|ICAO-KGXA|||||||||||||||||||||||||||||||||||||||||||MET081METAR KGXA 081855Z AUTO 33011G17KT 10SM CLR 35/03 A3003 RMK AO2 SLP112 T03510030;||F||223|ICAO-KGXA
USI0000KGXA|GRAY BUTTE FLD|2011|09|08|20|00|34.5639|-117.6750|920.5|37.0||1|FM15-METAR|223|ICAO-KGXA|3.0||1|FM15-METAR|223|ICAO-KGXA|||||||1010.1||1|FM15-METAR|223|ICAO-KGXA|300|N-Normal|1|FM15-METAR|223|ICAO-KGXA|8.7|N-Normal|1|FM15-METAR|223|ICAO-KGXA|13.4||1|FM15-METAR|223|ICAO-KGXA|||||||12|Derived||FM15-METAR|223|ICAO-KGXA|||||||||||||||||||||||||||||||||||||||||||||||||||||||||||||||||||||||||1015.9||1|FM15-METAR|223|ICAO-KGXA|||||||||||||||||||||||||||||||||||||||||||MET089METAR KGXA 081955Z AUTO 30017G26KT 240V310 10SM CLR 37/03 A3000 RMK AO2 SLP101 T03680030;||F||223|ICAO-KGXA
USI0000KGXA|GRAY BUTTE FLD|2011|09|08|21|00|34.5639|-117.6750|920.5|37.0||1|FM15-METAR|223|ICAO-KGXA|3.0||1|FM15-METAR|223|ICAO-KGXA|||||||1009.2||1|FM15-METAR|223|ICAO-KGXA|290|N-Normal|1|FM15-METAR|223|ICAO-KGXA|4.6|N-Normal|1|FM15-METAR|223|ICAO-KGXA|11.8||1|FM15-METAR|223|ICAO-KGXA|||||||12|Derived||FM15-METAR|223|ICAO-KGXA|||||||||||||||||||||||||||||||||||||||||||||||||||||||||||||||||||||||||1014.9||1|FM15-METAR|223|ICAO-KGXA|-2.7|7-Decr-(st|1|FM15-METAR|223|ICAO-KGXA|||||||||||||||||||||||||||||||||||||MET087METAR KGXA 082055Z AUTO 29009G23KT 10SM CLR 37/03 A2997 RMK AO2 SLP092 T03650030 57027;||F||223|ICAO-KGXA
USI0000KGXA|GRAY BUTTE FLD|2011|09|08|22|00|34.5639|-117.6750|920.5|36.0||1|FM15-METAR|223|ICAO-KGXA|2.0||1|FM15-METAR|223|ICAO-KGXA|||||||1008.7||1|FM15-METAR|223|ICAO-KGXA|290|N-Normal|1|FM15-METAR|223|ICAO-KGXA|6.7|N-Normal|1|FM15-METAR|223|ICAO-KGXA|9.8||1|FM15-METAR|223|ICAO-KGXA|||||||12|Derived||FM15-METAR|223|ICAO-KGXA|||||||||||||||||||||||||||||||||||||||||||||||||||||||||||||||||||||||||1014.6||1|FM15-METAR|223|ICAO-KGXA|||||||||||||||||||||||||||||||||||||||||||MET081METAR KGXA 082155Z AUTO 29013G19KT 10SM CLR 36/02 A2996 RMK AO2 SLP087 T03580020;||F||223|ICAO-KGXA
USI0000KGXA|GRAY BUTTE FLD|2011|09|08|23|00|34.5639|-117.6750|920.5|35.0||1|FM15-METAR|223|ICAO-KGXA|2.0||1|FM15-METAR|223|ICAO-KGXA|||||||1008.6||1|FM15-METAR|223|ICAO-KGXA|290|N-Normal|1|FM15-METAR|223|ICAO-KGXA|7.2|N-Normal|1|FM15-METAR|223|ICAO-KGXA|11.3||1|FM15-METAR|223|ICAO-KGXA|||||||12|Derived||FM15-METAR|223|ICAO-KGXA|||||||||||||||||||||||||||||||||||||||||||||||||||||||||||||||||||||||||1014.2||1|FM15-METAR|223|ICAO-KGXA|||||||||||||||||||||||||||||||||||||||||||MET083METAR KGXA 082255Z AUTO 29014G22KT 10SM CLR 35/02 A2995 RMK AO2 SLP086 T03460023 $;||F||223|ICAO-KGXA
USI0000KGXA|GRAY BUTTE FLD|2011|09|09|00|00|34.5639|-117.6750|920.5|34.0||1|FM15-METAR|223|ICAO-KGXA|2.0||1|FM15-METAR|223|ICAO-KGXA|||||||1008.6||1|FM15-METAR|223|ICAO-KGXA|290|N-Normal|1|FM15-METAR|223|ICAO-KGXA|6.2|N-Normal|1|FM15-METAR|223|ICAO-KGXA|8.7||1|FM15-METAR|223|ICAO-KGXA|||||||13|Derived||FM15-METAR|223|ICAO-KGXA|||||||||||||||||||||||||||||||||||||||||||||||||||||||||||||||||||||||||1013.9||1|FM15-METAR|223|ICAO-KGXA|-1.0|6-Decr,-th|1|FM15-METAR|223|ICAO-KGXA|||||||||||||||||||||||||||||||||||||MET111METAR KGXA 082355Z AUTO 29012G17KT 10SM CLR 34/02 A2994 RMK AO2 SLP086 T03360018 10369 20332 403690191 56010 $;||F||223|ICAO-KGXA
USI0000KGXA|GRAY BUTTE FLD|2011|09|09|01|00|34.5639|-117.6750|920.5|30.0||1|FM15-METAR|223|ICAO-KGXA|1.0||1|FM15-METAR|223|ICAO-KGXA|||||||1009.8||1|FM15-METAR|223|ICAO-KGXA|310|N-Normal|1|FM15-METAR|223|ICAO-KGXA|7.2|N-Normal|1|FM15-METAR|223|ICAO-KGXA|11.8||1|FM15-METAR|223|ICAO-KGXA|||||||15|Derived||FM15-METAR|223|ICAO-KGXA|||||||||||||||||||||||||||||||||||||||||||||||||||||||||||||||||||||||||1014.6||1|FM15-METAR|223|ICAO-KGXA|||||||||||||||||||||||||||||||||||||||||||MET088METAR KGXA 090055Z AUTO 31014G23KT 10SM CLR 30/01 A2996 RMK AO2 SLP098 T02980007 TSNO $;||F||223|ICAO-KGXA
USI0000KGXA|GRAY BUTTE FLD|2011|09|09|02|00|34.5639|-117.6750|920.5|27.0||1|FM15-METAR|223|ICAO-KGXA|2.0||1|FM15-METAR|223|ICAO-KGXA|||||||1010.0||1|FM15-METAR|223|ICAO-KGXA|280|N-Normal|1|FM15-METAR|223|ICAO-KGXA|7.2|N-Normal|1|FM15-METAR|223|ICAO-KGXA|10.3||1|FM15-METAR|223|ICAO-KGXA|||||||20|Derived||FM15-METAR|223|ICAO-KGXA|||||||||||||||||||||||||||||||||||||||||||||||||||||||||||||||||||||||||1015.2||1|FM15-METAR|223|ICAO-KGXA|||||||||||||||||||||||||||||||||||||||||||MET083METAR KGXA 090155Z AUTO 28014G20KT 10SM CLR 27/02 A2998 RMK AO2 SLP100 T02690023 $;||F||223|ICAO-KGXA
USI0000KGXA|GRAY BUTTE FLD|2011|09|09|03|00|34.5639|-117.6750|920.5|25.0||1|FM15-METAR|223|ICAO-KGXA|3.0||1|FM15-METAR|223|ICAO-KGXA|||||||1010.8||1|FM15-METAR|223|ICAO-KGXA|260|N-Normal|1|FM15-METAR|223|ICAO-KGXA|5.1|N-Normal|1|FM15-METAR|223|ICAO-KGXA|8.7||1|FM15-METAR|223|ICAO-KGXA|||||||24|Derived||FM15-METAR|223|ICAO-KGXA|||||||||||||||||||||||||||||||||||||||||||||||||||||||||||||||||||||||||1015.9||1|FM15-METAR|223|ICAO-KGXA|1.9|2-Incr-(st|1|FM15-METAR|223|ICAO-KGXA|||||||||||||||||||||||||||||||||||||MET089METAR KGXA 090255Z AUTO 26010G17KT 10SM CLR 25/03 A3000 RMK AO2 SLP108 T02530030 52019 $;||F||223|ICAO-KGXA
USI0000KGXA|GRAY BUTTE FLD|2011|09|09|04|00|34.5639|-117.6750|920.5|24.0||1|FM15-METAR|223|ICAO-KGXA|2.0||1|FM15-METAR|223|ICAO-KGXA|||||||1011.1||1|FM15-METAR|223|ICAO-KGXA|190|N-Normal|1|FM15-METAR|223|ICAO-KGXA|2.6|N-Normal|1|FM15-METAR|223|ICAO-KGXA|||||||||||||24|Derived||FM15-METAR|223|ICAO-KGXA|||||||||||||||||||||||||||||||||||||||||||||||||||||||||||||||||||||||||1016.3||1|FM15-METAR|223|ICAO-KGXA|||||||||||||||||||||||||||||||||||||||||||MET080METAR KGXA 090355Z AUTO 19005KT 10SM CLR 24/02 A3001 RMK AO2 SLP111 T02350019 $;||F||223|ICAO-KGXA
USI0000KGXA|GRAY BUTTE FLD|2011|09|09|05|00|34.5639|-117.6750|920.5|22.0||1|FM15-METAR|223|ICAO-KGXA|3.0||1|FM15-METAR|223|ICAO-KGXA|||||||1010.7||1|FM15-METAR|223|ICAO-KGXA|180|N-Normal|1|FM15-METAR|223|ICAO-KGXA|1.5|N-Normal|1|FM15-METAR|223|ICAO-KGXA|||||||||||||29|Derived||FM15-METAR|223|ICAO-KGXA|||||||||||||||||||||||||||||||||||||||||||||||||||||||||||||||||||||||||1016.3||1|FM15-METAR|223|ICAO-KGXA|||||||||||||||||||||||||||||||||||||||||||MET080METAR KGXA 090455Z AUTO 18003KT 10SM CLR 22/03 A3001 RMK AO2 SLP107 T02190026 $;||F||223|ICAO-KGXA
USI0000KGXA|GRAY BUTTE FLD|2011|09|09|06|00|34.5639|-117.6750|920.5|20.0||1|FM15-METAR|223|ICAO-KGXA|2.0||1|FM15-METAR|223|ICAO-KGXA|||||||1010.5||1|FM15-METAR|223|ICAO-KGXA|210|N-Normal|1|FM15-METAR|223|ICAO-KGXA|1.5|N-Normal|1|FM15-METAR|223|ICAO-KGXA|||||||||||||30|Derived||FM15-METAR|223|ICAO-KGXA|||||||||||||||||||||||||||||||||||||||||||||||||||||||||||||||||||||||||1015.9||1|FM15-METAR|223|ICAO-KGXA|0.0|0-Incr-the|1|FM15-METAR|223|ICAO-KGXA|||||||||||||||||||||||||||||||||||||MET098METAR KGXA 090555Z AUTO 21003KT 10SM CLR 20/02 A3000 RMK AO2 SLP105 T02000022 10348 20217 50000 $;||F||223|ICAO-KGXA
USI0000KGXA|GRAY BUTTE FLD|2011|09|09|07|00|34.5639|-117.6750|920.5|19.0||1|FM15-METAR|223|ICAO-KGXA|2.0||1|FM15-METAR|223|ICAO-KGXA|||||||1010.1||1|FM15-METAR|223|ICAO-KGXA|210|N-Normal|1|FM15-METAR|223|ICAO-KGXA|1.5|N-Normal|1|FM15-METAR|223|ICAO-KGXA|||||||||||||32|Derived||FM15-METAR|223|ICAO-KGXA|||||||||||||||||||||||||||||||||||||||||||||||||||||||||||||||||||||||||1015.6||1|FM15-METAR|223|ICAO-KGXA|||||||||||||||||||||||||||||||||||||||||||MET080METAR KGXA 090655Z AUTO 21003KT 10SM CLR 19/02 A2999 RMK AO2 SLP101 T01930018 $;||F||223|ICAO-KGXA
USI0000KGXA|GRAY BUTTE FLD|2011|09|09|08|00|34.5639|-117.6750|920.5|19.0||1|FM15-METAR|223|ICAO-KGXA|1.0||1|FM15-METAR|223|ICAO-KGXA|||||||1009.6||1|FM15-METAR|223|ICAO-KGXA|180|N-Normal|1|FM15-METAR|223|ICAO-KGXA|2.1|N-Normal|1|FM15-METAR|223|ICAO-KGXA|||||||||||||30|Derived||FM15-METAR|223|ICAO-KGXA|||||||||||||||||||||||||||||||||||||||||||||||||||||||||||||||||||||||||1015.2||1|FM15-METAR|223|ICAO-KGXA|||||||||||||||||||||||||||||||||||||||||||MET076METAR KGXA 090755Z AUTO 18004KT 10SM 19/01 A2998 RMK AO2 SLP096 T01870011 $;||F||223|ICAO-KGXA
USI0000KGXA|GRAY BUTTE FLD|2011|09|09|09|00|34.5639|-117.6750|920.5|19.0||1|FM15-METAR|223|ICAO-KGXA|0.0||1|FM15-METAR|223|ICAO-KGXA|||||||1009.2||1|FM15-METAR|223|ICAO-KGXA|210|N-Normal|1|FM15-METAR|223|ICAO-KGXA|2.1|N-Normal|1|FM15-METAR|223|ICAO-KGXA|||||||||||||28|Derived||FM15-METAR|223|ICAO-KGXA|||||||||||||||||||||||||||||||||||||||||||||||||||||||||||||||||||||||||1014.9||1|FM15-METAR|223|ICAO-KGXA|-1.1|7-Decr-(st|1|FM15-METAR|223|ICAO-KGXA|||||||||||||||||||||||||||||||||||||MET082METAR KGXA 090855Z AUTO 21004KT 10SM 19/00 A2997 RMK AO2 SLP092 T01890002 57011 $;||F||223|ICAO-KGXA
USI0000KGXA|GRAY BUTTE FLD|2011|09|09|10|00|34.5639|-117.6750|920.5|18.0||1|FM15-METAR|223|ICAO-KGXA|0.0||1|FM15-METAR|223|ICAO-KGXA|||||||1009.2||1|FM15-METAR|223|ICAO-KGXA|200|N-Normal|1|FM15-METAR|223|ICAO-KGXA|2.6|N-Normal|1|FM15-METAR|223|ICAO-KGXA|||||||||||||30|Derived||FM15-METAR|223|ICAO-KGXA|||||||||||||||||||||||||||||||||||||||||||||||||||||||||||||||||||||||||1014.6||1|FM15-METAR|223|ICAO-KGXA|||||||||||||||||||||||||||||||||||||||||||MET076METAR KGXA 090955Z AUTO 20005KT 10SM 18/00 A2996 RMK AO2 SLP092 T01811001 $;||F||223|ICAO-KGXA
USI0000KGXA|GRAY BUTTE FLD|2011|09|09|11|00|34.5639|-117.6750|920.5|18.0||1|FM15-METAR|223|ICAO-KGXA|0.0||1|FM15-METAR|223|ICAO-KGXA|||||||1009.1||1|FM15-METAR|223|ICAO-KGXA|210|N-Normal|1|FM15-METAR|223|ICAO-KGXA|2.6|N-Normal|1|FM15-METAR|223|ICAO-KGXA|||||||||||||30|Derived||FM15-METAR|223|ICAO-KGXA|||||||||||||||||||||||||||||||||||||||||||||||||||||||||||||||||||||||||1014.2||1|FM15-METAR|223|ICAO-KGXA|||||||||||||||||||||||||||||||||||||||||||MET076METAR KGXA 091055Z AUTO 21005KT 10SM 18/00 A2995 RMK AO2 SLP091 T01821001 $;||F||223|ICAO-KGXA
USI0000KGXA|GRAY BUTTE FLD|2011|09|09|12|00|34.5639|-117.6750|920.5|18.0||1|FM15-METAR|223|ICAO-KGXA|0.0||1|FM15-METAR|223|ICAO-KGXA|||||||1009.5||1|FM15-METAR|223|ICAO-KGXA|180|N-Normal|1|FM15-METAR|223|ICAO-KGXA|2.1|N-Normal|1|FM15-METAR|223|ICAO-KGXA|||||||||||||30|Derived||FM15-METAR|223|ICAO-KGXA|||||||||||||||||||||||||||||||||||||||||||||||||||||||||||||||||||||||||1014.2||1|FM15-METAR|223|ICAO-KGXA|-0.4|7-Decr-(st|1|FM15-METAR|223|ICAO-KGXA|||||||||||||||||||||||||||||||||||||MET096METAR KGXA 091155Z AUTO 18004KT 10SM CLR 18/00 A2995 RMK AO2 SLP095 T01750001 10217 20175 57004;||F||223|ICAO-KGXA
USI0000KGXA|GRAY BUTTE FLD|2011|09|09|13|00|34.5639|-117.6750|920.5|18.0||1|FM15-METAR|223|ICAO-KGXA|1.0||1|FM15-METAR|223|ICAO-KGXA|||||||1010.3||1|FM15-METAR|223|ICAO-KGXA|180|N-Normal|1|FM15-METAR|223|ICAO-KGXA|2.1|N-Normal|1|FM15-METAR|223|ICAO-KGXA|||||||||||||32|Derived||FM15-METAR|223|ICAO-KGXA|||||||||||||||||||||||||||||||||||||||||||||||||||||||||||||||||||||||||1014.6||1|FM15-METAR|223|ICAO-KGXA|||||||||||||||||||||||||||||||||||||||||||MET078METAR KGXA 091255Z AUTO 18004KT 10SM CLR 18/01 A2996 RMK AO2 SLP103 T01790005;||F||223|ICAO-KGXA
USI0000KGXA|GRAY BUTTE FLD|2011|09|09|14|00|34.5639|-117.6750|920.5|24.0||1|FM15-METAR|223|ICAO-KGXA|1.0||1|FM15-METAR|223|ICAO-KGXA|||||||1009.9||1|FM15-METAR|223|ICAO-KGXA|200|N-Normal|1|FM15-METAR|223|ICAO-KGXA|0.5|N-Normal|1|FM15-METAR|223|ICAO-KGXA|||||||||||||22|Derived||FM15-METAR|223|ICAO-KGXA|||||||||||||||||||||||||||||||||||||||||||||||||||||||||||||||||||||||||1014.6||1|FM15-METAR|223|ICAO-KGXA|||||||||||||||||||||||||||||||||||||||||||MET078METAR KGXA 091355Z AUTO 20001KT 10SM CLR 24/01 A2996 RMK AO2 SLP099 T02380014;||F||223|ICAO-KGXA
USI0000KGXA|GRAY BUTTE FLD|2011|09|09|15|00|34.5639|-117.6750|920.5|27.0||1|FM15-METAR|223|ICAO-KGXA|1.0||1|FM15-METAR|223|ICAO-KGXA|||||||1009.5||1|FM15-METAR|223|ICAO-KGXA|290|N-Normal|1|FM15-METAR|223|ICAO-KGXA|1.5|N-Normal|1|FM15-METAR|223|ICAO-KGXA|||||||||||||18|Derived||FM15-METAR|223|ICAO-KGXA|||||||||||||||||||||||||||||||||||||||||||||||||||||||||||||||||||||||||1014.6||1|FM15-METAR|223|ICAO-KGXA|0.0|4-Steady;-|1|FM15-METAR|223|ICAO-KGXA|||||||||||||||||||||||||||||||||||||MET084METAR KGXA 091455Z AUTO 29003KT 10SM CLR 27/01 A2996 RMK AO2 SLP095 T02690013 54001;||F||223|ICAO-KGXA
USI0000KGXA|GRAY BUTTE FLD|2011|09|09|16|00|34.5639|-117.6750|920.5|30.0||1|FM15-METAR|223|ICAO-KGXA|1.0||1|FM15-METAR|223|ICAO-KGXA|||||||1009.4||1|FM15-METAR|223|ICAO-KGXA|999|V-Variable|9|FM15-METAR|223|ICAO-KGXA|1.0|V-Variable|1|FM15-METAR|223|ICAO-KGXA|||||||||||||15|Derived||FM15-METAR|223|ICAO-KGXA|||||||||||||||||||||||||||||||||||||||||||||||||||||||||||||||||||||||||1014.6||1|FM15-METAR|223|ICAO-KGXA|||||||||||||||||||||||||||||||||||||||||||MET078METAR KGXA 091555Z AUTO VRB02KT 10SM CLR 30/01 A2996 RMK AO2 SLP094 T02970011;||F||223|ICAO-KGXA
USI0000KGXA|GRAY BUTTE FLD|2011|09|09|17|00|34.5639|-117.6750|920.5|31.0||1|FM15-METAR|223|ICAO-KGXA|1.0||1|FM15-METAR|223|ICAO-KGXA|||||||1008.9||1|FM15-METAR|223|ICAO-KGXA|999|V-Variable|9|FM15-METAR|223|ICAO-KGXA|2.6|V-Variable|1|FM15-METAR|223|ICAO-KGXA|||||||||||||15|Derived||FM15-METAR|223|ICAO-KGXA|||||||||||||||||||||||||||||||||||||||||||||||||||||||||||||||||||||||||1014.2||1|FM15-METAR|223|ICAO-KGXA|||||||||||||||||||||||||||||||||||||||||||MET078METAR KGXA 091655Z AUTO VRB05KT 10SM CLR 31/01 A2995 RMK AO2 SLP089 T03090006;||F||223|ICAO-KGXA
USI0000KGXA|GRAY BUTTE FLD|2011|09|09|18|00|34.5639|-117.6750|920.5|33.0||1|FM15-METAR|223|ICAO-KGXA|0.0||1|FM15-METAR|223|ICAO-KGXA|||||||1007.9||1|FM15-METAR|223|ICAO-KGXA|999|V-Variable|9|FM15-METAR|223|ICAO-KGXA|1.5|V-Variable|1|FM15-METAR|223|ICAO-KGXA|||||||||||||12|Derived||FM15-METAR|223|ICAO-KGXA|||||||||||||||||||||||||||||||||||||||||||||||||||||||||||||||||||||||||1013.2||1|FM15-METAR|223|ICAO-KGXA|-1.3|8-Steady-o|1|FM15-METAR|223|ICAO-KGXA|||||||||||||||||||||||||||||||||||||MET096METAR KGXA 091755Z AUTO VRB03KT 10SM CLR 33/00 A2992 RMK AO2 SLP079 T03340003 10312 20171 58013;||F||223|ICAO-KGXA
USI0000KGXA|GRAY BUTTE FLD|2011|09|09|19|00|34.5639|-117.6750|920.5|34.0||1|FM15-METAR|223|ICAO-KGXA|0.0||1|FM15-METAR|223|ICAO-KGXA|||||||1006.9||1|FM15-METAR|223|ICAO-KGXA|999|V-Variable|9|FM15-METAR|223|ICAO-KGXA|1.5|V-Variable|1|FM15-METAR|223|ICAO-KGXA|||||||||||||11|Derived||FM15-METAR|223|ICAO-KGXA|||||||||||||||||||||||||||||||||||||||||||||||||||||||||||||||||||||||||1012.2||1|FM15-METAR|223|ICAO-KGXA|||||||||||||||||||||||||||||||||||||||||||MET078METAR KGXA 091855Z AUTO VRB03KT 10SM CLR 34/00 A2989 RMK AO2 SLP069 T03381003;||F||223|ICAO-KGXA
USI0000KGXA|GRAY BUTTE FLD|2011|09|09|20|00|34.5639|-117.6750|920.5|35.0||1|FM15-METAR|223|ICAO-KGXA|0.0||1|FM15-METAR|223|ICAO-KGXA|||||||1005.8||1|FM15-METAR|223|ICAO-KGXA|999|V-Variable|9|FM15-METAR|223|ICAO-KGXA|2.1|V-Variable|1|FM15-METAR|223|ICAO-KGXA|||||||||||||11|Derived||FM15-METAR|223|ICAO-KGXA|||||||||||||||||||||||||||||||||||||||||||||||||||||||||||||||||||||||||1011.2||1|FM15-METAR|223|ICAO-KGXA|||||||||||||||||||||||||||||||||||||||||||MET078METAR KGXA 091955Z AUTO VRB04KT 10SM CLR 35/00 A2986 RMK AO2 SLP058 T03470001;||F||223|ICAO-KGXA
USI0000KGXA|GRAY BUTTE FLD|2011|09|09|21|00|34.5639|-117.6750|920.5|36.0||1|FM15-METAR|223|ICAO-KGXA|0.0||1|FM15-METAR|223|ICAO-KGXA|||||||1004.6||1|FM15-METAR|223|ICAO-KGXA|280|N-Normal|1|FM15-METAR|223|ICAO-KGXA|1.5|N-Normal|1|FM15-METAR|223|ICAO-KGXA|||||||||||||10|Derived||FM15-METAR|223|ICAO-KGXA|||||||||||||||||||||||||||||||||||||||||||||||||||||||||||||||||||||||||1010.2||1|FM15-METAR|223|ICAO-KGXA|-2.8|7-Decr-(st|1|FM15-METAR|223|ICAO-KGXA|||||||||||||||||||||||||||||||||||||MET084METAR KGXA 092055Z AUTO 28003KT 10SM CLR 36/00 A2983 RMK AO2 SLP046 T03550002 57028;||F||223|ICAO-KGXA
USI0000KGXA|GRAY BUTTE FLD|2011|09|09|22|00|34.5639|-117.6750|920.5|36.0||1|FM15-METAR|223|ICAO-KGXA|0.0||1|FM15-METAR|223|ICAO-KGXA|||||||1003.8||1|FM15-METAR|223|ICAO-KGXA|999|V-Variable|9|FM15-METAR|223|ICAO-KGXA|1.0|V-Variable|1|FM15-METAR|223|ICAO-KGXA|||||||||||||10|Derived||FM15-METAR|223|ICAO-KGXA|||||||||||||||||||||||||||||||||||||||||||||||||||||||||||||||||||||||||1009.1||1|FM15-METAR|223|ICAO-KGXA|||||||||||||||||||||||||||||||||||||||||||MET081METAR KGXA 092155Z AUTO VRB02KT 10SM FEW130 36/00 A2980 RMK AO2 SLP038 T03591002;||F||223|ICAO-KGXA
USI0000KGXA|GRAY BUTTE FLD|2011|09|09|23|00|34.5639|-117.6750|920.5|35.0||1|FM15-METAR|223|ICAO-KGXA|0.0||1|FM15-METAR|223|ICAO-KGXA|||||||1003.6||1|FM15-METAR|223|ICAO-KGXA|040|N-Normal|1|FM15-METAR|223|ICAO-KGXA|4.6|N-Normal|1|FM15-METAR|223|ICAO-KGXA|||||||||||||11|Derived||FM15-METAR|223|ICAO-KGXA|||||||||||||||||||||||||||||||||||||||||||||||||||||||||||||||||||||||||1008.8||1|FM15-METAR|223|ICAO-KGXA|||||||BKN:07|07-Seven-o|4|FM15-METAR|223|ICAO-KGXA|||||||BKN:07|07-Seven-o|4|FM15-METAR|223|ICAO-KGXA|||||||||||||||||||MET088METAR KGXA 092255Z AUTO 04009KT 10SM BKN130 BKN150 35/00 A2979 RMK AO2 SLP036 T03451003;||F||223|ICAO-KGXA
USI0000KGXA|GRAY BUTTE FLD|2011|09|10|00|00|34.5639|-117.6750|920.5|33.0||1|FM15-METAR|223|ICAO-KGXA|3.0||1|FM15-METAR|223|ICAO-KGXA|||||||1003.7||1|FM15-METAR|223|ICAO-KGXA|130|N-Normal|1|FM15-METAR|223|ICAO-KGXA|3.1|N-Normal|1|FM15-METAR|223|ICAO-KGXA|||||||||||||15|Derived||FM15-METAR|223|ICAO-KGXA|||||||||||||||||||||||||||||||||||||||||||||||||||||||||||||||||||||||||1008.8||1|FM15-METAR|223|ICAO-KGXA|-1.3|6-Decr,-th|1|FM15-METAR|223|ICAO-KGXA|SCT:04|04-Four-ok|4|FM15-METAR|223|ICAO-KGXA|||||||BKN:07|07-Seven-o|4|FM15-METAR|223|ICAO-KGXA|||||||||||||||||||MET123METAR KGXA 092355Z AUTO 13006KT 10SM SCT130 BKN150 BKN170 33/03 A2979 RMK AO2 SLP037 T03320029 10362 20311 403620171 56013;||F||223|ICAO-KGXA
USI0000KGXA|GRAY BUTTE FLD|2011|09|10|01|00|34.5639|-117.6750|920.5|32.0||1|FM15-METAR|223|ICAO-KGXA|3.0||1|FM15-METAR|223|ICAO-KGXA|||||||1004.2||1|FM15-METAR|223|ICAO-KGXA|160|N-Normal|1|FM15-METAR|223|ICAO-KGXA|1.5|N-Normal|1|FM15-METAR|223|ICAO-KGXA|||||||||||||16|Derived||FM15-METAR|223|ICAO-KGXA|||||||||||||||||||||||||||||||||||||||||||||||||||||||||||||||||||||||||1008.8||1|FM15-METAR|223|ICAO-KGXA|||||||||||||||||||||||||||||||||||||||||||MET081METAR KGXA 100055Z AUTO 16003KT 10SM BKN130 32/03 A2979 RMK AO2 SLP042 T03160026;||F||223|ICAO-KGXA
USI0000KGXA|GRAY BUTTE FLD|2011|09|10|02|00|34.5639|-117.6750|920.5|30.0||1|FM15-METAR|223|ICAO-KGXA|2.0||1|FM15-METAR|223|ICAO-KGXA|||||||1004.2||1|FM15-METAR|223|ICAO-KGXA|310|N-Normal|1|FM15-METAR|223|ICAO-KGXA|4.1|N-Normal|1|FM15-METAR|223|ICAO-KGXA|||||||||||||17|Derived||FM15-METAR|223|ICAO-KGXA|||||||||||||||||||||||||||||||||||||||||||SHRA:81|SHRA:81-Ra|1|FM15-METAR|223|ICAO-KGXA|||||||||||||||||||||||||1009.8||1|FM15-METAR|223|ICAO-KGXA|||||||FEW:02|02-Two-okt|4|FM15-METAR|223|ICAO-KGXA|||||||BKN:07|07-Seven-o|4|FM15-METAR|223|ICAO-KGXA|||||||||||||||||||MET133METAR KGXA 100155Z AUTO 31008KT 250V320 10SM -SHRA FEW110 BKN130 30/02 A2982 RMK AO2 RAB0145RAE0149SHRAB0149 SLP042 T03000017 TSNO $;||F||223|ICAO-KGXA
USI0000KGXA|GRAY BUTTE FLD|2011|09|10|03|00|34.5639|-117.6750|920.5|27.0||1|FM15-METAR|223|ICAO-KGXA|5.0||1|FM15-METAR|223|ICAO-KGXA|||||||1004.7||1|FM15-METAR|223|ICAO-KGXA|270|N-Normal|1|FM15-METAR|223|ICAO-KGXA|3.1|N-Normal|1|FM15-METAR|223|ICAO-KGXA|||||||||||||24|Derived||FM15-METAR|223|ICAO-KGXA|||||||||||||||||||||||||||||||||||||||||||||||||||||||||||||||||||||||||1010.2||1|FM15-METAR|223|ICAO-KGXA|1.4|3-Decr-or-|1|FM15-METAR|223|ICAO-KGXA|||||||||||||||||||||||||||||||||||||MET115METAR KGXA 100255Z AUTO 27006KT 10SM BKN130 27/05 A2983 RMK AO2 -1SHRAE0200RAB0200RAE0201 SLP047 T02720053 53014 $;||F||223|ICAO-KGXA
USI0000KGXA|GRAY BUTTE FLD|2011|09|10|04|00|34.5639|-117.6750|920.5|27.0||1|FM15-METAR|223|ICAO-KGXA|5.0||1|FM15-METAR|223|ICAO-KGXA|||||||1004.9||1|FM15-METAR|223|ICAO-KGXA|260|N-Normal|1|FM15-METAR|223|ICAO-KGXA|3.1|N-Normal|1|FM15-METAR|223|ICAO-KGXA|||||||||||||24|Derived||FM15-METAR|223|ICAO-KGXA|||||||||||||||||||||||||||||||||||||||||||||||||||||||||||||||||||||||||1010.5||1|FM15-METAR|223|ICAO-KGXA|||||||||||||||||||||||||||||||||||||||||||MET091METAR KGXA 100355Z AUTO 26006KT 10SM 27/05 A2984 RMK AO2 SLP049 T02720050 PWINO PNO TSNO $;||F||223|ICAO-KGXA
USI0000KGXA|GRAY BUTTE FLD|2011|09|12|14|00|34.5639|-117.6750|920.5|18.0||1|FM15-METAR|223|ICAO-KGXA|3.0||1|FM15-METAR|223|ICAO-KGXA|||||||1016.9||1|FM15-METAR|223|ICAO-KGXA|210|N-Normal|1|FM15-METAR|223|ICAO-KGXA|1.5|N-Normal|1|FM15-METAR|223|ICAO-KGXA|||||||||||||37|Derived||FM15-METAR|223|ICAO-KGXA|||||||||||||||||||||||||||||||||||||||||||||||||||||||||||||||||||||||||1019.3||1|FM15-METAR|223|ICAO-KGXA|||||||||||||||||||||||||||||||||||||||||||MET078METAR KGXA 121355Z AUTO 21003KT 10SM CLR 18/03 A3010 RMK AO2 SLP169 T01760026;||F||223|ICAO-KGXA
USI0000KGXA|GRAY BUTTE FLD|2011|09|12|15|00|34.5639|-117.6750|920.5|22.0||1|FM15-METAR|223|ICAO-KGXA|2.0||1|FM15-METAR|223|ICAO-KGXA|||||||1016.9||1|FM15-METAR|223|ICAO-KGXA|360|N-Normal|1|FM15-METAR|223|ICAO-KGXA|0.5|N-Normal|1|FM15-METAR|223|ICAO-KGXA|||||||||||||27|Derived||FM15-METAR|223|ICAO-KGXA|||||||||||||||||||||||||||||||||||||||||||||||||||||||||||||||||||||||||1020.0||1|FM15-METAR|223|ICAO-KGXA|1.2|2-Incr-(st|1|FM15-METAR|223|ICAO-KGXA|||||||||||||||||||||||||||||||||||||MET084METAR KGXA 121455Z AUTO 36001KT 10SM CLR 22/02 A3012 RMK AO2 SLP169 T02200021 52012;||F||223|ICAO-KGXA
USI0000KGXA|GRAY BUTTE FLD|2011|09|12|16|00|34.5639|-117.6750|920.5|23.0||1|FM15-METAR|223|ICAO-KGXA|1.0||1|FM15-METAR|223|ICAO-KGXA|||||||1017.7||1|FM15-METAR|223|ICAO-KGXA|010|N-Normal|1|FM15-METAR|223|ICAO-KGXA|1.5|N-Normal|1|FM15-METAR|223|ICAO-KGXA|||||||||||||23|Derived||FM15-METAR|223|ICAO-KGXA|||||||||||||||||||||||||||||||||||||||||||||||||||||||||||||||||||||||||1020.3||1|FM15-METAR|223|ICAO-KGXA|||||||||||||||||||||||||||||||||||||||||||MET078METAR KGXA 121555Z AUTO 01003KT 10SM CLR 23/01 A3013 RMK AO2 SLP177 T02280011;||F||223|ICAO-KGXA
USI0000KGXA|GRAY BUTTE FLD|2011|09|12|17|00|34.5639|-117.6750|920.5|26.0||1|FM15-METAR|223|ICAO-KGXA|0.0||1|FM15-METAR|223|ICAO-KGXA|||||||1017.2||1|FM15-METAR|223|ICAO-KGXA|330|N-Normal|1|FM15-METAR|223|ICAO-KGXA|2.6|N-Normal|1|FM15-METAR|223|ICAO-KGXA|||||||||||||18|Derived||FM15-METAR|223|ICAO-KGXA|||||||||||||||||||||||||||||||||||||||||||||||||||||||||||||||||||||||||1020.3||1|FM15-METAR|223|ICAO-KGXA|||||||||||||||||||||||||||||||||||||||||||MET078METAR KGXA 121655Z AUTO 33005KT 10SM CLR 26/00 A3013 RMK AO2 SLP172 T02551002;||F||223|ICAO-KGXA
USI0000KGXA|GRAY BUTTE FLD|2011|09|12|18|00|34.5639|-117.6750|920.5|28.0||1|FM15-METAR|223|ICAO-KGXA|-2.0||1|FM15-METAR|223|ICAO-KGXA|||||||1016.5||1|FM15-METAR|223|ICAO-KGXA|999|V-Variable|9|FM15-METAR|223|ICAO-KGXA|2.6|V-Variable|1|FM15-METAR|223|ICAO-KGXA|||||||||||||14|Derived||FM15-METAR|223|ICAO-KGXA|||||||||||||||||||||||||||||||||||||||||||||||||||||||||||||||||||||||||1019.6||1|FM15-METAR|223|ICAO-KGXA|-0.2|8-Steady-o|1|FM15-METAR|223|ICAO-KGXA|||||||||||||||||||||||||||||||||||||MET097METAR KGXA 121755Z AUTO VRB05KT 10SM CLR 28/M02 A3011 RMK AO2 SLP165 T02811017 10258 20119 58002;||F||223|ICAO-KGXA
USI0000KGXA|GRAY BUTTE FLD|2011|09|12|19|00|34.5639|-117.6750|920.5|30.0||1|FM15-METAR|223|ICAO-KGXA|-7.0||1|FM15-METAR|223|ICAO-KGXA|||||||1015.6||1|FM15-METAR|223|ICAO-KGXA|110|N-Normal|1|FM15-METAR|223|ICAO-KGXA|4.6|N-Normal|1|FM15-METAR|223|ICAO-KGXA|||||||||||||8|Derived||FM15-METAR|223|ICAO-KGXA|||||||||||||||||||||||||||||||||||||||||||||||||||||||||||||||||||||||||1019.3||1|FM15-METAR|223|ICAO-KGXA|||||||||||||||||||||||||||||||||||||||||||MET079METAR KGXA 121855Z AUTO 11009KT 10SM CLR 30/M07 A3010 RMK AO2 SLP156 T02961075;||F||223|ICAO-KGXA
USI0000KGXA|GRAY BUTTE FLD|2011|09|12|20|00|34.5639|-117.6750|920.5|30.0||1|FM15-METAR|223|ICAO-KGXA|-6.0||1|FM15-METAR|223|ICAO-KGXA|||||||1014.6||1|FM15-METAR|223|ICAO-KGXA|999|V-Variable|9|FM15-METAR|223|ICAO-KGXA|2.1|V-Variable|1|FM15-METAR|223|ICAO-KGXA|||||||||||||9|Derived||FM15-METAR|223|ICAO-KGXA|||||||||||||||||||||||||||||||||||||||||||||||||||||||||||||||||||||||||1018.6||1|FM15-METAR|223|ICAO-KGXA|||||||||||||||||||||||||||||||||||||||||||MET079METAR KGXA 121955Z AUTO VRB04KT 10SM CLR 30/M06 A3008 RMK AO2 SLP146 T03041063;||F||223|ICAO-KGXA
USI0000KGXA|GRAY BUTTE FLD|2011|09|12|21|00|34.5639|-117.6750|920.5|32.0||1|FM15-METAR|223|ICAO-KGXA|-6.0||1|FM15-METAR|223|ICAO-KGXA|||||||1014.0||1|FM15-METAR|223|ICAO-KGXA|250|N-Normal|1|FM15-METAR|223|ICAO-KGXA|3.6|N-Normal|1|FM15-METAR|223|ICAO-KGXA|6.7||1|FM15-METAR|223|ICAO-KGXA|||||||8|Derived||FM15-METAR|223|ICAO-KGXA|||||||||||||||||||||||||||||||||||||||||||||||||||||||||||||||||||||||||1017.6||1|FM15-METAR|223|ICAO-KGXA|-1.9|7-Decr-(st|1|FM15-METAR|223|ICAO-KGXA|||||||||||||||||||||||||||||||||||||MET088METAR KGXA 122055Z AUTO 25007G13KT 10SM CLR 32/M06 A3005 RMK AO2 SLP140 T03191056 57019;||F||223|ICAO-KGXA
USI0000KGXA|GRAY BUTTE FLD|2011|09|12|22|00|34.5639|-117.6750|920.5|31.0||1|FM15-METAR|223|ICAO-KGXA|-4.0||1|FM15-METAR|223|ICAO-KGXA|||||||1014.5||1|FM15-METAR|223|ICAO-KGXA|190|N-Normal|1|FM15-METAR|223|ICAO-KGXA|5.1|N-Normal|1|FM15-METAR|223|ICAO-KGXA|8.7||1|FM15-METAR|223|ICAO-KGXA|||||||10|Derived||FM15-METAR|223|ICAO-KGXA|||||||||||||||||||||||||||||||||||||||||||||||||||||||||||||||||||||||||1017.6||1|FM15-METAR|223|ICAO-KGXA|||||||||||||||||||||||||||||||||||||||||||MET082METAR KGXA 122155Z AUTO 19010G17KT 10SM CLR 31/M04 A3005 RMK AO2 SLP145 T03101038;||F||223|ICAO-KGXA
USI0000KGXA|GRAY BUTTE FLD|2011|09|12|23|00|34.5639|-117.6750|920.5|30.0||1|FM15-METAR|223|ICAO-KGXA|-1.0||1|FM15-METAR|223|ICAO-KGXA|||||||1014.4||1|FM15-METAR|223|ICAO-KGXA|210|N-Normal|1|FM15-METAR|223|ICAO-KGXA|5.1|N-Normal|1|FM15-METAR|223|ICAO-KGXA|8.7||1|FM15-METAR|223|ICAO-KGXA|||||||13|Derived||FM15-METAR|223|ICAO-KGXA|||||||||||||||||||||||||||||||||||||||||||||||||||||||||||||||||||||||||1017.6||1|FM15-METAR|223|ICAO-KGXA|||||||||||||||||||||||||||||||||||||||||||MET084METAR KGXA 122255Z AUTO 21010G17KT 10SM CLR 30/M01 A3005 RMK AO2 SLP144 T03021015 $;||F||223|ICAO-KGXA
USI0000KGXA|GRAY BUTTE FLD|2011|09|13|00|00|34.5639|-117.6750|920.5|29.0||1|FM15-METAR|223|ICAO-KGXA|1.0||1|FM15-METAR|223|ICAO-KGXA|||||||1014.6||1|FM15-METAR|223|ICAO-KGXA|220|N-Normal|1|FM15-METAR|223|ICAO-KGXA|3.6|N-Normal|1|FM15-METAR|223|ICAO-KGXA|7.7||1|FM15-METAR|223|ICAO-KGXA|||||||16|Derived||FM15-METAR|223|ICAO-KGXA|||||||||||||||||||||||||||||||||||||||||||||||||||||||||||||||||||||||||1017.6||1|FM15-METAR|223|ICAO-KGXA|0.6|2-Incr-(st|1|FM15-METAR|223|ICAO-KGXA|||||||||||||||||||||||||||||||||||||MET111METAR KGXA 122355Z AUTO 22007G15KT 10SM CLR 29/01 A3005 RMK AO2 SLP146 T02910007 10321 20255 403210156 54001 $;||F||223|ICAO-KGXA
USI0000KGXA|GRAY BUTTE FLD|2011|09|13|01|00|34.5639|-117.6750|920.5|27.0||1|FM15-METAR|223|ICAO-KGXA|3.0||1|FM15-METAR|223|ICAO-KGXA|||||||1015.5||1|FM15-METAR|223|ICAO-KGXA|170|N-Normal|1|FM15-METAR|223|ICAO-KGXA|3.1|N-Normal|1|FM15-METAR|223|ICAO-KGXA|||||||||||||21|Derived||FM15-METAR|223|ICAO-KGXA|||||||||||||||||||||||||||||||||||||||||||||||||||||||||||||||||||||||||1018.3||1|FM15-METAR|223|ICAO-KGXA|||||||||||||||||||||||||||||||||||||||||||MET085METAR KGXA 130055Z AUTO 17006KT 10SM CLR 27/03 A3007 RMK AO2 SLP155 T02680030 TSNO $;||F||223|ICAO-KGXA
USI0000KGXA|GRAY BUTTE FLD|2011|09|13|02|00|34.5639|-117.6750|920.5|26.0||1|FM15-METAR|223|ICAO-KGXA|4.0||1|FM15-METAR|223|ICAO-KGXA|||||||1015.6||1|FM15-METAR|223|ICAO-KGXA|180|N-Normal|1|FM15-METAR|223|ICAO-KGXA|2.1|N-Normal|1|FM15-METAR|223|ICAO-KGXA|||||||||||||24|Derived||FM15-METAR|223|ICAO-KGXA|||||||||||||||||||||||||||||||||||||||||||||||||||||||||||||||||||||||||1018.3||1|FM15-METAR|223|ICAO-KGXA|||||||||||||||||||||||||||||||||||||||||||MET091METAR KGXA 130155Z AUTO 18004KT 10SM 26/04 A3007 RMK AO2 SLP156 T02590040 PWINO PNO TSNO $;||F||223|ICAO-KGXA
USI0000KGXA|GRAY BUTTE FLD|2011|09|13|14|00|34.5639|-117.6750|920.5|19.0||1|FM15-METAR|223|ICAO-KGXA|7.0||1|FM15-METAR|223|ICAO-KGXA|||||||1016.2||1|FM15-METAR|223|ICAO-KGXA|150|N-Normal|1|FM15-METAR|223|ICAO-KGXA|3.1|N-Normal|1|FM15-METAR|223|ICAO-KGXA|||||||||||||46|Derived||FM15-METAR|223|ICAO-KGXA|||||||||||||||||||||||||||||||||||||||||||||||||||||||||||||||||||||||||1019.6||1|FM15-METAR|223|ICAO-KGXA|||||||||||||||||||||||||||||||||||||||||||MET093METAR KGXA 131355Z AUTO 15006KT 10SM BKN075 19/07 A3011 RMK AO2 LTG DSNT SE SLP162 T01930066;||F||223|ICAO-KGXA
USI0000KGXA|GRAY BUTTE FLD|2011|09|13|15|00|34.5639|-117.6750|920.5|25.0||1|FM15-METAR|223|ICAO-KGXA|7.0||1|FM15-METAR|223|ICAO-KGXA|||||||1015.6||1|FM15-METAR|223|ICAO-KGXA|130|N-Normal|1|FM15-METAR|223|ICAO-KGXA|2.6|N-Normal|1|FM15-METAR|223|ICAO-KGXA|||||||||||||32|Derived||FM15-METAR|223|ICAO-KGXA|||||||||||||||||||||||||||||||||||||||||||||||||||||||||||||||||||||||||1019.6||1|FM15-METAR|223|ICAO-KGXA|0.4|1-Incr-the|1|FM15-METAR|223|ICAO-KGXA|||||||||||||||||||||||||||||||||||||MET087METAR KGXA 131455Z AUTO 13005KT 10SM BKN080 25/07 A3011 RMK AO2 SLP156 T02510071 51004;||F||223|ICAO-KGXA
USI0000KGXA|GRAY BUTTE FLD|2011|09|13|17|00|34.5639|-117.6750|920.5|28.0||1|FM15-METAR|223|ICAO-KGXA|7.0||1|FM15-METAR|223|ICAO-KGXA|||||||1015.9||1|FM15-METAR|223|ICAO-KGXA|120|N-Normal|1|FM15-METAR|223|ICAO-KGXA|5.7|N-Normal|1|FM15-METAR|223|ICAO-KGXA|8.7||1|FM15-METAR|223|ICAO-KGXA|||||||26|Derived||FM15-METAR|223|ICAO-KGXA|||||||||||||||||||||||||||||||||||||||||||||||||||||||||||||||||||||||||1019.6||1|FM15-METAR|223|ICAO-KGXA|||||||||||||||||||||||||||||||||||||||||||MET081METAR KGXA 131655Z AUTO 12011G17KT 10SM CLR 28/07 A3011 RMK AO2 SLP159 T02750069;||F||223|ICAO-KGXA
USI0000KGXA|GRAY BUTTE FLD|2011|09|13|18|00|34.5639|-117.6750|920.5|29.0||1|FM15-METAR|223|ICAO-KGXA|8.0||1|FM15-METAR|223|ICAO-KGXA|||||||1015.2||1|FM15-METAR|223|ICAO-KGXA|100|N-Normal|1|FM15-METAR|223|ICAO-KGXA|5.1|N-Normal|1|FM15-METAR|223|ICAO-KGXA|8.7||1|FM15-METAR|223|ICAO-KGXA|||||||27|Derived||FM15-METAR|223|ICAO-KGXA|||||||||||||||||||||||||||||||||||||||||||||||||||||||||||||||||||||||||1019.3||1|FM15-METAR|223|ICAO-KGXA|-0.5|8-Steady-o|1|FM15-METAR|223|ICAO-KGXA|||||||||||||||||||||||||||||||||||||MET111METAR KGXA 131755Z AUTO 10010G17KT 10SM CLR 29/08 A3010 RMK AO2 LTG DSNT SE SLP152 T02850075 10275 20152 58005;||F||223|ICAO-KGXA
USI0000KGXA|GRAY BUTTE FLD|2011|09|13|19|00|34.5639|-117.6750|920.5|27.0||1|FM15-METAR|223|ICAO-KGXA|7.0||1|FM15-METAR|223|ICAO-KGXA|||||||1015.3||1|FM15-METAR|223|ICAO-KGXA|040|N-Normal|1|FM15-METAR|223|ICAO-KGXA|5.7|N-Normal|1|FM15-METAR|223|ICAO-KGXA|8.2||1|FM15-METAR|223|ICAO-KGXA|||||||28|Derived||FM15-METAR|223|ICAO-KGXA|||||||||||||||||||||||||||||||||||||||||||||||||||||||||||||||||||||||||1019.0||1|FM15-METAR|223|ICAO-KGXA|||||||SCT:04|04-Four-ok|4|FM15-METAR|223|ICAO-KGXA|||||||BKN:07|07-Seven-o|4|FM15-METAR|223|ICAO-KGXA|||||||||||||||||||MET107METAR KGXA 131855Z AUTO 04011G16KT 10SM VCTS SCT080 BKN230 27/07 A3009 RMK AO2 LTG DSNT S SLP153 T02700074;||F||223|ICAO-KGXA
USI0000KGXA|GRAY BUTTE FLD|2011|09|13|20|00|34.5639|-117.6750|920.5|23.0||1|FM15-METAR|223|ICAO-KGXA|11.0||1|FM15-METAR|223|ICAO-KGXA|||||||1016.2||1|FM15-METAR|223|ICAO-KGXA|180|N-Normal|1|FM15-METAR|223|ICAO-KGXA|3.6|N-Normal|1|FM15-METAR|223|ICAO-KGXA|8.2||1|FM15-METAR|223|ICAO-KGXA|||||||47|Derived||FM15-METAR|223|ICAO-KGXA|||||||||||||||||||||||||||||||||||||||||||SHRA:81|SHRA:81-Ra|1|FM15-METAR|223|ICAO-KGXA|||||||||||||||||||||||||1019.0||1|FM15-METAR|223|ICAO-KGXA|||||||FEW:02|02-Two-okt|4|FM15-METAR|223|ICAO-KGXA|||||||BKN:07|07-Seven-o|4|FM15-METAR|223|ICAO-KGXA|||||||||||||||||||MET126METAR KGXA 131955Z AUTO 18007G16KT 10SM -SHRA FEW055 BKN085 BKN110 23/11 A3009 RMK AO2 LTG DSNT SE SHRAB1943 SLP162 T02290114;||F||223|ICAO-KGXA
USI0000KGXA|GRAY BUTTE FLD|2011|09|13|21|00|34.5639|-117.6750|920.5|22.0||1|FM15-METAR|223|ICAO-KGXA|14.0||1|FM15-METAR|223|ICAO-KGXA|||||||1016.8||1|FM15-METAR|223|ICAO-KGXA|110|N-Normal|1|FM15-METAR|223|ICAO-KGXA|2.1|N-Normal|1|FM15-METAR|223|ICAO-KGXA|||||||1.0|9-Missing|9|FM15-METAR|223|ICAO-KGXA|61|Derived||FM15-METAR|223|ICAO-KGXA|||||||||||||||||||||||||||||||||||||||||||SHRA:82|SHRA:82-Ra|1|FM15-METAR|223|ICAO-KGXA|||||||||||||||||||||||||1019.0||1|FM15-METAR|223|ICAO-KGXA|-0.2|7-Decr-(st|1|FM15-METAR|223|ICAO-KGXA|FEW:02|02-Two-okt|4|FM15-METAR|223|ICAO-KGXA|||||||BKN:07|07-Seven-o|4|FM15-METAR|223|ICAO-KGXA|||||||||||||||||||MET125METAR KGXA 132055Z AUTO 11004KT 10SM SHRA FEW030 BKN041 BKN080 22/14 A3009 RMK AO2 LTG DSNT E SLP168 P0004 T02160137 57002 $;||F||223|ICAO-KGXA
USI0000KGXA|GRAY BUTTE FLD|2011|09|13|22|00|34.5639|-117.6750|920.5|20.0||1|FM15-METAR|223|ICAO-KGXA|14.0||1|FM15-METAR|223|ICAO-KGXA|||||||1016.3||1|FM15-METAR|223|ICAO-KGXA|150|N-Normal|1|FM15-METAR|223|ICAO-KGXA|5.1|N-Normal|1|FM15-METAR|223|ICAO-KGXA|9.3||1|FM15-METAR|223|ICAO-KGXA|||||||69|Derived||FM15-METAR|223|ICAO-KGXA|||||||||||||||||||||||||||||||||||||||||||SHRA:81|SHRA:81-Ra|1|FM15-METAR|223|ICAO-KGXA|||||||||||||||||||||||||1018.3||1|FM15-METAR|223|ICAO-KGXA|||||||FEW:02|02-Two-okt|4|FM15-METAR|223|ICAO-KGXA|||||||BKN:07|07-Seven-o|4|FM15-METAR|223|ICAO-KGXA|||||||||||||||||||MET130METAR KGXA 132155Z AUTO 15010G18KT 10SM -SHRA FEW095 BKN110 20/14 A3007 RMK AO2 LTG DSNT NW SHRAE2128SHRAB2131 SLP163 T01960144 $;||F||223|ICAO-KGXA
USI0000KGXA|GRAY BUTTE FLD|2011|09|13|23|00|34.5639|-117.6750|920.5|21.0||1|FM15-METAR|223|ICAO-KGXA|14.0||1|FM15-METAR|223|ICAO-KGXA|||||||1016.3||1|FM15-METAR|223|ICAO-KGXA|150|N-Normal|1|FM15-METAR|223|ICAO-KGXA|2.1|N-Normal|1|FM15-METAR|223|ICAO-KGXA|||||||||||||64|Derived||FM15-METAR|223|ICAO-KGXA|||||||||||||||||||||||||||||||||||||||||||||||||||||||||||||||||||||||||1018.3||1|FM15-METAR|223|ICAO-KGXA|||||||||||||||||||||||||||||||||||||||||||MET101METAR KGXA 132255Z AUTO 15004KT 10SM 21/14 A3007 RMK AO2 SHRAE2215 SLP163 T02090135 PWINO PNO TSNO $;||F||223|ICAO-KGXA
USI0000KGXA|GRAY BUTTE FLD|2011|09|14|14|00|34.5639|-117.6750|920.5|19.0||1|FM15-METAR|223|ICAO-KGXA|12.0||1|FM15-METAR|223|ICAO-KGXA|||||||1014.4||1|FM15-METAR|223|ICAO-KGXA|170|N-Normal|1|FM15-METAR|223|ICAO-KGXA|1.0|N-Normal|1|FM15-METAR|223|ICAO-KGXA|||||||||||||64|Derived||FM15-METAR|223|ICAO-KGXA|||||||||||||||||||||||||||||||||||||||||||||||||||||||||||||||||||||||||1016.6||1|FM15-METAR|223|ICAO-KGXA|||||||||||||||||||||||||||||||||||||||||||MET078METAR KGXA 141355Z AUTO 17002KT 10SM CLR 19/12 A3002 RMK AO2 SLP144 T01890124;||F||223|ICAO-KGXA
USI0000KGXA|GRAY BUTTE FLD|2011|09|14|15|00|34.5639|-117.6750|920.5|22.0||1|FM15-METAR|223|ICAO-KGXA|12.0||1|FM15-METAR|223|ICAO-KGXA|||||||1014.0||1|FM15-METAR|223|ICAO-KGXA|290|N-Normal|1|FM15-METAR|223|ICAO-KGXA|1.5|N-Normal|1|FM15-METAR|223|ICAO-KGXA|||||||||||||53|Derived||FM15-METAR|223|ICAO-KGXA|||||||||||||||||||||||||||||||||||||||||||||||||||||||||||||||||||||||||1016.6||1|FM15-METAR|223|ICAO-KGXA|0.6|1-Incr-the|1|FM15-METAR|223|ICAO-KGXA|||||||||||||||||||||||||||||||||||||MET091METAR KGXA 141455Z AUTO 29003KT 10SM CLR 22/12 A3002 RMK AO2 SLP140 T02180115 51006 TSNO $;||F||223|ICAO-KGXA
USI0000KGXA|GRAY BUTTE FLD|2011|09|14|16|00|34.5639|-117.6750|920.5|24.0||1|FM15-METAR|223|ICAO-KGXA|11.0||1|FM15-METAR|223|ICAO-KGXA|||||||1013.8||1|FM15-METAR|223|ICAO-KGXA|310|N-Normal|1|FM15-METAR|223|ICAO-KGXA|3.1|N-Normal|1|FM15-METAR|223|ICAO-KGXA|||||||||||||44|Derived||FM15-METAR|223|ICAO-KGXA|||||||||||||||||||||||||||||||||||||||||||||||||||||||||||||||||||||||||1016.6||1|FM15-METAR|223|ICAO-KGXA|||||||||||||||||||||||||||||||||||||||||||MET078METAR KGXA 141555Z AUTO 31006KT 10SM CLR 24/11 A3002 RMK AO2 SLP138 T02350106;||F||223|ICAO-KGXA
USI0000KGXA|GRAY BUTTE FLD|2011|09|14|17|00|34.5639|-117.6750|920.5|26.0||1|FM15-METAR|223|ICAO-KGXA|8.0||1|FM15-METAR|223|ICAO-KGXA|||||||1013.3||1|FM15-METAR|223|ICAO-KGXA|250|N-Normal|1|FM15-METAR|223|ICAO-KGXA|2.6|N-Normal|1|FM15-METAR|223|ICAO-KGXA|||||||||||||32|Derived||FM15-METAR|223|ICAO-KGXA|||||||||||||||||||||||||||||||||||||||||||||||||||||||||||||||||||||||||1016.6||1|FM15-METAR|223|ICAO-KGXA|||||||||||||||||||||||||||||||||||||||||||MET078METAR KGXA 141655Z AUTO 25005KT 10SM CLR 26/08 A3002 RMK AO2 SLP133 T02580083;||F||223|ICAO-KGXA
USI0000KGXA|GRAY BUTTE FLD|2011|09|14|18|00|34.5639|-117.6750|920.5|27.0||1|FM15-METAR|223|ICAO-KGXA|9.0||1|FM15-METAR|223|ICAO-KGXA|||||||1012.7||1|FM15-METAR|223|ICAO-KGXA|270|N-Normal|1|FM15-METAR|223|ICAO-KGXA|2.6|N-Normal|1|FM15-METAR|223|ICAO-KGXA|||||||||||||32|Derived||FM15-METAR|223|ICAO-KGXA|||||||||||||||||||||||||||||||||||||||||||||||||||||||||||||||||||||||||1015.9||1|FM15-METAR|223|ICAO-KGXA|-0.4|8-Steady-o|1|FM15-METAR|223|ICAO-KGXA|||||||||||||||||||||||||||||||||||||MET099METAR KGXA 141755Z AUTO 27005KT 10SM FEW100 27/09 A3000 RMK AO2 SLP127 T02680086 10261 20144 58004;||F||223|ICAO-KGXA
USI0000KGXA|GRAY BUTTE FLD|2011|09|14|19|00|34.5639|-117.6750|920.5|27.0||1|FM15-METAR|223|ICAO-KGXA|8.0||1|FM15-METAR|223|ICAO-KGXA|||||||1011.8||1|FM15-METAR|223|ICAO-KGXA|999|V-Variable|9|FM15-METAR|223|ICAO-KGXA|2.1|V-Variable|1|FM15-METAR|223|ICAO-KGXA|||||||||||||30|Derived||FM15-METAR|223|ICAO-KGXA|||||||||||||||||||||||||||||||||||||||||||||||||||||||||||||||||||||||||1015.2||1|FM15-METAR|223|ICAO-KGXA|||||||||||||||||||||||||||||||||||||||||||MET081METAR KGXA 141855Z AUTO VRB04KT 10SM FEW110 27/08 A2998 RMK AO2 SLP118 T02740078;||F||223|ICAO-KGXA
USI0000KGXA|GRAY BUTTE FLD|2011|09|14|20|00|34.5639|-117.6750|920.5|29.0||1|FM15-METAR|223|ICAO-KGXA|7.0||1|FM15-METAR|223|ICAO-KGXA|||||||1010.8||1|FM15-METAR|223|ICAO-KGXA|999|V-Variable|9|FM15-METAR|223|ICAO-KGXA|0.5|V-Variable|1|FM15-METAR|223|ICAO-KGXA|||||||||||||25|Derived||FM15-METAR|223|ICAO-KGXA|||||||||||||||||||||||||||||||||||||||||||||||||||||||||||||||||||||||||1014.2||1|FM15-METAR|223|ICAO-KGXA|||||||||||||||||||||||||||||||||||||||||||MET078METAR KGXA 141955Z AUTO VRB01KT 10SM CLR 29/07 A2995 RMK AO2 SLP108 T02870068;||F||223|ICAO-KGXA
USI0000KGXA|GRAY BUTTE FLD|2011|09|14|21|00|34.5639|-117.6750|920.5|30.0||1|FM15-METAR|223|ICAO-KGXA|6.0||1|FM15-METAR|223|ICAO-KGXA|||||||1009.7||1|FM15-METAR|223|ICAO-KGXA|999|V-Variable|9|FM15-METAR|223|ICAO-KGXA|2.6|V-Variable|1|FM15-METAR|223|ICAO-KGXA|||||||||||||22|Derived||FM15-METAR|223|ICAO-KGXA|||||||||||||||||||||||||||||||||||||||||||||||||||||||||||||||||||||||||1013.2||1|FM15-METAR|223|ICAO-KGXA|-2.4|7-Decr-(st|1|FM15-METAR|223|ICAO-KGXA|||||||||||||||||||||||||||||||||||||MET084METAR KGXA 142055Z AUTO VRB05KT 10SM CLR 30/06 A2992 RMK AO2 SLP097 T02960059 57024;||F||223|ICAO-KGXA
USI0000KGXA|GRAY BUTTE FLD|2011|09|14|22|00|34.5639|-117.6750|920.5|30.0||1|FM15-METAR|223|ICAO-KGXA|5.0||1|FM15-METAR|223|ICAO-KGXA|||||||1008.9||1|FM15-METAR|223|ICAO-KGXA|999|V-Variable|9|FM15-METAR|223|ICAO-KGXA|2.6|V-Variable|1|FM15-METAR|223|ICAO-KGXA|||||||||||||20|Derived||FM15-METAR|223|ICAO-KGXA|||||||||||||||||||||||||||||||||||||||||||||||||||||||||||||||||||||||||1012.9||1|FM15-METAR|223|ICAO-KGXA|||||||||||||||||||||||||||||||||||||||||||MET090METAR KGXA 142155Z AUTO VRB05KT 10SM CLR 30/05 A2991 RMK AO2 LTG DSNT SW SLP089 T02980052;||F||223|ICAO-KGXA
USI0000KGXA|GRAY BUTTE FLD|2011|09|14|23|00|34.5639|-117.6750|920.5|29.0||1|FM15-METAR|223|ICAO-KGXA|4.0||1|FM15-METAR|223|ICAO-KGXA|||||||1009.0||1|FM15-METAR|223|ICAO-KGXA|290|N-Normal|1|FM15-METAR|223|ICAO-KGXA|5.1|N-Normal|1|FM15-METAR|223|ICAO-KGXA|6.7||1|FM15-METAR|223|ICAO-KGXA|||||||20|Derived||FM15-METAR|223|ICAO-KGXA|||||||||||||||||||||||||||||||||||||||||||||||||||||||||||||||||||||||||1012.5||1|FM15-METAR|223|ICAO-KGXA|||||||||||||||||||||||||||||||||||||||||||MET095METAR KGXA 142255Z AUTO 29010G13KT 10SM FEW090 29/04 A2990 RMK AO2 LTG DSNT N SLP090 T02920043;||F||223|ICAO-KGXA
USI0000KGXA|GRAY BUTTE FLD|2011|09|15|00|00|34.5639|-117.6750|920.5|28.0||1|FM15-METAR|223|ICAO-KGXA|8.0||1|FM15-METAR|223|ICAO-KGXA|||||||1009.5||1|FM15-METAR|223|ICAO-KGXA|300|N-Normal|1|FM15-METAR|223|ICAO-KGXA|5.1|N-Normal|1|FM15-METAR|223|ICAO-KGXA|||||||||||||28|Derived||FM15-METAR|223|ICAO-KGXA|||||||||||||||||||||||||||||||||||||||||||||||||||||||||||||||||||||||||1012.9||1|FM15-METAR|223|ICAO-KGXA|-0.6|5-Decr,-th|1|FM15-METAR|223|ICAO-KGXA|||||||||||||||||||||||||||||||||||||MET106METAR KGXA 142355Z AUTO 30010KT 10SM CLR 28/08 A2991 RMK AO2 SLP095 T02770080 10299 20255 402990167 55006;||F||223|ICAO-KGXA
USI0000KGXA|GRAY BUTTE FLD|2011|09|15|01|00|34.5639|-117.6750|920.5|26.0||1|FM15-METAR|223|ICAO-KGXA|10.0||1|FM15-METAR|223|ICAO-KGXA|||||||1009.9||1|FM15-METAR|223|ICAO-KGXA|270|N-Normal|1|FM15-METAR|223|ICAO-KGXA|5.1|N-Normal|1|FM15-METAR|223|ICAO-KGXA|||||||||||||37|Derived||FM15-METAR|223|ICAO-KGXA|||||||||||||||||||||||||||||||||||||||||||||||||||||||||||||||||||||||||1012.9||1|FM15-METAR|223|ICAO-KGXA|||||||||||||||||||||||||||||||||||||||||||MET080METAR KGXA 150055Z AUTO 27010KT 10SM CLR 26/10 A2991 RMK AO2 SLP099 T02560095 $;||F||223|ICAO-KGXA
USI0000KGXA|GRAY BUTTE FLD|2011|09|15|02|00|34.5639|-117.6750|920.5|24.0||1|FM15-METAR|223|ICAO-KGXA|11.0||1|FM15-METAR|223|ICAO-KGXA|||||||1010.0||1|FM15-METAR|223|ICAO-KGXA|280|N-Normal|1|FM15-METAR|223|ICAO-KGXA|3.1|N-Normal|1|FM15-METAR|223|ICAO-KGXA|||||||||||||44|Derived||FM15-METAR|223|ICAO-KGXA|||||||||||||||||||||||||||||||||||||||||||||||||||||||||||||||||||||||||1013.5||1|FM15-METAR|223|ICAO-KGXA|||||||||||||||||||||||||||||||||||||||||||MET080METAR KGXA 150155Z AUTO 28006KT 10SM CLR 24/11 A2993 RMK AO2 SLP100 T02360108 $;||F||223|ICAO-KGXA
USI0000KGXA|GRAY BUTTE FLD|2011|09|15|03|00|34.5639|-117.6750|920.5|22.0||1|FM15-METAR|223|ICAO-KGXA|11.0||1|FM15-METAR|223|ICAO-KGXA|||||||1010.5||1|FM15-METAR|223|ICAO-KGXA|170|N-Normal|1|FM15-METAR|223|ICAO-KGXA|1.0|N-Normal|1|FM15-METAR|223|ICAO-KGXA|||||||||||||50|Derived||FM15-METAR|223|ICAO-KGXA|||||||||||||||||||||||||||||||||||||||||||||||||||||||||||||||||||||||||1014.2||1|FM15-METAR|223|ICAO-KGXA|1.2|3-Decr-or-|1|FM15-METAR|223|ICAO-KGXA|||||||||||||||||||||||||||||||||||||MET086METAR KGXA 150255Z AUTO 17002KT 10SM CLR 22/11 A2995 RMK AO2 SLP105 T02210111 53012 $;||F||223|ICAO-KGXA
USI0000KGXA|GRAY BUTTE FLD|2011|09|15|04|00|34.5639|-117.6750|920.5|22.0||1|FM15-METAR|223|ICAO-KGXA|10.0||1|FM15-METAR|223|ICAO-KGXA|||||||1010.2||1|FM15-METAR|223|ICAO-KGXA|250|N-Normal|1|FM15-METAR|223|ICAO-KGXA|1.5|N-Normal|1|FM15-METAR|223|ICAO-KGXA|||||||||||||47|Derived||FM15-METAR|223|ICAO-KGXA|||||||||||||||||||||||||||||||||||||||||||||||||||||||||||||||||||||||||1014.2||1|FM15-METAR|223|ICAO-KGXA|||||||||||||||||||||||||||||||||||||||||||MET080METAR KGXA 150355Z AUTO 25003KT 10SM CLR 22/10 A2995 RMK AO2 SLP102 T02160098 $;||F||223|ICAO-KGXA
USI0000KGXA|GRAY BUTTE FLD|2011|09|15|05|00|34.5639|-117.6750|920.5|21.0||1|FM15-METAR|223|ICAO-KGXA|8.0||1|FM15-METAR|223|ICAO-KGXA|||||||1009.7||1|FM15-METAR|223|ICAO-KGXA|240|N-Normal|1|FM15-METAR|223|ICAO-KGXA|2.6|N-Normal|1|FM15-METAR|223|ICAO-KGXA|||||||||||||43|Derived||FM15-METAR|223|ICAO-KGXA|||||||||||||||||||||||||||||||||||||||||||||||||||||||||||||||||||||||||1013.9||1|FM15-METAR|223|ICAO-KGXA|||||||||||||||||||||||||||||||||||||||||||MET080METAR KGXA 150455Z AUTO 24005KT 10SM CLR 21/08 A2994 RMK AO2 SLP097 T02050084 $;||F||223|ICAO-KGXA
USI0000KGXA|GRAY BUTTE FLD|2011|09|15|06|00|34.5639|-117.6750|920.5|19.0||1|FM15-METAR|223|ICAO-KGXA|7.0||1|FM15-METAR|223|ICAO-KGXA|||||||1009.8||1|FM15-METAR|223|ICAO-KGXA|210|N-Normal|1|FM15-METAR|223|ICAO-KGXA|2.1|N-Normal|1|FM15-METAR|223|ICAO-KGXA|||||||||||||46|Derived||FM15-METAR|223|ICAO-KGXA|||||||||||||||||||||||||||||||||||||||||||||||||||||||||||||||||||||||||1013.5||1|FM15-METAR|223|ICAO-KGXA|-0.4|7-Decr-(st|1|FM15-METAR|223|ICAO-KGXA|||||||||||||||||||||||||||||||||||||MET098METAR KGXA 150555Z AUTO 21004KT 10SM CLR 19/07 A2993 RMK AO2 SLP098 T01870073 10292 20203 57004 $;||F||223|ICAO-KGXA
USI0000KGXA|GRAY BUTTE FLD|2011|09|15|07|00|34.5639|-117.6750|920.5|18.0||1|FM15-METAR|223|ICAO-KGXA|6.0||1|FM15-METAR|223|ICAO-KGXA|||||||1009.8||1|FM15-METAR|223|ICAO-KGXA|190|N-Normal|1|FM15-METAR|223|ICAO-KGXA|2.1|N-Normal|1|FM15-METAR|223|ICAO-KGXA|||||||||||||46|Derived||FM15-METAR|223|ICAO-KGXA|||||||||||||||||||||||||||||||||||||||||||||||||||||||||||||||||||||||||1013.5||1|FM15-METAR|223|ICAO-KGXA|||||||||||||||||||||||||||||||||||||||||||MET080METAR KGXA 150655Z AUTO 19004KT 10SM CLR 18/06 A2993 RMK AO2 SLP098 T01810061 $;||F||223|ICAO-KGXA
USI0000KGXA|GRAY BUTTE FLD|2011|09|15|08|00|34.5639|-117.6750|920.5|18.0||1|FM15-METAR|223|ICAO-KGXA|6.0||1|FM15-METAR|223|ICAO-KGXA|||||||1009.3||1|FM15-METAR|223|ICAO-KGXA|210|N-Normal|1|FM15-METAR|223|ICAO-KGXA|2.1|N-Normal|1|FM15-METAR|223|ICAO-KGXA|||||||||||||46|Derived||FM15-METAR|223|ICAO-KGXA|||||||||||||||||||||||||||||||||||||||||||||||||||||||||||||||||||||||||1013.5||1|FM15-METAR|223|ICAO-KGXA|||||||||||||||||||||||||||||||||||||||||||MET080METAR KGXA 150755Z AUTO 21004KT 10SM CLR 18/06 A2993 RMK AO2 SLP093 T01800061 $;||F||223|ICAO-KGXA
USI0000KGXA|GRAY BUTTE FLD|2011|09|15|09|00|34.5639|-117.6750|920.5|17.0||1|FM15-METAR|223|ICAO-KGXA|6.0||1|FM15-METAR|223|ICAO-KGXA|||||||1009.3||1|FM15-METAR|223|ICAO-KGXA|190|N-Normal|1|FM15-METAR|223|ICAO-KGXA|2.1|N-Normal|1|FM15-METAR|223|ICAO-KGXA|||||||||||||49|Derived||FM15-METAR|223|ICAO-KGXA|||||||||||||||||||||||||||||||||||||||||||||||||||||||||||||||||||||||||1013.2||1|FM15-METAR|223|ICAO-KGXA|-0.2|7-Decr-(st|1|FM15-METAR|223|ICAO-KGXA|||||||||||||||||||||||||||||||||||||MET086METAR KGXA 150855Z AUTO 19004KT 10SM CLR 17/06 A2992 RMK AO2 SLP093 T01690064 57002 $;||F||223|ICAO-KGXA
USI0000KGXA|GRAY BUTTE FLD|2011|09|15|10|00|34.5639|-117.6750|920.5|17.0||1|FM15-METAR|223|ICAO-KGXA|6.0||1|FM15-METAR|223|ICAO-KGXA|||||||1009.3||1|FM15-METAR|223|ICAO-KGXA|200|N-Normal|1|FM15-METAR|223|ICAO-KGXA|2.6|N-Normal|1|FM15-METAR|223|ICAO-KGXA|||||||||||||49|Derived||FM15-METAR|223|ICAO-KGXA|||||||||||||||||||||||||||||||||||||||||||||||||||||||||||||||||||||||||1013.2||1|FM15-METAR|223|ICAO-KGXA|||||||||||||||||||||||||||||||||||||||||||MET080METAR KGXA 150955Z AUTO 20005KT 10SM CLR 17/06 A2992 RMK AO2 SLP093 T01680059 $;||F||223|ICAO-KGXA
USI0000KGXA|GRAY BUTTE FLD|2011|09|15|11|00|34.5639|-117.6750|920.5|16.0||1|FM15-METAR|223|ICAO-KGXA|6.0||1|FM15-METAR|223|ICAO-KGXA|||||||1009.4||1|FM15-METAR|223|ICAO-KGXA|200|N-Normal|1|FM15-METAR|223|ICAO-KGXA|2.1|N-Normal|1|FM15-METAR|223|ICAO-KGXA|||||||||||||52|Derived||FM15-METAR|223|ICAO-KGXA|||||||||||||||||||||||||||||||||||||||||||||||||||||||||||||||||||||||||1013.2||1|FM15-METAR|223|ICAO-KGXA|||||||||||||||||||||||||||||||||||||||||||MET076METAR KGXA 151055Z AUTO 20004KT 10SM 16/06 A2992 RMK AO2 SLP094 T01610061 $;||F||223|ICAO-KGXA
USI0000KGXA|GRAY BUTTE FLD|2011|09|15|12|00|34.5639|-117.6750|920.5|16.0||1|FM15-METAR|223|ICAO-KGXA|6.0||1|FM15-METAR|223|ICAO-KGXA|||||||1009.9||1|FM15-METAR|223|ICAO-KGXA|190|N-Normal|1|FM15-METAR|223|ICAO-KGXA|1.5|N-Normal|1|FM15-METAR|223|ICAO-KGXA|||||||||||||52|Derived||FM15-METAR|223|ICAO-KGXA|||||||||||||||||||||||||||||||||||||||||||||||||||||||||||||||||||||||||1013.5||1|FM15-METAR|223|ICAO-KGXA|0.0|4-Steady;-|1|FM15-METAR|223|ICAO-KGXA|||||||||||||||||||||||||||||||||||||MET096METAR KGXA 151155Z AUTO 19003KT 10SM CLR 16/06 A2993 RMK AO2 SLP099 T01590061 10204 20161 54000;||F||223|ICAO-KGXA
USI0000KGXA|GRAY BUTTE FLD|2011|09|15|13|00|34.5639|-117.6750|920.5|16.0||1|FM15-METAR|223|ICAO-KGXA|7.0||1|FM15-METAR|223|ICAO-KGXA|||||||1010.7||1|FM15-METAR|223|ICAO-KGXA|190|N-Normal|1|FM15-METAR|223|ICAO-KGXA|2.1|N-Normal|1|FM15-METAR|223|ICAO-KGXA|||||||||||||55|Derived||FM15-METAR|223|ICAO-KGXA|||||||||||||||||||||||||||||||||||||||||||||||||||||||||||||||||||||||||1013.9||1|FM15-METAR|223|ICAO-KGXA|||||||||||||||||||||||||||||||||||||||||||MET078METAR KGXA 151255Z AUTO 19004KT 10SM CLR 16/07 A2994 RMK AO2 SLP107 T01620065;||F||223|ICAO-KGXA
USI0000KGXA|GRAY BUTTE FLD|2011|09|15|14|00|34.5639|-117.6750|920.5|18.0||1|FM15-METAR|223|ICAO-KGXA|7.0||1|FM15-METAR|223|ICAO-KGXA|||||||1010.6||1|FM15-METAR|223|ICAO-KGXA|210|N-Normal|1|FM15-METAR|223|ICAO-KGXA|1.0|N-Normal|1|FM15-METAR|223|ICAO-KGXA|||||||||||||49|Derived||FM15-METAR|223|ICAO-KGXA|||||||||||||||||||||||||||||||||||||||||||||||||||||||||||||||||||||||||1013.9||1|FM15-METAR|223|ICAO-KGXA|||||||||||||||||||||||||||||||||||||||||||MET091METAR KGXA 151355Z AUTO 21002KT 10SM 18/07 A2994 RMK AO2 SLP106 T01840069 PWINO PNO TSNO $;||F||223|ICAO-KGXA
USI0000KGXA|GRAY BUTTE FLD|2011|09|15|15|00|34.5639|-117.6750|920.5|24.0||1|FM15-METAR|223|ICAO-KGXA|6.0||1|FM15-METAR|223|ICAO-KGXA|||||||1010.6||1|FM15-METAR|223|ICAO-KGXA|310|N-Normal|1|FM15-METAR|223|ICAO-KGXA|2.1|N-Normal|1|FM15-METAR|223|ICAO-KGXA|||||||||||||31|Derived||FM15-METAR|223|ICAO-KGXA|||||||||||||||||||||||||||||||||||||||||||||||||||||||||||||||||||||||||1014.6||1|FM15-METAR|223|ICAO-KGXA|1.0|2-Incr-(st|1|FM15-METAR|223|ICAO-KGXA|||||||||||||||||||||||||||||||||||||MET084METAR KGXA 151455Z AUTO 31004KT 10SM CLR 24/06 A2996 RMK AO2 SLP106 T02390062 52010;||F||223|ICAO-KGXA
USI0000KGXA|GRAY BUTTE FLD|2011|09|15|16|00|34.5639|-117.6750|920.5|26.0||1|FM15-METAR|223|ICAO-KGXA|7.0||1|FM15-METAR|223|ICAO-KGXA|||||||1010.8||1|FM15-METAR|223|ICAO-KGXA|999|V-Variable|9|FM15-METAR|223|ICAO-KGXA|2.1|V-Variable|1|FM15-METAR|223|ICAO-KGXA|||||||||||||30|Derived||FM15-METAR|223|ICAO-KGXA|||||||||||||||||||||||||||||||||||||||||||||||||||||||||||||||||||||||||1014.9||1|FM15-METAR|223|ICAO-KGXA|||||||||||||||||||||||||||||||||||||||||||MET078METAR KGXA 151555Z AUTO VRB04KT 10SM CLR 26/07 A2997 RMK AO2 SLP108 T02550067;||F||223|ICAO-KGXA
USI0000KGXA|GRAY BUTTE FLD|2011|09|15|17|00|34.5639|-117.6750|920.5|28.0||1|FM15-METAR|223|ICAO-KGXA|7.0||1|FM15-METAR|223|ICAO-KGXA|||||||1010.4||1|FM15-METAR|223|ICAO-KGXA|999|V-Variable|9|FM15-METAR|223|ICAO-KGXA|2.1|V-Variable|1|FM15-METAR|223|ICAO-KGXA|||||||||||||26|Derived||FM15-METAR|223|ICAO-KGXA|||||||||||||||||||||||||||||||||||||||||||||||||||||||||||||||||||||||||1014.9||1|FM15-METAR|223|ICAO-KGXA|||||||||||||||||||||||||||||||||||||||||||MET078METAR KGXA 151655Z AUTO VRB04KT 10SM CLR 28/07 A2997 RMK AO2 SLP104 T02820066;||F||223|ICAO-KGXA
USI0000KGXA|GRAY BUTTE FLD|2011|09|15|18|00|34.5639|-117.6750|920.5|29.0||1|FM15-METAR|223|ICAO-KGXA|6.0||1|FM15-METAR|223|ICAO-KGXA|||||||1010.1||1|FM15-METAR|223|ICAO-KGXA|999|V-Variable|9|FM15-METAR|223|ICAO-KGXA|1.5|V-Variable|1|FM15-METAR|223|ICAO-KGXA|||||||||||||23|Derived||FM15-METAR|223|ICAO-KGXA|||||||||||||||||||||||||||||||||||||||||||||||||||||||||||||||||||||||||1014.2||1|FM15-METAR|223|ICAO-KGXA|-0.3|8-Steady-o|1|FM15-METAR|223|ICAO-KGXA|||||||||||||||||||||||||||||||||||||MET096METAR KGXA 151755Z AUTO VRB03KT 10SM CLR 29/06 A2995 RMK AO2 SLP101 T02850055 10283 20156 58003;||F||223|ICAO-KGXA
USI0000KGXA|GRAY BUTTE FLD|2011|09|15|19|00|34.5639|-117.6750|920.5|30.0||1|FM15-METAR|223|ICAO-KGXA|5.0||1|FM15-METAR|223|ICAO-KGXA|||||||1009.5||1|FM15-METAR|223|ICAO-KGXA|999|V-Variable|9|FM15-METAR|223|ICAO-KGXA|1.5|V-Variable|1|FM15-METAR|223|ICAO-KGXA|||||||||||||20|Derived||FM15-METAR|223|ICAO-KGXA|||||||||||||||||||||||||||||||||||||||||||||||||||||||||||||||||||||||||1013.9||1|FM15-METAR|223|ICAO-KGXA|||||||||||||||||||||||||||||||||||||||||||MET078METAR KGXA 151855Z AUTO VRB03KT 10SM CLR 30/05 A2994 RMK AO2 SLP095 T02960046;||F||223|ICAO-KGXA
USI0000KGXA|GRAY BUTTE FLD|2011|09|15|20|00|34.5639|-117.6750|920.5|31.0||1|FM15-METAR|223|ICAO-KGXA|5.0||1|FM15-METAR|223|ICAO-KGXA|||||||1008.3||1|FM15-METAR|223|ICAO-KGXA|999|V-Variable|9|FM15-METAR|223|ICAO-KGXA|2.1|V-Variable|1|FM15-METAR|223|ICAO-KGXA|||||||||||||19|Derived||FM15-METAR|223|ICAO-KGXA|||||||||||||||||||||||||||||||||||||||||||||||||||||||||||||||||||||||||1012.9||1|FM15-METAR|223|ICAO-KGXA|||||||||||||||||||||||||||||||||||||||||||MET078METAR KGXA 151955Z AUTO VRB04KT 10SM CLR 31/05 A2991 RMK AO2 SLP083 T03050047;||F||223|ICAO-KGXA
USI0000KGXA|GRAY BUTTE FLD|2011|09|15|21|00|34.5639|-117.6750|920.5|31.0||1|FM15-METAR|223|ICAO-KGXA|5.0||1|FM15-METAR|223|ICAO-KGXA|||||||1007.7||1|FM15-METAR|223|ICAO-KGXA|320|N-Normal|1|FM15-METAR|223|ICAO-KGXA|5.1|N-Normal|1|FM15-METAR|223|ICAO-KGXA|7.7||1|FM15-METAR|223|ICAO-KGXA|||||||19|Derived||FM15-METAR|223|ICAO-KGXA|||||||||||||||||||||||||||||||||||||||||||||||||||||||||||||||||||||||||1012.2||1|FM15-METAR|223|ICAO-KGXA|-2.0|7-Decr-(st|1|FM15-METAR|223|ICAO-KGXA|||||||||||||||||||||||||||||||||||||MET090METAR KGXA 152055Z AUTO 32010G15KT 10SM FEW210 31/05 A2989 RMK AO2 SLP077 T03100048 57020;||F||223|ICAO-KGXA
USI0000KGXA|GRAY BUTTE FLD|2011|09|15|22|00|34.5639|-117.6750|920.5|30.0||1|FM15-METAR|223|ICAO-KGXA|6.0||1|FM15-METAR|223|ICAO-KGXA|||||||1007.2||1|FM15-METAR|223|ICAO-KGXA|290|N-Normal|1|FM15-METAR|223|ICAO-KGXA|6.7|N-Normal|1|FM15-METAR|223|ICAO-KGXA|10.8||1|FM15-METAR|223|ICAO-KGXA|||||||22|Derived||FM15-METAR|223|ICAO-KGXA|||||||||||||||||||||||||||||||||||||||||||||||||||||||||||||||||||||||||1011.5||1|FM15-METAR|223|ICAO-KGXA|||||||||||||||||||||||||||||||||||||||||||MET084METAR KGXA 152155Z AUTO 29013G21KT 10SM FEW095 30/06 A2987 RMK AO2 SLP072 T03040056;||F||223|ICAO-KGXA
USI0000KGXA|GRAY BUTTE FLD|2011|09|15|23|00|34.5639|-117.6750|920.5|29.0||1|FM15-METAR|223|ICAO-KGXA|7.0||1|FM15-METAR|223|ICAO-KGXA|||||||1007.3||1|FM15-METAR|223|ICAO-KGXA|300|N-Normal|1|FM15-METAR|223|ICAO-KGXA|7.2|N-Normal|1|FM15-METAR|223|ICAO-KGXA|9.8||1|FM15-METAR|223|ICAO-KGXA|||||||25|Derived||FM15-METAR|223|ICAO-KGXA|||||||||||||||||||||||||||||||||||||||||||||||||||||||||||||||||||||||||1011.2||1|FM15-METAR|223|ICAO-KGXA|||||||||||||||||||||||||||||||||||||||||||MET081METAR KGXA 152255Z AUTO 30014G19KT 10SM CLR 29/07 A2986 RMK AO2 SLP073 T02940065;||F||223|ICAO-KGXA
USI0000KGXA|GRAY BUTTE FLD|2011|09|19|15|00|34.5639|-117.6750|920.5|27.0||1|FM15-METAR|223|ICAO-KGXA|1.0||1|FM15-METAR|223|ICAO-KGXA|||||||1015.1||1|FM15-METAR|223|ICAO-KGXA|050|N-Normal|1|FM15-METAR|223|ICAO-KGXA|1.0|N-Normal|1|FM15-METAR|223|ICAO-KGXA|||||||||||||18|Derived||FM15-METAR|223|ICAO-KGXA|||||||||||||||||||||||||||||||||||||||||||||||||||||||||||||||||||||||||1019.6||1|FM15-METAR|223|ICAO-KGXA|0.7|2-Incr-(st|1|FM15-METAR|223|ICAO-KGXA|||||||||||||||||||||||||||||||||||||MET084METAR KGXA 191455Z AUTO 05002KT 10SM CLR 27/01 A3011 RMK AO2 SLP151 T02650012 52007;||F||223|ICAO-KGXA
USI0000KGXA|GRAY BUTTE FLD|2011|09|19|16|00|34.5639|-117.6750|920.5|28.0||1|FM15-METAR|223|ICAO-KGXA|1.0||1|FM15-METAR|223|ICAO-KGXA|||||||1015.8||1|FM15-METAR|223|ICAO-KGXA|999|V-Variable|9|FM15-METAR|223|ICAO-KGXA|1.5|V-Variable|1|FM15-METAR|223|ICAO-KGXA|||||||||||||17|Derived||FM15-METAR|223|ICAO-KGXA|||||||||||||||||||||||||||||||||||||||||||||||||||||||||||||||||||||||||1020.0||1|FM15-METAR|223|ICAO-KGXA|||||||||||||||||||||||||||||||||||||||||||MET078METAR KGXA 191555Z AUTO VRB03KT 10SM CLR 28/01 A3012 RMK AO2 SLP158 T02780014;||F||223|ICAO-KGXA
USI0000KGXA|GRAY BUTTE FLD|2011|09|19|17|00|34.5639|-117.6750|920.5|30.0||1|FM15-METAR|223|ICAO-KGXA|1.0||1|FM15-METAR|223|ICAO-KGXA|||||||1015.2||1|FM15-METAR|223|ICAO-KGXA|010|N-Normal|1|FM15-METAR|223|ICAO-KGXA|2.1|N-Normal|1|FM15-METAR|223|ICAO-KGXA|||||||||||||15|Derived||FM15-METAR|223|ICAO-KGXA|||||||||||||||||||||||||||||||||||||||||||||||||||||||||||||||||||||||||1019.6||1|FM15-METAR|223|ICAO-KGXA|||||||||||||||||||||||||||||||||||||||||||MET078METAR KGXA 191655Z AUTO 01004KT 10SM CLR 30/01 A3011 RMK AO2 SLP152 T03000010;||F||223|ICAO-KGXA
USI0000KGXA|GRAY BUTTE FLD|2011|09|19|18|00|34.5639|-117.6750|920.5|31.0||1|FM15-METAR|223|ICAO-KGXA|2.0||1|FM15-METAR|223|ICAO-KGXA|||||||1014.7||1|FM15-METAR|223|ICAO-KGXA|090|N-Normal|1|FM15-METAR|223|ICAO-KGXA|2.6|N-Normal|1|FM15-METAR|223|ICAO-KGXA|6.2||1|FM15-METAR|223|ICAO-KGXA|||||||16|Derived||FM15-METAR|223|ICAO-KGXA|||||||||||||||||||||||||||||||||||||||||||||||||||||||||||||||||||||||||1019.0||1|FM15-METAR|223|ICAO-KGXA|-0.7|8-Steady-o|1|FM15-METAR|223|ICAO-KGXA|||||||||||||||||||||||||||||||||||||MET099METAR KGXA 191755Z AUTO 09005G12KT 10SM CLR 31/02 A3009 RMK AO2 SLP147 T03140016 10303 20154 58007;||F||223|ICAO-KGXA
USI0000KGXA|GRAY BUTTE FLD|2011|09|19|19|00|34.5639|-117.6750|920.5|32.0||1|FM15-METAR|223|ICAO-KGXA|1.0||1|FM15-METAR|223|ICAO-KGXA|||||||1013.8||1|FM15-METAR|223|ICAO-KGXA|999|V-Variable|9|FM15-METAR|223|ICAO-KGXA|2.6|V-Variable|1|FM15-METAR|223|ICAO-KGXA|||||||||||||14|Derived||FM15-METAR|223|ICAO-KGXA|||||||||||||||||||||||||||||||||||||||||||||||||||||||||||||||||||||||||1018.3||1|FM15-METAR|223|ICAO-KGXA|||||||||||||||||||||||||||||||||||||||||||MET078METAR KGXA 191855Z AUTO VRB05KT 10SM CLR 32/01 A3007 RMK AO2 SLP138 T03230011;||F||223|ICAO-KGXA
USI0000KGXA|GRAY BUTTE FLD|2011|09|19|20|00|34.5639|-117.6750|920.5|33.0||1|FM15-METAR|223|ICAO-KGXA|1.0||1|FM15-METAR|223|ICAO-KGXA|||||||1013.0||1|FM15-METAR|223|ICAO-KGXA|999|V-Variable|9|FM15-METAR|223|ICAO-KGXA|2.1|V-Variable|1|FM15-METAR|223|ICAO-KGXA|||||||||||||13|Derived||FM15-METAR|223|ICAO-KGXA|||||||||||||||||||||||||||||||||||||||||||||||||||||||||||||||||||||||||1017.3||1|FM15-METAR|223|ICAO-KGXA|||||||||||||||||||||||||||||||||||||||||||MET078METAR KGXA 191955Z AUTO VRB04KT 10SM CLR 33/01 A3004 RMK AO2 SLP130 T03260006;||F||223|ICAO-KGXA
USI0000KGXA|GRAY BUTTE FLD|2011|09|19|21|00|34.5639|-117.6750|920.5|33.0||1|FM15-METAR|223|ICAO-KGXA|0.0||1|FM15-METAR|223|ICAO-KGXA|||||||1012.2||1|FM15-METAR|223|ICAO-KGXA|080|N-Normal|1|FM15-METAR|223|ICAO-KGXA|2.1|N-Normal|1|FM15-METAR|223|ICAO-KGXA|6.2||1|FM15-METAR|223|ICAO-KGXA|||||||12|Derived||FM15-METAR|223|ICAO-KGXA|||||||||||||||||||||||||||||||||||||||||||||||||||||||||||||||||||||||||1016.6||1|FM15-METAR|223|ICAO-KGXA|-2.0|7-Decr-(st|1|FM15-METAR|223|ICAO-KGXA|||||||||||||||||||||||||||||||||||||MET087METAR KGXA 192055Z AUTO 08004G12KT 10SM CLR 33/00 A3002 RMK AO2 SLP122 T03291004 57020;||F||223|ICAO-KGXA
USI0000KGXA|GRAY BUTTE FLD|2011|09|19|22|00|34.5639|-117.6750|920.5|33.0||1|FM15-METAR|223|ICAO-KGXA|0.0||1|FM15-METAR|223|ICAO-KGXA|||||||1011.4||1|FM15-METAR|223|ICAO-KGXA|999|V-Variable|9|FM15-METAR|223|ICAO-KGXA|1.5|V-Variable|1|FM15-METAR|223|ICAO-KGXA|||||||||||||12|Derived||FM15-METAR|223|ICAO-KGXA|||||||||||||||||||||||||||||||||||||||||||||||||||||||||||||||||||||||||1015.9||1|FM15-METAR|223|ICAO-KGXA|||||||||||||||||||||||||||||||||||||||||||MET078METAR KGXA 192155Z AUTO VRB03KT 10SM CLR 33/00 A3000 RMK AO2 SLP114 T03341003;||F||223|ICAO-KGXA
USI0000KGXA|GRAY BUTTE FLD|2011|09|19|23|00|34.5639|-117.6750|920.5|33.0||1|FM15-METAR|223|ICAO-KGXA|0.0||1|FM15-METAR|223|ICAO-KGXA|||||||1011.2||1|FM15-METAR|223|ICAO-KGXA|360|N-Normal|1|FM15-METAR|223|ICAO-KGXA|2.1|N-Normal|1|FM15-METAR|223|ICAO-KGXA|||||||||||||12|Derived||FM15-METAR|223|ICAO-KGXA|||||||||||||||||||||||||||||||||||||||||||||||||||||||||||||||||||||||||1015.6||1|FM15-METAR|223|ICAO-KGXA|||||||||||||||||||||||||||||||||||||||||||MET078METAR KGXA 192255Z AUTO 36004KT 10SM CLR 33/00 A2999 RMK AO2 SLP112 T03291005;||F||223|ICAO-KGXA
USI0000KGXA|GRAY BUTTE FLD|2011|09|20|00|00|34.5639|-117.6750|920.5|32.0||1|FM15-METAR|223|ICAO-KGXA|-1.0||1|FM15-METAR|223|ICAO-KGXA|||||||1011.2||1|FM15-METAR|223|ICAO-KGXA|280|N-Normal|1|FM15-METAR|223|ICAO-KGXA|1.5|N-Normal|1|FM15-METAR|223|ICAO-KGXA|||||||||||||12|Derived||FM15-METAR|223|ICAO-KGXA|||||||||||||||||||||||||||||||||||||||||||||||||||||||||||||||||||||||||1015.6||1|FM15-METAR|223|ICAO-KGXA|-1.1|6-Decr,-th|1|FM15-METAR|223|ICAO-KGXA|||||||||||||||||||||||||||||||||||||MET107METAR KGXA 192355Z AUTO 28003KT 10SM CLR 32/M01 A2999 RMK AO2 SLP112 T03241006 10338 20297 403380223 56011;||F||223|ICAO-KGXA
USI0000KGXA|GRAY BUTTE FLD|2011|09|20|01|00|34.5639|-117.6750|920.5|29.0||1|FM15-METAR|223|ICAO-KGXA|4.0||1|FM15-METAR|223|ICAO-KGXA|||||||1011.9||1|FM15-METAR|223|ICAO-KGXA|280|N-Normal|1|FM15-METAR|223|ICAO-KGXA|4.6|N-Normal|1|FM15-METAR|223|ICAO-KGXA|||||||||||||20|Derived||FM15-METAR|223|ICAO-KGXA|||||||||||||||||||||||||||||||||||||||||||||||||||||||||||||||||||||||||1015.6||1|FM15-METAR|223|ICAO-KGXA|||||||||||||||||||||||||||||||||||||||||||MET078METAR KGXA 200055Z AUTO 28009KT 10SM CLR 29/04 A2999 RMK AO2 SLP119 T02870042;||F||223|ICAO-KGXA
USI0000KGXA|GRAY BUTTE FLD|2011|09|20|02|00|34.5639|-117.6750|920.5|26.0||1|FM15-METAR|223|ICAO-KGXA|5.0||1|FM15-METAR|223|ICAO-KGXA|||||||1011.8||1|FM15-METAR|223|ICAO-KGXA|170|N-Normal|1|FM15-METAR|223|ICAO-KGXA|1.5|N-Normal|1|FM15-METAR|223|ICAO-KGXA|||||||||||||26|Derived||FM15-METAR|223|ICAO-KGXA|||||||||||||||||||||||||||||||||||||||||||||||||||||||||||||||||||||||||1016.3||1|FM15-METAR|223|ICAO-KGXA|||||||||||||||||||||||||||||||||||||||||||MET078METAR KGXA 200155Z AUTO 17003KT 10SM CLR 26/05 A3001 RMK AO2 SLP118 T02600047;||F||223|ICAO-KGXA
USI0000KGXA|GRAY BUTTE FLD|2011|09|20|03|00|34.5639|-117.6750|920.5|23.0||1|FM15-METAR|223|ICAO-KGXA|3.0||1|FM15-METAR|223|ICAO-KGXA|||||||1012.1||1|FM15-METAR|223|ICAO-KGXA|150|N-Normal|1|FM15-METAR|223|ICAO-KGXA|1.0|N-Normal|1|FM15-METAR|223|ICAO-KGXA|||||||||||||27|Derived||FM15-METAR|223|ICAO-KGXA|||||||||||||||||||||||||||||||||||||||||||||||||||||||||||||||||||||||||1016.9||1|FM15-METAR|223|ICAO-KGXA|1.1|2-Incr-(st|1|FM15-METAR|223|ICAO-KGXA|||||||||||||||||||||||||||||||||||||MET084METAR KGXA 200255Z AUTO 15002KT 10SM CLR 23/03 A3003 RMK AO2 SLP121 T02300029 52011;||F||223|ICAO-KGXA
USI0000KGXA|GRAY BUTTE FLD|2011|09|20|04|00|34.5639|-117.6750|920.5|21.0||1|FM15-METAR|223|ICAO-KGXA|4.0||1|FM15-METAR|223|ICAO-KGXA|||||||1012.9||1|FM15-METAR|223|ICAO-KGXA|140|N-Normal|1|FM15-METAR|223|ICAO-KGXA|0.5|N-Normal|1|FM15-METAR|223|ICAO-KGXA|||||||||||||33|Derived||FM15-METAR|223|ICAO-KGXA|||||||||||||||||||||||||||||||||||||||||||||||||||||||||||||||||||||||||1017.3||1|FM15-METAR|223|ICAO-KGXA|||||||||||||||||||||||||||||||||||||||||||MET080METAR KGXA 200355Z AUTO 14001KT 10SM CLR 21/04 A3004 RMK AO2 SLP129 T02100038 $;||F||223|ICAO-KGXA
USI0000KGXA|GRAY BUTTE FLD|2011|09|20|05|00|34.5639|-117.6750|920.5|20.0||1|FM15-METAR|223|ICAO-KGXA|4.0||1|FM15-METAR|223|ICAO-KGXA|||||||1012.7||1|FM15-METAR|223|ICAO-KGXA|180|N-Normal|1|FM15-METAR|223|ICAO-KGXA|2.6|N-Normal|1|FM15-METAR|223|ICAO-KGXA|||||||||||||35|Derived||FM15-METAR|223|ICAO-KGXA|||||||||||||||||||||||||||||||||||||||||||||||||||||||||||||||||||||||||1017.3||1|FM15-METAR|223|ICAO-KGXA|||||||||||||||||||||||||||||||||||||||||||MET080METAR KGXA 200455Z AUTO 18005KT 10SM CLR 20/04 A3004 RMK AO2 SLP127 T01960038 $;||F||223|ICAO-KGXA
USI0000KGXA|GRAY BUTTE FLD|2011|09|20|06|00|34.5639|-117.6750|920.5|19.0||1|FM15-METAR|223|ICAO-KGXA|4.0||1|FM15-METAR|223|ICAO-KGXA|||||||1012.3||1|FM15-METAR|223|ICAO-KGXA|180|N-Normal|1|FM15-METAR|223|ICAO-KGXA|2.1|N-Normal|1|FM15-METAR|223|ICAO-KGXA|||||||||||||37|Derived||FM15-METAR|223|ICAO-KGXA|||||||||||||||||||||||||||||||||||||||||||||||||||||||||||||||||||||||||1016.9||1|FM15-METAR|223|ICAO-KGXA|0.2|0-Incr-the|1|FM15-METAR|223|ICAO-KGXA|||||||||||||||||||||||||||||||||||||MET098METAR KGXA 200555Z AUTO 18004KT 10SM CLR 19/04 A3003 RMK AO2 SLP123 T01910035 10332 20196 50002 $;||F||223|ICAO-KGXA
USI0000KGXA|GRAY BUTTE FLD|2011|09|20|07|00|34.5639|-117.6750|920.5|18.0||1|FM15-METAR|223|ICAO-KGXA|3.0||1|FM15-METAR|223|ICAO-KGXA|||||||1012.5||1|FM15-METAR|223|ICAO-KGXA|180|N-Normal|1|FM15-METAR|223|ICAO-KGXA|2.1|N-Normal|1|FM15-METAR|223|ICAO-KGXA|||||||||||||37|Derived||FM15-METAR|223|ICAO-KGXA|||||||||||||||||||||||||||||||||||||||||||||||||||||||||||||||||||||||||1016.9||1|FM15-METAR|223|ICAO-KGXA|||||||||||||||||||||||||||||||||||||||||||MET080METAR KGXA 200655Z AUTO 18004KT 10SM CLR 18/03 A3003 RMK AO2 SLP125 T01750033 $;||F||223|ICAO-KGXA
USI0000KGXA|GRAY BUTTE FLD|2011|09|20|08|00|34.5639|-117.6750|920.5|18.0||1|FM15-METAR|223|ICAO-KGXA|3.0||1|FM15-METAR|223|ICAO-KGXA|||||||1012.1||1|FM15-METAR|223|ICAO-KGXA|170|N-Normal|1|FM15-METAR|223|ICAO-KGXA|3.1|N-Normal|1|FM15-METAR|223|ICAO-KGXA|||||||||||||37|Derived||FM15-METAR|223|ICAO-KGXA|||||||||||||||||||||||||||||||||||||||||||||||||||||||||||||||||||||||||1016.9||1|FM15-METAR|223|ICAO-KGXA|||||||||||||||||||||||||||||||||||||||||||MET080METAR KGXA 200755Z AUTO 17006KT 10SM CLR 18/03 A3003 RMK AO2 SLP121 T01800029 $;||F||223|ICAO-KGXA
USI0000KGXA|GRAY BUTTE FLD|2011|09|20|09|00|34.5639|-117.6750|920.5|18.0||1|FM15-METAR|223|ICAO-KGXA|3.0||1|FM15-METAR|223|ICAO-KGXA|||||||1011.8||1|FM15-METAR|223|ICAO-KGXA|170|N-Normal|1|FM15-METAR|223|ICAO-KGXA|3.1|N-Normal|1|FM15-METAR|223|ICAO-KGXA|||||||||||||37|Derived||FM15-METAR|223|ICAO-KGXA|||||||||||||||||||||||||||||||||||||||||||||||||||||||||||||||||||||||||1016.6||1|FM15-METAR|223|ICAO-KGXA|-0.3|7-Decr-(st|1|FM15-METAR|223|ICAO-KGXA|||||||||||||||||||||||||||||||||||||MET086METAR KGXA 200855Z AUTO 17006KT 10SM CLR 18/03 A3002 RMK AO2 SLP118 T01770029 57003 $;||F||223|ICAO-KGXA
USI0000KGXA|GRAY BUTTE FLD|2011|09|20|10|00|34.5639|-117.6750|920.5|17.0||1|FM15-METAR|223|ICAO-KGXA|3.0||1|FM15-METAR|223|ICAO-KGXA|||||||1011.7||1|FM15-METAR|223|ICAO-KGXA|170|N-Normal|1|FM15-METAR|223|ICAO-KGXA|2.6|N-Normal|1|FM15-METAR|223|ICAO-KGXA|||||||||||||39|Derived||FM15-METAR|223|ICAO-KGXA|||||||||||||||||||||||||||||||||||||||||||||||||||||||||||||||||||||||||1016.3||1|FM15-METAR|223|ICAO-KGXA|||||||||||||||||||||||||||||||||||||||||||MET080METAR KGXA 200955Z AUTO 17005KT 10SM CLR 17/03 A3001 RMK AO2 SLP117 T01650030 $;||F||223|ICAO-KGXA
USI0000KGXA|GRAY BUTTE FLD|2011|09|20|11|00|34.5639|-117.6750|920.5|16.0||1|FM15-METAR|223|ICAO-KGXA|3.0||1|FM15-METAR|223|ICAO-KGXA|||||||1011.9||1|FM15-METAR|223|ICAO-KGXA|170|N-Normal|1|FM15-METAR|223|ICAO-KGXA|2.6|N-Normal|1|FM15-METAR|223|ICAO-KGXA|||||||||||||42|Derived||FM15-METAR|223|ICAO-KGXA|||||||||||||||||||||||||||||||||||||||||||||||||||||||||||||||||||||||||1016.3||1|FM15-METAR|223|ICAO-KGXA|||||||||||||||||||||||||||||||||||||||||||MET076METAR KGXA 201055Z AUTO 17005KT 10SM 16/03 A3001 RMK AO2 SLP119 T01590028 $;||F||223|ICAO-KGXA
USI0000KGXA|GRAY BUTTE FLD|2011|09|20|12|00|34.5639|-117.6750|920.5|16.0||1|FM15-METAR|223|ICAO-KGXA|2.0||1|FM15-METAR|223|ICAO-KGXA|||||||1012.2||1|FM15-METAR|223|ICAO-KGXA|170|N-Normal|1|FM15-METAR|223|ICAO-KGXA|2.1|N-Normal|1|FM15-METAR|223|ICAO-KGXA|||||||||||||39|Derived||FM15-METAR|223|ICAO-KGXA|||||||||||||||||||||||||||||||||||||||||||||||||||||||||||||||||||||||||1016.6||1|FM15-METAR|223|ICAO-KGXA|0.4|2-Incr-(st|1|FM15-METAR|223|ICAO-KGXA|||||||||||||||||||||||||||||||||||||MET096METAR KGXA 201155Z AUTO 17004KT 10SM CLR 16/02 A3002 RMK AO2 SLP122 T01570024 10199 20159 54001;||F||223|ICAO-KGXA
USI0000KGXA|GRAY BUTTE FLD|2011|09|20|13|00|34.5639|-117.6750|920.5|17.0||1|FM15-METAR|223|ICAO-KGXA|2.0||1|FM15-METAR|223|ICAO-KGXA|||||||1013.1||1|FM15-METAR|223|ICAO-KGXA|170|N-Normal|1|FM15-METAR|223|ICAO-KGXA|2.1|N-Normal|1|FM15-METAR|223|ICAO-KGXA|||||||||||||37|Derived||FM15-METAR|223|ICAO-KGXA|||||||||||||||||||||||||||||||||||||||||||||||||||||||||||||||||||||||||1016.9||1|FM15-METAR|223|ICAO-KGXA|||||||||||||||||||||||||||||||||||||||||||MET078METAR KGXA 201255Z AUTO 17004KT 10SM CLR 17/02 A3003 RMK AO2 SLP131 T01680018;||F||223|ICAO-KGXA
USI0000KGXA|GRAY BUTTE FLD|2011|09|20|14|00|34.5639|-117.6750|920.5|22.0||1|FM15-METAR|223|ICAO-KGXA|3.0||1|FM15-METAR|223|ICAO-KGXA|||||||1013.2||1|FM15-METAR|223|ICAO-KGXA|160|N-Normal|1|FM15-METAR|223|ICAO-KGXA|1.0|N-Normal|1|FM15-METAR|223|ICAO-KGXA|||||||||||||29|Derived||FM15-METAR|223|ICAO-KGXA|||||||||||||||||||||||||||||||||||||||||||||||||||||||||||||||||||||||||1017.3||1|FM15-METAR|223|ICAO-KGXA|||||||||||||||||||||||||||||||||||||||||||MET078METAR KGXA 201355Z AUTO 16002KT 10SM CLR 22/03 A3004 RMK AO2 SLP132 T02210027;||F||223|ICAO-KGXA
USI0000KGXA|GRAY BUTTE FLD|2011|09|20|15|00|34.5639|-117.6750|920.5|27.0||1|FM15-METAR|223|ICAO-KGXA|3.0||1|FM15-METAR|223|ICAO-KGXA|||||||1012.9||1|FM15-METAR|223|ICAO-KGXA|999|V-Variable|9|FM15-METAR|223|ICAO-KGXA|1.0|V-Variable|1|FM15-METAR|223|ICAO-KGXA|||||||||||||21|Derived||FM15-METAR|223|ICAO-KGXA|||||||||||||||||||||||||||||||||||||||||||||||||||||||||||||||||||||||||1017.6||1|FM15-METAR|223|ICAO-KGXA|1.0|2-Incr-(st|1|FM15-METAR|223|ICAO-KGXA|||||||||||||||||||||||||||||||||||||MET084METAR KGXA 201455Z AUTO VRB02KT 10SM CLR 27/03 A3005 RMK AO2 SLP129 T02720025 52010;||F||223|ICAO-KGXA
USI0000KGXA|GRAY BUTTE FLD|2011|09|20|16|00|34.5639|-117.6750|920.5|28.0||1|FM15-METAR|223|ICAO-KGXA|3.0||1|FM15-METAR|223|ICAO-KGXA|||||||1013.2||1|FM15-METAR|223|ICAO-KGXA|300|N-Normal|1|FM15-METAR|223|ICAO-KGXA|1.5|N-Normal|1|FM15-METAR|223|ICAO-KGXA|||||||||||||20|Derived||FM15-METAR|223|ICAO-KGXA|||||||||||||||||||||||||||||||||||||||||||||||||||||||||||||||||||||||||1017.6||1|FM15-METAR|223|ICAO-KGXA|||||||||||||||||||||||||||||||||||||||||||MET078METAR KGXA 201555Z AUTO 30003KT 10SM CLR 28/03 A3005 RMK AO2 SLP132 T02820028;||F||223|ICAO-KGXA
USI0000KGXA|GRAY BUTTE FLD|2011|09|20|17|00|34.5639|-117.6750|920.5|30.0||1|FM15-METAR|223|ICAO-KGXA|3.0||1|FM15-METAR|223|ICAO-KGXA|||||||1012.9||1|FM15-METAR|223|ICAO-KGXA|999|V-Variable|9|FM15-METAR|223|ICAO-KGXA|1.5|V-Variable|1|FM15-METAR|223|ICAO-KGXA|||||||||||||18|Derived||FM15-METAR|223|ICAO-KGXA|||||||||||||||||||||||||||||||||||||||||||||||||||||||||||||||||||||||||1017.6||1|FM15-METAR|223|ICAO-KGXA|||||||||||||||||||||||||||||||||||||||||||MET078METAR KGXA 201655Z AUTO VRB03KT 10SM CLR 30/03 A3005 RMK AO2 SLP129 T03000026;||F||223|ICAO-KGXA
USI0000KGXA|GRAY BUTTE FLD|2011|09|20|18|00|34.5639|-117.6750|920.5|32.0||1|FM15-METAR|223|ICAO-KGXA|2.0||1|FM15-METAR|223|ICAO-KGXA|||||||1011.9||1|FM15-METAR|223|ICAO-KGXA|999|V-Variable|9|FM15-METAR|223|ICAO-KGXA|2.1|V-Variable|1|FM15-METAR|223|ICAO-KGXA|||||||||||||15|Derived||FM15-METAR|223|ICAO-KGXA|||||||||||||||||||||||||||||||||||||||||||||||||||||||||||||||||||||||||1016.6||1|FM15-METAR|223|ICAO-KGXA|-0.8|8-Steady-o|1|FM15-METAR|223|ICAO-KGXA|||||||||||||||||||||||||||||||||||||MET096METAR KGXA 201755Z AUTO VRB04KT 10SM CLR 32/02 A3002 RMK AO2 SLP119 T03230020 10303 20152 58008;||F||223|ICAO-KGXA
USI0000KGXA|GRAY BUTTE FLD|2011|09|20|19|00|34.5639|-117.6750|920.5|33.0||1|FM15-METAR|223|ICAO-KGXA|1.0||1|FM15-METAR|223|ICAO-KGXA|||||||1011.1||1|FM15-METAR|223|ICAO-KGXA|160|N-Normal|1|FM15-METAR|223|ICAO-KGXA|1.0|N-Normal|1|FM15-METAR|223|ICAO-KGXA|||||||||||||13|Derived||FM15-METAR|223|ICAO-KGXA|||||||||||||||||||||||||||||||||||||||||||||||||||||||||||||||||||||||||1015.9||1|FM15-METAR|223|ICAO-KGXA|||||||||||||||||||||||||||||||||||||||||||MET078METAR KGXA 201855Z AUTO 16002KT 10SM CLR 33/01 A3000 RMK AO2 SLP111 T03310007;||F||223|ICAO-KGXA
USI0000KGXA|GRAY BUTTE FLD|2011|09|20|20|00|34.5639|-117.6750|920.5|34.0||1|FM15-METAR|223|ICAO-KGXA|0.0||1|FM15-METAR|223|ICAO-KGXA|||||||1010.0||1|FM15-METAR|223|ICAO-KGXA|999|V-Variable|9|FM15-METAR|223|ICAO-KGXA|2.6|V-Variable|1|FM15-METAR|223|ICAO-KGXA|||||||||||||11|Derived||FM15-METAR|223|ICAO-KGXA|||||||||||||||||||||||||||||||||||||||||||||||||||||||||||||||||||||||||1014.9||1|FM15-METAR|223|ICAO-KGXA|||||||||||||||||||||||||||||||||||||||||||MET078METAR KGXA 201955Z AUTO VRB05KT 10SM CLR 34/00 A2997 RMK AO2 SLP100 T03400004;||F||223|ICAO-KGXA
USI0000KGXA|GRAY BUTTE FLD|2011|09|20|21|00|34.5639|-117.6750|920.5|34.0||1|FM15-METAR|223|ICAO-KGXA|-1.0||1|FM15-METAR|223|ICAO-KGXA|||||||1009.4||1|FM15-METAR|223|ICAO-KGXA|999|V-Variable|9|FM15-METAR|223|ICAO-KGXA|1.5|V-Variable|1|FM15-METAR|223|ICAO-KGXA|||||||||||||11|Derived||FM15-METAR|223|ICAO-KGXA|||||||||||||||||||||||||||||||||||||||||||||||||||||||||||||||||||||||||1014.2||1|FM15-METAR|223|ICAO-KGXA|-2.0|7-Decr-(st|1|FM15-METAR|223|ICAO-KGXA|||||||||||||||||||||||||||||||||||||MET085METAR KGXA 202055Z AUTO VRB03KT 10SM CLR 34/M01 A2995 RMK AO2 SLP094 T03351006 57020;||F||223|ICAO-KGXA
USI0000KGXA|GRAY BUTTE FLD|2011|09|20|22|00|34.5639|-117.6750|920.5|34.0||1|FM15-METAR|223|ICAO-KGXA|-3.0||1|FM15-METAR|223|ICAO-KGXA|||||||1009.0||1|FM15-METAR|223|ICAO-KGXA|030|N-Normal|1|FM15-METAR|223|ICAO-KGXA|2.6|N-Normal|1|FM15-METAR|223|ICAO-KGXA|||||||||||||9|Derived||FM15-METAR|223|ICAO-KGXA|||||||||||||||||||||||||||||||||||||||||||||||||||||||||||||||||||||||||1013.9||1|FM15-METAR|223|ICAO-KGXA|||||||||||||||||||||||||||||||||||||||||||MET079METAR KGXA 202155Z AUTO 03005KT 10SM CLR 34/M03 A2994 RMK AO2 SLP090 T03401030;||F||223|ICAO-KGXA
USI0000KGXA|GRAY BUTTE FLD|2011|09|20|23|00|34.5639|-117.6750|920.5|34.0||1|FM15-METAR|223|ICAO-KGXA|-2.0||1|FM15-METAR|223|ICAO-KGXA|||||||1008.7||1|FM15-METAR|223|ICAO-KGXA|999|V-Variable|9|FM15-METAR|223|ICAO-KGXA|0.5|V-Variable|1|FM15-METAR|223|ICAO-KGXA|||||||||||||10|Derived||FM15-METAR|223|ICAO-KGXA|||||||||||||||||||||||||||||||||||||||||||||||||||||||||||||||||||||||||1013.2||1|FM15-METAR|223|ICAO-KGXA|||||||||||||||||||||||||||||||||||||||||||MET081METAR KGXA 202255Z AUTO VRB01KT 10SM CLR 34/M02 A2992 RMK AO2 SLP087 T03401019 $;||F||223|ICAO-KGXA
USI0000KGXA|GRAY BUTTE FLD|2011|09|21|00|00|34.5639|-117.6750|920.5|33.0||1|FM15-METAR|223|ICAO-KGXA|-3.0||1|FM15-METAR|223|ICAO-KGXA|||||||1008.8||1|FM15-METAR|223|ICAO-KGXA|050|N-Normal|1|FM15-METAR|223|ICAO-KGXA|3.1|N-Normal|1|FM15-METAR|223|ICAO-KGXA|||||||||||||10|Derived||FM15-METAR|223|ICAO-KGXA|||||||||||||||||||||||||||||||||||||||||||||||||||||||||||||||||||||||||1013.2||1|FM15-METAR|223|ICAO-KGXA|-1.0|6-Decr,-th|1|FM15-METAR|223|ICAO-KGXA|||||||||||||||||||||||||||||||||||||MET109METAR KGXA 202355Z AUTO 05006KT 10SM CLR 33/M03 A2992 RMK AO2 SLP088 T03311028 10346 20302 403460152 56010 $;||F||223|ICAO-KGXA
USI0000KGXA|GRAY BUTTE FLD|2011|09|21|01|00|34.5639|-117.6750|920.5|29.0||1|FM15-METAR|223|ICAO-KGXA|6.0||1|FM15-METAR|223|ICAO-KGXA|||||||1009.6||1|FM15-METAR|223|ICAO-KGXA|280|N-Normal|1|FM15-METAR|223|ICAO-KGXA|4.1|N-Normal|1|FM15-METAR|223|ICAO-KGXA|||||||||||||23|Derived||FM15-METAR|223|ICAO-KGXA|||||||||||||||||||||||||||||||||||||||||||||||||||||||||||||||||||||||||1013.5||1|FM15-METAR|223|ICAO-KGXA|||||||||||||||||||||||||||||||||||||||||||MET085METAR KGXA 210055Z AUTO 28008KT 10SM CLR 29/06 A2993 RMK AO2 SLP096 T02910056 TSNO $;||F||223|ICAO-KGXA
USI0000KGXA|GRAY BUTTE FLD|2011|09|21|02|00|34.5639|-117.6750|920.5|26.0||1|FM15-METAR|223|ICAO-KGXA|6.0||1|FM15-METAR|223|ICAO-KGXA|||||||1009.6||1|FM15-METAR|223|ICAO-KGXA|999|V-Variable|9|FM15-METAR|223|ICAO-KGXA|2.1|V-Variable|1|FM15-METAR|223|ICAO-KGXA|||||||||||||28|Derived||FM15-METAR|223|ICAO-KGXA|||||||||||||||||||||||||||||||||||||||||||||||||||||||||||||||||||||||||1014.2||1|FM15-METAR|223|ICAO-KGXA|||||||||||||||||||||||||||||||||||||||||||MET080METAR KGXA 210155Z AUTO VRB04KT 10SM CLR 26/06 A2995 RMK AO2 SLP096 T02600060 $;||F||223|ICAO-KGXA
USI0000KGXA|GRAY BUTTE FLD|2011|09|21|03|00|34.5639|-117.6750|920.5|23.0||1|FM15-METAR|223|ICAO-KGXA|6.0||1|FM15-METAR|223|ICAO-KGXA|||||||1010.1||1|FM15-METAR|223|ICAO-KGXA|260|N-Normal|1|FM15-METAR|223|ICAO-KGXA|1.0|N-Normal|1|FM15-METAR|223|ICAO-KGXA|||||||||||||33|Derived||FM15-METAR|223|ICAO-KGXA|||||||||||||||||||||||||||||||||||||||||||||||||||||||||||||||||||||||||1014.9||1|FM15-METAR|223|ICAO-KGXA|1.5|3-Decr-or-|1|FM15-METAR|223|ICAO-KGXA|||||||||||||||||||||||||||||||||||||MET086METAR KGXA 210255Z AUTO 26002KT 10SM CLR 23/06 A2997 RMK AO2 SLP101 T02300055 53015 $;||F||223|ICAO-KGXA
USI0000KGXA|GRAY BUTTE FLD|2011|09|21|04|00|34.5639|-117.6750|920.5|23.0||1|FM15-METAR|223|ICAO-KGXA|5.0||1|FM15-METAR|223|ICAO-KGXA|||||||1010.3||1|FM15-METAR|223|ICAO-KGXA|220|N-Normal|1|FM15-METAR|223|ICAO-KGXA|1.5|N-Normal|1|FM15-METAR|223|ICAO-KGXA|||||||||||||31|Derived||FM15-METAR|223|ICAO-KGXA|||||||||||||||||||||||||||||||||||||||||||||||||||||||||||||||||||||||||1014.9||1|FM15-METAR|223|ICAO-KGXA|||||||||||||||||||||||||||||||||||||||||||MET091METAR KGXA 210355Z AUTO 22003KT 10SM 23/05 A2997 RMK AO2 SLP103 T02250047 PWINO PNO TSNO $;||F||223|ICAO-KGXA
USI0000KGXA|GRAY BUTTE FLD|2011|09|21|15|00|34.5639|-117.6750|920.5|28.0||1|FM15-METAR|223|ICAO-KGXA|4.0||1|FM15-METAR|223|ICAO-KGXA|||||||1011.2||1|FM15-METAR|223|ICAO-KGXA|270|N-Normal|1|FM15-METAR|223|ICAO-KGXA|1.5|N-Normal|1|FM15-METAR|223|ICAO-KGXA|||||||||||||21|Derived||FM15-METAR|223|ICAO-KGXA|||||||||||||||||||||||||||||||||||||||||||||||||||||||||||||||||||||||||1015.9||1|FM15-METAR|223|ICAO-KGXA|1.1|2-Incr-(st|1|FM15-METAR|223|ICAO-KGXA|||||||||||||||||||||||||||||||||||||MET084METAR KGXA 211455Z AUTO 27003KT 10SM CLR 28/04 A3000 RMK AO2 SLP112 T02750035 52011;||F||223|ICAO-KGXA
USI0000KGXA|GRAY BUTTE FLD|2011|09|21|16|00|34.5639|-117.6750|920.5|29.0||1|FM15-METAR|223|ICAO-KGXA|4.0||1|FM15-METAR|223|ICAO-KGXA|||||||1011.6||1|FM15-METAR|223|ICAO-KGXA|999|V-Variable|9|FM15-METAR|223|ICAO-KGXA|1.5|V-Variable|1|FM15-METAR|223|ICAO-KGXA|||||||||||||20|Derived||FM15-METAR|223|ICAO-KGXA|||||||||||||||||||||||||||||||||||||||||||||||||||||||||||||||||||||||||1016.3||1|FM15-METAR|223|ICAO-KGXA|||||||||||||||||||||||||||||||||||||||||||MET078METAR KGXA 211555Z AUTO VRB03KT 10SM CLR 29/04 A3001 RMK AO2 SLP116 T02920038;||F||223|ICAO-KGXA
USI0000KGXA|GRAY BUTTE FLD|2011|09|21|17|00|34.5639|-117.6750|920.5|31.0||1|FM15-METAR|223|ICAO-KGXA|4.0||1|FM15-METAR|223|ICAO-KGXA|||||||1011.3||1|FM15-METAR|223|ICAO-KGXA|999|V-Variable|9|FM15-METAR|223|ICAO-KGXA|1.5|V-Variable|1|FM15-METAR|223|ICAO-KGXA|||||||||||||18|Derived||FM15-METAR|223|ICAO-KGXA|||||||||||||||||||||||||||||||||||||||||||||||||||||||||||||||||||||||||1016.3||1|FM15-METAR|223|ICAO-KGXA|||||||||||||||||||||||||||||||||||||||||||MET078METAR KGXA 211655Z AUTO VRB03KT 10SM CLR 31/04 A3001 RMK AO2 SLP113 T03070037;||F||223|ICAO-KGXA
USI0000KGXA|GRAY BUTTE FLD|2011|09|21|18|00|34.5639|-117.6750|920.5|33.0||1|FM15-METAR|223|ICAO-KGXA|2.0||1|FM15-METAR|223|ICAO-KGXA|||||||1010.8||1|FM15-METAR|223|ICAO-KGXA|999|V-Variable|9|FM15-METAR|223|ICAO-KGXA|1.0|V-Variable|1|FM15-METAR|223|ICAO-KGXA|||||||||||||14|Derived||FM15-METAR|223|ICAO-KGXA|||||||||||||||||||||||||||||||||||||||||||||||||||||||||||||||||||||||||1015.9||1|FM15-METAR|223|ICAO-KGXA|-0.2|8-Steady-o|1|FM15-METAR|223|ICAO-KGXA|||||||||||||||||||||||||||||||||||||MET096METAR KGXA 211755Z AUTO VRB02KT 10SM CLR 33/02 A3000 RMK AO2 SLP108 T03270020 10309 20161 58002;||F||223|ICAO-KGXA
USI0000KGXA|GRAY BUTTE FLD|2011|09|21|19|51|34.5639|-117.6750|920.5|||||||||||||||||||||||||||||||||||||||||||||||||||||||||||||||||||||||||||||||||||||||||||||||||||||||||||||||||||||||||||||||||||||||||||||||||||||||||||||||||||||||||||||||MET054METAR KGXA 211951Z AUTO 10SM RMK AO2 SLPNO PNO TSNO $;||F||223|ICAO-KGXA
USI0000KGXA|GRAY BUTTE FLD|2011|09|21|20|00|34.5639|-117.6750|920.5|34.0||1|FM15-METAR|223|ICAO-KGXA|-4.0||1|FM15-METAR|223|ICAO-KGXA|||||||1009.9||1|FM15-METAR|223|ICAO-KGXA|999|V-Variable|9|FM15-METAR|223|ICAO-KGXA|1.0|V-Variable|1|FM15-METAR|223|ICAO-KGXA|||||||||||||8|Derived||FM15-METAR|223|ICAO-KGXA|||||||||||||||||||||||||||||||||||||||||||||||||||||||||||||||||||||||||1014.9||1|FM15-METAR|223|ICAO-KGXA|||||||||||||||||||||||||||||||||||||||||||MET079METAR KGXA 211955Z AUTO VRB02KT 10SM CLR 34/M04 A2997 RMK AO2 SLP099 T03351042;||F||223|ICAO-KGXA
USI0000KGXA|GRAY BUTTE FLD|2011|10|26|00|14|34.5639|-117.6750|920.5|17.0||1|FM15-METAR|223|ICAO-KGXA|7.0||1|FM15-METAR|223|ICAO-KGXA|||||||1013.1||1|FM15-METAR|223|ICAO-KGXA|310|N-Normal|1|FM15-METAR|223|ICAO-KGXA|6.2|N-Normal|1|FM15-METAR|223|ICAO-KGXA|||||||||||||52|Derived||FM15-METAR|223|ICAO-KGXA|||||||||||||||||||||||||||||||||||||||||||||||||||||||||||||||||||||||||1013.5||1|FM15-METAR|223|ICAO-KGXA|||||||||||||||||||||||||||||||||||||||||||MET074METAR KGXA 260014Z 31012KT 10SM CLR 17/07 A2993 RMK AO2A SLP131 T01720073;||F||223|ICAO-KGXA
USI0000KGXA|GRAY BUTTE FLD|2011|10|26|01|00|34.5639|-117.6750|920.5|16.0||1|FM15-METAR|223|ICAO-KGXA|7.0||1|FM15-METAR|223|ICAO-KGXA|||||||1013.6||1|FM15-METAR|223|ICAO-KGXA|290|N-Normal|1|FM15-METAR|223|ICAO-KGXA|6.7|N-Normal|1|FM15-METAR|223|ICAO-KGXA|||||||||||||55|Derived||FM15-METAR|223|ICAO-KGXA|||||||||||||||||||||||||||||||||||||||||||||||||||||||||||||||||||||||||1013.9||1|FM15-METAR|223|ICAO-KGXA|||||||||||||||||||||||||||||||||||||||||||MET078METAR KGXA 260055Z AUTO 29013KT 10SM CLR 16/07 A2994 RMK AO2 SLP136 T01570073;||F||223|ICAO-KGXA
USI0000KGXA|GRAY BUTTE FLD|2011|10|26|02|00|34.5639|-117.6750|920.5|13.0||1|FM15-METAR|223|ICAO-KGXA|8.0||1|FM15-METAR|223|ICAO-KGXA|||||||1014.6||1|FM15-METAR|223|ICAO-KGXA|270|N-Normal|1|FM15-METAR|223|ICAO-KGXA|5.1|N-Normal|1|FM15-METAR|223|ICAO-KGXA|||||||||||||72|Derived||FM15-METAR|223|ICAO-KGXA|||||||||||||||||||||||||||||||||||||||||||||||||||||||||||||||||||||||||1014.2||1|FM15-METAR|223|ICAO-KGXA|||||||||||||||||||||||||||||||||||||||||||MET078METAR KGXA 260155Z AUTO 27010KT 10SM CLR 13/08 A2995 RMK AO2 SLP146 T01330075;||F||223|ICAO-KGXA
USI0000KGXA|GRAY BUTTE FLD|2011|10|26|03|00|34.5639|-117.6750|920.5|12.0||1|FM15-METAR|223|ICAO-KGXA|7.0||1|FM15-METAR|223|ICAO-KGXA|||||||1014.6||1|FM15-METAR|223|ICAO-KGXA|270|N-Normal|1|FM15-METAR|223|ICAO-KGXA|4.6|N-Normal|1|FM15-METAR|223|ICAO-KGXA|9.3||1|FM15-METAR|223|ICAO-KGXA|||||||72|Derived||FM15-METAR|223|ICAO-KGXA|||||||||||||||||||||||||||||||||||||||||||||||||||||||||||||||||||||||||1014.6||1|FM15-METAR|223|ICAO-KGXA|0.8|2-Incr-(st|1|FM15-METAR|223|ICAO-KGXA|||||||||||||||||||||||||||||||||||||MET087METAR KGXA 260255Z AUTO 27009G18KT 10SM CLR 12/07 A2996 RMK AO2 SLP146 T01240073 52008;||F||223|ICAO-KGXA
USI0000KGXA|GRAY BUTTE FLD|2011|10|26|04|00|34.5639|-117.6750|920.5|11.0||1|FM15-METAR|223|ICAO-KGXA|8.0||1|FM15-METAR|223|ICAO-KGXA|||||||1014.5||1|FM15-METAR|223|ICAO-KGXA|999|V-Variable|9|FM15-METAR|223|ICAO-KGXA|2.6|V-Variable|1|FM15-METAR|223|ICAO-KGXA|||||||||||||82|Derived||FM15-METAR|223|ICAO-KGXA|||||||||||||||||||||||||||||||||||||||||||||||||||||||||||||||||||||||||1014.9||1|FM15-METAR|223|ICAO-KGXA|||||||||||||||||||||||||||||||||||||||||||MET078METAR KGXA 260355Z AUTO VRB05KT 10SM CLR 11/08 A2997 RMK AO2 SLP145 T01130076;||F||223|ICAO-KGXA
USI0000KGXA|GRAY BUTTE FLD|2011|10|26|05|00|34.5639|-117.6750|920.5|12.0||1|FM15-METAR|223|ICAO-KGXA|7.0||1|FM15-METAR|223|ICAO-KGXA|||||||1014.2||1|FM15-METAR|223|ICAO-KGXA|270|N-Normal|1|FM15-METAR|223|ICAO-KGXA|6.7|N-Normal|1|FM15-METAR|223|ICAO-KGXA|11.3||1|FM15-METAR|223|ICAO-KGXA|||||||72|Derived||FM15-METAR|223|ICAO-KGXA|||||||||||||||||||||||||||||||||||||||||||||||||||||||||||||||||||||||||1014.6||1|FM15-METAR|223|ICAO-KGXA|||||||||||||||||||||||||||||||||||||||||||MET081METAR KGXA 260455Z AUTO 27013G22KT 10SM CLR 12/07 A2996 RMK AO2 SLP142 T01240065;||F||223|ICAO-KGXA
USI0000KGXA|GRAY BUTTE FLD|2011|10|26|06|00|34.5639|-117.6750|920.5|13.0||1|FM15-METAR|223|ICAO-KGXA|5.0||1|FM15-METAR|223|ICAO-KGXA|||||||1013.7||1|FM15-METAR|223|ICAO-KGXA|250|N-Normal|1|FM15-METAR|223|ICAO-KGXA|5.7|N-Normal|1|FM15-METAR|223|ICAO-KGXA|8.7||1|FM15-METAR|223|ICAO-KGXA|||||||59|Derived||FM15-METAR|223|ICAO-KGXA|||||||||||||||||||||||||||||||||||||||||||||||||||||||||||||||||||||||||1014.9||1|FM15-METAR|223|ICAO-KGXA|0.4|2-Incr-(st|1|FM15-METAR|223|ICAO-KGXA|||||||||||||||||||||||||||||||||||||MET099METAR KGXA 260555Z AUTO 25011G17KT 10SM CLR 13/05 A2997 RMK AO2 SLP137 T01250054 10229 20178 52004;||F||223|ICAO-KGXA
USI0000KGXA|GRAY BUTTE FLD|2011|10|26|07|00|34.5639|-117.6750|920.5|12.0||1|FM15-METAR|223|ICAO-KGXA|5.0||1|FM15-METAR|223|ICAO-KGXA|||||||1013.5||1|FM15-METAR|223|ICAO-KGXA|260|N-Normal|1|FM15-METAR|223|ICAO-KGXA|6.7|N-Normal|1|FM15-METAR|223|ICAO-KGXA|9.8||1|FM15-METAR|223|ICAO-KGXA|||||||63|Derived||FM15-METAR|223|ICAO-KGXA|||||||||||||||||||||||||||||||||||||||||||||||||||||||||||||||||||||||||1014.9||1|FM15-METAR|223|ICAO-KGXA|||||||||||||||||||||||||||||||||||||||||||MET081METAR KGXA 260655Z AUTO 26013G19KT 10SM CLR 12/05 A2997 RMK AO2 SLP135 T01200052;||F||223|ICAO-KGXA
USI0000KGXA|GRAY BUTTE FLD|2011|10|26|08|00|34.5639|-117.6750|920.5|12.0||1|FM15-METAR|223|ICAO-KGXA|5.0||1|FM15-METAR|223|ICAO-KGXA|||||||1013.5||1|FM15-METAR|223|ICAO-KGXA|260|N-Normal|1|FM15-METAR|223|ICAO-KGXA|6.2|N-Normal|1|FM15-METAR|223|ICAO-KGXA|8.7||1|FM15-METAR|223|ICAO-KGXA|||||||63|Derived||FM15-METAR|223|ICAO-KGXA|||||||||||||||||||||||||||||||||||||||||||||||||||||||||||||||||||||||||1015.2||1|FM15-METAR|223|ICAO-KGXA|||||||||||||||||||||||||||||||||||||||||||MET081METAR KGXA 260755Z AUTO 26012G17KT 10SM CLR 12/05 A2998 RMK AO2 SLP135 T01180048;||F||223|ICAO-KGXA
USI0000KGXA|GRAY BUTTE FLD|2011|10|26|09|00|34.5639|-117.6750|920.5|12.0||1|FM15-METAR|223|ICAO-KGXA|4.0||1|FM15-METAR|223|ICAO-KGXA|||||||1014.1||1|FM15-METAR|223|ICAO-KGXA|250|N-Normal|1|FM15-METAR|223|ICAO-KGXA|4.1|N-Normal|1|FM15-METAR|223|ICAO-KGXA|7.7||1|FM15-METAR|223|ICAO-KGXA|||||||58|Derived||FM15-METAR|223|ICAO-KGXA|||||||||||||||||||||||||||||||||||||||||||||||||||||||||||||||||||||||||1015.9||1|FM15-METAR|223|ICAO-KGXA|0.8|3-Decr-or-|1|FM15-METAR|223|ICAO-KGXA|||||||||||||||||||||||||||||||||||||MET087METAR KGXA 260855Z AUTO 25008G15KT 10SM CLR 12/04 A3000 RMK AO2 SLP141 T01150044 53008;||F||223|ICAO-KGXA
USI0000KGXA|GRAY BUTTE FLD|2011|10|26|10|00|34.5639|-117.6750|920.5|11.0||1|FM15-METAR|223|ICAO-KGXA|4.0||1|FM15-METAR|223|ICAO-KGXA|||||||1014.4||1|FM15-METAR|223|ICAO-KGXA|250|N-Normal|1|FM15-METAR|223|ICAO-KGXA|4.6|N-Normal|1|FM15-METAR|223|ICAO-KGXA|||||||||||||62|Derived||FM15-METAR|223|ICAO-KGXA|||||||||||||||||||||||||||||||||||||||||||||||||||||||||||||||||||||||||1015.9||1|FM15-METAR|223|ICAO-KGXA|||||||||||||||||||||||||||||||||||||||||||MET078METAR KGXA 260955Z AUTO 25009KT 10SM CLR 11/04 A3000 RMK AO2 SLP144 T01100042;||F||223|ICAO-KGXA
USI0000KGXA|GRAY BUTTE FLD|2011|10|26|11|00|34.5639|-117.6750|920.5|11.0||1|FM15-METAR|223|ICAO-KGXA|4.0||1|FM15-METAR|223|ICAO-KGXA|||||||1014.6||1|FM15-METAR|223|ICAO-KGXA|250|N-Normal|1|FM15-METAR|223|ICAO-KGXA|3.1|N-Normal|1|FM15-METAR|223|ICAO-KGXA|||||||||||||62|Derived||FM15-METAR|223|ICAO-KGXA|||||||||||||||||||||||||||||||||||||||||||||||||||||||||||||||||||||||||1015.9||1|FM15-METAR|223|ICAO-KGXA|||||||||||||||||||||||||||||||||||||||||||MET078METAR KGXA 261055Z AUTO 25006KT 10SM CLR 11/04 A3000 RMK AO2 SLP146 T01060040;||F||223|ICAO-KGXA
USI0000KGXA|GRAY BUTTE FLD|2011|10|26|12|00|34.5639|-117.6750|920.5|10.0||1|FM15-METAR|223|ICAO-KGXA|4.0||1|FM15-METAR|223|ICAO-KGXA|||||||1015.3||1|FM15-METAR|223|ICAO-KGXA|250|N-Normal|1|FM15-METAR|223|ICAO-KGXA|2.6|N-Normal|1|FM15-METAR|223|ICAO-KGXA|||||||||||||67|Derived||FM15-METAR|223|ICAO-KGXA|||||||||||||||||||||||||||||||||||||||||||||||||||||||||||||||||||||||||1015.9||1|FM15-METAR|223|ICAO-KGXA|0.2|2-Incr-(st|1|FM15-METAR|223|ICAO-KGXA|||||||||||||||||||||||||||||||||||||MET096METAR KGXA 261155Z AUTO 25005KT 10SM CLR 10/04 A3000 RMK AO2 SLP153 T01030041 10177 20113 52002;||F||223|ICAO-KGXA
USI0000KGXA|GRAY BUTTE FLD|2011|10|26|13|00|34.5639|-117.6750|920.5|9.0||1|FM15-METAR|223|ICAO-KGXA|4.0||1|FM15-METAR|223|ICAO-KGXA|||||||1016.6||1|FM15-METAR|223|ICAO-KGXA|260|N-Normal|1|FM15-METAR|223|ICAO-KGXA|2.6|N-Normal|1|FM15-METAR|223|ICAO-KGXA|||||||||||||71|Derived||FM15-METAR|223|ICAO-KGXA|||||||||||||||||||||||||||||||||||||||||||||||||||||||||||||||||||||||||1016.6||1|FM15-METAR|223|ICAO-KGXA|||||||||||||||||||||||||||||||||||||||||||MET078METAR KGXA 261255Z AUTO 26005KT 10SM CLR 09/04 A3002 RMK AO2 SLP166 T00940039;||F||223|ICAO-KGXA
USI0000KGXA|GRAY BUTTE FLD|2011|10|26|14|00|34.5639|-117.6750|920.5|9.0||1|FM15-METAR|223|ICAO-KGXA|3.0||1|FM15-METAR|223|ICAO-KGXA|||||||1017.8||1|FM15-METAR|223|ICAO-KGXA|260|N-Normal|1|FM15-METAR|223|ICAO-KGXA|1.5|N-Normal|1|FM15-METAR|223|ICAO-KGXA|||||||||||||66|Derived||FM15-METAR|223|ICAO-KGXA|||||||||||||||||||||||||||||||||||||||||||||||||||||||||||||||||||||||||1017.3||1|FM15-METAR|223|ICAO-KGXA|||||||||||||||||||||||||||||||||||||||||||MET081METAR KGXA 261355Z AUTO 26003KT 10SM FEW070 09/03 A3004 RMK AO2 SLP178 T00860034;||F||223|ICAO-KGXA
USI0000KGXA|GRAY BUTTE FLD|2011|10|26|16|00|34.5639|-117.6750|920.5|13.0||1|FM15-METAR|223|ICAO-KGXA|4.0||1|FM15-METAR|223|ICAO-KGXA|||||||1019.0||1|FM15-METAR|223|ICAO-KGXA|280|N-Normal|1|FM15-METAR|223|ICAO-KGXA|4.1|N-Normal|1|FM15-METAR|223|ICAO-KGXA|||||||||||||55|Derived||FM15-METAR|223|ICAO-KGXA|||||||||||||||||||||||||||||||||||||||||||||||||||||||||||||||||||||||||1018.6||1|FM15-METAR|223|ICAO-KGXA|||||||||||||||||||||||||||||||||||||||||||MET078METAR KGXA 261555Z AUTO 28008KT 10SM CLR 13/04 A3008 RMK AO2 SLP190 T01320037;||F||223|ICAO-KGXA
USI0000KGXA|GRAY BUTTE FLD|2011|10|26|17|00|34.5639|-117.6750|920.5|14.0||1|FM15-METAR|223|ICAO-KGXA|1.0||1|FM15-METAR|223|ICAO-KGXA|||||||1019.2||1|FM15-METAR|223|ICAO-KGXA|310|N-Normal|1|FM15-METAR|223|ICAO-KGXA|3.1|N-Normal|1|FM15-METAR|223|ICAO-KGXA|||||||||||||41|Derived||FM15-METAR|223|ICAO-KGXA|||||||||||||||||||||||||||||||||||||||||||||||||||||||||||||||||||||||||1019.3||1|FM15-METAR|223|ICAO-KGXA|||||||||||||||||||||||||||||||||||||||||||MET078METAR KGXA 261655Z AUTO 31006KT 10SM CLR 14/01 A3010 RMK AO2 SLP192 T01430008;||F||223|ICAO-KGXA
USI0000KGXA|GRAY BUTTE FLD|2011|10|26|18|00|34.5639|-117.6750|920.5|16.0||1|FM15-METAR|223|ICAO-KGXA|-4.0||1|FM15-METAR|223|ICAO-KGXA|||||||1019.0||1|FM15-METAR|223|ICAO-KGXA|999|V-Variable|9|FM15-METAR|223|ICAO-KGXA|3.1|V-Variable|1|FM15-METAR|223|ICAO-KGXA|||||||||||||25|Derived||FM15-METAR|223|ICAO-KGXA|||||||||||||||||||||||||||||||||||||||||||||||||||||||||||||||||||||||||1019.6||1|FM15-METAR|223|ICAO-KGXA|1.6|1-Incr-the|1|FM15-METAR|223|ICAO-KGXA|||||||||||||||||||||||||||||||||||||MET097METAR KGXA 261755Z AUTO VRB06KT 10SM CLR 16/M04 A3011 RMK AO2 SLP190 T01621042 10125 20101 51016;||F||223|ICAO-KGXA
USI0000KGXA|GRAY BUTTE FLD|2011|10|26|19|00|34.5639|-117.6750|920.5|18.0||1|FM15-METAR|223|ICAO-KGXA|-9.0||1|FM15-METAR|223|ICAO-KGXA|||||||1018.7||1|FM15-METAR|223|ICAO-KGXA|050|N-Normal|1|FM15-METAR|223|ICAO-KGXA|6.7|N-Normal|1|FM15-METAR|223|ICAO-KGXA|12.3||1|FM15-METAR|223|ICAO-KGXA|||||||15|Derived||FM15-METAR|223|ICAO-KGXA|||||||||||||||||||||||||||||||||||||||||||||||||||||||||||||||||||||||||1019.3||1|FM15-METAR|223|ICAO-KGXA|||||||||||||||||||||||||||||||||||||||||||MET082METAR KGXA 261855Z AUTO 05013G24KT 10SM CLR 18/M09 A3010 RMK AO2 SLP187 T01771091;||F||223|ICAO-KGXA
USI0000KGXA|GRAY BUTTE FLD|2011|10|26|20|00|34.5639|-117.6750|920.5|19.0||1|FM15-METAR|223|ICAO-KGXA|-15.0||1|FM15-METAR|223|ICAO-KGXA|||||||1017.6||1|FM15-METAR|223|ICAO-KGXA|030|N-Normal|1|FM15-METAR|223|ICAO-KGXA|6.2|N-Normal|1|FM15-METAR|223|ICAO-KGXA|9.3||1|FM15-METAR|223|ICAO-KGXA|||||||9|Derived||FM15-METAR|223|ICAO-KGXA|||||||||||||||||||||||||||||||||||||||||||||||||||||||||||||||||||||||||1018.6||1|FM15-METAR|223|ICAO-KGXA|||||||||||||||||||||||||||||||||||||||||||MET089METAR KGXA 261955Z AUTO 03012G18KT 10SM CLR 19/M15 A3008 RMK AO2 SLP176 T01891147 TSNO $;||F||223|ICAO-KGXA
USI0000KGXA|GRAY BUTTE FLD|2011|10|26|21|00|34.5639|-117.6750|920.5|19.0||1|FM15-METAR|223|ICAO-KGXA|-13.0||1|FM15-METAR|223|ICAO-KGXA|||||||1017.4||1|FM15-METAR|223|ICAO-KGXA|030|N-Normal|1|FM15-METAR|223|ICAO-KGXA|3.6|N-Normal|1|FM15-METAR|223|ICAO-KGXA|7.2||1|FM15-METAR|223|ICAO-KGXA|||||||10|Derived||FM15-METAR|223|ICAO-KGXA|||||||||||||||||||||||||||||||||||||||||||||||||||||||||||||||||||||||||1018.3||1|FM15-METAR|223|ICAO-KGXA|-1.1|8-Steady-o|1|FM15-METAR|223|ICAO-KGXA|||||||||||||||||||||||||||||||||||||MET103METAR KGXA 262055Z AUTO 03007G14KT 010V070 10SM CLR 19/M13 A3007 RMK AO2 SLP174 T01891127 58011 TSNO $;||F||223|ICAO-KGXA
USI0000KGXA|GRAY BUTTE FLD|2011|10|26|22|00|34.5639|-117.6750|920.5|19.0||1|FM15-METAR|223|ICAO-KGXA|-19.0||1|FM15-METAR|223|ICAO-KGXA|||||||1017.1||1|FM15-METAR|223|ICAO-KGXA|030|N-Normal|1|FM15-METAR|223|ICAO-KGXA|6.2|N-Normal|1|FM15-METAR|223|ICAO-KGXA|9.3||1|FM15-METAR|223|ICAO-KGXA|||||||6|Derived||FM15-METAR|223|ICAO-KGXA|||||||||||||||||||||||||||||||||||||||||||||||||||||||||||||||||||||||||1018.0||1|FM15-METAR|223|ICAO-KGXA|||||||||||||||||||||||||||||||||||||||||||MET089METAR KGXA 262155Z AUTO 03012G18KT 10SM CLR 19/M19 A3006 RMK AO2 SLP171 T01911187 TSNO $;||F||223|ICAO-KGXA
USI0000KGXA|GRAY BUTTE FLD|2011|10|26|23|00|34.5639|-117.6750|920.5|19.0||1|FM15-METAR|223|ICAO-KGXA|-20.0||1|FM15-METAR|223|ICAO-KGXA|||||||1016.9||1|FM15-METAR|223|ICAO-KGXA|020|N-Normal|1|FM15-METAR|223|ICAO-KGXA|4.6|N-Normal|1|FM15-METAR|223|ICAO-KGXA|8.7||1|FM15-METAR|223|ICAO-KGXA|||||||6|Derived||FM15-METAR|223|ICAO-KGXA|||||||||||||||||||||||||||||||||||||||||||||||||||||||||||||||||||||||||1017.6||1|FM15-METAR|223|ICAO-KGXA|||||||||||||||||||||||||||||||||||||||||||MET089METAR KGXA 262255Z AUTO 02009G17KT 10SM CLR 19/M20 A3005 RMK AO2 SLP169 T01881198 TSNO $;||F||223|ICAO-KGXA
USI0000KGXA|GRAY BUTTE FLD|2011|10|27|00|00|34.5639|-117.6750|920.5|18.0||1|FM15-METAR|223|ICAO-KGXA|-18.0||1|FM15-METAR|223|ICAO-KGXA|||||||1016.9||1|FM15-METAR|223|ICAO-KGXA|060|N-Normal|1|FM15-METAR|223|ICAO-KGXA|4.1|N-Normal|1|FM15-METAR|223|ICAO-KGXA|||||||||||||7|Derived||FM15-METAR|223|ICAO-KGXA|||||||||||||||||||||||||||||||||||||||||||||||||||||||||||||||||||||||||1017.6||1|FM15-METAR|223|ICAO-KGXA|-0.7|7-Decr-(st|1|FM15-METAR|223|ICAO-KGXA|||||||||||||||||||||||||||||||||||||MET114METAR KGXA 262355Z AUTO 06008KT 10SM CLR 18/M18 A3005 RMK AO2 SLP169 T01831180 10169 20085 402100085 57007 TSNO $;||F||223|ICAO-KGXA
USI0000KGXA|GRAY BUTTE FLD|2011|10|27|01|00|34.5639|-117.6750|920.5|16.0||1|FM15-METAR|223|ICAO-KGXA|-17.0||1|FM15-METAR|223|ICAO-KGXA|||||||1017.6||1|FM15-METAR|223|ICAO-KGXA|100|N-Normal|1|FM15-METAR|223|ICAO-KGXA|2.1|N-Normal|1|FM15-METAR|223|ICAO-KGXA|||||||||||||9|Derived||FM15-METAR|223|ICAO-KGXA|||||||||||||||||||||||||||||||||||||||||||||||||||||||||||||||||||||||||1017.6||1|FM15-METAR|223|ICAO-KGXA|||||||||||||||||||||||||||||||||||||||||||MET081METAR KGXA 270055Z AUTO 10004KT 10SM CLR 16/M17 A3005 RMK AO2 SLP176 T01581174 $;||F||223|ICAO-KGXA
USI0000KGXA|GRAY BUTTE FLD|2011|10|27|02|00|34.5639|-117.6750|920.5|11.0||1|FM15-METAR|223|ICAO-KGXA|-18.0||1|FM15-METAR|223|ICAO-KGXA|||||||1019.2||1|FM15-METAR|223|ICAO-KGXA|160|N-Normal|1|FM15-METAR|223|ICAO-KGXA|2.6|N-Normal|1|FM15-METAR|223|ICAO-KGXA|||||||||||||11|Derived||FM15-METAR|223|ICAO-KGXA|||||||||||||||||||||||||||||||||||||||||||||||||||||||||||||||||||||||||1018.3||1|FM15-METAR|223|ICAO-KGXA|||||||||||||||||||||||||||||||||||||||||||MET081METAR KGXA 270155Z AUTO 16005KT 10SM CLR 11/M18 A3007 RMK AO2 SLP192 T01111181 $;||F||223|ICAO-KGXA
USI0000KGXA|GRAY BUTTE FLD|2011|10|27|03|00|34.5639|-117.6750|920.5|9.0||1|FM15-METAR|223|ICAO-KGXA|-18.0||1|FM15-METAR|223|ICAO-KGXA|||||||1019.7||1|FM15-METAR|223|ICAO-KGXA|170|N-Normal|1|FM15-METAR|223|ICAO-KGXA|3.1|N-Normal|1|FM15-METAR|223|ICAO-KGXA|||||||||||||13|Derived||FM15-METAR|223|ICAO-KGXA|||||||||||||||||||||||||||||||||||||||||||||||||||||||||||||||||||||||||1018.6||1|FM15-METAR|223|ICAO-KGXA|1.0|3-Decr-or-|1|FM15-METAR|223|ICAO-KGXA|||||||||||||||||||||||||||||||||||||MET087METAR KGXA 270255Z AUTO 17006KT 10SM CLR 09/M18 A3008 RMK AO2 SLP197 T00931179 53010 $;||F||223|ICAO-KGXA
USI0000KGXA|GRAY BUTTE FLD|2011|10|27|04|00|34.5639|-117.6750|920.5|10.0||1|FM15-METAR|223|ICAO-KGXA|-19.0||1|FM15-METAR|223|ICAO-KGXA|||||||1019.6||1|FM15-METAR|223|ICAO-KGXA|150|N-Normal|1|FM15-METAR|223|ICAO-KGXA|2.6|N-Normal|1|FM15-METAR|223|ICAO-KGXA|||||||||||||11|Derived||FM15-METAR|223|ICAO-KGXA|||||||||||||||||||||||||||||||||||||||||||||||||||||||||||||||||||||||||1019.0||1|FM15-METAR|223|ICAO-KGXA|||||||||||||||||||||||||||||||||||||||||||MET081METAR KGXA 270355Z AUTO 15005KT 10SM CLR 10/M19 A3009 RMK AO2 SLP196 T00971186 $;||F||223|ICAO-KGXA
USI0000KGXA|GRAY BUTTE FLD|2011|10|27|05|00|34.5639|-117.6750|920.5|9.0||1|FM15-METAR|223|ICAO-KGXA|-19.0||1|FM15-METAR|223|ICAO-KGXA|||||||1020.0||1|FM15-METAR|223|ICAO-KGXA|150|N-Normal|1|FM15-METAR|223|ICAO-KGXA|2.1|N-Normal|1|FM15-METAR|223|ICAO-KGXA|||||||||||||12|Derived||FM15-METAR|223|ICAO-KGXA|||||||||||||||||||||||||||||||||||||||||||||||||||||||||||||||||||||||||1019.3||1|FM15-METAR|223|ICAO-KGXA|||||||||||||||||||||||||||||||||||||||||||MET081METAR KGXA 270455Z AUTO 15004KT 10SM CLR 09/M19 A3010 RMK AO2 SLP200 T00861192 $;||F||223|ICAO-KGXA
USI0000KGXA|GRAY BUTTE FLD|2011|10|27|06|00|34.5639|-117.6750|920.5|9.0||1|FM15-METAR|223|ICAO-KGXA|-19.0||1|FM15-METAR|223|ICAO-KGXA|||||||1019.8||1|FM15-METAR|223|ICAO-KGXA|150|N-Normal|1|FM15-METAR|223|ICAO-KGXA|3.1|N-Normal|1|FM15-METAR|223|ICAO-KGXA|||||||||||||12|Derived||FM15-METAR|223|ICAO-KGXA|||||||||||||||||||||||||||||||||||||||||||||||||||||||||||||||||||||||||1019.6||1|FM15-METAR|223|ICAO-KGXA|0.9|2-Incr-(st|1|FM15-METAR|223|ICAO-KGXA|||||||||||||||||||||||||||||||||||||MET099METAR KGXA 270555Z AUTO 15006KT 10SM CLR 09/M19 A3011 RMK AO2 SLP198 T00901192 10196 20170 52009 $;||F||223|ICAO-KGXA
USI0000KGXA|GRAY BUTTE FLD|2011|10|27|07|00|34.5639|-117.6750|920.5|10.0||1|FM15-METAR|223|ICAO-KGXA|-19.0||1|FM15-METAR|223|ICAO-KGXA|||||||1019.2||1|FM15-METAR|223|ICAO-KGXA|150|N-Normal|1|FM15-METAR|223|ICAO-KGXA|3.1|N-Normal|1|FM15-METAR|223|ICAO-KGXA|||||||||||||11|Derived||FM15-METAR|223|ICAO-KGXA|||||||||||||||||||||||||||||||||||||||||||||||||||||||||||||||||||||||||1019.3||1|FM15-METAR|223|ICAO-KGXA|||||||||||||||||||||||||||||||||||||||||||MET081METAR KGXA 270655Z AUTO 15006KT 10SM CLR 10/M19 A3010 RMK AO2 SLP192 T00961192 $;||F||223|ICAO-KGXA
USI0000KGXA|GRAY BUTTE FLD|2011|10|27|08|00|34.5639|-117.6750|920.5|10.0||1|FM15-METAR|223|ICAO-KGXA|-19.0||1|FM15-METAR|223|ICAO-KGXA|||||||1019.0||1|FM15-METAR|223|ICAO-KGXA|160|N-Normal|1|FM15-METAR|223|ICAO-KGXA|3.1|N-Normal|1|FM15-METAR|223|ICAO-KGXA|||||||||||||11|Derived||FM15-METAR|223|ICAO-KGXA|||||||||||||||||||||||||||||||||||||||||||||||||||||||||||||||||||||||||1019.6||1|FM15-METAR|223|ICAO-KGXA|||||||||||||||||||||||||||||||||||||||||||MET081METAR KGXA 270755Z AUTO 16006KT 10SM CLR 10/M19 A3011 RMK AO2 SLP190 T00961191 $;||F||223|ICAO-KGXA
USI0000KGXA|GRAY BUTTE FLD|2011|10|27|09|00|34.5639|-117.6750|920.5|8.0||1|FM15-METAR|223|ICAO-KGXA|-19.0||1|FM15-METAR|223|ICAO-KGXA|||||||1019.3||1|FM15-METAR|223|ICAO-KGXA|140|N-Normal|1|FM15-METAR|223|ICAO-KGXA|2.6|N-Normal|1|FM15-METAR|223|ICAO-KGXA|||||||||||||13|Derived||FM15-METAR|223|ICAO-KGXA|||||||||||||||||||||||||||||||||||||||||||||||||||||||||||||||||||||||||1019.6||1|FM15-METAR|223|ICAO-KGXA|-0.5|7-Decr-(st|1|FM15-METAR|223|ICAO-KGXA|||||||||||||||||||||||||||||||||||||MET087METAR KGXA 270855Z AUTO 14005KT 10SM CLR 08/M19 A3011 RMK AO2 SLP193 T00821190 54001 $;||F||223|ICAO-KGXA
USI0000KGXA|GRAY BUTTE FLD|2011|10|27|10|00|34.5639|-117.6750|920.5|8.0||1|FM15-METAR|223|ICAO-KGXA|-19.0||1|FM15-METAR|223|ICAO-KGXA|||||||1019.3||1|FM15-METAR|223|ICAO-KGXA|150|N-Normal|1|FM15-METAR|223|ICAO-KGXA|2.6|N-Normal|1|FM15-METAR|223|ICAO-KGXA|||||||||||||13|Derived||FM15-METAR|223|ICAO-KGXA|||||||||||||||||||||||||||||||||||||||||||||||||||||||||||||||||||||||||1019.6||1|FM15-METAR|223|ICAO-KGXA|||||||||||||||||||||||||||||||||||||||||||MET081METAR KGXA 270955Z AUTO 15005KT 10SM CLR 08/M19 A3011 RMK AO2 SLP193 T00761186 $;||F||223|ICAO-KGXA
USI0000KGXA|GRAY BUTTE FLD|2011|10|27|11|00|34.5639|-117.6750|920.5|6.0||1|FM15-METAR|223|ICAO-KGXA|-18.0||1|FM15-METAR|223|ICAO-KGXA|||||||1019.5||1|FM15-METAR|223|ICAO-KGXA|160|N-Normal|1|FM15-METAR|223|ICAO-KGXA|2.6|N-Normal|1|FM15-METAR|223|ICAO-KGXA|||||||||||||16|Derived||FM15-METAR|223|ICAO-KGXA|||||||||||||||||||||||||||||||||||||||||||||||||||||||||||||||||||||||||1019.3||1|FM15-METAR|223|ICAO-KGXA|||||||||||||||||||||||||||||||||||||||||||MET077METAR KGXA 271055Z AUTO 16005KT 10SM 06/M18 A3010 RMK AO2 SLP195 T00601180 $;||F||223|ICAO-KGXA
USI0000KGXA|GRAY BUTTE FLD|2011|10|27|12|00|34.5639|-117.6750|920.5|5.0||1|FM15-METAR|223|ICAO-KGXA|-17.0||1|FM15-METAR|223|ICAO-KGXA|||||||1019.9||1|FM15-METAR|223|ICAO-KGXA|160|N-Normal|1|FM15-METAR|223|ICAO-KGXA|2.6|N-Normal|1|FM15-METAR|223|ICAO-KGXA|||||||||||||19|Derived||FM15-METAR|223|ICAO-KGXA|||||||||||||||||||||||||||||||||||||||||||||||||||||||||||||||||||||||||1019.3||1|FM15-METAR|223|ICAO-KGXA|0.6|2-Incr-(st|1|FM15-METAR|223|ICAO-KGXA|||||||||||||||||||||||||||||||||||||MET095METAR KGXA 271155Z AUTO 16005KT 10SM 05/M17 A3010 RMK AO2 SLP199 T00511168 10181 20083 54001 $;||F||223|ICAO-KGXA
USI0000KGXA|GRAY BUTTE FLD|2011|10|27|13|00|34.5639|-117.6750|920.5|6.0||1|FM15-METAR|223|ICAO-KGXA|-16.0||1|FM15-METAR|223|ICAO-KGXA|||||||1020.3||1|FM15-METAR|223|ICAO-KGXA|150|N-Normal|1|FM15-METAR|223|ICAO-KGXA|2.6|N-Normal|1|FM15-METAR|223|ICAO-KGXA|||||||||||||19|Derived||FM15-METAR|223|ICAO-KGXA|||||||||||||||||||||||||||||||||||||||||||||||||||||||||||||||||||||||||1019.6||1|FM15-METAR|223|ICAO-KGXA|||||||||||||||||||||||||||||||||||||||||||MET079METAR KGXA 271255Z AUTO 15005KT 10SM CLR 06/M16 A3011 RMK AO2 SLP203 T00571162;||F||223|ICAO-KGXA
USI0000KGXA|GRAY BUTTE FLD|2011|10|27|14|00|34.5639|-117.6750|920.5|5.0||1|FM15-METAR|223|ICAO-KGXA|-15.0||1|FM15-METAR|223|ICAO-KGXA|||||||1021.5||1|FM15-METAR|223|ICAO-KGXA|150|N-Normal|1|FM15-METAR|223|ICAO-KGXA|2.6|N-Normal|1|FM15-METAR|223|ICAO-KGXA|||||||||||||22|Derived||FM15-METAR|223|ICAO-KGXA|||||||||||||||||||||||||||||||||||||||||||||||||||||||||||||||||||||||||1019.6||1|FM15-METAR|223|ICAO-KGXA|||||||||||||||||||||||||||||||||||||||||||MET079METAR KGXA 271355Z AUTO 15005KT 10SM CLR 05/M15 A3011 RMK AO2 SLP215 T00501154;||F||223|ICAO-KGXA
USI0000KGXA|GRAY BUTTE FLD|2011|10|27|15|00|34.5639|-117.6750|920.5|9.0||1|FM15-METAR|223|ICAO-KGXA|-15.0||1|FM15-METAR|223|ICAO-KGXA|||||||1022.0||1|FM15-METAR|223|ICAO-KGXA|140|N-Normal|1|FM15-METAR|223|ICAO-KGXA|2.1|N-Normal|1|FM15-METAR|223|ICAO-KGXA|||||||||||||17|Derived||FM15-METAR|223|ICAO-KGXA|||||||||||||||||||||||||||||||||||||||||||||||||||||||||||||||||||||||||1020.3||1|FM15-METAR|223|ICAO-KGXA|0.9|3-Decr-or-|1|FM15-METAR|223|ICAO-KGXA|||||||||||||||||||||||||||||||||||||MET085METAR KGXA 271455Z AUTO 14004KT 10SM CLR 09/M15 A3013 RMK AO2 SLP220 T00911152 53009;||F||223|ICAO-KGXA
USI0000KGXA|GRAY BUTTE FLD|2011|10|27|16|00|34.5639|-117.6750|920.5|14.0||1|FM15-METAR|223|ICAO-KGXA|-15.0||1|FM15-METAR|223|ICAO-KGXA|||||||1021.2||1|FM15-METAR|223|ICAO-KGXA|100|N-Normal|1|FM15-METAR|223|ICAO-KGXA|3.1|N-Normal|1|FM15-METAR|223|ICAO-KGXA|||||||||||||12|Derived||FM15-METAR|223|ICAO-KGXA|||||||||||||||||||||||||||||||||||||||||||||||||||||||||||||||||||||||||1020.7||1|FM15-METAR|223|ICAO-KGXA|||||||||||||||||||||||||||||||||||||||||||MET079METAR KGXA 271555Z AUTO 10006KT 10SM CLR 14/M15 A3014 RMK AO2 SLP212 T01411147;||F||223|ICAO-KGXA
USI0000KGXA|GRAY BUTTE FLD|2011|10|27|17|00|34.5639|-117.6750|920.5|15.0||1|FM15-METAR|223|ICAO-KGXA|-15.0||1|FM15-METAR|223|ICAO-KGXA|||||||1021.1||1|FM15-METAR|223|ICAO-KGXA|090|N-Normal|1|FM15-METAR|223|ICAO-KGXA|4.6|N-Normal|1|FM15-METAR|223|ICAO-KGXA|||||||||||||11|Derived||FM15-METAR|223|ICAO-KGXA|||||||||||||||||||||||||||||||||||||||||||||||||||||||||||||||||||||||||1020.7||1|FM15-METAR|223|ICAO-KGXA|||||||||||||||||||||||||||||||||||||||||||MET079METAR KGXA 271655Z AUTO 09009KT 10SM CLR 15/M15 A3014 RMK AO2 SLP211 T01511147;||F||223|ICAO-KGXA
USI0000KGXA|GRAY BUTTE FLD|2011|10|27|18|00|34.5639|-117.6750|920.5|16.0||1|FM15-METAR|223|ICAO-KGXA|-15.0||1|FM15-METAR|223|ICAO-KGXA|||||||1021.1||1|FM15-METAR|223|ICAO-KGXA|060|N-Normal|1|FM15-METAR|223|ICAO-KGXA|4.6|N-Normal|1|FM15-METAR|223|ICAO-KGXA|8.2||1|FM15-METAR|223|ICAO-KGXA|||||||11|Derived||FM15-METAR|223|ICAO-KGXA|||||||||||||||||||||||||||||||||||||||||||||||||||||||||||||||||||||||||1021.0||1|FM15-METAR|223|ICAO-KGXA|0.4|1-Incr-the|1|FM15-METAR|223|ICAO-KGXA|||||||||||||||||||||||||||||||||||||MET100METAR KGXA 271755Z AUTO 06009G16KT 10SM CLR 16/M15 A3015 RMK AO2 SLP211 T01561151 10100 20050 51004;||F||223|ICAO-KGXA
USI0000KGXA|GRAY BUTTE FLD|2011|10|27|19|00|34.5639|-117.6750|920.5|17.0||1|FM15-METAR|223|ICAO-KGXA|-15.0||1|FM15-METAR|223|ICAO-KGXA|||||||1020.3||1|FM15-METAR|223|ICAO-KGXA|070|N-Normal|1|FM15-METAR|223|ICAO-KGXA|4.6|N-Normal|1|FM15-METAR|223|ICAO-KGXA|6.7||1|FM15-METAR|223|ICAO-KGXA|||||||10|Derived||FM15-METAR|223|ICAO-KGXA|||||||||||||||||||||||||||||||||||||||||||||||||||||||||||||||||||||||||1020.3||1|FM15-METAR|223|ICAO-KGXA|||||||||||||||||||||||||||||||||||||||||||MET089METAR KGXA 271855Z AUTO 07009G13KT 10SM CLR 17/M15 A3013 RMK AO2 SLP203 T01711151 TSNO $;||F||223|ICAO-KGXA
USI0000KGXA|GRAY BUTTE FLD|2011|10|27|20|00|34.5639|-117.6750|920.5|17.0||1|FM15-METAR|223|ICAO-KGXA|-16.0||1|FM15-METAR|223|ICAO-KGXA|||||||1019.3||1|FM15-METAR|223|ICAO-KGXA|080|N-Normal|1|FM15-METAR|223|ICAO-KGXA|3.1|N-Normal|1|FM15-METAR|223|ICAO-KGXA|7.7||1|FM15-METAR|223|ICAO-KGXA|||||||9|Derived||FM15-METAR|223|ICAO-KGXA|||||||||||||||||||||||||||||||||||||||||||||||||||||||||||||||||||||||||1019.6||1|FM15-METAR|223|ICAO-KGXA|||||||||||||||||||||||||||||||||||||||||||MET089METAR KGXA 271955Z AUTO 08006G15KT 10SM CLR 17/M16 A3011 RMK AO2 SLP193 T01721157 TSNO $;||F||223|ICAO-KGXA
USI0000KGXA|GRAY BUTTE FLD|2011|10|27|21|00|34.5639|-117.6750|920.5|18.0||1|FM15-METAR|223|ICAO-KGXA|-16.0||1|FM15-METAR|223|ICAO-KGXA|||||||1018.5||1|FM15-METAR|223|ICAO-KGXA|050|N-Normal|1|FM15-METAR|223|ICAO-KGXA|3.6|N-Normal|1|FM15-METAR|223|ICAO-KGXA|||||||||||||8|Derived||FM15-METAR|223|ICAO-KGXA|||||||||||||||||||||||||||||||||||||||||||||||||||||||||||||||||||||||||1018.6||1|FM15-METAR|223|ICAO-KGXA|-2.1|8-Steady-o|1|FM15-METAR|223|ICAO-KGXA|||||||||||||||||||||||||||||||||||||MET092METAR KGXA 272055Z AUTO 05007KT 10SM CLR 18/M16 A3008 RMK AO2 SLP185 T01791161 58021 TSNO $;||F||223|ICAO-KGXA
USI0000KGXA|GRAY BUTTE FLD|2011|10|27|22|00|34.5639|-117.6750|920.5|18.0||1|FM15-METAR|223|ICAO-KGXA|-17.0||1|FM15-METAR|223|ICAO-KGXA|||||||1017.8||1|FM15-METAR|223|ICAO-KGXA|030|N-Normal|1|FM15-METAR|223|ICAO-KGXA|3.1|N-Normal|1|FM15-METAR|223|ICAO-KGXA|||||||||||||8|Derived||FM15-METAR|223|ICAO-KGXA|||||||||||||||||||||||||||||||||||||||||||||||||||||||||||||||||||||||||1018.0||1|FM15-METAR|223|ICAO-KGXA|||||||||||||||||||||||||||||||||||||||||||MET086METAR KGXA 272155Z AUTO 03006KT 10SM CLR 18/M17 A3006 RMK AO2 SLP178 T01821167 TSNO $;||F||223|ICAO-KGXA
USI0000KGXA|GRAY BUTTE FLD|2011|10|27|23|00|34.5639|-117.6750|920.5|19.0||1|FM15-METAR|223|ICAO-KGXA|-17.0||1|FM15-METAR|223|ICAO-KGXA|||||||1017.6||1|FM15-METAR|223|ICAO-KGXA|999|V-Variable|9|FM15-METAR|223|ICAO-KGXA|2.1|V-Variable|1|FM15-METAR|223|ICAO-KGXA|||||||||||||7|Derived||FM15-METAR|223|ICAO-KGXA|||||||||||||||||||||||||||||||||||||||||||||||||||||||||||||||||||||||||1017.6||1|FM15-METAR|223|ICAO-KGXA|||||||||||||||||||||||||||||||||||||||||||MET086METAR KGXA 272255Z AUTO VRB04KT 10SM CLR 19/M17 A3005 RMK AO2 SLP176 T01871170 TSNO $;||F||223|ICAO-KGXA
USI0000KGXA|GRAY BUTTE FLD|2011|10|28|00|00|34.5639|-117.6750|920.5|18.0||1|FM15-METAR|223|ICAO-KGXA|-18.0||1|FM15-METAR|223|ICAO-KGXA|||||||1017.9||1|FM15-METAR|223|ICAO-KGXA|070|N-Normal|1|FM15-METAR|223|ICAO-KGXA|3.1|N-Normal|1|FM15-METAR|223|ICAO-KGXA|||||||||||||7|Derived||FM15-METAR|223|ICAO-KGXA|||||||||||||||||||||||||||||||||||||||||||||||||||||||||||||||||||||||||1017.6||1|FM15-METAR|223|ICAO-KGXA|-0.9|6-Decr,-th|1|FM15-METAR|223|ICAO-KGXA|||||||||||||||||||||||||||||||||||||MET114METAR KGXA 272355Z AUTO 07006KT 10SM CLR 18/M18 A3005 RMK AO2 SLP179 T01801181 10162 20045 401890045 56009 TSNO $;||F||223|ICAO-KGXA
USI0000KGXA|GRAY BUTTE FLD|2011|10|28|01|00|34.5639|-117.6750|920.5|16.0||1|FM15-METAR|223|ICAO-KGXA|-17.0||1|FM15-METAR|223|ICAO-KGXA|||||||1018.6||1|FM15-METAR|223|ICAO-KGXA|060|N-Normal|1|FM15-METAR|223|ICAO-KGXA|1.5|N-Normal|1|FM15-METAR|223|ICAO-KGXA|||||||||||||9|Derived||FM15-METAR|223|ICAO-KGXA|||||||||||||||||||||||||||||||||||||||||||||||||||||||||||||||||||||||||1018.0||1|FM15-METAR|223|ICAO-KGXA|||||||||||||||||||||||||||||||||||||||||||MET079METAR KGXA 280055Z AUTO 06003KT 10SM CLR 16/M17 A3006 RMK AO2 SLP186 T01631167;||F||223|ICAO-KGXA
USI0000KGXA|GRAY BUTTE FLD|2011|10|28|02|00|34.5639|-117.6750|920.5|11.0||1|FM15-METAR|223|ICAO-KGXA|-17.0||1|FM15-METAR|223|ICAO-KGXA|||||||1020.5||1|FM15-METAR|223|ICAO-KGXA|150|N-Normal|1|FM15-METAR|223|ICAO-KGXA|2.1|N-Normal|1|FM15-METAR|223|ICAO-KGXA|||||||||||||12|Derived||FM15-METAR|223|ICAO-KGXA|||||||||||||||||||||||||||||||||||||||||||||||||||||||||||||||||||||||||1018.6||1|FM15-METAR|223|ICAO-KGXA|||||||||||||||||||||||||||||||||||||||||||MET081METAR KGXA 280155Z AUTO 15004KT 10SM CLR 11/M17 A3008 RMK AO2 SLP205 T01131175 $;||F||223|ICAO-KGXA
USI0000KGXA|GRAY BUTTE FLD|2011|10|28|03|00|34.5639|-117.6750|920.5|9.0||1|FM15-METAR|223|ICAO-KGXA|-17.0||1|FM15-METAR|223|ICAO-KGXA|||||||1020.4||1|FM15-METAR|223|ICAO-KGXA|160|N-Normal|1|FM15-METAR|223|ICAO-KGXA|3.1|N-Normal|1|FM15-METAR|223|ICAO-KGXA|||||||||||||14|Derived||FM15-METAR|223|ICAO-KGXA|||||||||||||||||||||||||||||||||||||||||||||||||||||||||||||||||||||||||1019.0||1|FM15-METAR|223|ICAO-KGXA|1.3|2-Incr-(st|1|FM15-METAR|223|ICAO-KGXA|||||||||||||||||||||||||||||||||||||MET087METAR KGXA 280255Z AUTO 16006KT 10SM CLR 09/M17 A3009 RMK AO2 SLP204 T00911169 52013 $;||F||223|ICAO-KGXA
USI0000KGXA|GRAY BUTTE FLD|2011|10|28|04|00|34.5639|-117.6750|920.5|9.0||1|FM15-METAR|223|ICAO-KGXA|-17.0||1|FM15-METAR|223|ICAO-KGXA|||||||1019.9||1|FM15-METAR|223|ICAO-KGXA|160|N-Normal|1|FM15-METAR|223|ICAO-KGXA|3.1|N-Normal|1|FM15-METAR|223|ICAO-KGXA|||||||||||||14|Derived||FM15-METAR|223|ICAO-KGXA|||||||||||||||||||||||||||||||||||||||||||||||||||||||||||||||||||||||||1019.3||1|FM15-METAR|223|ICAO-KGXA|||||||||||||||||||||||||||||||||||||||||||MET092METAR KGXA 280355Z AUTO 16006KT 10SM 09/M17 A3010 RMK AO2 SLP199 T00851168 PWINO PNO TSNO $;||F||223|ICAO-KGXA
USI0000KGXA|GRAY BUTTE FLD|2011|10|31|15|00|34.5639|-117.6750|920.5|12.0||1|FM15-METAR|223|ICAO-KGXA|-10.0||1|FM15-METAR|223|ICAO-KGXA|||||||1018.6||1|FM15-METAR|223|ICAO-KGXA|170|N-Normal|1|FM15-METAR|223|ICAO-KGXA|2.1|N-Normal|1|FM15-METAR|223|ICAO-KGXA|||||||||||||21|Derived||FM15-METAR|223|ICAO-KGXA|||||||||||||||||||||||||||||||||||||||||||||||||||||||||||||||||||||||||1018.6||1|FM15-METAR|223|ICAO-KGXA|-0.1|5-Decr,-th|1|FM15-METAR|223|ICAO-KGXA|||||||||||||||||||||||||||||||||||||MET085METAR KGXA 311455Z AUTO 17004KT 10SM CLR 12/M10 A3008 RMK AO2 SLP186 T01171098 55001;||F||223|ICAO-KGXA
USI0000KGXA|GRAY BUTTE FLD|2011|10|31|16|00|34.5639|-117.6750|920.5|19.0||1|FM15-METAR|223|ICAO-KGXA|-9.0||1|FM15-METAR|223|ICAO-KGXA|||||||1017.7||1|FM15-METAR|223|ICAO-KGXA|190|N-Normal|1|FM15-METAR|223|ICAO-KGXA|0.5|N-Normal|1|FM15-METAR|223|ICAO-KGXA|||||||||||||14|Derived||FM15-METAR|223|ICAO-KGXA|||||||||||||||||||||||||||||||||||||||||||||||||||||||||||||||||||||||||1019.0||1|FM15-METAR|223|ICAO-KGXA|||||||||||||||||||||||||||||||||||||||||||MET079METAR KGXA 311555Z AUTO 19001KT 10SM CLR 19/M09 A3009 RMK AO2 SLP177 T01921090;||F||223|ICAO-KGXA
USI0000KGXA|GRAY BUTTE FLD|2011|10|31|17|00|34.5639|-117.6750|920.5|22.0||1|FM15-METAR|223|ICAO-KGXA|-9.0||1|FM15-METAR|223|ICAO-KGXA|||||||1017.3||1|FM15-METAR|223|ICAO-KGXA|360|N-Normal|1|FM15-METAR|223|ICAO-KGXA|0.5|N-Normal|1|FM15-METAR|223|ICAO-KGXA|||||||||||||12|Derived||FM15-METAR|223|ICAO-KGXA|||||||||||||||||||||||||||||||||||||||||||||||||||||||||||||||||||||||||1019.3||1|FM15-METAR|223|ICAO-KGXA|||||||||||||||||||||||||||||||||||||||||||MET079METAR KGXA 311655Z AUTO 36001KT 10SM CLR 22/M09 A3010 RMK AO2 SLP173 T02221093;||F||223|ICAO-KGXA
USI0000KGXA|GRAY BUTTE FLD|2011|10|31|18|00|34.5639|-117.6750|920.5|23.0||1|FM15-METAR|223|ICAO-KGXA|-9.0||1|FM15-METAR|223|ICAO-KGXA|||||||1017.4||1|FM15-METAR|223|ICAO-KGXA|320|N-Normal|1|FM15-METAR|223|ICAO-KGXA|2.6|N-Normal|1|FM15-METAR|223|ICAO-KGXA|||||||||||||11|Derived||FM15-METAR|223|ICAO-KGXA|||||||||||||||||||||||||||||||||||||||||||||||||||||||||||||||||||||||||1019.3||1|FM15-METAR|223|ICAO-KGXA|0.5|1-Incr-the|1|FM15-METAR|223|ICAO-KGXA|||||||||||||||||||||||||||||||||||||MET104METAR KGXA 311755Z AUTO 32005KT 10SM CLR 23/M09 A3010 RMK AO2 SLP174 T02271090 10122 20085 51005 TSNO $;||F||223|ICAO-KGXA
USI0000KGXA|GRAY BUTTE FLD|2011|10|31|19|00|34.5639|-117.6750|920.5|24.0||1|FM15-METAR|223|ICAO-KGXA|-8.0||1|FM15-METAR|223|ICAO-KGXA|||||||1016.8||1|FM15-METAR|223|ICAO-KGXA|310|N-Normal|1|FM15-METAR|223|ICAO-KGXA|2.6|N-Normal|1|FM15-METAR|223|ICAO-KGXA|||||||||||||11|Derived||FM15-METAR|223|ICAO-KGXA|||||||||||||||||||||||||||||||||||||||||||||||||||||||||||||||||||||||||1018.6||1|FM15-METAR|223|ICAO-KGXA|||||||||||||||||||||||||||||||||||||||||||MET086METAR KGXA 311855Z AUTO 31005KT 10SM CLR 24/M08 A3008 RMK AO2 SLP168 T02401081 TSNO $;||F||223|ICAO-KGXA
USI0000KGXA|GRAY BUTTE FLD|2011|10|31|20|00|34.5639|-117.6750|920.5|25.0||1|FM15-METAR|223|ICAO-KGXA|-9.0||1|FM15-METAR|223|ICAO-KGXA|||||||1015.5||1|FM15-METAR|223|ICAO-KGXA|999|V-Variable|9|FM15-METAR|223|ICAO-KGXA|1.0|V-Variable|1|FM15-METAR|223|ICAO-KGXA|||||||||||||10|Derived||FM15-METAR|223|ICAO-KGXA|||||||||||||||||||||||||||||||||||||||||||||||||||||||||||||||||||||||||1017.6||1|FM15-METAR|223|ICAO-KGXA|||||||||||||||||||||||||||||||||||||||||||MET079METAR KGXA 311955Z AUTO VRB02KT 10SM CLR 25/M09 A3005 RMK AO2 SLP155 T02501086;||F||223|ICAO-KGXA
USI0000KGXA|GRAY BUTTE FLD|2011|10|31|21|00|34.5639|-117.6750|920.5|27.0||1|FM15-METAR|223|ICAO-KGXA|-10.0||1|FM15-METAR|223|ICAO-KGXA|||||||1014.4||1|FM15-METAR|223|ICAO-KGXA|999|V-Variable|9|FM15-METAR|223|ICAO-KGXA|2.6|V-Variable|1|FM15-METAR|223|ICAO-KGXA|||||||||||||8|Derived||FM15-METAR|223|ICAO-KGXA|||||||||||||||||||||||||||||||||||||||||||||||||||||||||||||||||||||||||1016.6||1|FM15-METAR|223|ICAO-KGXA|-2.4|8-Steady-o|1|FM15-METAR|223|ICAO-KGXA|||||||||||||||||||||||||||||||||||||MET085METAR KGXA 312055Z AUTO VRB05KT 10SM CLR 27/M10 A3002 RMK AO2 SLP144 T02651101 58024;||F||223|ICAO-KGXA
USI0000KGXA|GRAY BUTTE FLD|2011|10|31|22|00|34.5639|-117.6750|920.5|28.0||1|FM15-METAR|223|ICAO-KGXA|-11.0||1|FM15-METAR|223|ICAO-KGXA|||||||1013.9||1|FM15-METAR|223|ICAO-KGXA|999|V-Variable|9|FM15-METAR|223|ICAO-KGXA|2.6|V-Variable|1|FM15-METAR|223|ICAO-KGXA|||||||||||||7|Derived||FM15-METAR|223|ICAO-KGXA|||||||||||||||||||||||||||||||||||||||||||||||||||||||||||||||||||||||||1015.9||1|FM15-METAR|223|ICAO-KGXA|||||||||||||||||||||||||||||||||||||||||||MET079METAR KGXA 312155Z AUTO VRB05KT 10SM CLR 28/M11 A3000 RMK AO2 SLP139 T02771113;||F||223|ICAO-KGXA
USI0000KGXA|GRAY BUTTE FLD|2011|10|31|23|00|34.5639|-117.6750|920.5|27.0||1|FM15-METAR|223|ICAO-KGXA|-10.0||1|FM15-METAR|223|ICAO-KGXA|||||||1013.4||1|FM15-METAR|223|ICAO-KGXA|330|N-Normal|1|FM15-METAR|223|ICAO-KGXA|1.0|N-Normal|1|FM15-METAR|223|ICAO-KGXA|||||||||||||8|Derived||FM15-METAR|223|ICAO-KGXA|||||||||||||||||||||||||||||||||||||||||||||||||||||||||||||||||||||||||1015.6||1|FM15-METAR|223|ICAO-KGXA|||||||||||||||||||||||||||||||||||||||||||MET079METAR KGXA 312255Z AUTO 33002KT 10SM CLR 27/M10 A2999 RMK AO2 SLP134 T02721104;||F||223|ICAO-KGXA
USI0000KGXA|GRAY BUTTE FLD|2011|11|01|00|00|34.5639|-117.6750|920.5|26.0||1|FM15-METAR|223|ICAO-KGXA|-9.0||1|FM15-METAR|223|ICAO-KGXA|||||||1013.3||1|FM15-METAR|223|ICAO-KGXA|300|N-Normal|1|FM15-METAR|223|ICAO-KGXA|2.1|N-Normal|1|FM15-METAR|223|ICAO-KGXA|||||||||||||9|Derived||FM15-METAR|223|ICAO-KGXA|||||||||||||||||||||||||||||||||||||||||||||||||||||||||||||||||||||||||1015.2||1|FM15-METAR|223|ICAO-KGXA|-1.1|7-Decr-(st|1|FM15-METAR|223|ICAO-KGXA|||||||||||||||||||||||||||||||||||||MET107METAR KGXA 312355Z AUTO 30004KT 10SM CLR 26/M09 A2998 RMK AO2 SLP133 T02641093 10229 20089 402800089 57011;||F||223|ICAO-KGXA
USI0000KGXA|GRAY BUTTE FLD|2011|11|01|01|00|34.5639|-117.6750|920.5|23.0||1|FM15-METAR|223|ICAO-KGXA|-9.0||1|FM15-METAR|223|ICAO-KGXA|||||||1013.7||1|FM15-METAR|223|ICAO-KGXA|260|N-Normal|1|FM15-METAR|223|ICAO-KGXA|1.0|N-Normal|1|FM15-METAR|223|ICAO-KGXA|||||||||||||11|Derived||FM15-METAR|223|ICAO-KGXA|||||||||||||||||||||||||||||||||||||||||||||||||||||||||||||||||||||||||1015.2||1|FM15-METAR|223|ICAO-KGXA|||||||||||||||||||||||||||||||||||||||||||MET086METAR KGXA 010055Z AUTO 26002KT 10SM CLR 23/M09 A2998 RMK AO2 SLP137 T02321091 TSNO $;||F||223|ICAO-KGXA
USI0000KGXA|GRAY BUTTE FLD|2011|11|01|02|00|34.5639|-117.6750|920.5|20.0||1|FM15-METAR|223|ICAO-KGXA|-7.0||1|FM15-METAR|223|ICAO-KGXA|||||||1014.7||1|FM15-METAR|223|ICAO-KGXA|240|N-Normal|1|FM15-METAR|223|ICAO-KGXA|2.1|N-Normal|1|FM15-METAR|223|ICAO-KGXA|||||||||||||16|Derived||FM15-METAR|223|ICAO-KGXA|||||||||||||||||||||||||||||||||||||||||||||||||||||||||||||||||||||||||1015.6||1|FM15-METAR|223|ICAO-KGXA|||||||||||||||||||||||||||||||||||||||||||MET081METAR KGXA 010155Z AUTO 24004KT 10SM CLR 20/M07 A2999 RMK AO2 SLP147 T02041066 $;||F||223|ICAO-KGXA
USI0000KGXA|GRAY BUTTE FLD|2011|11|01|03|00|34.5639|-117.6750|920.5|16.0||1|FM15-METAR|223|ICAO-KGXA|-8.0||1|FM15-METAR|223|ICAO-KGXA|||||||1015.1||1|FM15-METAR|223|ICAO-KGXA|170|N-Normal|1|FM15-METAR|223|ICAO-KGXA|1.5|N-Normal|1|FM15-METAR|223|ICAO-KGXA|||||||||||||19|Derived||FM15-METAR|223|ICAO-KGXA|||||||||||||||||||||||||||||||||||||||||||||||||||||||||||||||||||||||||1015.6||1|FM15-METAR|223|ICAO-KGXA|0.3|2-Incr-(st|1|FM15-METAR|223|ICAO-KGXA|||||||||||||||||||||||||||||||||||||MET087METAR KGXA 010255Z AUTO 17003KT 10SM CLR 16/M08 A2999 RMK AO2 SLP151 T01601080 52003 $;||F||223|ICAO-KGXA
USI0000KGXA|GRAY BUTTE FLD|2011|11|01|04|00|34.5639|-117.6750|920.5|13.0||1|FM15-METAR|223|ICAO-KGXA|-8.0||1|FM15-METAR|223|ICAO-KGXA|||||||1014.5||1|FM15-METAR|223|ICAO-KGXA|170|N-Normal|1|FM15-METAR|223|ICAO-KGXA|2.1|N-Normal|1|FM15-METAR|223|ICAO-KGXA|||||||||||||23|Derived||FM15-METAR|223|ICAO-KGXA|||||||||||||||||||||||||||||||||||||||||||||||||||||||||||||||||||||||||1015.9||1|FM15-METAR|223|ICAO-KGXA|||||||||||||||||||||||||||||||||||||||||||MET081METAR KGXA 010355Z AUTO 17004KT 10SM CLR 13/M08 A3000 RMK AO2 SLP145 T01311085 $;||F||223|ICAO-KGXA
USI0000KGXA|GRAY BUTTE FLD|2011|11|01|05|00|34.5639|-117.6750|920.5|14.0||1|FM15-METAR|223|ICAO-KGXA|-6.0||1|FM15-METAR|223|ICAO-KGXA|||||||1013.8||1|FM15-METAR|223|ICAO-KGXA|190|N-Normal|1|FM15-METAR|223|ICAO-KGXA|3.1|N-Normal|1|FM15-METAR|223|ICAO-KGXA|||||||||||||25|Derived||FM15-METAR|223|ICAO-KGXA|||||||||||||||||||||||||||||||||||||||||||||||||||||||||||||||||||||||||1015.9||1|FM15-METAR|223|ICAO-KGXA|||||||||||||||||||||||||||||||||||||||||||MET081METAR KGXA 010455Z AUTO 19006KT 10SM CLR 14/M06 A3000 RMK AO2 SLP138 T01391065 $;||F||223|ICAO-KGXA
USI0000KGXA|GRAY BUTTE FLD|2011|11|01|06|00|34.5639|-117.6750|920.5|13.0||1|FM15-METAR|223|ICAO-KGXA|-8.0||1|FM15-METAR|223|ICAO-KGXA|||||||1013.5||1|FM15-METAR|223|ICAO-KGXA|190|N-Normal|1|FM15-METAR|223|ICAO-KGXA|2.6|N-Normal|1|FM15-METAR|223|ICAO-KGXA|||||||||||||23|Derived||FM15-METAR|223|ICAO-KGXA|||||||||||||||||||||||||||||||||||||||||||||||||||||||||||||||||||||||||1015.6||1|FM15-METAR|223|ICAO-KGXA|-1.6|7-Decr-(st|1|FM15-METAR|223|ICAO-KGXA|||||||||||||||||||||||||||||||||||||MET099METAR KGXA 010555Z AUTO 19005KT 10SM CLR 13/M08 A2999 RMK AO2 SLP135 T01331080 10280 20226 54001 $;||F||223|ICAO-KGXA
USI0000KGXA|GRAY BUTTE FLD|2011|11|01|07|00|34.5639|-117.6750|920.5|13.0||1|FM15-METAR|223|ICAO-KGXA|-8.0||1|FM15-METAR|223|ICAO-KGXA|||||||1013.4||1|FM15-METAR|223|ICAO-KGXA|190|N-Normal|1|FM15-METAR|223|ICAO-KGXA|2.6|N-Normal|1|FM15-METAR|223|ICAO-KGXA|||||||||||||23|Derived||FM15-METAR|223|ICAO-KGXA|||||||||||||||||||||||||||||||||||||||||||||||||||||||||||||||||||||||||1015.6||1|FM15-METAR|223|ICAO-KGXA|||||||||||||||||||||||||||||||||||||||||||MET081METAR KGXA 010655Z AUTO 19005KT 10SM CLR 13/M08 A2999 RMK AO2 SLP134 T01251085 $;||F||223|ICAO-KGXA
USI0000KGXA|GRAY BUTTE FLD|2011|11|01|08|00|34.5639|-117.6750|920.5|12.0||1|FM15-METAR|223|ICAO-KGXA|-9.0||1|FM15-METAR|223|ICAO-KGXA|||||||1013.0||1|FM15-METAR|223|ICAO-KGXA|170|N-Normal|1|FM15-METAR|223|ICAO-KGXA|2.6|N-Normal|1|FM15-METAR|223|ICAO-KGXA|||||||||||||22|Derived||FM15-METAR|223|ICAO-KGXA|||||||||||||||||||||||||||||||||||||||||||||||||||||||||||||||||||||||||1015.2||1|FM15-METAR|223|ICAO-KGXA|||||||||||||||||||||||||||||||||||||||||||MET077METAR KGXA 010755Z AUTO 17005KT 10SM 12/M09 A2998 RMK AO2 SLP130 T01151095 $;||F||223|ICAO-KGXA
USI0000KGXA|GRAY BUTTE FLD|2011|11|01|09|00|34.5639|-117.6750|920.5|11.0||1|FM15-METAR|223|ICAO-KGXA|-9.0||1|FM15-METAR|223|ICAO-KGXA|||||||1012.6||1|FM15-METAR|223|ICAO-KGXA|170|N-Normal|1|FM15-METAR|223|ICAO-KGXA|2.6|N-Normal|1|FM15-METAR|223|ICAO-KGXA|||||||||||||24|Derived||FM15-METAR|223|ICAO-KGXA|||||||||||||||||||||||||||||||||||||||||||||||||||||||||||||||||||||||||1014.9||1|FM15-METAR|223|ICAO-KGXA|-0.7|7-Decr-(st|1|FM15-METAR|223|ICAO-KGXA|||||||||||||||||||||||||||||||||||||MET083METAR KGXA 010855Z AUTO 17005KT 10SM 11/M09 A2997 RMK AO2 SLP126 T01051094 57007 $;||F||223|ICAO-KGXA
USI0000KGXA|GRAY BUTTE FLD|2011|11|01|10|00|34.5639|-117.6750|920.5|10.0||1|FM15-METAR|223|ICAO-KGXA|-10.0||1|FM15-METAR|223|ICAO-KGXA|||||||1012.8||1|FM15-METAR|223|ICAO-KGXA|190|N-Normal|1|FM15-METAR|223|ICAO-KGXA|2.1|N-Normal|1|FM15-METAR|223|ICAO-KGXA|||||||||||||24|Derived||FM15-METAR|223|ICAO-KGXA|||||||||||||||||||||||||||||||||||||||||||||||||||||||||||||||||||||||||1014.9||1|FM15-METAR|223|ICAO-KGXA|||||||||||||||||||||||||||||||||||||||||||MET077METAR KGXA 010955Z AUTO 19004KT 10SM 10/M10 A2997 RMK AO2 SLP128 T00971105 $;||F||223|ICAO-KGXA
USI0000KGXA|GRAY BUTTE FLD|2011|11|01|11|00|34.5639|-117.6750|920.5|9.0||1|FM15-METAR|223|ICAO-KGXA|-10.0||1|FM15-METAR|223|ICAO-KGXA|||||||1012.5||1|FM15-METAR|223|ICAO-KGXA|190|N-Normal|1|FM15-METAR|223|ICAO-KGXA|2.1|N-Normal|1|FM15-METAR|223|ICAO-KGXA|||||||||||||25|Derived||FM15-METAR|223|ICAO-KGXA|||||||||||||||||||||||||||||||||||||||||||||||||||||||||||||||||||||||||1014.6||1|FM15-METAR|223|ICAO-KGXA|||||||||||||||||||||||||||||||||||||||||||MET077METAR KGXA 011055Z AUTO 19004KT 10SM 09/M10 A2996 RMK AO2 SLP125 T00931099 $;||F||223|ICAO-KGXA
USI0000KGXA|GRAY BUTTE FLD|2011|11|01|12|00|34.5639|-117.6750|920.5|11.0||1|FM15-METAR|223|ICAO-KGXA|-8.0||1|FM15-METAR|223|ICAO-KGXA|||||||1012.5||1|FM15-METAR|223|ICAO-KGXA|210|N-Normal|1|FM15-METAR|223|ICAO-KGXA|2.1|N-Normal|1|FM15-METAR|223|ICAO-KGXA|||||||||||||26|Derived||FM15-METAR|223|ICAO-KGXA|||||||||||||||||||||||||||||||||||||||||||||||||||||||||||||||||||||||||1014.6||1|FM15-METAR|223|ICAO-KGXA|-0.2|7-Decr-(st|1|FM15-METAR|223|ICAO-KGXA|||||||||||||||||||||||||||||||||||||MET095METAR KGXA 011155Z AUTO 21004KT 10SM 11/M08 A2996 RMK AO2 SLP125 T01061083 10262 20118 57002 $;||F||223|ICAO-KGXA
USI0000KGXA|GRAY BUTTE FLD|2011|11|01|13|00|34.5639|-117.6750|920.5|10.0||1|FM15-METAR|223|ICAO-KGXA|-8.0||1|FM15-METAR|223|ICAO-KGXA|||||||1012.9||1|FM15-METAR|223|ICAO-KGXA|210|N-Normal|1|FM15-METAR|223|ICAO-KGXA|2.1|N-Normal|1|FM15-METAR|223|ICAO-KGXA|||||||||||||28|Derived||FM15-METAR|223|ICAO-KGXA|||||||||||||||||||||||||||||||||||||||||||||||||||||||||||||||||||||||||1014.6||1|FM15-METAR|223|ICAO-KGXA|||||||||||||||||||||||||||||||||||||||||||MET079METAR KGXA 011255Z AUTO 21004KT 10SM CLR 10/M08 A2996 RMK AO2 SLP129 T00991082;||F||223|ICAO-KGXA
USI0000KGXA|GRAY BUTTE FLD|2011|11|01|14|00|34.5639|-117.6750|920.5|10.0||1|FM15-METAR|223|ICAO-KGXA|-8.0||1|FM15-METAR|223|ICAO-KGXA|||||||1013.7||1|FM15-METAR|223|ICAO-KGXA|200|N-Normal|1|FM15-METAR|223|ICAO-KGXA|3.1|N-Normal|1|FM15-METAR|223|ICAO-KGXA|||||||||||||28|Derived||FM15-METAR|223|ICAO-KGXA|||||||||||||||||||||||||||||||||||||||||||||||||||||||||||||||||||||||||1014.6||1|FM15-METAR|223|ICAO-KGXA|||||||||||||||||||||||||||||||||||||||||||MET079METAR KGXA 011355Z AUTO 20006KT 10SM CLR 10/M08 A2996 RMK AO2 SLP137 T00981078;||F||223|ICAO-KGXA
USI0000KGXA|GRAY BUTTE FLD|2011|11|01|15|00|34.5639|-117.6750|920.5|13.0||1|FM15-METAR|223|ICAO-KGXA|-6.0||1|FM15-METAR|223|ICAO-KGXA|||||||1014.1||1|FM15-METAR|223|ICAO-KGXA|220|N-Normal|1|FM15-METAR|223|ICAO-KGXA|3.1|N-Normal|1|FM15-METAR|223|ICAO-KGXA|||||||||||||26|Derived||FM15-METAR|223|ICAO-KGXA|||||||||||||||||||||||||||||||||||||||||||||||||||||||||||||||||||||||||1014.9||1|FM15-METAR|223|ICAO-KGXA|0.2|2-Incr-(st|1|FM15-METAR|223|ICAO-KGXA|||||||||||||||||||||||||||||||||||||MET085METAR KGXA 011455Z AUTO 22006KT 10SM CLR 13/M06 A2997 RMK AO2 SLP141 T01341064 52002;||F||223|ICAO-KGXA
USI0000KGXA|GRAY BUTTE FLD|2011|11|01|16|00|34.5639|-117.6750|920.5|19.0||1|FM15-METAR|223|ICAO-KGXA|-5.0||1|FM15-METAR|223|ICAO-KGXA|||||||1014.2||1|FM15-METAR|223|ICAO-KGXA|260|N-Normal|1|FM15-METAR|223|ICAO-KGXA|3.1|N-Normal|1|FM15-METAR|223|ICAO-KGXA|||||||||||||19|Derived||FM15-METAR|223|ICAO-KGXA|||||||||||||||||||||||||||||||||||||||||||||||||||||||||||||||||||||||||1015.2||1|FM15-METAR|223|ICAO-KGXA|||||||||||||||||||||||||||||||||||||||||||MET079METAR KGXA 011555Z AUTO 26006KT 10SM CLR 19/M05 A2998 RMK AO2 SLP142 T01861053;||F||223|ICAO-KGXA
USI0000KGXA|GRAY BUTTE FLD|2011|11|01|17|00|34.5639|-117.6750|920.5|22.0||1|FM15-METAR|223|ICAO-KGXA|-5.0||1|FM15-METAR|223|ICAO-KGXA|||||||1013.1||1|FM15-METAR|223|ICAO-KGXA|280|N-Normal|1|FM15-METAR|223|ICAO-KGXA|5.1|N-Normal|1|FM15-METAR|223|ICAO-KGXA|||||||||||||16|Derived||FM15-METAR|223|ICAO-KGXA|||||||||||||||||||||||||||||||||||||||||||||||||||||||||||||||||||||||||1015.2||1|FM15-METAR|223|ICAO-KGXA|||||||||||||||||||||||||||||||||||||||||||MET079METAR KGXA 011655Z AUTO 28010KT 10SM CLR 22/M05 A2998 RMK AO2 SLP131 T02181054;||F||223|ICAO-KGXA
USI0000KGXA|GRAY BUTTE FLD|2011|11|01|18|00|34.5639|-117.6750|920.5|22.0||1|FM15-METAR|223|ICAO-KGXA|-3.0||1|FM15-METAR|223|ICAO-KGXA|||||||1013.7||1|FM15-METAR|223|ICAO-KGXA|300|N-Normal|1|FM15-METAR|223|ICAO-KGXA|6.2|N-Normal|1|FM15-METAR|223|ICAO-KGXA|9.8||1|FM15-METAR|223|ICAO-KGXA|||||||19|Derived||FM15-METAR|223|ICAO-KGXA|||||||||||||||||||||||||||||||||||||||||||||||||||||||||||||||||||||||||1015.6||1|FM15-METAR|223|ICAO-KGXA|0.7|1-Incr-the|1|FM15-METAR|223|ICAO-KGXA|||||||||||||||||||||||||||||||||||||MET107METAR KGXA 011755Z AUTO 30012G19KT 10SM CLR 22/M03 A2999 RMK AO2 SLP137 T02201029 10133 20091 51007 TSNO $;||F||223|ICAO-KGXA
USI0000KGXA|GRAY BUTTE FLD|2011|11|01|19|00|34.5639|-117.6750|920.5|23.0||1|FM15-METAR|223|ICAO-KGXA|0.0||1|FM15-METAR|223|ICAO-KGXA|||||||1013.5||1|FM15-METAR|223|ICAO-KGXA|290|N-Normal|1|FM15-METAR|223|ICAO-KGXA|8.2|N-Normal|1|FM15-METAR|223|ICAO-KGXA|10.3||1|FM15-METAR|223|ICAO-KGXA|||||||22|Derived||FM15-METAR|223|ICAO-KGXA|||||||||||||||||||||||||||||||||||||||||||||||||||||||||||||||||||||||||1015.2||1|FM15-METAR|223|ICAO-KGXA|||||||||||||||||||||||||||||||||||||||||||MET088METAR KGXA 011855Z AUTO 29016G20KT 10SM CLR 23/00 A2998 RMK AO2 SLP135 T02271001 TSNO $;||F||223|ICAO-KGXA
USI0000KGXA|GRAY BUTTE FLD|2011|11|01|20|00|34.5639|-117.6750|920.5|24.0||1|FM15-METAR|223|ICAO-KGXA|0.0||1|FM15-METAR|223|ICAO-KGXA|||||||1012.8||1|FM15-METAR|223|ICAO-KGXA|290|N-Normal|1|FM15-METAR|223|ICAO-KGXA|6.7|N-Normal|1|FM15-METAR|223|ICAO-KGXA|9.8||1|FM15-METAR|223|ICAO-KGXA|||||||21|Derived||FM15-METAR|223|ICAO-KGXA|||||||||||||||||||||||||||||||||||||||||||||||||||||||||||||||||||||||||1014.9||1|FM15-METAR|223|ICAO-KGXA|||||||||||||||||||||||||||||||||||||||||||MET088METAR KGXA 011955Z AUTO 29013G19KT 10SM CLR 24/00 A2997 RMK AO2 SLP128 T02361004 TSNO $;||F||223|ICAO-KGXA
USI0000KGXA|GRAY BUTTE FLD|2011|11|01|21|00|34.5639|-117.6750|920.5|25.0||1|FM15-METAR|223|ICAO-KGXA|-4.0||1|FM15-METAR|223|ICAO-KGXA|||||||1012.6||1|FM15-METAR|223|ICAO-KGXA|280|N-Normal|1|FM15-METAR|223|ICAO-KGXA|5.1|N-Normal|1|FM15-METAR|223|ICAO-KGXA|8.2||1|FM15-METAR|223|ICAO-KGXA|||||||14|Derived||FM15-METAR|223|ICAO-KGXA|||||||||||||||||||||||||||||||||||||||||||||||||||||||||||||||||||||||||1014.6||1|FM15-METAR|223|ICAO-KGXA|-1.0|7-Decr-(st|1|FM15-METAR|223|ICAO-KGXA|||||||||||||||||||||||||||||||||||||MET095METAR KGXA 012055Z AUTO 28010G16KT 10SM CLR 25/M04 A2996 RMK AO2 SLP126 T02471040 57010 TSNO $;||F||223|ICAO-KGXA
USI0000KGXA|GRAY BUTTE FLD|2011|11|01|22|00|34.5639|-117.6750|920.5|25.0||1|FM15-METAR|223|ICAO-KGXA|-6.0||1|FM15-METAR|223|ICAO-KGXA|||||||1012.6||1|FM15-METAR|223|ICAO-KGXA|330|N-Normal|1|FM15-METAR|223|ICAO-KGXA|4.1|N-Normal|1|FM15-METAR|223|ICAO-KGXA|8.7||1|FM15-METAR|223|ICAO-KGXA|||||||12|Derived||FM15-METAR|223|ICAO-KGXA|||||||||||||||||||||||||||||||||||||||||||||||||||||||||||||||||||||||||1014.6||1|FM15-METAR|223|ICAO-KGXA|||||||||||||||||||||||||||||||||||||||||||MET089METAR KGXA 012155Z AUTO 33008G17KT 10SM CLR 25/M06 A2996 RMK AO2 SLP126 T02481063 TSNO $;||F||223|ICAO-KGXA
USI0000KGXA|GRAY BUTTE FLD|2011|11|01|23|00|34.5639|-117.6750|920.5|25.0||1|FM15-METAR|223|ICAO-KGXA|-5.0||1|FM15-METAR|223|ICAO-KGXA|||||||1013.2||1|FM15-METAR|223|ICAO-KGXA|360|N-Normal|1|FM15-METAR|223|ICAO-KGXA|4.1|N-Normal|1|FM15-METAR|223|ICAO-KGXA|||||||||||||13|Derived||FM15-METAR|223|ICAO-KGXA|||||||||||||||||||||||||||||||||||||||||||||||||||||||||||||||||||||||||1014.9||1|FM15-METAR|223|ICAO-KGXA|||||||||||||||||||||||||||||||||||||||||||MET086METAR KGXA 012255Z AUTO 36008KT 10SM CLR 25/M05 A2997 RMK AO2 SLP132 T02451050 TSNO $;||F||223|ICAO-KGXA
USI0000KGXA|GRAY BUTTE FLD|2011|11|02|00|00|34.5639|-117.6750|920.5|24.0||1|FM15-METAR|223|ICAO-KGXA|-5.0||1|FM15-METAR|223|ICAO-KGXA|||||||1013.5||1|FM15-METAR|223|ICAO-KGXA|360|N-Normal|1|FM15-METAR|223|ICAO-KGXA|2.6|N-Normal|1|FM15-METAR|223|ICAO-KGXA|||||||||||||14|Derived||FM15-METAR|223|ICAO-KGXA|||||||||||||||||||||||||||||||||||||||||||||||||||||||||||||||||||||||||1015.2||1|FM15-METAR|223|ICAO-KGXA|0.7|3-Decr-or-|1|FM15-METAR|223|ICAO-KGXA|||||||||||||||||||||||||||||||||||||MET114METAR KGXA 012355Z AUTO 36005KT 10SM CLR 24/M05 A2998 RMK AO2 SLP135 T02401046 10224 20095 402630091 53007 TSNO $;||F||223|ICAO-KGXA
USI0000KGXA|GRAY BUTTE FLD|2011|11|02|01|00|34.5639|-117.6750|920.5|21.0||1|FM15-METAR|223|ICAO-KGXA|-7.0||1|FM15-METAR|223|ICAO-KGXA|||||||1015.3||1|FM15-METAR|223|ICAO-KGXA|050|N-Normal|1|FM15-METAR|223|ICAO-KGXA|5.1|N-Normal|1|FM15-METAR|223|ICAO-KGXA|9.8||1|FM15-METAR|223|ICAO-KGXA|||||||15|Derived||FM15-METAR|223|ICAO-KGXA|||||||||||||||||||||||||||||||||||||||||||||||||||||||||||||||||||||||||1016.6||1|FM15-METAR|223|ICAO-KGXA|||||||||||||||||||||||||||||||||||||||||||MET084METAR KGXA 020055Z AUTO 05010G19KT 10SM CLR 21/M07 A3002 RMK AO2 SLP153 T02121069 $;||F||223|ICAO-KGXA
USI0000KGXA|GRAY BUTTE FLD|2011|11|02|02|00|34.5639|-117.6750|920.5|19.0||1|FM15-METAR|223|ICAO-KGXA|-6.0||1|FM15-METAR|223|ICAO-KGXA|||||||1017.2||1|FM15-METAR|223|ICAO-KGXA|060|N-Normal|1|FM15-METAR|223|ICAO-KGXA|4.1|N-Normal|1|FM15-METAR|223|ICAO-KGXA|8.7||1|FM15-METAR|223|ICAO-KGXA|||||||18|Derived||FM15-METAR|223|ICAO-KGXA|||||||||||||||||||||||||||||||||||||||||||||||||||||||||||||||||||||||||1018.0||1|FM15-METAR|223|ICAO-KGXA|||||||||||||||||||||||||||||||||||||||||||MET084METAR KGXA 020155Z AUTO 06008G17KT 10SM CLR 19/M06 A3006 RMK AO2 SLP172 T01901065 $;||F||223|ICAO-KGXA
USI0000KGXA|GRAY BUTTE FLD|2011|11|02|03|00|34.5639|-117.6750|920.5|18.0||1|FM15-METAR|223|ICAO-KGXA|-8.0||1|FM15-METAR|223|ICAO-KGXA|||||||1017.7||1|FM15-METAR|223|ICAO-KGXA|060|N-Normal|1|FM15-METAR|223|ICAO-KGXA|4.6|N-Normal|1|FM15-METAR|223|ICAO-KGXA|||||||||||||16|Derived||FM15-METAR|223|ICAO-KGXA|||||||||||||||||||||||||||||||||||||||||||||||||||||||||||||||||||||||||1019.0||1|FM15-METAR|223|ICAO-KGXA|3.2|2-Incr-(st|1|FM15-METAR|223|ICAO-KGXA|||||||||||||||||||||||||||||||||||||MET087METAR KGXA 020255Z AUTO 06009KT 10SM CLR 18/M08 A3009 RMK AO2 SLP177 T01771085 52032 $;||F||223|ICAO-KGXA
USI0000KGXA|GRAY BUTTE FLD|2011|11|02|04|00|34.5639|-117.6750|920.5|16.0||1|FM15-METAR|223|ICAO-KGXA|-10.0||1|FM15-METAR|223|ICAO-KGXA|||||||1018.4||1|FM15-METAR|223|ICAO-KGXA|120|N-Normal|1|FM15-METAR|223|ICAO-KGXA|3.1|N-Normal|1|FM15-METAR|223|ICAO-KGXA|8.7||1|FM15-METAR|223|ICAO-KGXA|||||||16|Derived||FM15-METAR|223|ICAO-KGXA|||||||||||||||||||||||||||||||||||||||||||||||||||||||||||||||||||||||||1020.3||1|FM15-METAR|223|ICAO-KGXA|||||||||||||||||||||||||||||||||||||||||||MET083METAR KGXA 020355Z AUTO 12006G17KT 8SM CLR 16/M10 A3013 RMK AO2 SLP184 T01631103 $;||F||223|ICAO-KGXA
USI0000KGXA|GRAY BUTTE FLD|2011|11|02|05|00|34.5639|-117.6750|920.5|15.0||1|FM15-METAR|223|ICAO-KGXA|-15.0||1|FM15-METAR|223|ICAO-KGXA|||||||1019.0||1|FM15-METAR|223|ICAO-KGXA|120|N-Normal|1|FM15-METAR|223|ICAO-KGXA|4.1|N-Normal|1|FM15-METAR|223|ICAO-KGXA|||||||||||||11|Derived||FM15-METAR|223|ICAO-KGXA|||||||||||||||||||||||||||||||||||||||||||||||||||||||||||||||||||||||||1021.3||1|FM15-METAR|223|ICAO-KGXA|||||||||||||||||||||||||||||||||||||||||||MET081METAR KGXA 020455Z AUTO 12008KT 10SM CLR 15/M15 A3016 RMK AO2 SLP190 T01501154 $;||F||223|ICAO-KGXA
USI0000KGXA|GRAY BUTTE FLD|2011|11|02|06|00|34.5639|-117.6750|920.5|15.0||1|FM15-METAR|223|ICAO-KGXA|-16.0||1|FM15-METAR|223|ICAO-KGXA|||||||1020.2||1|FM15-METAR|223|ICAO-KGXA|080|N-Normal|1|FM15-METAR|223|ICAO-KGXA|3.6|N-Normal|1|FM15-METAR|223|ICAO-KGXA|||||||||||||10|Derived||FM15-METAR|223|ICAO-KGXA|||||||||||||||||||||||||||||||||||||||||||||||||||||||||||||||||||||||||1022.4||1|FM15-METAR|223|ICAO-KGXA|3.0|2-Incr-(st|1|FM15-METAR|223|ICAO-KGXA|||||||||||||||||||||||||||||||||||||MET099METAR KGXA 020555Z AUTO 08007KT 10SM CLR 15/M16 A3019 RMK AO2 SLP202 T01471165 10256 20222 52030 $;||F||223|ICAO-KGXA
USI0000KGXA|GRAY BUTTE FLD|2011|11|02|07|00|34.5639|-117.6750|920.5|13.0||1|FM15-METAR|223|ICAO-KGXA|-17.0||1|FM15-METAR|223|ICAO-KGXA|||||||1020.8||1|FM15-METAR|223|ICAO-KGXA|090|N-Normal|1|FM15-METAR|223|ICAO-KGXA|3.6|N-Normal|1|FM15-METAR|223|ICAO-KGXA|||||||||||||11|Derived||FM15-METAR|223|ICAO-KGXA|||||||||||||||||||||||||||||||||||||||||||||||||||||||||||||||||||||||||1022.7||1|FM15-METAR|223|ICAO-KGXA|||||||||||||||||||||||||||||||||||||||||||MET081METAR KGXA 020655Z AUTO 09007KT 10SM CLR 13/M17 A3020 RMK AO2 SLP208 T01271172 $;||F||223|ICAO-KGXA
USI0000KGXA|GRAY BUTTE FLD|2011|11|02|08|00|34.5639|-117.6750|920.5|9.0||1|FM15-METAR|223|ICAO-KGXA|-18.0||1|FM15-METAR|223|ICAO-KGXA|||||||1021.9||1|FM15-METAR|223|ICAO-KGXA|140|N-Normal|1|FM15-METAR|223|ICAO-KGXA|2.6|N-Normal|1|FM15-METAR|223|ICAO-KGXA|||||||||||||13|Derived||FM15-METAR|223|ICAO-KGXA|||||||||||||||||||||||||||||||||||||||||||||||||||||||||||||||||||||||||1023.0||1|FM15-METAR|223|ICAO-KGXA|||||||||||||||||||||||||||||||||||||||||||MET081METAR KGXA 020755Z AUTO 14005KT 10SM CLR 09/M18 A3021 RMK AO2 SLP219 T00881180 $;||F||223|ICAO-KGXA
USI0000KGXA|GRAY BUTTE FLD|2011|11|02|09|00|34.5639|-117.6750|920.5|8.0||1|FM15-METAR|223|ICAO-KGXA|-19.0||1|FM15-METAR|223|ICAO-KGXA|||||||1022.4||1|FM15-METAR|223|ICAO-KGXA|140|N-Normal|1|FM15-METAR|223|ICAO-KGXA|2.6|N-Normal|1|FM15-METAR|223|ICAO-KGXA|||||||||||||13|Derived||FM15-METAR|223|ICAO-KGXA|||||||||||||||||||||||||||||||||||||||||||||||||||||||||||||||||||||||||1023.7||1|FM15-METAR|223|ICAO-KGXA|1.4|2-Incr-(st|1|FM15-METAR|223|ICAO-KGXA|||||||||||||||||||||||||||||||||||||MET087METAR KGXA 020855Z AUTO 14005KT 10SM CLR 08/M19 A3023 RMK AO2 SLP224 T00761189 52014 $;||F||223|ICAO-KGXA
USI0000KGXA|GRAY BUTTE FLD|2011|11|02|10|00|34.5639|-117.6750|920.5|7.0||1|FM15-METAR|223|ICAO-KGXA|-20.0||1|FM15-METAR|223|ICAO-KGXA|||||||1022.6||1|FM15-METAR|223|ICAO-KGXA|140|N-Normal|1|FM15-METAR|223|ICAO-KGXA|2.6|N-Normal|1|FM15-METAR|223|ICAO-KGXA|||||||||||||13|Derived||FM15-METAR|223|ICAO-KGXA|||||||||||||||||||||||||||||||||||||||||||||||||||||||||||||||||||||||||1023.7||1|FM15-METAR|223|ICAO-KGXA|||||||||||||||||||||||||||||||||||||||||||MET077METAR KGXA 020955Z AUTO 14005KT 10SM 07/M20 A3023 RMK AO2 SLP226 T00731196 $;||F||223|ICAO-KGXA
USI0000KGXA|GRAY BUTTE FLD|2011|11|02|11|00|34.5639|-117.6750|920.5|6.0||1|FM15-METAR|223|ICAO-KGXA|-20.0||1|FM15-METAR|223|ICAO-KGXA|||||||1023.0||1|FM15-METAR|223|ICAO-KGXA|150|N-Normal|1|FM15-METAR|223|ICAO-KGXA|2.1|N-Normal|1|FM15-METAR|223|ICAO-KGXA|||||||||||||13|Derived||FM15-METAR|223|ICAO-KGXA|||||||||||||||||||||||||||||||||||||||||||||||||||||||||||||||||||||||||1024.0||1|FM15-METAR|223|ICAO-KGXA|||||||||||||||||||||||||||||||||||||||||||MET077METAR KGXA 021055Z AUTO 15004KT 10SM 06/M20 A3024 RMK AO2 SLP230 T00591202 $;||F||223|ICAO-KGXA
USI0000KGXA|GRAY BUTTE FLD|2011|11|02|12|00|34.5639|-117.6750|920.5|4.0||1|FM15-METAR|223|ICAO-KGXA|-20.0||1|FM15-METAR|223|ICAO-KGXA|||||||1024.0||1|FM15-METAR|223|ICAO-KGXA|150|N-Normal|1|FM15-METAR|223|ICAO-KGXA|2.1|N-Normal|1|FM15-METAR|223|ICAO-KGXA|||||||||||||16|Derived||FM15-METAR|223|ICAO-KGXA|||||||||||||||||||||||||||||||||||||||||||||||||||||||||||||||||||||||||1024.4||1|FM15-METAR|223|ICAO-KGXA|0.6|2-Incr-(st|1|FM15-METAR|223|ICAO-KGXA|||||||||||||||||||||||||||||||||||||MET095METAR KGXA 021155Z AUTO 15004KT 10SM 04/M20 A3025 RMK AO2 SLP240 T00381205 10239 20133 52006 $;||F||223|ICAO-KGXA
USI0000KGXA|GRAY BUTTE FLD|2011|11|02|13|00|34.5639|-117.6750|920.5|3.0||1|FM15-METAR|223|ICAO-KGXA|-21.0||1|FM15-METAR|223|ICAO-KGXA|||||||1025.4||1|FM15-METAR|223|ICAO-KGXA|130|N-Normal|1|FM15-METAR|223|ICAO-KGXA|2.1|N-Normal|1|FM15-METAR|223|ICAO-KGXA|||||||||||||15|Derived||FM15-METAR|223|ICAO-KGXA|||||||||||||||||||||||||||||||||||||||||||||||||||||||||||||||||||||||||1025.1||1|FM15-METAR|223|ICAO-KGXA|||||||||||||||||||||||||||||||||||||||||||MET081METAR KGXA 021255Z AUTO 13004KT 10SM CLR 03/M21 A3027 RMK AO2 SLP254 T00311207 $;||F||223|ICAO-KGXA
USI0000KGXA|GRAY BUTTE FLD|2011|11|02|14|00|34.5639|-117.6750|920.5|3.0||1|FM15-METAR|223|ICAO-KGXA|-21.0||1|FM15-METAR|223|ICAO-KGXA|||||||1026.6||1|FM15-METAR|223|ICAO-KGXA|120|N-Normal|1|FM15-METAR|223|ICAO-KGXA|2.1|N-Normal|1|FM15-METAR|223|ICAO-KGXA|||||||||||||15|Derived||FM15-METAR|223|ICAO-KGXA|||||||||||||||||||||||||||||||||||||||||||||||||||||||||||||||||||||||||1025.7||1|FM15-METAR|223|ICAO-KGXA|||||||||||||||||||||||||||||||||||||||||||MET079METAR KGXA 021355Z AUTO 12004KT 10SM CLR 03/M21 A3029 RMK AO2 SLP266 T00331212;||F||223|ICAO-KGXA
USI0000KGXA|GRAY BUTTE FLD|2011|11|02|15|00|34.5639|-117.6750|920.5|7.0||1|FM15-METAR|223|ICAO-KGXA|-21.0||1|FM15-METAR|223|ICAO-KGXA|||||||1027.2||1|FM15-METAR|223|ICAO-KGXA|120|N-Normal|1|FM15-METAR|223|ICAO-KGXA|2.6|N-Normal|1|FM15-METAR|223|ICAO-KGXA|||||||||||||12|Derived||FM15-METAR|223|ICAO-KGXA|||||||||||||||||||||||||||||||||||||||||||||||||||||||||||||||||||||||||1026.8||1|FM15-METAR|223|ICAO-KGXA|2.2|2-Incr-(st|1|FM15-METAR|223|ICAO-KGXA|||||||||||||||||||||||||||||||||||||MET085METAR KGXA 021455Z AUTO 12005KT 10SM CLR 07/M21 A3032 RMK AO2 SLP272 T00701211 52022;||F||223|ICAO-KGXA
USI0000KGXA|GRAY BUTTE FLD|2011|11|02|16|00|34.5639|-117.6750|920.5|11.0||1|FM15-METAR|223|ICAO-KGXA|-21.0||1|FM15-METAR|223|ICAO-KGXA|||||||1027.4||1|FM15-METAR|223|ICAO-KGXA|090|N-Normal|1|FM15-METAR|223|ICAO-KGXA|4.6|N-Normal|1|FM15-METAR|223|ICAO-KGXA|||||||||||||9|Derived||FM15-METAR|223|ICAO-KGXA|||||||||||||||||||||||||||||||||||||||||||||||||||||||||||||||||||||||||1027.4||1|FM15-METAR|223|ICAO-KGXA|||||||||||||||||||||||||||||||||||||||||||MET079METAR KGXA 021555Z AUTO 09009KT 10SM CLR 11/M21 A3034 RMK AO2 SLP274 T01051207;||F||223|ICAO-KGXA
USI0000KGXA|GRAY BUTTE FLD|2011|11|02|17|00|34.5639|-117.6750|920.5|12.0||1|FM15-METAR|223|ICAO-KGXA|-19.0||1|FM15-METAR|223|ICAO-KGXA|||||||1027.4||1|FM15-METAR|223|ICAO-KGXA|110|N-Normal|1|FM15-METAR|223|ICAO-KGXA|4.1|N-Normal|1|FM15-METAR|223|ICAO-KGXA|7.7||1|FM15-METAR|223|ICAO-KGXA|||||||10|Derived||FM15-METAR|223|ICAO-KGXA|||||||||||||||||||||||||||||||||||||||||||||||||||||||||||||||||||||||||1027.4||1|FM15-METAR|223|ICAO-KGXA|||||||||||||||||||||||||||||||||||||||||||MET082METAR KGXA 021655Z AUTO 11008G15KT 10SM CLR 12/M19 A3034 RMK AO2 SLP274 T01191195;||F||223|ICAO-KGXA
USI0000KGXA|GRAY BUTTE FLD|2011|11|02|18|00|34.5639|-117.6750|920.5|13.0||1|FM15-METAR|223|ICAO-KGXA|-19.0||1|FM15-METAR|223|ICAO-KGXA|||||||1027.1||1|FM15-METAR|223|ICAO-KGXA|090|N-Normal|1|FM15-METAR|223|ICAO-KGXA|5.7|N-Normal|1|FM15-METAR|223|ICAO-KGXA|8.7||1|FM15-METAR|223|ICAO-KGXA|||||||9|Derived||FM15-METAR|223|ICAO-KGXA|||||||||||||||||||||||||||||||||||||||||||||||||||||||||||||||||||||||||1027.4||1|FM15-METAR|223|ICAO-KGXA|0.5|0-Incr-the|1|FM15-METAR|223|ICAO-KGXA|||||||||||||||||||||||||||||||||||||MET100METAR KGXA 021755Z AUTO 09011G17KT 10SM CLR 13/M19 A3034 RMK AO2 SLP271 T01321193 10140 20037 50005;||F||223|ICAO-KGXA
USI0000KGXA|GRAY BUTTE FLD|2011|11|02|19|00|34.5639|-117.6750|920.5|14.0||1|FM15-METAR|223|ICAO-KGXA|-19.0||1|FM15-METAR|223|ICAO-KGXA|||||||1026.6||1|FM15-METAR|223|ICAO-KGXA|070|N-Normal|1|FM15-METAR|223|ICAO-KGXA|7.7|N-Normal|1|FM15-METAR|223|ICAO-KGXA|9.8||1|FM15-METAR|223|ICAO-KGXA|||||||9|Derived||FM15-METAR|223|ICAO-KGXA|||||||||||||||||||||||||||||||||||||||||||||||||||||||||||||||||||||||||1026.8||1|FM15-METAR|223|ICAO-KGXA|||||||||||||||||||||||||||||||||||||||||||MET082METAR KGXA 021855Z AUTO 07015G19KT 10SM CLR 14/M19 A3032 RMK AO2 SLP266 T01411187;||F||223|ICAO-KGXA
USI0000KGXA|GRAY BUTTE FLD|2011|11|02|20|00|34.5639|-117.6750|920.5|15.0||1|FM15-METAR|223|ICAO-KGXA|-18.0||1|FM15-METAR|223|ICAO-KGXA|||||||1026.1||1|FM15-METAR|223|ICAO-KGXA|070|N-Normal|1|FM15-METAR|223|ICAO-KGXA|6.2|N-Normal|1|FM15-METAR|223|ICAO-KGXA|9.8||1|FM15-METAR|223|ICAO-KGXA|||||||9|Derived||FM15-METAR|223|ICAO-KGXA|||||||||||||||||||||||||||||||||||||||||||||||||||||||||||||||||||||||||1025.7||1|FM15-METAR|223|ICAO-KGXA|||||||||||||||||||||||||||||||||||||||||||MET082METAR KGXA 021955Z AUTO 07012G19KT 10SM CLR 15/M18 A3029 RMK AO2 SLP261 T01491185;||F||223|ICAO-KGXA
USI0000KGXA|GRAY BUTTE FLD|2011|11|02|21|00|34.5639|-117.6750|920.5|15.0||1|FM15-METAR|223|ICAO-KGXA|-18.0||1|FM15-METAR|223|ICAO-KGXA|||||||1025.1||1|FM15-METAR|223|ICAO-KGXA|070|N-Normal|1|FM15-METAR|223|ICAO-KGXA|5.1|N-Normal|1|FM15-METAR|223|ICAO-KGXA|9.3||1|FM15-METAR|223|ICAO-KGXA|||||||9|Derived||FM15-METAR|223|ICAO-KGXA|||||||||||||||||||||||||||||||||||||||||||||||||||||||||||||||||||||||||1024.7||1|FM15-METAR|223|ICAO-KGXA|-2.7|8-Steady-o|1|FM15-METAR|223|ICAO-KGXA|||||||||||||||||||||||||||||||||||||MET095METAR KGXA 022055Z AUTO 07010G18KT 10SM CLR 15/M18 A3026 RMK AO2 SLP251 T01511181 58027 TSNO $;||F||223|ICAO-KGXA
USI0000KGXA|GRAY BUTTE FLD|2011|11|02|22|00|34.5639|-117.6750|920.5|16.0||1|FM15-METAR|223|ICAO-KGXA|-19.0||1|FM15-METAR|223|ICAO-KGXA|||||||1024.3||1|FM15-METAR|223|ICAO-KGXA|080|N-Normal|1|FM15-METAR|223|ICAO-KGXA|5.1|N-Normal|1|FM15-METAR|223|ICAO-KGXA|9.3||1|FM15-METAR|223|ICAO-KGXA|||||||7|Derived||FM15-METAR|223|ICAO-KGXA|||||||||||||||||||||||||||||||||||||||||||||||||||||||||||||||||||||||||1023.7||1|FM15-METAR|223|ICAO-KGXA|||||||||||||||||||||||||||||||||||||||||||MET089METAR KGXA 022155Z AUTO 08010G18KT 10SM CLR 16/M19 A3023 RMK AO2 SLP243 T01601187 TSNO $;||F||223|ICAO-KGXA
USI0000KGXA|GRAY BUTTE FLD|2011|11|02|23|00|34.5639|-117.6750|920.5|16.0||1|FM15-METAR|223|ICAO-KGXA|-18.0||1|FM15-METAR|223|ICAO-KGXA|||||||1023.9||1|FM15-METAR|223|ICAO-KGXA|060|N-Normal|1|FM15-METAR|223|ICAO-KGXA|4.1|N-Normal|1|FM15-METAR|223|ICAO-KGXA|||||||||||||8|Derived||FM15-METAR|223|ICAO-KGXA|||||||||||||||||||||||||||||||||||||||||||||||||||||||||||||||||||||||||1023.0||1|FM15-METAR|223|ICAO-KGXA|||||||||||||||||||||||||||||||||||||||||||MET086METAR KGXA 022255Z AUTO 06008KT 10SM CLR 16/M18 A3021 RMK AO2 SLP239 T01561185 TSNO $;||F||223|ICAO-KGXA
USI0000KGXA|GRAY BUTTE FLD|2011|11|03|00|00|34.5639|-117.6750|920.5|15.0||1|FM15-METAR|223|ICAO-KGXA|-18.0||1|FM15-METAR|223|ICAO-KGXA|||||||1024.0||1|FM15-METAR|223|ICAO-KGXA|060|N-Normal|1|FM15-METAR|223|ICAO-KGXA|4.6|N-Normal|1|FM15-METAR|223|ICAO-KGXA|||||||||||||9|Derived||FM15-METAR|223|ICAO-KGXA|||||||||||||||||||||||||||||||||||||||||||||||||||||||||||||||||||||||||1022.7||1|FM15-METAR|223|ICAO-KGXA|-1.7|7-Decr-(st|1|FM15-METAR|223|ICAO-KGXA|||||||||||||||||||||||||||||||||||||MET107METAR KGXA 022355Z AUTO 06009KT 10SM CLR 15/M18 A3020 RMK AO2 SLP240 T01501183 10134 20028 402400028 57017;||F||223|ICAO-KGXA
USI0000KGXA|GRAY BUTTE FLD|2011|11|03|01|00|34.5639|-117.6750|920.5|13.0||1|FM15-METAR|223|ICAO-KGXA|-18.0||1|FM15-METAR|223|ICAO-KGXA|||||||1024.7||1|FM15-METAR|223|ICAO-KGXA|060|N-Normal|1|FM15-METAR|223|ICAO-KGXA|4.1|N-Normal|1|FM15-METAR|223|ICAO-KGXA|||||||||||||10|Derived||FM15-METAR|223|ICAO-KGXA|||||||||||||||||||||||||||||||||||||||||||||||||||||||||||||||||||||||||1022.7||1|FM15-METAR|223|ICAO-KGXA|||||||||||||||||||||||||||||||||||||||||||MET079METAR KGXA 030055Z AUTO 06008KT 10SM CLR 13/M18 A3020 RMK AO2 SLP247 T01311181;||F||223|ICAO-KGXA
USI0000KGXA|GRAY BUTTE FLD|2011|11|03|02|00|34.5639|-117.6750|920.5|9.0||1|FM15-METAR|223|ICAO-KGXA|-18.0||1|FM15-METAR|223|ICAO-KGXA|||||||1025.6||1|FM15-METAR|223|ICAO-KGXA|110|N-Normal|1|FM15-METAR|223|ICAO-KGXA|2.1|N-Normal|1|FM15-METAR|223|ICAO-KGXA|||||||||||||13|Derived||FM15-METAR|223|ICAO-KGXA|||||||||||||||||||||||||||||||||||||||||||||||||||||||||||||||||||||||||1023.0||1|FM15-METAR|223|ICAO-KGXA|||||||||||||||||||||||||||||||||||||||||||MET081METAR KGXA 030155Z AUTO 11004KT 10SM CLR 09/M18 A3021 RMK AO2 SLP256 T00921183 $;||F||223|ICAO-KGXA
USI0000KGXA|GRAY BUTTE FLD|2011|11|03|03|00|34.5639|-117.6750|920.5|7.0||1|FM15-METAR|223|ICAO-KGXA|-19.0||1|FM15-METAR|223|ICAO-KGXA|||||||1025.0||1|FM15-METAR|223|ICAO-KGXA|160|N-Normal|1|FM15-METAR|223|ICAO-KGXA|2.1|N-Normal|1|FM15-METAR|223|ICAO-KGXA|||||||||||||14|Derived||FM15-METAR|223|ICAO-KGXA|||||||||||||||||||||||||||||||||||||||||||||||||||||||||||||||||||||||||1022.7||1|FM15-METAR|223|ICAO-KGXA|0.0|0-Incr-the|1|FM15-METAR|223|ICAO-KGXA|||||||||||||||||||||||||||||||||||||MET087METAR KGXA 030255Z AUTO 16004KT 10SM CLR 07/M19 A3020 RMK AO2 SLP250 T00661189 50000 $;||F||223|ICAO-KGXA
USI0000KGXA|GRAY BUTTE FLD|2011|11|03|04|00|34.5639|-117.6750|920.5|6.0||1|FM15-METAR|223|ICAO-KGXA|-19.0||1|FM15-METAR|223|ICAO-KGXA|||||||1025.0||1|FM15-METAR|223|ICAO-KGXA|160|N-Normal|1|FM15-METAR|223|ICAO-KGXA|2.6|N-Normal|1|FM15-METAR|223|ICAO-KGXA|||||||||||||15|Derived||FM15-METAR|223|ICAO-KGXA|||||||||||||||||||||||||||||||||||||||||||||||||||||||||||||||||||||||||1022.4||1|FM15-METAR|223|ICAO-KGXA|||||||||||||||||||||||||||||||||||||||||||MET092METAR KGXA 030355Z AUTO 16005KT 10SM 06/M19 A3019 RMK AO2 SLP250 T00591189 PWINO PNO TSNO $;||F||223|ICAO-KGXA
USI0000KGXA|GRAY BUTTE FLD|2011|11|03|17|00|34.5639|-117.6750|920.5|10.0||1|FM15-METAR|223|ICAO-KGXA|-17.0||1|FM15-METAR|223|ICAO-KGXA|||||||1020.5||1|FM15-METAR|223|ICAO-KGXA|310|N-Normal|1|FM15-METAR|223|ICAO-KGXA|2.6|N-Normal|1|FM15-METAR|223|ICAO-KGXA|||||||||||||13|Derived||FM15-METAR|223|ICAO-KGXA|||||||||||||||||||||||||||||||||||||||||||||||||||||||||||||||||||||||||1018.3||1|FM15-METAR|223|ICAO-KGXA|||||||||||||||||||||||||||||||||||||||||||MET079METAR KGXA 031655Z AUTO 31005KT 10SM CLR 10/M17 A3007 RMK AO2 SLP205 T00961170;||F||223|ICAO-KGXA
USI0000KGXA|GRAY BUTTE FLD|2011|11|03|18|00|34.5639|-117.6750|920.5|13.0||1|FM15-METAR|223|ICAO-KGXA|-17.0||1|FM15-METAR|223|ICAO-KGXA|||||||1019.5||1|FM15-METAR|223|ICAO-KGXA|999|V-Variable|9|FM15-METAR|223|ICAO-KGXA|1.0|V-Variable|1|FM15-METAR|223|ICAO-KGXA|||||||||||||11|Derived||FM15-METAR|223|ICAO-KGXA|||||||||||||||||||||||||||||||||||||||||||||||||||||||||||||||||||||||||1017.6||1|FM15-METAR|223|ICAO-KGXA|-1.0|7-Decr-(st|1|FM15-METAR|223|ICAO-KGXA|||||||||||||||||||||||||||||||||||||MET097METAR KGXA 031755Z AUTO VRB02KT 10SM CLR 13/M17 A3005 RMK AO2 SLP195 T01281166 10043 20004 57010;||F||223|ICAO-KGXA
USI0000KGXA|GRAY BUTTE FLD|2011|11|03|19|00|34.5639|-117.6750|920.5|14.0||1|FM15-METAR|223|ICAO-KGXA|-16.0||1|FM15-METAR|223|ICAO-KGXA|||||||1018.0||1|FM15-METAR|223|ICAO-KGXA|020|N-Normal|1|FM15-METAR|223|ICAO-KGXA|1.0|N-Normal|1|FM15-METAR|223|ICAO-KGXA|||||||||||||11|Derived||FM15-METAR|223|ICAO-KGXA|||||||||||||||||||||||||||||||||||||||||||||||||||||||||||||||||||||||||1016.6||1|FM15-METAR|223|ICAO-KGXA|||||||||||||||||||||||||||||||||||||||||||MET079METAR KGXA 031855Z AUTO 02002KT 10SM CLR 14/M16 A3002 RMK AO2 SLP180 T01391162;||F||223|ICAO-KGXA
USI0000KGXA|GRAY BUTTE FLD|2011|11|03|20|00|34.5639|-117.6750|920.5|16.0||1|FM15-METAR|223|ICAO-KGXA|-15.0||1|FM15-METAR|223|ICAO-KGXA|||||||1016.5||1|FM15-METAR|223|ICAO-KGXA|270|N-Normal|1|FM15-METAR|223|ICAO-KGXA|2.1|N-Normal|1|FM15-METAR|223|ICAO-KGXA|||||||||||||11|Derived||FM15-METAR|223|ICAO-KGXA|||||||||||||||||||||||||||||||||||||||||||||||||||||||||||||||||||||||||1015.2||1|FM15-METAR|223|ICAO-KGXA|||||||||||||||||||||||||||||||||||||||||||MET086METAR KGXA 031955Z AUTO 27004KT 10SM CLR 16/M15 A2998 RMK AO2 SLP165 T01551155 TSNO $;||F||223|ICAO-KGXA
USI0000KGXA|GRAY BUTTE FLD|2011|11|03|21|00|34.5639|-117.6750|920.5|17.0||1|FM15-METAR|223|ICAO-KGXA|-14.0||1|FM15-METAR|223|ICAO-KGXA|||||||1014.0||1|FM15-METAR|223|ICAO-KGXA|999|V-Variable|9|FM15-METAR|223|ICAO-KGXA|2.1|V-Variable|1|FM15-METAR|223|ICAO-KGXA|||||||||||||11|Derived||FM15-METAR|223|ICAO-KGXA|||||||||||||||||||||||||||||||||||||||||||||||||||||||||||||||||||||||||1013.2||1|FM15-METAR|223|ICAO-KGXA|-4.1|8-Steady-o|1|FM15-METAR|223|ICAO-KGXA|||||||||||||||||||||||||||||||||||||MET092METAR KGXA 032055Z AUTO VRB04KT 10SM CLR 17/M14 A2992 RMK AO2 SLP140 T01741144 58041 TSNO $;||F||223|ICAO-KGXA
USI0000KGXA|GRAY BUTTE FLD|2011|11|03|22|00|34.5639|-117.6750|920.5|19.0||1|FM15-METAR|223|ICAO-KGXA|-12.0||1|FM15-METAR|223|ICAO-KGXA|||||||1013.1||1|FM15-METAR|223|ICAO-KGXA|010|N-Normal|1|FM15-METAR|223|ICAO-KGXA|2.1|N-Normal|1|FM15-METAR|223|ICAO-KGXA|||||||||||||11|Derived||FM15-METAR|223|ICAO-KGXA|||||||||||||||||||||||||||||||||||||||||||||||||||||||||||||||||||||||||1012.2||1|FM15-METAR|223|ICAO-KGXA|||||||||||||||||||||||||||||||||||||||||||MET086METAR KGXA 032155Z AUTO 01004KT 10SM CLR 19/M12 A2989 RMK AO2 SLP131 T01941121 TSNO $;||F||223|ICAO-KGXA
USI0000KGXA|GRAY BUTTE FLD|2011|11|03|23|00|34.5639|-117.6750|920.5|20.0||1|FM15-METAR|223|ICAO-KGXA|-10.0||1|FM15-METAR|223|ICAO-KGXA|||||||1012.0||1|FM15-METAR|223|ICAO-KGXA|360|N-Normal|1|FM15-METAR|223|ICAO-KGXA|3.1|N-Normal|1|FM15-METAR|223|ICAO-KGXA|||||||||||||12|Derived||FM15-METAR|223|ICAO-KGXA|||||||||||||||||||||||||||||||||||||||||||||||||||||||||||||||||||||||||1011.2||1|FM15-METAR|223|ICAO-KGXA|||||||||||||||||||||||||||||||||||||||||||MET086METAR KGXA 032255Z AUTO 36006KT 10SM CLR 20/M10 A2986 RMK AO2 SLP120 T02001104 TSNO $;||F||223|ICAO-KGXA
USI0000KGXA|GRAY BUTTE FLD|2011|11|04|00|00|34.5639|-117.6750|920.5|19.0||1|FM15-METAR|223|ICAO-KGXA|-5.0||1|FM15-METAR|223|ICAO-KGXA|||||||1011.0||1|FM15-METAR|223|ICAO-KGXA|170|N-Normal|1|FM15-METAR|223|ICAO-KGXA|8.2|N-Normal|1|FM15-METAR|223|ICAO-KGXA|13.4||1|FM15-METAR|223|ICAO-KGXA|||||||19|Derived||FM15-METAR|223|ICAO-KGXA|||||||||||||||||||||||||||||||||||||||||||FU:05|FU:05-Smok|1|FM15-METAR|223|ICAO-KGXA|||||||||||||||||||||||||1010.2||1|FM15-METAR|223|ICAO-KGXA|-2.7|7-Decr-(st|1|FM15-METAR|223|ICAO-KGXA|||||||||||||||||||||||||||||||||||||MET121METAR KGXA 032355Z AUTO 17016G26KT 1/4SM HZ CLR 19/M05 A2983 RMK AO2 SLP110 T01941051 10128 20002 402020059 57027 TSNO $;||F||223|ICAO-KGXA
USI0000KGXA|GRAY BUTTE FLD|2011|11|04|01|00|34.5639|-117.6750|920.5|18.0||1|FM15-METAR|223|ICAO-KGXA|-6.0||1|FM15-METAR|223|ICAO-KGXA|||||||1010.8||1|FM15-METAR|223|ICAO-KGXA|170|N-Normal|1|FM15-METAR|223|ICAO-KGXA|5.7|N-Normal|1|FM15-METAR|223|ICAO-KGXA|9.8||1|FM15-METAR|223|ICAO-KGXA|||||||19|Derived||FM15-METAR|223|ICAO-KGXA|||||||||||||||||||||||||||||||||||||||||||||||||||||||||||||||||||||||||1009.8||1|FM15-METAR|223|ICAO-KGXA|||||||||||||||||||||||||||||||||||||||||||MET095METAR KGXA 040055Z AUTO 17011G19KT 10SM CLR 18/M06 A2982 RMK AO2 WSHFT 2347 SLP108 T01821057 $;||F||223|ICAO-KGXA
USI0000KGXA|GRAY BUTTE FLD|2011|11|04|02|00|34.5639|-117.6750|920.5|17.0||1|FM15-METAR|223|ICAO-KGXA|-6.0||1|FM15-METAR|223|ICAO-KGXA|||||||1011.3||1|FM15-METAR|223|ICAO-KGXA|200|N-Normal|1|FM15-METAR|223|ICAO-KGXA|6.7|N-Normal|1|FM15-METAR|223|ICAO-KGXA|13.9||1|FM15-METAR|223|ICAO-KGXA|||||||20|Derived||FM15-METAR|223|ICAO-KGXA|||||||||||||||||||||||||||||||||||||||||||||||||||||||||||||||||||||||||1010.2||1|FM15-METAR|223|ICAO-KGXA|||||||||||||||||||||||||||||||||||||||||||MET083METAR KGXA 040155Z AUTO 20013G27KT 4SM CLR 17/M06 A2983 RMK AO2 SLP113 T01711065 $;||F||223|ICAO-KGXA
USI0000KGXA|GRAY BUTTE FLD|2011|11|04|03|00|34.5639|-117.6750|920.5|16.0||1|FM15-METAR|223|ICAO-KGXA|-6.0||1|FM15-METAR|223|ICAO-KGXA|||||||1010.7||1|FM15-METAR|223|ICAO-KGXA|180|N-Normal|1|FM15-METAR|223|ICAO-KGXA|6.7|N-Normal|1|FM15-METAR|223|ICAO-KGXA|16.5||1|FM15-METAR|223|ICAO-KGXA|||||||22|Derived||FM15-METAR|223|ICAO-KGXA|||||||||||||||||||||||||||||||||||||||||||HZ:04|HZ:04-Haze|1|FM15-METAR|223|ICAO-KGXA|||||||||||||||||||||||||1009.5||1|FM15-METAR|223|ICAO-KGXA|-0.6|5-Decr,-th|1|FM15-METAR|223|ICAO-KGXA|||||||||||||||||||||||||||||||||||||MET096METAR KGXA 040255Z AUTO 18013G32KT 1 1/4SM HZ CLR 16/M06 A2981 RMK AO2 SLP107 T01591061 55006 $;||F||223|ICAO-KGXA
USI0000KGXA|GRAY BUTTE FLD|2011|11|04|04|00|34.5639|-117.6750|920.5|16.0||1|FM15-METAR|223|ICAO-KGXA|-3.0||1|FM15-METAR|223|ICAO-KGXA|||||||1009.7||1|FM15-METAR|223|ICAO-KGXA|180|N-Normal|1|FM15-METAR|223|ICAO-KGXA|8.7|N-Normal|1|FM15-METAR|223|ICAO-KGXA|15.9||1|FM15-METAR|223|ICAO-KGXA|||||||27|Derived||FM15-METAR|223|ICAO-KGXA|||||||||||||||||||||||||||||||||||||||||||FU:05|FU:05-Smok|1|FM15-METAR|223|ICAO-KGXA|||||||||||||||||||||||||1009.8||1|FM15-METAR|223|ICAO-KGXA|||||||||||||||||||||||||||||||||||||||||||MET088METAR KGXA 040355Z AUTO 18017G31KT 1/2SM HZ CLR 16/M03 A2982 RMK AO2 SLP097 T01551031 $;||F||223|ICAO-KGXA
USI0000KGXA|GRAY BUTTE FLD|2011|11|04|05|00|34.5639|-117.6750|920.5|13.0||1|FM15-METAR|223|ICAO-KGXA|-5.0||1|FM15-METAR|223|ICAO-KGXA|||||||1009.8||1|FM15-METAR|223|ICAO-KGXA|170|N-Normal|1|FM15-METAR|223|ICAO-KGXA|2.6|N-Normal|1|FM15-METAR|223|ICAO-KGXA|||||||||||||28|Derived||FM15-METAR|223|ICAO-KGXA|||||||||||||||||||||||||||||||||||||||||||||||||||||||||||||||||||||||||1009.5||1|FM15-METAR|223|ICAO-KGXA|||||||||||||||||||||||||||||||||||||||||||MET099METAR KGXA 040455Z AUTO 17005KT 10SM CLR 13/M05 A2981 RMK AO2 PK WND 19026/0401 SLP098 T01321049 $;||F||223|ICAO-KGXA
USI0000KGXA|GRAY BUTTE FLD|2011|11|04|06|00|34.5639|-117.6750|920.5|9.0||1|FM15-METAR|223|ICAO-KGXA|1.0||1|FM15-METAR|223|ICAO-KGXA|||||||1010.2||1|FM15-METAR|223|ICAO-KGXA|999|C-Calm|9|FM15-METAR|223|ICAO-KGXA|0.0|C-Calm|1|FM15-METAR|223|ICAO-KGXA|||||||||||||58|Derived||FM15-METAR|223|ICAO-KGXA|||||||||||||||||||||||||||||||||||||||||||||||||||||||||||||||||||||||||1009.5||1|FM15-METAR|223|ICAO-KGXA|0.2|0-Incr-the|1|FM15-METAR|223|ICAO-KGXA|||||||||||||||||||||||||||||||||||||MET098METAR KGXA 040555Z AUTO 00000KT 10SM CLR 09/01 A2981 RMK AO2 SLP102 T00930013 10202 20120 50002 $;||F||223|ICAO-KGXA
USI0000KGXA|GRAY BUTTE FLD|2011|11|04|07|00|34.5639|-117.6750|920.5|9.0||1|FM15-METAR|223|ICAO-KGXA|3.0||1|FM15-METAR|223|ICAO-KGXA|||||||1009.9||1|FM15-METAR|223|ICAO-KGXA|030|N-Normal|1|FM15-METAR|223|ICAO-KGXA|3.1|N-Normal|1|FM15-METAR|223|ICAO-KGXA|||||||||||||66|Derived||FM15-METAR|223|ICAO-KGXA|||||||||||||||||||||||||||||||||||||||||||||||||||||||||||||||||||||||||1009.5||1|FM15-METAR|223|ICAO-KGXA|||||||||||||||||||||||||||||||||||||||||||MET080METAR KGXA 040655Z AUTO 03006KT 10SM CLR 09/03 A2981 RMK AO2 SLP099 T00870030 $;||F||223|ICAO-KGXA
USI0000KGXA|GRAY BUTTE FLD|2011|11|04|08|00|34.5639|-117.6750|920.5|8.0||1|FM15-METAR|223|ICAO-KGXA|3.0||1|FM15-METAR|223|ICAO-KGXA|||||||1009.5||1|FM15-METAR|223|ICAO-KGXA|340|N-Normal|1|FM15-METAR|223|ICAO-KGXA|2.1|N-Normal|1|FM15-METAR|223|ICAO-KGXA|||||||||||||71|Derived||FM15-METAR|223|ICAO-KGXA|||||||||||||||||||||||||||||||||||||||||||||||||||||||||||||||||||||||||1009.1||1|FM15-METAR|223|ICAO-KGXA|||||||||||||||||||||||||||||||||||||||||||MET080METAR KGXA 040755Z AUTO 34004KT 10SM CLR 08/03 A2980 RMK AO2 SLP095 T00770028 $;||F||223|ICAO-KGXA
USI0000KGXA|GRAY BUTTE FLD|2011|11|04|09|00|34.5639|-117.6750|920.5|8.0||1|FM15-METAR|223|ICAO-KGXA|3.0||1|FM15-METAR|223|ICAO-KGXA|||||||1009.0||1|FM15-METAR|223|ICAO-KGXA|100|N-Normal|1|FM15-METAR|223|ICAO-KGXA|1.0|N-Normal|1|FM15-METAR|223|ICAO-KGXA|||||||||||||71|Derived||FM15-METAR|223|ICAO-KGXA|||||||||||||||||||||||||||||||||||||||||||||||||||||||||||||||||||||||||1008.8||1|FM15-METAR|223|ICAO-KGXA|-0.5|7-Decr-(st|1|FM15-METAR|223|ICAO-KGXA|||||||||||||||||||||||||||||||||||||MET082METAR KGXA 040855Z AUTO 10002KT 10SM 08/03 A2979 RMK AO2 SLP090 T00760031 57005 $;||F||223|ICAO-KGXA
USI0000KGXA|GRAY BUTTE FLD|2011|11|04|10|00|34.5639|-117.6750|920.5|6.0||1|FM15-METAR|223|ICAO-KGXA|3.0||1|FM15-METAR|223|ICAO-KGXA|||||||1007.7||1|FM15-METAR|223|ICAO-KGXA|140|N-Normal|1|FM15-METAR|223|ICAO-KGXA|3.1|N-Normal|1|FM15-METAR|223|ICAO-KGXA|||||||||||||81|Derived||FM15-METAR|223|ICAO-KGXA|||||||||||||||||||||||||||||||||||||||||||||||||||||||||||||||||||||||||1008.1||1|FM15-METAR|223|ICAO-KGXA|||||||||||||||||||||||||||||||||||||||||||MET076METAR KGXA 040955Z AUTO 14006KT 10SM 06/03 A2977 RMK AO2 SLP077 T00620025 $;||F||223|ICAO-KGXA
USI0000KGXA|GRAY BUTTE FLD|2011|11|04|11|00|34.5639|-117.6750|920.5|5.0||1|FM15-METAR|223|ICAO-KGXA|2.0||1|FM15-METAR|223|ICAO-KGXA|||||||1007.4||1|FM15-METAR|223|ICAO-KGXA|050|N-Normal|1|FM15-METAR|223|ICAO-KGXA|1.0|N-Normal|1|FM15-METAR|223|ICAO-KGXA|||||||||||||81|Derived||FM15-METAR|223|ICAO-KGXA|||||||||||||||||||||||||||||||||||||||||||||||||||||||||||||||||||||||||1007.5||1|FM15-METAR|223|ICAO-KGXA|||||||||||||||||||||||||||||||||||||||||||MET076METAR KGXA 041055Z AUTO 05002KT 10SM 05/02 A2975 RMK AO2 SLP074 T00460019 $;||F||223|ICAO-KGXA
USI0000KGXA|GRAY BUTTE FLD|2011|11|04|12|00|34.5639|-117.6750|920.5|6.0||1|FM15-METAR|223|ICAO-KGXA|2.0||1|FM15-METAR|223|ICAO-KGXA|||||||1006.7||1|FM15-METAR|223|ICAO-KGXA|140|N-Normal|1|FM15-METAR|223|ICAO-KGXA|3.1|N-Normal|1|FM15-METAR|223|ICAO-KGXA|||||||||||||76|Derived||FM15-METAR|223|ICAO-KGXA|||||||||||||||||||||||||||||||||||||||||||||||||||||||||||||||||||||||||1006.8||1|FM15-METAR|223|ICAO-KGXA|-1.9|6-Decr,-th|1|FM15-METAR|223|ICAO-KGXA|||||||||||||||||||||||||||||||||||||MET094METAR KGXA 041155Z AUTO 14006KT 10SM 06/02 A2973 RMK AO2 SLP067 T00560021 10194 20090 56019 $;||F||223|ICAO-KGXA
USI0000KGXA|GRAY BUTTE FLD|2011|11|04|13|00|34.5639|-117.6750|920.5|8.0||1|FM15-METAR|223|ICAO-KGXA|3.0||1|FM15-METAR|223|ICAO-KGXA|||||||1006.5||1|FM15-METAR|223|ICAO-KGXA|160|N-Normal|1|FM15-METAR|223|ICAO-KGXA|2.6|N-Normal|1|FM15-METAR|223|ICAO-KGXA|||||||||||||71|Derived||FM15-METAR|223|ICAO-KGXA|||||||||||||||||||||||||||||||||||||||||||||||||||||||||||||||||||||||||1006.8||1|FM15-METAR|223|ICAO-KGXA|||||||||||||||||||||||||||||||||||||||||||MET142METAR KGXA 041255Z AUTO 16005KT 10SM FEW045 08/03 A2973 RMK AO2 RAB1228RAE1230DZB1230DZE1231SHRAB1231SHRAE1242DZB1242DZE1243 SLP065 T00750025;||F||223|ICAO-KGXA
USI0000KGXA|GRAY BUTTE FLD|2011|11|04|14|00|34.5639|-117.6750|920.5|7.0||1|FM15-METAR|223|ICAO-KGXA|2.0||1|FM15-METAR|223|ICAO-KGXA|||||||1006.8||1|FM15-METAR|223|ICAO-KGXA|999|V-Variable|9|FM15-METAR|223|ICAO-KGXA|1.0|V-Variable|1|FM15-METAR|223|ICAO-KGXA|||||||||||||71|Derived||FM15-METAR|223|ICAO-KGXA|||||||||||||||||||||||||||||||||||||||||||||||||||||||||||||||||||||||||1006.8||1|FM15-METAR|223|ICAO-KGXA|||||||||||||||||||||||||||||||||||||||||||MET081METAR KGXA 041355Z AUTO VRB02KT 10SM SCT055 07/02 A2973 RMK AO2 SLP068 T00660023;||F||223|ICAO-KGXA
USI0000KGXA|GRAY BUTTE FLD|2011|11|04|15|00|34.5639|-117.6750|920.5|8.0||1|FM15-METAR|223|ICAO-KGXA|5.0||1|FM15-METAR|223|ICAO-KGXA|||||||1007.0||1|FM15-METAR|223|ICAO-KGXA|300|N-Normal|1|FM15-METAR|223|ICAO-KGXA|2.6|N-Normal|1|FM15-METAR|223|ICAO-KGXA|||||||0.0|2-Trace|9|FM15-METAR|223|ICAO-KGXA|82|Derived||FM15-METAR|223|ICAO-KGXA|||||||||||||||||||||||||||||||||||||||||||RA:61|RA:61-Rain|1|FM15-METAR|223|ICAO-KGXA|||||||||||||||||||||||||1007.1||1|FM15-METAR|223|ICAO-KGXA|-0.1|5-Decr,-th|1|FM15-METAR|223|ICAO-KGXA|||||||||||||||||||||||||||||||||||||MET147METAR KGXA 041455Z AUTO 30005KT 10SM -RA FEW016 BKN040 BKN049 08/05 A2974 RMK AO2 RAB1422RAE1424DZB1424DZE1440RAB1440 SLP070 P0000 T00750052 55001;||F||223|ICAO-KGXA
USI0000KGXA|GRAY BUTTE FLD|2011|11|04|16|00|34.5639|-117.6750|920.5|8.0||1|FM15-METAR|223|ICAO-KGXA|4.0||1|FM15-METAR|223|ICAO-KGXA|||||||1007.3||1|FM15-METAR|223|ICAO-KGXA|260|N-Normal|1|FM15-METAR|223|ICAO-KGXA|3.6|N-Normal|1|FM15-METAR|223|ICAO-KGXA|||||||0.5|9-Missing|9|FM15-METAR|223|ICAO-KGXA|76|Derived||FM15-METAR|223|ICAO-KGXA|||||||||||||||||||||||||||||||||||||||||||SHRA:81|SHRA:81-Ra|1|FM15-METAR|223|ICAO-KGXA|||||||||||||||||||||||||1007.1||1|FM15-METAR|223|ICAO-KGXA|||||||||||||||||||||||||||||||||||||||||||MET119METAR KGXA 041555Z AUTO 26007KT 10SM -SHRA FEW024 BKN050 08/04 A2974 RMK AO2 -1RAE1520SHRAB1520 SLP073 P0002 T00770044;||F||223|ICAO-KGXA
USI0000KGXA|GRAY BUTTE FLD|2011|11|04|17|00|34.5639|-117.6750|920.5|10.0||1|FM15-METAR|223|ICAO-KGXA|5.0||1|FM15-METAR|223|ICAO-KGXA|||||||1007.1||1|FM15-METAR|223|ICAO-KGXA|300|N-Normal|1|FM15-METAR|223|ICAO-KGXA|5.7|N-Normal|1|FM15-METAR|223|ICAO-KGXA|9.3||1|FM15-METAR|223|ICAO-KGXA|||||||71|Derived||FM15-METAR|223|ICAO-KGXA|||||||||||||||||||||||||||||||||||||||||||||||||||||||||||||||||||||||||1006.8||1|FM15-METAR|223|ICAO-KGXA|||||||||||||||||||||||||||||||||||||||||||MET084METAR KGXA 041655Z AUTO 30011G18KT 10SM FEW042 10/05 A2973 RMK AO2 SLP071 T00950046;||F||223|ICAO-KGXA
USI0000KGXA|GRAY BUTTE FLD|2011|11|04|18|00|34.5639|-117.6750|920.5|11.0||1|FM15-METAR|223|ICAO-KGXA|0.0||1|FM15-METAR|223|ICAO-KGXA|||||||1007.1||1|FM15-METAR|223|ICAO-KGXA|270|N-Normal|1|FM15-METAR|223|ICAO-KGXA|9.8|N-Normal|1|FM15-METAR|223|ICAO-KGXA|13.4||1|FM15-METAR|223|ICAO-KGXA|||||||47|Derived||FM15-METAR|223|ICAO-KGXA|||||||||||||||||||||||||||||||||||||||||||||||||||||||||||||||||||||||||1006.4||1|FM15-METAR|223|ICAO-KGXA|-0.6|8-Steady-o|1|FM15-METAR|223|ICAO-KGXA|||||||||||||||||||||||||||||||||||||MET105METAR KGXA 041755Z AUTO 27019G26KT 10SM CLR 11/00 A2972 RMK AO2 SLP071 60003 T01140001 10100 20039 58006;||F||223|ICAO-KGXA
USI0000KGXA|GRAY BUTTE FLD|2011|11|04|19|00|34.5639|-117.6750|920.5|10.0||1|FM15-METAR|223|ICAO-KGXA|0.0||1|FM15-METAR|223|ICAO-KGXA|||||||1007.0||1|FM15-METAR|223|ICAO-KGXA|280|N-Normal|1|FM15-METAR|223|ICAO-KGXA|7.2|N-Normal|1|FM15-METAR|223|ICAO-KGXA|10.3||1|FM15-METAR|223|ICAO-KGXA|||||||50|Derived||FM15-METAR|223|ICAO-KGXA|||||||||||||||||||||||||||||||||||||||||||||||||||||||||||||||||||||||||1006.1||1|FM15-METAR|223|ICAO-KGXA|||||||||||||||||||||||||||||||||||||||||||MET091METAR KGXA 041855Z AUTO 28014G20KT 10SM FEW060 BKN090 10/00 A2971 RMK AO2 SLP070 T01021005;||F||223|ICAO-KGXA
USI0000KGXA|GRAY BUTTE FLD|2011|11|04|20|00|34.5639|-117.6750|920.5|10.0||1|FM15-METAR|223|ICAO-KGXA|2.0||1|FM15-METAR|223|ICAO-KGXA|||||||1006.4||1|FM15-METAR|223|ICAO-KGXA|280|N-Normal|1|FM15-METAR|223|ICAO-KGXA|6.2|N-Normal|1|FM15-METAR|223|ICAO-KGXA|9.8||1|FM15-METAR|223|ICAO-KGXA|||||||58|Derived||FM15-METAR|223|ICAO-KGXA|||||||||||||||||||||||||||||||||||||||||||RA:61|RA:61-Rain|1|FM15-METAR|223|ICAO-KGXA|||||||||||||||||||||||||1005.1||1|FM15-METAR|223|ICAO-KGXA|||||||||||||||||||||||||||||||||||||||||||MET110METAR KGXA 041955Z AUTO 28012G19KT 10SM -RA FEW040 BKN050 BKN080 10/02 A2968 RMK AO2 RAB1954 SLP064 T01020018;||F||223|ICAO-KGXA
USI0000KGXA|GRAY BUTTE FLD|2011|11|04|21|00|34.5639|-117.6750|920.5|6.0||1|FM15-METAR|223|ICAO-KGXA|3.0||1|FM15-METAR|223|ICAO-KGXA|||||||1007.6||1|FM15-METAR|223|ICAO-KGXA|270|N-Normal|1|FM15-METAR|223|ICAO-KGXA|6.7|N-Normal|1|FM15-METAR|223|ICAO-KGXA|12.3||1|FM15-METAR|223|ICAO-KGXA|0.5|9-Missing|9|FM15-METAR|223|ICAO-KGXA|81|Derived||FM15-METAR|223|ICAO-KGXA|||||||||||||||||||||||||||||||||||||||||||SHRA:81|SHRA:81-Ra|1|FM15-METAR|223|ICAO-KGXA|||||||||||||||||||||||||1005.4||1|FM15-METAR|223|ICAO-KGXA|-0.8|6-Decr,-th|1|FM15-METAR|223|ICAO-KGXA|||||||||||||||||||||||||||||||||||||MET140METAR KGXA 042055Z AUTO 27013G24KT 7SM -SHRA FEW027 SCT032 OVC038 06/03 A2969 RMK AO2 -1RAE2008SHRAB2008 SLP076 P0002 60002 T00610026 56008;||F||223|ICAO-KGXA
USI0000KGXA|GRAY BUTTE FLD|2011|11|04|22|00|34.5639|-117.6750|920.5|5.0||1|FM15-METAR|223|ICAO-KGXA|2.0||1|FM15-METAR|223|ICAO-KGXA|||||||1008.4||1|FM15-METAR|223|ICAO-KGXA|230|N-Normal|1|FM15-METAR|223|ICAO-KGXA|4.1|N-Normal|1|FM15-METAR|223|ICAO-KGXA|||||||0.5|9-Missing|9|FM15-METAR|223|ICAO-KGXA|81|Derived||FM15-METAR|223|ICAO-KGXA|||||||||||||||||||||||||||||||||||||||||||RA:61|RA:61-Rain|1|FM15-METAR|223|ICAO-KGXA|||||||||||||||||||||||||1005.8||1|FM15-METAR|223|ICAO-KGXA|||||||||||||||||||||||||||||||||||||||||||MET119METAR KGXA 042155Z AUTO 23008KT 10SM -RA BKN026 BKN030 05/02 A2970 RMK AO2 -1SHRAE2110RAB2110 SLP084 P0002 T00530024 $;||F||223|ICAO-KGXA
USI0000KGXA|GRAY BUTTE FLD|2011|11|07|16|00|34.5639|-117.6750|920.5|5.0||1|FM15-METAR|223|ICAO-KGXA|-1.0||1|FM15-METAR|223|ICAO-KGXA|||||||1022.7||1|FM15-METAR|223|ICAO-KGXA|260|N-Normal|1|FM15-METAR|223|ICAO-KGXA|4.1|N-Normal|1|FM15-METAR|223|ICAO-KGXA|||||||||||||66|Derived||FM15-METAR|223|ICAO-KGXA|||||||||||||||||||||||||||||||||||||||||||||||||||||||||||||||||||||||||1019.6||1|FM15-METAR|223|ICAO-KGXA|||||||||||||||||||||||||||||||||||||||||||MET079METAR KGXA 071555Z AUTO 26008KT 10SM CLR 05/M01 A3011 RMK AO2 SLP227 T00541010;||F||223|ICAO-KGXA
USI0000KGXA|GRAY BUTTE FLD|2011|11|07|17|00|34.5639|-117.6750|920.5|7.0||1|FM15-METAR|223|ICAO-KGXA|-1.0||1|FM15-METAR|223|ICAO-KGXA|||||||1022.4||1|FM15-METAR|223|ICAO-KGXA|270|N-Normal|1|FM15-METAR|223|ICAO-KGXA|4.6|N-Normal|1|FM15-METAR|223|ICAO-KGXA|||||||||||||57|Derived||FM15-METAR|223|ICAO-KGXA|||||||||||||||||||||||||||||||||||||||||||||||||||||||||||||||||||||||||1020.0||1|FM15-METAR|223|ICAO-KGXA|||||||||||||||||||||||||||||||||||||||||||MET079METAR KGXA 071655Z AUTO 27009KT 10SM CLR 07/M01 A3012 RMK AO2 SLP224 T00701009;||F||223|ICAO-KGXA
USI0000KGXA|GRAY BUTTE FLD|2011|11|07|18|00|34.5639|-117.6750|920.5|9.0||1|FM15-METAR|223|ICAO-KGXA|-1.0||1|FM15-METAR|223|ICAO-KGXA|||||||1022.2||1|FM15-METAR|223|ICAO-KGXA|270|N-Normal|1|FM15-METAR|223|ICAO-KGXA|4.1|N-Normal|1|FM15-METAR|223|ICAO-KGXA|||||||||||||50|Derived||FM15-METAR|223|ICAO-KGXA|||||||||||||||||||||||||||||||||||||||||||||||||||||||||||||||||||||||||1020.3||1|FM15-METAR|223|ICAO-KGXA|1.6|1-Incr-the|1|FM15-METAR|223|ICAO-KGXA|||||||||||||||||||||||||||||||||||||MET085METAR KGXA 071755Z AUTO 27008KT 10SM CLR 09/M01 A3013 RMK AO2 SLP222 T00851008 51016;||F||223|ICAO-KGXA
USI0000KGXA|GRAY BUTTE FLD|2011|11|07|19|00|34.5639|-117.6750|920.5|10.0||1|FM15-METAR|223|ICAO-KGXA|-1.0||1|FM15-METAR|223|ICAO-KGXA|||||||1021.6||1|FM15-METAR|223|ICAO-KGXA|250|N-Normal|1|FM15-METAR|223|ICAO-KGXA|3.6|N-Normal|1|FM15-METAR|223|ICAO-KGXA|||||||||||||47|Derived||FM15-METAR|223|ICAO-KGXA|||||||||||||||||||||||||||||||||||||||||||||||||||||||||||||||||||||||||1020.3||1|FM15-METAR|223|ICAO-KGXA|||||||||||||||||||||||||||||||||||||||||||MET079METAR KGXA 071855Z AUTO 25007KT 10SM CLR 10/M01 A3013 RMK AO2 SLP216 T01001009;||F||223|ICAO-KGXA
USI0000KGXA|GRAY BUTTE FLD|2011|11|07|20|00|34.5639|-117.6750|920.5|10.0||1|FM15-METAR|223|ICAO-KGXA|-2.0||1|FM15-METAR|223|ICAO-KGXA|||||||1020.8||1|FM15-METAR|223|ICAO-KGXA|300|N-Normal|1|FM15-METAR|223|ICAO-KGXA|3.1|N-Normal|1|FM15-METAR|223|ICAO-KGXA|||||||||||||43|Derived||FM15-METAR|223|ICAO-KGXA|||||||||||||||||||||||||||||||||||||||||||||||||||||||||||||||||||||||||1020.0||1|FM15-METAR|223|ICAO-KGXA|||||||||||||||||||||||||||||||||||||||||||MET079METAR KGXA 071955Z AUTO 30006KT 10SM CLR 10/M02 A3012 RMK AO2 SLP208 T01031025;||F||223|ICAO-KGXA
USI0000KGXA|GRAY BUTTE FLD|2011|11|07|21|00|34.5639|-117.6750|920.5|11.0||1|FM15-METAR|223|ICAO-KGXA|-3.0||1|FM15-METAR|223|ICAO-KGXA|||||||1019.9||1|FM15-METAR|223|ICAO-KGXA|340|N-Normal|1|FM15-METAR|223|ICAO-KGXA|1.5|N-Normal|1|FM15-METAR|223|ICAO-KGXA|||||||||||||38|Derived||FM15-METAR|223|ICAO-KGXA|||||||||||||||||||||||||||||||||||||||||||||||||||||||||||||||||||||||||1019.3||1|FM15-METAR|223|ICAO-KGXA|-0.9|8-Steady-o|1|FM15-METAR|223|ICAO-KGXA|||||||||||||||||||||||||||||||||||||MET092METAR KGXA 072055Z AUTO 34003KT 10SM CLR 11/M03 A3010 RMK AO2 SLP199 T01101028 58009 TSNO $;||F||223|ICAO-KGXA
USI0000KGXA|GRAY BUTTE FLD|2011|11|07|22|00|34.5639|-117.6750|920.5|12.0||1|FM15-METAR|223|ICAO-KGXA|-4.0||1|FM15-METAR|223|ICAO-KGXA|||||||1019.5||1|FM15-METAR|223|ICAO-KGXA|999|V-Variable|9|FM15-METAR|223|ICAO-KGXA|1.5|V-Variable|1|FM15-METAR|223|ICAO-KGXA|||||||||||||33|Derived||FM15-METAR|223|ICAO-KGXA|||||||||||||||||||||||||||||||||||||||||||||||||||||||||||||||||||||||||1019.3||1|FM15-METAR|223|ICAO-KGXA|||||||||||||||||||||||||||||||||||||||||||MET086METAR KGXA 072155Z AUTO VRB03KT 10SM CLR 12/M04 A3010 RMK AO2 SLP195 T01241037 TSNO $;||F||223|ICAO-KGXA
USI0000KGXA|GRAY BUTTE FLD|2011|11|07|23|00|34.5639|-117.6750|920.5|13.0||1|FM15-METAR|223|ICAO-KGXA|-4.0||1|FM15-METAR|223|ICAO-KGXA|||||||1019.5||1|FM15-METAR|223|ICAO-KGXA|999|V-Variable|9|FM15-METAR|223|ICAO-KGXA|1.5|V-Variable|1|FM15-METAR|223|ICAO-KGXA|||||||||||||31|Derived||FM15-METAR|223|ICAO-KGXA|||||||||||||||||||||||||||||||||||||||||||||||||||||||||||||||||||||||||1019.3||1|FM15-METAR|223|ICAO-KGXA|||||||||||||||||||||||||||||||||||||||||||MET086METAR KGXA 072255Z AUTO VRB03KT 10SM CLR 13/M04 A3010 RMK AO2 SLP195 T01251044 TSNO $;||F||223|ICAO-KGXA
USI0000KGXA|GRAY BUTTE FLD|2011|11|08|00|00|34.5639|-117.6750|920.5|12.0||1|FM15-METAR|223|ICAO-KGXA|-6.0||1|FM15-METAR|223|ICAO-KGXA|||||||1020.1||1|FM15-METAR|223|ICAO-KGXA|340|N-Normal|1|FM15-METAR|223|ICAO-KGXA|2.1|N-Normal|1|FM15-METAR|223|ICAO-KGXA|||||||||||||28|Derived||FM15-METAR|223|ICAO-KGXA|||||||||||||||||||||||||||||||||||||||||||||||||||||||||||||||||||||||||1019.6||1|FM15-METAR|223|ICAO-KGXA|0.2|3-Decr-or-|1|FM15-METAR|223|ICAO-KGXA|||||||||||||||||||||||||||||||||||||MET107METAR KGXA 072355Z AUTO 34004KT 10SM CLR 12/M06 A3011 RMK AO2 SLP201 T01161062 10088 20003 401280052 53002;||F||223|ICAO-KGXA
USI0000KGXA|GRAY BUTTE FLD|2011|11|08|01|00|34.5639|-117.6750|920.5|10.0||1|FM15-METAR|223|ICAO-KGXA|-5.0||1|FM15-METAR|223|ICAO-KGXA|||||||1021.2||1|FM15-METAR|223|ICAO-KGXA|310|N-Normal|1|FM15-METAR|223|ICAO-KGXA|1.0|N-Normal|1|FM15-METAR|223|ICAO-KGXA|||||||||||||35|Derived||FM15-METAR|223|ICAO-KGXA|||||||||||||||||||||||||||||||||||||||||||||||||||||||||||||||||||||||||1020.3||1|FM15-METAR|223|ICAO-KGXA|||||||||||||||||||||||||||||||||||||||||||MET079METAR KGXA 080055Z AUTO 31002KT 10SM CLR 10/M05 A3013 RMK AO2 SLP212 T01011052;||F||223|ICAO-KGXA
USI0000KGXA|GRAY BUTTE FLD|2011|11|08|02|00|34.5639|-117.6750|920.5|6.0||1|FM15-METAR|223|ICAO-KGXA|-1.0||1|FM15-METAR|223|ICAO-KGXA|||||||1024.5||1|FM15-METAR|223|ICAO-KGXA|240|N-Normal|1|FM15-METAR|223|ICAO-KGXA|1.0|N-Normal|1|FM15-METAR|223|ICAO-KGXA|||||||||||||61|Derived||FM15-METAR|223|ICAO-KGXA|||||||||||||||||||||||||||||||||||||||||||||||||||||||||||||||||||||||||1020.7||1|FM15-METAR|223|ICAO-KGXA|||||||||||||||||||||||||||||||||||||||||||MET081METAR KGXA 080155Z AUTO 24002KT 10SM CLR 06/M01 A3014 RMK AO2 SLP245 T00641009 $;||F||223|ICAO-KGXA
USI0000KGXA|GRAY BUTTE FLD|2011|11|08|03|00|34.5639|-117.6750|920.5|5.0||1|FM15-METAR|223|ICAO-KGXA|0.0||1|FM15-METAR|223|ICAO-KGXA|||||||1025.6||1|FM15-METAR|223|ICAO-KGXA|230|N-Normal|1|FM15-METAR|223|ICAO-KGXA|2.6|N-Normal|1|FM15-METAR|223|ICAO-KGXA|||||||||||||70|Derived||FM15-METAR|223|ICAO-KGXA|||||||||||||||||||||||||||||||||||||||||||||||||||||||||||||||||||||||||1021.7||1|FM15-METAR|223|ICAO-KGXA|1.8|2-Incr-(st|1|FM15-METAR|223|ICAO-KGXA|||||||||||||||||||||||||||||||||||||MET086METAR KGXA 080255Z AUTO 23005KT 10SM CLR 05/00 A3017 RMK AO2 SLP256 T00471005 52018 $;||F||223|ICAO-KGXA
USI0000KGXA|GRAY BUTTE FLD|2011|11|08|04|00|34.5639|-117.6750|920.5|3.0||1|FM15-METAR|223|ICAO-KGXA|-1.0||1|FM15-METAR|223|ICAO-KGXA|||||||1025.5||1|FM15-METAR|223|ICAO-KGXA|220|N-Normal|1|FM15-METAR|223|ICAO-KGXA|2.1|N-Normal|1|FM15-METAR|223|ICAO-KGXA|||||||||||||75|Derived||FM15-METAR|223|ICAO-KGXA|||||||||||||||||||||||||||||||||||||||||||||||||||||||||||||||||||||||||1022.0||1|FM15-METAR|223|ICAO-KGXA|||||||||||||||||||||||||||||||||||||||||||MET081METAR KGXA 080355Z AUTO 22004KT 10SM CLR 03/M01 A3018 RMK AO2 SLP255 T00291010 $;||F||223|ICAO-KGXA
USI0000KGXA|GRAY BUTTE FLD|2011|11|08|05|00|34.5639|-117.6750|920.5|3.0||1|FM15-METAR|223|ICAO-KGXA|-1.0||1|FM15-METAR|223|ICAO-KGXA|||||||1025.6||1|FM15-METAR|223|ICAO-KGXA|230|N-Normal|1|FM15-METAR|223|ICAO-KGXA|2.1|N-Normal|1|FM15-METAR|223|ICAO-KGXA|||||||||||||75|Derived||FM15-METAR|223|ICAO-KGXA|||||||||||||||||||||||||||||||||||||||||||||||||||||||||||||||||||||||||1022.0||1|FM15-METAR|223|ICAO-KGXA|||||||||||||||||||||||||||||||||||||||||||MET092METAR KGXA 080455Z AUTO 23004KT 10SM 03/M01 A3018 RMK AO2 SLP256 T00311009 PWINO PNO TSNO $;||F||223|ICAO-KGXA
USI0000KGXA|GRAY BUTTE FLD|2011|11|08|16|00|34.5639|-117.6750|920.5|5.0||1|FM15-METAR|223|ICAO-KGXA|-2.0||1|FM15-METAR|223|ICAO-KGXA|||||||1028.7||1|FM15-METAR|223|ICAO-KGXA|150|N-Normal|1|FM15-METAR|223|ICAO-KGXA|1.0|N-Normal|1|FM15-METAR|223|ICAO-KGXA|||||||||||||61|Derived||FM15-METAR|223|ICAO-KGXA|||||||||||||||||||||||||||||||||||||||||||||||||||||||||||||||||||||||||1024.7||1|FM15-METAR|223|ICAO-KGXA|||||||||||||||||||||||||||||||||||||||||||MET079METAR KGXA 081555Z AUTO 15002KT 10SM CLR 05/M02 A3026 RMK AO2 SLP287 T00511020;||F||223|ICAO-KGXA
USI0000KGXA|GRAY BUTTE FLD|2011|11|08|17|00|34.5639|-117.6750|920.5|8.0||1|FM15-METAR|223|ICAO-KGXA|-1.0||1|FM15-METAR|223|ICAO-KGXA|||||||1028.6||1|FM15-METAR|223|ICAO-KGXA|030|N-Normal|1|FM15-METAR|223|ICAO-KGXA|1.0|N-Normal|1|FM15-METAR|223|ICAO-KGXA|||||||||||||53|Derived||FM15-METAR|223|ICAO-KGXA|||||||||||||||||||||||||||||||||||||||||||||||||||||||||||||||||||||||||1025.4||1|FM15-METAR|223|ICAO-KGXA|||||||||||||||||||||||||||||||||||||||||||MET079METAR KGXA 081655Z AUTO 03002KT 10SM CLR 08/M01 A3028 RMK AO2 SLP286 T00831013;||F||223|ICAO-KGXA
USI0000KGXA|GRAY BUTTE FLD|2011|11|08|18|00|34.5639|-117.6750|920.5|10.0||1|FM15-METAR|223|ICAO-KGXA|-2.0||1|FM15-METAR|223|ICAO-KGXA|||||||1028.7||1|FM15-METAR|223|ICAO-KGXA|060|N-Normal|1|FM15-METAR|223|ICAO-KGXA|2.6|N-Normal|1|FM15-METAR|223|ICAO-KGXA|||||||||||||43|Derived||FM15-METAR|223|ICAO-KGXA|||||||||||||||||||||||||||||||||||||||||||||||||||||||||||||||||||||||||1025.7||1|FM15-METAR|223|ICAO-KGXA|1.1|2-Incr-(st|1|FM15-METAR|223|ICAO-KGXA|||||||||||||||||||||||||||||||||||||MET097METAR KGXA 081755Z AUTO 06005KT 10SM CLR 10/M02 A3029 RMK AO2 SLP287 T00991024 10015 21018 52011;||F||223|ICAO-KGXA
USI0000KGXA|GRAY BUTTE FLD|2011|11|08|19|00|34.5639|-117.6750|920.5|12.0||1|FM15-METAR|223|ICAO-KGXA|-5.0||1|FM15-METAR|223|ICAO-KGXA|||||||1028.0||1|FM15-METAR|223|ICAO-KGXA|999|V-Variable|9|FM15-METAR|223|ICAO-KGXA|1.5|V-Variable|1|FM15-METAR|223|ICAO-KGXA|||||||||||||30|Derived||FM15-METAR|223|ICAO-KGXA|||||||||||||||||||||||||||||||||||||||||||||||||||||||||||||||||||||||||1025.1||1|FM15-METAR|223|ICAO-KGXA|||||||||||||||||||||||||||||||||||||||||||MET079METAR KGXA 081855Z AUTO VRB03KT 10SM CLR 12/M05 A3027 RMK AO2 SLP280 T01151048;||F||223|ICAO-KGXA
USI0000KGXA|GRAY BUTTE FLD|2011|11|08|20|00|34.5639|-117.6750|920.5|12.0||1|FM15-METAR|223|ICAO-KGXA|-7.0||1|FM15-METAR|223|ICAO-KGXA|||||||1027.2||1|FM15-METAR|223|ICAO-KGXA|050|N-Normal|1|FM15-METAR|223|ICAO-KGXA|3.6|N-Normal|1|FM15-METAR|223|ICAO-KGXA|||||||||||||26|Derived||FM15-METAR|223|ICAO-KGXA|||||||||||||||||||||||||||||||||||||||||||||||||||||||||||||||||||||||||1024.4||1|FM15-METAR|223|ICAO-KGXA|||||||||||||||||||||||||||||||||||||||||||MET086METAR KGXA 081955Z AUTO 05007KT 10SM CLR 12/M07 A3025 RMK AO2 SLP272 T01211072 TSNO $;||F||223|ICAO-KGXA
USI0000KGXA|GRAY BUTTE FLD|2011|11|08|21|00|34.5639|-117.6750|920.5|13.0||1|FM15-METAR|223|ICAO-KGXA|-7.0||1|FM15-METAR|223|ICAO-KGXA|||||||1026.6||1|FM15-METAR|223|ICAO-KGXA|130|N-Normal|1|FM15-METAR|223|ICAO-KGXA|2.6|N-Normal|1|FM15-METAR|223|ICAO-KGXA|||||||||||||24|Derived||FM15-METAR|223|ICAO-KGXA|||||||||||||||||||||||||||||||||||||||||||||||||||||||||||||||||||||||||1023.7||1|FM15-METAR|223|ICAO-KGXA|-1.6|7-Decr-(st|1|FM15-METAR|223|ICAO-KGXA|||||||||||||||||||||||||||||||||||||MET092METAR KGXA 082055Z AUTO 13005KT 10SM CLR 13/M07 A3023 RMK AO2 SLP266 T01281068 57016 TSNO $;||F||223|ICAO-KGXA
USI0000KGXA|GRAY BUTTE FLD|2011|11|08|22|00|34.5639|-117.6750|920.5|13.0||1|FM15-METAR|223|ICAO-KGXA|-8.0||1|FM15-METAR|223|ICAO-KGXA|||||||1025.9||1|FM15-METAR|223|ICAO-KGXA|090|N-Normal|1|FM15-METAR|223|ICAO-KGXA|2.6|N-Normal|1|FM15-METAR|223|ICAO-KGXA|||||||||||||23|Derived||FM15-METAR|223|ICAO-KGXA|||||||||||||||||||||||||||||||||||||||||||||||||||||||||||||||||||||||||1023.4||1|FM15-METAR|223|ICAO-KGXA|||||||||||||||||||||||||||||||||||||||||||MET086METAR KGXA 082155Z AUTO 09005KT 10SM CLR 13/M08 A3022 RMK AO2 SLP259 T01311076 TSNO $;||F||223|ICAO-KGXA
USI0000KGXA|GRAY BUTTE FLD|2011|11|08|23|00|34.5639|-117.6750|920.5|13.0||1|FM15-METAR|223|ICAO-KGXA|-8.0||1|FM15-METAR|223|ICAO-KGXA|||||||1026.0||1|FM15-METAR|223|ICAO-KGXA|050|N-Normal|1|FM15-METAR|223|ICAO-KGXA|3.6|N-Normal|1|FM15-METAR|223|ICAO-KGXA|||||||||||||23|Derived||FM15-METAR|223|ICAO-KGXA|||||||||||||||||||||||||||||||||||||||||||||||||||||||||||||||||||||||||1023.4||1|FM15-METAR|223|ICAO-KGXA|||||||||||||||||||||||||||||||||||||||||||MET086METAR KGXA 082255Z AUTO 05007KT 10SM CLR 13/M08 A3022 RMK AO2 SLP260 T01301085 TSNO $;||F||223|ICAO-KGXA
USI0000KGXA|GRAY BUTTE FLD|2011|11|09|07|00|34.5639|-117.6750|920.5|2.0||1|FM15-METAR|223|ICAO-KGXA|-5.0||1|FM15-METAR|223|ICAO-KGXA|||||||1029.1||1|FM15-METAR|223|ICAO-KGXA|160|N-Normal|1|FM15-METAR|223|ICAO-KGXA|2.6|N-Normal|1|FM15-METAR|223|ICAO-KGXA|||||||||||||60|Derived||FM15-METAR|223|ICAO-KGXA|||||||||||||||||||||||||||||||||||||||||||||||||||||||||||||||||||||||||1026.4||1|FM15-METAR|223|ICAO-KGXA|||||||||||||||||||||||||||||||||||||||||||MET081METAR KGXA 090655Z AUTO 16005KT 10SM CLR 02/M05 A3031 RMK AO2 SLP291 T00241054 $;||F||223|ICAO-KGXA
USI0000KGXA|GRAY BUTTE FLD|2011|11|09|09|00|34.5639|-117.6750|920.5|0.0||1|FM15-METAR|223|ICAO-KGXA|-7.0||1|FM15-METAR|223|ICAO-KGXA|||||||1029.3||1|FM15-METAR|223|ICAO-KGXA|170|N-Normal|1|FM15-METAR|223|ICAO-KGXA|2.1|N-Normal|1|FM15-METAR|223|ICAO-KGXA|||||||||||||60|Derived||FM15-METAR|223|ICAO-KGXA|||||||||||||||||||||||||||||||||||||||||||||||||||||||||||||||||||||||||1026.4||1|FM15-METAR|223|ICAO-KGXA|-0.3|6-Decr,-th|1|FM15-METAR|223|ICAO-KGXA|||||||||||||||||||||||||||||||||||||MET083METAR KGXA 090855Z AUTO 17004KT 10SM 00/M07 A3031 RMK AO2 SLP293 T00011067 56003 $;||F||223|ICAO-KGXA
USI0000KGXA|GRAY BUTTE FLD|2011|11|09|10|00|34.5639|-117.6750|920.5|-1.0||1|FM15-METAR|223|ICAO-KGXA|-7.0||1|FM15-METAR|223|ICAO-KGXA|||||||1029.8||1|FM15-METAR|223|ICAO-KGXA|100|N-Normal|1|FM15-METAR|223|ICAO-KGXA|1.0|N-Normal|1|FM15-METAR|223|ICAO-KGXA|||||||||||||64|Derived||FM15-METAR|223|ICAO-KGXA|||||||||||||||||||||||||||||||||||||||||||||||||||||||||||||||||||||||||1026.8||1|FM15-METAR|223|ICAO-KGXA|||||||||||||||||||||||||||||||||||||||||||MET078METAR KGXA 090955Z AUTO 10002KT 10SM M01/M07 A3032 RMK AO2 SLP298 T10131067 $;||F||223|ICAO-KGXA
USI0000KGXA|GRAY BUTTE FLD|2011|11|09|11|00|34.5639|-117.6750|920.5|-1.0||1|FM15-METAR|223|ICAO-KGXA|-7.0||1|FM15-METAR|223|ICAO-KGXA|||||||1029.8||1|FM15-METAR|223|ICAO-KGXA|160|N-Normal|1|FM15-METAR|223|ICAO-KGXA|2.6|N-Normal|1|FM15-METAR|223|ICAO-KGXA|||||||||||||64|Derived||FM15-METAR|223|ICAO-KGXA|||||||||||||||||||||||||||||||||||||||||||||||||||||||||||||||||||||||||1026.8||1|FM15-METAR|223|ICAO-KGXA|||||||||||||||||||||||||||||||||||||||||||MET093METAR KGXA 091055Z AUTO 16005KT 10SM M01/M07 A3032 RMK AO2 SLP298 T10071073 PWINO PNO TSNO $;||F||223|ICAO-KGXA
USI0000KGXA|GRAY BUTTE FLD|2011|11|09|15|00|34.5639|-117.6750|920.5|2.0||1|FM15-METAR|223|ICAO-KGXA|-7.0||1|FM15-METAR|223|ICAO-KGXA|||||||1032.5||1|FM15-METAR|223|ICAO-KGXA|120|N-Normal|1|FM15-METAR|223|ICAO-KGXA|1.5|N-Normal|1|FM15-METAR|223|ICAO-KGXA|||||||||||||52|Derived||FM15-METAR|223|ICAO-KGXA|||||||||||||||||||||||||||||||||||||||||||||||||||||||||||||||||||||||||1028.1||1|FM15-METAR|223|ICAO-KGXA|1.8|3-Decr-or-|1|FM15-METAR|223|ICAO-KGXA|||||||||||||||||||||||||||||||||||||MET085METAR KGXA 091455Z AUTO 12003KT 10SM CLR 02/M07 A3036 RMK AO2 SLP325 T00171066 53018;||F||223|ICAO-KGXA
USI0000KGXA|GRAY BUTTE FLD|2011|11|09|16|00|34.5639|-117.6750|920.5|8.0||1|FM15-METAR|223|ICAO-KGXA|-7.0||1|FM15-METAR|223|ICAO-KGXA|||||||1032.4||1|FM15-METAR|223|ICAO-KGXA|090|N-Normal|1|FM15-METAR|223|ICAO-KGXA|1.0|N-Normal|1|FM15-METAR|223|ICAO-KGXA|||||||||||||34|Derived||FM15-METAR|223|ICAO-KGXA|||||||||||||||||||||||||||||||||||||||||||||||||||||||||||||||||||||||||1029.1||1|FM15-METAR|223|ICAO-KGXA|||||||||||||||||||||||||||||||||||||||||||MET079METAR KGXA 091555Z AUTO 09002KT 10SM CLR 08/M07 A3039 RMK AO2 SLP324 T00811071;||F||223|ICAO-KGXA
USI0000KGXA|GRAY BUTTE FLD|2011|11|09|17|00|34.5639|-117.6750|920.5|11.0||1|FM15-METAR|223|ICAO-KGXA|-9.0||1|FM15-METAR|223|ICAO-KGXA|||||||1032.1||1|FM15-METAR|223|ICAO-KGXA|100|N-Normal|1|FM15-METAR|223|ICAO-KGXA|2.6|N-Normal|1|FM15-METAR|223|ICAO-KGXA|||||||||||||24|Derived||FM15-METAR|223|ICAO-KGXA|||||||||||||||||||||||||||||||||||||||||||||||||||||||||||||||||||||||||1029.5||1|FM15-METAR|223|ICAO-KGXA|||||||||||||||||||||||||||||||||||||||||||MET079METAR KGXA 091655Z AUTO 10005KT 10SM CLR 11/M09 A3040 RMK AO2 SLP321 T01071089;||F||223|ICAO-KGXA
USI0000KGXA|GRAY BUTTE FLD|2011|11|09|18|00|34.5639|-117.6750|920.5|12.0||1|FM15-METAR|223|ICAO-KGXA|-9.0||1|FM15-METAR|223|ICAO-KGXA|||||||1031.6||1|FM15-METAR|223|ICAO-KGXA|080|N-Normal|1|FM15-METAR|223|ICAO-KGXA|3.6|N-Normal|1|FM15-METAR|223|ICAO-KGXA|||||||||||||22|Derived||FM15-METAR|223|ICAO-KGXA|||||||||||||||||||||||||||||||||||||||||||||||||||||||||||||||||||||||||1029.1||1|FM15-METAR|223|ICAO-KGXA|0.8|1-Incr-the|1|FM15-METAR|223|ICAO-KGXA|||||||||||||||||||||||||||||||||||||MET104METAR KGXA 091755Z AUTO 08007KT 10SM CLR 12/M09 A3039 RMK AO2 SLP316 T01191091 10028 21016 51008 TSNO $;||F||223|ICAO-KGXA
USI0000KGXA|GRAY BUTTE FLD|2011|11|09|19|00|34.5639|-117.6750|920.5|12.0||1|FM15-METAR|223|ICAO-KGXA|-9.0||1|FM15-METAR|223|ICAO-KGXA|||||||1030.8||1|FM15-METAR|223|ICAO-KGXA|100|N-Normal|1|FM15-METAR|223|ICAO-KGXA|4.1|N-Normal|1|FM15-METAR|223|ICAO-KGXA|||||||||||||22|Derived||FM15-METAR|223|ICAO-KGXA|||||||||||||||||||||||||||||||||||||||||||||||||||||||||||||||||||||||||1028.4||1|FM15-METAR|223|ICAO-KGXA|||||||||||||||||||||||||||||||||||||||||||MET079METAR KGXA 091855Z AUTO 10008KT 10SM CLR 12/M09 A3037 RMK AO2 SLP308 T01231090;||F||223|ICAO-KGXA
USI0000KGXA|GRAY BUTTE FLD|2011|11|09|20|00|34.5639|-117.6750|920.5|13.0||1|FM15-METAR|223|ICAO-KGXA|-10.0||1|FM15-METAR|223|ICAO-KGXA|||||||1030.0||1|FM15-METAR|223|ICAO-KGXA|060|N-Normal|1|FM15-METAR|223|ICAO-KGXA|3.6|N-Normal|1|FM15-METAR|223|ICAO-KGXA|||||||||||||19|Derived||FM15-METAR|223|ICAO-KGXA|||||||||||||||||||||||||||||||||||||||||||||||||||||||||||||||||||||||||1027.4||1|FM15-METAR|223|ICAO-KGXA|||||||||||||||||||||||||||||||||||||||||||MET094METAR KGXA 091955Z AUTO 06007KT 040V100 10SM CLR 13/M10 A3034 RMK AO2 SLP300 T01331098 TSNO $;||F||223|ICAO-KGXA
USI0000KGXA|GRAY BUTTE FLD|2011|11|09|21|00|34.5639|-117.6750|920.5|14.0||1|FM15-METAR|223|ICAO-KGXA|-10.0||1|FM15-METAR|223|ICAO-KGXA|||||||1028.8||1|FM15-METAR|223|ICAO-KGXA|050|N-Normal|1|FM15-METAR|223|ICAO-KGXA|5.1|N-Normal|1|FM15-METAR|223|ICAO-KGXA|||||||||||||18|Derived||FM15-METAR|223|ICAO-KGXA|||||||||||||||||||||||||||||||||||||||||||||||||||||||||||||||||||||||||1026.4||1|FM15-METAR|223|ICAO-KGXA|-2.6|8-Steady-o|1|FM15-METAR|223|ICAO-KGXA|||||||||||||||||||||||||||||||||||||MET092METAR KGXA 092055Z AUTO 05010KT 10SM CLR 14/M10 A3031 RMK AO2 SLP288 T01391096 58026 TSNO $;||F||223|ICAO-KGXA
USI0000KGXA|GRAY BUTTE FLD|2011|11|09|22|00|34.5639|-117.6750|920.5|14.0||1|FM15-METAR|223|ICAO-KGXA|-11.0||1|FM15-METAR|223|ICAO-KGXA|||||||1028.4||1|FM15-METAR|223|ICAO-KGXA|090|N-Normal|1|FM15-METAR|223|ICAO-KGXA|5.1|N-Normal|1|FM15-METAR|223|ICAO-KGXA|||||||||||||17|Derived||FM15-METAR|223|ICAO-KGXA|||||||||||||||||||||||||||||||||||||||||||||||||||||||||||||||||||||||||1025.7||1|FM15-METAR|223|ICAO-KGXA|||||||||||||||||||||||||||||||||||||||||||MET086METAR KGXA 092155Z AUTO 09010KT 10SM CLR 14/M11 A3029 RMK AO2 SLP284 T01421112 TSNO $;||F||223|ICAO-KGXA
USI0000KGXA|GRAY BUTTE FLD|2011|11|09|23|00|34.5639|-117.6750|920.5|14.0||1|FM15-METAR|223|ICAO-KGXA|-11.0||1|FM15-METAR|223|ICAO-KGXA|||||||1027.6||1|FM15-METAR|223|ICAO-KGXA|050|N-Normal|1|FM15-METAR|223|ICAO-KGXA|4.6|N-Normal|1|FM15-METAR|223|ICAO-KGXA|||||||||||||17|Derived||FM15-METAR|223|ICAO-KGXA|||||||||||||||||||||||||||||||||||||||||||||||||||||||||||||||||||||||||1025.4||1|FM15-METAR|223|ICAO-KGXA|||||||||||||||||||||||||||||||||||||||||||MET079METAR KGXA 092255Z AUTO 05009KT 10SM CLR 14/M11 A3028 RMK AO2 SLP276 T01441114;||F||223|ICAO-KGXA
USI0000KGXA|GRAY BUTTE FLD|2011|11|10|00|00|34.5639|-117.6750|920.5|14.0||1|FM15-METAR|223|ICAO-KGXA|-11.0||1|FM15-METAR|223|ICAO-KGXA|||||||1027.4||1|FM15-METAR|223|ICAO-KGXA|050|N-Normal|1|FM15-METAR|223|ICAO-KGXA|3.6|N-Normal|1|FM15-METAR|223|ICAO-KGXA|||||||||||||17|Derived||FM15-METAR|223|ICAO-KGXA|||||||||||||||||||||||||||||||||||||||||||||||||||||||||||||||||||||||||1025.1||1|FM15-METAR|223|ICAO-KGXA|-1.2|6-Decr,-th|1|FM15-METAR|223|ICAO-KGXA|||||||||||||||||||||||||||||||||||||MET107METAR KGXA 092355Z AUTO 05007KT 10SM CLR 14/M11 A3027 RMK AO2 SLP274 T01361111 10119 21017 401481016 56012;||F||223|ICAO-KGXA
USI0000KGXA|GRAY BUTTE FLD|2011|11|10|01|00|34.5639|-117.6750|920.5|11.0||1|FM15-METAR|223|ICAO-KGXA|-11.0||1|FM15-METAR|223|ICAO-KGXA|||||||1028.1||1|FM15-METAR|223|ICAO-KGXA|080|N-Normal|1|FM15-METAR|223|ICAO-KGXA|2.6|N-Normal|1|FM15-METAR|223|ICAO-KGXA|||||||||||||20|Derived||FM15-METAR|223|ICAO-KGXA|||||||||||||||||||||||||||||||||||||||||||||||||||||||||||||||||||||||||1024.7||1|FM15-METAR|223|ICAO-KGXA|||||||||||||||||||||||||||||||||||||||||||MET079METAR KGXA 100055Z AUTO 08005KT 10SM CLR 11/M11 A3026 RMK AO2 SLP281 T01131111;||F||223|ICAO-KGXA
USI0000KGXA|GRAY BUTTE FLD|2011|11|10|02|00|34.5639|-117.6750|920.5|8.0||1|FM15-METAR|223|ICAO-KGXA|-8.0||1|FM15-METAR|223|ICAO-KGXA|||||||1028.7||1|FM15-METAR|223|ICAO-KGXA|150|N-Normal|1|FM15-METAR|223|ICAO-KGXA|1.5|N-Normal|1|FM15-METAR|223|ICAO-KGXA|||||||||||||32|Derived||FM15-METAR|223|ICAO-KGXA|||||||||||||||||||||||||||||||||||||||||||||||||||||||||||||||||||||||||1025.4||1|FM15-METAR|223|ICAO-KGXA|||||||||||||||||||||||||||||||||||||||||||MET079METAR KGXA 100155Z AUTO 15003KT 10SM CLR 08/M08 A3028 RMK AO2 SLP287 T00821084;||F||223|ICAO-KGXA
USI0000KGXA|GRAY BUTTE FLD|2011|11|10|03|00|34.5639|-117.6750|920.5|6.0||1|FM15-METAR|223|ICAO-KGXA|-7.0||1|FM15-METAR|223|ICAO-KGXA|||||||1029.5||1|FM15-METAR|223|ICAO-KGXA|170|N-Normal|1|FM15-METAR|223|ICAO-KGXA|2.1|N-Normal|1|FM15-METAR|223|ICAO-KGXA|||||||||||||39|Derived||FM15-METAR|223|ICAO-KGXA|||||||||||||||||||||||||||||||||||||||||||||||||||||||||||||||||||||||||1025.7||1|FM15-METAR|223|ICAO-KGXA|0.6|3-Decr-or-|1|FM15-METAR|223|ICAO-KGXA|||||||||||||||||||||||||||||||||||||MET087METAR KGXA 100255Z AUTO 17004KT 10SM CLR 06/M07 A3029 RMK AO2 SLP295 T00611071 53006 $;||F||223|ICAO-KGXA
USI0000KGXA|GRAY BUTTE FLD|2011|11|10|04|00|34.5639|-117.6750|920.5|4.0||1|FM15-METAR|223|ICAO-KGXA|-6.0||1|FM15-METAR|223|ICAO-KGXA|||||||1029.3||1|FM15-METAR|223|ICAO-KGXA|150|N-Normal|1|FM15-METAR|223|ICAO-KGXA|1.5|N-Normal|1|FM15-METAR|223|ICAO-KGXA|||||||||||||48|Derived||FM15-METAR|223|ICAO-KGXA|||||||||||||||||||||||||||||||||||||||||||||||||||||||||||||||||||||||||1026.4||1|FM15-METAR|223|ICAO-KGXA|||||||||||||||||||||||||||||||||||||||||||MET081METAR KGXA 100355Z AUTO 15003KT 10SM CLR 04/M06 A3031 RMK AO2 SLP293 T00391060 $;||F||223|ICAO-KGXA
USI0000KGXA|GRAY BUTTE FLD|2011|11|10|05|00|34.5639|-117.6750|920.5|3.0||1|FM15-METAR|223|ICAO-KGXA|-7.0||1|FM15-METAR|223|ICAO-KGXA|||||||1029.5||1|FM15-METAR|223|ICAO-KGXA|180|N-Normal|1|FM15-METAR|223|ICAO-KGXA|2.1|N-Normal|1|FM15-METAR|223|ICAO-KGXA|||||||||||||48|Derived||FM15-METAR|223|ICAO-KGXA|||||||||||||||||||||||||||||||||||||||||||||||||||||||||||||||||||||||||1027.1||1|FM15-METAR|223|ICAO-KGXA|||||||||||||||||||||||||||||||||||||||||||MET081METAR KGXA 100455Z AUTO 18004KT 10SM CLR 03/M07 A3033 RMK AO2 SLP295 T00321070 $;||F||223|ICAO-KGXA
USI0000KGXA|GRAY BUTTE FLD|2011|11|10|06|00|34.5639|-117.6750|920.5|4.0||1|FM15-METAR|223|ICAO-KGXA|-7.0||1|FM15-METAR|223|ICAO-KGXA|||||||1029.1||1|FM15-METAR|223|ICAO-KGXA|160|N-Normal|1|FM15-METAR|223|ICAO-KGXA|2.6|N-Normal|1|FM15-METAR|223|ICAO-KGXA|||||||||||||45|Derived||FM15-METAR|223|ICAO-KGXA|||||||||||||||||||||||||||||||||||||||||||||||||||||||||||||||||||||||||1026.8||1|FM15-METAR|223|ICAO-KGXA|1.0|1-Incr-the|1|FM15-METAR|223|ICAO-KGXA|||||||||||||||||||||||||||||||||||||MET099METAR KGXA 100555Z AUTO 16005KT 10SM CLR 04/M07 A3032 RMK AO2 SLP291 T00361072 10148 20116 51010 $;||F||223|ICAO-KGXA
USI0000KGXA|GRAY BUTTE FLD|2011|11|10|07|00|34.5639|-117.6750|920.5|4.0||1|FM15-METAR|223|ICAO-KGXA|-7.0||1|FM15-METAR|223|ICAO-KGXA|||||||1028.9||1|FM15-METAR|223|ICAO-KGXA|170|N-Normal|1|FM15-METAR|223|ICAO-KGXA|2.1|N-Normal|1|FM15-METAR|223|ICAO-KGXA|||||||||||||45|Derived||FM15-METAR|223|ICAO-KGXA|||||||||||||||||||||||||||||||||||||||||||||||||||||||||||||||||||||||||1026.8||1|FM15-METAR|223|ICAO-KGXA|||||||||||||||||||||||||||||||||||||||||||MET081METAR KGXA 100655Z AUTO 17004KT 10SM CLR 04/M07 A3032 RMK AO2 SLP289 T00351067 $;||F||223|ICAO-KGXA
USI0000KGXA|GRAY BUTTE FLD|2011|11|10|08|00|34.5639|-117.6750|920.5|4.0||1|FM15-METAR|223|ICAO-KGXA|-7.0||1|FM15-METAR|223|ICAO-KGXA|||||||1028.3||1|FM15-METAR|223|ICAO-KGXA|160|N-Normal|1|FM15-METAR|223|ICAO-KGXA|2.1|N-Normal|1|FM15-METAR|223|ICAO-KGXA|||||||||||||45|Derived||FM15-METAR|223|ICAO-KGXA|||||||||||||||||||||||||||||||||||||||||||||||||||||||||||||||||||||||||1026.4||1|FM15-METAR|223|ICAO-KGXA|||||||||||||||||||||||||||||||||||||||||||MET081METAR KGXA 100755Z AUTO 16004KT 10SM CLR 04/M07 A3031 RMK AO2 SLP283 T00351068 $;||F||223|ICAO-KGXA
USI0000KGXA|GRAY BUTTE FLD|2011|11|10|09|00|34.5639|-117.6750|920.5|3.0||1|FM15-METAR|223|ICAO-KGXA|-7.0||1|FM15-METAR|223|ICAO-KGXA|||||||1028.3||1|FM15-METAR|223|ICAO-KGXA|160|N-Normal|1|FM15-METAR|223|ICAO-KGXA|2.1|N-Normal|1|FM15-METAR|223|ICAO-KGXA|||||||||||||48|Derived||FM15-METAR|223|ICAO-KGXA|||||||||||||||||||||||||||||||||||||||||||||||||||||||||||||||||||||||||1026.4||1|FM15-METAR|223|ICAO-KGXA|-0.6|7-Decr-(st|1|FM15-METAR|223|ICAO-KGXA|||||||||||||||||||||||||||||||||||||MET098METAR KGXA 100855Z AUTO 16004KT 10SM 03/M07 A3031 RMK AO2 SLP283 T00301068 57006 PWINO PNO TSNO $;||F||223|ICAO-KGXA
USI0000KGXA|GRAY BUTTE FLD|2011|11|10|16|00|34.5639|-117.6750|920.5|6.0||1|FM15-METAR|223|ICAO-KGXA|-8.0||1|FM15-METAR|223|ICAO-KGXA|||||||1030.1||1|FM15-METAR|223|ICAO-KGXA|280|N-Normal|1|FM15-METAR|223|ICAO-KGXA|1.0|N-Normal|1|FM15-METAR|223|ICAO-KGXA|||||||||||||36|Derived||FM15-METAR|223|ICAO-KGXA|||||||||||||||||||||||||||||||||||||||||||||||||||||||||||||||||||||||||1026.8||1|FM15-METAR|223|ICAO-KGXA|||||||||||||||||||||||||||||||||||||||||||MET082METAR KGXA 101555Z AUTO 28002KT 10SM FEW220 06/M08 A3032 RMK AO2 SLP301 T00621079;||F||223|ICAO-KGXA
USI0000KGXA|GRAY BUTTE FLD|2011|11|10|17|00|34.5639|-117.6750|920.5|9.0||1|FM15-METAR|223|ICAO-KGXA|-8.0||1|FM15-METAR|223|ICAO-KGXA|||||||1029.3||1|FM15-METAR|223|ICAO-KGXA|240|N-Normal|1|FM15-METAR|223|ICAO-KGXA|1.0|N-Normal|1|FM15-METAR|223|ICAO-KGXA|||||||||||||29|Derived||FM15-METAR|223|ICAO-KGXA|||||||||||||||||||||||||||||||||||||||||||||||||||||||||||||||||||||||||1026.4||1|FM15-METAR|223|ICAO-KGXA|||||||||||||||||||||||||||||||||||||||||||MET082METAR KGXA 101655Z AUTO 24002KT 10SM BKN180 09/M08 A3031 RMK AO2 SLP293 T00931082;||F||223|ICAO-KGXA
USI0000KGXA|GRAY BUTTE FLD|2011|11|10|18|00|34.5639|-117.6750|920.5|12.0||1|FM15-METAR|223|ICAO-KGXA|-9.0||1|FM15-METAR|223|ICAO-KGXA|||||||1027.5||1|FM15-METAR|223|ICAO-KGXA|030|N-Normal|1|FM15-METAR|223|ICAO-KGXA|1.5|N-Normal|1|FM15-METAR|223|ICAO-KGXA|||||||||||||22|Derived||FM15-METAR|223|ICAO-KGXA|||||||||||||||||||||||||||||||||||||||||||||||||||||||||||||||||||||||||1025.4||1|FM15-METAR|223|ICAO-KGXA|-0.7|8-Steady-o|1|FM15-METAR|223|ICAO-KGXA|||||||||||||||||||||||||||||||||||||MET104METAR KGXA 101755Z AUTO 03003KT 10SM CLR 12/M09 A3028 RMK AO2 SLP275 T01181087 10041 20002 58007 TSNO $;||F||223|ICAO-KGXA
USI0000KGXA|GRAY BUTTE FLD|2011|11|10|19|00|34.5639|-117.6750|920.5|13.0||1|FM15-METAR|223|ICAO-KGXA|-9.0||1|FM15-METAR|223|ICAO-KGXA|||||||1027.2||1|FM15-METAR|223|ICAO-KGXA|040|N-Normal|1|FM15-METAR|223|ICAO-KGXA|2.1|N-Normal|1|FM15-METAR|223|ICAO-KGXA|||||||||||||21|Derived||FM15-METAR|223|ICAO-KGXA|||||||||||||||||||||||||||||||||||||||||||||||||||||||||||||||||||||||||1025.4||1|FM15-METAR|223|ICAO-KGXA|||||||||||||||||||||||||||||||||||||||||||MET082METAR KGXA 101855Z AUTO 04004KT 10SM FEW200 13/M09 A3028 RMK AO2 SLP272 T01311086;||F||223|ICAO-KGXA
USI0000KGXA|GRAY BUTTE FLD|2011|11|10|20|00|34.5639|-117.6750|920.5|13.0||1|FM15-METAR|223|ICAO-KGXA|-8.0||1|FM15-METAR|223|ICAO-KGXA|||||||1026.0||1|FM15-METAR|223|ICAO-KGXA|150|N-Normal|1|FM15-METAR|223|ICAO-KGXA|2.1|N-Normal|1|FM15-METAR|223|ICAO-KGXA|||||||||||||23|Derived||FM15-METAR|223|ICAO-KGXA|||||||||||||||||||||||||||||||||||||||||||||||||||||||||||||||||||||||||1024.0||1|FM15-METAR|223|ICAO-KGXA|||||||||||||||||||||||||||||||||||||||||||MET089METAR KGXA 101955Z AUTO 15004KT 10SM SCT180 13/M08 A3024 RMK AO2 SLP260 T01341082 TSNO $;||F||223|ICAO-KGXA
USI0000KGXA|GRAY BUTTE FLD|2011|11|10|21|00|34.5639|-117.6750|920.5|14.0||1|FM15-METAR|223|ICAO-KGXA|-8.0||1|FM15-METAR|223|ICAO-KGXA|||||||1024.9||1|FM15-METAR|223|ICAO-KGXA|130|N-Normal|1|FM15-METAR|223|ICAO-KGXA|1.5|N-Normal|1|FM15-METAR|223|ICAO-KGXA|||||||||||||21|Derived||FM15-METAR|223|ICAO-KGXA|||||||||||||||||||||||||||||||||||||||||||||||||||||||||||||||||||||||||1022.7||1|FM15-METAR|223|ICAO-KGXA|-2.4|8-Steady-o|1|FM15-METAR|223|ICAO-KGXA|||||||||||||||||||||||||||||||||||||MET095METAR KGXA 102055Z AUTO 13003KT 10SM BKN190 14/M08 A3020 RMK AO2 SLP249 T01371081 58024 TSNO $;||F||223|ICAO-KGXA
USI0000KGXA|GRAY BUTTE FLD|2011|11|10|22|00|34.5639|-117.6750|920.5|14.0||1|FM15-METAR|223|ICAO-KGXA|-8.0||1|FM15-METAR|223|ICAO-KGXA|||||||1024.7||1|FM15-METAR|223|ICAO-KGXA|010|N-Normal|1|FM15-METAR|223|ICAO-KGXA|1.5|N-Normal|1|FM15-METAR|223|ICAO-KGXA|||||||||||||21|Derived||FM15-METAR|223|ICAO-KGXA|||||||||||||||||||||||||||||||||||||||||||||||||||||||||||||||||||||||||1022.4||1|FM15-METAR|223|ICAO-KGXA|||||||||||||||||||||||||||||||||||||||||||MET082METAR KGXA 102155Z AUTO 01003KT 10SM BKN190 14/M08 A3019 RMK AO2 SLP247 T01351080;||F||223|ICAO-KGXA
USI0000KGXA|GRAY BUTTE FLD|2011|11|14|14|34|34.5639|-117.6750|920.5|3.0||1|FM16-SPECI|223|ICAO-KGXA|0.0||1|FM16-SPECI|223|ICAO-KGXA|||||||1017.8||1|FM16-SPECI|223|ICAO-KGXA|170|N-Normal|1|FM16-SPECI|223|ICAO-KGXA|3.1|N-Normal|1|FM16-SPECI|223|ICAO-KGXA|||||||||||||81|Derived||FM16-SPECI|223|ICAO-KGXA|||||||||||||||||||||||||||||||||||||||||||||||||||||||||||||||||||||||||1013.9||1|FM16-SPECI|223|ICAO-KGXA|||||||||||||||||||||||||||||||||||||||||||MET068SPECI KGXA 141434Z AUTO 17006KT 10SM CLR 03/00 A2994 RMK AO2 SLP178;||F||223|ICAO-KGXA
USI0000KGXA|GRAY BUTTE FLD|2011|11|14|15|00|34.5639|-117.6750|920.5|5.0||1|FM15-METAR|223|ICAO-KGXA|0.0||1|FM15-METAR|223|ICAO-KGXA|||||||1017.2||1|FM15-METAR|223|ICAO-KGXA|160|N-Normal|1|FM15-METAR|223|ICAO-KGXA|2.6|N-Normal|1|FM15-METAR|223|ICAO-KGXA|||||||||||||70|Derived||FM15-METAR|223|ICAO-KGXA|||||||||||||||||||||||||||||||||||||||||||||||||||||||||||||||||||||||||1013.9||1|FM15-METAR|223|ICAO-KGXA|||||||||||||||||||||||||||||||||||||||||||MET078METAR KGXA 141455Z AUTO 16005KT 10SM CLR 05/00 A2994 RMK AO2 SLP172 T00460001;||F||223|ICAO-KGXA
USI0000KGXA|GRAY BUTTE FLD|2011|11|14|16|00|34.5639|-117.6750|920.5|9.0||1|FM15-METAR|223|ICAO-KGXA|2.0||1|FM15-METAR|223|ICAO-KGXA|||||||1015.8||1|FM15-METAR|223|ICAO-KGXA|160|N-Normal|1|FM15-METAR|223|ICAO-KGXA|1.0|N-Normal|1|FM15-METAR|223|ICAO-KGXA|||||||||||||62|Derived||FM15-METAR|223|ICAO-KGXA|||||||||||||||||||||||||||||||||||||||||||||||||||||||||||||||||||||||||1014.2||1|FM15-METAR|223|ICAO-KGXA|||||||||||||||||||||||||||||||||||||||||||MET078METAR KGXA 141555Z AUTO 16002KT 10SM CLR 09/02 A2995 RMK AO2 SLP158 T00880015;||F||223|ICAO-KGXA
USI0000KGXA|GRAY BUTTE FLD|2011|11|14|17|00|34.5639|-117.6750|920.5|14.0||1|FM15-METAR|223|ICAO-KGXA|4.0||1|FM15-METAR|223|ICAO-KGXA|||||||1013.9||1|FM15-METAR|223|ICAO-KGXA|180|N-Normal|1|FM15-METAR|223|ICAO-KGXA|1.0|N-Normal|1|FM15-METAR|223|ICAO-KGXA|||||||||||||51|Derived||FM15-METAR|223|ICAO-KGXA|||||||||||||||||||||||||||||||||||||||||||||||||||||||||||||||||||||||||1014.2||1|FM15-METAR|223|ICAO-KGXA|||||||||||||||||||||||||||||||||||||||||||MET078METAR KGXA 141655Z AUTO 18002KT 10SM CLR 14/04 A2995 RMK AO2 SLP139 T01370036;||F||223|ICAO-KGXA
USI0000KGXA|GRAY BUTTE FLD|2011|11|14|18|00|34.5639|-117.6750|920.5|18.0||1|FM15-METAR|223|ICAO-KGXA|-4.0||1|FM15-METAR|223|ICAO-KGXA|||||||1012.2||1|FM15-METAR|223|ICAO-KGXA|290|N-Normal|1|FM15-METAR|223|ICAO-KGXA|8.2|N-Normal|1|FM15-METAR|223|ICAO-KGXA|10.8||1|FM15-METAR|223|ICAO-KGXA|||||||22|Derived||FM15-METAR|223|ICAO-KGXA|||||||||||||||||||||||||||||||||||||||||||||||||||||||||||||||||||||||||1014.2||1|FM15-METAR|223|ICAO-KGXA|0.2|2-Incr-(st|1|FM15-METAR|223|ICAO-KGXA|||||||||||||||||||||||||||||||||||||MET091METAR KGXA 141755Z AUTO 29016G21KT 10SM FEW240 18/M04 A2995 RMK AO2 SLP122 T01751043 52002;||F||223|ICAO-KGXA
USI0000KGXA|GRAY BUTTE FLD|2011|11|14|19|00|34.5639|-117.6750|920.5|18.0||1|FM15-METAR|223|ICAO-KGXA|-5.0||1|FM15-METAR|223|ICAO-KGXA|||||||1011.2||1|FM15-METAR|223|ICAO-KGXA|290|N-Normal|1|FM15-METAR|223|ICAO-KGXA|7.7|N-Normal|1|FM15-METAR|223|ICAO-KGXA|10.8||1|FM15-METAR|223|ICAO-KGXA|||||||21|Derived||FM15-METAR|223|ICAO-KGXA|||||||||||||||||||||||||||||||||||||||||||||||||||||||||||||||||||||||||1013.2||1|FM15-METAR|223|ICAO-KGXA|||||||||||||||||||||||||||||||||||||||||||MET089METAR KGXA 141855Z AUTO 29015G21KT 10SM CLR 18/M05 A2992 RMK AO2 SLP112 T01811054 TSNO $;||F||223|ICAO-KGXA
USI0000KGXA|GRAY BUTTE FLD|2011|11|14|20|00|34.5639|-117.6750|920.5|19.0||1|FM15-METAR|223|ICAO-KGXA|-4.0||1|FM15-METAR|223|ICAO-KGXA|||||||1010.2||1|FM15-METAR|223|ICAO-KGXA|290|N-Normal|1|FM15-METAR|223|ICAO-KGXA|5.7|N-Normal|1|FM15-METAR|223|ICAO-KGXA|9.8||1|FM15-METAR|223|ICAO-KGXA|||||||21|Derived||FM15-METAR|223|ICAO-KGXA|||||||||||||||||||||||||||||||||||||||||||||||||||||||||||||||||||||||||1012.5||1|FM15-METAR|223|ICAO-KGXA|||||||||||||||||||||||||||||||||||||||||||MET089METAR KGXA 141955Z AUTO 29011G19KT 10SM CLR 19/M04 A2990 RMK AO2 SLP102 T01871044 TSNO $;||F||223|ICAO-KGXA
USI0000KGXA|GRAY BUTTE FLD|2011|11|14|21|00|34.5639|-117.6750|920.5|19.0||1|FM15-METAR|223|ICAO-KGXA|-4.0||1|FM15-METAR|223|ICAO-KGXA|||||||1009.5||1|FM15-METAR|223|ICAO-KGXA|290|N-Normal|1|FM15-METAR|223|ICAO-KGXA|5.7|N-Normal|1|FM15-METAR|223|ICAO-KGXA|10.8||1|FM15-METAR|223|ICAO-KGXA|||||||21|Derived||FM15-METAR|223|ICAO-KGXA|||||||||||||||||||||||||||||||||||||||||||||||||||||||||||||||||||||||||1011.9||1|FM15-METAR|223|ICAO-KGXA|-1.9|6-Decr,-th|1|FM15-METAR|223|ICAO-KGXA|||||||||||||||||||||||||||||||||||||MET095METAR KGXA 142055Z AUTO 29011G21KT 10SM CLR 19/M04 A2988 RMK AO2 SLP095 T01931044 56019 TSNO $;||F||223|ICAO-KGXA
USI0000KGXA|GRAY BUTTE FLD|2011|11|14|22|00|34.5639|-117.6750|920.5|19.0||1|FM15-METAR|223|ICAO-KGXA|-5.0||1|FM15-METAR|223|ICAO-KGXA|||||||1009.4||1|FM15-METAR|223|ICAO-KGXA|300|N-Normal|1|FM15-METAR|223|ICAO-KGXA|6.7|N-Normal|1|FM15-METAR|223|ICAO-KGXA|11.3||1|FM15-METAR|223|ICAO-KGXA|||||||19|Derived||FM15-METAR|223|ICAO-KGXA|||||||||||||||||||||||||||||||||||||||||||||||||||||||||||||||||||||||||1012.2||1|FM15-METAR|223|ICAO-KGXA|||||||||||||||||||||||||||||||||||||||||||MET089METAR KGXA 142155Z AUTO 30013G22KT 10SM CLR 19/M05 A2989 RMK AO2 SLP094 T01921050 TSNO $;||F||223|ICAO-KGXA
USI0000KGXA|GRAY BUTTE FLD|2011|11|14|23|00|34.5639|-117.6750|920.5|18.0||1|FM15-METAR|223|ICAO-KGXA|-6.0||1|FM15-METAR|223|ICAO-KGXA|||||||1009.8||1|FM15-METAR|223|ICAO-KGXA|300|N-Normal|1|FM15-METAR|223|ICAO-KGXA|4.6|N-Normal|1|FM15-METAR|223|ICAO-KGXA|8.7||1|FM15-METAR|223|ICAO-KGXA|||||||19|Derived||FM15-METAR|223|ICAO-KGXA|||||||||||||||||||||||||||||||||||||||||||||||||||||||||||||||||||||||||1012.2||1|FM15-METAR|223|ICAO-KGXA|||||||||||||||||||||||||||||||||||||||||||MET089METAR KGXA 142255Z AUTO 30009G17KT 10SM CLR 18/M06 A2989 RMK AO2 SLP098 T01821057 TSNO $;||F||223|ICAO-KGXA
USI0000KGXA|GRAY BUTTE FLD|2011|11|15|00|00|34.5639|-117.6750|920.5|17.0||1|FM15-METAR|223|ICAO-KGXA|-2.0||1|FM15-METAR|223|ICAO-KGXA|||||||1010.5||1|FM15-METAR|223|ICAO-KGXA|300|N-Normal|1|FM15-METAR|223|ICAO-KGXA|4.6|N-Normal|1|FM15-METAR|223|ICAO-KGXA|||||||||||||27|Derived||FM15-METAR|223|ICAO-KGXA|||||||||||||||||||||||||||||||||||||||||||||||||||||||||||||||||||||||||1012.5||1|FM15-METAR|223|ICAO-KGXA|0.4|2-Incr-(st|1|FM15-METAR|223|ICAO-KGXA|||||||||||||||||||||||||||||||||||||MET114METAR KGXA 142355Z AUTO 30009KT 10SM CLR 17/M02 A2990 RMK AO2 SLP105 T01701019 10176 20025 401960029 52004 TSNO $;||F||223|ICAO-KGXA
USI0000KGXA|GRAY BUTTE FLD|2011|11|15|01|00|34.5639|-117.6750|920.5|14.0||1|FM15-METAR|223|ICAO-KGXA|0.0||1|FM15-METAR|223|ICAO-KGXA|||||||1011.8||1|FM15-METAR|223|ICAO-KGXA|290|N-Normal|1|FM15-METAR|223|ICAO-KGXA|3.1|N-Normal|1|FM15-METAR|223|ICAO-KGXA|||||||||||||39|Derived||FM15-METAR|223|ICAO-KGXA|||||||||||||||||||||||||||||||||||||||||||||||||||||||||||||||||||||||||1012.5||1|FM15-METAR|223|ICAO-KGXA|||||||||||||||||||||||||||||||||||||||||||MET080METAR KGXA 150055Z AUTO 29006KT 10SM CLR 14/00 A2990 RMK AO2 SLP118 T01441002 $;||F||223|ICAO-KGXA
USI0000KGXA|GRAY BUTTE FLD|2011|11|15|02|00|34.5639|-117.6750|920.5|12.0||1|FM15-METAR|223|ICAO-KGXA|3.0||1|FM15-METAR|223|ICAO-KGXA|||||||1015.3||1|FM15-METAR|223|ICAO-KGXA|230|N-Normal|1|FM15-METAR|223|ICAO-KGXA|2.1|N-Normal|1|FM15-METAR|223|ICAO-KGXA|||||||||||||54|Derived||FM15-METAR|223|ICAO-KGXA|||||||||||||||||||||||||||||||||||||||||||||||||||||||||||||||||||||||||1013.5||1|FM15-METAR|223|ICAO-KGXA|||||||||||||||||||||||||||||||||||||||||||MET080METAR KGXA 150155Z AUTO 23004KT 10SM CLR 12/03 A2993 RMK AO2 SLP153 T01180028 $;||F||223|ICAO-KGXA
USI0000KGXA|GRAY BUTTE FLD|2011|11|15|03|00|34.5639|-117.6750|920.5|10.0||1|FM15-METAR|223|ICAO-KGXA|3.0||1|FM15-METAR|223|ICAO-KGXA|||||||1016.3||1|FM15-METAR|223|ICAO-KGXA|220|N-Normal|1|FM15-METAR|223|ICAO-KGXA|1.5|N-Normal|1|FM15-METAR|223|ICAO-KGXA|||||||||||||62|Derived||FM15-METAR|223|ICAO-KGXA|||||||||||||||||||||||||||||||||||||||||||||||||||||||||||||||||||||||||1013.9||1|FM15-METAR|223|ICAO-KGXA|1.6|3-Decr-or-|1|FM15-METAR|223|ICAO-KGXA|||||||||||||||||||||||||||||||||||||MET097METAR KGXA 150255Z AUTO 22003KT 10SM 10/03 A2994 RMK AO2 SLP163 T01010026 53016 PWINO PNO TSNO $;||F||223|ICAO-KGXA
USI0000KGXA|GRAY BUTTE FLD|2011|11|15|15|00|34.5639|-117.6750|920.5|4.0||1|FM15-METAR|223|ICAO-KGXA|0.0||1|FM15-METAR|223|ICAO-KGXA|||||||1020.4||1|FM15-METAR|223|ICAO-KGXA|170|N-Normal|1|FM15-METAR|223|ICAO-KGXA|2.1|N-Normal|1|FM15-METAR|223|ICAO-KGXA|||||||||||||75|Derived||FM15-METAR|223|ICAO-KGXA|||||||||||||||||||||||||||||||||||||||||||||||||||||||||||||||||||||||||1018.0||1|FM15-METAR|223|ICAO-KGXA|1.0|3-Decr-or-|1|FM15-METAR|223|ICAO-KGXA|||||||||||||||||||||||||||||||||||||MET084METAR KGXA 151455Z AUTO 17004KT 10SM CLR 04/00 A3006 RMK AO2 SLP204 T00390002 53010;||F||223|ICAO-KGXA
USI0000KGXA|GRAY BUTTE FLD|2011|11|15|16|00|34.5639|-117.6750|920.5|10.0||1|FM15-METAR|223|ICAO-KGXA|2.0||1|FM15-METAR|223|ICAO-KGXA|||||||1019.7||1|FM15-METAR|223|ICAO-KGXA|160|N-Normal|1|FM15-METAR|223|ICAO-KGXA|1.0|N-Normal|1|FM15-METAR|223|ICAO-KGXA|||||||||||||58|Derived||FM15-METAR|223|ICAO-KGXA|||||||||||||||||||||||||||||||||||||||||||||||||||||||||||||||||||||||||1018.3||1|FM15-METAR|223|ICAO-KGXA|||||||||||||||||||||||||||||||||||||||||||MET078METAR KGXA 151555Z AUTO 16002KT 10SM CLR 10/02 A3007 RMK AO2 SLP197 T00990020;||F||223|ICAO-KGXA
USI0000KGXA|GRAY BUTTE FLD|2011|11|15|17|00|34.5639|-117.6750|920.5|13.0||1|FM15-METAR|223|ICAO-KGXA|3.0||1|FM15-METAR|223|ICAO-KGXA|||||||1019.7||1|FM15-METAR|223|ICAO-KGXA|350|N-Normal|1|FM15-METAR|223|ICAO-KGXA|1.5|N-Normal|1|FM15-METAR|223|ICAO-KGXA|||||||||||||51|Derived||FM15-METAR|223|ICAO-KGXA|||||||||||||||||||||||||||||||||||||||||||||||||||||||||||||||||||||||||1018.6||1|FM15-METAR|223|ICAO-KGXA|||||||||||||||||||||||||||||||||||||||||||MET078METAR KGXA 151655Z AUTO 35003KT 10SM CLR 13/03 A3008 RMK AO2 SLP197 T01270026;||F||223|ICAO-KGXA
USI0000KGXA|GRAY BUTTE FLD|2011|11|15|18|00|34.5639|-117.6750|920.5|15.0||1|FM15-METAR|223|ICAO-KGXA|1.0||1|FM15-METAR|223|ICAO-KGXA|||||||1019.3||1|FM15-METAR|223|ICAO-KGXA|340|N-Normal|1|FM15-METAR|223|ICAO-KGXA|1.0|N-Normal|1|FM15-METAR|223|ICAO-KGXA|||||||||||||39|Derived||FM15-METAR|223|ICAO-KGXA|||||||||||||||||||||||||||||||||||||||||||||||||||||||||||||||||||||||||1018.3||1|FM15-METAR|223|ICAO-KGXA|0.4|1-Incr-the|1|FM15-METAR|223|ICAO-KGXA|||||||||||||||||||||||||||||||||||||MET096METAR KGXA 151755Z AUTO 34002KT 10SM CLR 15/01 A3007 RMK AO2 SLP193 T01500010 10064 20040 51004;||F||223|ICAO-KGXA
USI0000KGXA|GRAY BUTTE FLD|2011|11|15|19|00|34.5639|-117.6750|920.5|17.0||1|FM15-METAR|223|ICAO-KGXA|0.0||1|FM15-METAR|223|ICAO-KGXA|||||||1018.4||1|FM15-METAR|223|ICAO-KGXA|340|N-Normal|1|FM15-METAR|223|ICAO-KGXA|1.5|N-Normal|1|FM15-METAR|223|ICAO-KGXA|||||||||||||32|Derived||FM15-METAR|223|ICAO-KGXA|||||||||||||||||||||||||||||||||||||||||||||||||||||||||||||||||||||||||1018.0||1|FM15-METAR|223|ICAO-KGXA|||||||||||||||||||||||||||||||||||||||||||MET085METAR KGXA 151855Z AUTO 34003KT 10SM CLR 17/00 A3006 RMK AO2 SLP184 T01710002 TSNO $;||F||223|ICAO-KGXA
USI0000KGXA|GRAY BUTTE FLD|2011|11|15|20|00|34.5639|-117.6750|920.5|18.0||1|FM15-METAR|223|ICAO-KGXA|1.0||1|FM15-METAR|223|ICAO-KGXA|||||||1017.5||1|FM15-METAR|223|ICAO-KGXA|310|N-Normal|1|FM15-METAR|223|ICAO-KGXA|3.1|N-Normal|1|FM15-METAR|223|ICAO-KGXA|||||||||||||32|Derived||FM15-METAR|223|ICAO-KGXA|||||||||||||||||||||||||||||||||||||||||||||||||||||||||||||||||||||||||1016.9||1|FM15-METAR|223|ICAO-KGXA|||||||||||||||||||||||||||||||||||||||||||MET085METAR KGXA 151955Z AUTO 31006KT 10SM CLR 18/01 A3003 RMK AO2 SLP175 T01750006 TSNO $;||F||223|ICAO-KGXA
USI0000KGXA|GRAY BUTTE FLD|2011|11|15|21|00|34.5639|-117.6750|920.5|19.0||1|FM15-METAR|223|ICAO-KGXA|1.0||1|FM15-METAR|223|ICAO-KGXA|||||||1016.5||1|FM15-METAR|223|ICAO-KGXA|280|N-Normal|1|FM15-METAR|223|ICAO-KGXA|3.6|N-Normal|1|FM15-METAR|223|ICAO-KGXA|||||||||||||30|Derived||FM15-METAR|223|ICAO-KGXA|||||||||||||||||||||||||||||||||||||||||||||||||||||||||||||||||||||||||1016.3||1|FM15-METAR|223|ICAO-KGXA|-1.9|7-Decr-(st|1|FM15-METAR|223|ICAO-KGXA|||||||||||||||||||||||||||||||||||||MET091METAR KGXA 152055Z AUTO 28007KT 10SM CLR 19/01 A3001 RMK AO2 SLP165 T01920013 57019 TSNO $;||F||223|ICAO-KGXA
USI0000KGXA|GRAY BUTTE FLD|2011|11|15|22|00|34.5639|-117.6750|920.5|20.0||1|FM15-METAR|223|ICAO-KGXA|1.0||1|FM15-METAR|223|ICAO-KGXA|||||||1015.6||1|FM15-METAR|223|ICAO-KGXA|270|N-Normal|1|FM15-METAR|223|ICAO-KGXA|5.1|N-Normal|1|FM15-METAR|223|ICAO-KGXA|7.2||1|FM15-METAR|223|ICAO-KGXA|||||||28|Derived||FM15-METAR|223|ICAO-KGXA|||||||||||||||||||||||||||||||||||||||||||||||||||||||||||||||||||||||||1015.6||1|FM15-METAR|223|ICAO-KGXA|||||||||||||||||||||||||||||||||||||||||||MET088METAR KGXA 152155Z AUTO 27010G14KT 10SM CLR 20/01 A2999 RMK AO2 SLP156 T02030008 TSNO $;||F||223|ICAO-KGXA
USI0000KGXA|GRAY BUTTE FLD|2011|11|15|23|00|34.5639|-117.6750|920.5|21.0||1|FM15-METAR|223|ICAO-KGXA|-1.0||1|FM15-METAR|223|ICAO-KGXA|||||||1015.5||1|FM15-METAR|223|ICAO-KGXA|290|N-Normal|1|FM15-METAR|223|ICAO-KGXA|6.7|N-Normal|1|FM15-METAR|223|ICAO-KGXA|9.8||1|FM15-METAR|223|ICAO-KGXA|||||||23|Derived||FM15-METAR|223|ICAO-KGXA|||||||||||||||||||||||||||||||||||||||||||||||||||||||||||||||||||||||||1015.6||1|FM15-METAR|223|ICAO-KGXA|||||||||||||||||||||||||||||||||||||||||||MET089METAR KGXA 152255Z AUTO 29013G19KT 10SM CLR 21/M01 A2999 RMK AO2 SLP155 T02051007 TSNO $;||F||223|ICAO-KGXA
USI0000KGXA|GRAY BUTTE FLD|2011|11|16|00|00|34.5639|-117.6750|920.5|18.0||1|FM15-METAR|223|ICAO-KGXA|-1.0||1|FM15-METAR|223|ICAO-KGXA|||||||1016.5||1|FM15-METAR|223|ICAO-KGXA|290|N-Normal|1|FM15-METAR|223|ICAO-KGXA|7.2|N-Normal|1|FM15-METAR|223|ICAO-KGXA|9.8||1|FM15-METAR|223|ICAO-KGXA|||||||28|Derived||FM15-METAR|223|ICAO-KGXA|||||||||||||||||||||||||||||||||||||||||||||||||||||||||||||||||||||||||1015.9||1|FM15-METAR|223|ICAO-KGXA|-0.3|5-Decr,-th|1|FM15-METAR|223|ICAO-KGXA|||||||||||||||||||||||||||||||||||||MET117METAR KGXA 152355Z AUTO 29014G19KT 10SM CLR 18/M01 A3000 RMK AO2 SLP165 T01801008 10152 20025 402070028 55003 TSNO $;||F||223|ICAO-KGXA
USI0000KGXA|GRAY BUTTE FLD|2011|11|16|01|00|34.5639|-117.6750|920.5|14.0||1|FM15-METAR|223|ICAO-KGXA|0.0||1|FM15-METAR|223|ICAO-KGXA|||||||1017.7||1|FM15-METAR|223|ICAO-KGXA|280|N-Normal|1|FM15-METAR|223|ICAO-KGXA|4.1|N-Normal|1|FM15-METAR|223|ICAO-KGXA|||||||||||||39|Derived||FM15-METAR|223|ICAO-KGXA|||||||||||||||||||||||||||||||||||||||||||||||||||||||||||||||||||||||||1016.3||1|FM15-METAR|223|ICAO-KGXA|||||||||||||||||||||||||||||||||||||||||||MET080METAR KGXA 160055Z AUTO 28008KT 10SM CLR 14/00 A3001 RMK AO2 SLP177 T01431005 $;||F||223|ICAO-KGXA
USI0000KGXA|GRAY BUTTE FLD|2011|11|16|02|00|34.5639|-117.6750|920.5|||||||||||||||||||||||||280|N-Normal|1|FM15-METAR|223|ICAO-KGXA|4.1|N-Normal|1|FM15-METAR|223|ICAO-KGXA|||||||||||||||||||||||||||||||||||||||||||||||||||||||||||||||||||||||||||||||||||||||||||||||||||||||||||||||||||||||||||||||||||||||||||MET063METAR KGXA 160155Z AUTO 28008KT RMK AO2 SLPNO PWINO PNO TSNO $;||F||223|ICAO-KGXA
USI0000KGXA|GRAY BUTTE FLD|2011|11|16|15|00|34.5639|-117.6750|920.5|5.0||1|FM15-METAR|223|ICAO-KGXA|0.0||1|FM15-METAR|223|ICAO-KGXA|||||||1023.7||1|FM15-METAR|223|ICAO-KGXA|170|N-Normal|1|FM15-METAR|223|ICAO-KGXA|1.5|N-Normal|1|FM15-METAR|223|ICAO-KGXA|||||||||||||70|Derived||FM15-METAR|223|ICAO-KGXA|||||||||||||||||||||||||||||||||||||||||||||||||||||||||||||||||||||||||1021.7||1|FM15-METAR|223|ICAO-KGXA|2.1|2-Incr-(st|1|FM15-METAR|223|ICAO-KGXA|||||||||||||||||||||||||||||||||||||MET084METAR KGXA 161455Z AUTO 17003KT 10SM CLR 05/00 A3017 RMK AO2 SLP237 T00480002 52021;||F||223|ICAO-KGXA
USI0000KGXA|GRAY BUTTE FLD|2011|11|16|16|00|34.5639|-117.6750|920.5|11.0||1|FM15-METAR|223|ICAO-KGXA|2.0||1|FM15-METAR|223|ICAO-KGXA|||||||1023.5||1|FM15-METAR|223|ICAO-KGXA|999|C-Calm|9|FM15-METAR|223|ICAO-KGXA|0.0|C-Calm|1|FM15-METAR|223|ICAO-KGXA|||||||||||||54|Derived||FM15-METAR|223|ICAO-KGXA|||||||||||||||||||||||||||||||||||||||||||||||||||||||||||||||||||||||||1022.4||1|FM15-METAR|223|ICAO-KGXA|||||||||||||||||||||||||||||||||||||||||||MET078METAR KGXA 161555Z AUTO 00000KT 10SM CLR 11/02 A3019 RMK AO2 SLP235 T01070015;||F||223|ICAO-KGXA
USI0000KGXA|GRAY BUTTE FLD|2011|11|16|17|00|34.5639|-117.6750|920.5|12.0||1|FM15-METAR|223|ICAO-KGXA|3.0||1|FM15-METAR|223|ICAO-KGXA|||||||1023.8||1|FM15-METAR|223|ICAO-KGXA|330|N-Normal|1|FM15-METAR|223|ICAO-KGXA|1.5|N-Normal|1|FM15-METAR|223|ICAO-KGXA|||||||||||||54|Derived||FM15-METAR|223|ICAO-KGXA|||||||||||||||||||||||||||||||||||||||||||||||||||||||||||||||||||||||||1023.0||1|FM15-METAR|223|ICAO-KGXA|||||||||||||||||||||||||||||||||||||||||||MET078METAR KGXA 161655Z AUTO 33003KT 10SM CLR 12/03 A3021 RMK AO2 SLP238 T01220025;||F||223|ICAO-KGXA
USI0000KGXA|GRAY BUTTE FLD|2011|11|16|18|00|34.5639|-117.6750|920.5|14.0||1|FM15-METAR|223|ICAO-KGXA|3.0||1|FM15-METAR|223|ICAO-KGXA|||||||1023.8||1|FM15-METAR|223|ICAO-KGXA|999|V-Variable|9|FM15-METAR|223|ICAO-KGXA|1.5|V-Variable|1|FM15-METAR|223|ICAO-KGXA|||||||||||||48|Derived||FM15-METAR|223|ICAO-KGXA|||||||||||||||||||||||||||||||||||||||||||||||||||||||||||||||||||||||||1023.0||1|FM15-METAR|223|ICAO-KGXA|1.4|1-Incr-the|1|FM15-METAR|223|ICAO-KGXA|||||||||||||||||||||||||||||||||||||MET096METAR KGXA 161755Z AUTO VRB03KT 10SM CLR 14/03 A3021 RMK AO2 SLP238 T01440028 10088 20033 51014;||F||223|ICAO-KGXA
USI0000KGXA|GRAY BUTTE FLD|2011|11|16|19|00|34.5639|-117.6750|920.5|16.0||1|FM15-METAR|223|ICAO-KGXA|2.0||1|FM15-METAR|223|ICAO-KGXA|||||||1023.1||1|FM15-METAR|223|ICAO-KGXA|060|N-Normal|1|FM15-METAR|223|ICAO-KGXA|2.1|N-Normal|1|FM15-METAR|223|ICAO-KGXA|||||||||||||39|Derived||FM15-METAR|223|ICAO-KGXA|||||||||||||||||||||||||||||||||||||||||||||||||||||||||||||||||||||||||1022.7||1|FM15-METAR|223|ICAO-KGXA|||||||||||||||||||||||||||||||||||||||||||MET085METAR KGXA 161855Z AUTO 06004KT 10SM CLR 16/02 A3020 RMK AO2 SLP231 T01590021 TSNO $;||F||223|ICAO-KGXA
USI0000KGXA|GRAY BUTTE FLD|2011|11|16|20|00|34.5639|-117.6750|920.5|18.0||1|FM15-METAR|223|ICAO-KGXA|0.0||1|FM15-METAR|223|ICAO-KGXA|||||||1022.5||1|FM15-METAR|223|ICAO-KGXA|999|V-Variable|9|FM15-METAR|223|ICAO-KGXA|2.1|V-Variable|1|FM15-METAR|223|ICAO-KGXA|||||||||||||30|Derived||FM15-METAR|223|ICAO-KGXA|||||||||||||||||||||||||||||||||||||||||||||||||||||||||||||||||||||||||1021.7||1|FM15-METAR|223|ICAO-KGXA|||||||||||||||||||||||||||||||||||||||||||MET085METAR KGXA 161955Z AUTO VRB04KT 10SM CLR 18/00 A3017 RMK AO2 SLP225 T01770001 TSNO $;||F||223|ICAO-KGXA
USI0000KGXA|GRAY BUTTE FLD|2011|11|16|21|00|34.5639|-117.6750|920.5|19.0||1|FM15-METAR|223|ICAO-KGXA|-1.0||1|FM15-METAR|223|ICAO-KGXA|||||||1021.9||1|FM15-METAR|223|ICAO-KGXA|999|V-Variable|9|FM15-METAR|223|ICAO-KGXA|2.6|V-Variable|1|FM15-METAR|223|ICAO-KGXA|||||||||||||26|Derived||FM15-METAR|223|ICAO-KGXA|||||||||||||||||||||||||||||||||||||||||||||||||||||||||||||||||||||||||1021.3||1|FM15-METAR|223|ICAO-KGXA|-1.8|7-Decr-(st|1|FM15-METAR|223|ICAO-KGXA|||||||||||||||||||||||||||||||||||||MET092METAR KGXA 162055Z AUTO VRB05KT 10SM CLR 19/M01 A3016 RMK AO2 SLP219 T01881006 57018 TSNO $;||F||223|ICAO-KGXA
USI0000KGXA|GRAY BUTTE FLD|2011|11|16|22|00|34.5639|-117.6750|920.5|19.0||1|FM15-METAR|223|ICAO-KGXA|0.0||1|FM15-METAR|223|ICAO-KGXA|||||||1021.7||1|FM15-METAR|223|ICAO-KGXA|120|N-Normal|1|FM15-METAR|223|ICAO-KGXA|2.6|N-Normal|1|FM15-METAR|223|ICAO-KGXA|||||||||||||28|Derived||FM15-METAR|223|ICAO-KGXA|||||||||||||||||||||||||||||||||||||||||||||||||||||||||||||||||||||||||1021.0||1|FM15-METAR|223|ICAO-KGXA|||||||||||||||||||||||||||||||||||||||||||MET085METAR KGXA 162155Z AUTO 12005KT 10SM CLR 19/00 A3015 RMK AO2 SLP217 T01861005 TSNO $;||F||223|ICAO-KGXA
USI0000KGXA|GRAY BUTTE FLD|2011|11|16|23|00|34.5639|-117.6750|920.5|18.0||1|FM15-METAR|223|ICAO-KGXA|0.0||1|FM15-METAR|223|ICAO-KGXA|||||||1021.6||1|FM15-METAR|223|ICAO-KGXA|070|N-Normal|1|FM15-METAR|223|ICAO-KGXA|2.6|N-Normal|1|FM15-METAR|223|ICAO-KGXA|||||||||||||30|Derived||FM15-METAR|223|ICAO-KGXA|||||||||||||||||||||||||||||||||||||||||||||||||||||||||||||||||||||||||1021.0||1|FM15-METAR|223|ICAO-KGXA|||||||||||||||||||||||||||||||||||||||||||MET085METAR KGXA 162255Z AUTO 07005KT 10SM CLR 18/00 A3015 RMK AO2 SLP216 T01831004 TSNO $;||F||223|ICAO-KGXA
USI0000KGXA|GRAY BUTTE FLD|2011|11|17|00|00|34.5639|-117.6750|920.5|18.0||1|FM15-METAR|223|ICAO-KGXA|0.0||1|FM15-METAR|223|ICAO-KGXA|||||||1022.0||1|FM15-METAR|223|ICAO-KGXA|050|N-Normal|1|FM15-METAR|223|ICAO-KGXA|2.6|N-Normal|1|FM15-METAR|223|ICAO-KGXA|||||||||||||30|Derived||FM15-METAR|223|ICAO-KGXA|||||||||||||||||||||||||||||||||||||||||||||||||||||||||||||||||||||||||1021.0||1|FM15-METAR|223|ICAO-KGXA|0.1|2-Incr-(st|1|FM15-METAR|223|ICAO-KGXA|||||||||||||||||||||||||||||||||||||MET113METAR KGXA 162355Z AUTO 05005KT 10SM CLR 18/00 A3015 RMK AO2 SLP220 T01791004 10149 20031 401890037 54001 TSNO $;||F||223|ICAO-KGXA
USI0000KGXA|GRAY BUTTE FLD|2011|11|17|01|00|34.5639|-117.6750|920.5|15.0||1|FM15-METAR|223|ICAO-KGXA|-1.0||1|FM15-METAR|223|ICAO-KGXA|||||||1022.7||1|FM15-METAR|223|ICAO-KGXA|100|N-Normal|1|FM15-METAR|223|ICAO-KGXA|1.0|N-Normal|1|FM15-METAR|223|ICAO-KGXA|||||||||||||34|Derived||FM15-METAR|223|ICAO-KGXA|||||||||||||||||||||||||||||||||||||||||||||||||||||||||||||||||||||||||1021.3||1|FM15-METAR|223|ICAO-KGXA|||||||||||||||||||||||||||||||||||||||||||MET081METAR KGXA 170055Z AUTO 10002KT 10SM CLR 15/M01 A3016 RMK AO2 SLP227 T01511008 $;||F||223|ICAO-KGXA
USI0000KGXA|GRAY BUTTE FLD|2011|11|17|02|00|34.5639|-117.6750|920.5|11.0||1|FM15-METAR|223|ICAO-KGXA|-1.0||1|FM15-METAR|223|ICAO-KGXA|||||||1024.4||1|FM15-METAR|223|ICAO-KGXA|160|N-Normal|1|FM15-METAR|223|ICAO-KGXA|1.5|N-Normal|1|FM15-METAR|223|ICAO-KGXA|||||||||||||44|Derived||FM15-METAR|223|ICAO-KGXA|||||||||||||||||||||||||||||||||||||||||||||||||||||||||||||||||||||||||1022.0||1|FM15-METAR|223|ICAO-KGXA|||||||||||||||||||||||||||||||||||||||||||MET081METAR KGXA 170155Z AUTO 16003KT 10SM CLR 11/M01 A3018 RMK AO2 SLP244 T01051012 $;||F||223|ICAO-KGXA
USI0000KGXA|GRAY BUTTE FLD|2011|11|17|03|00|34.5639|-117.6750|920.5|9.0||1|FM15-METAR|223|ICAO-KGXA|0.0||1|FM15-METAR|223|ICAO-KGXA|||||||1024.5||1|FM15-METAR|223|ICAO-KGXA|170|N-Normal|1|FM15-METAR|223|ICAO-KGXA|2.6|N-Normal|1|FM15-METAR|223|ICAO-KGXA|||||||||||||54|Derived||FM15-METAR|223|ICAO-KGXA|||||||||||||||||||||||||||||||||||||||||||||||||||||||||||||||||||||||||1022.0||1|FM15-METAR|223|ICAO-KGXA|0.9|1-Incr-the|1|FM15-METAR|223|ICAO-KGXA|||||||||||||||||||||||||||||||||||||MET086METAR KGXA 170255Z AUTO 17005KT 10SM CLR 09/00 A3018 RMK AO2 SLP245 T00910000 51009 $;||F||223|ICAO-KGXA
USI0000KGXA|GRAY BUTTE FLD|2011|11|17|04|00|34.5639|-117.6750|920.5|9.0||1|FM15-METAR|223|ICAO-KGXA|0.0||1|FM15-METAR|223|ICAO-KGXA|||||||1023.4||1|FM15-METAR|223|ICAO-KGXA|170|N-Normal|1|FM15-METAR|223|ICAO-KGXA|3.1|N-Normal|1|FM15-METAR|223|ICAO-KGXA|||||||||||||54|Derived||FM15-METAR|223|ICAO-KGXA|||||||||||||||||||||||||||||||||||||||||||||||||||||||||||||||||||||||||1022.0||1|FM15-METAR|223|ICAO-KGXA|||||||||||||||||||||||||||||||||||||||||||MET080METAR KGXA 170355Z AUTO 17006KT 10SM CLR 09/00 A3018 RMK AO2 SLP234 T00881002 $;||F||223|ICAO-KGXA
USI0000KGXA|GRAY BUTTE FLD|2011|11|17|05|00|34.5639|-117.6750|920.5|8.0||1|FM15-METAR|223|ICAO-KGXA|-1.0||1|FM15-METAR|223|ICAO-KGXA|||||||1023.8||1|FM15-METAR|223|ICAO-KGXA|170|N-Normal|1|FM15-METAR|223|ICAO-KGXA|2.6|N-Normal|1|FM15-METAR|223|ICAO-KGXA|||||||||||||53|Derived||FM15-METAR|223|ICAO-KGXA|||||||||||||||||||||||||||||||||||||||||||||||||||||||||||||||||||||||||1022.7||1|FM15-METAR|223|ICAO-KGXA|||||||||||||||||||||||||||||||||||||||||||MET081METAR KGXA 170455Z AUTO 17005KT 10SM CLR 08/M01 A3020 RMK AO2 SLP238 T00791008 $;||F||223|ICAO-KGXA
USI0000KGXA|GRAY BUTTE FLD|2011|11|17|06|00|34.5639|-117.6750|920.5|8.0||1|FM15-METAR|223|ICAO-KGXA|-1.0||1|FM15-METAR|223|ICAO-KGXA|||||||1023.5||1|FM15-METAR|223|ICAO-KGXA|170|N-Normal|1|FM15-METAR|223|ICAO-KGXA|2.6|N-Normal|1|FM15-METAR|223|ICAO-KGXA|||||||||||||53|Derived||FM15-METAR|223|ICAO-KGXA|||||||||||||||||||||||||||||||||||||||||||||||||||||||||||||||||||||||||1022.7||1|FM15-METAR|223|ICAO-KGXA|0.7|2-Incr-(st|1|FM15-METAR|223|ICAO-KGXA|||||||||||||||||||||||||||||||||||||MET099METAR KGXA 170555Z AUTO 17005KT 10SM CLR 08/M01 A3020 RMK AO2 SLP235 T00771008 10189 20142 52007 $;||F||223|ICAO-KGXA
USI0000KGXA|GRAY BUTTE FLD|2011|11|17|07|00|34.5639|-117.6750|920.5|6.0||1|FM15-METAR|223|ICAO-KGXA|0.0||1|FM15-METAR|223|ICAO-KGXA|||||||1023.6||1|FM15-METAR|223|ICAO-KGXA|180|N-Normal|1|FM15-METAR|223|ICAO-KGXA|2.1|N-Normal|1|FM15-METAR|223|ICAO-KGXA|||||||||||||66|Derived||FM15-METAR|223|ICAO-KGXA|||||||||||||||||||||||||||||||||||||||||||||||||||||||||||||||||||||||||1022.7||1|FM15-METAR|223|ICAO-KGXA|||||||||||||||||||||||||||||||||||||||||||MET080METAR KGXA 170655Z AUTO 18004KT 10SM CLR 06/00 A3020 RMK AO2 SLP236 T00621005 $;||F||223|ICAO-KGXA
USI0000KGXA|GRAY BUTTE FLD|2011|11|17|08|00|34.5639|-117.6750|920.5|5.0||1|FM15-METAR|223|ICAO-KGXA|-1.0||1|FM15-METAR|223|ICAO-KGXA|||||||1023.5||1|FM15-METAR|223|ICAO-KGXA|170|N-Normal|1|FM15-METAR|223|ICAO-KGXA|2.1|N-Normal|1|FM15-METAR|223|ICAO-KGXA|||||||||||||66|Derived||FM15-METAR|223|ICAO-KGXA|||||||||||||||||||||||||||||||||||||||||||||||||||||||||||||||||||||||||1022.7||1|FM15-METAR|223|ICAO-KGXA|||||||||||||||||||||||||||||||||||||||||||MET081METAR KGXA 170755Z AUTO 17004KT 10SM CLR 05/M01 A3020 RMK AO2 SLP235 T00511007 $;||F||223|ICAO-KGXA
USI0000KGXA|GRAY BUTTE FLD|2011|11|17|09|00|34.5639|-117.6750|920.5|5.0||1|FM15-METAR|223|ICAO-KGXA|-1.0||1|FM15-METAR|223|ICAO-KGXA|||||||1022.9||1|FM15-METAR|223|ICAO-KGXA|170|N-Normal|1|FM15-METAR|223|ICAO-KGXA|2.1|N-Normal|1|FM15-METAR|223|ICAO-KGXA|||||||||||||66|Derived||FM15-METAR|223|ICAO-KGXA|||||||||||||||||||||||||||||||||||||||||||||||||||||||||||||||||||||||||1022.4||1|FM15-METAR|223|ICAO-KGXA|-0.4|7-Decr-(st|1|FM15-METAR|223|ICAO-KGXA|||||||||||||||||||||||||||||||||||||MET087METAR KGXA 170855Z AUTO 17004KT 10SM CLR 05/M01 A3019 RMK AO2 SLP229 T00501007 57004 $;||F||223|ICAO-KGXA
USI0000KGXA|GRAY BUTTE FLD|2011|11|17|10|00|34.5639|-117.6750|920.5|5.0||1|FM15-METAR|223|ICAO-KGXA|-1.0||1|FM15-METAR|223|ICAO-KGXA|||||||1022.5||1|FM15-METAR|223|ICAO-KGXA|160|N-Normal|1|FM15-METAR|223|ICAO-KGXA|2.6|N-Normal|1|FM15-METAR|223|ICAO-KGXA|||||||||||||66|Derived||FM15-METAR|223|ICAO-KGXA|||||||||||||||||||||||||||||||||||||||||||||||||||||||||||||||||||||||||1022.0||1|FM15-METAR|223|ICAO-KGXA|||||||||||||||||||||||||||||||||||||||||||MET081METAR KGXA 170955Z AUTO 16005KT 10SM CLR 05/M01 A3018 RMK AO2 SLP225 T00451009 $;||F||223|ICAO-KGXA
USI0000KGXA|GRAY BUTTE FLD|2011|11|17|11|00|34.5639|-117.6750|920.5|4.0||1|FM15-METAR|223|ICAO-KGXA|-1.0||1|FM15-METAR|223|ICAO-KGXA|||||||1022.6||1|FM15-METAR|223|ICAO-KGXA|170|N-Normal|1|FM15-METAR|223|ICAO-KGXA|2.1|N-Normal|1|FM15-METAR|223|ICAO-KGXA|||||||||||||70|Derived||FM15-METAR|223|ICAO-KGXA|||||||||||||||||||||||||||||||||||||||||||||||||||||||||||||||||||||||||1022.0||1|FM15-METAR|223|ICAO-KGXA|||||||||||||||||||||||||||||||||||||||||||MET077METAR KGXA 171055Z AUTO 17004KT 10SM 04/M01 A3018 RMK AO2 SLP226 T00411013 $;||F||223|ICAO-KGXA
USI0000KGXA|GRAY BUTTE FLD|2011|11|17|12|00|34.5639|-117.6750|920.5|3.0||1|FM15-METAR|223|ICAO-KGXA|-2.0||1|FM15-METAR|223|ICAO-KGXA|||||||1022.4||1|FM15-METAR|223|ICAO-KGXA|160|N-Normal|1|FM15-METAR|223|ICAO-KGXA|2.1|N-Normal|1|FM15-METAR|223|ICAO-KGXA|||||||||||||70|Derived||FM15-METAR|223|ICAO-KGXA|||||||||||||||||||||||||||||||||||||||||||||||||||||||||||||||||||||||||1021.3||1|FM15-METAR|223|ICAO-KGXA|-0.9|7-Decr-(st|1|FM15-METAR|223|ICAO-KGXA|||||||||||||||||||||||||||||||||||||MET095METAR KGXA 171155Z AUTO 16004KT 10SM 03/M02 A3016 RMK AO2 SLP224 T00341016 10177 20076 57009 $;||F||223|ICAO-KGXA
USI0000KGXA|GRAY BUTTE FLD|2011|11|17|13|00|34.5639|-117.6750|920.5|3.0||1|FM15-METAR|223|ICAO-KGXA|-2.0||1|FM15-METAR|223|ICAO-KGXA|||||||1022.8||1|FM15-METAR|223|ICAO-KGXA|170|N-Normal|1|FM15-METAR|223|ICAO-KGXA|2.6|N-Normal|1|FM15-METAR|223|ICAO-KGXA|||||||||||||70|Derived||FM15-METAR|223|ICAO-KGXA|||||||||||||||||||||||||||||||||||||||||||||||||||||||||||||||||||||||||1021.3||1|FM15-METAR|223|ICAO-KGXA|||||||||||||||||||||||||||||||||||||||||||MET077METAR KGXA 171255Z AUTO 17005KT 10SM 03/M02 A3016 RMK AO2 SLP228 T00331017 $;||F||223|ICAO-KGXA
USI0000KGXA|GRAY BUTTE FLD|2011|11|17|14|00|34.5639|-117.6750|920.5|3.0||1|FM15-METAR|223|ICAO-KGXA|-2.0||1|FM15-METAR|223|ICAO-KGXA|||||||1023.6||1|FM15-METAR|223|ICAO-KGXA|160|N-Normal|1|FM15-METAR|223|ICAO-KGXA|2.1|N-Normal|1|FM15-METAR|223|ICAO-KGXA|||||||||||||70|Derived||FM15-METAR|223|ICAO-KGXA|||||||||||||||||||||||||||||||||||||||||||||||||||||||||||||||||||||||||1021.3||1|FM15-METAR|223|ICAO-KGXA|||||||||||||||||||||||||||||||||||||||||||MET079METAR KGXA 171355Z AUTO 16004KT 10SM CLR 03/M02 A3016 RMK AO2 SLP236 T00311018;||F||223|ICAO-KGXA
USI0000KGXA|GRAY BUTTE FLD|2011|11|17|15|00|34.5639|-117.6750|920.5|4.0||1|FM15-METAR|223|ICAO-KGXA|-1.0||1|FM15-METAR|223|ICAO-KGXA|||||||1023.9||1|FM15-METAR|223|ICAO-KGXA|170|N-Normal|1|FM15-METAR|223|ICAO-KGXA|2.1|N-Normal|1|FM15-METAR|223|ICAO-KGXA|||||||||||||70|Derived||FM15-METAR|223|ICAO-KGXA|||||||||||||||||||||||||||||||||||||||||||||||||||||||||||||||||||||||||1021.3||1|FM15-METAR|223|ICAO-KGXA|-0.2|7-Decr-(st|1|FM15-METAR|223|ICAO-KGXA|||||||||||||||||||||||||||||||||||||MET085METAR KGXA 171455Z AUTO 17004KT 10SM CLR 04/M01 A3016 RMK AO2 SLP239 T00371014 57002;||F||223|ICAO-KGXA
USI0000KGXA|GRAY BUTTE FLD|2011|11|17|16|00|34.5639|-117.6750|920.5|10.0||1|FM15-METAR|223|ICAO-KGXA|0.0||1|FM15-METAR|223|ICAO-KGXA|||||||1022.8||1|FM15-METAR|223|ICAO-KGXA|160|N-Normal|1|FM15-METAR|223|ICAO-KGXA|1.0|N-Normal|1|FM15-METAR|223|ICAO-KGXA|||||||||||||50|Derived||FM15-METAR|223|ICAO-KGXA|||||||||||||||||||||||||||||||||||||||||||||||||||||||||||||||||||||||||1021.3||1|FM15-METAR|223|ICAO-KGXA|||||||||||||||||||||||||||||||||||||||||||MET078METAR KGXA 171555Z AUTO 16002KT 10SM CLR 10/00 A3016 RMK AO2 SLP228 T01021001;||F||223|ICAO-KGXA
USI0000KGXA|GRAY BUTTE FLD|2011|11|17|17|00|34.5639|-117.6750|920.5|14.0||1|FM15-METAR|223|ICAO-KGXA|-1.0||1|FM15-METAR|223|ICAO-KGXA|||||||1021.9||1|FM15-METAR|223|ICAO-KGXA|320|N-Normal|1|FM15-METAR|223|ICAO-KGXA|1.0|N-Normal|1|FM15-METAR|223|ICAO-KGXA|||||||||||||36|Derived||FM15-METAR|223|ICAO-KGXA|||||||||||||||||||||||||||||||||||||||||||||||||||||||||||||||||||||||||1021.3||1|FM15-METAR|223|ICAO-KGXA|||||||||||||||||||||||||||||||||||||||||||MET086METAR KGXA 171655Z AUTO 32002KT 10SM CLR 14/M01 A3016 RMK AO2 SLP219 T01441013 TSNO $;||F||223|ICAO-KGXA
USI0000KGXA|GRAY BUTTE FLD|2011|11|17|18|00|34.5639|-117.6750|920.5|15.0||1|FM15-METAR|223|ICAO-KGXA|-1.0||1|FM15-METAR|223|ICAO-KGXA|||||||1021.4||1|FM15-METAR|223|ICAO-KGXA|310|N-Normal|1|FM15-METAR|223|ICAO-KGXA|0.5|N-Normal|1|FM15-METAR|223|ICAO-KGXA|||||||||||||34|Derived||FM15-METAR|223|ICAO-KGXA|||||||||||||||||||||||||||||||||||||||||||||||||||||||||||||||||||||||||1021.0||1|FM15-METAR|223|ICAO-KGXA|-0.4|8-Steady-o|1|FM15-METAR|223|ICAO-KGXA|||||||||||||||||||||||||||||||||||||MET097METAR KGXA 171755Z AUTO 31001KT 10SM CLR 15/M01 A3015 RMK AO2 SLP214 T01531013 10076 20033 58004;||F||223|ICAO-KGXA
USI0000KGXA|GRAY BUTTE FLD|2011|11|17|19|00|34.5639|-117.6750|920.5|18.0||1|FM15-METAR|223|ICAO-KGXA|-1.0||1|FM15-METAR|223|ICAO-KGXA|||||||1020.4||1|FM15-METAR|223|ICAO-KGXA|999|V-Variable|9|FM15-METAR|223|ICAO-KGXA|2.1|V-Variable|1|FM15-METAR|223|ICAO-KGXA|||||||||||||28|Derived||FM15-METAR|223|ICAO-KGXA|||||||||||||||||||||||||||||||||||||||||||||||||||||||||||||||||||||||||1020.0||1|FM15-METAR|223|ICAO-KGXA|||||||||||||||||||||||||||||||||||||||||||MET086METAR KGXA 171855Z AUTO VRB04KT 10SM CLR 18/M01 A3012 RMK AO2 SLP204 T01761011 TSNO $;||F||223|ICAO-KGXA
USI0000KGXA|GRAY BUTTE FLD|2011|11|17|20|00|34.5639|-117.6750|920.5|18.0||1|FM15-METAR|223|ICAO-KGXA|-1.0||1|FM15-METAR|223|ICAO-KGXA|||||||1019.1||1|FM15-METAR|223|ICAO-KGXA|320|N-Normal|1|FM15-METAR|223|ICAO-KGXA|1.0|N-Normal|1|FM15-METAR|223|ICAO-KGXA|||||||||||||28|Derived||FM15-METAR|223|ICAO-KGXA|||||||||||||||||||||||||||||||||||||||||||||||||||||||||||||||||||||||||1018.6||1|FM15-METAR|223|ICAO-KGXA|||||||||||||||||||||||||||||||||||||||||||MET086METAR KGXA 171955Z AUTO 32002KT 10SM CLR 18/M01 A3008 RMK AO2 SLP191 T01821014 TSNO $;||F||223|ICAO-KGXA
USI0000KGXA|GRAY BUTTE FLD|2011|11|17|21|00|34.5639|-117.6750|920.5|20.0||1|FM15-METAR|223|ICAO-KGXA|-2.0||1|FM15-METAR|223|ICAO-KGXA|||||||1017.6||1|FM15-METAR|223|ICAO-KGXA|250|N-Normal|1|FM15-METAR|223|ICAO-KGXA|1.5|N-Normal|1|FM15-METAR|223|ICAO-KGXA|||||||||||||23|Derived||FM15-METAR|223|ICAO-KGXA|||||||||||||||||||||||||||||||||||||||||||||||||||||||||||||||||||||||||1017.6||1|FM15-METAR|223|ICAO-KGXA|-3.0|7-Decr-(st|1|FM15-METAR|223|ICAO-KGXA|||||||||||||||||||||||||||||||||||||MET092METAR KGXA 172055Z AUTO 25003KT 10SM CLR 20/M02 A3005 RMK AO2 SLP176 T02011017 57030 TSNO $;||F||223|ICAO-KGXA
USI0000KGXA|GRAY BUTTE FLD|2011|11|17|22|00|34.5639|-117.6750|920.5|21.0||1|FM15-METAR|223|ICAO-KGXA|-3.0||1|FM15-METAR|223|ICAO-KGXA|||||||1016.5||1|FM15-METAR|223|ICAO-KGXA|250|N-Normal|1|FM15-METAR|223|ICAO-KGXA|2.1|N-Normal|1|FM15-METAR|223|ICAO-KGXA|||||||||||||20|Derived||FM15-METAR|223|ICAO-KGXA|||||||||||||||||||||||||||||||||||||||||||||||||||||||||||||||||||||||||1016.6||1|FM15-METAR|223|ICAO-KGXA|||||||||||||||||||||||||||||||||||||||||||MET086METAR KGXA 172155Z AUTO 25004KT 10SM CLR 21/M03 A3002 RMK AO2 SLP165 T02121034 TSNO $;||F||223|ICAO-KGXA
USI0000KGXA|GRAY BUTTE FLD|2011|11|17|23|00|34.5639|-117.6750|920.5|21.0||1|FM15-METAR|223|ICAO-KGXA|-4.0||1|FM15-METAR|223|ICAO-KGXA|||||||1016.0||1|FM15-METAR|223|ICAO-KGXA|280|N-Normal|1|FM15-METAR|223|ICAO-KGXA|2.6|N-Normal|1|FM15-METAR|223|ICAO-KGXA|||||||||||||18|Derived||FM15-METAR|223|ICAO-KGXA|||||||||||||||||||||||||||||||||||||||||||||||||||||||||||||||||||||||||1015.9||1|FM15-METAR|223|ICAO-KGXA|||||||||||||||||||||||||||||||||||||||||||MET086METAR KGXA 172255Z AUTO 28005KT 10SM CLR 21/M04 A3000 RMK AO2 SLP160 T02091040 TSNO $;||F||223|ICAO-KGXA
USI0000KGXA|GRAY BUTTE FLD|2011|11|18|00|00|34.5639|-117.6750|920.5|20.0||1|FM15-METAR|223|ICAO-KGXA|-3.0||1|FM15-METAR|223|ICAO-KGXA|||||||1016.0||1|FM15-METAR|223|ICAO-KGXA|290|N-Normal|1|FM15-METAR|223|ICAO-KGXA|3.6|N-Normal|1|FM15-METAR|223|ICAO-KGXA|||||||||||||21|Derived||FM15-METAR|223|ICAO-KGXA|||||||||||||||||||||||||||||||||||||||||||||||||||||||||||||||||||||||||1015.9||1|FM15-METAR|223|ICAO-KGXA|-1.6|6-Decr,-th|1|FM15-METAR|223|ICAO-KGXA|||||||||||||||||||||||||||||||||||||MET114METAR KGXA 172355Z AUTO 29007KT 10SM CLR 20/M03 A3000 RMK AO2 SLP160 T02041031 10159 20026 402130026 56016 TSNO $;||F||223|ICAO-KGXA
USI0000KGXA|GRAY BUTTE FLD|2011|11|18|01|00|34.5639|-117.6750|920.5|17.0||1|FM15-METAR|223|ICAO-KGXA|-3.0||1|FM15-METAR|223|ICAO-KGXA|||||||1016.6||1|FM15-METAR|223|ICAO-KGXA|300|N-Normal|1|FM15-METAR|223|ICAO-KGXA|4.6|N-Normal|1|FM15-METAR|223|ICAO-KGXA|||||||||||||25|Derived||FM15-METAR|223|ICAO-KGXA|||||||||||||||||||||||||||||||||||||||||||||||||||||||||||||||||||||||||1015.6||1|FM15-METAR|223|ICAO-KGXA|||||||||||||||||||||||||||||||||||||||||||MET079METAR KGXA 180055Z AUTO 30009KT 10SM CLR 17/M03 A2999 RMK AO2 SLP166 T01671029;||F||223|ICAO-KGXA
USI0000KGXA|GRAY BUTTE FLD|2011|11|18|02|00|34.5639|-117.6750|920.5|14.0||1|FM15-METAR|223|ICAO-KGXA|-4.0||1|FM15-METAR|223|ICAO-KGXA|||||||1017.3||1|FM15-METAR|223|ICAO-KGXA|300|N-Normal|1|FM15-METAR|223|ICAO-KGXA|2.6|N-Normal|1|FM15-METAR|223|ICAO-KGXA|||||||||||||29|Derived||FM15-METAR|223|ICAO-KGXA|||||||||||||||||||||||||||||||||||||||||||||||||||||||||||||||||||||||||1015.6||1|FM15-METAR|223|ICAO-KGXA|||||||||||||||||||||||||||||||||||||||||||MET081METAR KGXA 180155Z AUTO 30005KT 10SM CLR 14/M04 A2999 RMK AO2 SLP173 T01381045 $;||F||223|ICAO-KGXA
USI0000KGXA|GRAY BUTTE FLD|2011|11|18|03|00|34.5639|-117.6750|920.5|10.0||1|FM15-METAR|223|ICAO-KGXA|-3.0||1|FM15-METAR|223|ICAO-KGXA|||||||1017.8||1|FM15-METAR|223|ICAO-KGXA|200|N-Normal|1|FM15-METAR|223|ICAO-KGXA|1.0|N-Normal|1|FM15-METAR|223|ICAO-KGXA|||||||||||||40|Derived||FM15-METAR|223|ICAO-KGXA|||||||||||||||||||||||||||||||||||||||||||||||||||||||||||||||||||||||||1015.6||1|FM15-METAR|223|ICAO-KGXA|-0.3|7-Decr-(st|1|FM15-METAR|223|ICAO-KGXA|||||||||||||||||||||||||||||||||||||MET087METAR KGXA 180255Z AUTO 20002KT 10SM CLR 10/M03 A2999 RMK AO2 SLP178 T01011030 57003 $;||F||223|ICAO-KGXA
USI0000KGXA|GRAY BUTTE FLD|2011|11|18|04|00|34.5639|-117.6750|920.5|9.0||1|FM15-METAR|223|ICAO-KGXA|-4.0||1|FM15-METAR|223|ICAO-KGXA|||||||1016.7||1|FM15-METAR|223|ICAO-KGXA|210|N-Normal|1|FM15-METAR|223|ICAO-KGXA|3.1|N-Normal|1|FM15-METAR|223|ICAO-KGXA|||||||||||||40|Derived||FM15-METAR|223|ICAO-KGXA|||||||||||||||||||||||||||||||||||||||||||||||||||||||||||||||||||||||||1015.2||1|FM15-METAR|223|ICAO-KGXA|||||||||||||||||||||||||||||||||||||||||||MET081METAR KGXA 180355Z AUTO 21006KT 10SM CLR 09/M04 A2998 RMK AO2 SLP167 T00901036 $;||F||223|ICAO-KGXA
USI0000KGXA|GRAY BUTTE FLD|2011|11|18|05|00|34.5639|-117.6750|920.5|7.0||1|FM15-METAR|223|ICAO-KGXA|-5.0||1|FM15-METAR|223|ICAO-KGXA|||||||1016.1||1|FM15-METAR|223|ICAO-KGXA|190|N-Normal|1|FM15-METAR|223|ICAO-KGXA|2.1|N-Normal|1|FM15-METAR|223|ICAO-KGXA|||||||||||||42|Derived||FM15-METAR|223|ICAO-KGXA|||||||||||||||||||||||||||||||||||||||||||||||||||||||||||||||||||||||||1015.6||1|FM15-METAR|223|ICAO-KGXA|||||||||||||||||||||||||||||||||||||||||||MET081METAR KGXA 180455Z AUTO 19004KT 10SM CLR 07/M05 A2999 RMK AO2 SLP161 T00711053 $;||F||223|ICAO-KGXA
USI0000KGXA|GRAY BUTTE FLD|2011|11|18|06|00|34.5639|-117.6750|920.5|8.0||1|FM15-METAR|223|ICAO-KGXA|-3.0||1|FM15-METAR|223|ICAO-KGXA|||||||1015.7||1|FM15-METAR|223|ICAO-KGXA|220|N-Normal|1|FM15-METAR|223|ICAO-KGXA|2.6|N-Normal|1|FM15-METAR|223|ICAO-KGXA|||||||||||||46|Derived||FM15-METAR|223|ICAO-KGXA|||||||||||||||||||||||||||||||||||||||||||||||||||||||||||||||||||||||||1015.2||1|FM15-METAR|223|ICAO-KGXA|-2.1|7-Decr-(st|1|FM15-METAR|223|ICAO-KGXA|||||||||||||||||||||||||||||||||||||MET099METAR KGXA 180555Z AUTO 22005KT 10SM CLR 08/M03 A2998 RMK AO2 SLP157 T00801031 10213 20158 54001 $;||F||223|ICAO-KGXA
USI0000KGXA|GRAY BUTTE FLD|2011|11|18|07|00|34.5639|-117.6750|920.5|7.0||1|FM15-METAR|223|ICAO-KGXA|-1.0||1|FM15-METAR|223|ICAO-KGXA|||||||1015.4||1|FM15-METAR|223|ICAO-KGXA|260|N-Normal|1|FM15-METAR|223|ICAO-KGXA|1.5|N-Normal|1|FM15-METAR|223|ICAO-KGXA|||||||||||||57|Derived||FM15-METAR|223|ICAO-KGXA|||||||||||||||||||||||||||||||||||||||||||||||||||||||||||||||||||||||||1015.2||1|FM15-METAR|223|ICAO-KGXA|||||||||||||||||||||||||||||||||||||||||||MET081METAR KGXA 180655Z AUTO 26003KT 10SM CLR 07/M01 A2998 RMK AO2 SLP154 T00731010 $;||F||223|ICAO-KGXA
USI0000KGXA|GRAY BUTTE FLD|2011|11|18|08|00|34.5639|-117.6750|920.5|8.0||1|FM15-METAR|223|ICAO-KGXA|-1.0||1|FM15-METAR|223|ICAO-KGXA|||||||1015.1||1|FM15-METAR|223|ICAO-KGXA|220|N-Normal|1|FM15-METAR|223|ICAO-KGXA|2.6|N-Normal|1|FM15-METAR|223|ICAO-KGXA|||||||||||||53|Derived||FM15-METAR|223|ICAO-KGXA|||||||||||||||||||||||||||||||||||||||||||||||||||||||||||||||||||||||||1015.2||1|FM15-METAR|223|ICAO-KGXA|||||||||||||||||||||||||||||||||||||||||||MET092METAR KGXA 180755Z AUTO 22005KT 10SM 08/M01 A2998 RMK AO2 SLP151 T00771009 PWINO PNO TSNO $;||F||223|ICAO-KGXA
USI0000KGXA|GRAY BUTTE FLD|2011|11|18|15|00|34.5639|-117.6750|920.5|7.0||1|FM15-METAR|223|ICAO-KGXA|2.0||1|FM15-METAR|223|ICAO-KGXA|||||||1014.7||1|FM15-METAR|223|ICAO-KGXA|230|N-Normal|1|FM15-METAR|223|ICAO-KGXA|2.6|N-Normal|1|FM15-METAR|223|ICAO-KGXA|||||||||||||71|Derived||FM15-METAR|223|ICAO-KGXA|||||||||||||||||||||||||||||||||||||||||||||||||||||||||||||||||||||||||1013.2||1|FM15-METAR|223|ICAO-KGXA|-0.4|7-Decr-(st|1|FM15-METAR|223|ICAO-KGXA|||||||||||||||||||||||||||||||||||||MET087METAR KGXA 181455Z AUTO 23005KT 10SM SCT220 07/02 A2992 RMK AO2 SLP147 T00690015 57004;||F||223|ICAO-KGXA
USI0000KGXA|GRAY BUTTE FLD|2011|11|18|16|00|34.5639|-117.6750|920.5|8.0||1|FM15-METAR|223|ICAO-KGXA|2.0||1|FM15-METAR|223|ICAO-KGXA|||||||1014.9||1|FM15-METAR|223|ICAO-KGXA|240|N-Normal|1|FM15-METAR|223|ICAO-KGXA|3.6|N-Normal|1|FM15-METAR|223|ICAO-KGXA|||||||||||||66|Derived||FM15-METAR|223|ICAO-KGXA|||||||||||||||||||||||||||||||||||||||||||||||||||||||||||||||||||||||||1013.2||1|FM15-METAR|223|ICAO-KGXA|||||||||||||||||||||||||||||||||||||||||||MET081METAR KGXA 181555Z AUTO 24007KT 10SM FEW200 08/02 A2992 RMK AO2 SLP149 T00840021;||F||223|ICAO-KGXA
USI0000KGXA|GRAY BUTTE FLD|2011|11|18|17|00|34.5639|-117.6750|920.5|12.0||1|FM15-METAR|223|ICAO-KGXA|2.0||1|FM15-METAR|223|ICAO-KGXA|||||||1014.3||1|FM15-METAR|223|ICAO-KGXA|310|N-Normal|1|FM15-METAR|223|ICAO-KGXA|6.2|N-Normal|1|FM15-METAR|223|ICAO-KGXA|||||||||||||51|Derived||FM15-METAR|223|ICAO-KGXA|||||||||||||||||||||||||||||||||||||||||||||||||||||||||||||||||||||||||1013.2||1|FM15-METAR|223|ICAO-KGXA|||||||||||||||||||||||||||||||||||||||||||MET078METAR KGXA 181655Z AUTO 31012KT 10SM CLR 12/02 A2992 RMK AO2 SLP143 T01240015;||F||223|ICAO-KGXA
USI0000KGXA|GRAY BUTTE FLD|2011|11|18|18|00|34.5639|-117.6750|920.5|16.0||1|FM15-METAR|223|ICAO-KGXA|0.0||1|FM15-METAR|223|ICAO-KGXA|||||||1013.3||1|FM15-METAR|223|ICAO-KGXA|300|N-Normal|1|FM15-METAR|223|ICAO-KGXA|5.1|N-Normal|1|FM15-METAR|223|ICAO-KGXA|||||||||||||34|Derived||FM15-METAR|223|ICAO-KGXA|||||||||||||||||||||||||||||||||||||||||||||||||||||||||||||||||||||||||1012.9||1|FM15-METAR|223|ICAO-KGXA|0.1|0-Incr-the|1|FM15-METAR|223|ICAO-KGXA|||||||||||||||||||||||||||||||||||||MET096METAR KGXA 181755Z AUTO 30010KT 10SM CLR 16/00 A2991 RMK AO2 SLP133 T01611002 10094 20047 50001;||F||223|ICAO-KGXA
USI0000KGXA|GRAY BUTTE FLD|2011|11|18|19|00|34.5639|-117.6750|920.5|17.0||1|FM15-METAR|223|ICAO-KGXA|-2.0||1|FM15-METAR|223|ICAO-KGXA|||||||1012.4||1|FM15-METAR|223|ICAO-KGXA|290|N-Normal|1|FM15-METAR|223|ICAO-KGXA|7.2|N-Normal|1|FM15-METAR|223|ICAO-KGXA|9.3||1|FM15-METAR|223|ICAO-KGXA|||||||27|Derived||FM15-METAR|223|ICAO-KGXA|||||||||||||||||||||||||||||||||||||||||||||||||||||||||||||||||||||||||1012.2||1|FM15-METAR|223|ICAO-KGXA|||||||||||||||||||||||||||||||||||||||||||MET082METAR KGXA 181855Z AUTO 29014G18KT 10SM CLR 17/M02 A2989 RMK AO2 SLP124 T01681024;||F||223|ICAO-KGXA
USI0000KGXA|GRAY BUTTE FLD|2011|11|18|20|00|34.5639|-117.6750|920.5|18.0||1|FM15-METAR|223|ICAO-KGXA|-3.0||1|FM15-METAR|223|ICAO-KGXA|||||||1010.9||1|FM15-METAR|223|ICAO-KGXA|300|N-Normal|1|FM15-METAR|223|ICAO-KGXA|8.2|N-Normal|1|FM15-METAR|223|ICAO-KGXA|10.8||1|FM15-METAR|223|ICAO-KGXA|||||||24|Derived||FM15-METAR|223|ICAO-KGXA|||||||||||||||||||||||||||||||||||||||||||||||||||||||||||||||||||||||||1011.2||1|FM15-METAR|223|ICAO-KGXA|||||||||||||||||||||||||||||||||||||||||||MET089METAR KGXA 181955Z AUTO 30016G21KT 10SM CLR 18/M03 A2986 RMK AO2 SLP109 T01811026 TSNO $;||F||223|ICAO-KGXA
USI0000KGXA|GRAY BUTTE FLD|2011|11|18|21|00|34.5639|-117.6750|920.5|18.0||1|FM15-METAR|223|ICAO-KGXA|-3.0||1|FM15-METAR|223|ICAO-KGXA|||||||1010.1||1|FM15-METAR|223|ICAO-KGXA|290|N-Normal|1|FM15-METAR|223|ICAO-KGXA|9.8|N-Normal|1|FM15-METAR|223|ICAO-KGXA|13.9||1|FM15-METAR|223|ICAO-KGXA|||||||24|Derived||FM15-METAR|223|ICAO-KGXA|||||||||||||||||||||||||||||||||||||||||||||||||||||||||||||||||||||||||1010.2||1|FM15-METAR|223|ICAO-KGXA|-2.6|7-Decr-(st|1|FM15-METAR|223|ICAO-KGXA|||||||||||||||||||||||||||||||||||||MET095METAR KGXA 182055Z AUTO 29019G27KT 10SM CLR 18/M03 A2983 RMK AO2 SLP101 T01811031 57026 TSNO $;||F||223|ICAO-KGXA
USI0000KGXA|GRAY BUTTE FLD|2011|11|18|22|00|34.5639|-117.6750|920.5|18.0||1|FM15-METAR|223|ICAO-KGXA|-1.0||1|FM15-METAR|223|ICAO-KGXA|||||||1010.3||1|FM15-METAR|223|ICAO-KGXA|290|N-Normal|1|FM15-METAR|223|ICAO-KGXA|8.7|N-Normal|1|FM15-METAR|223|ICAO-KGXA|12.3||1|FM15-METAR|223|ICAO-KGXA|||||||28|Derived||FM15-METAR|223|ICAO-KGXA|||||||||||||||||||||||||||||||||||||||||||||||||||||||||||||||||||||||||1010.2||1|FM15-METAR|223|ICAO-KGXA|||||||||||||||||||||||||||||||||||||||||||MET107METAR KGXA 182155Z AUTO 29017G24KT 10SM CLR 18/M01 A2983 RMK AO2 PK WND 29026/2113 SLP103 T01801008 TSNO $;||F||223|ICAO-KGXA
USI0000KGXA|GRAY BUTTE FLD|2011|11|18|23|00|34.5639|-117.6750|920.5|15.0||1|FM15-METAR|223|ICAO-KGXA|2.0||1|FM15-METAR|223|ICAO-KGXA|||||||1010.1||1|FM15-METAR|223|ICAO-KGXA|300|N-Normal|1|FM15-METAR|223|ICAO-KGXA|8.7|N-Normal|1|FM15-METAR|223|ICAO-KGXA|11.8||1|FM15-METAR|223|ICAO-KGXA|||||||42|Derived||FM15-METAR|223|ICAO-KGXA|||||||||||||||||||||||||||||||||||||||||||||||||||||||||||||||||||||||||1009.8||1|FM15-METAR|223|ICAO-KGXA|||||||||||||||||||||||||||||||||||||||||||MET081METAR KGXA 182255Z AUTO 30017G23KT 10SM CLR 15/02 A2982 RMK AO2 SLP101 T01540019;||F||223|ICAO-KGXA
USI0000KGXA|GRAY BUTTE FLD|2011|11|19|00|00|34.5639|-117.6750|920.5|13.0||1|FM15-METAR|223|ICAO-KGXA|4.0||1|FM15-METAR|223|ICAO-KGXA|||||||1010.4||1|FM15-METAR|223|ICAO-KGXA|300|N-Normal|1|FM15-METAR|223|ICAO-KGXA|6.2|N-Normal|1|FM15-METAR|223|ICAO-KGXA|||||||||||||55|Derived||FM15-METAR|223|ICAO-KGXA|||||||||||||||||||||||||||||||||||||||||||||||||||||||||||||||||||||||||1009.8||1|FM15-METAR|223|ICAO-KGXA|-0.4|7-Decr-(st|1|FM15-METAR|223|ICAO-KGXA|||||||||||||||||||||||||||||||||||||MET106METAR KGXA 182355Z AUTO 30012KT 10SM CLR 13/04 A2982 RMK AO2 SLP104 T01290035 10165 20059 402030065 57004;||F||223|ICAO-KGXA
USI0000KGXA|GRAY BUTTE FLD|2011|11|19|01|00|34.5639|-117.6750|920.5|10.0||1|FM15-METAR|223|ICAO-KGXA|4.0||1|FM15-METAR|223|ICAO-KGXA|||||||1011.2||1|FM15-METAR|223|ICAO-KGXA|310|N-Normal|1|FM15-METAR|223|ICAO-KGXA|5.7|N-Normal|1|FM15-METAR|223|ICAO-KGXA|9.3||1|FM15-METAR|223|ICAO-KGXA|||||||67|Derived||FM15-METAR|223|ICAO-KGXA|||||||||||||||||||||||||||||||||||||||||||||||||||||||||||||||||||||||||1009.8||1|FM15-METAR|223|ICAO-KGXA|||||||||||||||||||||||||||||||||||||||||||MET083METAR KGXA 190055Z AUTO 31011G18KT 10SM CLR 10/04 A2982 RMK AO2 SLP112 T00990038 $;||F||223|ICAO-KGXA
USI0000KGXA|GRAY BUTTE FLD|2011|11|19|02|00|34.5639|-117.6750|920.5|8.0||1|FM15-METAR|223|ICAO-KGXA|4.0||1|FM15-METAR|223|ICAO-KGXA|||||||1012.7||1|FM15-METAR|223|ICAO-KGXA|999|V-Variable|9|FM15-METAR|223|ICAO-KGXA|2.1|V-Variable|1|FM15-METAR|223|ICAO-KGXA|||||||||||||76|Derived||FM15-METAR|223|ICAO-KGXA|||||||||||||||||||||||||||||||||||||||||||||||||||||||||||||||||||||||||1010.8||1|FM15-METAR|223|ICAO-KGXA|||||||||||||||||||||||||||||||||||||||||||MET079METAR KGXA 190155Z AUTO VRB04KT 8SM CLR 08/04 A2985 RMK AO2 SLP127 T00820044 $;||F||223|ICAO-KGXA
USI0000KGXA|GRAY BUTTE FLD|2011|11|19|03|00|34.5639|-117.6750|920.5|8.0||1|FM15-METAR|223|ICAO-KGXA|4.0||1|FM15-METAR|223|ICAO-KGXA|||||||1012.6||1|FM15-METAR|223|ICAO-KGXA|220|N-Normal|1|FM15-METAR|223|ICAO-KGXA|2.6|N-Normal|1|FM15-METAR|223|ICAO-KGXA|||||||||||||76|Derived||FM15-METAR|223|ICAO-KGXA|||||||||||||||||||||||||||||||||||||||||||||||||||||||||||||||||||||||||1010.8||1|FM15-METAR|223|ICAO-KGXA|0.9|1-Incr-the|1|FM15-METAR|223|ICAO-KGXA|||||||||||||||||||||||||||||||||||||MET085METAR KGXA 190255Z AUTO 22005KT 9SM CLR 08/04 A2985 RMK AO2 SLP126 T00790038 51009 $;||F||223|ICAO-KGXA
USI0000KGXA|GRAY BUTTE FLD|2011|11|19|04|00|34.5639|-117.6750|920.5|6.0||1|FM15-METAR|223|ICAO-KGXA|3.0||1|FM15-METAR|223|ICAO-KGXA|||||||1012.1||1|FM15-METAR|223|ICAO-KGXA|150|N-Normal|1|FM15-METAR|223|ICAO-KGXA|1.5|N-Normal|1|FM15-METAR|223|ICAO-KGXA|||||||||||||81|Derived||FM15-METAR|223|ICAO-KGXA|||||||||||||||||||||||||||||||||||||||||||||||||||||||||||||||||||||||||1010.2||1|FM15-METAR|223|ICAO-KGXA|||||||||||||||||||||||||||||||||||||||||||MET079METAR KGXA 190355Z AUTO 15003KT 8SM CLR 06/03 A2983 RMK AO2 SLP121 T00620027 $;||F||223|ICAO-KGXA
USI0000KGXA|GRAY BUTTE FLD|2011|11|19|05|00|34.5639|-117.6750|920.5|7.0||1|FM15-METAR|223|ICAO-KGXA|4.0||1|FM15-METAR|223|ICAO-KGXA|||||||1011.9||1|FM15-METAR|223|ICAO-KGXA|300|N-Normal|1|FM15-METAR|223|ICAO-KGXA|2.1|N-Normal|1|FM15-METAR|223|ICAO-KGXA|||||||||||||81|Derived||FM15-METAR|223|ICAO-KGXA|||||||||||||||||||||||||||||||||||||||||||||||||||||||||||||||||||||||||1010.8||1|FM15-METAR|223|ICAO-KGXA|||||||||||||||||||||||||||||||||||||||||||MET079METAR KGXA 190455Z AUTO 30004KT 7SM CLR 07/04 A2985 RMK AO2 SLP119 T00720038 $;||F||223|ICAO-KGXA
USI0000KGXA|GRAY BUTTE FLD|2011|11|19|06|00|34.5639|-117.6750|920.5|6.0||1|FM15-METAR|223|ICAO-KGXA|2.0||1|FM15-METAR|223|ICAO-KGXA|||||||1010.6||1|FM15-METAR|223|ICAO-KGXA|190|N-Normal|1|FM15-METAR|223|ICAO-KGXA|2.1|N-Normal|1|FM15-METAR|223|ICAO-KGXA|||||||||||||76|Derived||FM15-METAR|223|ICAO-KGXA|||||||||||||||||||||||||||||||||||||||||||||||||||||||||||||||||||||||||1010.2||1|FM15-METAR|223|ICAO-KGXA|-0.5|8-Steady-o|1|FM15-METAR|223|ICAO-KGXA|||||||||||||||||||||||||||||||||||||MET097METAR KGXA 190555Z AUTO 19004KT 7SM CLR 06/02 A2983 RMK AO2 SLP106 T00580022 10186 20127 58005 $;||F||223|ICAO-KGXA
USI0000KGXA|GRAY BUTTE FLD|2011|11|19|07|00|34.5639|-117.6750|920.5|8.0||1|FM15-METAR|223|ICAO-KGXA|4.0||1|FM15-METAR|223|ICAO-KGXA|||||||1010.4||1|FM15-METAR|223|ICAO-KGXA|270|N-Normal|1|FM15-METAR|223|ICAO-KGXA|4.1|N-Normal|1|FM15-METAR|223|ICAO-KGXA|7.7||1|FM15-METAR|223|ICAO-KGXA|||||||76|Derived||FM15-METAR|223|ICAO-KGXA|||||||||||||||||||||||||||||||||||||||||||||||||||||||||||||||||||||||||1010.5||1|FM15-METAR|223|ICAO-KGXA|||||||||||||||||||||||||||||||||||||||||||MET082METAR KGXA 190655Z AUTO 27008G15KT 9SM CLR 08/04 A2984 RMK AO2 SLP104 T00760042 $;||F||223|ICAO-KGXA
USI0000KGXA|GRAY BUTTE FLD|2011|11|19|08|00|34.5639|-117.6750|920.5|7.0||1|FM15-METAR|223|ICAO-KGXA|3.0||1|FM15-METAR|223|ICAO-KGXA|||||||1010.1||1|FM15-METAR|223|ICAO-KGXA|230|N-Normal|1|FM15-METAR|223|ICAO-KGXA|3.6|N-Normal|1|FM15-METAR|223|ICAO-KGXA|||||||||||||76|Derived||FM15-METAR|223|ICAO-KGXA|||||||||||||||||||||||||||||||||||||||||||||||||||||||||||||||||||||||||1010.2||1|FM15-METAR|223|ICAO-KGXA|||||||||||||||||||||||||||||||||||||||||||MET079METAR KGXA 190755Z AUTO 23007KT 9SM CLR 07/03 A2983 RMK AO2 SLP101 T00670034 $;||F||223|ICAO-KGXA
USI0000KGXA|GRAY BUTTE FLD|2011|11|19|09|00|34.5639|-117.6750|920.5|7.0||1|FM15-METAR|223|ICAO-KGXA|3.0||1|FM15-METAR|223|ICAO-KGXA|||||||1010.3||1|FM15-METAR|223|ICAO-KGXA|250|N-Normal|1|FM15-METAR|223|ICAO-KGXA|2.6|N-Normal|1|FM15-METAR|223|ICAO-KGXA|||||||||||||76|Derived||FM15-METAR|223|ICAO-KGXA|||||||||||||||||||||||||||||||||||||||||||||||||||||||||||||||||||||||||1010.5||1|FM15-METAR|223|ICAO-KGXA|0.2|0-Incr-the|1|FM15-METAR|223|ICAO-KGXA|||||||||||||||||||||||||||||||||||||MET082METAR KGXA 190855Z AUTO 25005KT 10SM 07/03 A2984 RMK AO2 SLP103 T00670034 50002 $;||F||223|ICAO-KGXA
USI0000KGXA|GRAY BUTTE FLD|2011|11|19|10|00|34.5639|-117.6750|920.5|6.0||1|FM15-METAR|223|ICAO-KGXA|3.0||1|FM15-METAR|223|ICAO-KGXA|||||||1010.5||1|FM15-METAR|223|ICAO-KGXA|290|N-Normal|1|FM15-METAR|223|ICAO-KGXA|1.0|N-Normal|1|FM15-METAR|223|ICAO-KGXA|||||||||||||81|Derived||FM15-METAR|223|ICAO-KGXA|||||||||||||||||||||||||||||||||||||||||||||||||||||||||||||||||||||||||1010.5||1|FM15-METAR|223|ICAO-KGXA|||||||||||||||||||||||||||||||||||||||||||MET076METAR KGXA 190955Z AUTO 29002KT 10SM 06/03 A2984 RMK AO2 SLP105 T00580028 $;||F||223|ICAO-KGXA
USI0000KGXA|GRAY BUTTE FLD|2011|11|19|11|00|34.5639|-117.6750|920.5|6.0||1|FM15-METAR|223|ICAO-KGXA|2.0||1|FM15-METAR|223|ICAO-KGXA|||||||1011.0||1|FM15-METAR|223|ICAO-KGXA|999|V-Variable|9|FM15-METAR|223|ICAO-KGXA|1.0|V-Variable|1|FM15-METAR|223|ICAO-KGXA|||||||||||||76|Derived||FM15-METAR|223|ICAO-KGXA|||||||||||||||||||||||||||||||||||||||||||||||||||||||||||||||||||||||||1010.5||1|FM15-METAR|223|ICAO-KGXA|||||||||||||||||||||||||||||||||||||||||||MET076METAR KGXA 191055Z AUTO VRB02KT 10SM 06/02 A2984 RMK AO2 SLP110 T00590022 $;||F||223|ICAO-KGXA
USI0000KGXA|GRAY BUTTE FLD|2011|11|19|12|00|34.5639|-117.6750|920.5|6.0||1|FM15-METAR|223|ICAO-KGXA|2.0||1|FM15-METAR|223|ICAO-KGXA|||||||1011.7||1|FM15-METAR|223|ICAO-KGXA|230|N-Normal|1|FM15-METAR|223|ICAO-KGXA|1.5|N-Normal|1|FM15-METAR|223|ICAO-KGXA|||||||||||||76|Derived||FM15-METAR|223|ICAO-KGXA|||||||||||||||||||||||||||||||||||||||||||||||||||||||||||||||||||||||||1010.5||1|FM15-METAR|223|ICAO-KGXA|1.4|2-Incr-(st|1|FM15-METAR|223|ICAO-KGXA|||||||||||||||||||||||||||||||||||||MET094METAR KGXA 191155Z AUTO 23003KT 10SM 06/02 A2984 RMK AO2 SLP117 T00560017 10127 20047 54001 $;||F||223|ICAO-KGXA
USI0000KGXA|GRAY BUTTE FLD|2011|11|19|13|00|34.5639|-117.6750|920.5|6.0||1|FM15-METAR|223|ICAO-KGXA|2.0||1|FM15-METAR|223|ICAO-KGXA|||||||1012.3||1|FM15-METAR|223|ICAO-KGXA|999|V-Variable|9|FM15-METAR|223|ICAO-KGXA|2.1|V-Variable|1|FM15-METAR|223|ICAO-KGXA|||||||||||||76|Derived||FM15-METAR|223|ICAO-KGXA|||||||||||||||||||||||||||||||||||||||||||||||||||||||||||||||||||||||||1010.5||1|FM15-METAR|223|ICAO-KGXA|||||||||||||||||||||||||||||||||||||||||||MET076METAR KGXA 191255Z AUTO VRB04KT 10SM 06/02 A2984 RMK AO2 SLP123 T00590016 $;||F||223|ICAO-KGXA
USI0000KGXA|GRAY BUTTE FLD|2011|11|19|14|00|34.5639|-117.6750|920.5|6.0||1|FM15-METAR|223|ICAO-KGXA|2.0||1|FM15-METAR|223|ICAO-KGXA|||||||1012.9||1|FM15-METAR|223|ICAO-KGXA|250|N-Normal|1|FM15-METAR|223|ICAO-KGXA|3.1|N-Normal|1|FM15-METAR|223|ICAO-KGXA|||||||||||||76|Derived||FM15-METAR|223|ICAO-KGXA|||||||||||||||||||||||||||||||||||||||||||||||||||||||||||||||||||||||||1010.8||1|FM15-METAR|223|ICAO-KGXA|||||||||||||||||||||||||||||||||||||||||||MET081METAR KGXA 191355Z AUTO 25006KT 10SM OVC020 06/02 A2985 RMK AO2 SLP129 T00620017;||F||223|ICAO-KGXA
USI0000KGXA|GRAY BUTTE FLD|2011|11|19|15|00|34.5639|-117.6750|920.5|6.0||1|FM15-METAR|223|ICAO-KGXA|2.0||1|FM15-METAR|223|ICAO-KGXA|||||||1013.6||1|FM15-METAR|223|ICAO-KGXA|280|N-Normal|1|FM15-METAR|223|ICAO-KGXA|3.6|N-Normal|1|FM15-METAR|223|ICAO-KGXA|||||||||||||76|Derived||FM15-METAR|223|ICAO-KGXA|||||||||||||||||||||||||||||||||||||||||||||||||||||||||||||||||||||||||1011.5||1|FM15-METAR|223|ICAO-KGXA|0.9|3-Decr-or-|1|FM15-METAR|223|ICAO-KGXA|||||||||||||||||||||||||||||||||||||MET087METAR KGXA 191455Z AUTO 28007KT 10SM OVC022 06/02 A2987 RMK AO2 SLP136 T00610016 53009;||F||223|ICAO-KGXA
USI0000KGXA|GRAY BUTTE FLD|2011|11|19|16|00|34.5639|-117.6750|920.5|7.0||1|FM15-METAR|223|ICAO-KGXA|1.0||1|FM15-METAR|223|ICAO-KGXA|||||||1014.4||1|FM15-METAR|223|ICAO-KGXA|260|N-Normal|1|FM15-METAR|223|ICAO-KGXA|2.6|N-Normal|1|FM15-METAR|223|ICAO-KGXA|||||||||||||66|Derived||FM15-METAR|223|ICAO-KGXA|||||||||||||||||||||||||||||||||||||||||||||||||||||||||||||||||||||||||1011.9||1|FM15-METAR|223|ICAO-KGXA|||||||||||||||||||||||||||||||||||||||||||MET088METAR KGXA 191555Z AUTO 26005KT 10SM BKN022 OVC026 07/01 A2988 RMK AO2 SLP144 T00660013;||F||223|ICAO-KGXA
USI0000KGXA|GRAY BUTTE FLD|2011|11|19|17|00|34.5639|-117.6750|920.5|8.0||1|FM15-METAR|223|ICAO-KGXA|1.0||1|FM15-METAR|223|ICAO-KGXA|||||||1014.0||1|FM15-METAR|223|ICAO-KGXA|310|N-Normal|1|FM15-METAR|223|ICAO-KGXA|4.1|N-Normal|1|FM15-METAR|223|ICAO-KGXA|||||||||||||62|Derived||FM15-METAR|223|ICAO-KGXA|||||||||||||||||||||||||||||||||||||||||||||||||||||||||||||||||||||||||1012.2||1|FM15-METAR|223|ICAO-KGXA|||||||||||||||||||||||||||||||||||||||||||MET081METAR KGXA 191655Z AUTO 31008KT 10SM FEW021 08/01 A2989 RMK AO2 SLP140 T00780012;||F||223|ICAO-KGXA
USI0000KGXA|GRAY BUTTE FLD|2011|11|19|18|00|34.5639|-117.6750|920.5|10.0||1|FM15-METAR|223|ICAO-KGXA|2.0||1|FM15-METAR|223|ICAO-KGXA|||||||1013.9||1|FM15-METAR|223|ICAO-KGXA|090|N-Normal|1|FM15-METAR|223|ICAO-KGXA|1.0|N-Normal|1|FM15-METAR|223|ICAO-KGXA|||||||||||||58|Derived||FM15-METAR|223|ICAO-KGXA|||||||||||||||||||||||||||||||||||||||||||||||||||||||||||||||||||||||||1011.9||1|FM15-METAR|223|ICAO-KGXA|0.5|1-Incr-the|1|FM15-METAR|223|ICAO-KGXA|||||||||||||||||||||||||||||||||||||MET096METAR KGXA 191755Z AUTO 09002KT 10SM CLR 10/02 A2988 RMK AO2 SLP139 T00990015 10076 20051 51005;||F||223|ICAO-KGXA
USI0000KGXA|GRAY BUTTE FLD|2011|11|19|19|00|34.5639|-117.6750|920.5|12.0||1|FM15-METAR|223|ICAO-KGXA|2.0||1|FM15-METAR|223|ICAO-KGXA|||||||1012.8||1|FM15-METAR|223|ICAO-KGXA|999|V-Variable|9|FM15-METAR|223|ICAO-KGXA|1.5|V-Variable|1|FM15-METAR|223|ICAO-KGXA|||||||||||||51|Derived||FM15-METAR|223|ICAO-KGXA|||||||||||||||||||||||||||||||||||||||||||||||||||||||||||||||||||||||||1011.5||1|FM15-METAR|223|ICAO-KGXA|||||||||||||||||||||||||||||||||||||||||||MET078METAR KGXA 191855Z AUTO VRB03KT 10SM CLR 12/02 A2987 RMK AO2 SLP128 T01180017;||F||223|ICAO-KGXA
USI0000KGXA|GRAY BUTTE FLD|2011|11|19|20|00|34.5639|-117.6750|920.5|12.0||1|FM15-METAR|223|ICAO-KGXA|2.0||1|FM15-METAR|223|ICAO-KGXA|||||||1011.6||1|FM15-METAR|223|ICAO-KGXA|030|N-Normal|1|FM15-METAR|223|ICAO-KGXA|1.0|N-Normal|1|FM15-METAR|223|ICAO-KGXA|5.7||1|FM15-METAR|223|ICAO-KGXA|||||||51|Derived||FM15-METAR|223|ICAO-KGXA|||||||||||||||||||||||||||||||||||||||||||||||||||||||||||||||||||||||||1010.5||1|FM15-METAR|223|ICAO-KGXA|||||||||||||||||||||||||||||||||||||||||||MET088METAR KGXA 191955Z AUTO 03002G11KT 10SM CLR 12/02 A2984 RMK AO2 SLP116 T01220019 TSNO $;||F||223|ICAO-KGXA
USI0000KGXA|GRAY BUTTE FLD|2011|11|19|21|00|34.5639|-117.6750|920.5|15.0||1|FM15-METAR|223|ICAO-KGXA|0.0||1|FM15-METAR|223|ICAO-KGXA|||||||1010.5||1|FM15-METAR|223|ICAO-KGXA|999|V-Variable|9|FM15-METAR|223|ICAO-KGXA|2.1|V-Variable|1|FM15-METAR|223|ICAO-KGXA|||||||||||||36|Derived||FM15-METAR|223|ICAO-KGXA|||||||||||||||||||||||||||||||||||||||||||||||||||||||||||||||||||||||||1009.8||1|FM15-METAR|223|ICAO-KGXA|-2.0|8-Steady-o|1|FM15-METAR|223|ICAO-KGXA|||||||||||||||||||||||||||||||||||||MET091METAR KGXA 192055Z AUTO VRB04KT 10SM CLR 15/00 A2982 RMK AO2 SLP105 T01450001 58020 TSNO $;||F||223|ICAO-KGXA
USI0000KGXA|GRAY BUTTE FLD|2011|11|19|22|00|34.5639|-117.6750|920.5|15.0||1|FM15-METAR|223|ICAO-KGXA|-1.0||1|FM15-METAR|223|ICAO-KGXA|||||||1010.2||1|FM15-METAR|223|ICAO-KGXA|999|V-Variable|9|FM15-METAR|223|ICAO-KGXA|1.5|V-Variable|1|FM15-METAR|223|ICAO-KGXA|||||||||||||34|Derived||FM15-METAR|223|ICAO-KGXA|||||||||||||||||||||||||||||||||||||||||||||||||||||||||||||||||||||||||1009.5||1|FM15-METAR|223|ICAO-KGXA|||||||||||||||||||||||||||||||||||||||||||MET086METAR KGXA 192155Z AUTO VRB03KT 10SM CLR 15/M01 A2981 RMK AO2 SLP102 T01531007 TSNO $;||F||223|ICAO-KGXA
USI0000KGXA|GRAY BUTTE FLD|2011|11|19|23|00|34.5639|-117.6750|920.5|14.0||1|FM15-METAR|223|ICAO-KGXA|1.0||1|FM15-METAR|223|ICAO-KGXA|||||||1010.2||1|FM15-METAR|223|ICAO-KGXA|130|N-Normal|1|FM15-METAR|223|ICAO-KGXA|2.6|N-Normal|1|FM15-METAR|223|ICAO-KGXA|||||||||||||41|Derived||FM15-METAR|223|ICAO-KGXA|||||||||||||||||||||||||||||||||||||||||||||||||||||||||||||||||||||||||1009.1||1|FM15-METAR|223|ICAO-KGXA|||||||||||||||||||||||||||||||||||||||||||MET085METAR KGXA 192255Z AUTO 13005KT 10SM CLR 14/01 A2980 RMK AO2 SLP102 T01400014 TSNO $;||F||223|ICAO-KGXA
USI0000KGXA|GRAY BUTTE FLD|2011|11|20|00|00|34.5639|-117.6750|920.5|13.0||1|FM15-METAR|223|ICAO-KGXA|0.0||1|FM15-METAR|223|ICAO-KGXA|||||||1010.7||1|FM15-METAR|223|ICAO-KGXA|290|N-Normal|1|FM15-METAR|223|ICAO-KGXA|6.2|N-Normal|1|FM15-METAR|223|ICAO-KGXA|10.3||1|FM15-METAR|223|ICAO-KGXA|||||||41|Derived||FM15-METAR|223|ICAO-KGXA|||||||||||||||||||||||||||||||||||||||||||||||||||||||||||||||||||||||||1009.5||1|FM15-METAR|223|ICAO-KGXA|-0.2|5-Decr,-th|1|FM15-METAR|223|ICAO-KGXA|||||||||||||||||||||||||||||||||||||MET125METAR KGXA 192355Z AUTO 29012G20KT 10SM BKN048 13/00 A2981 RMK AO2 WSHFT 2328 SLP107 T01300002 10102 20052 401550047 55002 $;||F||223|ICAO-KGXA
USI0000KGXA|GRAY BUTTE FLD|2011|11|20|01|00|34.5639|-117.6750|920.5|11.0||1|FM15-METAR|223|ICAO-KGXA|0.0||1|FM15-METAR|223|ICAO-KGXA|||||||1011.2||1|FM15-METAR|223|ICAO-KGXA|290|N-Normal|1|FM15-METAR|223|ICAO-KGXA|3.6|N-Normal|1|FM15-METAR|223|ICAO-KGXA|||||||||||||47|Derived||FM15-METAR|223|ICAO-KGXA|||||||||||||||||||||||||||||||||||||||||||||||||||||||||||||||||||||||||1009.5||1|FM15-METAR|223|ICAO-KGXA|||||||||||||||||||||||||||||||||||||||||||MET080METAR KGXA 200055Z AUTO 29007KT 10SM CLR 11/00 A2981 RMK AO2 SLP112 T01050004 $;||F||223|ICAO-KGXA
USI0000KGXA|GRAY BUTTE FLD|2011|11|20|02|00|34.5639|-117.6750|920.5|9.0||1|FM15-METAR|223|ICAO-KGXA|2.0||1|FM15-METAR|223|ICAO-KGXA|||||||1011.8||1|FM15-METAR|223|ICAO-KGXA|060|N-Normal|1|FM15-METAR|223|ICAO-KGXA|2.6|N-Normal|1|FM15-METAR|223|ICAO-KGXA|||||||||||||62|Derived||FM15-METAR|223|ICAO-KGXA|||||||||||||||||||||||||||||||||||||||||||||||||||||||||||||||||||||||||1009.8||1|FM15-METAR|223|ICAO-KGXA|||||||||||||||||||||||||||||||||||||||||||MET080METAR KGXA 200155Z AUTO 06005KT 10SM CLR 09/02 A2982 RMK AO2 SLP118 T00910022 $;||F||223|ICAO-KGXA
USI0000KGXA|GRAY BUTTE FLD|2011|11|20|03|00|34.5639|-117.6750|920.5|7.0||1|FM15-METAR|223|ICAO-KGXA|2.0||1|FM15-METAR|223|ICAO-KGXA|||||||1012.6||1|FM15-METAR|223|ICAO-KGXA|070|N-Normal|1|FM15-METAR|223|ICAO-KGXA|1.5|N-Normal|1|FM15-METAR|223|ICAO-KGXA|||||||||||||71|Derived||FM15-METAR|223|ICAO-KGXA|||||||||||||||||||||||||||||||||||||||||||||||||||||||||||||||||||||||||1010.2||1|FM15-METAR|223|ICAO-KGXA|0.6|2-Incr-(st|1|FM15-METAR|223|ICAO-KGXA|||||||||||||||||||||||||||||||||||||MET086METAR KGXA 200255Z AUTO 07003KT 10SM CLR 07/02 A2983 RMK AO2 SLP126 T00690021 52006 $;||F||223|ICAO-KGXA
USI0000KGXA|GRAY BUTTE FLD|2011|11|20|04|00|34.5639|-117.6750|920.5|4.0||1|FM15-METAR|223|ICAO-KGXA|1.0||1|FM15-METAR|223|ICAO-KGXA|||||||1013.3||1|FM15-METAR|223|ICAO-KGXA|140|N-Normal|1|FM15-METAR|223|ICAO-KGXA|1.5|N-Normal|1|FM15-METAR|223|ICAO-KGXA|||||||||||||81|Derived||FM15-METAR|223|ICAO-KGXA|||||||||||||||||||||||||||||||||||||||||||||||||||||||||||||||||||||||||1010.5||1|FM15-METAR|223|ICAO-KGXA|||||||||||||||||||||||||||||||||||||||||||MET080METAR KGXA 200355Z AUTO 14003KT 10SM CLR 04/01 A2984 RMK AO2 SLP133 T00440009 $;||F||223|ICAO-KGXA
USI0000KGXA|GRAY BUTTE FLD|2011|11|20|05|00|34.5639|-117.6750|920.5|3.0||1|FM15-METAR|223|ICAO-KGXA|1.0||1|FM15-METAR|223|ICAO-KGXA|||||||1013.9||1|FM15-METAR|223|ICAO-KGXA|999|C-Calm|9|FM15-METAR|223|ICAO-KGXA|0.0|C-Calm|1|FM15-METAR|223|ICAO-KGXA|||||||||||||87|Derived||FM15-METAR|223|ICAO-KGXA|||||||||||||||||||||||||||||||||||||||||||||||||||||||||||||||||||||||||1011.2||1|FM15-METAR|223|ICAO-KGXA|||||||||||||||||||||||||||||||||||||||||||MET080METAR KGXA 200455Z AUTO 00000KT 10SM CLR 03/01 A2986 RMK AO2 SLP139 T00340005 $;||F||223|ICAO-KGXA
USI0000KGXA|GRAY BUTTE FLD|2011|11|20|06|00|34.5639|-117.6750|920.5|3.0||1|FM15-METAR|223|ICAO-KGXA|0.0||1|FM15-METAR|223|ICAO-KGXA|||||||1013.8||1|FM15-METAR|223|ICAO-KGXA|150|N-Normal|1|FM15-METAR|223|ICAO-KGXA|1.5|N-Normal|1|FM15-METAR|223|ICAO-KGXA|||||||||||||81|Derived||FM15-METAR|223|ICAO-KGXA|||||||||||||||||||||||||||||||||||||||||||||||||||||||||||||||||||||||||1011.5||1|FM15-METAR|223|ICAO-KGXA|1.0|2-Incr-(st|1|FM15-METAR|223|ICAO-KGXA|||||||||||||||||||||||||||||||||||||MET098METAR KGXA 200555Z AUTO 15003KT 10SM CLR 03/00 A2987 RMK AO2 SLP138 T00250001 10155 20101 52010 $;||F||223|ICAO-KGXA
USI0000KGXA|GRAY BUTTE FLD|2011|11|20|07|00|34.5639|-117.6750|920.5|1.0||1|FM15-METAR|223|ICAO-KGXA|-1.0||1|FM15-METAR|223|ICAO-KGXA|||||||1013.8||1|FM15-METAR|223|ICAO-KGXA|150|N-Normal|1|FM15-METAR|223|ICAO-KGXA|1.5|N-Normal|1|FM15-METAR|223|ICAO-KGXA|||||||||||||87|Derived||FM15-METAR|223|ICAO-KGXA|||||||||||||||||||||||||||||||||||||||||||||||||||||||||||||||||||||||||1011.5||1|FM15-METAR|223|ICAO-KGXA|||||||||||||||||||||||||||||||||||||||||||MET081METAR KGXA 200655Z AUTO 15003KT 10SM CLR 01/M01 A2987 RMK AO2 SLP138 T00131007 $;||F||223|ICAO-KGXA
USI0000KGXA|GRAY BUTTE FLD|2011|11|20|08|00|34.5639|-117.6750|920.5|1.0||1|FM15-METAR|223|ICAO-KGXA|-1.0||1|FM15-METAR|223|ICAO-KGXA|||||||1013.8||1|FM15-METAR|223|ICAO-KGXA|150|N-Normal|1|FM15-METAR|223|ICAO-KGXA|1.5|N-Normal|1|FM15-METAR|223|ICAO-KGXA|||||||||||||87|Derived||FM15-METAR|223|ICAO-KGXA|||||||||||||||||||||||||||||||||||||||||||||||||||||||||||||||||||||||||1011.5||1|FM15-METAR|223|ICAO-KGXA|||||||||||||||||||||||||||||||||||||||||||MET092METAR KGXA 200755Z AUTO 15003KT 10SM 01/M01 A2987 RMK AO2 SLP138 T00121008 PWINO PNO TSNO $;||F||223|ICAO-KGXA
USI0000KGXA|GRAY BUTTE FLD|2011|11|21|17|00|34.5639|-117.6750|920.5|6.0||1|FM15-METAR|223|ICAO-KGXA|5.0||1|FM15-METAR|223|ICAO-KGXA|||||||1023.4||1|FM15-METAR|223|ICAO-KGXA|060|N-Normal|1|FM15-METAR|223|ICAO-KGXA|0.5|N-Normal|1|FM15-METAR|223|ICAO-KGXA|||||||||||||93|Derived||FM15-METAR|223|ICAO-KGXA|||||||||||||||||||||||||||||||||||||||||||||||||||||||||||||||||||||||||1020.7||1|FM15-METAR|223|ICAO-KGXA|||||||||||||||||||||||||||||||||||||||||||MET078METAR KGXA 211655Z AUTO 06001KT 10SM CLR 06/05 A3014 RMK AO2 SLP234 T00640048;||F||223|ICAO-KGXA
USI0000KGXA|GRAY BUTTE FLD|2011|11|21|18|00|34.5639|-117.6750|920.5|8.0||1|FM15-METAR|223|ICAO-KGXA|5.0||1|FM15-METAR|223|ICAO-KGXA|||||||1023.8||1|FM15-METAR|223|ICAO-KGXA|250|N-Normal|1|FM15-METAR|223|ICAO-KGXA|1.5|N-Normal|1|FM15-METAR|223|ICAO-KGXA|||||||||||||82|Derived||FM15-METAR|223|ICAO-KGXA|||||||||||||||||||||||||||||||||||||||||||||||||||||||||||||||||||||||||1021.7||1|FM15-METAR|223|ICAO-KGXA|2.2|2-Incr-(st|1|FM15-METAR|223|ICAO-KGXA|||||||||||||||||||||||||||||||||||||MET096METAR KGXA 211755Z AUTO 25003KT 10SM CLR 08/05 A3017 RMK AO2 SLP238 T00770050 10033 20031 52022;||F||223|ICAO-KGXA
USI0000KGXA|GRAY BUTTE FLD|2011|11|21|19|00|34.5639|-117.6750|920.5|9.0||1|FM15-METAR|223|ICAO-KGXA|4.0||1|FM15-METAR|223|ICAO-KGXA|||||||1023.2||1|FM15-METAR|223|ICAO-KGXA|080|N-Normal|1|FM15-METAR|223|ICAO-KGXA|0.5|N-Normal|1|FM15-METAR|223|ICAO-KGXA|||||||||||||71|Derived||FM15-METAR|223|ICAO-KGXA|||||||||||||||||||||||||||||||||||||||||||||||||||||||||||||||||||||||||1021.7||1|FM15-METAR|223|ICAO-KGXA|||||||||||||||||||||||||||||||||||||||||||MET078METAR KGXA 211855Z AUTO 08001KT 10SM CLR 09/04 A3017 RMK AO2 SLP232 T00940042;||F||223|ICAO-KGXA
USI0000KGXA|GRAY BUTTE FLD|2011|11|21|20|00|34.5639|-117.6750|920.5|10.0||1|FM15-METAR|223|ICAO-KGXA|3.0||1|FM15-METAR|223|ICAO-KGXA|||||||1022.6||1|FM15-METAR|223|ICAO-KGXA|300|N-Normal|1|FM15-METAR|223|ICAO-KGXA|1.0|N-Normal|1|FM15-METAR|223|ICAO-KGXA|||||||||||||62|Derived||FM15-METAR|223|ICAO-KGXA|||||||||||||||||||||||||||||||||||||||||||||||||||||||||||||||||||||||||1021.3||1|FM15-METAR|223|ICAO-KGXA|||||||||||||||||||||||||||||||||||||||||||MET081METAR KGXA 211955Z AUTO 30002KT 10SM FEW190 10/03 A3016 RMK AO2 SLP226 T01000029;||F||223|ICAO-KGXA
USI0000KGXA|GRAY BUTTE FLD|2011|11|21|21|00|34.5639|-117.6750|920.5|11.0||1|FM15-METAR|223|ICAO-KGXA|3.0||1|FM15-METAR|223|ICAO-KGXA|||||||1021.9||1|FM15-METAR|223|ICAO-KGXA|999|V-Variable|9|FM15-METAR|223|ICAO-KGXA|1.5|V-Variable|1|FM15-METAR|223|ICAO-KGXA|||||||||||||58|Derived||FM15-METAR|223|ICAO-KGXA|||||||||||||||||||||||||||||||||||||||||||||||||||||||||||||||||||||||||1021.0||1|FM15-METAR|223|ICAO-KGXA|-0.5|8-Steady-o|1|FM15-METAR|223|ICAO-KGXA|||||||||||||||||||||||||||||||||||||MET091METAR KGXA 212055Z AUTO VRB03KT 10SM CLR 11/03 A3015 RMK AO2 SLP219 T01060029 58005 TSNO $;||F||223|ICAO-KGXA
USI0000KGXA|GRAY BUTTE FLD|2011|11|21|22|00|34.5639|-117.6750|920.5|12.0||1|FM15-METAR|223|ICAO-KGXA|2.0||1|FM15-METAR|223|ICAO-KGXA|||||||1021.4||1|FM15-METAR|223|ICAO-KGXA|230|N-Normal|1|FM15-METAR|223|ICAO-KGXA|1.5|N-Normal|1|FM15-METAR|223|ICAO-KGXA|||||||||||||51|Derived||FM15-METAR|223|ICAO-KGXA|||||||||||||||||||||||||||||||||||||||||||||||||||||||||||||||||||||||||1021.0||1|FM15-METAR|223|ICAO-KGXA|||||||||||||||||||||||||||||||||||||||||||MET085METAR KGXA 212155Z AUTO 23003KT 10SM CLR 12/02 A3015 RMK AO2 SLP214 T01210020 TSNO $;||F||223|ICAO-KGXA
USI0000KGXA|GRAY BUTTE FLD|2011|11|21|23|00|34.5639|-117.6750|920.5|11.0||1|FM15-METAR|223|ICAO-KGXA|2.0||1|FM15-METAR|223|ICAO-KGXA|||||||1021.4||1|FM15-METAR|223|ICAO-KGXA|310|N-Normal|1|FM15-METAR|223|ICAO-KGXA|0.5|N-Normal|1|FM15-METAR|223|ICAO-KGXA|||||||||||||54|Derived||FM15-METAR|223|ICAO-KGXA|||||||||||||||||||||||||||||||||||||||||||||||||||||||||||||||||||||||||1020.7||1|FM15-METAR|223|ICAO-KGXA|||||||||||||||||||||||||||||||||||||||||||MET085METAR KGXA 212255Z AUTO 31001KT 10SM CLR 11/02 A3014 RMK AO2 SLP214 T01130015 TSNO $;||F||223|ICAO-KGXA
USI0000KGXA|GRAY BUTTE FLD|2011|11|22|00|00|34.5639|-117.6750|920.5|11.0||1|FM15-METAR|223|ICAO-KGXA|2.0||1|FM15-METAR|223|ICAO-KGXA|||||||1023.6||1|FM15-METAR|223|ICAO-KGXA|320|N-Normal|1|FM15-METAR|223|ICAO-KGXA|1.5|N-Normal|1|FM15-METAR|223|ICAO-KGXA|||||||||||||54|Derived||FM15-METAR|223|ICAO-KGXA|||||||||||||||||||||||||||||||||||||||||||||||||||||||||||||||||||||||||1021.3||1|FM15-METAR|223|ICAO-KGXA|0.3|3-Decr-or-|1|FM15-METAR|223|ICAO-KGXA|||||||||||||||||||||||||||||||||||||MET106METAR KGXA 212355Z AUTO 32003KT 10SM CLR 11/02 A3016 RMK AO2 SLP236 T01120019 10079 20010 401210041 53003;||F||223|ICAO-KGXA
USI0000KGXA|GRAY BUTTE FLD|2011|11|22|01|00|34.5639|-117.6750|920.5|10.0||1|FM15-METAR|223|ICAO-KGXA|3.0||1|FM15-METAR|223|ICAO-KGXA|||||||1024.5||1|FM15-METAR|223|ICAO-KGXA|999|C-Calm|9|FM15-METAR|223|ICAO-KGXA|0.0|C-Calm|1|FM15-METAR|223|ICAO-KGXA|||||||||||||62|Derived||FM15-METAR|223|ICAO-KGXA|||||||||||||||||||||||||||||||||||||||||||||||||||||||||||||||||||||||||1022.0||1|FM15-METAR|223|ICAO-KGXA|||||||||||||||||||||||||||||||||||||||||||MET078METAR KGXA 220055Z AUTO 00000KT 10SM CLR 10/03 A3018 RMK AO2 SLP245 T00970033;||F||223|ICAO-KGXA
USI0000KGXA|GRAY BUTTE FLD|2011|11|22|02|00|34.5639|-117.6750|920.5|7.0||1|FM15-METAR|223|ICAO-KGXA|4.0||1|FM15-METAR|223|ICAO-KGXA|||||||1025.3||1|FM15-METAR|223|ICAO-KGXA|150|N-Normal|1|FM15-METAR|223|ICAO-KGXA|1.5|N-Normal|1|FM15-METAR|223|ICAO-KGXA|||||||||||||81|Derived||FM15-METAR|223|ICAO-KGXA|||||||||||||||||||||||||||||||||||||||||||||||||||||||||||||||||||||||||1022.0||1|FM15-METAR|223|ICAO-KGXA|||||||||||||||||||||||||||||||||||||||||||MET078METAR KGXA 220155Z AUTO 15003KT 10SM CLR 07/04 A3018 RMK AO2 SLP253 T00700044;||F||223|ICAO-KGXA
USI0000KGXA|GRAY BUTTE FLD|2011|11|22|03|00|34.5639|-117.6750|920.5|6.0||1|FM15-METAR|223|ICAO-KGXA|3.0||1|FM15-METAR|223|ICAO-KGXA|||||||1026.6||1|FM15-METAR|223|ICAO-KGXA|170|N-Normal|1|FM15-METAR|223|ICAO-KGXA|2.1|N-Normal|1|FM15-METAR|223|ICAO-KGXA|||||||||||||81|Derived||FM15-METAR|223|ICAO-KGXA|||||||||||||||||||||||||||||||||||||||||||||||||||||||||||||||||||||||||1022.7||1|FM15-METAR|223|ICAO-KGXA|1.3|3-Decr-or-|1|FM15-METAR|223|ICAO-KGXA|||||||||||||||||||||||||||||||||||||MET084METAR KGXA 220255Z AUTO 17004KT 10SM CLR 06/03 A3020 RMK AO2 SLP266 T00570029 53013;||F||223|ICAO-KGXA
USI0000KGXA|GRAY BUTTE FLD|2011|11|22|04|00|34.5639|-117.6750|920.5|4.0||1|FM15-METAR|223|ICAO-KGXA|2.0||1|FM15-METAR|223|ICAO-KGXA|||||||1027.2||1|FM15-METAR|223|ICAO-KGXA|180|N-Normal|1|FM15-METAR|223|ICAO-KGXA|2.1|N-Normal|1|FM15-METAR|223|ICAO-KGXA|||||||||||||87|Derived||FM15-METAR|223|ICAO-KGXA|||||||||||||||||||||||||||||||||||||||||||||||||||||||||||||||||||||||||1023.4||1|FM15-METAR|223|ICAO-KGXA|||||||||||||||||||||||||||||||||||||||||||MET078METAR KGXA 220355Z AUTO 18004KT 10SM CLR 04/02 A3022 RMK AO2 SLP272 T00410019;||F||223|ICAO-KGXA
USI0000KGXA|GRAY BUTTE FLD|2011|11|22|05|00|34.5639|-117.6750|920.5|3.0||1|FM15-METAR|223|ICAO-KGXA|1.0||1|FM15-METAR|223|ICAO-KGXA|||||||1027.4||1|FM15-METAR|223|ICAO-KGXA|180|N-Normal|1|FM15-METAR|223|ICAO-KGXA|1.5|N-Normal|1|FM15-METAR|223|ICAO-KGXA|||||||||||||87|Derived||FM15-METAR|223|ICAO-KGXA|||||||||||||||||||||||||||||||||||||||||||||||||||||||||||||||||||||||||1024.0||1|FM15-METAR|223|ICAO-KGXA|||||||||||||||||||||||||||||||||||||||||||MET078METAR KGXA 220455Z AUTO 18003KT 10SM CLR 03/01 A3024 RMK AO2 SLP274 T00330010;||F||223|ICAO-KGXA
USI0000KGXA|GRAY BUTTE FLD|2011|11|22|06|00|34.5639|-117.6750|920.5|3.0||1|FM15-METAR|223|ICAO-KGXA|1.0||1|FM15-METAR|223|ICAO-KGXA|||||||1028.0||1|FM15-METAR|223|ICAO-KGXA|170|N-Normal|1|FM15-METAR|223|ICAO-KGXA|1.5|N-Normal|1|FM15-METAR|223|ICAO-KGXA|||||||||||||87|Derived||FM15-METAR|223|ICAO-KGXA|||||||||||||||||||||||||||||||||||||||||||||||||||||||||||||||||||||||||1024.7||1|FM15-METAR|223|ICAO-KGXA|2.1|2-Incr-(st|1|FM15-METAR|223|ICAO-KGXA|||||||||||||||||||||||||||||||||||||MET109METAR KGXA 220555Z AUTO 17003KT 10SM 03/01 A3026 RMK AO2 SLP280 T00270006 10121 20076 52021 PWINO PNO TSNO $;||F||223|ICAO-KGXA
USI0000KGXA|GRAY BUTTE FLD|2011|11|22|16|00|34.5639|-117.6750|920.5|4.0||1|FM15-METAR|223|ICAO-KGXA|1.0||1|FM15-METAR|223|ICAO-KGXA|||||||1029.8||1|FM15-METAR|223|ICAO-KGXA|220|N-Normal|1|FM15-METAR|223|ICAO-KGXA|1.5|N-Normal|1|FM15-METAR|223|ICAO-KGXA|||||||||||||81|Derived||FM15-METAR|223|ICAO-KGXA|||||||||||||||||||||||||||||||||||||||||||||||||||||||||||||||||||||||||1026.1||1|FM15-METAR|223|ICAO-KGXA|||||||||||||||||||||||||||||||||||||||||||MET078METAR KGXA 221555Z AUTO 22003KT 10SM CLR 04/01 A3030 RMK AO2 SLP298 T00420014;||F||223|ICAO-KGXA
USI0000KGXA|GRAY BUTTE FLD|2011|11|22|17|00|34.5639|-117.6750|920.5|7.0||1|FM15-METAR|223|ICAO-KGXA|3.0||1|FM15-METAR|223|ICAO-KGXA|||||||1029.6||1|FM15-METAR|223|ICAO-KGXA|999|C-Calm|9|FM15-METAR|223|ICAO-KGXA|0.0|C-Calm|1|FM15-METAR|223|ICAO-KGXA|||||||||||||76|Derived||FM15-METAR|223|ICAO-KGXA|||||||||||||||||||||||||||||||||||||||||||||||||||||||||||||||||||||||||1026.4||1|FM15-METAR|223|ICAO-KGXA|||||||||||||||||||||||||||||||||||||||||||MET091METAR KGXA 221655Z AUTO 00000KT 10SM 07/03 A3031 RMK AO2 SLP296 T00710029 PWINO PNO TSNO $;||F||223|ICAO-KGXA
USI0000KGXA|GRAY BUTTE FLD|2011|11|22|18|00|34.5639|-117.6750|920.5|9.0||1|FM15-METAR|223|ICAO-KGXA|4.0||1|FM15-METAR|223|ICAO-KGXA|||||||1029.6||1|FM15-METAR|223|ICAO-KGXA|300|N-Normal|1|FM15-METAR|223|ICAO-KGXA|0.5|N-Normal|1|FM15-METAR|223|ICAO-KGXA|||||||||||||71|Derived||FM15-METAR|223|ICAO-KGXA|||||||||||||||||||||||||||||||||||||||||||||||||||||||||||||||||||||||||1026.4||1|FM15-METAR|223|ICAO-KGXA|0.9|1-Incr-the|1|FM15-METAR|223|ICAO-KGXA|||||||||||||||||||||||||||||||||||||MET096METAR KGXA 221755Z AUTO 30001KT 10SM CLR 09/04 A3031 RMK AO2 SLP296 T00900035 10022 20000 51009;||F||223|ICAO-KGXA
USI0000KGXA|GRAY BUTTE FLD|2011|11|22|19|00|34.5639|-117.6750|920.5|11.0||1|FM15-METAR|223|ICAO-KGXA|4.0||1|FM15-METAR|223|ICAO-KGXA|||||||1028.7||1|FM15-METAR|223|ICAO-KGXA|090|N-Normal|1|FM15-METAR|223|ICAO-KGXA|1.0|N-Normal|1|FM15-METAR|223|ICAO-KGXA|||||||||||||62|Derived||FM15-METAR|223|ICAO-KGXA|||||||||||||||||||||||||||||||||||||||||||||||||||||||||||||||||||||||||1026.1||1|FM15-METAR|223|ICAO-KGXA|||||||||||||||||||||||||||||||||||||||||||MET078METAR KGXA 221855Z AUTO 09002KT 10SM CLR 11/04 A3030 RMK AO2 SLP287 T01080040;||F||223|ICAO-KGXA
USI0000KGXA|GRAY BUTTE FLD|2011|11|22|20|00|34.5639|-117.6750|920.5|12.0||1|FM15-METAR|223|ICAO-KGXA|3.0||1|FM15-METAR|223|ICAO-KGXA|||||||1027.6||1|FM15-METAR|223|ICAO-KGXA|020|N-Normal|1|FM15-METAR|223|ICAO-KGXA|1.5|N-Normal|1|FM15-METAR|223|ICAO-KGXA|||||||||||||54|Derived||FM15-METAR|223|ICAO-KGXA|||||||||||||||||||||||||||||||||||||||||||||||||||||||||||||||||||||||||1025.1||1|FM15-METAR|223|ICAO-KGXA|||||||||||||||||||||||||||||||||||||||||||MET078METAR KGXA 221955Z AUTO 02003KT 10SM CLR 12/03 A3027 RMK AO2 SLP276 T01220034;||F||223|ICAO-KGXA
USI0000KGXA|GRAY BUTTE FLD|2011|11|22|21|00|34.5639|-117.6750|920.5|13.0||1|FM15-METAR|223|ICAO-KGXA|3.0||1|FM15-METAR|223|ICAO-KGXA|||||||1026.6||1|FM15-METAR|223|ICAO-KGXA|330|N-Normal|1|FM15-METAR|223|ICAO-KGXA|1.5|N-Normal|1|FM15-METAR|223|ICAO-KGXA|||||||||||||51|Derived||FM15-METAR|223|ICAO-KGXA|||||||||||||||||||||||||||||||||||||||||||||||||||||||||||||||||||||||||1024.0||1|FM15-METAR|223|ICAO-KGXA|-2.1|8-Steady-o|1|FM15-METAR|223|ICAO-KGXA|||||||||||||||||||||||||||||||||||||MET091METAR KGXA 222055Z AUTO 33003KT 10SM CLR 13/03 A3024 RMK AO2 SLP266 T01280033 58021 TSNO $;||F||223|ICAO-KGXA
USI0000KGXA|GRAY BUTTE FLD|2011|11|22|22|00|34.5639|-117.6750|920.5|14.0||1|FM15-METAR|223|ICAO-KGXA|2.0||1|FM15-METAR|223|ICAO-KGXA|||||||1025.6||1|FM15-METAR|223|ICAO-KGXA|999|V-Variable|9|FM15-METAR|223|ICAO-KGXA|0.5|V-Variable|1|FM15-METAR|223|ICAO-KGXA|||||||||||||44|Derived||FM15-METAR|223|ICAO-KGXA|||||||||||||||||||||||||||||||||||||||||||||||||||||||||||||||||||||||||1023.4||1|FM15-METAR|223|ICAO-KGXA|||||||||||||||||||||||||||||||||||||||||||MET085METAR KGXA 222155Z AUTO VRB01KT 10SM CLR 14/02 A3022 RMK AO2 SLP256 T01360021 TSNO $;||F||223|ICAO-KGXA
USI0000KGXA|GRAY BUTTE FLD|2011|11|22|23|00|34.5639|-117.6750|920.5|14.0||1|FM15-METAR|223|ICAO-KGXA|2.0||1|FM15-METAR|223|ICAO-KGXA|||||||1025.3||1|FM15-METAR|223|ICAO-KGXA|100|N-Normal|1|FM15-METAR|223|ICAO-KGXA|1.5|N-Normal|1|FM15-METAR|223|ICAO-KGXA|||||||||||||44|Derived||FM15-METAR|223|ICAO-KGXA|||||||||||||||||||||||||||||||||||||||||||||||||||||||||||||||||||||||||1023.0||1|FM15-METAR|223|ICAO-KGXA|||||||||||||||||||||||||||||||||||||||||||MET085METAR KGXA 222255Z AUTO 10003KT 10SM CLR 14/02 A3021 RMK AO2 SLP253 T01400018 TSNO $;||F||223|ICAO-KGXA
USI0000KGXA|GRAY BUTTE FLD|2011|11|23|00|00|34.5639|-117.6750|920.5|13.0||1|FM15-METAR|223|ICAO-KGXA|1.0||1|FM15-METAR|223|ICAO-KGXA|||||||1025.2||1|FM15-METAR|223|ICAO-KGXA|070|N-Normal|1|FM15-METAR|223|ICAO-KGXA|2.1|N-Normal|1|FM15-METAR|223|ICAO-KGXA|||||||||||||44|Derived||FM15-METAR|223|ICAO-KGXA|||||||||||||||||||||||||||||||||||||||||||||||||||||||||||||||||||||||||1022.7||1|FM15-METAR|223|ICAO-KGXA|-1.3|6-Decr,-th|1|FM15-METAR|223|ICAO-KGXA|||||||||||||||||||||||||||||||||||||MET106METAR KGXA 222355Z AUTO 07004KT 10SM CLR 13/01 A3020 RMK AO2 SLP252 T01330007 10091 21002 401410027 56013;||F||223|ICAO-KGXA
USI0000KGXA|GRAY BUTTE FLD|2011|11|23|01|00|34.5639|-117.6750|920.5|11.0||1|FM15-METAR|223|ICAO-KGXA|4.0||1|FM15-METAR|223|ICAO-KGXA|||||||1025.9||1|FM15-METAR|223|ICAO-KGXA|290|N-Normal|1|FM15-METAR|223|ICAO-KGXA|1.0|N-Normal|1|FM15-METAR|223|ICAO-KGXA|||||||||||||62|Derived||FM15-METAR|223|ICAO-KGXA|||||||||||||||||||||||||||||||||||||||||||||||||||||||||||||||||||||||||1022.7||1|FM15-METAR|223|ICAO-KGXA|||||||||||||||||||||||||||||||||||||||||||MET078METAR KGXA 230055Z AUTO 29002KT 10SM CLR 11/04 A3020 RMK AO2 SLP259 T01070043;||F||223|ICAO-KGXA
USI0000KGXA|GRAY BUTTE FLD|2011|11|23|02|00|34.5639|-117.6750|920.5|8.0||1|FM15-METAR|223|ICAO-KGXA|4.0||1|FM15-METAR|223|ICAO-KGXA|||||||1026.3||1|FM15-METAR|223|ICAO-KGXA|180|N-Normal|1|FM15-METAR|223|ICAO-KGXA|1.5|N-Normal|1|FM15-METAR|223|ICAO-KGXA|||||||||||||76|Derived||FM15-METAR|223|ICAO-KGXA|||||||||||||||||||||||||||||||||||||||||||||||||||||||||||||||||||||||||1022.7||1|FM15-METAR|223|ICAO-KGXA|||||||||||||||||||||||||||||||||||||||||||MET080METAR KGXA 230155Z AUTO 18003KT 10SM CLR 08/04 A3020 RMK AO2 SLP263 T00760044 $;||F||223|ICAO-KGXA
USI0000KGXA|GRAY BUTTE FLD|2011|11|23|03|00|34.5639|-117.6750|920.5|6.0||1|FM15-METAR|223|ICAO-KGXA|3.0||1|FM15-METAR|223|ICAO-KGXA|||||||1026.8||1|FM15-METAR|223|ICAO-KGXA|160|N-Normal|1|FM15-METAR|223|ICAO-KGXA|1.5|N-Normal|1|FM15-METAR|223|ICAO-KGXA|||||||||||||81|Derived||FM15-METAR|223|ICAO-KGXA|||||||||||||||||||||||||||||||||||||||||||||||||||||||||||||||||||||||||1023.0||1|FM15-METAR|223|ICAO-KGXA|0.2|2-Incr-(st|1|FM15-METAR|223|ICAO-KGXA|||||||||||||||||||||||||||||||||||||MET086METAR KGXA 230255Z AUTO 16003KT 10SM CLR 06/03 A3021 RMK AO2 SLP268 T00550033 52002 $;||F||223|ICAO-KGXA
USI0000KGXA|GRAY BUTTE FLD|2011|11|23|04|00|34.5639|-117.6750|920.5|5.0||1|FM15-METAR|223|ICAO-KGXA|3.0||1|FM15-METAR|223|ICAO-KGXA|||||||1026.2||1|FM15-METAR|223|ICAO-KGXA|170|N-Normal|1|FM15-METAR|223|ICAO-KGXA|2.1|N-Normal|1|FM15-METAR|223|ICAO-KGXA|||||||||||||87|Derived||FM15-METAR|223|ICAO-KGXA|||||||||||||||||||||||||||||||||||||||||||||||||||||||||||||||||||||||||1022.7||1|FM15-METAR|223|ICAO-KGXA|||||||||||||||||||||||||||||||||||||||||||MET080METAR KGXA 230355Z AUTO 17004KT 10SM CLR 05/03 A3020 RMK AO2 SLP262 T00500025 $;||F||223|ICAO-KGXA
USI0000KGXA|GRAY BUTTE FLD|2011|11|23|05|00|34.5639|-117.6750|920.5|4.0||1|FM15-METAR|223|ICAO-KGXA|2.0||1|FM15-METAR|223|ICAO-KGXA|||||||1026.0||1|FM15-METAR|223|ICAO-KGXA|170|N-Normal|1|FM15-METAR|223|ICAO-KGXA|2.1|N-Normal|1|FM15-METAR|223|ICAO-KGXA|||||||||||||87|Derived||FM15-METAR|223|ICAO-KGXA|||||||||||||||||||||||||||||||||||||||||||||||||||||||||||||||||||||||||1023.0||1|FM15-METAR|223|ICAO-KGXA|||||||||||||||||||||||||||||||||||||||||||MET080METAR KGXA 230455Z AUTO 17004KT 10SM CLR 04/02 A3021 RMK AO2 SLP260 T00390017 $;||F||223|ICAO-KGXA
USI0000KGXA|GRAY BUTTE FLD|2011|11|23|06|00|34.5639|-117.6750|920.5|3.0||1|FM15-METAR|223|ICAO-KGXA|1.0||1|FM15-METAR|223|ICAO-KGXA|||||||1025.7||1|FM15-METAR|223|ICAO-KGXA|170|N-Normal|1|FM15-METAR|223|ICAO-KGXA|1.5|N-Normal|1|FM15-METAR|223|ICAO-KGXA|||||||||||||87|Derived||FM15-METAR|223|ICAO-KGXA|||||||||||||||||||||||||||||||||||||||||||||||||||||||||||||||||||||||||1023.0||1|FM15-METAR|223|ICAO-KGXA|0.0|4-Steady;-|1|FM15-METAR|223|ICAO-KGXA|||||||||||||||||||||||||||||||||||||MET098METAR KGXA 230555Z AUTO 17003KT 10SM CLR 03/01 A3021 RMK AO2 SLP257 T00300011 10141 20089 54000 $;||F||223|ICAO-KGXA
USI0000KGXA|GRAY BUTTE FLD|2011|11|23|07|00|34.5639|-117.6750|920.5|2.0||1|FM15-METAR|223|ICAO-KGXA|1.0||1|FM15-METAR|223|ICAO-KGXA|||||||1025.1||1|FM15-METAR|223|ICAO-KGXA|170|N-Normal|1|FM15-METAR|223|ICAO-KGXA|1.5|N-Normal|1|FM15-METAR|223|ICAO-KGXA|||||||||||||93|Derived||FM15-METAR|223|ICAO-KGXA|||||||||||||||||||||||||||||||||||||||||||||||||||||||||||||||||||||||||1022.7||1|FM15-METAR|223|ICAO-KGXA|||||||||||||||||||||||||||||||||||||||||||MET080METAR KGXA 230655Z AUTO 17003KT 10SM CLR 02/01 A3020 RMK AO2 SLP251 T00230006 $;||F||223|ICAO-KGXA
USI0000KGXA|GRAY BUTTE FLD|2011|11|23|08|00|34.5639|-117.6750|920.5|2.0||1|FM15-METAR|223|ICAO-KGXA|0.0||1|FM15-METAR|223|ICAO-KGXA|||||||1024.6||1|FM15-METAR|223|ICAO-KGXA|170|N-Normal|1|FM15-METAR|223|ICAO-KGXA|2.1|N-Normal|1|FM15-METAR|223|ICAO-KGXA|||||||||||||87|Derived||FM15-METAR|223|ICAO-KGXA|||||||||||||||||||||||||||||||||||||||||||||||||||||||||||||||||||||||||1022.4||1|FM15-METAR|223|ICAO-KGXA|||||||||||||||||||||||||||||||||||||||||||MET080METAR KGXA 230755Z AUTO 17004KT 10SM CLR 02/00 A3019 RMK AO2 SLP246 T00220001 $;||F||223|ICAO-KGXA
USI0000KGXA|GRAY BUTTE FLD|2011|11|23|09|00|34.5639|-117.6750|920.5|1.0||1|FM15-METAR|223|ICAO-KGXA|0.0||1|FM15-METAR|223|ICAO-KGXA|||||||1024.3||1|FM15-METAR|223|ICAO-KGXA|180|N-Normal|1|FM15-METAR|223|ICAO-KGXA|1.5|N-Normal|1|FM15-METAR|223|ICAO-KGXA|||||||||||||93|Derived||FM15-METAR|223|ICAO-KGXA|||||||||||||||||||||||||||||||||||||||||||||||||||||||||||||||||||||||||1022.0||1|FM15-METAR|223|ICAO-KGXA|-0.9|7-Decr-(st|1|FM15-METAR|223|ICAO-KGXA|||||||||||||||||||||||||||||||||||||MET086METAR KGXA 230855Z AUTO 18003KT 10SM CLR 01/00 A3018 RMK AO2 SLP243 T00121003 57009 $;||F||223|ICAO-KGXA
USI0000KGXA|GRAY BUTTE FLD|2011|11|23|10|00|34.5639|-117.6750|920.5|2.0||1|FM15-METAR|223|ICAO-KGXA|0.0||1|FM15-METAR|223|ICAO-KGXA|||||||1023.4||1|FM15-METAR|223|ICAO-KGXA|170|N-Normal|1|FM15-METAR|223|ICAO-KGXA|2.1|N-Normal|1|FM15-METAR|223|ICAO-KGXA|||||||||||||87|Derived||FM15-METAR|223|ICAO-KGXA|||||||||||||||||||||||||||||||||||||||||||||||||||||||||||||||||||||||||1021.3||1|FM15-METAR|223|ICAO-KGXA|||||||||||||||||||||||||||||||||||||||||||MET079METAR KGXA 230955Z AUTO 17004KT 9SM CLR 02/00 A3016 RMK AO2 SLP234 T00170002 $;||F||223|ICAO-KGXA
USI0000KGXA|GRAY BUTTE FLD|2011|11|23|11|00|34.5639|-117.6750|920.5|1.0||1|FM15-METAR|223|ICAO-KGXA|0.0||1|FM15-METAR|223|ICAO-KGXA|||||||1023.0||1|FM15-METAR|223|ICAO-KGXA|170|N-Normal|1|FM15-METAR|223|ICAO-KGXA|2.1|N-Normal|1|FM15-METAR|223|ICAO-KGXA|||||||||||||93|Derived||FM15-METAR|223|ICAO-KGXA|||||||||||||||||||||||||||||||||||||||||||||||||||||||||||||||||||||||||1020.7||1|FM15-METAR|223|ICAO-KGXA|||||||||||||||||||||||||||||||||||||||||||MET080METAR KGXA 231055Z AUTO 17004KT 10SM CLR 01/00 A3014 RMK AO2 SLP230 T00091005 $;||F||223|ICAO-KGXA
USI0000KGXA|GRAY BUTTE FLD|2011|11|23|12|00|34.5639|-117.6750|920.5|1.0||1|FM15-METAR|223|ICAO-KGXA|-1.0||1|FM15-METAR|223|ICAO-KGXA|||||||1022.6||1|FM15-METAR|223|ICAO-KGXA|170|N-Normal|1|FM15-METAR|223|ICAO-KGXA|1.5|N-Normal|1|FM15-METAR|223|ICAO-KGXA|||||||||||||87|Derived||FM15-METAR|223|ICAO-KGXA|||||||||||||||||||||||||||||||||||||||||||||||||||||||||||||||||||||||||1020.3||1|FM15-METAR|223|ICAO-KGXA|-1.5|7-Decr-(st|1|FM15-METAR|223|ICAO-KGXA|||||||||||||||||||||||||||||||||||||MET095METAR KGXA 231155Z AUTO 17003KT 10SM 01/M01 A3013 RMK AO2 SLP226 T00071006 10132 20029 57015 $;||F||223|ICAO-KGXA
USI0000KGXA|GRAY BUTTE FLD|2011|11|23|13|00|34.5639|-117.6750|920.5|0.0||1|FM15-METAR|223|ICAO-KGXA|-1.0||1|FM15-METAR|223|ICAO-KGXA|||||||1023.1||1|FM15-METAR|223|ICAO-KGXA|170|N-Normal|1|FM15-METAR|223|ICAO-KGXA|1.5|N-Normal|1|FM15-METAR|223|ICAO-KGXA|||||||||||||93|Derived||FM15-METAR|223|ICAO-KGXA|||||||||||||||||||||||||||||||||||||||||||||||||||||||||||||||||||||||||1020.3||1|FM15-METAR|223|ICAO-KGXA|||||||||||||||||||||||||||||||||||||||||||MET077METAR KGXA 231255Z AUTO 17003KT 10SM 00/M01 A3013 RMK AO2 SLP231 T00041009 $;||F||223|ICAO-KGXA
USI0000KGXA|GRAY BUTTE FLD|2011|11|23|14|00|34.5639|-117.6750|920.5|1.0||1|FM15-METAR|223|ICAO-KGXA|-1.0||1|FM15-METAR|223|ICAO-KGXA|||||||1023.2||1|FM15-METAR|223|ICAO-KGXA|170|N-Normal|1|FM15-METAR|223|ICAO-KGXA|2.1|N-Normal|1|FM15-METAR|223|ICAO-KGXA|||||||||||||87|Derived||FM15-METAR|223|ICAO-KGXA|||||||||||||||||||||||||||||||||||||||||||||||||||||||||||||||||||||||||1019.6||1|FM15-METAR|223|ICAO-KGXA|||||||||||||||||||||||||||||||||||||||||||MET079METAR KGXA 231355Z AUTO 17004KT 10SM CLR 01/M01 A3011 RMK AO2 SLP232 T00071008;||F||223|ICAO-KGXA
USI0000KGXA|GRAY BUTTE FLD|2011|11|23|15|00|34.5639|-117.6750|920.5|1.0||1|FM15-METAR|223|ICAO-KGXA|0.0||1|FM15-METAR|223|ICAO-KGXA|||||||1023.7||1|FM15-METAR|223|ICAO-KGXA|180|N-Normal|1|FM15-METAR|223|ICAO-KGXA|2.1|N-Normal|1|FM15-METAR|223|ICAO-KGXA|||||||||||||93|Derived||FM15-METAR|223|ICAO-KGXA|||||||||||||||||||||||||||||||||||||||||||||||||||||||||||||||||||||||||1019.6||1|FM15-METAR|223|ICAO-KGXA|-0.4|5-Decr,-th|1|FM15-METAR|223|ICAO-KGXA|||||||||||||||||||||||||||||||||||||MET084METAR KGXA 231455Z AUTO 18004KT 10SM CLR 01/00 A3011 RMK AO2 SLP237 T00121003 55004;||F||223|ICAO-KGXA
USI0000KGXA|GRAY BUTTE FLD|2011|11|23|16|00|34.5639|-117.6750|920.5|5.0||1|FM15-METAR|223|ICAO-KGXA|2.0||1|FM15-METAR|223|ICAO-KGXA|||||||1023.2||1|FM15-METAR|223|ICAO-KGXA|160|N-Normal|1|FM15-METAR|223|ICAO-KGXA|0.5|N-Normal|1|FM15-METAR|223|ICAO-KGXA|||||||||||||81|Derived||FM15-METAR|223|ICAO-KGXA|||||||||||||||||||||||||||||||||||||||||||||||||||||||||||||||||||||||||1020.0||1|FM15-METAR|223|ICAO-KGXA|||||||||||||||||||||||||||||||||||||||||||MET078METAR KGXA 231555Z AUTO 16001KT 10SM CLR 05/02 A3012 RMK AO2 SLP232 T00480018;||F||223|ICAO-KGXA
USI0000KGXA|GRAY BUTTE FLD|2011|11|23|18|00|34.5639|-117.6750|920.5|11.0||1|FM15-METAR|223|ICAO-KGXA|3.0||1|FM15-METAR|223|ICAO-KGXA|||||||1021.9||1|FM15-METAR|223|ICAO-KGXA|350|N-Normal|1|FM15-METAR|223|ICAO-KGXA|0.5|N-Normal|1|FM15-METAR|223|ICAO-KGXA|||||||||||||58|Derived||FM15-METAR|223|ICAO-KGXA|||||||||||||||||||||||||||||||||||||||||||||||||||||||||||||||||||||||||1019.6||1|FM15-METAR|223|ICAO-KGXA|-0.2|8-Steady-o|1|FM15-METAR|223|ICAO-KGXA|||||||||||||||||||||||||||||||||||||MET106METAR KGXA 231755Z AUTO 35001KT 10SM FEW170 11/03 A3011 RMK AO2 SLP219 T01110026 10029 20007 58002 TSNO $;||F||223|ICAO-KGXA
USI0000KGXA|GRAY BUTTE FLD|2011|11|23|19|00|34.5639|-117.6750|920.5|12.0||1|FM15-METAR|223|ICAO-KGXA|3.0||1|FM15-METAR|223|ICAO-KGXA|||||||1021.0||1|FM15-METAR|223|ICAO-KGXA|350|N-Normal|1|FM15-METAR|223|ICAO-KGXA|0.5|N-Normal|1|FM15-METAR|223|ICAO-KGXA|||||||||||||54|Derived||FM15-METAR|223|ICAO-KGXA|||||||||||||||||||||||||||||||||||||||||||||||||||||||||||||||||||||||||1018.6||1|FM15-METAR|223|ICAO-KGXA|||||||||||||||||||||||||||||||||||||||||||MET078METAR KGXA 231855Z AUTO 35001KT 10SM CLR 12/03 A3008 RMK AO2 SLP210 T01160028;||F||223|ICAO-KGXA
USI0000KGXA|GRAY BUTTE FLD|2011|11|23|20|00|34.5639|-117.6750|920.5|12.0||1|FM15-METAR|223|ICAO-KGXA|2.0||1|FM15-METAR|223|ICAO-KGXA|||||||1019.6||1|FM15-METAR|223|ICAO-KGXA|320|N-Normal|1|FM15-METAR|223|ICAO-KGXA|1.5|N-Normal|1|FM15-METAR|223|ICAO-KGXA|||||||||||||51|Derived||FM15-METAR|223|ICAO-KGXA|||||||||||||||||||||||||||||||||||||||||||||||||||||||||||||||||||||||||1017.6||1|FM15-METAR|223|ICAO-KGXA|||||||||||||||||||||||||||||||||||||||||||MET085METAR KGXA 231955Z AUTO 32003KT 10SM CLR 12/02 A3005 RMK AO2 SLP196 T01230023 TSNO $;||F||223|ICAO-KGXA
USI0000KGXA|GRAY BUTTE FLD|2011|11|23|21|00|34.5639|-117.6750|920.5|13.0||1|FM15-METAR|223|ICAO-KGXA|2.0||1|FM15-METAR|223|ICAO-KGXA|||||||1018.8||1|FM15-METAR|223|ICAO-KGXA|999|V-Variable|9|FM15-METAR|223|ICAO-KGXA|1.5|V-Variable|1|FM15-METAR|223|ICAO-KGXA|||||||||||||47|Derived||FM15-METAR|223|ICAO-KGXA|||||||||||||||||||||||||||||||||||||||||||||||||||||||||||||||||||||||||1016.6||1|FM15-METAR|223|ICAO-KGXA|-2.7|7-Decr-(st|1|FM15-METAR|223|ICAO-KGXA|||||||||||||||||||||||||||||||||||||MET094METAR KGXA 232055Z AUTO VRB03KT 10SM FEW210 13/02 A3002 RMK AO2 SLP188 T01280020 57027 TSNO $;||F||223|ICAO-KGXA
USI0000KGXA|GRAY BUTTE FLD|2011|11|23|22|00|34.5639|-117.6750|920.5|13.0||1|FM15-METAR|223|ICAO-KGXA|3.0||1|FM15-METAR|223|ICAO-KGXA|||||||1017.9||1|FM15-METAR|223|ICAO-KGXA|300|N-Normal|1|FM15-METAR|223|ICAO-KGXA|2.6|N-Normal|1|FM15-METAR|223|ICAO-KGXA|||||||||||||51|Derived||FM15-METAR|223|ICAO-KGXA|||||||||||||||||||||||||||||||||||||||||||||||||||||||||||||||||||||||||1015.9||1|FM15-METAR|223|ICAO-KGXA|||||||||||||||||||||||||||||||||||||||||||MET085METAR KGXA 232155Z AUTO 30005KT 10SM CLR 13/03 A3000 RMK AO2 SLP179 T01310026 TSNO $;||F||223|ICAO-KGXA
USI0000KGXA|GRAY BUTTE FLD|2011|11|23|23|00|34.5639|-117.6750|920.5|14.0||1|FM15-METAR|223|ICAO-KGXA|2.0||1|FM15-METAR|223|ICAO-KGXA|||||||1016.5||1|FM15-METAR|223|ICAO-KGXA|999|C-Calm|9|FM15-METAR|223|ICAO-KGXA|0.0|C-Calm|1|FM15-METAR|223|ICAO-KGXA|||||||||||||44|Derived||FM15-METAR|223|ICAO-KGXA|||||||||||||||||||||||||||||||||||||||||||||||||||||||||||||||||||||||||1014.6||1|FM15-METAR|223|ICAO-KGXA|||||||||||||||||||||||||||||||||||||||||||MET085METAR KGXA 232255Z AUTO 00000KT 10SM CLR 14/02 A2996 RMK AO2 SLP165 T01410024 TSNO $;||F||223|ICAO-KGXA
USI0000KGXA|GRAY BUTTE FLD|2011|11|24|00|00|34.5639|-117.6750|920.5|13.0||1|FM15-METAR|223|ICAO-KGXA|2.0||1|FM15-METAR|223|ICAO-KGXA|||||||1016.8||1|FM15-METAR|223|ICAO-KGXA|310|N-Normal|1|FM15-METAR|223|ICAO-KGXA|2.1|N-Normal|1|FM15-METAR|223|ICAO-KGXA|||||||||||||47|Derived||FM15-METAR|223|ICAO-KGXA|||||||||||||||||||||||||||||||||||||||||||||||||||||||||||||||||||||||||1014.6||1|FM15-METAR|223|ICAO-KGXA|-1.7|6-Decr,-th|1|FM15-METAR|223|ICAO-KGXA|||||||||||||||||||||||||||||||||||||MET113METAR KGXA 232355Z AUTO 31004KT 10SM CLR 13/02 A2996 RMK AO2 SLP168 T01320023 10113 20003 401470003 56017 TSNO $;||F||223|ICAO-KGXA
USI0000KGXA|GRAY BUTTE FLD|2011|11|24|01|00|34.5639|-117.6750|920.5|11.0||1|FM15-METAR|223|ICAO-KGXA|3.0||1|FM15-METAR|223|ICAO-KGXA|||||||1017.1||1|FM15-METAR|223|ICAO-KGXA|250|N-Normal|1|FM15-METAR|223|ICAO-KGXA|1.0|N-Normal|1|FM15-METAR|223|ICAO-KGXA|||||||||||||58|Derived||FM15-METAR|223|ICAO-KGXA|||||||||||||||||||||||||||||||||||||||||||||||||||||||||||||||||||||||||1014.2||1|FM15-METAR|223|ICAO-KGXA|||||||||||||||||||||||||||||||||||||||||||MET091METAR KGXA 240055Z AUTO 25002KT 10SM 11/03 A2995 RMK AO2 SLP171 T01130031 PWINO PNO TSNO $;||F||223|ICAO-KGXA
USI0000KGXA|GRAY BUTTE FLD|2011|11|29|14|00|34.5639|-117.6750|920.5|5.0||1|FM15-METAR|223|ICAO-KGXA|-3.0||1|FM15-METAR|223|ICAO-KGXA|||||||1027.0||1|FM15-METAR|223|ICAO-KGXA|160|N-Normal|1|FM15-METAR|223|ICAO-KGXA|1.5|N-Normal|1|FM15-METAR|223|ICAO-KGXA|||||||||||||57|Derived||FM15-METAR|223|ICAO-KGXA|||||||||||||||||||||||||||||||||||||||||||||||||||||||||||||||||||||||||1023.7||1|FM15-METAR|223|ICAO-KGXA|||||||||||||||||||||||||||||||||||||||||||MET082METAR KGXA 291355Z AUTO 16003KT 10SM BKN210 05/M03 A3023 RMK AO2 SLP270 T00521035;||F||223|ICAO-KGXA
USI0000KGXA|GRAY BUTTE FLD|2011|11|29|15|00|34.5639|-117.6750|920.5|6.0||1|FM15-METAR|223|ICAO-KGXA|-5.0||1|FM15-METAR|223|ICAO-KGXA|||||||1026.9||1|FM15-METAR|223|ICAO-KGXA|180|N-Normal|1|FM15-METAR|223|ICAO-KGXA|1.5|N-Normal|1|FM15-METAR|223|ICAO-KGXA|||||||||||||46|Derived||FM15-METAR|223|ICAO-KGXA|||||||||||||||||||||||||||||||||||||||||||||||||||||||||||||||||||||||||1024.0||1|FM15-METAR|223|ICAO-KGXA|||||||||||||||||||||||||||||||||||||||||||MET082METAR KGXA 291455Z AUTO 18003KT 10SM BKN210 06/M05 A3024 RMK AO2 SLP269 T00621046;||F||223|ICAO-KGXA
USI0000KGXA|GRAY BUTTE FLD|2011|11|29|16|00|34.5639|-117.6750|920.5|8.0||1|FM15-METAR|223|ICAO-KGXA|-3.0||1|FM15-METAR|223|ICAO-KGXA|||||||1026.3||1|FM15-METAR|223|ICAO-KGXA|170|N-Normal|1|FM15-METAR|223|ICAO-KGXA|1.0|N-Normal|1|FM15-METAR|223|ICAO-KGXA|||||||||||||46|Derived||FM15-METAR|223|ICAO-KGXA|||||||||||||||||||||||||||||||||||||||||||||||||||||||||||||||||||||||||1024.4||1|FM15-METAR|223|ICAO-KGXA|||||||||||||||||||||||||||||||||||||||||||MET082METAR KGXA 291555Z AUTO 17002KT 10SM BKN200 08/M03 A3025 RMK AO2 SLP263 T00831035;||F||223|ICAO-KGXA
USI0000KGXA|GRAY BUTTE FLD|2011|11|29|17|00|34.5639|-117.6750|920.5|11.0||1|FM15-METAR|223|ICAO-KGXA|-3.0||1|FM15-METAR|223|ICAO-KGXA|||||||1025.4||1|FM15-METAR|223|ICAO-KGXA|130|N-Normal|1|FM15-METAR|223|ICAO-KGXA|0.5|N-Normal|1|FM15-METAR|223|ICAO-KGXA|||||||||||||38|Derived||FM15-METAR|223|ICAO-KGXA|||||||||||||||||||||||||||||||||||||||||||||||||||||||||||||||||||||||||1024.4||1|FM15-METAR|223|ICAO-KGXA|||||||||||||||||||||||||||||||||||||||||||MET082METAR KGXA 291655Z AUTO 13001KT 10SM FEW210 11/M03 A3025 RMK AO2 SLP254 T01101031;||F||223|ICAO-KGXA
USI0000KGXA|GRAY BUTTE FLD|2011|11|29|18|00|34.5639|-117.6750|920.5|14.0||1|FM15-METAR|223|ICAO-KGXA|-5.0||1|FM15-METAR|223|ICAO-KGXA|||||||1024.3||1|FM15-METAR|223|ICAO-KGXA|999|V-Variable|9|FM15-METAR|223|ICAO-KGXA|0.5|V-Variable|1|FM15-METAR|223|ICAO-KGXA|||||||||||||27|Derived||FM15-METAR|223|ICAO-KGXA|||||||||||||||||||||||||||||||||||||||||||||||||||||||||||||||||||||||||1024.7||1|FM15-METAR|223|ICAO-KGXA|0.6|2-Incr-(st|1|FM15-METAR|223|ICAO-KGXA|||||||||||||||||||||||||||||||||||||MET085METAR KGXA 291755Z AUTO VRB01KT 10SM CLR 14/M05 A3026 RMK AO2 SLP243 T01421055 52006;||F||223|ICAO-KGXA
USI0000KGXA|GRAY BUTTE FLD|2011|11|29|19|00|34.5639|-117.6750|920.5|17.0||1|FM15-METAR|223|ICAO-KGXA|-7.0||1|FM15-METAR|223|ICAO-KGXA|||||||1022.4||1|FM15-METAR|223|ICAO-KGXA|999|V-Variable|9|FM15-METAR|223|ICAO-KGXA|1.5|V-Variable|1|FM15-METAR|223|ICAO-KGXA|||||||||||||19|Derived||FM15-METAR|223|ICAO-KGXA|||||||||||||||||||||||||||||||||||||||||||||||||||||||||||||||||||||||||1024.0||1|FM15-METAR|223|ICAO-KGXA|||||||||||||||||||||||||||||||||||||||||||MET082METAR KGXA 291855Z AUTO VRB03KT 10SM BKN210 17/M07 A3024 RMK AO2 SLP224 T01731075;||F||223|ICAO-KGXA
USI0000KGXA|GRAY BUTTE FLD|2011|11|29|20|00|34.5639|-117.6750|920.5|20.0||1|FM15-METAR|223|ICAO-KGXA|-8.0||1|FM15-METAR|223|ICAO-KGXA|||||||1020.4||1|FM15-METAR|223|ICAO-KGXA|999|V-Variable|9|FM15-METAR|223|ICAO-KGXA|1.5|V-Variable|1|FM15-METAR|223|ICAO-KGXA|||||||||||||14|Derived||FM15-METAR|223|ICAO-KGXA|||||||||||||||||||||||||||||||||||||||||||||||||||||||||||||||||||||||||1023.0||1|FM15-METAR|223|ICAO-KGXA|||||||||||||||||||||||||||||||||||||||||||MET089METAR KGXA 291955Z AUTO VRB03KT 10SM FEW220 20/M08 A3021 RMK AO2 SLP204 T02011084 TSNO $;||F||223|ICAO-KGXA
USI0000KGXA|GRAY BUTTE FLD|2011|11|29|21|00|34.5639|-117.6750|920.5|20.0||1|FM15-METAR|223|ICAO-KGXA|-9.0||1|FM15-METAR|223|ICAO-KGXA|||||||1019.4||1|FM15-METAR|223|ICAO-KGXA|030|N-Normal|1|FM15-METAR|223|ICAO-KGXA|3.1|N-Normal|1|FM15-METAR|223|ICAO-KGXA|||||||||||||13|Derived||FM15-METAR|223|ICAO-KGXA|||||||||||||||||||||||||||||||||||||||||||||||||||||||||||||||||||||||||1022.0||1|FM15-METAR|223|ICAO-KGXA|-2.3|7-Decr-(st|1|FM15-METAR|223|ICAO-KGXA|||||||||||||||||||||||||||||||||||||MET095METAR KGXA 292055Z AUTO 03006KT 10SM FEW210 20/M09 A3018 RMK AO2 SLP194 T02021094 57023 TSNO $;||F||223|ICAO-KGXA
USI0000KGXA|GRAY BUTTE FLD|2011|11|29|22|00|34.5639|-117.6750|920.5|20.0||1|FM15-METAR|223|ICAO-KGXA|-10.0||1|FM15-METAR|223|ICAO-KGXA|||||||1018.9||1|FM15-METAR|223|ICAO-KGXA|020|N-Normal|1|FM15-METAR|223|ICAO-KGXA|1.5|N-Normal|1|FM15-METAR|223|ICAO-KGXA|||||||||||||12|Derived||FM15-METAR|223|ICAO-KGXA|||||||||||||||||||||||||||||||||||||||||||||||||||||||||||||||||||||||||1021.7||1|FM15-METAR|223|ICAO-KGXA|||||||||||||||||||||||||||||||||||||||||||MET089METAR KGXA 292155Z AUTO 02003KT 10SM FEW230 20/M10 A3017 RMK AO2 SLP189 T02001097 TSNO $;||F||223|ICAO-KGXA
USI0000KGXA|GRAY BUTTE FLD|2011|11|29|23|00|34.5639|-117.6750|920.5|19.0||1|FM15-METAR|223|ICAO-KGXA|-6.0||1|FM15-METAR|223|ICAO-KGXA|||||||1019.1||1|FM15-METAR|223|ICAO-KGXA|310|N-Normal|1|FM15-METAR|223|ICAO-KGXA|2.1|N-Normal|1|FM15-METAR|223|ICAO-KGXA|||||||||||||18|Derived||FM15-METAR|223|ICAO-KGXA|||||||||||||||||||||||||||||||||||||||||||||||||||||||||||||||||||||||||1021.3||1|FM15-METAR|223|ICAO-KGXA|||||||||||||||||||||||||||||||||||||||||||MET089METAR KGXA 292255Z AUTO 31004KT 10SM BKN200 19/M06 A3016 RMK AO2 SLP191 T01881064 TSNO $;||F||223|ICAO-KGXA
USI0000KGXA|GRAY BUTTE FLD|2011|11|30|00|00|34.5639|-117.6750|920.5|17.0||1|FM15-METAR|223|ICAO-KGXA|-5.0||1|FM15-METAR|223|ICAO-KGXA|||||||1019.5||1|FM15-METAR|223|ICAO-KGXA|300|N-Normal|1|FM15-METAR|223|ICAO-KGXA|1.5|N-Normal|1|FM15-METAR|223|ICAO-KGXA|||||||||||||22|Derived||FM15-METAR|223|ICAO-KGXA|||||||||||||||||||||||||||||||||||||||||||||||||||||||||||||||||||||||||1021.3||1|FM15-METAR|223|ICAO-KGXA|-0.9|7-Decr-(st|1|FM15-METAR|223|ICAO-KGXA|||||||||||||||||||||||||||||||||||||MET110METAR KGXA 292355Z AUTO 30003KT 10SM FEW200 17/M05 A3016 RMK AO2 SLP195 T01731053 10145 20051 402070051 57009;||F||223|ICAO-KGXA
USI0000KGXA|GRAY BUTTE FLD|2011|11|30|01|00|34.5639|-117.6750|920.5|14.0||1|FM15-METAR|223|ICAO-KGXA|-4.0||1|FM15-METAR|223|ICAO-KGXA|||||||1020.8||1|FM15-METAR|223|ICAO-KGXA|230|N-Normal|1|FM15-METAR|223|ICAO-KGXA|1.5|N-Normal|1|FM15-METAR|223|ICAO-KGXA|||||||||||||29|Derived||FM15-METAR|223|ICAO-KGXA|||||||||||||||||||||||||||||||||||||||||||||||||||||||||||||||||||||||||1021.0||1|FM15-METAR|223|ICAO-KGXA|||||||||||||||||||||||||||||||||||||||||||MET082METAR KGXA 300055Z AUTO 23003KT 10SM BKN190 14/M04 A3015 RMK AO2 SLP208 T01361038;||F||223|ICAO-KGXA
USI0000KGXA|GRAY BUTTE FLD|2011|11|30|02|00|34.5639|-117.6750|920.5|11.0||1|FM15-METAR|223|ICAO-KGXA|-4.0||1|FM15-METAR|223|ICAO-KGXA|||||||1023.3||1|FM15-METAR|223|ICAO-KGXA|190|N-Normal|1|FM15-METAR|223|ICAO-KGXA|2.1|N-Normal|1|FM15-METAR|223|ICAO-KGXA|||||||||||||35|Derived||FM15-METAR|223|ICAO-KGXA|||||||||||||||||||||||||||||||||||||||||||||||||||||||||||||||||||||||||1021.3||1|FM15-METAR|223|ICAO-KGXA|||||||||||||||||||||||||||||||||||||||||||MET081METAR KGXA 300155Z AUTO 19004KT 10SM CLR 11/M04 A3016 RMK AO2 SLP233 T01051037 $;||F||223|ICAO-KGXA
USI0000KGXA|GRAY BUTTE FLD|2011|11|30|03|00|34.5639|-117.6750|920.5|8.0||1|FM15-METAR|223|ICAO-KGXA|-3.0||1|FM15-METAR|223|ICAO-KGXA|||||||1023.9||1|FM15-METAR|223|ICAO-KGXA|170|N-Normal|1|FM15-METAR|223|ICAO-KGXA|2.1|N-Normal|1|FM15-METAR|223|ICAO-KGXA|||||||||||||46|Derived||FM15-METAR|223|ICAO-KGXA|||||||||||||||||||||||||||||||||||||||||||||||||||||||||||||||||||||||||1021.7||1|FM15-METAR|223|ICAO-KGXA|0.3|2-Incr-(st|1|FM15-METAR|223|ICAO-KGXA|||||||||||||||||||||||||||||||||||||MET087METAR KGXA 300255Z AUTO 17004KT 10SM CLR 08/M03 A3017 RMK AO2 SLP239 T00821032 52003 $;||F||223|ICAO-KGXA
USI0000KGXA|GRAY BUTTE FLD|2011|11|30|04|00|34.5639|-117.6750|920.5|7.0||1|FM15-METAR|223|ICAO-KGXA|-5.0||1|FM15-METAR|223|ICAO-KGXA|||||||1023.4||1|FM15-METAR|223|ICAO-KGXA|170|N-Normal|1|FM15-METAR|223|ICAO-KGXA|2.6|N-Normal|1|FM15-METAR|223|ICAO-KGXA|||||||||||||42|Derived||FM15-METAR|223|ICAO-KGXA|||||||||||||||||||||||||||||||||||||||||||||||||||||||||||||||||||||||||1021.3||1|FM15-METAR|223|ICAO-KGXA|||||||||||||||||||||||||||||||||||||||||||MET081METAR KGXA 300355Z AUTO 17005KT 10SM CLR 07/M05 A3016 RMK AO2 SLP234 T00741047 $;||F||223|ICAO-KGXA
USI0000KGXA|GRAY BUTTE FLD|2011|11|30|05|00|34.5639|-117.6750|920.5|6.0||1|FM15-METAR|223|ICAO-KGXA|-5.0||1|FM15-METAR|223|ICAO-KGXA|||||||1023.1||1|FM15-METAR|223|ICAO-KGXA|170|N-Normal|1|FM15-METAR|223|ICAO-KGXA|2.1|N-Normal|1|FM15-METAR|223|ICAO-KGXA|||||||||||||46|Derived||FM15-METAR|223|ICAO-KGXA|||||||||||||||||||||||||||||||||||||||||||||||||||||||||||||||||||||||||1021.3||1|FM15-METAR|223|ICAO-KGXA|||||||||||||||||||||||||||||||||||||||||||MET081METAR KGXA 300455Z AUTO 17004KT 10SM CLR 06/M05 A3016 RMK AO2 SLP231 T00611051 $;||F||223|ICAO-KGXA
USI0000KGXA|GRAY BUTTE FLD|2011|11|30|06|00|34.5639|-117.6750|920.5|6.0||1|FM15-METAR|223|ICAO-KGXA|-5.0||1|FM15-METAR|223|ICAO-KGXA|||||||1022.6||1|FM15-METAR|223|ICAO-KGXA|180|N-Normal|1|FM15-METAR|223|ICAO-KGXA|1.5|N-Normal|1|FM15-METAR|223|ICAO-KGXA|||||||||||||46|Derived||FM15-METAR|223|ICAO-KGXA|||||||||||||||||||||||||||||||||||||||||||||||||||||||||||||||||||||||||1021.3||1|FM15-METAR|223|ICAO-KGXA|-0.2|7-Decr-(st|1|FM15-METAR|223|ICAO-KGXA|||||||||||||||||||||||||||||||||||||MET099METAR KGXA 300555Z AUTO 18003KT 10SM CLR 06/M05 A3016 RMK AO2 SLP226 T00561053 10207 20142 57002 $;||F||223|ICAO-KGXA
USI0000KGXA|GRAY BUTTE FLD|2011|11|30|07|00|34.5639|-117.6750|920.5|6.0||1|FM15-METAR|223|ICAO-KGXA|-5.0||1|FM15-METAR|223|ICAO-KGXA|||||||1021.5||1|FM15-METAR|223|ICAO-KGXA|170|N-Normal|1|FM15-METAR|223|ICAO-KGXA|2.1|N-Normal|1|FM15-METAR|223|ICAO-KGXA|||||||||||||46|Derived||FM15-METAR|223|ICAO-KGXA|||||||||||||||||||||||||||||||||||||||||||||||||||||||||||||||||||||||||1021.0||1|FM15-METAR|223|ICAO-KGXA|||||||||||||||||||||||||||||||||||||||||||MET081METAR KGXA 300655Z AUTO 17004KT 10SM CLR 06/M05 A3015 RMK AO2 SLP215 T00601052 $;||F||223|ICAO-KGXA
USI0000KGXA|GRAY BUTTE FLD|2011|11|30|08|00|34.5639|-117.6750|920.5|5.0||1|FM15-METAR|223|ICAO-KGXA|-5.0||1|FM15-METAR|223|ICAO-KGXA|||||||1020.6||1|FM15-METAR|223|ICAO-KGXA|160|N-Normal|1|FM15-METAR|223|ICAO-KGXA|2.1|N-Normal|1|FM15-METAR|223|ICAO-KGXA|||||||||||||49|Derived||FM15-METAR|223|ICAO-KGXA|||||||||||||||||||||||||||||||||||||||||||||||||||||||||||||||||||||||||1020.3||1|FM15-METAR|223|ICAO-KGXA|||||||||||||||||||||||||||||||||||||||||||MET081METAR KGXA 300755Z AUTO 16004KT 10SM CLR 05/M05 A3013 RMK AO2 SLP206 T00521049 $;||F||223|ICAO-KGXA
USI0000KGXA|GRAY BUTTE FLD|2011|11|30|09|00|34.5639|-117.6750|920.5|5.0||1|FM15-METAR|223|ICAO-KGXA|-5.0||1|FM15-METAR|223|ICAO-KGXA|||||||1019.8||1|FM15-METAR|223|ICAO-KGXA|160|N-Normal|1|FM15-METAR|223|ICAO-KGXA|2.1|N-Normal|1|FM15-METAR|223|ICAO-KGXA|||||||||||||49|Derived||FM15-METAR|223|ICAO-KGXA|||||||||||||||||||||||||||||||||||||||||||||||||||||||||||||||||||||||||1019.6||1|FM15-METAR|223|ICAO-KGXA|-1.6|8-Steady-o|1|FM15-METAR|223|ICAO-KGXA|||||||||||||||||||||||||||||||||||||MET087METAR KGXA 300855Z AUTO 16004KT 10SM CLR 05/M05 A3011 RMK AO2 SLP198 T00511049 58016 $;||F||223|ICAO-KGXA
USI0000KGXA|GRAY BUTTE FLD|2011|11|30|10|00|34.5639|-117.6750|920.5|5.0||1|FM15-METAR|223|ICAO-KGXA|-5.0||1|FM15-METAR|223|ICAO-KGXA|||||||1019.7||1|FM15-METAR|223|ICAO-KGXA|170|N-Normal|1|FM15-METAR|223|ICAO-KGXA|2.6|N-Normal|1|FM15-METAR|223|ICAO-KGXA|||||||||||||49|Derived||FM15-METAR|223|ICAO-KGXA|||||||||||||||||||||||||||||||||||||||||||||||||||||||||||||||||||||||||1019.3||1|FM15-METAR|223|ICAO-KGXA|||||||||||||||||||||||||||||||||||||||||||MET081METAR KGXA 300955Z AUTO 17005KT 10SM CLR 05/M05 A3010 RMK AO2 SLP197 T00491047 $;||F||223|ICAO-KGXA
USI0000KGXA|GRAY BUTTE FLD|2011|11|30|11|00|34.5639|-117.6750|920.5|6.0||1|FM15-METAR|223|ICAO-KGXA|-5.0||1|FM15-METAR|223|ICAO-KGXA|||||||1018.5||1|FM15-METAR|223|ICAO-KGXA|170|N-Normal|1|FM15-METAR|223|ICAO-KGXA|3.1|N-Normal|1|FM15-METAR|223|ICAO-KGXA|||||||||||||46|Derived||FM15-METAR|223|ICAO-KGXA|||||||||||||||||||||||||||||||||||||||||||||||||||||||||||||||||||||||||1018.3||1|FM15-METAR|223|ICAO-KGXA|||||||||||||||||||||||||||||||||||||||||||MET077METAR KGXA 301055Z AUTO 17006KT 10SM 06/M05 A3007 RMK AO2 SLP185 T00571054 $;||F||223|ICAO-KGXA
USI0000KGXA|GRAY BUTTE FLD|2011|11|30|12|00|34.5639|-117.6750|920.5|6.0||1|FM15-METAR|223|ICAO-KGXA|-6.0||1|FM15-METAR|223|ICAO-KGXA|||||||1017.9||1|FM15-METAR|223|ICAO-KGXA|170|N-Normal|1|FM15-METAR|223|ICAO-KGXA|2.6|N-Normal|1|FM15-METAR|223|ICAO-KGXA|||||||||||||42|Derived||FM15-METAR|223|ICAO-KGXA|||||||||||||||||||||||||||||||||||||||||||||||||||||||||||||||||||||||||1017.6||1|FM15-METAR|223|ICAO-KGXA|-2.0|8-Steady-o|1|FM15-METAR|223|ICAO-KGXA|||||||||||||||||||||||||||||||||||||MET095METAR KGXA 301155Z AUTO 17005KT 10SM 06/M06 A3005 RMK AO2 SLP179 T00641057 10171 20055 58020 $;||F||223|ICAO-KGXA
USI0000KGXA|GRAY BUTTE FLD|2011|11|30|13|00|34.5639|-117.6750|920.5|6.0||1|FM15-METAR|223|ICAO-KGXA|-6.0||1|FM15-METAR|223|ICAO-KGXA|||||||1018.7||1|FM15-METAR|223|ICAO-KGXA|210|N-Normal|1|FM15-METAR|223|ICAO-KGXA|2.6|N-Normal|1|FM15-METAR|223|ICAO-KGXA|||||||||||||42|Derived||FM15-METAR|223|ICAO-KGXA|||||||||||||||||||||||||||||||||||||||||||||||||||||||||||||||||||||||||1017.6||1|FM15-METAR|223|ICAO-KGXA|||||||||||||||||||||||||||||||||||||||||||MET077METAR KGXA 301255Z AUTO 21005KT 10SM 06/M06 A3005 RMK AO2 SLP187 T00591059 $;||F||223|ICAO-KGXA
USI0000KGXA|GRAY BUTTE FLD|2011|11|30|14|00|34.5639|-117.6750|920.5|5.0||1|FM15-METAR|223|ICAO-KGXA|-6.0||1|FM15-METAR|223|ICAO-KGXA|||||||1019.1||1|FM15-METAR|223|ICAO-KGXA|180|N-Normal|1|FM15-METAR|223|ICAO-KGXA|2.6|N-Normal|1|FM15-METAR|223|ICAO-KGXA|||||||||||||45|Derived||FM15-METAR|223|ICAO-KGXA|||||||||||||||||||||||||||||||||||||||||||||||||||||||||||||||||||||||||1017.3||1|FM15-METAR|223|ICAO-KGXA|||||||||||||||||||||||||||||||||||||||||||MET091METAR KGXA 301355Z AUTO 18005KT 10SM CLR 05/M06 A3004 RMK AO2 SLP191 T00531059 PWINO PNO $;||F||223|ICAO-KGXA
USI0000KGXA|GRAY BUTTE FLD|2011|11|30|15|00|34.5639|-117.6750|920.5|||||||||||||||||||||||||||||||||||||||||||||||||||||||||||||||||||||||||||||||||||||||||||||||||||||||||||||||||||||||||||||||||||||||||||||||||||||||||||||||||||||||||||||||MET060METAR KGXA 301455Z AUTO 10SM RMK AO2 SLPNO PWINO PNO TSNO $;||F||223|ICAO-KGXA
USI0000KGXA|GRAY BUTTE FLD|2011|11|30|17|00|34.5639|-117.6750|920.5|18.0||1|FM15-METAR|223|ICAO-KGXA|-7.0||1|FM15-METAR|223|ICAO-KGXA|||||||1016.0||1|FM15-METAR|223|ICAO-KGXA|270|N-Normal|1|FM15-METAR|223|ICAO-KGXA|2.6|N-Normal|1|FM15-METAR|223|ICAO-KGXA|||||||||||||18|Derived||FM15-METAR|223|ICAO-KGXA|||||||||||||||||||||||||||||||||||||||||||||||||||||||||||||||||||||||||1015.6||1|FM15-METAR|223|ICAO-KGXA|||||||||||||||||||||||||||||||||||||||||||MET089METAR KGXA 301655Z AUTO 27005KT 10SM FEW210 18/M07 A2999 RMK AO2 SLP160 T01761067 TSNO $;||F||223|ICAO-KGXA
USI0000KGXA|GRAY BUTTE FLD|2011|11|30|18|00|34.5639|-117.6750|920.5|21.0||1|FM15-METAR|223|ICAO-KGXA|-8.0||1|FM15-METAR|223|ICAO-KGXA|||||||1014.5||1|FM15-METAR|223|ICAO-KGXA|280|N-Normal|1|FM15-METAR|223|ICAO-KGXA|3.6|N-Normal|1|FM15-METAR|223|ICAO-KGXA|||||||||||||13|Derived||FM15-METAR|223|ICAO-KGXA|||||||||||||||||||||||||||||||||||||||||||||||||||||||||||||||||||||||||1014.9||1|FM15-METAR|223|ICAO-KGXA|-1.6|8-Steady-o|1|FM15-METAR|223|ICAO-KGXA|||||||||||||||||||||||||||||||||||||MET100METAR KGXA 301755Z AUTO 28007KT 10SM FEW230 21/M08 A2997 RMK AO2 SLP145 T02091079 10070 20045 58016;||F||223|ICAO-KGXA
USI0000KGXA|GRAY BUTTE FLD|2011|11|30|19|00|34.5639|-117.6750|920.5|23.0||1|FM15-METAR|223|ICAO-KGXA|-9.0||1|FM15-METAR|223|ICAO-KGXA|||||||1012.0||1|FM15-METAR|223|ICAO-KGXA|280|N-Normal|1|FM15-METAR|223|ICAO-KGXA|7.2|N-Normal|1|FM15-METAR|223|ICAO-KGXA|10.3||1|FM15-METAR|223|ICAO-KGXA|||||||11|Derived||FM15-METAR|223|ICAO-KGXA|||||||||||||||||||||||||||||||||||||||||||||||||||||||||||||||||||||||||1012.9||1|FM15-METAR|223|ICAO-KGXA|||||||||||||||||||||||||||||||||||||||||||MET089METAR KGXA 301855Z AUTO 28014G20KT 10SM CLR 23/M09 A2991 RMK AO2 SLP120 T02331088 TSNO $;||F||223|ICAO-KGXA
USI0000KGXA|GRAY BUTTE FLD|2011|11|30|20|00|34.5639|-117.6750|920.5|23.0||1|FM15-METAR|223|ICAO-KGXA|-7.0||1|FM15-METAR|223|ICAO-KGXA|||||||1010.8||1|FM15-METAR|223|ICAO-KGXA|310|N-Normal|1|FM15-METAR|223|ICAO-KGXA|9.3|N-Normal|1|FM15-METAR|223|ICAO-KGXA|14.9||1|FM15-METAR|223|ICAO-KGXA|||||||13|Derived||FM15-METAR|223|ICAO-KGXA|||||||||||||||||||||||||||||||||||||||||||||||||||||||||||||||||||||||||1011.5||1|FM15-METAR|223|ICAO-KGXA|||||||||||||||||||||||||||||||||||||||||||MET089METAR KGXA 301955Z AUTO 31018G29KT 10SM CLR 23/M07 A2987 RMK AO2 SLP108 T02331074 TSNO $;||F||223|ICAO-KGXA
USI0000KGXA|GRAY BUTTE FLD|2011|11|30|21|00|34.5639|-117.6750|920.5|19.0||1|FM15-METAR|223|ICAO-KGXA|-7.0||1|FM15-METAR|223|ICAO-KGXA|||||||1010.3||1|FM15-METAR|223|ICAO-KGXA|300|N-Normal|1|FM15-METAR|223|ICAO-KGXA|12.3|N-Normal|1|FM15-METAR|223|ICAO-KGXA|15.9||1|FM15-METAR|223|ICAO-KGXA|||||||17|Derived||FM15-METAR|223|ICAO-KGXA|||||||||||||||||||||||||||||||||||||||||||HZ:04|HZ:04-Haze|1|FM15-METAR|223|ICAO-KGXA|||||||||||||||||||||||||1010.2||1|FM15-METAR|223|ICAO-KGXA|-4.1|6-Decr,-th|1|FM15-METAR|223|ICAO-KGXA|||||||||||||||||||||||||||||||||||||MET118METAR KGXA 302055Z AUTO 30024G31KT 3SM HZ FEW015 19/M07 A2983 RMK AO2 PK WND 31031/2033 SLP103 T01941073 56041 TSNO $;||F||223|ICAO-KGXA
USI0000KGXA|GRAY BUTTE FLD|2011|11|30|22|00|34.5639|-117.6750|920.5|17.0||1|FM15-METAR|223|ICAO-KGXA|-7.0||1|FM15-METAR|223|ICAO-KGXA|||||||1010.1||1|FM15-METAR|223|ICAO-KGXA|300|N-Normal|1|FM15-METAR|223|ICAO-KGXA|14.9|N-Normal|1|FM15-METAR|223|ICAO-KGXA|21.1||1|FM15-METAR|223|ICAO-KGXA|||||||19|Derived||FM15-METAR|223|ICAO-KGXA|||||||||||||||||||||||||||||||||||||||||||FU:05|FU:05-Smok|1|FM15-METAR|223|ICAO-KGXA|||||||||||||||||||||||||1009.5||1|FM15-METAR|223|ICAO-KGXA|||||||||||||||||||||||||||||||||||||||||||MET096METAR KGXA 302155Z AUTO 30029G41KT 1/2SM HZ FEW008 17/M07 A2981 RMK AO2 SLP101 T01681073 TSNO $;||F||223|ICAO-KGXA
USI0000KGXA|GRAY BUTTE FLD|2011|11|30|23|00|34.5639|-117.6750|920.5|15.0||1|FM15-METAR|223|ICAO-KGXA|-6.0||1|FM15-METAR|223|ICAO-KGXA|||||||1009.8||1|FM15-METAR|223|ICAO-KGXA|280|N-Normal|1|FM15-METAR|223|ICAO-KGXA|11.3|N-Normal|1|FM15-METAR|223|ICAO-KGXA|15.4||1|FM15-METAR|223|ICAO-KGXA|||||||23|Derived||FM15-METAR|223|ICAO-KGXA|||||||||||||||||||||||||||||||||||||||||||HZ:04|HZ:04-Haze|1|FM15-METAR|223|ICAO-KGXA|||||||||||||||||||||||||1009.1||1|FM15-METAR|223|ICAO-KGXA|||||||||||||||||||||||||||||||||||||||||||MET106METAR KGXA 302255Z AUTO 28022G30KT 1 1/2SM HZ CLR 15/M06 A2980 RMK AO2 PK WND 31035/2203 SLP098 T01501059;||F||223|ICAO-KGXA
USI0000KGXA|GRAY BUTTE FLD|2011|12|01|00|00|34.5639|-117.6750|920.5|14.0||1|FM15-METAR|223|ICAO-KGXA|-9.0||1|FM15-METAR|223|ICAO-KGXA|||||||1011.3||1|FM15-METAR|223|ICAO-KGXA|310|N-Normal|1|FM15-METAR|223|ICAO-KGXA|13.4|N-Normal|1|FM15-METAR|223|ICAO-KGXA|19.0||1|FM15-METAR|223|ICAO-KGXA|||||||20|Derived||FM15-METAR|223|ICAO-KGXA|||||||||||||||||||||||||||||||||||||||||||HZ:04|HZ:04-Haze|1|FM15-METAR|223|ICAO-KGXA|||||||||||||||||||||||||1010.5||1|FM15-METAR|223|ICAO-KGXA|-0.0|5-Decr,-th|1|FM15-METAR|223|ICAO-KGXA|||||||||||||||||||||||||||||||||||||MET118METAR KGXA 302355Z AUTO 31026G37KT 2 1/2SM HZ CLR 14/M09 A2984 RMK AO2 SLP113 T01351093 10211 20053 402390045 55000 $;||F||223|ICAO-KGXA
USI0000KGXA|GRAY BUTTE FLD|2011|12|01|01|00|34.5639|-117.6750|920.5|7.0||1|FM15-METAR|223|ICAO-KGXA|0.0||1|FM15-METAR|223|ICAO-KGXA|||||||1012.8||1|FM15-METAR|223|ICAO-KGXA|260|N-Normal|1|FM15-METAR|223|ICAO-KGXA|9.8|N-Normal|1|FM15-METAR|223|ICAO-KGXA|15.4||1|FM15-METAR|223|ICAO-KGXA|||||||61|Derived||FM15-METAR|223|ICAO-KGXA|||||||||||||||||||||||||||||||||||||||||||||||||||||||||||||||||||||||||1010.5||1|FM15-METAR|223|ICAO-KGXA|||||||||||||||||||||||||||||||||||||||||||MET100METAR KGXA 010055Z AUTO 26019G30KT 5SM CLR 07/00 A2984 RMK AO2 PK WND 27033/0013 SLP128 T00691003 $;||F||223|ICAO-KGXA
USI0000KGXA|GRAY BUTTE FLD|2011|12|01|02|00|34.5639|-117.6750|920.5|6.0||1|FM15-METAR|223|ICAO-KGXA|-1.0||1|FM15-METAR|223|ICAO-KGXA|||||||1014.0||1|FM15-METAR|223|ICAO-KGXA|270|N-Normal|1|FM15-METAR|223|ICAO-KGXA|6.7|N-Normal|1|FM15-METAR|223|ICAO-KGXA|12.3||1|FM15-METAR|223|ICAO-KGXA|||||||61|Derived||FM15-METAR|223|ICAO-KGXA|||||||||||||||||||||||||||||||||||||||||||||||||||||||||||||||||||||||||1011.2||1|FM15-METAR|223|ICAO-KGXA|||||||||||||||||||||||||||||||||||||||||||MET084METAR KGXA 010155Z AUTO 27013G24KT 10SM CLR 06/M01 A2986 RMK AO2 SLP140 T00561007 $;||F||223|ICAO-KGXA
USI0000KGXA|GRAY BUTTE FLD|2011|12|01|03|00|34.5639|-117.6750|920.5|5.0||1|FM15-METAR|223|ICAO-KGXA|-1.0||1|FM15-METAR|223|ICAO-KGXA|||||||1014.1||1|FM15-METAR|223|ICAO-KGXA|240|N-Normal|1|FM15-METAR|223|ICAO-KGXA|7.7|N-Normal|1|FM15-METAR|223|ICAO-KGXA|10.8||1|FM15-METAR|223|ICAO-KGXA|||||||66|Derived||FM15-METAR|223|ICAO-KGXA|||||||||||||||||||||||||||||||||||||||||||||||||||||||||||||||||||||||||1011.5||1|FM15-METAR|223|ICAO-KGXA|0.8|3-Decr-or-|1|FM15-METAR|223|ICAO-KGXA|||||||||||||||||||||||||||||||||||||MET093METAR KGXA 010255Z AUTO 24015G21KT 10SM SCT050 05/M01 A2987 RMK AO2 SLP141 T00461006 53008 $;||F||223|ICAO-KGXA
USI0000KGXA|GRAY BUTTE FLD|2011|12|01|04|00|34.5639|-117.6750|920.5|5.0||1|FM15-METAR|223|ICAO-KGXA|-1.0||1|FM15-METAR|223|ICAO-KGXA|||||||1013.3||1|FM15-METAR|223|ICAO-KGXA|250|N-Normal|1|FM15-METAR|223|ICAO-KGXA|5.7|N-Normal|1|FM15-METAR|223|ICAO-KGXA|8.7||1|FM15-METAR|223|ICAO-KGXA|||||||66|Derived||FM15-METAR|223|ICAO-KGXA|||||||||||||||||||||||||||||||||||||||||||||||||||||||||||||||||||||||||1011.5||1|FM15-METAR|223|ICAO-KGXA|||||||||||||||||||||||||||||||||||||||||||MET087METAR KGXA 010355Z AUTO 25011G17KT 10SM BKN050 05/M01 A2987 RMK AO2 SLP133 T00521015 $;||F||223|ICAO-KGXA
USI0000KGXA|GRAY BUTTE FLD|2011|12|01|05|00|34.5639|-117.6750|920.5|6.0||1|FM15-METAR|223|ICAO-KGXA|-2.0||1|FM15-METAR|223|ICAO-KGXA|||||||1012.2||1|FM15-METAR|223|ICAO-KGXA|250|N-Normal|1|FM15-METAR|223|ICAO-KGXA|3.1|N-Normal|1|FM15-METAR|223|ICAO-KGXA|8.2||1|FM15-METAR|223|ICAO-KGXA|||||||57|Derived||FM15-METAR|223|ICAO-KGXA|||||||||||||||||||||||||||||||||||||||||||||||||||||||||||||||||||||||||1011.9||1|FM15-METAR|223|ICAO-KGXA|||||||||||||||||||||||||||||||||||||||||||MET087METAR KGXA 010455Z AUTO 25006G16KT 10SM OVC100 06/M02 A2988 RMK AO2 SLP122 T00591025 $;||F||223|ICAO-KGXA
USI0000KGXA|GRAY BUTTE FLD|2011|12|01|06|00|34.5639|-117.6750|920.5|7.0||1|FM15-METAR|223|ICAO-KGXA|-6.0||1|FM15-METAR|223|ICAO-KGXA|||||||1011.5||1|FM15-METAR|223|ICAO-KGXA|999|V-Variable|9|FM15-METAR|223|ICAO-KGXA|2.1|V-Variable|1|FM15-METAR|223|ICAO-KGXA|||||||||||||39|Derived||FM15-METAR|223|ICAO-KGXA|||||||||||||||||||||||||||||||||||||||||||||||||||||||||||||||||||||||||1012.2||1|FM15-METAR|223|ICAO-KGXA|0.7|3-Decr-or-|1|FM15-METAR|223|ICAO-KGXA|||||||||||||||||||||||||||||||||||||MET102METAR KGXA 010555Z AUTO VRB04KT 10SM BKN095 07/M06 A2989 RMK AO2 SLP115 T00661063 10239 20132 53007 $;||F||223|ICAO-KGXA
USI0000KGXA|GRAY BUTTE FLD|2011|12|01|07|00|34.5639|-117.6750|920.5|6.0||1|FM15-METAR|223|ICAO-KGXA|-8.0||1|FM15-METAR|223|ICAO-KGXA|||||||1011.3||1|FM15-METAR|223|ICAO-KGXA|240|N-Normal|1|FM15-METAR|223|ICAO-KGXA|2.1|N-Normal|1|FM15-METAR|223|ICAO-KGXA|||||||||||||36|Derived||FM15-METAR|223|ICAO-KGXA|||||||||||||||||||||||||||||||||||||||||||||||||||||||||||||||||||||||||1012.2||1|FM15-METAR|223|ICAO-KGXA|||||||||||||||||||||||||||||||||||||||||||MET084METAR KGXA 010655Z AUTO 24004KT 10SM BKN090 06/M08 A2989 RMK AO2 SLP113 T00601084 $;||F||223|ICAO-KGXA
USI0000KGXA|GRAY BUTTE FLD|2011|12|01|08|00|34.5639|-117.6750|920.5|7.0||1|FM15-METAR|223|ICAO-KGXA|-11.0||1|FM15-METAR|223|ICAO-KGXA|||||||1010.7||1|FM15-METAR|223|ICAO-KGXA|010|N-Normal|1|FM15-METAR|223|ICAO-KGXA|4.1|N-Normal|1|FM15-METAR|223|ICAO-KGXA|5.7||1|FM15-METAR|223|ICAO-KGXA|||||||27|Derived||FM15-METAR|223|ICAO-KGXA|||||||||||||||||||||||||||||||||||||||||||||||||||||||||||||||||||||||||1011.5||1|FM15-METAR|223|ICAO-KGXA|||||||||||||||||||||||||||||||||||||||||||MET087METAR KGXA 010755Z AUTO 01008G11KT 10SM OVC075 07/M11 A2987 RMK AO2 SLP107 T00731106 $;||F||223|ICAO-KGXA
USI0000KGXA|GRAY BUTTE FLD|2011|12|01|09|00|34.5639|-117.6750|920.5|7.0||1|FM15-METAR|223|ICAO-KGXA|-11.0||1|FM15-METAR|223|ICAO-KGXA|||||||1011.0||1|FM15-METAR|223|ICAO-KGXA|360|N-Normal|1|FM15-METAR|223|ICAO-KGXA|3.6|N-Normal|1|FM15-METAR|223|ICAO-KGXA|||||||||||||27|Derived||FM15-METAR|223|ICAO-KGXA|||||||||||||||||||||||||||||||||||||||||||||||||||||||||||||||||||||||||1011.2||1|FM15-METAR|223|ICAO-KGXA|-0.7|8-Steady-o|1|FM15-METAR|223|ICAO-KGXA|||||||||||||||||||||||||||||||||||||MET090METAR KGXA 010855Z AUTO 36007KT 10SM OVC090 07/M11 A2986 RMK AO2 SLP110 T00671109 58007 $;||F||223|ICAO-KGXA
USI0000KGXA|GRAY BUTTE FLD|2011|12|01|10|00|34.5639|-117.6750|920.5|7.0||1|FM15-METAR|223|ICAO-KGXA|-10.0||1|FM15-METAR|223|ICAO-KGXA|||||||1011.4||1|FM15-METAR|223|ICAO-KGXA|010|N-Normal|1|FM15-METAR|223|ICAO-KGXA|5.1|N-Normal|1|FM15-METAR|223|ICAO-KGXA|8.7||1|FM15-METAR|223|ICAO-KGXA|||||||29|Derived||FM15-METAR|223|ICAO-KGXA|||||||||||||||||||||||||||||||||||||||||||||||||||||||||||||||||||||||||1011.2||1|FM15-METAR|223|ICAO-KGXA|||||||||||||||||||||||||||||||||||||||||||MET080METAR KGXA 010955Z AUTO 01010G17KT 10SM 07/M10 A2986 RMK AO2 SLP114 T00681105 $;||F||223|ICAO-KGXA
USI0000KGXA|GRAY BUTTE FLD|2011|12|01|11|00|34.5639|-117.6750|920.5|7.0||1|FM15-METAR|223|ICAO-KGXA|-10.0||1|FM15-METAR|223|ICAO-KGXA|||||||1011.2||1|FM15-METAR|223|ICAO-KGXA|010|N-Normal|1|FM15-METAR|223|ICAO-KGXA|6.2|N-Normal|1|FM15-METAR|223|ICAO-KGXA|11.3||1|FM15-METAR|223|ICAO-KGXA|||||||29|Derived||FM15-METAR|223|ICAO-KGXA|||||||||||||||||||||||||||||||||||||||||||||||||||||||||||||||||||||||||1010.5||1|FM15-METAR|223|ICAO-KGXA|||||||||||||||||||||||||||||||||||||||||||MET080METAR KGXA 011055Z AUTO 01012G22KT 10SM 07/M10 A2984 RMK AO2 SLP112 T00671100 $;||F||223|ICAO-KGXA
USI0000KGXA|GRAY BUTTE FLD|2011|12|01|12|00|34.5639|-117.6750|920.5|7.0||1|FM15-METAR|223|ICAO-KGXA|-9.0||1|FM15-METAR|223|ICAO-KGXA|||||||1011.2||1|FM15-METAR|223|ICAO-KGXA|030|N-Normal|1|FM15-METAR|223|ICAO-KGXA|7.7|N-Normal|1|FM15-METAR|223|ICAO-KGXA|10.3||1|FM15-METAR|223|ICAO-KGXA|||||||31|Derived||FM15-METAR|223|ICAO-KGXA|||||||||||||||||||||||||||||||||||||||||||||||||||||||||||||||||||||||||1010.2||1|FM15-METAR|223|ICAO-KGXA|-0.9|7-Decr-(st|1|FM15-METAR|223|ICAO-KGXA|||||||||||||||||||||||||||||||||||||MET098METAR KGXA 011155Z AUTO 03015G20KT 10SM 07/M09 A2983 RMK AO2 SLP112 T00661092 10131 20045 57009 $;||F||223|ICAO-KGXA
USI0000KGXA|GRAY BUTTE FLD|2011|12|01|13|00|34.5639|-117.6750|920.5|7.0||1|FM15-METAR|223|ICAO-KGXA|-9.0||1|FM15-METAR|223|ICAO-KGXA|||||||1012.5||1|FM15-METAR|223|ICAO-KGXA|020|N-Normal|1|FM15-METAR|223|ICAO-KGXA|4.6|N-Normal|1|FM15-METAR|223|ICAO-KGXA|||||||||||||31|Derived||FM15-METAR|223|ICAO-KGXA|||||||||||||||||||||||||||||||||||||||||||||||||||||||||||||||||||||||||1010.5||1|FM15-METAR|223|ICAO-KGXA|||||||||||||||||||||||||||||||||||||||||||MET077METAR KGXA 011255Z AUTO 02009KT 10SM 07/M09 A2984 RMK AO2 SLP125 T00681091 $;||F||223|ICAO-KGXA
USI0000KGXA|GRAY BUTTE FLD|2011|12|01|14|00|34.5639|-117.6750|920.5|7.0||1|FM15-METAR|223|ICAO-KGXA|-9.0||1|FM15-METAR|223|ICAO-KGXA|||||||1013.2||1|FM15-METAR|223|ICAO-KGXA|020|N-Normal|1|FM15-METAR|223|ICAO-KGXA|4.6|N-Normal|1|FM15-METAR|223|ICAO-KGXA|||||||||||||31|Derived||FM15-METAR|223|ICAO-KGXA|||||||||||||||||||||||||||||||||||||||||||||||||||||||||||||||||||||||||1010.8||1|FM15-METAR|223|ICAO-KGXA|||||||||||||||||||||||||||||||||||||||||||MET082METAR KGXA 011355Z AUTO 02009KT 10SM OVC065 07/M09 A2985 RMK AO2 SLP132 T00661092;||F||223|ICAO-KGXA
USI0000KGXA|GRAY BUTTE FLD|2011|12|01|15|00|34.5639|-117.6750|920.5|6.0||1|FM15-METAR|223|ICAO-KGXA|-9.0||1|FM15-METAR|223|ICAO-KGXA|||||||1013.7||1|FM15-METAR|223|ICAO-KGXA|360|N-Normal|1|FM15-METAR|223|ICAO-KGXA|1.5|N-Normal|1|FM15-METAR|223|ICAO-KGXA|||||||||||||34|Derived||FM15-METAR|223|ICAO-KGXA|||||||||||||||||||||||||||||||||||||||||||||||||||||||||||||||||||||||||1010.8||1|FM15-METAR|223|ICAO-KGXA|0.5|3-Decr-or-|1|FM15-METAR|223|ICAO-KGXA|||||||||||||||||||||||||||||||||||||MET088METAR KGXA 011455Z AUTO 36003KT 10SM OVC075 06/M09 A2985 RMK AO2 SLP137 T00631094 53005;||F||223|ICAO-KGXA
USI0000KGXA|GRAY BUTTE FLD|2011|12|01|16|00|34.5639|-117.6750|920.5|7.0||1|FM15-METAR|223|ICAO-KGXA|-10.0||1|FM15-METAR|223|ICAO-KGXA|||||||1013.6||1|FM15-METAR|223|ICAO-KGXA|320|N-Normal|1|FM15-METAR|223|ICAO-KGXA|3.1|N-Normal|1|FM15-METAR|223|ICAO-KGXA|||||||||||||29|Derived||FM15-METAR|223|ICAO-KGXA|||||||||||||||||||||||||||||||||||||||||||||||||||||||||||||||||||||||||1011.2||1|FM15-METAR|223|ICAO-KGXA|||||||||||||||||||||||||||||||||||||||||||MET089METAR KGXA 011555Z AUTO 32006KT 10SM BKN075 BKN100 07/M10 A2986 RMK AO2 SLP136 T00711103;||F||223|ICAO-KGXA
USI0000KGXA|GRAY BUTTE FLD|2011|12|01|17|00|34.5639|-117.6750|920.5|8.0||1|FM15-METAR|223|ICAO-KGXA|-12.0||1|FM15-METAR|223|ICAO-KGXA|||||||1013.4||1|FM15-METAR|223|ICAO-KGXA|360|N-Normal|1|FM15-METAR|223|ICAO-KGXA|5.7|N-Normal|1|FM15-METAR|223|ICAO-KGXA|10.3||1|FM15-METAR|223|ICAO-KGXA|||||||23|Derived||FM15-METAR|223|ICAO-KGXA|||||||||||||||||||||||||||||||||||||||||||||||||||||||||||||||||||||||||1011.5||1|FM15-METAR|223|ICAO-KGXA|||||||||||||||||||||||||||||||||||||||||||MET092METAR KGXA 011655Z AUTO 36011G20KT 10SM BKN075 BKN090 08/M12 A2987 RMK AO2 SLP134 T00831118;||F||223|ICAO-KGXA
USI0000KGXA|GRAY BUTTE FLD|2011|12|01|18|00|34.5639|-117.6750|920.5|9.0||1|FM15-METAR|223|ICAO-KGXA|-13.0||1|FM15-METAR|223|ICAO-KGXA|||||||1013.1||1|FM15-METAR|223|ICAO-KGXA|360|N-Normal|1|FM15-METAR|223|ICAO-KGXA|8.2|N-Normal|1|FM15-METAR|223|ICAO-KGXA|12.3||1|FM15-METAR|223|ICAO-KGXA|||||||20|Derived||FM15-METAR|223|ICAO-KGXA|||||||||||||||||||||||||||||||||||||||||||||||||||||||||||||||||||||||||1011.2||1|FM15-METAR|223|ICAO-KGXA|0.3|1-Incr-the|1|FM15-METAR|223|ICAO-KGXA|||||||||||||||||||||||||||||||||||||MET110METAR KGXA 011755Z AUTO 36016G24KT 10SM FEW065 BKN080 09/M13 A2986 RMK AO2 SLP131 T00901127 10075 20057 51003;||F||223|ICAO-KGXA
USI0000KGXA|GRAY BUTTE FLD|2011|12|01|19|00|34.5639|-117.6750|920.5|10.0||1|FM15-METAR|223|ICAO-KGXA|-13.0||1|FM15-METAR|223|ICAO-KGXA|||||||1012.3||1|FM15-METAR|223|ICAO-KGXA|030|N-Normal|1|FM15-METAR|223|ICAO-KGXA|7.7|N-Normal|1|FM15-METAR|223|ICAO-KGXA|11.8||1|FM15-METAR|223|ICAO-KGXA|||||||19|Derived||FM15-METAR|223|ICAO-KGXA|||||||||||||||||||||||||||||||||||||||||||||||||||||||||||||||||||||||||1010.5||1|FM15-METAR|223|ICAO-KGXA|||||||||||||||||||||||||||||||||||||||||||MET085METAR KGXA 011855Z AUTO 03015G23KT 10SM BKN080 10/M13 A2984 RMK AO2 SLP123 T00981127;||F||223|ICAO-KGXA
USI0000KGXA|GRAY BUTTE FLD|2011|12|01|20|00|34.5639|-117.6750|920.5|10.0||1|FM15-METAR|223|ICAO-KGXA|-13.0||1|FM15-METAR|223|ICAO-KGXA|||||||1011.9||1|FM15-METAR|223|ICAO-KGXA|020|N-Normal|1|FM15-METAR|223|ICAO-KGXA|7.7|N-Normal|1|FM15-METAR|223|ICAO-KGXA|11.3||1|FM15-METAR|223|ICAO-KGXA|||||||19|Derived||FM15-METAR|223|ICAO-KGXA|||||||||||||||||||||||||||||||||||||||||||||||||||||||||||||||||||||||||1010.5||1|FM15-METAR|223|ICAO-KGXA|||||||||||||||||||||||||||||||||||||||||||MET085METAR KGXA 011955Z AUTO 02015G22KT 10SM BKN080 10/M13 A2984 RMK AO2 SLP119 T00981126;||F||223|ICAO-KGXA
USI0000KGXA|GRAY BUTTE FLD|2011|12|01|21|00|34.5639|-117.6750|920.5|10.0||1|FM15-METAR|223|ICAO-KGXA|-12.0||1|FM15-METAR|223|ICAO-KGXA|||||||1012.0||1|FM15-METAR|223|ICAO-KGXA|030|N-Normal|1|FM15-METAR|223|ICAO-KGXA|9.3|N-Normal|1|FM15-METAR|223|ICAO-KGXA|13.9||1|FM15-METAR|223|ICAO-KGXA|||||||20|Derived||FM15-METAR|223|ICAO-KGXA|||||||||||||||||||||||||||||||||||||||||||||||||||||||||||||||||||||||||1010.5||1|FM15-METAR|223|ICAO-KGXA|-0.7|5-Decr,-th|1|FM15-METAR|223|ICAO-KGXA|||||||||||||||||||||||||||||||||||||MET098METAR KGXA 012055Z AUTO 03018G27KT 10SM BKN070 BKN085 10/M12 A2984 RMK AO2 SLP120 T00991117 55007;||F||223|ICAO-KGXA
USI0000KGXA|GRAY BUTTE FLD|2011|12|01|22|00|34.5639|-117.6750|920.5|10.0||1|FM15-METAR|223|ICAO-KGXA|-11.0||1|FM15-METAR|223|ICAO-KGXA|||||||1012.6||1|FM15-METAR|223|ICAO-KGXA|020|N-Normal|1|FM15-METAR|223|ICAO-KGXA|8.2|N-Normal|1|FM15-METAR|223|ICAO-KGXA|14.9||1|FM15-METAR|223|ICAO-KGXA|||||||22|Derived||FM15-METAR|223|ICAO-KGXA|||||||||||||||||||||||||||||||||||||||||||||||||||||||||||||||||||||||||1011.2||1|FM15-METAR|223|ICAO-KGXA|||||||||||||||||||||||||||||||||||||||||||MET091METAR KGXA 012155Z AUTO 02016G29KT 7SM FEW060 BKN075 10/M11 A2986 RMK AO2 SLP126 T00991106;||F||223|ICAO-KGXA
USI0000KGXA|GRAY BUTTE FLD|2011|12|01|23|00|34.5639|-117.6750|920.5|9.0||1|FM15-METAR|223|ICAO-KGXA|-10.0||1|FM15-METAR|223|ICAO-KGXA|||||||1013.5||1|FM15-METAR|223|ICAO-KGXA|040|N-Normal|1|FM15-METAR|223|ICAO-KGXA|6.2|N-Normal|1|FM15-METAR|223|ICAO-KGXA|9.8||1|FM15-METAR|223|ICAO-KGXA|||||||25|Derived||FM15-METAR|223|ICAO-KGXA|||||||||||||||||||||||||||||||||||||||||||||||||||||||||||||||||||||||||1011.9||1|FM15-METAR|223|ICAO-KGXA|||||||||||||||||||||||||||||||||||||||||||MET085METAR KGXA 012255Z AUTO 04012G19KT 10SM BKN075 09/M10 A2988 RMK AO2 SLP135 T00931098;||F||223|ICAO-KGXA
USI0000KGXA|GRAY BUTTE FLD|2011|12|02|00|00|34.5639|-117.6750|920.5|10.0||1|FM15-METAR|223|ICAO-KGXA|-9.0||1|FM15-METAR|223|ICAO-KGXA|||||||1014.0||1|FM15-METAR|223|ICAO-KGXA|080|N-Normal|1|FM15-METAR|223|ICAO-KGXA|4.1|N-Normal|1|FM15-METAR|223|ICAO-KGXA|8.2||1|FM15-METAR|223|ICAO-KGXA|||||||25|Derived||FM15-METAR|223|ICAO-KGXA|||||||||||||||||||||||||||||||||||||||||||||||||||||||||||||||||||||||||1012.2||1|FM15-METAR|223|ICAO-KGXA|1.7|2-Incr-(st|1|FM15-METAR|223|ICAO-KGXA|||||||||||||||||||||||||||||||||||||MET123METAR KGXA 012355Z AUTO 08008G16KT 040V100 10SM BKN075 10/M09 A2989 RMK AO2 SLP140 T00951094 10092 20059 401350045 52017 $;||F||223|ICAO-KGXA
USI0000KGXA|GRAY BUTTE FLD|2011|12|02|01|00|34.5639|-117.6750|920.5|9.0||1|FM15-METAR|223|ICAO-KGXA|-9.0||1|FM15-METAR|223|ICAO-KGXA|||||||1014.1||1|FM15-METAR|223|ICAO-KGXA|070|N-Normal|1|FM15-METAR|223|ICAO-KGXA|3.6|N-Normal|1|FM15-METAR|223|ICAO-KGXA|||||||||||||27|Derived||FM15-METAR|223|ICAO-KGXA|||||||||||||||||||||||||||||||||||||||||||||||||||||||||||||||||||||||||1012.2||1|FM15-METAR|223|ICAO-KGXA|||||||||||||||||||||||||||||||||||||||||||MET084METAR KGXA 020055Z AUTO 07007KT 10SM BKN075 09/M09 A2989 RMK AO2 SLP141 T00901093 $;||F||223|ICAO-KGXA
USI0000KGXA|GRAY BUTTE FLD|2011|12|02|02|00|34.5639|-117.6750|920.5|9.0||1|FM15-METAR|223|ICAO-KGXA|-10.0||1|FM15-METAR|223|ICAO-KGXA|||||||1013.8||1|FM15-METAR|223|ICAO-KGXA|030|N-Normal|1|FM15-METAR|223|ICAO-KGXA|6.2|N-Normal|1|FM15-METAR|223|ICAO-KGXA|8.7||1|FM15-METAR|223|ICAO-KGXA|||||||25|Derived||FM15-METAR|223|ICAO-KGXA|||||||||||||||||||||||||||||||||||||||||||||||||||||||||||||||||||||||||1011.9||1|FM15-METAR|223|ICAO-KGXA|||||||||||||||||||||||||||||||||||||||||||MET087METAR KGXA 020155Z AUTO 03012G17KT 10SM BKN075 09/M10 A2988 RMK AO2 SLP138 T00941098 $;||F||223|ICAO-KGXA
USI0000KGXA|GRAY BUTTE FLD|2011|12|02|03|00|34.5639|-117.6750|920.5|9.0||1|FM15-METAR|223|ICAO-KGXA|-9.0||1|FM15-METAR|223|ICAO-KGXA|||||||1014.8||1|FM15-METAR|223|ICAO-KGXA|060|N-Normal|1|FM15-METAR|223|ICAO-KGXA|3.6|N-Normal|1|FM15-METAR|223|ICAO-KGXA|8.7||1|FM15-METAR|223|ICAO-KGXA|||||||27|Derived||FM15-METAR|223|ICAO-KGXA|||||||||||||||||||||||||||||||||||||||||||||||||||||||||||||||||||||||||1012.9||1|FM15-METAR|223|ICAO-KGXA|0.5|3-Decr-or-|1|FM15-METAR|223|ICAO-KGXA|||||||||||||||||||||||||||||||||||||MET093METAR KGXA 020255Z AUTO 06007G17KT 10SM FEW080 09/M09 A2991 RMK AO2 SLP148 T00861086 53005 $;||F||223|ICAO-KGXA
USI0000KGXA|GRAY BUTTE FLD|2011|12|02|04|00|34.5639|-117.6750|920.5|9.0||1|FM15-METAR|223|ICAO-KGXA|-8.0||1|FM15-METAR|223|ICAO-KGXA|||||||1015.1||1|FM15-METAR|223|ICAO-KGXA|050|N-Normal|1|FM15-METAR|223|ICAO-KGXA|5.1|N-Normal|1|FM15-METAR|223|ICAO-KGXA|8.2||1|FM15-METAR|223|ICAO-KGXA|||||||29|Derived||FM15-METAR|223|ICAO-KGXA|||||||||||||||||||||||||||||||||||||||||||||||||||||||||||||||||||||||||1013.2||1|FM15-METAR|223|ICAO-KGXA|||||||||||||||||||||||||||||||||||||||||||MET087METAR KGXA 020355Z AUTO 05010G16KT 10SM BKN075 09/M08 A2992 RMK AO2 SLP151 T00901085 $;||F||223|ICAO-KGXA
USI0000KGXA|GRAY BUTTE FLD|2011|12|02|05|00|34.5639|-117.6750|920.5|8.0||1|FM15-METAR|223|ICAO-KGXA|-9.0||1|FM15-METAR|223|ICAO-KGXA|||||||1015.6||1|FM15-METAR|223|ICAO-KGXA|070|N-Normal|1|FM15-METAR|223|ICAO-KGXA|1.5|N-Normal|1|FM15-METAR|223|ICAO-KGXA|||||||||||||29|Derived||FM15-METAR|223|ICAO-KGXA|||||||||||||||||||||||||||||||||||||||||||||||||||||||||||||||||||||||||1013.9||1|FM15-METAR|223|ICAO-KGXA|||||||||||||||||||||||||||||||||||||||||||MET084METAR KGXA 020455Z AUTO 07003KT 10SM SCT070 08/M09 A2994 RMK AO2 SLP156 T00761088 $;||F||223|ICAO-KGXA
USI0000KGXA|GRAY BUTTE FLD|2011|12|02|06|00|34.5639|-117.6750|920.5|7.0||1|FM15-METAR|223|ICAO-KGXA|-5.0||1|FM15-METAR|223|ICAO-KGXA|||||||1016.5||1|FM15-METAR|223|ICAO-KGXA|120|N-Normal|1|FM15-METAR|223|ICAO-KGXA|3.1|N-Normal|1|FM15-METAR|223|ICAO-KGXA|||||||||||||42|Derived||FM15-METAR|223|ICAO-KGXA|||||||||||||||||||||||||||||||||||||||||||||||||||||||||||||||||||||||||1014.6||1|FM15-METAR|223|ICAO-KGXA|1.5|2-Incr-(st|1|FM15-METAR|223|ICAO-KGXA|||||||||||||||||||||||||||||||||||||MET102METAR KGXA 020555Z AUTO 12006KT 10SM FEW075 07/M05 A2996 RMK AO2 SLP165 T00661047 10105 20090 52015 $;||F||223|ICAO-KGXA
USI0000KGXA|GRAY BUTTE FLD|2011|12|02|07|00|34.5639|-117.6750|920.5|8.0||1|FM15-METAR|223|ICAO-KGXA|-8.0||1|FM15-METAR|223|ICAO-KGXA|||||||1016.4||1|FM15-METAR|223|ICAO-KGXA|070|N-Normal|1|FM15-METAR|223|ICAO-KGXA|4.1|N-Normal|1|FM15-METAR|223|ICAO-KGXA|||||||||||||32|Derived||FM15-METAR|223|ICAO-KGXA|||||||||||||||||||||||||||||||||||||||||||||||||||||||||||||||||||||||||1014.9||1|FM15-METAR|223|ICAO-KGXA|||||||||||||||||||||||||||||||||||||||||||MET084METAR KGXA 020655Z AUTO 07008KT 10SM BKN070 08/M08 A2997 RMK AO2 SLP164 T00831076 $;||F||223|ICAO-KGXA
USI0000KGXA|GRAY BUTTE FLD|2011|12|02|08|00|34.5639|-117.6750|920.5|9.0||1|FM15-METAR|223|ICAO-KGXA|-9.0||1|FM15-METAR|223|ICAO-KGXA|||||||1016.3||1|FM15-METAR|223|ICAO-KGXA|040|N-Normal|1|FM15-METAR|223|ICAO-KGXA|3.6|N-Normal|1|FM15-METAR|223|ICAO-KGXA|||||||||||||27|Derived||FM15-METAR|223|ICAO-KGXA|||||||||||||||||||||||||||||||||||||||||||||||||||||||||||||||||||||||||1014.9||1|FM15-METAR|223|ICAO-KGXA|||||||||||||||||||||||||||||||||||||||||||MET084METAR KGXA 020755Z AUTO 04007KT 10SM BKN075 09/M09 A2997 RMK AO2 SLP163 T00861092 $;||F||223|ICAO-KGXA
USI0000KGXA|GRAY BUTTE FLD|2011|12|02|09|00|34.5639|-117.6750|920.5|7.0||1|FM15-METAR|223|ICAO-KGXA|-7.0||1|FM15-METAR|223|ICAO-KGXA|||||||1016.5||1|FM15-METAR|223|ICAO-KGXA|110|N-Normal|1|FM15-METAR|223|ICAO-KGXA|2.6|N-Normal|1|FM15-METAR|223|ICAO-KGXA|||||||||||||37|Derived||FM15-METAR|223|ICAO-KGXA|||||||||||||||||||||||||||||||||||||||||||||||||||||||||||||||||||||||||1014.9||1|FM15-METAR|223|ICAO-KGXA|0.3|0-Incr-the|1|FM15-METAR|223|ICAO-KGXA|||||||||||||||||||||||||||||||||||||MET083METAR KGXA 020855Z AUTO 11005KT 10SM 07/M07 A2997 RMK AO2 SLP165 T00721075 50003 $;||F||223|ICAO-KGXA
USI0000KGXA|GRAY BUTTE FLD|2011|12|02|10|00|34.5639|-117.6750|920.5|5.0||1|FM15-METAR|223|ICAO-KGXA|-5.0||1|FM15-METAR|223|ICAO-KGXA|||||||1017.1||1|FM15-METAR|223|ICAO-KGXA|140|N-Normal|1|FM15-METAR|223|ICAO-KGXA|2.1|N-Normal|1|FM15-METAR|223|ICAO-KGXA|||||||||||||49|Derived||FM15-METAR|223|ICAO-KGXA|||||||||||||||||||||||||||||||||||||||||||||||||||||||||||||||||||||||||1014.9||1|FM15-METAR|223|ICAO-KGXA|||||||||||||||||||||||||||||||||||||||||||MET077METAR KGXA 020955Z AUTO 14004KT 10SM 05/M05 A2997 RMK AO2 SLP171 T00531048 $;||F||223|ICAO-KGXA
USI0000KGXA|GRAY BUTTE FLD|2011|12|02|11|00|34.5639|-117.6750|920.5|5.0||1|FM15-METAR|223|ICAO-KGXA|-5.0||1|FM15-METAR|223|ICAO-KGXA|||||||1017.1||1|FM15-METAR|223|ICAO-KGXA|170|N-Normal|1|FM15-METAR|223|ICAO-KGXA|2.1|N-Normal|1|FM15-METAR|223|ICAO-KGXA|||||||||||||49|Derived||FM15-METAR|223|ICAO-KGXA|||||||||||||||||||||||||||||||||||||||||||||||||||||||||||||||||||||||||1014.9||1|FM15-METAR|223|ICAO-KGXA|||||||||||||||||||||||||||||||||||||||||||MET077METAR KGXA 021055Z AUTO 17004KT 10SM 05/M05 A2997 RMK AO2 SLP171 T00521049 $;||F||223|ICAO-KGXA
USI0000KGXA|GRAY BUTTE FLD|2011|12|02|12|00|34.5639|-117.6750|920.5|2.0||1|FM15-METAR|223|ICAO-KGXA|-6.0||1|FM15-METAR|223|ICAO-KGXA|||||||1017.9||1|FM15-METAR|223|ICAO-KGXA|220|N-Normal|1|FM15-METAR|223|ICAO-KGXA|2.1|N-Normal|1|FM15-METAR|223|ICAO-KGXA|||||||||||||56|Derived||FM15-METAR|223|ICAO-KGXA|||||||||||||||||||||||||||||||||||||||||||||||||||||||||||||||||||||||||1015.2||1|FM15-METAR|223|ICAO-KGXA|0.3|3-Decr-or-|1|FM15-METAR|223|ICAO-KGXA|||||||||||||||||||||||||||||||||||||MET095METAR KGXA 021155Z AUTO 22004KT 10SM 02/M06 A2998 RMK AO2 SLP179 T00231062 10097 20057 53003 $;||F||223|ICAO-KGXA
USI0000KGXA|GRAY BUTTE FLD|2011|12|02|13|00|34.5639|-117.6750|920.5|2.0||1|FM15-METAR|223|ICAO-KGXA|-7.0||1|FM15-METAR|223|ICAO-KGXA|||||||1018.2||1|FM15-METAR|223|ICAO-KGXA|210|N-Normal|1|FM15-METAR|223|ICAO-KGXA|2.6|N-Normal|1|FM15-METAR|223|ICAO-KGXA|||||||||||||52|Derived||FM15-METAR|223|ICAO-KGXA|||||||||||||||||||||||||||||||||||||||||||||||||||||||||||||||||||||||||1015.6||1|FM15-METAR|223|ICAO-KGXA|||||||||||||||||||||||||||||||||||||||||||MET079METAR KGXA 021255Z AUTO 21005KT 10SM CLR 02/M07 A2999 RMK AO2 SLP182 T00241071;||F||223|ICAO-KGXA
USI0000KGXA|GRAY BUTTE FLD|2011|12|02|14|00|34.5639|-117.6750|920.5|2.0||1|FM15-METAR|223|ICAO-KGXA|-8.0||1|FM15-METAR|223|ICAO-KGXA|||||||1018.4||1|FM15-METAR|223|ICAO-KGXA|200|N-Normal|1|FM15-METAR|223|ICAO-KGXA|3.1|N-Normal|1|FM15-METAR|223|ICAO-KGXA|||||||||||||48|Derived||FM15-METAR|223|ICAO-KGXA|||||||||||||||||||||||||||||||||||||||||||||||||||||||||||||||||||||||||1015.6||1|FM15-METAR|223|ICAO-KGXA|||||||||||||||||||||||||||||||||||||||||||MET079METAR KGXA 021355Z AUTO 20006KT 10SM CLR 02/M08 A2999 RMK AO2 SLP184 T00201076;||F||223|ICAO-KGXA
USI0000KGXA|GRAY BUTTE FLD|2011|12|02|15|00|34.5639|-117.6750|920.5|2.0||1|FM15-METAR|223|ICAO-KGXA|-8.0||1|FM15-METAR|223|ICAO-KGXA|||||||1018.6||1|FM15-METAR|223|ICAO-KGXA|190|N-Normal|1|FM15-METAR|223|ICAO-KGXA|2.6|N-Normal|1|FM15-METAR|223|ICAO-KGXA|||||||||||||48|Derived||FM15-METAR|223|ICAO-KGXA|||||||||||||||||||||||||||||||||||||||||||||||||||||||||||||||||||||||||1015.6||1|FM15-METAR|223|ICAO-KGXA|0.3|0-Incr-the|1|FM15-METAR|223|ICAO-KGXA|||||||||||||||||||||||||||||||||||||MET085METAR KGXA 021455Z AUTO 19005KT 10SM CLR 02/M08 A2999 RMK AO2 SLP186 T00151082 50003;||F||223|ICAO-KGXA
USI0000KGXA|GRAY BUTTE FLD|2011|12|02|16|00|34.5639|-117.6750|920.5|7.0||1|FM15-METAR|223|ICAO-KGXA|-10.0||1|FM15-METAR|223|ICAO-KGXA|||||||1018.0||1|FM15-METAR|223|ICAO-KGXA|210|N-Normal|1|FM15-METAR|223|ICAO-KGXA|2.1|N-Normal|1|FM15-METAR|223|ICAO-KGXA|||||||||||||29|Derived||FM15-METAR|223|ICAO-KGXA|||||||||||||||||||||||||||||||||||||||||||||||||||||||||||||||||||||||||1015.9||1|FM15-METAR|223|ICAO-KGXA|||||||||||||||||||||||||||||||||||||||||||MET079METAR KGXA 021555Z AUTO 21004KT 10SM CLR 07/M10 A3000 RMK AO2 SLP180 T00701096;||F||223|ICAO-KGXA
USI0000KGXA|GRAY BUTTE FLD|2011|12|02|17|00|34.5639|-117.6750|920.5|11.0||1|FM15-METAR|223|ICAO-KGXA|-12.0||1|FM15-METAR|223|ICAO-KGXA|||||||1017.6||1|FM15-METAR|223|ICAO-KGXA|300|N-Normal|1|FM15-METAR|223|ICAO-KGXA|1.5|N-Normal|1|FM15-METAR|223|ICAO-KGXA|||||||||||||19|Derived||FM15-METAR|223|ICAO-KGXA|||||||||||||||||||||||||||||||||||||||||||||||||||||||||||||||||||||||||1016.3||1|FM15-METAR|223|ICAO-KGXA|||||||||||||||||||||||||||||||||||||||||||MET082METAR KGXA 021655Z AUTO 30003KT 10SM FEW220 11/M12 A3001 RMK AO2 SLP176 T01061119;||F||223|ICAO-KGXA
USI0000KGXA|GRAY BUTTE FLD|2011|12|02|18|00|34.5639|-117.6750|920.5|11.0||1|FM15-METAR|223|ICAO-KGXA|-11.0||1|FM15-METAR|223|ICAO-KGXA|||||||1017.7||1|FM15-METAR|223|ICAO-KGXA|250|N-Normal|1|FM15-METAR|223|ICAO-KGXA|1.5|N-Normal|1|FM15-METAR|223|ICAO-KGXA|||||||||||||20|Derived||FM15-METAR|223|ICAO-KGXA|||||||||||||||||||||||||||||||||||||||||||||||||||||||||||||||||||||||||1016.3||1|FM15-METAR|223|ICAO-KGXA|0.6|0-Incr-the|1|FM15-METAR|223|ICAO-KGXA|||||||||||||||||||||||||||||||||||||MET097METAR KGXA 021755Z AUTO 25003KT 10SM CLR 11/M11 A3001 RMK AO2 SLP177 T01121111 10086 20021 50006;||F||223|ICAO-KGXA
USI0000KGXA|GRAY BUTTE FLD|2011|12|02|19|00|34.5639|-117.6750|920.5|12.0||1|FM15-METAR|223|ICAO-KGXA|-12.0||1|FM15-METAR|223|ICAO-KGXA|||||||1016.2||1|FM15-METAR|223|ICAO-KGXA|999|V-Variable|9|FM15-METAR|223|ICAO-KGXA|1.5|V-Variable|1|FM15-METAR|223|ICAO-KGXA|||||||||||||18|Derived||FM15-METAR|223|ICAO-KGXA|||||||||||||||||||||||||||||||||||||||||||||||||||||||||||||||||||||||||1015.2||1|FM15-METAR|223|ICAO-KGXA|||||||||||||||||||||||||||||||||||||||||||MET079METAR KGXA 021855Z AUTO VRB03KT 10SM CLR 12/M12 A2998 RMK AO2 SLP162 T01221117;||F||223|ICAO-KGXA
USI0000KGXA|GRAY BUTTE FLD|2011|12|02|20|00|34.5639|-117.6750|920.5|13.0||1|FM15-METAR|223|ICAO-KGXA|-13.0||1|FM15-METAR|223|ICAO-KGXA|||||||1015.6||1|FM15-METAR|223|ICAO-KGXA|340|N-Normal|1|FM15-METAR|223|ICAO-KGXA|3.1|N-Normal|1|FM15-METAR|223|ICAO-KGXA|||||||||||||15|Derived||FM15-METAR|223|ICAO-KGXA|||||||||||||||||||||||||||||||||||||||||||||||||||||||||||||||||||||||||1014.9||1|FM15-METAR|223|ICAO-KGXA|||||||||||||||||||||||||||||||||||||||||||MET079METAR KGXA 021955Z AUTO 34006KT 10SM CLR 13/M13 A2997 RMK AO2 SLP156 T01251128;||F||223|ICAO-KGXA
USI0000KGXA|GRAY BUTTE FLD|2011|12|02|21|00|34.5639|-117.6750|920.5|13.0||1|FM15-METAR|223|ICAO-KGXA|-12.0||1|FM15-METAR|223|ICAO-KGXA|||||||1015.0||1|FM15-METAR|223|ICAO-KGXA|300|N-Normal|1|FM15-METAR|223|ICAO-KGXA|3.6|N-Normal|1|FM15-METAR|223|ICAO-KGXA|6.7||1|FM15-METAR|223|ICAO-KGXA|||||||16|Derived||FM15-METAR|223|ICAO-KGXA|||||||||||||||||||||||||||||||||||||||||||||||||||||||||||||||||||||||||1013.9||1|FM15-METAR|223|ICAO-KGXA|-2.0|7-Decr-(st|1|FM15-METAR|223|ICAO-KGXA|||||||||||||||||||||||||||||||||||||MET098METAR KGXA 022055Z AUTO 30007G13KT 10SM FEW230 13/M12 A2994 RMK AO2 SLP150 T01281125 57020 TSNO $;||F||223|ICAO-KGXA
USI0000KGXA|GRAY BUTTE FLD|2011|12|02|22|00|34.5639|-117.6750|920.5|13.0||1|FM15-METAR|223|ICAO-KGXA|-13.0||1|FM15-METAR|223|ICAO-KGXA|||||||1014.8||1|FM15-METAR|223|ICAO-KGXA|300|N-Normal|1|FM15-METAR|223|ICAO-KGXA|3.1|N-Normal|1|FM15-METAR|223|ICAO-KGXA|||||||||||||15|Derived||FM15-METAR|223|ICAO-KGXA|||||||||||||||||||||||||||||||||||||||||||||||||||||||||||||||||||||||||1013.2||1|FM15-METAR|223|ICAO-KGXA|||||||||||||||||||||||||||||||||||||||||||MET082METAR KGXA 022155Z AUTO 30006KT 10SM SCT170 13/M13 A2992 RMK AO2 SLP148 T01251133;||F||223|ICAO-KGXA
USI0000KGXA|GRAY BUTTE FLD|2011|12|02|23|00|34.5639|-117.6750|920.5|12.0||1|FM15-METAR|223|ICAO-KGXA|-13.0||1|FM15-METAR|223|ICAO-KGXA|||||||1014.9||1|FM15-METAR|223|ICAO-KGXA|330|N-Normal|1|FM15-METAR|223|ICAO-KGXA|2.6|N-Normal|1|FM15-METAR|223|ICAO-KGXA|||||||||||||16|Derived||FM15-METAR|223|ICAO-KGXA|||||||||||||||||||||||||||||||||||||||||||||||||||||||||||||||||||||||||1013.2||1|FM15-METAR|223|ICAO-KGXA|||||||||||||||||||||||||||||||||||||||||||MET082METAR KGXA 022255Z AUTO 33005KT 10SM BKN170 12/M13 A2992 RMK AO2 SLP149 T01221135;||F||223|ICAO-KGXA
USI0000KGXA|GRAY BUTTE FLD|2011|12|03|00|00|34.5639|-117.6750|920.5|13.0||1|FM15-METAR|223|ICAO-KGXA|-12.0||1|FM15-METAR|223|ICAO-KGXA|||||||1014.9||1|FM15-METAR|223|ICAO-KGXA|260|N-Normal|1|FM15-METAR|223|ICAO-KGXA|2.6|N-Normal|1|FM15-METAR|223|ICAO-KGXA|||||||||||||16|Derived||FM15-METAR|223|ICAO-KGXA|||||||||||||||||||||||||||||||||||||||||||||||||||||||||||||||||||||||||1012.9||1|FM15-METAR|223|ICAO-KGXA|-1.0|6-Decr,-th|1|FM15-METAR|223|ICAO-KGXA|||||||||||||||||||||||||||||||||||||MET110METAR KGXA 022355Z AUTO 26005KT 10SM BKN160 13/M12 A2991 RMK AO2 SLP149 T01271121 10114 20012 401430012 56010;||F||223|ICAO-KGXA
USI0000KGXA|GRAY BUTTE FLD|2011|12|03|01|00|34.5639|-117.6750|920.5|12.0||1|FM15-METAR|223|ICAO-KGXA|-12.0||1|FM15-METAR|223|ICAO-KGXA|||||||1014.8||1|FM15-METAR|223|ICAO-KGXA|250|N-Normal|1|FM15-METAR|223|ICAO-KGXA|2.1|N-Normal|1|FM15-METAR|223|ICAO-KGXA|||||||||||||18|Derived||FM15-METAR|223|ICAO-KGXA|||||||||||||||||||||||||||||||||||||||||||||||||||||||||||||||||||||||||1012.5||1|FM15-METAR|223|ICAO-KGXA|||||||||||||||||||||||||||||||||||||||||||MET092METAR KGXA 030055Z AUTO 25004KT 10SM 12/M12 A2990 RMK AO2 SLP148 T01191119 PWINO PNO TSNO $;||F||223|ICAO-KGXA
USI0000KGXA|GRAY BUTTE FLD|2011|12|06|20|00|34.5639|-117.6750|920.5|9.0||1|FM15-METAR|223|ICAO-KGXA|-19.0||1|FM15-METAR|223|ICAO-KGXA|||||||1030.4||1|FM15-METAR|223|ICAO-KGXA|080|N-Normal|1|FM15-METAR|223|ICAO-KGXA|5.1|N-Normal|1|FM15-METAR|223|ICAO-KGXA|||||||||||||12|Derived||FM15-METAR|223|ICAO-KGXA|||||||||||||||||||||||||||||||||||||||||||||||||||||||||||||||||||||||||1027.4||1|FM15-METAR|223|ICAO-KGXA|||||||||||||||||||||||||||||||||||||||||||MET079METAR KGXA 061955Z AUTO 08010KT 10SM CLR 09/M19 A3034 RMK AO2 SLP304 T00901189;||F||223|ICAO-KGXA
USI0000KGXA|GRAY BUTTE FLD|2011|12|06|21|00|34.5639|-117.6750|920.5|9.0||1|FM15-METAR|223|ICAO-KGXA|-19.0||1|FM15-METAR|223|ICAO-KGXA|||||||1029.9||1|FM15-METAR|223|ICAO-KGXA|080|N-Normal|1|FM15-METAR|223|ICAO-KGXA|4.1|N-Normal|1|FM15-METAR|223|ICAO-KGXA|||||||||||||12|Derived||FM15-METAR|223|ICAO-KGXA|||||||||||||||||||||||||||||||||||||||||||||||||||||||||||||||||||||||||1026.8||1|FM15-METAR|223|ICAO-KGXA|-2.1|7-Decr-(st|1|FM15-METAR|223|ICAO-KGXA|||||||||||||||||||||||||||||||||||||MET085METAR KGXA 062055Z AUTO 08008KT 10SM CLR 09/M19 A3032 RMK AO2 SLP299 T00941190 57021;||F||223|ICAO-KGXA
USI0000KGXA|GRAY BUTTE FLD|2011|12|06|22|00|34.5639|-117.6750|920.5|10.0||1|FM15-METAR|223|ICAO-KGXA|-18.0||1|FM15-METAR|223|ICAO-KGXA|||||||1029.3||1|FM15-METAR|223|ICAO-KGXA|070|N-Normal|1|FM15-METAR|223|ICAO-KGXA|4.1|N-Normal|1|FM15-METAR|223|ICAO-KGXA|||||||||||||12|Derived||FM15-METAR|223|ICAO-KGXA|||||||||||||||||||||||||||||||||||||||||||||||||||||||||||||||||||||||||1026.1||1|FM15-METAR|223|ICAO-KGXA|||||||||||||||||||||||||||||||||||||||||||MET079METAR KGXA 062155Z AUTO 07008KT 10SM CLR 10/M18 A3030 RMK AO2 SLP293 T00951183;||F||223|ICAO-KGXA
USI0000KGXA|GRAY BUTTE FLD|2011|12|06|23|00|34.5639|-117.6750|920.5|10.0||1|FM15-METAR|223|ICAO-KGXA|-18.0||1|FM15-METAR|223|ICAO-KGXA|||||||1029.1||1|FM15-METAR|223|ICAO-KGXA|080|N-Normal|1|FM15-METAR|223|ICAO-KGXA|3.1|N-Normal|1|FM15-METAR|223|ICAO-KGXA|||||||||||||12|Derived||FM15-METAR|223|ICAO-KGXA|||||||||||||||||||||||||||||||||||||||||||||||||||||||||||||||||||||||||1025.7||1|FM15-METAR|223|ICAO-KGXA|||||||||||||||||||||||||||||||||||||||||||MET082METAR KGXA 062255Z AUTO 08006KT 10SM FEW230 10/M18 A3029 RMK AO2 SLP291 T00961183;||F||223|ICAO-KGXA
USI0000KGXA|GRAY BUTTE FLD|2011|12|07|00|00|34.5639|-117.6750|920.5|9.0||1|FM15-METAR|223|ICAO-KGXA|-19.0||1|FM15-METAR|223|ICAO-KGXA|||||||1030.0||1|FM15-METAR|223|ICAO-KGXA|090|N-Normal|1|FM15-METAR|223|ICAO-KGXA|2.6|N-Normal|1|FM15-METAR|223|ICAO-KGXA|||||||||||||12|Derived||FM15-METAR|223|ICAO-KGXA|||||||||||||||||||||||||||||||||||||||||||||||||||||||||||||||||||||||||1025.7||1|FM15-METAR|223|ICAO-KGXA|-0.8|6-Decr,-th|1|FM15-METAR|223|ICAO-KGXA|||||||||||||||||||||||||||||||||||||MET107METAR KGXA 062355Z AUTO 09005KT 10SM CLR 09/M19 A3029 RMK AO2 SLP300 T00891189 10075 21050 401000083 56008;||F||223|ICAO-KGXA
USI0000KGXA|GRAY BUTTE FLD|2011|12|07|01|00|34.5639|-117.6750|920.5|5.0||1|FM15-METAR|223|ICAO-KGXA|-19.0||1|FM15-METAR|223|ICAO-KGXA|||||||1031.3||1|FM15-METAR|223|ICAO-KGXA|100|N-Normal|1|FM15-METAR|223|ICAO-KGXA|2.1|N-Normal|1|FM15-METAR|223|ICAO-KGXA|||||||||||||16|Derived||FM15-METAR|223|ICAO-KGXA|||||||||||||||||||||||||||||||||||||||||||||||||||||||||||||||||||||||||1026.1||1|FM15-METAR|223|ICAO-KGXA|||||||||||||||||||||||||||||||||||||||||||MET079METAR KGXA 070055Z AUTO 10004KT 10SM CLR 05/M19 A3030 RMK AO2 SLP313 T00511193;||F||223|ICAO-KGXA
USI0000KGXA|GRAY BUTTE FLD|2011|12|07|02|00|34.5639|-117.6750|920.5|4.0||1|FM15-METAR|223|ICAO-KGXA|-19.0||1|FM15-METAR|223|ICAO-KGXA|||||||1031.6||1|FM15-METAR|223|ICAO-KGXA|130|N-Normal|1|FM15-METAR|223|ICAO-KGXA|2.1|N-Normal|1|FM15-METAR|223|ICAO-KGXA|||||||||||||17|Derived||FM15-METAR|223|ICAO-KGXA|||||||||||||||||||||||||||||||||||||||||||||||||||||||||||||||||||||||||1026.1||1|FM15-METAR|223|ICAO-KGXA|||||||||||||||||||||||||||||||||||||||||||MET092METAR KGXA 070155Z AUTO 13004KT 10SM 04/M19 A3030 RMK AO2 SLP316 T00371189 PWINO PNO TSNO $;||F||223|ICAO-KGXA
USI0000KGXA|GRAY BUTTE FLD|2011|12|07|15|40|34.5639|-117.6750|920.5|0.0||1|FM16-SPECI|223|ICAO-KGXA|-16.0||1|FM16-SPECI|223|ICAO-KGXA|||||||1031.3||1|FM16-SPECI|223|ICAO-KGXA|140|N-Normal|1|FM16-SPECI|223|ICAO-KGXA|2.1|N-Normal|1|FM16-SPECI|223|ICAO-KGXA|||||||||||||29|Derived||FM16-SPECI|223|ICAO-KGXA|||||||||||||||||||||||||||||||||||||||||||||||||||||||||||||||||||||||||1025.4||1|FM16-SPECI|223|ICAO-KGXA|||||||||||||||||||||||||||||||||||||||||||MET069SPECI KGXA 071540Z AUTO 14004KT 10SM CLR 00/M16 A3028 RMK AO2 SLP313;||F||223|ICAO-KGXA
USI0000KGXA|GRAY BUTTE FLD|2011|12|07|16|00|34.5639|-117.6750|920.5|1.0||1|FM15-METAR|223|ICAO-KGXA|-15.0||1|FM15-METAR|223|ICAO-KGXA|||||||1030.9||1|FM15-METAR|223|ICAO-KGXA|140|N-Normal|1|FM15-METAR|223|ICAO-KGXA|1.5|N-Normal|1|FM15-METAR|223|ICAO-KGXA|||||||||||||29|Derived||FM15-METAR|223|ICAO-KGXA|||||||||||||||||||||||||||||||||||||||||||||||||||||||||||||||||||||||||1025.4||1|FM15-METAR|223|ICAO-KGXA|||||||||||||||||||||||||||||||||||||||||||MET079METAR KGXA 071555Z AUTO 14003KT 10SM CLR 01/M15 A3028 RMK AO2 SLP309 T00141152;||F||223|ICAO-KGXA
USI0000KGXA|GRAY BUTTE FLD|2011|12|07|17|00|34.5639|-117.6750|920.5|7.0||1|FM15-METAR|223|ICAO-KGXA|-18.0||1|FM15-METAR|223|ICAO-KGXA|||||||1029.7||1|FM15-METAR|223|ICAO-KGXA|050|N-Normal|1|FM15-METAR|223|ICAO-KGXA|2.1|N-Normal|1|FM15-METAR|223|ICAO-KGXA|||||||||||||15|Derived||FM15-METAR|223|ICAO-KGXA|||||||||||||||||||||||||||||||||||||||||||||||||||||||||||||||||||||||||1025.4||1|FM15-METAR|223|ICAO-KGXA|||||||||||||||||||||||||||||||||||||||||||MET079METAR KGXA 071655Z AUTO 05004KT 10SM CLR 07/M18 A3028 RMK AO2 SLP297 T00721184;||F||223|ICAO-KGXA
USI0000KGXA|GRAY BUTTE FLD|2011|12|07|18|00|34.5639|-117.6750|920.5|9.0||1|FM15-METAR|223|ICAO-KGXA|-18.0||1|FM15-METAR|223|ICAO-KGXA|||||||1029.5||1|FM15-METAR|223|ICAO-KGXA|050|N-Normal|1|FM15-METAR|223|ICAO-KGXA|1.5|N-Normal|1|FM15-METAR|223|ICAO-KGXA|||||||||||||13|Derived||FM15-METAR|223|ICAO-KGXA|||||||||||||||||||||||||||||||||||||||||||||||||||||||||||||||||||||||||1025.4||1|FM15-METAR|223|ICAO-KGXA|||||||||||||||||||||||||||||||||||||||||||MET097METAR KGXA 071755Z AUTO 05003KT 10SM CLR 09/M18 A3028 RMK AO2 SLP295 T00861177 11022 21052 54001;||F||223|ICAO-KGXA
USI0000KGXA|GRAY BUTTE FLD|2011|12|07|19|00|34.5639|-117.6750|920.5|10.0||1|FM15-METAR|223|ICAO-KGXA|-18.0||1|FM15-METAR|223|ICAO-KGXA|||||||1028.3||1|FM15-METAR|223|ICAO-KGXA|050|N-Normal|1|FM15-METAR|223|ICAO-KGXA|2.1|N-Normal|1|FM15-METAR|223|ICAO-KGXA|||||||||||||12|Derived||FM15-METAR|223|ICAO-KGXA|||||||||||||||||||||||||||||||||||||||||||||||||||||||||||||||||||||||||1024.4||1|FM15-METAR|223|ICAO-KGXA|||||||||||||||||||||||||||||||||||||||||||MET079METAR KGXA 071855Z AUTO 05004KT 10SM CLR 10/M18 A3025 RMK AO2 SLP283 T01021176;||F||223|ICAO-KGXA
USI0000KGXA|GRAY BUTTE FLD|2011|12|07|20|00|34.5639|-117.6750|920.5|11.0||1|FM15-METAR|223|ICAO-KGXA|-17.0||1|FM15-METAR|223|ICAO-KGXA|||||||1026.8||1|FM15-METAR|223|ICAO-KGXA|080|N-Normal|1|FM15-METAR|223|ICAO-KGXA|3.1|N-Normal|1|FM15-METAR|223|ICAO-KGXA|||||||||||||12|Derived||FM15-METAR|223|ICAO-KGXA|||||||||||||||||||||||||||||||||||||||||||||||||||||||||||||||||||||||||1023.0||1|FM15-METAR|223|ICAO-KGXA|||||||||||||||||||||||||||||||||||||||||||MET079METAR KGXA 071955Z AUTO 08006KT 10SM CLR 11/M17 A3021 RMK AO2 SLP268 T01131167;||F||223|ICAO-KGXA
USI0000KGXA|GRAY BUTTE FLD|2011|12|07|21|00|34.5639|-117.6750|920.5|12.0||1|FM15-METAR|223|ICAO-KGXA|-15.0||1|FM15-METAR|223|ICAO-KGXA|||||||1025.8||1|FM15-METAR|223|ICAO-KGXA|060|N-Normal|1|FM15-METAR|223|ICAO-KGXA|3.1|N-Normal|1|FM15-METAR|223|ICAO-KGXA|||||||||||||14|Derived||FM15-METAR|223|ICAO-KGXA|||||||||||||||||||||||||||||||||||||||||||||||||||||||||||||||||||||||||1022.0||1|FM15-METAR|223|ICAO-KGXA|-2.9|7-Decr-(st|1|FM15-METAR|223|ICAO-KGXA|||||||||||||||||||||||||||||||||||||MET092METAR KGXA 072055Z AUTO 06006KT 10SM CLR 12/M15 A3018 RMK AO2 SLP258 T01161154 57029 TSNO $;||F||223|ICAO-KGXA
USI0000KGXA|GRAY BUTTE FLD|2011|12|07|22|00|34.5639|-117.6750|920.5|12.0||1|FM15-METAR|223|ICAO-KGXA|-15.0||1|FM15-METAR|223|ICAO-KGXA|||||||1025.1||1|FM15-METAR|223|ICAO-KGXA|060|N-Normal|1|FM15-METAR|223|ICAO-KGXA|3.1|N-Normal|1|FM15-METAR|223|ICAO-KGXA|||||||||||||14|Derived||FM15-METAR|223|ICAO-KGXA|||||||||||||||||||||||||||||||||||||||||||||||||||||||||||||||||||||||||1021.3||1|FM15-METAR|223|ICAO-KGXA|||||||||||||||||||||||||||||||||||||||||||MET086METAR KGXA 072155Z AUTO 06006KT 10SM CLR 12/M15 A3016 RMK AO2 SLP251 T01221153 TSNO $;||F||223|ICAO-KGXA
USI0000KGXA|GRAY BUTTE FLD|2011|12|07|23|00|34.5639|-117.6750|920.5|12.0||1|FM15-METAR|223|ICAO-KGXA|-15.0||1|FM15-METAR|223|ICAO-KGXA|||||||1024.8||1|FM15-METAR|223|ICAO-KGXA|070|N-Normal|1|FM15-METAR|223|ICAO-KGXA|1.5|N-Normal|1|FM15-METAR|223|ICAO-KGXA|||||||||||||14|Derived||FM15-METAR|223|ICAO-KGXA|||||||||||||||||||||||||||||||||||||||||||||||||||||||||||||||||||||||||1021.0||1|FM15-METAR|223|ICAO-KGXA|||||||||||||||||||||||||||||||||||||||||||MET086METAR KGXA 072255Z AUTO 07003KT 10SM CLR 12/M15 A3015 RMK AO2 SLP248 T01191148 TSNO $;||F||223|ICAO-KGXA
USI0000KGXA|GRAY BUTTE FLD|2011|12|08|00|00|34.5639|-117.6750|920.5|11.0||1|FM15-METAR|223|ICAO-KGXA|-15.0||1|FM15-METAR|223|ICAO-KGXA|||||||1024.9||1|FM15-METAR|223|ICAO-KGXA|090|N-Normal|1|FM15-METAR|223|ICAO-KGXA|2.1|N-Normal|1|FM15-METAR|223|ICAO-KGXA|||||||||||||15|Derived||FM15-METAR|223|ICAO-KGXA|||||||||||||||||||||||||||||||||||||||||||||||||||||||||||||||||||||||||1021.0||1|FM15-METAR|223|ICAO-KGXA|-1.1|7-Decr-(st|1|FM15-METAR|223|ICAO-KGXA|||||||||||||||||||||||||||||||||||||MET107METAR KGXA 072355Z AUTO 09004KT 10SM CLR 11/M15 A3015 RMK AO2 SLP249 T01111147 10089 21053 401251006 57011;||F||223|ICAO-KGXA
USI0000KGXA|GRAY BUTTE FLD|2011|12|08|01|00|34.5639|-117.6750|920.5|7.0||1|FM15-METAR|223|ICAO-KGXA|-14.0||1|FM15-METAR|223|ICAO-KGXA|||||||1025.3||1|FM15-METAR|223|ICAO-KGXA|150|N-Normal|1|FM15-METAR|223|ICAO-KGXA|1.5|N-Normal|1|FM15-METAR|223|ICAO-KGXA|||||||||||||21|Derived||FM15-METAR|223|ICAO-KGXA|||||||||||||||||||||||||||||||||||||||||||||||||||||||||||||||||||||||||1020.3||1|FM15-METAR|223|ICAO-KGXA|||||||||||||||||||||||||||||||||||||||||||MET081METAR KGXA 080055Z AUTO 15003KT 10SM CLR 07/M14 A3013 RMK AO2 SLP253 T00731141 $;||F||223|ICAO-KGXA
USI0000KGXA|GRAY BUTTE FLD|2011|12|08|02|00|34.5639|-117.6750|920.5|3.0||1|FM15-METAR|223|ICAO-KGXA|-13.0||1|FM15-METAR|223|ICAO-KGXA|||||||1026.2||1|FM15-METAR|223|ICAO-KGXA|160|N-Normal|1|FM15-METAR|223|ICAO-KGXA|3.1|N-Normal|1|FM15-METAR|223|ICAO-KGXA|||||||||||||30|Derived||FM15-METAR|223|ICAO-KGXA|||||||||||||||||||||||||||||||||||||||||||||||||||||||||||||||||||||||||1020.3||1|FM15-METAR|223|ICAO-KGXA|||||||||||||||||||||||||||||||||||||||||||MET081METAR KGXA 080155Z AUTO 16006KT 10SM CLR 03/M13 A3013 RMK AO2 SLP262 T00271133 $;||F||223|ICAO-KGXA
USI0000KGXA|GRAY BUTTE FLD|2011|12|08|03|00|34.5639|-117.6750|920.5|3.0||1|FM15-METAR|223|ICAO-KGXA|-13.0||1|FM15-METAR|223|ICAO-KGXA|||||||1026.2||1|FM15-METAR|223|ICAO-KGXA|170|N-Normal|1|FM15-METAR|223|ICAO-KGXA|3.1|N-Normal|1|FM15-METAR|223|ICAO-KGXA|||||||||||||30|Derived||FM15-METAR|223|ICAO-KGXA|||||||||||||||||||||||||||||||||||||||||||||||||||||||||||||||||||||||||1020.3||1|FM15-METAR|223|ICAO-KGXA|-0.7|7-Decr-(st|1|FM15-METAR|223|ICAO-KGXA|||||||||||||||||||||||||||||||||||||MET098METAR KGXA 080255Z AUTO 17006KT 10SM 03/M13 A3013 RMK AO2 SLP262 T00251130 57007 PWINO PNO TSNO $;||F||223|ICAO-KGXA
USI0000KGXA|GRAY BUTTE FLD|2011|12|08|15|00|34.5639|-117.6750|920.5|-2.0||1|FM15-METAR|223|ICAO-KGXA|-10.0||1|FM15-METAR|223|ICAO-KGXA|||||||1025.5||1|FM15-METAR|223|ICAO-KGXA|150|N-Normal|1|FM15-METAR|223|ICAO-KGXA|2.1|N-Normal|1|FM15-METAR|223|ICAO-KGXA|||||||||||||55|Derived||FM15-METAR|223|ICAO-KGXA|||||||||||||||||||||||||||||||||||||||||||||||||||||||||||||||||||||||||1020.3||1|FM15-METAR|223|ICAO-KGXA|0.9|3-Decr-or-|1|FM15-METAR|223|ICAO-KGXA|||||||||||||||||||||||||||||||||||||MET086METAR KGXA 081455Z AUTO 15004KT 10SM CLR M02/M10 A3013 RMK AO2 SLP255 T10191103 53009;||F||223|ICAO-KGXA
USI0000KGXA|GRAY BUTTE FLD|2011|12|08|16|00|34.5639|-117.6750|920.5|3.0||1|FM15-METAR|223|ICAO-KGXA|-10.0||1|FM15-METAR|223|ICAO-KGXA|||||||1025.0||1|FM15-METAR|223|ICAO-KGXA|130|N-Normal|1|FM15-METAR|223|ICAO-KGXA|1.0|N-Normal|1|FM15-METAR|223|ICAO-KGXA|||||||||||||38|Derived||FM15-METAR|223|ICAO-KGXA|||||||||||||||||||||||||||||||||||||||||||||||||||||||||||||||||||||||||1020.3||1|FM15-METAR|223|ICAO-KGXA|||||||||||||||||||||||||||||||||||||||||||MET079METAR KGXA 081555Z AUTO 13002KT 10SM CLR 03/M10 A3013 RMK AO2 SLP250 T00331102;||F||223|ICAO-KGXA
USI0000KGXA|GRAY BUTTE FLD|2011|12|08|17|00|34.5639|-117.6750|920.5|7.0||1|FM15-METAR|223|ICAO-KGXA|-12.0||1|FM15-METAR|223|ICAO-KGXA|||||||1024.8||1|FM15-METAR|223|ICAO-KGXA|050|N-Normal|1|FM15-METAR|223|ICAO-KGXA|1.5|N-Normal|1|FM15-METAR|223|ICAO-KGXA|||||||||||||25|Derived||FM15-METAR|223|ICAO-KGXA|||||||||||||||||||||||||||||||||||||||||||||||||||||||||||||||||||||||||1021.0||1|FM15-METAR|223|ICAO-KGXA|||||||||||||||||||||||||||||||||||||||||||MET079METAR KGXA 081655Z AUTO 05003KT 10SM CLR 07/M12 A3015 RMK AO2 SLP248 T00701122;||F||223|ICAO-KGXA
USI0000KGXA|GRAY BUTTE FLD|2011|12|08|18|00|34.5639|-117.6750|920.5|10.0||1|FM15-METAR|223|ICAO-KGXA|-13.0||1|FM15-METAR|223|ICAO-KGXA|||||||1024.2||1|FM15-METAR|223|ICAO-KGXA|090|N-Normal|1|FM15-METAR|223|ICAO-KGXA|0.5|N-Normal|1|FM15-METAR|223|ICAO-KGXA|||||||||||||19|Derived||FM15-METAR|223|ICAO-KGXA|||||||||||||||||||||||||||||||||||||||||||||||||||||||||||||||||||||||||1021.0||1|FM15-METAR|223|ICAO-KGXA|0.9|2-Incr-(st|1|FM15-METAR|223|ICAO-KGXA|||||||||||||||||||||||||||||||||||||MET097METAR KGXA 081755Z AUTO 09001KT 10SM CLR 10/M13 A3015 RMK AO2 SLP242 T01041128 10000 21032 52009;||F||223|ICAO-KGXA
USI0000KGXA|GRAY BUTTE FLD|2011|12|08|19|00|34.5639|-117.6750|920.5|13.0||1|FM15-METAR|223|ICAO-KGXA|-13.0||1|FM15-METAR|223|ICAO-KGXA|||||||1023.4||1|FM15-METAR|223|ICAO-KGXA|040|N-Normal|1|FM15-METAR|223|ICAO-KGXA|1.5|N-Normal|1|FM15-METAR|223|ICAO-KGXA|||||||||||||15|Derived||FM15-METAR|223|ICAO-KGXA|||||||||||||||||||||||||||||||||||||||||||||||||||||||||||||||||||||||||1020.7||1|FM15-METAR|223|ICAO-KGXA|||||||||||||||||||||||||||||||||||||||||||MET079METAR KGXA 081855Z AUTO 04003KT 10SM CLR 13/M13 A3014 RMK AO2 SLP234 T01281131;||F||223|ICAO-KGXA
USI0000KGXA|GRAY BUTTE FLD|2011|12|08|20|00|34.5639|-117.6750|920.5|14.0||1|FM15-METAR|223|ICAO-KGXA|-13.0||1|FM15-METAR|223|ICAO-KGXA|||||||1022.5||1|FM15-METAR|223|ICAO-KGXA|050|N-Normal|1|FM15-METAR|223|ICAO-KGXA|1.0|N-Normal|1|FM15-METAR|223|ICAO-KGXA|||||||||||||14|Derived||FM15-METAR|223|ICAO-KGXA|||||||||||||||||||||||||||||||||||||||||||||||||||||||||||||||||||||||||1019.6||1|FM15-METAR|223|ICAO-KGXA|||||||||||||||||||||||||||||||||||||||||||MET086METAR KGXA 081955Z AUTO 05002KT 10SM CLR 14/M13 A3011 RMK AO2 SLP225 T01361127 TSNO $;||F||223|ICAO-KGXA
USI0000KGXA|GRAY BUTTE FLD|2011|12|08|21|00|34.5639|-117.6750|920.5|15.0||1|FM15-METAR|223|ICAO-KGXA|-12.0||1|FM15-METAR|223|ICAO-KGXA|||||||1021.7||1|FM15-METAR|223|ICAO-KGXA|060|N-Normal|1|FM15-METAR|223|ICAO-KGXA|1.5|N-Normal|1|FM15-METAR|223|ICAO-KGXA|||||||||||||14|Derived||FM15-METAR|223|ICAO-KGXA|||||||||||||||||||||||||||||||||||||||||||||||||||||||||||||||||||||||||1019.3||1|FM15-METAR|223|ICAO-KGXA|-1.8|7-Decr-(st|1|FM15-METAR|223|ICAO-KGXA|||||||||||||||||||||||||||||||||||||MET092METAR KGXA 082055Z AUTO 06003KT 10SM CLR 15/M12 A3010 RMK AO2 SLP217 T01471125 57018 TSNO $;||F||223|ICAO-KGXA
USI0000KGXA|GRAY BUTTE FLD|2011|12|08|22|00|34.5639|-117.6750|920.5|15.0||1|FM15-METAR|223|ICAO-KGXA|-12.0||1|FM15-METAR|223|ICAO-KGXA|||||||1021.4||1|FM15-METAR|223|ICAO-KGXA|040|N-Normal|1|FM15-METAR|223|ICAO-KGXA|2.6|N-Normal|1|FM15-METAR|223|ICAO-KGXA|||||||||||||14|Derived||FM15-METAR|223|ICAO-KGXA|||||||||||||||||||||||||||||||||||||||||||||||||||||||||||||||||||||||||1019.0||1|FM15-METAR|223|ICAO-KGXA|||||||||||||||||||||||||||||||||||||||||||MET086METAR KGXA 082155Z AUTO 04005KT 10SM CLR 15/M12 A3009 RMK AO2 SLP214 T01461125 TSNO $;||F||223|ICAO-KGXA
USI0000KGXA|GRAY BUTTE FLD|2011|12|08|23|00|34.5639|-117.6750|920.5|15.0||1|FM15-METAR|223|ICAO-KGXA|-12.0||1|FM15-METAR|223|ICAO-KGXA|||||||1021.8||1|FM15-METAR|223|ICAO-KGXA|070|N-Normal|1|FM15-METAR|223|ICAO-KGXA|2.6|N-Normal|1|FM15-METAR|223|ICAO-KGXA|||||||||||||14|Derived||FM15-METAR|223|ICAO-KGXA|||||||||||||||||||||||||||||||||||||||||||||||||||||||||||||||||||||||||1019.0||1|FM15-METAR|223|ICAO-KGXA|||||||||||||||||||||||||||||||||||||||||||MET086METAR KGXA 082255Z AUTO 07005KT 10SM CLR 15/M12 A3009 RMK AO2 SLP218 T01451121 TSNO $;||F||223|ICAO-KGXA
USI0000KGXA|GRAY BUTTE FLD|2011|12|09|00|00|34.5639|-117.6750|920.5|13.0||1|FM15-METAR|223|ICAO-KGXA|-12.0||1|FM15-METAR|223|ICAO-KGXA|||||||1022.0||1|FM15-METAR|223|ICAO-KGXA|060|N-Normal|1|FM15-METAR|223|ICAO-KGXA|2.6|N-Normal|1|FM15-METAR|223|ICAO-KGXA|||||||||||||16|Derived||FM15-METAR|223|ICAO-KGXA|||||||||||||||||||||||||||||||||||||||||||||||||||||||||||||||||||||||||1019.0||1|FM15-METAR|223|ICAO-KGXA|0.0|4-Steady;-|1|FM15-METAR|223|ICAO-KGXA|||||||||||||||||||||||||||||||||||||MET107METAR KGXA 082355Z AUTO 06005KT 10SM CLR 13/M12 A3009 RMK AO2 SLP220 T01341124 10108 21026 401521019 54000;||F||223|ICAO-KGXA
USI0000KGXA|GRAY BUTTE FLD|2011|12|09|01|00|34.5639|-117.6750|920.5|9.0||1|FM15-METAR|223|ICAO-KGXA|-12.0||1|FM15-METAR|223|ICAO-KGXA|||||||1022.8||1|FM15-METAR|223|ICAO-KGXA|150|N-Normal|1|FM15-METAR|223|ICAO-KGXA|2.1|N-Normal|1|FM15-METAR|223|ICAO-KGXA|||||||||||||21|Derived||FM15-METAR|223|ICAO-KGXA|||||||||||||||||||||||||||||||||||||||||||||||||||||||||||||||||||||||||1019.0||1|FM15-METAR|223|ICAO-KGXA|||||||||||||||||||||||||||||||||||||||||||MET079METAR KGXA 090055Z AUTO 15004KT 10SM CLR 09/M12 A3009 RMK AO2 SLP228 T00911116;||F||223|ICAO-KGXA
USI0000KGXA|GRAY BUTTE FLD|2011|12|09|02|00|34.5639|-117.6750|920.5|6.0||1|FM15-METAR|223|ICAO-KGXA|-11.0||1|FM15-METAR|223|ICAO-KGXA|||||||1024.1||1|FM15-METAR|223|ICAO-KGXA|160|N-Normal|1|FM15-METAR|223|ICAO-KGXA|2.6|N-Normal|1|FM15-METAR|223|ICAO-KGXA|||||||||||||29|Derived||FM15-METAR|223|ICAO-KGXA|||||||||||||||||||||||||||||||||||||||||||||||||||||||||||||||||||||||||1019.6||1|FM15-METAR|223|ICAO-KGXA|||||||||||||||||||||||||||||||||||||||||||MET081METAR KGXA 090155Z AUTO 16005KT 10SM CLR 06/M11 A3011 RMK AO2 SLP241 T00551110 $;||F||223|ICAO-KGXA
USI0000KGXA|GRAY BUTTE FLD|2011|12|09|03|00|34.5639|-117.6750|920.5|3.0||1|FM15-METAR|223|ICAO-KGXA|-11.0||1|FM15-METAR|223|ICAO-KGXA|||||||1025.0||1|FM15-METAR|223|ICAO-KGXA|160|N-Normal|1|FM15-METAR|223|ICAO-KGXA|2.6|N-Normal|1|FM15-METAR|223|ICAO-KGXA|||||||||||||35|Derived||FM15-METAR|223|ICAO-KGXA|||||||||||||||||||||||||||||||||||||||||||||||||||||||||||||||||||||||||1020.0||1|FM15-METAR|223|ICAO-KGXA|0.9|2-Incr-(st|1|FM15-METAR|223|ICAO-KGXA|||||||||||||||||||||||||||||||||||||MET087METAR KGXA 090255Z AUTO 16005KT 10SM CLR 03/M11 A3012 RMK AO2 SLP250 T00321111 52009 $;||F||223|ICAO-KGXA
USI0000KGXA|GRAY BUTTE FLD|2011|12|09|04|00|34.5639|-117.6750|920.5|3.0||1|FM15-METAR|223|ICAO-KGXA|-10.0||1|FM15-METAR|223|ICAO-KGXA|||||||1024.4||1|FM15-METAR|223|ICAO-KGXA|160|N-Normal|1|FM15-METAR|223|ICAO-KGXA|2.6|N-Normal|1|FM15-METAR|223|ICAO-KGXA|||||||||||||38|Derived||FM15-METAR|223|ICAO-KGXA|||||||||||||||||||||||||||||||||||||||||||||||||||||||||||||||||||||||||1020.3||1|FM15-METAR|223|ICAO-KGXA|||||||||||||||||||||||||||||||||||||||||||MET081METAR KGXA 090355Z AUTO 16005KT 10SM CLR 03/M10 A3013 RMK AO2 SLP244 T00261105 $;||F||223|ICAO-KGXA
USI0000KGXA|GRAY BUTTE FLD|2011|12|09|05|00|34.5639|-117.6750|920.5|3.0||1|FM15-METAR|223|ICAO-KGXA|-11.0||1|FM15-METAR|223|ICAO-KGXA|||||||1024.0||1|FM15-METAR|223|ICAO-KGXA|160|N-Normal|1|FM15-METAR|223|ICAO-KGXA|2.6|N-Normal|1|FM15-METAR|223|ICAO-KGXA|||||||||||||35|Derived||FM15-METAR|223|ICAO-KGXA|||||||||||||||||||||||||||||||||||||||||||||||||||||||||||||||||||||||||1020.7||1|FM15-METAR|223|ICAO-KGXA|||||||||||||||||||||||||||||||||||||||||||MET081METAR KGXA 090455Z AUTO 16005KT 10SM CLR 03/M11 A3014 RMK AO2 SLP240 T00261110 $;||F||223|ICAO-KGXA
USI0000KGXA|GRAY BUTTE FLD|2011|12|09|06|00|34.5639|-117.6750|920.5|2.0||1|FM15-METAR|223|ICAO-KGXA|-11.0||1|FM15-METAR|223|ICAO-KGXA|||||||1023.9||1|FM15-METAR|223|ICAO-KGXA|160|N-Normal|1|FM15-METAR|223|ICAO-KGXA|2.6|N-Normal|1|FM15-METAR|223|ICAO-KGXA|||||||||||||38|Derived||FM15-METAR|223|ICAO-KGXA|||||||||||||||||||||||||||||||||||||||||||||||||||||||||||||||||||||||||1021.3||1|FM15-METAR|223|ICAO-KGXA|1.1|2-Incr-(st|1|FM15-METAR|223|ICAO-KGXA|||||||||||||||||||||||||||||||||||||MET099METAR KGXA 090555Z AUTO 16005KT 10SM CLR 02/M11 A3016 RMK AO2 SLP239 T00221109 10152 20101 52011 $;||F||223|ICAO-KGXA
USI0000KGXA|GRAY BUTTE FLD|2011|12|09|07|00|34.5639|-117.6750|920.5|1.0||1|FM15-METAR|223|ICAO-KGXA|-11.0||1|FM15-METAR|223|ICAO-KGXA|||||||1024.4||1|FM15-METAR|223|ICAO-KGXA|160|N-Normal|1|FM15-METAR|223|ICAO-KGXA|3.1|N-Normal|1|FM15-METAR|223|ICAO-KGXA|||||||||||||41|Derived||FM15-METAR|223|ICAO-KGXA|||||||||||||||||||||||||||||||||||||||||||||||||||||||||||||||||||||||||1022.0||1|FM15-METAR|223|ICAO-KGXA|||||||||||||||||||||||||||||||||||||||||||MET081METAR KGXA 090655Z AUTO 16006KT 10SM CLR 01/M11 A3018 RMK AO2 SLP244 T00081106 $;||F||223|ICAO-KGXA
USI0000KGXA|GRAY BUTTE FLD|2011|12|09|08|00|34.5639|-117.6750|920.5|1.0||1|FM15-METAR|223|ICAO-KGXA|-10.0||1|FM15-METAR|223|ICAO-KGXA|||||||1024.0||1|FM15-METAR|223|ICAO-KGXA|160|N-Normal|1|FM15-METAR|223|ICAO-KGXA|2.1|N-Normal|1|FM15-METAR|223|ICAO-KGXA|||||||||||||44|Derived||FM15-METAR|223|ICAO-KGXA|||||||||||||||||||||||||||||||||||||||||||||||||||||||||||||||||||||||||1021.7||1|FM15-METAR|223|ICAO-KGXA|||||||||||||||||||||||||||||||||||||||||||MET092METAR KGXA 090755Z AUTO 16004KT 10SM 01/M10 A3017 RMK AO2 SLP240 T00081105 PWINO PNO TSNO $;||F||223|ICAO-KGXA
USI0000KGXA|GRAY BUTTE FLD|2011|12|12|15|00|34.5639|-117.6750|920.5|0.0||1|FM15-METAR|223|ICAO-KGXA|-2.0||1|FM15-METAR|223|ICAO-KGXA|||||||1012.2||1|FM15-METAR|223|ICAO-KGXA|340|N-Normal|1|FM15-METAR|223|ICAO-KGXA|0.5|N-Normal|1|FM15-METAR|223|ICAO-KGXA|||||||||||||87|Derived||FM15-METAR|223|ICAO-KGXA|||||||||||||||||||||||||||||||||||||||||||BR:10|BR:10-Mist|1|FM15-METAR|223|ICAO-KGXA|||||||||||||||||||||||||1007.1||1|FM15-METAR|223|ICAO-KGXA|||||||||||||||||||||||||||||||||||||||||||MET088METAR KGXA 121455Z AUTO 34001KT 2 1/2SM BR BKN170 00/M02 A2974 RMK AO2 SLP122 T10021017;||F||223|ICAO-KGXA
USI0000KGXA|GRAY BUTTE FLD|2011|12|12|16|00|34.5639|-117.6750|920.5|1.0||1|FM15-METAR|223|ICAO-KGXA|-1.0||1|FM15-METAR|223|ICAO-KGXA|||||||1012.0||1|FM15-METAR|223|ICAO-KGXA|150|N-Normal|1|FM15-METAR|223|ICAO-KGXA|1.0|N-Normal|1|FM15-METAR|223|ICAO-KGXA|||||||||||||87|Derived||FM15-METAR|223|ICAO-KGXA|||||||||||||||||||||||||||||||||||||||||||||||||||||||||||||||||||||||||1007.5||1|FM15-METAR|223|ICAO-KGXA|||||||||||||||||||||||||||||||||||||||||||MET088METAR KGXA 121555Z AUTO 15002KT 4SM FEW060 SCT080 01/M01 A2975 RMK AO2 SLP120 T00081009;||F||223|ICAO-KGXA
USI0000KGXA|GRAY BUTTE FLD|2011|12|12|17|00|34.5639|-117.6750|920.5|3.0||1|FM15-METAR|223|ICAO-KGXA|0.0||1|FM15-METAR|223|ICAO-KGXA|||||||1011.1||1|FM15-METAR|223|ICAO-KGXA|999|C-Calm|9|FM15-METAR|223|ICAO-KGXA|0.0|C-Calm|1|FM15-METAR|223|ICAO-KGXA|||||||||||||81|Derived||FM15-METAR|223|ICAO-KGXA|||||||||||||||||||||||||||||||||||||||||||||||||||||||||||||||||||||||||1007.5||1|FM15-METAR|223|ICAO-KGXA|||||||||||||||||||||||||||||||||||||||||||MET094METAR KGXA 121655Z AUTO 00000KT 9SM SCT080 BKN095 BKN110 03/00 A2975 RMK AO2 SLP111 T00340000;||F||223|ICAO-KGXA
USI0000KGXA|GRAY BUTTE FLD|2011|12|12|18|00|34.5639|-117.6750|920.5|5.0||1|FM15-METAR|223|ICAO-KGXA|0.0||1|FM15-METAR|223|ICAO-KGXA|||||||1010.3||1|FM15-METAR|223|ICAO-KGXA|310|N-Normal|1|FM15-METAR|223|ICAO-KGXA|1.0|N-Normal|1|FM15-METAR|223|ICAO-KGXA|||||||||||||70|Derived||FM15-METAR|223|ICAO-KGXA|||||||||||||||||||||||||||||||||||||||||||||||||||||||||||||||||||||||||1007.5||1|FM15-METAR|223|ICAO-KGXA|0.2|2-Incr-(st|1|FM15-METAR|223|ICAO-KGXA|||||||||||||||||||||||||||||||||||||MET094METAR KGXA 121755Z AUTO 31002KT 10SM FEW060 BKN075 05/00 A2975 RMK AO2 SLP103 T00481004 52002;||F||223|ICAO-KGXA
USI0000KGXA|GRAY BUTTE FLD|2011|12|12|19|00|34.5639|-117.6750|920.5|5.0||1|FM15-METAR|223|ICAO-KGXA|0.0||1|FM15-METAR|223|ICAO-KGXA|||||||1010.0||1|FM15-METAR|223|ICAO-KGXA|270|N-Normal|1|FM15-METAR|223|ICAO-KGXA|2.6|N-Normal|1|FM15-METAR|223|ICAO-KGXA|||||||||||||70|Derived||FM15-METAR|223|ICAO-KGXA|||||||||||||||||||||||||||||||||||||||||||SHRA:81|SHRA:81-Ra|1|FM15-METAR|223|ICAO-KGXA|||||||||||||||||||||||||1007.1||1|FM15-METAR|223|ICAO-KGXA|||||||||||||||||||||||||||||||||||||||||||MET178METAR KGXA 121855Z AUTO 27005KT 10SM -SHRA BKN042 BKN049 05/00 A2974 RMK AO2 RAB1817RAE1819DZB1819DZE1821SHRAB1821SHRAE1832DZB1832DZE1833RAB1853RAE1854SHRAB1854 SLP100 T00510001;||F||223|ICAO-KGXA
USI0000KGXA|GRAY BUTTE FLD|2011|12|12|20|00|34.5639|-117.6750|920.5|5.0||1|FM15-METAR|223|ICAO-KGXA|1.0||1|FM15-METAR|223|ICAO-KGXA|||||||1009.5||1|FM15-METAR|223|ICAO-KGXA|290|N-Normal|1|FM15-METAR|223|ICAO-KGXA|2.1|N-Normal|1|FM15-METAR|223|ICAO-KGXA|||||||||||||76|Derived||FM15-METAR|223|ICAO-KGXA|||||||||||||||||||||||||||||||||||||||||||SHRA:81|SHRA:81-Ra|1|FM15-METAR|223|ICAO-KGXA|||||||||||||||||||||||||1006.4||1|FM15-METAR|223|ICAO-KGXA|||||||||||||||||||||||||||||||||||||||||||MET115METAR KGXA 121955Z AUTO 29004KT 10SM -SHRA SCT039 OVC048 05/01 A2972 RMK AO2 SHRAE1917SHRAB1952 SLP095 T00470008 $;||F||223|ICAO-KGXA
USI0000KGXA|GRAY BUTTE FLD|2011|12|12|21|00|34.5639|-117.6750|920.5|4.0||1|FM15-METAR|223|ICAO-KGXA|1.0||1|FM15-METAR|223|ICAO-KGXA|||||||1009.8||1|FM15-METAR|223|ICAO-KGXA|150|N-Normal|1|FM15-METAR|223|ICAO-KGXA|0.5|N-Normal|1|FM15-METAR|223|ICAO-KGXA|||||||0.5|9-Missing|9|FM15-METAR|223|ICAO-KGXA|81|Derived||FM15-METAR|223|ICAO-KGXA|||||||||||||||||||||||||||||||||||||||||||RA:61|RA:61-Rain|1|FM15-METAR|223|ICAO-KGXA|||||||||||||||||||||||||1006.4||1|FM15-METAR|223|ICAO-KGXA|-0.8|7-Decr-(st|1|FM15-METAR|223|ICAO-KGXA|||||||||||||||||||||||||||||||||||||MET120METAR KGXA 122055Z AUTO 15001KT 5SM -RA CLR 04/01 A2972 RMK AO2 -1SHRAE2052RAB2052 SLP098 P0002 60002 T00400009 57008 $;||F||223|ICAO-KGXA
USI0000KGXA|GRAY BUTTE FLD|2011|12|12|22|00|34.5639|-117.6750|920.5|2.0||1|FM15-METAR|223|ICAO-KGXA|1.0||1|FM15-METAR|223|ICAO-KGXA|||||||1010.7||1|FM15-METAR|223|ICAO-KGXA|140|N-Normal|1|FM15-METAR|223|ICAO-KGXA|2.6|N-Normal|1|FM15-METAR|223|ICAO-KGXA|||||||2.0|9-Missing|9|FM15-METAR|223|ICAO-KGXA|93|Derived||FM15-METAR|223|ICAO-KGXA|||||||||||||||||||||||||||||||||||||||||||RA:61|RA:61-Rain|1|FM15-METAR|223|ICAO-KGXA|||||||||||||||||||||||||1006.8||1|FM15-METAR|223|ICAO-KGXA|||||||||||||||||||||||||||||||||||||||||||MET106METAR KGXA 122155Z AUTO 14005KT 3SM -RA FEW010 SCT015 OVC018 02/01 A2973 RMK AO2 SLP107 P0008 T00240009 $;||F||223|ICAO-KGXA
USI0000KGXA|GRAY BUTTE FLD|2011|12|12|23|00|34.5639|-117.6750|920.5|2.0||1|FM15-METAR|223|ICAO-KGXA|0.0||1|FM15-METAR|223|ICAO-KGXA|||||||1011.3||1|FM15-METAR|223|ICAO-KGXA|200|N-Normal|1|FM15-METAR|223|ICAO-KGXA|1.5|N-Normal|1|FM15-METAR|223|ICAO-KGXA|||||||1.5|9-Missing|9|FM15-METAR|223|ICAO-KGXA|87|Derived||FM15-METAR|223|ICAO-KGXA|||||||||||||||||||||||||||||||||||||||||||||||||||||||||||||||||||||||||1007.1||1|FM15-METAR|223|ICAO-KGXA|||||||||||||||||||||||||||||||||||||||||||MET096METAR KGXA 122255Z AUTO 20003KT 3SM 02/00 A2974 RMK AO2 SLP113 P0006 T00160004 PWINO PNO TSNO $;||F||223|ICAO-KGXA
USI0000KGXA|GRAY BUTTE FLD|2011|12|13|19|00|34.5639|-117.6750|920.5|5.0||1|FM15-METAR|223|ICAO-KGXA|3.0||1|FM15-METAR|223|ICAO-KGXA|||||||1017.2||1|FM15-METAR|223|ICAO-KGXA|110|N-Normal|1|FM15-METAR|223|ICAO-KGXA|0.5|N-Normal|1|FM15-METAR|223|ICAO-KGXA|||||||||||||87|Derived||FM15-METAR|223|ICAO-KGXA|||||||||||||||||||||||||||||||||||||||||||||||||||||||||||||||||||||||||1014.2||1|FM15-METAR|223|ICAO-KGXA|||||||||||||||||||||||||||||||||||||||||||MET095METAR KGXA 131855Z AUTO 11001KT 10SM FEW007 BKN044 BKN050 05/03 A2995 RMK AO2 SLP172 T00520032;||F||223|ICAO-KGXA
USI0000KGXA|GRAY BUTTE FLD|2011|12|13|20|00|34.5639|-117.6750|920.5|6.0||1|FM15-METAR|223|ICAO-KGXA|3.0||1|FM15-METAR|223|ICAO-KGXA|||||||1016.4||1|FM15-METAR|223|ICAO-KGXA|999|C-Calm|9|FM15-METAR|223|ICAO-KGXA|0.0|C-Calm|1|FM15-METAR|223|ICAO-KGXA|||||||||||||81|Derived||FM15-METAR|223|ICAO-KGXA|||||||||||||||||||||||||||||||||||||||||||||||||||||||||||||||||||||||||1013.9||1|FM15-METAR|223|ICAO-KGXA|||||||||||||||||||||||||||||||||||||||||||MET102METAR KGXA 131955Z AUTO 00000KT 10SM FEW009 SCT015 BKN019 BKN049 06/03 A2994 RMK AO2 SLP164 T00620033;||F||223|ICAO-KGXA
USI0000KGXA|GRAY BUTTE FLD|2011|12|13|21|00|34.5639|-117.6750|920.5|7.0||1|FM15-METAR|223|ICAO-KGXA|3.0||1|FM15-METAR|223|ICAO-KGXA|||||||1015.7||1|FM15-METAR|223|ICAO-KGXA|310|N-Normal|1|FM15-METAR|223|ICAO-KGXA|1.5|N-Normal|1|FM15-METAR|223|ICAO-KGXA|||||||||||||76|Derived||FM15-METAR|223|ICAO-KGXA|||||||||||||||||||||||||||||||||||||||||||||||||||||||||||||||||||||||||1013.2||1|FM15-METAR|223|ICAO-KGXA|-1.0|7-Decr-(st|1|FM15-METAR|223|ICAO-KGXA|||||||||||||||||||||||||||||||||||||MET101METAR KGXA 132055Z AUTO 31003KT 10SM FEW015 SCT030 BKN050 07/03 A2992 RMK AO2 SLP157 T00660025 57010;||F||223|ICAO-KGXA
USI0000KGXA|GRAY BUTTE FLD|2011|12|13|22|00|34.5639|-117.6750|920.5|7.0||1|FM15-METAR|223|ICAO-KGXA|2.0||1|FM15-METAR|223|ICAO-KGXA|||||||1015.3||1|FM15-METAR|223|ICAO-KGXA|280|N-Normal|1|FM15-METAR|223|ICAO-KGXA|2.1|N-Normal|1|FM15-METAR|223|ICAO-KGXA|||||||||||||71|Derived||FM15-METAR|223|ICAO-KGXA|||||||||||||||||||||||||||||||||||||||||||||||||||||||||||||||||||||||||1013.2||1|FM15-METAR|223|ICAO-KGXA|||||||||||||||||||||||||||||||||||||||||||MET081METAR KGXA 132155Z AUTO 28004KT 10SM BKN043 07/02 A2992 RMK AO2 SLP153 T00670022;||F||223|ICAO-KGXA
USI0000KGXA|GRAY BUTTE FLD|2011|12|13|23|00|34.5639|-117.6750|920.5|8.0||1|FM15-METAR|223|ICAO-KGXA|1.0||1|FM15-METAR|223|ICAO-KGXA|||||||1015.4||1|FM15-METAR|223|ICAO-KGXA|270|N-Normal|1|FM15-METAR|223|ICAO-KGXA|1.0|N-Normal|1|FM15-METAR|223|ICAO-KGXA|||||||||||||62|Derived||FM15-METAR|223|ICAO-KGXA|||||||||||||||||||||||||||||||||||||||||||||||||||||||||||||||||||||||||1013.5||1|FM15-METAR|223|ICAO-KGXA|||||||||||||||||||||||||||||||||||||||||||MET078METAR KGXA 132255Z AUTO 27002KT 10SM CLR 08/01 A2993 RMK AO2 SLP154 T00780010;||F||223|ICAO-KGXA
USI0000KGXA|GRAY BUTTE FLD|2011|12|14|00|00|34.5639|-117.6750|920.5|7.0||1|FM15-METAR|223|ICAO-KGXA|1.0||1|FM15-METAR|223|ICAO-KGXA|||||||1016.0||1|FM15-METAR|223|ICAO-KGXA|240|N-Normal|1|FM15-METAR|223|ICAO-KGXA|1.0|N-Normal|1|FM15-METAR|223|ICAO-KGXA|||||||||||||66|Derived||FM15-METAR|223|ICAO-KGXA|||||||||||||||||||||||||||||||||||||||||||||||||||||||||||||||||||||||||1013.9||1|FM15-METAR|223|ICAO-KGXA|0.5|3-Decr-or-|1|FM15-METAR|223|ICAO-KGXA|||||||||||||||||||||||||||||||||||||MET109METAR KGXA 132355Z AUTO 24002KT 10SM BKN050 07/01 A2994 RMK AO2 SLP160 T00730005 10043 20023 400800045 53005;||F||223|ICAO-KGXA
USI0000KGXA|GRAY BUTTE FLD|2011|12|14|01|00|34.5639|-117.6750|920.5|5.0||1|FM15-METAR|223|ICAO-KGXA|2.0||1|FM15-METAR|223|ICAO-KGXA|||||||1017.6||1|FM15-METAR|223|ICAO-KGXA|210|N-Normal|1|FM15-METAR|223|ICAO-KGXA|0.5|N-Normal|1|FM15-METAR|223|ICAO-KGXA|||||||||||||81|Derived||FM15-METAR|223|ICAO-KGXA|||||||||||||||||||||||||||||||||||||||||||||||||||||||||||||||||||||||||1014.2||1|FM15-METAR|223|ICAO-KGXA|||||||||||||||||||||||||||||||||||||||||||MET083METAR KGXA 140055Z AUTO 21001KT 10SM FEW050 05/02 A2995 RMK AO2 SLP176 T00540016 $;||F||223|ICAO-KGXA
USI0000KGXA|GRAY BUTTE FLD|2011|12|14|02|00|34.5639|-117.6750|920.5|4.0||1|FM15-METAR|223|ICAO-KGXA|1.0||1|FM15-METAR|223|ICAO-KGXA|||||||1018.8||1|FM15-METAR|223|ICAO-KGXA|190|N-Normal|1|FM15-METAR|223|ICAO-KGXA|1.5|N-Normal|1|FM15-METAR|223|ICAO-KGXA|||||||||||||81|Derived||FM15-METAR|223|ICAO-KGXA|||||||||||||||||||||||||||||||||||||||||||||||||||||||||||||||||||||||||1014.9||1|FM15-METAR|223|ICAO-KGXA|||||||||||||||||||||||||||||||||||||||||||MET080METAR KGXA 140155Z AUTO 19003KT 10SM CLR 04/01 A2997 RMK AO2 SLP188 T00350010 $;||F||223|ICAO-KGXA
USI0000KGXA|GRAY BUTTE FLD|2011|12|14|03|00|34.5639|-117.6750|920.5|2.0||1|FM15-METAR|223|ICAO-KGXA|0.0||1|FM15-METAR|223|ICAO-KGXA|||||||1019.7||1|FM15-METAR|223|ICAO-KGXA|180|N-Normal|1|FM15-METAR|223|ICAO-KGXA|2.1|N-Normal|1|FM15-METAR|223|ICAO-KGXA|||||||||||||87|Derived||FM15-METAR|223|ICAO-KGXA|||||||||||||||||||||||||||||||||||||||||||||||||||||||||||||||||||||||||1015.6||1|FM15-METAR|223|ICAO-KGXA|1.5|2-Incr-(st|1|FM15-METAR|223|ICAO-KGXA|||||||||||||||||||||||||||||||||||||MET086METAR KGXA 140255Z AUTO 18004KT 10SM CLR 02/00 A2999 RMK AO2 SLP197 T00190001 52015 $;||F||223|ICAO-KGXA
USI0000KGXA|GRAY BUTTE FLD|2011|12|14|15|00|34.5639|-117.6750|920.5|-1.0||1|FM15-METAR|223|ICAO-KGXA|-4.0||1|FM15-METAR|223|ICAO-KGXA|||||||1026.7||1|FM15-METAR|223|ICAO-KGXA|170|N-Normal|1|FM15-METAR|223|ICAO-KGXA|1.5|N-Normal|1|FM15-METAR|223|ICAO-KGXA|||||||||||||80|Derived||FM15-METAR|223|ICAO-KGXA|||||||||||||||||||||||||||||||||||||||||||||||||||||||||||||||||||||||||1021.3||1|FM15-METAR|223|ICAO-KGXA|2.2|3-Decr-or-|1|FM15-METAR|223|ICAO-KGXA|||||||||||||||||||||||||||||||||||||MET086METAR KGXA 141455Z AUTO 17003KT 10SM CLR M01/M04 A3016 RMK AO2 SLP267 T10101036 53022;||F||223|ICAO-KGXA
USI0000KGXA|GRAY BUTTE FLD|2011|12|14|16|00|34.5639|-117.6750|920.5|2.0||1|FM15-METAR|223|ICAO-KGXA|-2.0||1|FM15-METAR|223|ICAO-KGXA|||||||1027.3||1|FM15-METAR|223|ICAO-KGXA|180|N-Normal|1|FM15-METAR|223|ICAO-KGXA|1.5|N-Normal|1|FM15-METAR|223|ICAO-KGXA|||||||||||||75|Derived||FM15-METAR|223|ICAO-KGXA|||||||||||||||||||||||||||||||||||||||||||||||||||||||||||||||||||||||||1022.4||1|FM15-METAR|223|ICAO-KGXA|||||||||||||||||||||||||||||||||||||||||||MET079METAR KGXA 141555Z AUTO 18003KT 10SM CLR 02/M02 A3019 RMK AO2 SLP273 T00151023;||F||223|ICAO-KGXA
USI0000KGXA|GRAY BUTTE FLD|2011|12|14|17|00|34.5639|-117.6750|920.5|6.0||1|FM15-METAR|223|ICAO-KGXA|-1.0||1|FM15-METAR|223|ICAO-KGXA|||||||1027.1||1|FM15-METAR|223|ICAO-KGXA|190|N-Normal|1|FM15-METAR|223|ICAO-KGXA|0.5|N-Normal|1|FM15-METAR|223|ICAO-KGXA|||||||||||||61|Derived||FM15-METAR|223|ICAO-KGXA|||||||||||||||||||||||||||||||||||||||||||||||||||||||||||||||||||||||||1023.0||1|FM15-METAR|223|ICAO-KGXA|||||||||||||||||||||||||||||||||||||||||||MET079METAR KGXA 141655Z AUTO 19001KT 10SM CLR 06/M01 A3021 RMK AO2 SLP271 T00591012;||F||223|ICAO-KGXA
USI0000KGXA|GRAY BUTTE FLD|2011|12|14|18|00|34.5639|-117.6750|920.5|8.0||1|FM15-METAR|223|ICAO-KGXA|-1.0||1|FM15-METAR|223|ICAO-KGXA|||||||1027.1||1|FM15-METAR|223|ICAO-KGXA|250|N-Normal|1|FM15-METAR|223|ICAO-KGXA|1.5|N-Normal|1|FM15-METAR|223|ICAO-KGXA|||||||||||||53|Derived||FM15-METAR|223|ICAO-KGXA|||||||||||||||||||||||||||||||||||||||||||||||||||||||||||||||||||||||||1023.7||1|FM15-METAR|223|ICAO-KGXA|2.0|1-Incr-the|1|FM15-METAR|223|ICAO-KGXA|||||||||||||||||||||||||||||||||||||MET104METAR KGXA 141755Z AUTO 25003KT 10SM CLR 08/M01 A3023 RMK AO2 SLP271 T00781012 10015 21005 51020 TSNO $;||F||223|ICAO-KGXA
USI0000KGXA|GRAY BUTTE FLD|2011|12|14|19|00|34.5639|-117.6750|920.5|8.0||1|FM15-METAR|223|ICAO-KGXA|-1.0||1|FM15-METAR|223|ICAO-KGXA|||||||1026.9||1|FM15-METAR|223|ICAO-KGXA|320|N-Normal|1|FM15-METAR|223|ICAO-KGXA|2.6|N-Normal|1|FM15-METAR|223|ICAO-KGXA|||||||||||||53|Derived||FM15-METAR|223|ICAO-KGXA|||||||||||||||||||||||||||||||||||||||||||||||||||||||||||||||||||||||||1023.4||1|FM15-METAR|223|ICAO-KGXA|||||||||||||||||||||||||||||||||||||||||||MET079METAR KGXA 141855Z AUTO 32005KT 10SM CLR 08/M01 A3022 RMK AO2 SLP269 T00801012;||F||223|ICAO-KGXA
USI0000KGXA|GRAY BUTTE FLD|2011|12|14|20|00|34.5639|-117.6750|920.5|9.0||1|FM15-METAR|223|ICAO-KGXA|0.0||1|FM15-METAR|223|ICAO-KGXA|||||||1026.3||1|FM15-METAR|223|ICAO-KGXA|320|N-Normal|1|FM15-METAR|223|ICAO-KGXA|1.5|N-Normal|1|FM15-METAR|223|ICAO-KGXA|||||||||||||54|Derived||FM15-METAR|223|ICAO-KGXA|||||||||||||||||||||||||||||||||||||||||||||||||||||||||||||||||||||||||1022.7||1|FM15-METAR|223|ICAO-KGXA|||||||||||||||||||||||||||||||||||||||||||MET078METAR KGXA 141955Z AUTO 32003KT 10SM CLR 09/00 A3020 RMK AO2 SLP263 T00880000;||F||223|ICAO-KGXA
USI0000KGXA|GRAY BUTTE FLD|2011|12|14|21|00|34.5639|-117.6750|920.5|10.0||1|FM15-METAR|223|ICAO-KGXA|-2.0||1|FM15-METAR|223|ICAO-KGXA|||||||1026.1||1|FM15-METAR|223|ICAO-KGXA|320|N-Normal|1|FM15-METAR|223|ICAO-KGXA|1.5|N-Normal|1|FM15-METAR|223|ICAO-KGXA|||||||||||||43|Derived||FM15-METAR|223|ICAO-KGXA|||||||||||||||||||||||||||||||||||||||||||||||||||||||||||||||||||||||||1023.0||1|FM15-METAR|223|ICAO-KGXA|-0.7|5-Decr,-th|1|FM15-METAR|223|ICAO-KGXA|||||||||||||||||||||||||||||||||||||MET085METAR KGXA 142055Z AUTO 32003KT 10SM CLR 10/M02 A3021 RMK AO2 SLP261 T00961017 55007;||F||223|ICAO-KGXA
USI0000KGXA|GRAY BUTTE FLD|2011|12|14|22|00|34.5639|-117.6750|920.5|10.0||1|FM15-METAR|223|ICAO-KGXA|-2.0||1|FM15-METAR|223|ICAO-KGXA|||||||1026.1||1|FM15-METAR|223|ICAO-KGXA|300|N-Normal|1|FM15-METAR|223|ICAO-KGXA|1.0|N-Normal|1|FM15-METAR|223|ICAO-KGXA|||||||||||||43|Derived||FM15-METAR|223|ICAO-KGXA|||||||||||||||||||||||||||||||||||||||||||||||||||||||||||||||||||||||||1023.0||1|FM15-METAR|223|ICAO-KGXA|||||||||||||||||||||||||||||||||||||||||||MET089METAR KGXA 142155Z AUTO 30002KT 10SM FEW240 10/M02 A3021 RMK AO2 SLP261 T01011016 TSNO $;||F||223|ICAO-KGXA
USI0000KGXA|GRAY BUTTE FLD|2011|12|14|23|00|34.5639|-117.6750|920.5|10.0||1|FM15-METAR|223|ICAO-KGXA|-2.0||1|FM15-METAR|223|ICAO-KGXA|||||||1025.9||1|FM15-METAR|223|ICAO-KGXA|190|N-Normal|1|FM15-METAR|223|ICAO-KGXA|0.5|N-Normal|1|FM15-METAR|223|ICAO-KGXA|||||||||||||43|Derived||FM15-METAR|223|ICAO-KGXA|||||||||||||||||||||||||||||||||||||||||||||||||||||||||||||||||||||||||1022.7||1|FM15-METAR|223|ICAO-KGXA|||||||||||||||||||||||||||||||||||||||||||MET079METAR KGXA 142255Z AUTO 19001KT 10SM CLR 10/M02 A3020 RMK AO2 SLP259 T01031020;||F||223|ICAO-KGXA
USI0000KGXA|GRAY BUTTE FLD|2011|12|15|00|00|34.5639|-117.6750|920.5|10.0||1|FM15-METAR|223|ICAO-KGXA|-1.0||1|FM15-METAR|223|ICAO-KGXA|||||||1026.2||1|FM15-METAR|223|ICAO-KGXA|270|N-Normal|1|FM15-METAR|223|ICAO-KGXA|1.0|N-Normal|1|FM15-METAR|223|ICAO-KGXA|||||||||||||47|Derived||FM15-METAR|223|ICAO-KGXA|||||||||||||||||||||||||||||||||||||||||||||||||||||||||||||||||||||||||1022.7||1|FM15-METAR|223|ICAO-KGXA|-0.2|7-Decr-(st|1|FM15-METAR|223|ICAO-KGXA|||||||||||||||||||||||||||||||||||||MET107METAR KGXA 142355Z AUTO 27002KT 10SM CLR 10/M01 A3020 RMK AO2 SLP262 T00971010 10080 21010 401101010 57002;||F||223|ICAO-KGXA
USI0000KGXA|GRAY BUTTE FLD|2011|12|15|01|00|34.5639|-117.6750|920.5|7.0||1|FM15-METAR|223|ICAO-KGXA|0.0||1|FM15-METAR|223|ICAO-KGXA|||||||1026.5||1|FM15-METAR|223|ICAO-KGXA|270|N-Normal|1|FM15-METAR|223|ICAO-KGXA|0.5|N-Normal|1|FM15-METAR|223|ICAO-KGXA|||||||||||||61|Derived||FM15-METAR|223|ICAO-KGXA|||||||||||||||||||||||||||||||||||||||||||||||||||||||||||||||||||||||||1022.7||1|FM15-METAR|223|ICAO-KGXA|||||||||||||||||||||||||||||||||||||||||||MET080METAR KGXA 150055Z AUTO 27001KT 10SM CLR 07/00 A3020 RMK AO2 SLP265 T00700002 $;||F||223|ICAO-KGXA
USI0000KGXA|GRAY BUTTE FLD|2011|12|15|02|00|34.5639|-117.6750|920.5|3.0||1|FM15-METAR|223|ICAO-KGXA|0.0||1|FM15-METAR|223|ICAO-KGXA|||||||1027.8||1|FM15-METAR|223|ICAO-KGXA|180|N-Normal|1|FM15-METAR|223|ICAO-KGXA|2.1|N-Normal|1|FM15-METAR|223|ICAO-KGXA|||||||||||||81|Derived||FM15-METAR|223|ICAO-KGXA|||||||||||||||||||||||||||||||||||||||||||||||||||||||||||||||||||||||||1023.0||1|FM15-METAR|223|ICAO-KGXA|||||||||||||||||||||||||||||||||||||||||||MET080METAR KGXA 150155Z AUTO 18004KT 10SM CLR 03/00 A3021 RMK AO2 SLP278 T00290000 $;||F||223|ICAO-KGXA
USI0000KGXA|GRAY BUTTE FLD|2011|12|15|03|00|34.5639|-117.6750|920.5|2.0||1|FM15-METAR|223|ICAO-KGXA|-1.0||1|FM15-METAR|223|ICAO-KGXA|||||||1028.2||1|FM15-METAR|223|ICAO-KGXA|170|N-Normal|1|FM15-METAR|223|ICAO-KGXA|2.6|N-Normal|1|FM15-METAR|223|ICAO-KGXA|||||||||||||81|Derived||FM15-METAR|223|ICAO-KGXA|||||||||||||||||||||||||||||||||||||||||||||||||||||||||||||||||||||||||1023.0||1|FM15-METAR|223|ICAO-KGXA|0.2|2-Incr-(st|1|FM15-METAR|223|ICAO-KGXA|||||||||||||||||||||||||||||||||||||MET087METAR KGXA 150255Z AUTO 17005KT 10SM CLR 02/M01 A3021 RMK AO2 SLP282 T00181011 52002 $;||F||223|ICAO-KGXA
USI0000KGXA|GRAY BUTTE FLD|2011|12|15|04|00|34.5639|-117.6750|920.5|1.0||1|FM15-METAR|223|ICAO-KGXA|-2.0||1|FM15-METAR|223|ICAO-KGXA|||||||1028.2||1|FM15-METAR|223|ICAO-KGXA|170|N-Normal|1|FM15-METAR|223|ICAO-KGXA|2.6|N-Normal|1|FM15-METAR|223|ICAO-KGXA|||||||||||||81|Derived||FM15-METAR|223|ICAO-KGXA|||||||||||||||||||||||||||||||||||||||||||||||||||||||||||||||||||||||||1023.4||1|FM15-METAR|223|ICAO-KGXA|||||||||||||||||||||||||||||||||||||||||||MET081METAR KGXA 150355Z AUTO 17005KT 10SM CLR 01/M02 A3022 RMK AO2 SLP282 T00091024 $;||F||223|ICAO-KGXA
USI0000KGXA|GRAY BUTTE FLD|2011|12|15|05|00|34.5639|-117.6750|920.5|1.0||1|FM15-METAR|223|ICAO-KGXA|-3.0||1|FM15-METAR|223|ICAO-KGXA|||||||1027.5||1|FM15-METAR|223|ICAO-KGXA|170|N-Normal|1|FM15-METAR|223|ICAO-KGXA|2.6|N-Normal|1|FM15-METAR|223|ICAO-KGXA|||||||||||||75|Derived||FM15-METAR|223|ICAO-KGXA|||||||||||||||||||||||||||||||||||||||||||||||||||||||||||||||||||||||||1023.7||1|FM15-METAR|223|ICAO-KGXA|||||||||||||||||||||||||||||||||||||||||||MET081METAR KGXA 150455Z AUTO 17005KT 10SM CLR 01/M03 A3023 RMK AO2 SLP275 T00061029 $;||F||223|ICAO-KGXA
USI0000KGXA|GRAY BUTTE FLD|2011|12|15|06|00|34.5639|-117.6750|920.5|1.0||1|FM15-METAR|223|ICAO-KGXA|-3.0||1|FM15-METAR|223|ICAO-KGXA|||||||1026.9||1|FM15-METAR|223|ICAO-KGXA|160|N-Normal|1|FM15-METAR|223|ICAO-KGXA|2.6|N-Normal|1|FM15-METAR|223|ICAO-KGXA|||||||||||||75|Derived||FM15-METAR|223|ICAO-KGXA|||||||||||||||||||||||||||||||||||||||||||||||||||||||||||||||||||||||||1023.4||1|FM15-METAR|223|ICAO-KGXA|0.3|0-Incr-the|1|FM15-METAR|223|ICAO-KGXA|||||||||||||||||||||||||||||||||||||MET099METAR KGXA 150555Z AUTO 16005KT 10SM CLR 01/M03 A3022 RMK AO2 SLP269 T00061034 10110 20076 50003 $;||F||223|ICAO-KGXA
USI0000KGXA|GRAY BUTTE FLD|2011|12|15|07|00|34.5639|-117.6750|920.5|0.0||1|FM15-METAR|223|ICAO-KGXA|-4.0||1|FM15-METAR|223|ICAO-KGXA|||||||1026.8||1|FM15-METAR|223|ICAO-KGXA|170|N-Normal|1|FM15-METAR|223|ICAO-KGXA|2.6|N-Normal|1|FM15-METAR|223|ICAO-KGXA|||||||||||||75|Derived||FM15-METAR|223|ICAO-KGXA|||||||||||||||||||||||||||||||||||||||||||||||||||||||||||||||||||||||||1023.0||1|FM15-METAR|223|ICAO-KGXA|||||||||||||||||||||||||||||||||||||||||||MET084METAR KGXA 150655Z AUTO 17005KT 10SM FEW240 00/M04 A3021 RMK AO2 SLP268 T00021039 $;||F||223|ICAO-KGXA
USI0000KGXA|GRAY BUTTE FLD|2011|12|15|08|00|34.5639|-117.6750|920.5|-1.0||1|FM15-METAR|223|ICAO-KGXA|-4.0||1|FM15-METAR|223|ICAO-KGXA|||||||1026.5||1|FM15-METAR|223|ICAO-KGXA|200|N-Normal|1|FM15-METAR|223|ICAO-KGXA|2.1|N-Normal|1|FM15-METAR|223|ICAO-KGXA|||||||||||||80|Derived||FM15-METAR|223|ICAO-KGXA|||||||||||||||||||||||||||||||||||||||||||||||||||||||||||||||||||||||||1023.0||1|FM15-METAR|223|ICAO-KGXA|||||||||||||||||||||||||||||||||||||||||||MET082METAR KGXA 150755Z AUTO 20004KT 10SM CLR M01/M04 A3021 RMK AO2 SLP265 T10061042 $;||F||223|ICAO-KGXA
USI0000KGXA|GRAY BUTTE FLD|2011|12|15|09|00|34.5639|-117.6750|920.5|0.0||1|FM15-METAR|223|ICAO-KGXA|-4.0||1|FM15-METAR|223|ICAO-KGXA|||||||1025.6||1|FM15-METAR|223|ICAO-KGXA|170|N-Normal|1|FM15-METAR|223|ICAO-KGXA|2.6|N-Normal|1|FM15-METAR|223|ICAO-KGXA|||||||||||||75|Derived||FM15-METAR|223|ICAO-KGXA|||||||||||||||||||||||||||||||||||||||||||||||||||||||||||||||||||||||||1022.4||1|FM15-METAR|223|ICAO-KGXA|-1.0|8-Steady-o|1|FM15-METAR|223|ICAO-KGXA|||||||||||||||||||||||||||||||||||||MET090METAR KGXA 150855Z AUTO 17005KT 10SM FEW240 00/M04 A3019 RMK AO2 SLP256 T10031044 58010 $;||F||223|ICAO-KGXA
USI0000KGXA|GRAY BUTTE FLD|2011|12|15|10|00|34.5639|-117.6750|920.5|-1.0||1|FM15-METAR|223|ICAO-KGXA|-5.0||1|FM15-METAR|223|ICAO-KGXA|||||||1025.4||1|FM15-METAR|223|ICAO-KGXA|170|N-Normal|1|FM15-METAR|223|ICAO-KGXA|2.6|N-Normal|1|FM15-METAR|223|ICAO-KGXA|||||||||||||75|Derived||FM15-METAR|223|ICAO-KGXA|||||||||||||||||||||||||||||||||||||||||||||||||||||||||||||||||||||||||1022.0||1|FM15-METAR|223|ICAO-KGXA|||||||||||||||||||||||||||||||||||||||||||MET078METAR KGXA 150955Z AUTO 17005KT 10SM M01/M05 A3018 RMK AO2 SLP254 T10061051 $;||F||223|ICAO-KGXA
USI0000KGXA|GRAY BUTTE FLD|2011|12|15|11|00|34.5639|-117.6750|920.5|-1.0||1|FM15-METAR|223|ICAO-KGXA|-6.0||1|FM15-METAR|223|ICAO-KGXA|||||||1024.1||1|FM15-METAR|223|ICAO-KGXA|180|N-Normal|1|FM15-METAR|223|ICAO-KGXA|2.1|N-Normal|1|FM15-METAR|223|ICAO-KGXA|||||||||||||69|Derived||FM15-METAR|223|ICAO-KGXA|||||||||||||||||||||||||||||||||||||||||||||||||||||||||||||||||||||||||1021.0||1|FM15-METAR|223|ICAO-KGXA|||||||||||||||||||||||||||||||||||||||||||MET078METAR KGXA 151055Z AUTO 18004KT 10SM M01/M06 A3015 RMK AO2 SLP241 T10061056 $;||F||223|ICAO-KGXA
USI0000KGXA|GRAY BUTTE FLD|2011|12|15|12|00|34.5639|-117.6750|920.5|-1.0||1|FM15-METAR|223|ICAO-KGXA|-6.0||1|FM15-METAR|223|ICAO-KGXA|||||||1023.5||1|FM15-METAR|223|ICAO-KGXA|180|N-Normal|1|FM15-METAR|223|ICAO-KGXA|1.5|N-Normal|1|FM15-METAR|223|ICAO-KGXA|||||||||||||69|Derived||FM15-METAR|223|ICAO-KGXA|||||||||||||||||||||||||||||||||||||||||||||||||||||||||||||||||||||||||1020.0||1|FM15-METAR|223|ICAO-KGXA|-2.0|8-Steady-o|1|FM15-METAR|223|ICAO-KGXA|||||||||||||||||||||||||||||||||||||MET096METAR KGXA 151155Z AUTO 18003KT 10SM M01/M06 A3012 RMK AO2 SLP235 T10121059 10098 20005 58020 $;||F||223|ICAO-KGXA
USI0000KGXA|GRAY BUTTE FLD|2011|12|15|13|00|34.5639|-117.6750|920.5|0.0||1|FM15-METAR|223|ICAO-KGXA|-6.0||1|FM15-METAR|223|ICAO-KGXA|||||||1023.0||1|FM15-METAR|223|ICAO-KGXA|160|N-Normal|1|FM15-METAR|223|ICAO-KGXA|2.6|N-Normal|1|FM15-METAR|223|ICAO-KGXA|||||||||||||64|Derived||FM15-METAR|223|ICAO-KGXA|||||||||||||||||||||||||||||||||||||||||||||||||||||||||||||||||||||||||1019.3||1|FM15-METAR|223|ICAO-KGXA|||||||||||||||||||||||||||||||||||||||||||MET077METAR KGXA 151255Z AUTO 16005KT 10SM 00/M06 A3010 RMK AO2 SLP230 T00021058 $;||F||223|ICAO-KGXA
USI0000KGXA|GRAY BUTTE FLD|2011|12|15|14|00|34.5639|-117.6750|920.5|-1.0||1|FM15-METAR|223|ICAO-KGXA|-5.0||1|FM15-METAR|223|ICAO-KGXA|||||||1025.6||1|FM15-METAR|223|ICAO-KGXA|170|N-Normal|1|FM15-METAR|223|ICAO-KGXA|2.1|N-Normal|1|FM15-METAR|223|ICAO-KGXA|||||||||||||75|Derived||FM15-METAR|223|ICAO-KGXA|||||||||||||||||||||||||||||||||||||||||||||||||||||||||||||||||||||||||1020.7||1|FM15-METAR|223|ICAO-KGXA|||||||||||||||||||||||||||||||||||||||||||MET083METAR KGXA 151355Z AUTO 17004KT 10SM BKN160 M01/M05 A3014 RMK AO2 SLP256 T10111053;||F||223|ICAO-KGXA
USI0000KGXA|GRAY BUTTE FLD|2011|12|15|15|00|34.5639|-117.6750|920.5|3.0||1|FM15-METAR|223|ICAO-KGXA|-2.0||1|FM15-METAR|223|ICAO-KGXA|||||||1024.8||1|FM15-METAR|223|ICAO-KGXA|190|N-Normal|1|FM15-METAR|223|ICAO-KGXA|1.5|N-Normal|1|FM15-METAR|223|ICAO-KGXA|||||||||||||70|Derived||FM15-METAR|223|ICAO-KGXA|||||||||||||||||||||||||||||||||||||||||||||||||||||||||||||||||||||||||1020.7||1|FM15-METAR|223|ICAO-KGXA|0.5|3-Decr-or-|1|FM15-METAR|223|ICAO-KGXA|||||||||||||||||||||||||||||||||||||MET087METAR KGXA 151455Z AUTO 19003KT 10SM CLR 03/M02 A3014 RMK AO2 SLP248 T00311017 53005 $;||F||223|ICAO-KGXA
USI0000KGXA|GRAY BUTTE FLD|2011|12|15|16|00|34.5639|-117.6750|920.5|5.0||1|FM15-METAR|223|ICAO-KGXA|-2.0||1|FM15-METAR|223|ICAO-KGXA|||||||1024.0||1|FM15-METAR|223|ICAO-KGXA|240|N-Normal|1|FM15-METAR|223|ICAO-KGXA|2.1|N-Normal|1|FM15-METAR|223|ICAO-KGXA|||||||||||||61|Derived||FM15-METAR|223|ICAO-KGXA|||||||||||||||||||||||||||||||||||||||||||||||||||||||||||||||||||||||||1020.0||1|FM15-METAR|223|ICAO-KGXA|||||||||||||||||||||||||||||||||||||||||||MET077METAR KGXA 151555Z AUTO 24004KT 10SM 05/M02 A3012 RMK AO2 SLP240 T00501022 $;||F||223|ICAO-KGXA
USI0000KGXA|GRAY BUTTE FLD|2011|12|15|17|00|34.5639|-117.6750|920.5|7.0||1|FM15-METAR|223|ICAO-KGXA|-1.0||1|FM15-METAR|223|ICAO-KGXA|||||||1023.6||1|FM15-METAR|223|ICAO-KGXA|300|N-Normal|1|FM15-METAR|223|ICAO-KGXA|2.1|N-Normal|1|FM15-METAR|223|ICAO-KGXA|||||||||||||57|Derived||FM15-METAR|223|ICAO-KGXA|||||||||||||||||||||||||||||||||||||||||||||||||||||||||||||||||||||||||1020.0||1|FM15-METAR|223|ICAO-KGXA|||||||||||||||||||||||||||||||||||||||||||MET077METAR KGXA 151655Z AUTO 30004KT 10SM 07/M01 A3012 RMK AO2 SLP236 T00721013 $;||F||223|ICAO-KGXA
USI0000KGXA|GRAY BUTTE FLD|2011|12|15|18|00|34.5639|-117.6750|920.5|8.0||1|FM15-METAR|223|ICAO-KGXA|-1.0||1|FM15-METAR|223|ICAO-KGXA|||||||1023.3||1|FM15-METAR|223|ICAO-KGXA|310|N-Normal|1|FM15-METAR|223|ICAO-KGXA|3.1|N-Normal|1|FM15-METAR|223|ICAO-KGXA|||||||||||||53|Derived||FM15-METAR|223|ICAO-KGXA|||||||||||||||||||||||||||||||||||||||||||||||||||||||||||||||||||||||||1020.0||1|FM15-METAR|223|ICAO-KGXA|-0.6|5-Decr,-th|1|FM15-METAR|223|ICAO-KGXA|||||||||||||||||||||||||||||||||||||MET095METAR KGXA 151755Z AUTO 31006KT 10SM 08/M01 A3012 RMK AO2 SLP233 T00801006 10008 21013 55006 $;||F||223|ICAO-KGXA
USI0000KGXA|GRAY BUTTE FLD|2011|12|15|19|00|34.5639|-117.6750|920.5|10.0||1|FM15-METAR|223|ICAO-KGXA|0.0||1|FM15-METAR|223|ICAO-KGXA|||||||1022.2||1|FM15-METAR|223|ICAO-KGXA|290|N-Normal|1|FM15-METAR|223|ICAO-KGXA|4.6|N-Normal|1|FM15-METAR|223|ICAO-KGXA|||||||||||||50|Derived||FM15-METAR|223|ICAO-KGXA|||||||||||||||||||||||||||||||||||||||||||||||||||||||||||||||||||||||||1019.0||1|FM15-METAR|223|ICAO-KGXA|||||||||||||||||||||||||||||||||||||||||||MET076METAR KGXA 151855Z AUTO 29009KT 10SM 10/00 A3009 RMK AO2 SLP222 T00951001 $;||F||223|ICAO-KGXA
USI0000KGXA|GRAY BUTTE FLD|2011|12|15|20|00|34.5639|-117.6750|920.5|8.0||1|FM15-METAR|223|ICAO-KGXA|-2.0||1|FM15-METAR|223|ICAO-KGXA|||||||1021.7||1|FM15-METAR|223|ICAO-KGXA|310|N-Normal|1|FM15-METAR|223|ICAO-KGXA|5.1|N-Normal|1|FM15-METAR|223|ICAO-KGXA|||||||||||||50|Derived||FM15-METAR|223|ICAO-KGXA|||||||||||||||||||||||||||||||||||||||||||||||||||||||||||||||||||||||||1018.3||1|FM15-METAR|223|ICAO-KGXA|||||||||||||||||||||||||||||||||||||||||||MET077METAR KGXA 151955Z AUTO 31010KT 10SM 08/M02 A3007 RMK AO2 SLP217 T00841021 $;||F||223|ICAO-KGXA
USI0000KGXA|GRAY BUTTE FLD|2011|12|15|21|00|34.5639|-117.6750|920.5|7.0||1|FM15-METAR|223|ICAO-KGXA|0.0||1|FM15-METAR|223|ICAO-KGXA|||||||1021.7||1|FM15-METAR|223|ICAO-KGXA|230|N-Normal|1|FM15-METAR|223|ICAO-KGXA|3.1|N-Normal|1|FM15-METAR|223|ICAO-KGXA|||||||||||||61|Derived||FM15-METAR|223|ICAO-KGXA|||||||||||||||||||||||||||||||||||||||||||SHRA:81|SHRA:81-Ra|1|FM15-METAR|223|ICAO-KGXA|||||||||||||||||||||||||1018.0||1|FM15-METAR|223|ICAO-KGXA|-1.8|6-Decr,-th|1|FM15-METAR|223|ICAO-KGXA|||||||||||||||||||||||||||||||||||||MET112METAR KGXA 152055Z AUTO 23006KT 10SM -SHRA 07/00 A3006 RMK AO2 RAB2043RAE2047SHRAB2047 SLP217 T00680002 56018 $;||F||223|ICAO-KGXA
USI0000KGXA|GRAY BUTTE FLD|2011|12|15|22|00|34.5639|-117.6750|920.5|7.0||1|FM15-METAR|223|ICAO-KGXA|-1.0||1|FM15-METAR|223|ICAO-KGXA|||||||1021.9||1|FM15-METAR|223|ICAO-KGXA|300|N-Normal|1|FM15-METAR|223|ICAO-KGXA|2.6|N-Normal|1|FM15-METAR|223|ICAO-KGXA|9.8||1|FM15-METAR|223|ICAO-KGXA|||||||57|Derived||FM15-METAR|223|ICAO-KGXA|||||||||||||||||||||||||||||||||||||||||||RA:61|RA:61-Rain|1|FM15-METAR|223|ICAO-KGXA|||||||||||||||||||||||||1018.0||1|FM15-METAR|223|ICAO-KGXA|||||||||||||||||||||||||||||||||||||||||||MET117METAR KGXA 152155Z AUTO 30005G19KT 10SM -RA 07/M01 A3006 RMK AO2 -1SHRAE2058RAB2058RAE2059RAB2149 SLP219 T00651010 $;||F||223|ICAO-KGXA
USI0000KGXA|GRAY BUTTE FLD|2011|12|15|23|00|34.5639|-117.6750|920.5|6.0||1|FM15-METAR|223|ICAO-KGXA|0.0||1|FM15-METAR|223|ICAO-KGXA|||||||1021.9||1|FM15-METAR|223|ICAO-KGXA|210|N-Normal|1|FM15-METAR|223|ICAO-KGXA|3.6|N-Normal|1|FM15-METAR|223|ICAO-KGXA|||||||||||||66|Derived||FM15-METAR|223|ICAO-KGXA|||||||||||||||||||||||||||||||||||||||||||||||||||||||||||||||||||||||||1017.6||1|FM15-METAR|223|ICAO-KGXA|||||||||||||||||||||||||||||||||||||||||||MET104METAR KGXA 152255Z AUTO 21007KT 10SM 06/00 A3005 RMK AO2 -1RAE2156SHRAB2156SHRAE2208 SLP219 T00600003 $;||F||223|ICAO-KGXA
USI0000KGXA|GRAY BUTTE FLD|2011|12|16|00|00|34.5639|-117.6750|920.5|6.0||1|FM15-METAR|223|ICAO-KGXA|-1.0||1|FM15-METAR|223|ICAO-KGXA|||||||1022.1||1|FM15-METAR|223|ICAO-KGXA|260|N-Normal|1|FM15-METAR|223|ICAO-KGXA|3.1|N-Normal|1|FM15-METAR|223|ICAO-KGXA|||||||||||||61|Derived||FM15-METAR|223|ICAO-KGXA|||||||||||||||||||||||||||||||||||||||||||||||||||||||||||||||||||||||||1018.0||1|FM15-METAR|223|ICAO-KGXA|0.0|4-Steady;-|1|FM15-METAR|223|ICAO-KGXA|||||||||||||||||||||||||||||||||||||MET116METAR KGXA 152355Z AUTO 26006KT 10SM 06/M01 A3006 RMK AO2 SLP221 T00611006 10081 21016 400981016 54000 PWINO TSNO $;||F||223|ICAO-KGXA
USI0000KGXA|GRAY BUTTE FLD|2011|12|16|01|00|34.5639|-117.6750|920.5|5.0||1|FM15-METAR|223|ICAO-KGXA|0.0||1|FM15-METAR|223|ICAO-KGXA|||||||1022.1||1|FM15-METAR|223|ICAO-KGXA|250|N-Normal|1|FM15-METAR|223|ICAO-KGXA|1.5|N-Normal|1|FM15-METAR|223|ICAO-KGXA|||||||||||||70|Derived||FM15-METAR|223|ICAO-KGXA|||||||||||||||||||||||||||||||||||||||||||||||||||||||||||||||||||||||||1018.0||1|FM15-METAR|223|ICAO-KGXA|||||||||||||||||||||||||||||||||||||||||||MET082METAR KGXA 160055Z AUTO 25003KT 05/00 A3006 RMK AO2 SLP221 T00500003 PWINO TSNO $;||F||223|ICAO-KGXA
USI0000KGXA|GRAY BUTTE FLD|2011|12|16|02|00|34.5639|-117.6750|920.5|4.0||1|FM15-METAR|223|ICAO-KGXA|0.0||1|FM15-METAR|223|ICAO-KGXA|||||||1023.0||1|FM15-METAR|223|ICAO-KGXA|210|N-Normal|1|FM15-METAR|223|ICAO-KGXA|1.5|N-Normal|1|FM15-METAR|223|ICAO-KGXA|||||||||||||75|Derived||FM15-METAR|223|ICAO-KGXA|||||||||||||||||||||||||||||||||||||||||||||||||||||||||||||||||||||||||1018.3||1|FM15-METAR|223|ICAO-KGXA|||||||||||||||||||||||||||||||||||||||||||MET082METAR KGXA 160155Z AUTO 21003KT 04/00 A3007 RMK AO2 SLP230 T00371003 PWINO TSNO $;||F||223|ICAO-KGXA
USI0000KGXA|GRAY BUTTE FLD|2011|12|16|03|00|34.5639|-117.6750|920.5|5.0||1|FM15-METAR|223|ICAO-KGXA|0.0||1|FM15-METAR|223|ICAO-KGXA|||||||1022.6||1|FM15-METAR|223|ICAO-KGXA|070|N-Normal|1|FM15-METAR|223|ICAO-KGXA|1.0|N-Normal|1|FM15-METAR|223|ICAO-KGXA|||||||||||||70|Derived||FM15-METAR|223|ICAO-KGXA|||||||||||||||||||||||||||||||||||||||||||||||||||||||||||||||||||||||||1019.0||1|FM15-METAR|223|ICAO-KGXA|1.0|3-Decr-or-|1|FM15-METAR|223|ICAO-KGXA|||||||||||||||||||||||||||||||||||||MET088METAR KGXA 160255Z AUTO 07002KT 05/00 A3009 RMK AO2 SLP226 T00491005 53010 PWINO TSNO $;||F||223|ICAO-KGXA
USI0000KGXA|GRAY BUTTE FLD|2011|12|16|04|00|34.5639|-117.6750|920.5|4.0||1|FM15-METAR|223|ICAO-KGXA|-1.0||1|FM15-METAR|223|ICAO-KGXA|||||||1022.7||1|FM15-METAR|223|ICAO-KGXA|070|N-Normal|1|FM15-METAR|223|ICAO-KGXA|1.5|N-Normal|1|FM15-METAR|223|ICAO-KGXA|||||||||||||70|Derived||FM15-METAR|223|ICAO-KGXA|||||||||||||||||||||||||||||||||||||||||||||||||||||||||||||||||||||||||1019.3||1|FM15-METAR|223|ICAO-KGXA|||||||||||||||||||||||||||||||||||||||||||MET083METAR KGXA 160355Z AUTO 07003KT 04/M01 A3010 RMK AO2 SLP227 T00371007 PWINO TSNO $;||F||223|ICAO-KGXA
USI0000KGXA|GRAY BUTTE FLD|2011|12|16|05|00|34.5639|-117.6750|920.5|2.0||1|FM15-METAR|223|ICAO-KGXA|-1.0||1|FM15-METAR|223|ICAO-KGXA|||||||1023.1||1|FM15-METAR|223|ICAO-KGXA|140|N-Normal|1|FM15-METAR|223|ICAO-KGXA|2.1|N-Normal|1|FM15-METAR|223|ICAO-KGXA|||||||||||||81|Derived||FM15-METAR|223|ICAO-KGXA|||||||||||||||||||||||||||||||||||||||||||||||||||||||||||||||||||||||||1020.0||1|FM15-METAR|223|ICAO-KGXA|||||||||||||||||||||||||||||||||||||||||||MET083METAR KGXA 160455Z AUTO 14004KT 02/M01 A3012 RMK AO2 SLP231 T00191014 PWINO TSNO $;||F||223|ICAO-KGXA
USI0000KGXA|GRAY BUTTE FLD|2011|12|16|06|00|34.5639|-117.6750|920.5|0.0||1|FM15-METAR|223|ICAO-KGXA|-2.0||1|FM15-METAR|223|ICAO-KGXA|||||||1024.0||1|FM15-METAR|223|ICAO-KGXA|170|N-Normal|1|FM15-METAR|223|ICAO-KGXA|1.5|N-Normal|1|FM15-METAR|223|ICAO-KGXA|||||||||||||87|Derived||FM15-METAR|223|ICAO-KGXA|||||||||||||||||||||||||||||||||||||||||||||||||||||||||||||||||||||||||1020.3||1|FM15-METAR|223|ICAO-KGXA|1.3|2-Incr-(st|1|FM15-METAR|223|ICAO-KGXA|||||||||||||||||||||||||||||||||||||MET121METAR KGXA 160555Z AUTO 17003KT 00/M02 A3013 RMK AO2 PK WND 1601789/0531 SLP240 T10021020 10097 20057 52013 PWINO TSNO $;||F||223|ICAO-KGXA
USI0000KGXA|GRAY BUTTE FLD|2011|12|16|08|00|34.5639|-117.6750|920.5|||||||||||||||||||||||||||||||||||||||||||||||||||||||||||||||||||||||||||||||||||||||||||||||||||||||||||||||||||||||||||||||||||||||||||||||||||||||||||||||||||||||||||||||MET055METAR KGXA 160755Z AUTO RMK AO2 SLPNO PWINO PNO TSNO $;||F||223|ICAO-KGXA
USI0000KGXA|GRAY BUTTE FLD|2011|12|16|09|00|34.5639|-117.6750|920.5|||||||||||||||||||||||||||||||||||||||||||||||||||||||||||||||||||||||||||||||||||||||||||||||||||||||||||||||||||||||||||||||||||||||||||||||||||||||||||||||||||||||||||||||MET055METAR KGXA 160855Z AUTO RMK AO2 SLPNO PWINO PNO TSNO $;||F||223|ICAO-KGXA
USI0000KGXA|GRAY BUTTE FLD|2011|12|16|10|00|34.5639|-117.6750|920.5|||||||||||||||||||||||||||||||||||||||||||||||||||||||||||||||||||||||||||||||||||||||||||||||||||||||||||||||||||||||||||||||||||||||||||||||||||||||||||||||||||||||||||||||MET055METAR KGXA 160955Z AUTO RMK AO2 SLPNO PWINO PNO TSNO $;||F||223|ICAO-KGXA
USI0000KGXA|GRAY BUTTE FLD|2011|12|16|11|00|34.5639|-117.6750|920.5|||||||||||||||||||||||||||||||||||||||||||||||||||||||||||||||||||||||||||||||||||||||||||||||||||||||||||||||||||||||||||||||||||||||||||||||||||||||||||||||||||||||||||||||MET055METAR KGXA 161055Z AUTO RMK AO2 SLPNO PWINO PNO TSNO $;||F||223|ICAO-KGXA
USI0000KGXA|GRAY BUTTE FLD|2011|12|16|12|00|34.5639|-117.6750|920.5|||||||||||||||||||||||||||||||||||||||||||||||||||||||||||||||||||||||||||||||||||||||||||||||||||||||||||||||||||||||||||||||||||||||||||||||||||||||||||||||||||||||||||||||MET055METAR KGXA 161155Z AUTO RMK AO2 SLPNO PWINO PNO TSNO $;||F||223|ICAO-KGXA
USI0000KGXA|GRAY BUTTE FLD|2011|12|16|13|00|34.5639|-117.6750|920.5|||||||||||||||||||||||||||||||||||||||||||||||||||||||||||||||||||||||||||||||||||||||||||||||||||||||||||||||||||||||||||||||||||||||||||||||||||||||||||||||||||||||||||||||MET055METAR KGXA 161255Z AUTO RMK AO2 SLPNO PWINO PNO TSNO $;||F||223|ICAO-KGXA
USI0000KGXA|GRAY BUTTE FLD|2011|12|16|14|00|34.5639|-117.6750|920.5|1.0||1|FM15-METAR|223|ICAO-KGXA|-4.0||1|FM15-METAR|223|ICAO-KGXA|||||||1026.0||1|FM15-METAR|223|ICAO-KGXA|140|N-Normal|1|FM15-METAR|223|ICAO-KGXA|2.1|N-Normal|1|FM15-METAR|223|ICAO-KGXA|||||||||||||70|Derived||FM15-METAR|223|ICAO-KGXA|||||||||||||||||||||||||||||||||||||||||||||||||||||||||||||||||||||||||1021.3||1|FM15-METAR|223|ICAO-KGXA|||||||||||||||||||||||||||||||||||||||||||MET079METAR KGXA 161355Z AUTO 14004KT 10SM CLR 01/M04 A3016 RMK AO2 SLP260 T00111045;||F||223|ICAO-KGXA
USI0000KGXA|GRAY BUTTE FLD|2011|12|16|15|00|34.5639|-117.6750|920.5|2.0||1|FM15-METAR|223|ICAO-KGXA|-5.0||1|FM15-METAR|223|ICAO-KGXA|||||||1026.6||1|FM15-METAR|223|ICAO-KGXA|140|N-Normal|1|FM15-METAR|223|ICAO-KGXA|2.6|N-Normal|1|FM15-METAR|223|ICAO-KGXA|||||||||||||60|Derived||FM15-METAR|223|ICAO-KGXA|||||||||||||||||||||||||||||||||||||||||||||||||||||||||||||||||||||||||1022.0||1|FM15-METAR|223|ICAO-KGXA|||||||||||||||||||||||||||||||||||||||||||MET079METAR KGXA 161455Z AUTO 14005KT 10SM CLR 02/M05 A3018 RMK AO2 SLP266 T00151049;||F||223|ICAO-KGXA
USI0000KGXA|GRAY BUTTE FLD|2011|12|16|16|00|34.5639|-117.6750|920.5|5.0||1|FM15-METAR|223|ICAO-KGXA|-5.0||1|FM15-METAR|223|ICAO-KGXA|||||||1026.0||1|FM15-METAR|223|ICAO-KGXA|130|N-Normal|1|FM15-METAR|223|ICAO-KGXA|2.6|N-Normal|1|FM15-METAR|223|ICAO-KGXA|||||||||||||49|Derived||FM15-METAR|223|ICAO-KGXA|||||||||||||||||||||||||||||||||||||||||||||||||||||||||||||||||||||||||1022.4||1|FM15-METAR|223|ICAO-KGXA|||||||||||||||||||||||||||||||||||||||||||MET079METAR KGXA 161555Z AUTO 13005KT 10SM CLR 05/M05 A3019 RMK AO2 SLP260 T00461051;||F||223|ICAO-KGXA
USI0000KGXA|GRAY BUTTE FLD|2011|12|16|17|00|34.5639|-117.6750|920.5|7.0||1|FM15-METAR|223|ICAO-KGXA|-7.0||1|FM15-METAR|223|ICAO-KGXA|||||||1025.3||1|FM15-METAR|223|ICAO-KGXA|100|N-Normal|1|FM15-METAR|223|ICAO-KGXA|2.6|N-Normal|1|FM15-METAR|223|ICAO-KGXA|||||||||||||37|Derived||FM15-METAR|223|ICAO-KGXA|||||||||||||||||||||||||||||||||||||||||||||||||||||||||||||||||||||||||1023.0||1|FM15-METAR|223|ICAO-KGXA|||||||||||||||||||||||||||||||||||||||||||MET079METAR KGXA 161655Z AUTO 10005KT 10SM CLR 07/M07 A3021 RMK AO2 SLP253 T00731067;||F||223|ICAO-KGXA
USI0000KGXA|GRAY BUTTE FLD|2011|12|16|18|00|34.5639|-117.6750|920.5|9.0||1|FM15-METAR|223|ICAO-KGXA|-7.0||1|FM15-METAR|223|ICAO-KGXA|||||||1025.2||1|FM15-METAR|223|ICAO-KGXA|070|N-Normal|1|FM15-METAR|223|ICAO-KGXA|5.1|N-Normal|1|FM15-METAR|223|ICAO-KGXA|7.2||1|FM15-METAR|223|ICAO-KGXA|||||||32|Derived||FM15-METAR|223|ICAO-KGXA|||||||||||||||||||||||||||||||||||||||||||||||||||||||||||||||||||||||||1023.4||1|FM15-METAR|223|ICAO-KGXA|1.4|2-Incr-(st|1|FM15-METAR|223|ICAO-KGXA|||||||||||||||||||||||||||||||||||||MET088METAR KGXA 161755Z AUTO 07010G14KT 10SM CLR 09/M07 A3022 RMK AO2 SLP252 T00851072 52014;||F||223|ICAO-KGXA
USI0000KGXA|GRAY BUTTE FLD|2011|12|16|19|00|34.5639|-117.6750|920.5|9.0||1|FM15-METAR|223|ICAO-KGXA|-7.0||1|FM15-METAR|223|ICAO-KGXA|||||||1024.3||1|FM15-METAR|223|ICAO-KGXA|040|N-Normal|1|FM15-METAR|223|ICAO-KGXA|3.1|N-Normal|1|FM15-METAR|223|ICAO-KGXA|||||||||||||32|Derived||FM15-METAR|223|ICAO-KGXA|||||||||||||||||||||||||||||||||||||||||||||||||||||||||||||||||||||||||1023.0||1|FM15-METAR|223|ICAO-KGXA|||||||||||||||||||||||||||||||||||||||||||MET079METAR KGXA 161855Z AUTO 04006KT 10SM CLR 09/M07 A3021 RMK AO2 SLP243 T00941073;||F||223|ICAO-KGXA
USI0000KGXA|GRAY BUTTE FLD|2011|12|16|20|00|34.5639|-117.6750|920.5|11.0||1|FM15-METAR|223|ICAO-KGXA|-9.0||1|FM15-METAR|223|ICAO-KGXA|||||||1022.1||1|FM15-METAR|223|ICAO-KGXA|030|N-Normal|1|FM15-METAR|223|ICAO-KGXA|7.2|N-Normal|1|FM15-METAR|223|ICAO-KGXA|12.3||1|FM15-METAR|223|ICAO-KGXA|||||||24|Derived||FM15-METAR|223|ICAO-KGXA|||||||||||||||||||||||||||||||||||||||||||||||||||||||||||||||||||||||||1021.3||1|FM15-METAR|223|ICAO-KGXA|||||||||||||||||||||||||||||||||||||||||||MET082METAR KGXA 161955Z AUTO 03014G24KT 10SM CLR 11/M09 A3016 RMK AO2 SLP221 T01121093;||F||223|ICAO-KGXA
USI0000KGXA|GRAY BUTTE FLD|2011|12|16|21|00|34.5639|-117.6750|920.5|12.0||1|FM15-METAR|223|ICAO-KGXA|-10.0||1|FM15-METAR|223|ICAO-KGXA|||||||1020.6||1|FM15-METAR|223|ICAO-KGXA|030|N-Normal|1|FM15-METAR|223|ICAO-KGXA|8.7|N-Normal|1|FM15-METAR|223|ICAO-KGXA|12.9||1|FM15-METAR|223|ICAO-KGXA|||||||21|Derived||FM15-METAR|223|ICAO-KGXA|||||||||||||||||||||||||||||||||||||||||||||||||||||||||||||||||||||||||1020.3||1|FM15-METAR|223|ICAO-KGXA|-3.0|8-Steady-o|1|FM15-METAR|223|ICAO-KGXA|||||||||||||||||||||||||||||||||||||MET088METAR KGXA 162055Z AUTO 03017G25KT 10SM CLR 12/M10 A3013 RMK AO2 SLP206 T01181099 58030;||F||223|ICAO-KGXA
USI0000KGXA|GRAY BUTTE FLD|2011|12|16|22|00|34.5639|-117.6750|920.5|12.0||1|FM15-METAR|223|ICAO-KGXA|-10.0||1|FM15-METAR|223|ICAO-KGXA|||||||1020.2||1|FM15-METAR|223|ICAO-KGXA|050|N-Normal|1|FM15-METAR|223|ICAO-KGXA|7.2|N-Normal|1|FM15-METAR|223|ICAO-KGXA|11.3||1|FM15-METAR|223|ICAO-KGXA|||||||21|Derived||FM15-METAR|223|ICAO-KGXA|||||||||||||||||||||||||||||||||||||||||||||||||||||||||||||||||||||||||1020.0||1|FM15-METAR|223|ICAO-KGXA|||||||||||||||||||||||||||||||||||||||||||MET100METAR KGXA 162155Z AUTO 05014G22KT 10SM CLR 12/M10 A3012 RMK AO2 PK WND 02028/2121 SLP202 T01211103;||F||223|ICAO-KGXA
USI0000KGXA|GRAY BUTTE FLD|2011|12|16|23|00|34.5639|-117.6750|920.5|12.0||1|FM15-METAR|223|ICAO-KGXA|-10.0||1|FM15-METAR|223|ICAO-KGXA|||||||1019.9||1|FM15-METAR|223|ICAO-KGXA|050|N-Normal|1|FM15-METAR|223|ICAO-KGXA|8.2|N-Normal|1|FM15-METAR|223|ICAO-KGXA|11.8||1|FM15-METAR|223|ICAO-KGXA|||||||21|Derived||FM15-METAR|223|ICAO-KGXA|||||||||||||||||||||||||||||||||||||||||||||||||||||||||||||||||||||||||1019.6||1|FM15-METAR|223|ICAO-KGXA|||||||||||||||||||||||||||||||||||||||||||MET084METAR KGXA 162255Z AUTO 05016G23KT 10SM CLR 12/M10 A3011 RMK AO2 SLP199 T01211104 $;||F||223|ICAO-KGXA
USI0000KGXA|GRAY BUTTE FLD|2011|12|17|00|00|34.5639|-117.6750|920.5|12.0||1|FM15-METAR|223|ICAO-KGXA|-11.0||1|FM15-METAR|223|ICAO-KGXA|||||||1019.9||1|FM15-METAR|223|ICAO-KGXA|060|N-Normal|1|FM15-METAR|223|ICAO-KGXA|8.7|N-Normal|1|FM15-METAR|223|ICAO-KGXA|||||||||||||19|Derived||FM15-METAR|223|ICAO-KGXA|||||||||||||||||||||||||||||||||||||||||||||||||||||||||||||||||||||||||1019.6||1|FM15-METAR|223|ICAO-KGXA|-1.1|6-Decr,-th|1|FM15-METAR|223|ICAO-KGXA|||||||||||||||||||||||||||||||||||||MET120METAR KGXA 162355Z AUTO 06017KT 10SM 12/M11 A3011 RMK AO2 SLP199 T01181112 10086 20007 401241003 56011 PWINO PNO TSNO $;||F||223|ICAO-KGXA
USI0000KGXA|GRAY BUTTE FLD|2011|12|19|15|00|34.5639|-117.6750|920.5|||||||||||||||||||||||||||||||||||||||||||||||||||||||||||||||||||||||||||||||||||||||||||||||||||||||||||||||||||||||||||||||||||||||||||||||||||||||||||||||||||||||||||||||MET055METAR KGXA 191455Z AUTO RMK AO2 SLPNO PWINO PNO TSNO $;||F||223|ICAO-KGXA
USI0000KGXA|GRAY BUTTE FLD|2011|12|19|16|00|34.5639|-117.6750|920.5|3.0||1|FM15-METAR|223|ICAO-KGXA|-3.0||1|FM15-METAR|223|ICAO-KGXA|||||||1020.6||1|FM15-METAR|223|ICAO-KGXA|160|N-Normal|1|FM15-METAR|223|ICAO-KGXA|1.5|N-Normal|1|FM15-METAR|223|ICAO-KGXA|||||||||||||65|Derived||FM15-METAR|223|ICAO-KGXA|||||||||||||||||||||||||||||||||||||||||||||||||||||||||||||||||||||||||1016.6||1|FM15-METAR|223|ICAO-KGXA|||||||||||||||||||||||||||||||||||||||||||MET079METAR KGXA 191555Z AUTO 16003KT 10SM CLR 03/M03 A3002 RMK AO2 SLP206 T00341035;||F||223|ICAO-KGXA
USI0000KGXA|GRAY BUTTE FLD|2011|12|19|17|00|34.5639|-117.6750|920.5|7.0||1|FM15-METAR|223|ICAO-KGXA|-2.0||1|FM15-METAR|223|ICAO-KGXA|||||||1019.8||1|FM15-METAR|223|ICAO-KGXA|050|N-Normal|1|FM15-METAR|223|ICAO-KGXA|2.1|N-Normal|1|FM15-METAR|223|ICAO-KGXA|||||||||||||53|Derived||FM15-METAR|223|ICAO-KGXA|||||||||||||||||||||||||||||||||||||||||||||||||||||||||||||||||||||||||1017.3||1|FM15-METAR|223|ICAO-KGXA|||||||||||||||||||||||||||||||||||||||||||MET079METAR KGXA 191655Z AUTO 05004KT 10SM CLR 07/M02 A3004 RMK AO2 SLP198 T00651025;||F||223|ICAO-KGXA
USI0000KGXA|GRAY BUTTE FLD|2011|12|19|18|00|34.5639|-117.6750|920.5|8.0||1|FM15-METAR|223|ICAO-KGXA|-1.0||1|FM15-METAR|223|ICAO-KGXA|||||||1019.2||1|FM15-METAR|223|ICAO-KGXA|340|N-Normal|1|FM15-METAR|223|ICAO-KGXA|2.1|N-Normal|1|FM15-METAR|223|ICAO-KGXA|||||||||||||53|Derived||FM15-METAR|223|ICAO-KGXA|||||||||||||||||||||||||||||||||||||||||||||||||||||||||||||||||||||||||1017.6||1|FM15-METAR|223|ICAO-KGXA|0.9|2-Incr-(st|1|FM15-METAR|223|ICAO-KGXA|||||||||||||||||||||||||||||||||||||MET085METAR KGXA 191755Z AUTO 34004KT 10SM CLR 08/M01 A3005 RMK AO2 SLP192 T00841006 52009;||F||223|ICAO-KGXA
USI0000KGXA|GRAY BUTTE FLD|2011|12|19|19|00|34.5639|-117.6750|920.5|10.0||1|FM15-METAR|223|ICAO-KGXA|-1.0||1|FM15-METAR|223|ICAO-KGXA|||||||1018.1||1|FM15-METAR|223|ICAO-KGXA|330|N-Normal|1|FM15-METAR|223|ICAO-KGXA|2.1|N-Normal|1|FM15-METAR|223|ICAO-KGXA|||||||||||||47|Derived||FM15-METAR|223|ICAO-KGXA|||||||||||||||||||||||||||||||||||||||||||||||||||||||||||||||||||||||||1016.9||1|FM15-METAR|223|ICAO-KGXA|||||||||||||||||||||||||||||||||||||||||||MET079METAR KGXA 191855Z AUTO 33004KT 10SM CLR 10/M01 A3003 RMK AO2 SLP181 T01011006;||F||223|ICAO-KGXA
USI0000KGXA|GRAY BUTTE FLD|2011|12|19|20|00|34.5639|-117.6750|920.5|11.0||1|FM15-METAR|223|ICAO-KGXA|-3.0||1|FM15-METAR|223|ICAO-KGXA|||||||1017.0||1|FM15-METAR|223|ICAO-KGXA|340|N-Normal|1|FM15-METAR|223|ICAO-KGXA|2.1|N-Normal|1|FM15-METAR|223|ICAO-KGXA|||||||||||||38|Derived||FM15-METAR|223|ICAO-KGXA|||||||||||||||||||||||||||||||||||||||||||||||||||||||||||||||||||||||||1016.3||1|FM15-METAR|223|ICAO-KGXA|||||||||||||||||||||||||||||||||||||||||||MET079METAR KGXA 191955Z AUTO 34004KT 10SM CLR 11/M03 A3001 RMK AO2 SLP170 T01081027;||F||223|ICAO-KGXA
USI0000KGXA|GRAY BUTTE FLD|2011|12|19|21|00|34.5639|-117.6750|920.5|12.0||1|FM15-METAR|223|ICAO-KGXA|-2.0||1|FM15-METAR|223|ICAO-KGXA|||||||1015.7||1|FM15-METAR|223|ICAO-KGXA|999|V-Variable|9|FM15-METAR|223|ICAO-KGXA|1.5|V-Variable|1|FM15-METAR|223|ICAO-KGXA|||||||||||||38|Derived||FM15-METAR|223|ICAO-KGXA|||||||||||||||||||||||||||||||||||||||||||||||||||||||||||||||||||||||||1015.2||1|FM15-METAR|223|ICAO-KGXA|-1.9|8-Steady-o|1|FM15-METAR|223|ICAO-KGXA|||||||||||||||||||||||||||||||||||||MET092METAR KGXA 192055Z AUTO VRB03KT 10SM CLR 12/M02 A2998 RMK AO2 SLP157 T01211018 58019 TSNO $;||F||223|ICAO-KGXA
USI0000KGXA|GRAY BUTTE FLD|2011|12|19|22|00|34.5639|-117.6750|920.5|13.0||1|FM15-METAR|223|ICAO-KGXA|-3.0||1|FM15-METAR|223|ICAO-KGXA|||||||1014.8||1|FM15-METAR|223|ICAO-KGXA|999|V-Variable|9|FM15-METAR|223|ICAO-KGXA|1.5|V-Variable|1|FM15-METAR|223|ICAO-KGXA|||||||||||||33|Derived||FM15-METAR|223|ICAO-KGXA|||||||||||||||||||||||||||||||||||||||||||||||||||||||||||||||||||||||||1014.9||1|FM15-METAR|223|ICAO-KGXA|||||||||||||||||||||||||||||||||||||||||||MET086METAR KGXA 192155Z AUTO VRB03KT 10SM CLR 13/M03 A2997 RMK AO2 SLP148 T01251034 TSNO $;||F||223|ICAO-KGXA
USI0000KGXA|GRAY BUTTE FLD|2011|12|19|23|00|34.5639|-117.6750|920.5|11.0||1|FM15-METAR|223|ICAO-KGXA|-4.0||1|FM15-METAR|223|ICAO-KGXA|||||||1015.3||1|FM15-METAR|223|ICAO-KGXA|100|N-Normal|1|FM15-METAR|223|ICAO-KGXA|1.5|N-Normal|1|FM15-METAR|223|ICAO-KGXA|||||||||||||35|Derived||FM15-METAR|223|ICAO-KGXA|||||||||||||||||||||||||||||||||||||||||||||||||||||||||||||||||||||||||1014.9||1|FM15-METAR|223|ICAO-KGXA|||||||||||||||||||||||||||||||||||||||||||MET082METAR KGXA 192255Z AUTO 10003KT 10SM FEW140 11/M04 A2997 RMK AO2 SLP153 T01121038;||F||223|ICAO-KGXA
USI0000KGXA|GRAY BUTTE FLD|2011|12|20|00|00|34.5639|-117.6750|920.5|11.0||1|FM15-METAR|223|ICAO-KGXA|-3.0||1|FM15-METAR|223|ICAO-KGXA|||||||1015.7||1|FM15-METAR|223|ICAO-KGXA|090|N-Normal|1|FM15-METAR|223|ICAO-KGXA|2.1|N-Normal|1|FM15-METAR|223|ICAO-KGXA|||||||||||||38|Derived||FM15-METAR|223|ICAO-KGXA|||||||||||||||||||||||||||||||||||||||||||||||||||||||||||||||||||||||||1014.9||1|FM15-METAR|223|ICAO-KGXA|-0.3|5-Decr,-th|1|FM15-METAR|223|ICAO-KGXA|||||||||||||||||||||||||||||||||||||MET117METAR KGXA 192355Z AUTO 09004KT 10SM FEW130 BKN150 11/M03 A2997 RMK AO2 SLP157 T01111035 10084 21017 401290002 55003;||F||223|ICAO-KGXA
USI0000KGXA|GRAY BUTTE FLD|2011|12|20|01|00|34.5639|-117.6750|920.5|9.0||1|FM15-METAR|223|ICAO-KGXA|-2.0||1|FM15-METAR|223|ICAO-KGXA|||||||1018.8||1|FM15-METAR|223|ICAO-KGXA|120|N-Normal|1|FM15-METAR|223|ICAO-KGXA|1.5|N-Normal|1|FM15-METAR|223|ICAO-KGXA|||||||||||||46|Derived||FM15-METAR|223|ICAO-KGXA|||||||||||||||||||||||||||||||||||||||||||||||||||||||||||||||||||||||||1015.2||1|FM15-METAR|223|ICAO-KGXA|||||||||||||||||||||||||||||||||||||||||||MET082METAR KGXA 200055Z AUTO 12003KT 10SM BKN150 09/M02 A2998 RMK AO2 SLP188 T00901017;||F||223|ICAO-KGXA
USI0000KGXA|GRAY BUTTE FLD|2011|12|20|02|00|34.5639|-117.6750|920.5|8.0||1|FM15-METAR|223|ICAO-KGXA|-1.0||1|FM15-METAR|223|ICAO-KGXA|||||||1019.4||1|FM15-METAR|223|ICAO-KGXA|150|N-Normal|1|FM15-METAR|223|ICAO-KGXA|1.5|N-Normal|1|FM15-METAR|223|ICAO-KGXA|||||||||||||53|Derived||FM15-METAR|223|ICAO-KGXA|||||||||||||||||||||||||||||||||||||||||||||||||||||||||||||||||||||||||1015.6||1|FM15-METAR|223|ICAO-KGXA|||||||||||||||||||||||||||||||||||||||||||MET082METAR KGXA 200155Z AUTO 15003KT 10SM BKN150 08/M01 A2999 RMK AO2 SLP194 T00771011;||F||223|ICAO-KGXA
USI0000KGXA|GRAY BUTTE FLD|2011|12|20|03|00|34.5639|-117.6750|920.5|8.0||1|FM15-METAR|223|ICAO-KGXA|0.0||1|FM15-METAR|223|ICAO-KGXA|||||||1019.5||1|FM15-METAR|223|ICAO-KGXA|160|N-Normal|1|FM15-METAR|223|ICAO-KGXA|2.1|N-Normal|1|FM15-METAR|223|ICAO-KGXA|||||||||||||57|Derived||FM15-METAR|223|ICAO-KGXA|||||||||||||||||||||||||||||||||||||||||||||||||||||||||||||||||||||||||1015.9||1|FM15-METAR|223|ICAO-KGXA|0.8|2-Incr-(st|1|FM15-METAR|223|ICAO-KGXA|||||||||||||||||||||||||||||||||||||MET087METAR KGXA 200255Z AUTO 16004KT 10SM BKN085 08/00 A3000 RMK AO2 SLP195 T00791005 52008;||F||223|ICAO-KGXA
USI0000KGXA|GRAY BUTTE FLD|2011|12|20|04|00|34.5639|-117.6750|920.5|7.0||1|FM15-METAR|223|ICAO-KGXA|-1.0||1|FM15-METAR|223|ICAO-KGXA|||||||1019.1||1|FM15-METAR|223|ICAO-KGXA|160|N-Normal|1|FM15-METAR|223|ICAO-KGXA|1.5|N-Normal|1|FM15-METAR|223|ICAO-KGXA|||||||||||||57|Derived||FM15-METAR|223|ICAO-KGXA|||||||||||||||||||||||||||||||||||||||||||||||||||||||||||||||||||||||||1016.3||1|FM15-METAR|223|ICAO-KGXA|||||||||||||||||||||||||||||||||||||||||||MET089METAR KGXA 200355Z AUTO 16003KT 10SM BKN090 BKN100 07/M01 A3001 RMK AO2 SLP191 T00731015;||F||223|ICAO-KGXA
USI0000KGXA|GRAY BUTTE FLD|2011|12|20|05|00|34.5639|-117.6750|920.5|6.0||1|FM15-METAR|223|ICAO-KGXA|-2.0||1|FM15-METAR|223|ICAO-KGXA|||||||1019.0||1|FM15-METAR|223|ICAO-KGXA|160|N-Normal|1|FM15-METAR|223|ICAO-KGXA|1.5|N-Normal|1|FM15-METAR|223|ICAO-KGXA|||||||||||||57|Derived||FM15-METAR|223|ICAO-KGXA|||||||||||||||||||||||||||||||||||||||||||||||||||||||||||||||||||||||||1016.6||1|FM15-METAR|223|ICAO-KGXA|||||||||||||||||||||||||||||||||||||||||||MET091METAR KGXA 200455Z AUTO 16003KT 10SM BKN095 BKN110 06/M02 A3002 RMK AO2 SLP190 T00631019 $;||F||223|ICAO-KGXA
USI0000KGXA|GRAY BUTTE FLD|2011|12|20|06|00|34.5639|-117.6750|920.5|4.0||1|FM15-METAR|223|ICAO-KGXA|-2.0||1|FM15-METAR|223|ICAO-KGXA|||||||1019.4||1|FM15-METAR|223|ICAO-KGXA|150|N-Normal|1|FM15-METAR|223|ICAO-KGXA|1.0|N-Normal|1|FM15-METAR|223|ICAO-KGXA|||||||||||||65|Derived||FM15-METAR|223|ICAO-KGXA|||||||||||||||||||||||||||||||||||||||||||||||||||||||||||||||||||||||||1016.9||1|FM15-METAR|223|ICAO-KGXA|0.7|2-Incr-(st|1|FM15-METAR|223|ICAO-KGXA|||||||||||||||||||||||||||||||||||||MET102METAR KGXA 200555Z AUTO 15002KT 10SM FEW090 04/M02 A3003 RMK AO2 SLP194 T00401021 10129 20085 52007 $;||F||223|ICAO-KGXA
USI0000KGXA|GRAY BUTTE FLD|2011|12|20|07|00|34.5639|-117.6750|920.5|2.0||1|FM15-METAR|223|ICAO-KGXA|-3.0||1|FM15-METAR|223|ICAO-KGXA|||||||1019.6||1|FM15-METAR|223|ICAO-KGXA|170|N-Normal|1|FM15-METAR|223|ICAO-KGXA|2.1|N-Normal|1|FM15-METAR|223|ICAO-KGXA|||||||||||||70|Derived||FM15-METAR|223|ICAO-KGXA|||||||||||||||||||||||||||||||||||||||||||||||||||||||||||||||||||||||||1016.9||1|FM15-METAR|223|ICAO-KGXA|||||||||||||||||||||||||||||||||||||||||||MET081METAR KGXA 200655Z AUTO 17004KT 10SM CLR 02/M03 A3003 RMK AO2 SLP196 T00241029 $;||F||223|ICAO-KGXA
USI0000KGXA|GRAY BUTTE FLD|2011|12|20|08|00|34.5639|-117.6750|920.5|2.0||1|FM15-METAR|223|ICAO-KGXA|-3.0||1|FM15-METAR|223|ICAO-KGXA|||||||1019.7||1|FM15-METAR|223|ICAO-KGXA|190|N-Normal|1|FM15-METAR|223|ICAO-KGXA|2.1|N-Normal|1|FM15-METAR|223|ICAO-KGXA|||||||||||||70|Derived||FM15-METAR|223|ICAO-KGXA|||||||||||||||||||||||||||||||||||||||||||||||||||||||||||||||||||||||||1017.3||1|FM15-METAR|223|ICAO-KGXA|||||||||||||||||||||||||||||||||||||||||||MET081METAR KGXA 200755Z AUTO 19004KT 10SM CLR 02/M03 A3004 RMK AO2 SLP197 T00161035 $;||F||223|ICAO-KGXA
USI0000KGXA|GRAY BUTTE FLD|2011|12|20|09|00|34.5639|-117.6750|920.5|1.0||1|FM15-METAR|223|ICAO-KGXA|-3.0||1|FM15-METAR|223|ICAO-KGXA|||||||1019.7||1|FM15-METAR|223|ICAO-KGXA|160|N-Normal|1|FM15-METAR|223|ICAO-KGXA|2.1|N-Normal|1|FM15-METAR|223|ICAO-KGXA|||||||||||||75|Derived||FM15-METAR|223|ICAO-KGXA|||||||||||||||||||||||||||||||||||||||||||||||||||||||||||||||||||||||||1016.9||1|FM15-METAR|223|ICAO-KGXA|0.3|2-Incr-(st|1|FM15-METAR|223|ICAO-KGXA|||||||||||||||||||||||||||||||||||||MET098METAR KGXA 200855Z AUTO 16004KT 10SM 01/M03 A3003 RMK AO2 SLP197 T00091032 52003 PWINO PNO TSNO $;||F||223|ICAO-KGXA
USI0000KGXA|GRAY BUTTE FLD|2011|12|20|15|00|34.5639|-117.6750|920.5|1.0||1|FM15-METAR|223|ICAO-KGXA|-4.0||1|FM15-METAR|223|ICAO-KGXA|||||||1021.4||1|FM15-METAR|223|ICAO-KGXA|170|N-Normal|1|FM15-METAR|223|ICAO-KGXA|2.1|N-Normal|1|FM15-METAR|223|ICAO-KGXA|||||||||||||70|Derived||FM15-METAR|223|ICAO-KGXA|||||||||||||||||||||||||||||||||||||||||||||||||||||||||||||||||||||||||1018.0||1|FM15-METAR|223|ICAO-KGXA|1.0|2-Incr-(st|1|FM15-METAR|223|ICAO-KGXA|||||||||||||||||||||||||||||||||||||MET085METAR KGXA 201455Z AUTO 17004KT 10SM CLR 01/M04 A3006 RMK AO2 SLP214 T00111037 52010;||F||223|ICAO-KGXA
USI0000KGXA|GRAY BUTTE FLD|2011|12|20|16|00|34.5639|-117.6750|920.5|5.0||1|FM15-METAR|223|ICAO-KGXA|-2.0||1|FM15-METAR|223|ICAO-KGXA|||||||1021.3||1|FM15-METAR|223|ICAO-KGXA|160|N-Normal|1|FM15-METAR|223|ICAO-KGXA|1.5|N-Normal|1|FM15-METAR|223|ICAO-KGXA|||||||||||||61|Derived||FM15-METAR|223|ICAO-KGXA|||||||||||||||||||||||||||||||||||||||||||||||||||||||||||||||||||||||||1018.6||1|FM15-METAR|223|ICAO-KGXA|||||||||||||||||||||||||||||||||||||||||||MET079METAR KGXA 201555Z AUTO 16003KT 10SM CLR 05/M02 A3008 RMK AO2 SLP213 T00501025;||F||223|ICAO-KGXA
USI0000KGXA|GRAY BUTTE FLD|2011|12|20|17|00|34.5639|-117.6750|920.5|9.0||1|FM15-METAR|223|ICAO-KGXA|-5.0||1|FM15-METAR|223|ICAO-KGXA|||||||1021.0||1|FM15-METAR|223|ICAO-KGXA|130|N-Normal|1|FM15-METAR|223|ICAO-KGXA|3.1|N-Normal|1|FM15-METAR|223|ICAO-KGXA|||||||||||||37|Derived||FM15-METAR|223|ICAO-KGXA|||||||||||||||||||||||||||||||||||||||||||||||||||||||||||||||||||||||||1019.0||1|FM15-METAR|223|ICAO-KGXA|||||||||||||||||||||||||||||||||||||||||||MET079METAR KGXA 201655Z AUTO 13006KT 10SM CLR 09/M05 A3009 RMK AO2 SLP210 T00921052;||F||223|ICAO-KGXA
USI0000KGXA|GRAY BUTTE FLD|2011|12|20|18|00|34.5639|-117.6750|920.5|10.0||1|FM15-METAR|223|ICAO-KGXA|-6.0||1|FM15-METAR|223|ICAO-KGXA|||||||1021.3||1|FM15-METAR|223|ICAO-KGXA|999|V-Variable|9|FM15-METAR|223|ICAO-KGXA|1.0|V-Variable|1|FM15-METAR|223|ICAO-KGXA|||||||||||||32|Derived||FM15-METAR|223|ICAO-KGXA|||||||||||||||||||||||||||||||||||||||||||||||||||||||||||||||||||||||||1019.0||1|FM15-METAR|223|ICAO-KGXA|0.9|1-Incr-the|1|FM15-METAR|223|ICAO-KGXA|||||||||||||||||||||||||||||||||||||MET104METAR KGXA 201755Z AUTO VRB02KT 10SM CLR 10/M06 A3009 RMK AO2 SLP213 T01041062 10039 20005 51009 TSNO $;||F||223|ICAO-KGXA
USI0000KGXA|GRAY BUTTE FLD|2011|12|20|19|00|34.5639|-117.6750|920.5|11.0||1|FM15-METAR|223|ICAO-KGXA|-6.0||1|FM15-METAR|223|ICAO-KGXA|||||||1020.9||1|FM15-METAR|223|ICAO-KGXA|060|N-Normal|1|FM15-METAR|223|ICAO-KGXA|2.1|N-Normal|1|FM15-METAR|223|ICAO-KGXA|||||||||||||30|Derived||FM15-METAR|223|ICAO-KGXA|||||||||||||||||||||||||||||||||||||||||||||||||||||||||||||||||||||||||1018.3||1|FM15-METAR|223|ICAO-KGXA|||||||||||||||||||||||||||||||||||||||||||MET079METAR KGXA 201855Z AUTO 06004KT 10SM CLR 11/M06 A3007 RMK AO2 SLP209 T01081063;||F||223|ICAO-KGXA
USI0000KGXA|GRAY BUTTE FLD|2011|12|20|20|00|34.5639|-117.6750|920.5|11.0||1|FM15-METAR|223|ICAO-KGXA|-6.0||1|FM15-METAR|223|ICAO-KGXA|||||||1020.0||1|FM15-METAR|223|ICAO-KGXA|999|V-Variable|9|FM15-METAR|223|ICAO-KGXA|2.6|V-Variable|1|FM15-METAR|223|ICAO-KGXA|||||||||||||30|Derived||FM15-METAR|223|ICAO-KGXA|||||||||||||||||||||||||||||||||||||||||||||||||||||||||||||||||||||||||1017.6||1|FM15-METAR|223|ICAO-KGXA|||||||||||||||||||||||||||||||||||||||||||MET089METAR KGXA 201955Z AUTO VRB05KT 10SM SCT170 11/M06 A3005 RMK AO2 SLP200 T01111065 TSNO $;||F||223|ICAO-KGXA
USI0000KGXA|GRAY BUTTE FLD|2011|12|20|21|00|34.5639|-117.6750|920.5|12.0||1|FM15-METAR|223|ICAO-KGXA|-7.0||1|FM15-METAR|223|ICAO-KGXA|||||||1019.0||1|FM15-METAR|223|ICAO-KGXA|090|N-Normal|1|FM15-METAR|223|ICAO-KGXA|5.1|N-Normal|1|FM15-METAR|223|ICAO-KGXA|7.2||1|FM15-METAR|223|ICAO-KGXA|||||||26|Derived||FM15-METAR|223|ICAO-KGXA|||||||||||||||||||||||||||||||||||||||||||||||||||||||||||||||||||||||||1016.6||1|FM15-METAR|223|ICAO-KGXA|-2.1|7-Decr-(st|1|FM15-METAR|223|ICAO-KGXA|||||||||||||||||||||||||||||||||||||MET095METAR KGXA 202055Z AUTO 09010G14KT 10SM CLR 12/M07 A3002 RMK AO2 SLP190 T01161071 57021 TSNO $;||F||223|ICAO-KGXA
USI0000KGXA|GRAY BUTTE FLD|2011|12|20|22|00|34.5639|-117.6750|920.5|12.0||1|FM15-METAR|223|ICAO-KGXA|-7.0||1|FM15-METAR|223|ICAO-KGXA|||||||1018.4||1|FM15-METAR|223|ICAO-KGXA|999|V-Variable|9|FM15-METAR|223|ICAO-KGXA|3.1|V-Variable|1|FM15-METAR|223|ICAO-KGXA|||||||||||||26|Derived||FM15-METAR|223|ICAO-KGXA|||||||||||||||||||||||||||||||||||||||||||||||||||||||||||||||||||||||||1015.9||1|FM15-METAR|223|ICAO-KGXA|||||||||||||||||||||||||||||||||||||||||||MET086METAR KGXA 202155Z AUTO VRB06KT 10SM CLR 12/M07 A3000 RMK AO2 SLP184 T01201070 TSNO $;||F||223|ICAO-KGXA
USI0000KGXA|GRAY BUTTE FLD|2011|12|20|23|00|34.5639|-117.6750|920.5|12.0||1|FM15-METAR|223|ICAO-KGXA|-8.0||1|FM15-METAR|223|ICAO-KGXA|||||||1018.3||1|FM15-METAR|223|ICAO-KGXA|080|N-Normal|1|FM15-METAR|223|ICAO-KGXA|3.1|N-Normal|1|FM15-METAR|223|ICAO-KGXA|||||||||||||24|Derived||FM15-METAR|223|ICAO-KGXA|||||||||||||||||||||||||||||||||||||||||||||||||||||||||||||||||||||||||1015.9||1|FM15-METAR|223|ICAO-KGXA|||||||||||||||||||||||||||||||||||||||||||MET079METAR KGXA 202255Z AUTO 08006KT 10SM CLR 12/M08 A3000 RMK AO2 SLP183 T01171076;||F||223|ICAO-KGXA
USI0000KGXA|GRAY BUTTE FLD|2011|12|21|00|00|34.5639|-117.6750|920.5|11.0||1|FM15-METAR|223|ICAO-KGXA|-8.0||1|FM15-METAR|223|ICAO-KGXA|||||||1018.4||1|FM15-METAR|223|ICAO-KGXA|050|N-Normal|1|FM15-METAR|223|ICAO-KGXA|1.5|N-Normal|1|FM15-METAR|223|ICAO-KGXA|||||||||||||26|Derived||FM15-METAR|223|ICAO-KGXA|||||||||||||||||||||||||||||||||||||||||||||||||||||||||||||||||||||||||1015.9||1|FM15-METAR|223|ICAO-KGXA|-0.8|6-Decr,-th|1|FM15-METAR|223|ICAO-KGXA|||||||||||||||||||||||||||||||||||||MET107METAR KGXA 202355Z AUTO 05003KT 10SM CLR 11/M08 A3000 RMK AO2 SLP184 T01131077 10107 20004 401210008 56008;||F||223|ICAO-KGXA
USI0000KGXA|GRAY BUTTE FLD|2011|12|21|01|00|34.5639|-117.6750|920.5|8.0||1|FM15-METAR|223|ICAO-KGXA|-7.0||1|FM15-METAR|223|ICAO-KGXA|||||||1019.1||1|FM15-METAR|223|ICAO-KGXA|150|N-Normal|1|FM15-METAR|223|ICAO-KGXA|1.5|N-Normal|1|FM15-METAR|223|ICAO-KGXA|||||||||||||34|Derived||FM15-METAR|223|ICAO-KGXA|||||||||||||||||||||||||||||||||||||||||||||||||||||||||||||||||||||||||1015.9||1|FM15-METAR|223|ICAO-KGXA|||||||||||||||||||||||||||||||||||||||||||MET081METAR KGXA 210055Z AUTO 15003KT 10SM CLR 08/M07 A3000 RMK AO2 SLP191 T00811068 $;||F||223|ICAO-KGXA
USI0000KGXA|GRAY BUTTE FLD|2011|12|21|02|00|34.5639|-117.6750|920.5|4.0||1|FM15-METAR|223|ICAO-KGXA|-5.0||1|FM15-METAR|223|ICAO-KGXA|||||||1020.2||1|FM15-METAR|223|ICAO-KGXA|170|N-Normal|1|FM15-METAR|223|ICAO-KGXA|2.6|N-Normal|1|FM15-METAR|223|ICAO-KGXA|||||||||||||52|Derived||FM15-METAR|223|ICAO-KGXA|||||||||||||||||||||||||||||||||||||||||||||||||||||||||||||||||||||||||1015.9||1|FM15-METAR|223|ICAO-KGXA|||||||||||||||||||||||||||||||||||||||||||MET081METAR KGXA 210155Z AUTO 17005KT 10SM CLR 04/M05 A3000 RMK AO2 SLP202 T00421054 $;||F||223|ICAO-KGXA
USI0000KGXA|GRAY BUTTE FLD|2011|12|21|03|00|34.5639|-117.6750|920.5|4.0||1|FM15-METAR|223|ICAO-KGXA|-6.0||1|FM15-METAR|223|ICAO-KGXA|||||||1020.6||1|FM15-METAR|223|ICAO-KGXA|170|N-Normal|1|FM15-METAR|223|ICAO-KGXA|2.6|N-Normal|1|FM15-METAR|223|ICAO-KGXA|||||||||||||48|Derived||FM15-METAR|223|ICAO-KGXA|||||||||||||||||||||||||||||||||||||||||||||||||||||||||||||||||||||||||1016.3||1|FM15-METAR|223|ICAO-KGXA|0.5|2-Incr-(st|1|FM15-METAR|223|ICAO-KGXA|||||||||||||||||||||||||||||||||||||MET098METAR KGXA 210255Z AUTO 17005KT 10SM 04/M06 A3001 RMK AO2 SLP206 T00351058 52005 PWINO PNO TSNO $;||F||223|ICAO-KGXA
USI0000KGXA|GRAY BUTTE FLD|2011|12|21|16|00|34.5639|-117.6750|920.5|5.0||1|FM15-METAR|223|ICAO-KGXA|-8.0||1|FM15-METAR|223|ICAO-KGXA|||||||1021.3||1|FM15-METAR|223|ICAO-KGXA|180|N-Normal|1|FM15-METAR|223|ICAO-KGXA|1.5|N-Normal|1|FM15-METAR|223|ICAO-KGXA|||||||||||||39|Derived||FM15-METAR|223|ICAO-KGXA|||||||||||||||||||||||||||||||||||||||||||||||||||||||||||||||||||||||||1017.6||1|FM15-METAR|223|ICAO-KGXA|||||||||||||||||||||||||||||||||||||||||||MET079METAR KGXA 211555Z AUTO 18003KT 10SM CLR 05/M08 A3005 RMK AO2 SLP213 T00461079;||F||223|ICAO-KGXA
USI0000KGXA|GRAY BUTTE FLD|2011|12|21|17|00|34.5639|-117.6750|920.5|9.0||1|FM15-METAR|223|ICAO-KGXA|-7.0||1|FM15-METAR|223|ICAO-KGXA|||||||1020.7||1|FM15-METAR|223|ICAO-KGXA|120|N-Normal|1|FM15-METAR|223|ICAO-KGXA|1.0|N-Normal|1|FM15-METAR|223|ICAO-KGXA|||||||||||||32|Derived||FM15-METAR|223|ICAO-KGXA|||||||||||||||||||||||||||||||||||||||||||||||||||||||||||||||||||||||||1018.0||1|FM15-METAR|223|ICAO-KGXA|||||||||||||||||||||||||||||||||||||||||||MET079METAR KGXA 211655Z AUTO 12002KT 10SM CLR 09/M07 A3006 RMK AO2 SLP207 T00901073;||F||223|ICAO-KGXA
USI0000KGXA|GRAY BUTTE FLD|2011|12|21|18|00|34.5639|-117.6750|920.5|13.0||1|FM15-METAR|223|ICAO-KGXA|-7.0||1|FM15-METAR|223|ICAO-KGXA|||||||1019.8||1|FM15-METAR|223|ICAO-KGXA|999|C-Calm|9|FM15-METAR|223|ICAO-KGXA|0.0|C-Calm|1|FM15-METAR|223|ICAO-KGXA|||||||||||||24|Derived||FM15-METAR|223|ICAO-KGXA|||||||||||||||||||||||||||||||||||||||||||||||||||||||||||||||||||||||||1018.0||1|FM15-METAR|223|ICAO-KGXA|0.5|2-Incr-(st|1|FM15-METAR|223|ICAO-KGXA|||||||||||||||||||||||||||||||||||||MET104METAR KGXA 211755Z AUTO 00000KT 10SM CLR 13/M07 A3006 RMK AO2 SLP198 T01271075 10033 21015 52005 TSNO $;||F||223|ICAO-KGXA
USI0000KGXA|GRAY BUTTE FLD|2011|12|21|19|00|34.5639|-117.6750|920.5|13.0||1|FM15-METAR|223|ICAO-KGXA|-7.0||1|FM15-METAR|223|ICAO-KGXA|||||||1019.4||1|FM15-METAR|223|ICAO-KGXA|||||||||||||||||||||||||24|Derived||FM15-METAR|223|ICAO-KGXA|||||||||||||||||||||||||||||||||||||||||||||||||||||||||||||||||||||||||1017.3||1|FM15-METAR|223|ICAO-KGXA|||||||||||||||||||||||||||||||||||||||||||MET071METAR KGXA 211855Z AUTO 10SM CLR 13/M07 A3004 RMK AO2 SLP194 T01301074;||F||223|ICAO-KGXA
USI0000KGXA|GRAY BUTTE FLD|2011|12|21|20|00|34.5639|-117.6750|920.5|15.0||1|FM15-METAR|223|ICAO-KGXA|-9.0||1|FM15-METAR|223|ICAO-KGXA|||||||1018.0||1|FM15-METAR|223|ICAO-KGXA|999|V-Variable|9|FM15-METAR|223|ICAO-KGXA|3.1|V-Variable|1|FM15-METAR|223|ICAO-KGXA|||||||||||||18|Derived||FM15-METAR|223|ICAO-KGXA|||||||||||||||||||||||||||||||||||||||||||||||||||||||||||||||||||||||||1016.3||1|FM15-METAR|223|ICAO-KGXA|||||||||||||||||||||||||||||||||||||||||||MET086METAR KGXA 211955Z AUTO VRB06KT 10SM CLR 15/M09 A3001 RMK AO2 SLP180 T01531088 TSNO $;||F||223|ICAO-KGXA
USI0000KGXA|GRAY BUTTE FLD|2011|12|21|21|00|34.5639|-117.6750|920.5|16.0||1|FM15-METAR|223|ICAO-KGXA|-10.0||1|FM15-METAR|223|ICAO-KGXA|||||||1017.2||1|FM15-METAR|223|ICAO-KGXA|280|N-Normal|1|FM15-METAR|223|ICAO-KGXA|3.1|N-Normal|1|FM15-METAR|223|ICAO-KGXA|||||||||||||16|Derived||FM15-METAR|223|ICAO-KGXA|||||||||||||||||||||||||||||||||||||||||||||||||||||||||||||||||||||||||1015.2||1|FM15-METAR|223|ICAO-KGXA|-2.4|8-Steady-o|1|FM15-METAR|223|ICAO-KGXA|||||||||||||||||||||||||||||||||||||MET092METAR KGXA 212055Z AUTO 28006KT 10SM CLR 16/M10 A2998 RMK AO2 SLP172 T01571097 58024 TSNO $;||F||223|ICAO-KGXA
USI0000KGXA|GRAY BUTTE FLD|2011|12|21|22|00|34.5639|-117.6750|920.5|16.0||1|FM15-METAR|223|ICAO-KGXA|-8.0||1|FM15-METAR|223|ICAO-KGXA|||||||1016.6||1|FM15-METAR|223|ICAO-KGXA|999|V-Variable|9|FM15-METAR|223|ICAO-KGXA|2.6|V-Variable|1|FM15-METAR|223|ICAO-KGXA|||||||||||||19|Derived||FM15-METAR|223|ICAO-KGXA|||||||||||||||||||||||||||||||||||||||||||||||||||||||||||||||||||||||||1014.6||1|FM15-METAR|223|ICAO-KGXA|||||||||||||||||||||||||||||||||||||||||||MET086METAR KGXA 212155Z AUTO VRB05KT 10SM CLR 16/M08 A2996 RMK AO2 SLP166 T01591079 TSNO $;||F||223|ICAO-KGXA
USI0000KGXA|GRAY BUTTE FLD|2011|12|21|23|00|34.5639|-117.6750|920.5|16.0||1|FM15-METAR|223|ICAO-KGXA|-8.0||1|FM15-METAR|223|ICAO-KGXA|||||||1016.2||1|FM15-METAR|223|ICAO-KGXA|310|N-Normal|1|FM15-METAR|223|ICAO-KGXA|1.5|N-Normal|1|FM15-METAR|223|ICAO-KGXA|||||||||||||19|Derived||FM15-METAR|223|ICAO-KGXA|||||||||||||||||||||||||||||||||||||||||||||||||||||||||||||||||||||||||1014.2||1|FM15-METAR|223|ICAO-KGXA|||||||||||||||||||||||||||||||||||||||||||MET086METAR KGXA 212255Z AUTO 31003KT 10SM CLR 16/M08 A2995 RMK AO2 SLP162 T01611084 TSNO $;||F||223|ICAO-KGXA
USI0000KGXA|GRAY BUTTE FLD|2011|12|22|00|00|34.5639|-117.6750|920.5|15.0||1|FM15-METAR|223|ICAO-KGXA|-8.0||1|FM15-METAR|223|ICAO-KGXA|||||||1016.2||1|FM15-METAR|223|ICAO-KGXA|030|N-Normal|1|FM15-METAR|223|ICAO-KGXA|1.5|N-Normal|1|FM15-METAR|223|ICAO-KGXA|||||||||||||20|Derived||FM15-METAR|223|ICAO-KGXA|||||||||||||||||||||||||||||||||||||||||||||||||||||||||||||||||||||||||1014.2||1|FM15-METAR|223|ICAO-KGXA|-0.9|7-Decr-(st|1|FM15-METAR|223|ICAO-KGXA|||||||||||||||||||||||||||||||||||||MET114METAR KGXA 212355Z AUTO 03003KT 10SM CLR 15/M08 A2995 RMK AO2 SLP162 T01531084 10131 21013 401640003 57009 TSNO $;||F||223|ICAO-KGXA
USI0000KGXA|GRAY BUTTE FLD|2011|12|22|01|00|34.5639|-117.6750|920.5|12.0||1|FM15-METAR|223|ICAO-KGXA|-7.0||1|FM15-METAR|223|ICAO-KGXA|||||||1017.2||1|FM15-METAR|223|ICAO-KGXA|040|N-Normal|1|FM15-METAR|223|ICAO-KGXA|0.5|N-Normal|1|FM15-METAR|223|ICAO-KGXA|||||||||||||26|Derived||FM15-METAR|223|ICAO-KGXA|||||||||||||||||||||||||||||||||||||||||||||||||||||||||||||||||||||||||1014.6||1|FM15-METAR|223|ICAO-KGXA|||||||||||||||||||||||||||||||||||||||||||MET079METAR KGXA 220055Z AUTO 04001KT 10SM CLR 12/M07 A2996 RMK AO2 SLP172 T01241072;||F||223|ICAO-KGXA
USI0000KGXA|GRAY BUTTE FLD|2011|12|22|02|00|34.5639|-117.6750|920.5|6.0||1|FM15-METAR|223|ICAO-KGXA|-5.0||1|FM15-METAR|223|ICAO-KGXA|||||||1019.1||1|FM15-METAR|223|ICAO-KGXA|180|N-Normal|1|FM15-METAR|223|ICAO-KGXA|2.6|N-Normal|1|FM15-METAR|223|ICAO-KGXA|||||||||||||46|Derived||FM15-METAR|223|ICAO-KGXA|||||||||||||||||||||||||||||||||||||||||||||||||||||||||||||||||||||||||1015.2||1|FM15-METAR|223|ICAO-KGXA|||||||||||||||||||||||||||||||||||||||||||MET079METAR KGXA 220155Z AUTO 18005KT 10SM CLR 06/M05 A2998 RMK AO2 SLP191 T00591055;||F||223|ICAO-KGXA
USI0000KGXA|GRAY BUTTE FLD|2011|12|22|03|00|34.5639|-117.6750|920.5|5.0||1|FM15-METAR|223|ICAO-KGXA|-5.0||1|FM15-METAR|223|ICAO-KGXA|||||||1020.0||1|FM15-METAR|223|ICAO-KGXA|170|N-Normal|1|FM15-METAR|223|ICAO-KGXA|2.1|N-Normal|1|FM15-METAR|223|ICAO-KGXA|||||||||||||49|Derived||FM15-METAR|223|ICAO-KGXA|||||||||||||||||||||||||||||||||||||||||||||||||||||||||||||||||||||||||1015.6||1|FM15-METAR|223|ICAO-KGXA|1.3|2-Incr-(st|1|FM15-METAR|223|ICAO-KGXA|||||||||||||||||||||||||||||||||||||MET087METAR KGXA 220255Z AUTO 17004KT 10SM CLR 05/M05 A2999 RMK AO2 SLP200 T00471048 52013 $;||F||223|ICAO-KGXA
USI0000KGXA|GRAY BUTTE FLD|2011|12|22|04|00|34.5639|-117.6750|920.5|4.0||1|FM15-METAR|223|ICAO-KGXA|-5.0||1|FM15-METAR|223|ICAO-KGXA|||||||1019.7||1|FM15-METAR|223|ICAO-KGXA|160|N-Normal|1|FM15-METAR|223|ICAO-KGXA|2.6|N-Normal|1|FM15-METAR|223|ICAO-KGXA|||||||||||||52|Derived||FM15-METAR|223|ICAO-KGXA|||||||||||||||||||||||||||||||||||||||||||||||||||||||||||||||||||||||||1016.3||1|FM15-METAR|223|ICAO-KGXA|||||||||||||||||||||||||||||||||||||||||||MET081METAR KGXA 220355Z AUTO 16005KT 10SM CLR 04/M05 A3001 RMK AO2 SLP197 T00371046 $;||F||223|ICAO-KGXA
USI0000KGXA|GRAY BUTTE FLD|2011|12|22|05|00|34.5639|-117.6750|920.5|2.0||1|FM15-METAR|223|ICAO-KGXA|-5.0||1|FM15-METAR|223|ICAO-KGXA|||||||1019.9||1|FM15-METAR|223|ICAO-KGXA|160|N-Normal|1|FM15-METAR|223|ICAO-KGXA|2.6|N-Normal|1|FM15-METAR|223|ICAO-KGXA|||||||||||||60|Derived||FM15-METAR|223|ICAO-KGXA|||||||||||||||||||||||||||||||||||||||||||||||||||||||||||||||||||||||||1016.9||1|FM15-METAR|223|ICAO-KGXA|||||||||||||||||||||||||||||||||||||||||||MET081METAR KGXA 220455Z AUTO 16005KT 10SM CLR 02/M05 A3003 RMK AO2 SLP199 T00231048 $;||F||223|ICAO-KGXA
USI0000KGXA|GRAY BUTTE FLD|2011|12|22|15|00|34.5639|-117.6750|920.5|-1.0||1|FM15-METAR|223|ICAO-KGXA|-16.0||1|FM15-METAR|223|ICAO-KGXA|||||||1031.5||1|FM15-METAR|223|ICAO-KGXA|120|N-Normal|1|FM15-METAR|223|ICAO-KGXA|2.6|N-Normal|1|FM15-METAR|223|ICAO-KGXA|||||||||||||31|Derived||FM15-METAR|223|ICAO-KGXA|||||||||||||||||||||||||||||||||||||||||||||||||||||||||||||||||||||||||1026.4||1|FM15-METAR|223|ICAO-KGXA|3.3|2-Incr-(st|1|FM15-METAR|223|ICAO-KGXA|||||||||||||||||||||||||||||||||||||MET086METAR KGXA 221455Z AUTO 12005KT 10SM CLR M01/M16 A3031 RMK AO2 SLP315 T10141159 52033;||F||223|ICAO-KGXA
USI0000KGXA|GRAY BUTTE FLD|2011|12|22|16|00|34.5639|-117.6750|920.5|3.0||1|FM15-METAR|223|ICAO-KGXA|-17.0||1|FM15-METAR|223|ICAO-KGXA|||||||1031.3||1|FM15-METAR|223|ICAO-KGXA|120|N-Normal|1|FM15-METAR|223|ICAO-KGXA|2.6|N-Normal|1|FM15-METAR|223|ICAO-KGXA|||||||||||||22|Derived||FM15-METAR|223|ICAO-KGXA|||||||||||||||||||||||||||||||||||||||||||||||||||||||||||||||||||||||||1027.1||1|FM15-METAR|223|ICAO-KGXA|||||||||||||||||||||||||||||||||||||||||||MET079METAR KGXA 221555Z AUTO 12005KT 10SM CLR 03/M17 A3033 RMK AO2 SLP313 T00261170;||F||223|ICAO-KGXA
USI0000KGXA|GRAY BUTTE FLD|2011|12|22|17|00|34.5639|-117.6750|920.5|5.0||1|FM15-METAR|223|ICAO-KGXA|-18.0||1|FM15-METAR|223|ICAO-KGXA|||||||1031.6||1|FM15-METAR|223|ICAO-KGXA|120|N-Normal|1|FM15-METAR|223|ICAO-KGXA|3.1|N-Normal|1|FM15-METAR|223|ICAO-KGXA|||||||||||||17|Derived||FM15-METAR|223|ICAO-KGXA|||||||||||||||||||||||||||||||||||||||||||||||||||||||||||||||||||||||||1027.4||1|FM15-METAR|223|ICAO-KGXA|||||||||||||||||||||||||||||||||||||||||||MET079METAR KGXA 221655Z AUTO 12006KT 10SM CLR 05/M18 A3034 RMK AO2 SLP316 T00481184;||F||223|ICAO-KGXA
USI0000KGXA|GRAY BUTTE FLD|2011|12|22|18|00|34.5639|-117.6750|920.5|5.0||1|FM15-METAR|223|ICAO-KGXA|-19.0||1|FM15-METAR|223|ICAO-KGXA|||||||1032.2||1|FM15-METAR|223|ICAO-KGXA|080|N-Normal|1|FM15-METAR|223|ICAO-KGXA|4.6|N-Normal|1|FM15-METAR|223|ICAO-KGXA|8.2||1|FM15-METAR|223|ICAO-KGXA|||||||16|Derived||FM15-METAR|223|ICAO-KGXA|||||||||||||||||||||||||||||||||||||||||||||||||||||||||||||||||||||||||1028.1||1|FM15-METAR|223|ICAO-KGXA|1.5|2-Incr-(st|1|FM15-METAR|223|ICAO-KGXA|||||||||||||||||||||||||||||||||||||MET100METAR KGXA 221755Z AUTO 08009G16KT 10SM CLR 05/M19 A3036 RMK AO2 SLP322 T00541195 10029 20000 52015;||F||223|ICAO-KGXA
USI0000KGXA|GRAY BUTTE FLD|2011|12|22|19|00|34.5639|-117.6750|920.5|7.0||1|FM15-METAR|223|ICAO-KGXA|-19.0||1|FM15-METAR|223|ICAO-KGXA|||||||1031.1||1|FM15-METAR|223|ICAO-KGXA|060|N-Normal|1|FM15-METAR|223|ICAO-KGXA|7.7|N-Normal|1|FM15-METAR|223|ICAO-KGXA|10.8||1|FM15-METAR|223|ICAO-KGXA|||||||14|Derived||FM15-METAR|223|ICAO-KGXA|||||||||||||||||||||||||||||||||||||||||||||||||||||||||||||||||||||||||1027.4||1|FM15-METAR|223|ICAO-KGXA|||||||||||||||||||||||||||||||||||||||||||MET082METAR KGXA 221855Z AUTO 06015G21KT 10SM CLR 07/M19 A3034 RMK AO2 SLP311 T00671193;||F||223|ICAO-KGXA
USI0000KGXA|GRAY BUTTE FLD|2011|12|22|20|00|34.5639|-117.6750|920.5|8.0||1|FM15-METAR|223|ICAO-KGXA|-19.0||1|FM15-METAR|223|ICAO-KGXA|||||||1029.8||1|FM15-METAR|223|ICAO-KGXA|040|N-Normal|1|FM15-METAR|223|ICAO-KGXA|8.2|N-Normal|1|FM15-METAR|223|ICAO-KGXA|13.4||1|FM15-METAR|223|ICAO-KGXA|||||||13|Derived||FM15-METAR|223|ICAO-KGXA|||||||||||||||||||||||||||||||||||||||||||||||||||||||||||||||||||||||||1026.1||1|FM15-METAR|223|ICAO-KGXA|||||||||||||||||||||||||||||||||||||||||||MET082METAR KGXA 221955Z AUTO 04016G26KT 10SM CLR 08/M19 A3030 RMK AO2 SLP298 T00751190;||F||223|ICAO-KGXA
USI0000KGXA|GRAY BUTTE FLD|2011|12|22|21|00|34.5639|-117.6750|920.5|8.0||1|FM15-METAR|223|ICAO-KGXA|-19.0||1|FM15-METAR|223|ICAO-KGXA|||||||1029.3||1|FM15-METAR|223|ICAO-KGXA|040|N-Normal|1|FM15-METAR|223|ICAO-KGXA|5.1|N-Normal|1|FM15-METAR|223|ICAO-KGXA|9.8||1|FM15-METAR|223|ICAO-KGXA|||||||13|Derived||FM15-METAR|223|ICAO-KGXA|||||||||||||||||||||||||||||||||||||||||||||||||||||||||||||||||||||||||1026.1||1|FM15-METAR|223|ICAO-KGXA|-2.0|6-Decr,-th|1|FM15-METAR|223|ICAO-KGXA|||||||||||||||||||||||||||||||||||||MET088METAR KGXA 222055Z AUTO 04010G19KT 10SM CLR 08/M19 A3030 RMK AO2 SLP293 T00781193 56020;||F||223|ICAO-KGXA
USI0000KGXA|GRAY BUTTE FLD|2011|12|22|22|00|34.5639|-117.6750|920.5|9.0||1|FM15-METAR|223|ICAO-KGXA|-19.0||1|FM15-METAR|223|ICAO-KGXA|||||||1029.2||1|FM15-METAR|223|ICAO-KGXA|040|N-Normal|1|FM15-METAR|223|ICAO-KGXA|5.7|N-Normal|1|FM15-METAR|223|ICAO-KGXA|9.3||1|FM15-METAR|223|ICAO-KGXA|||||||12|Derived||FM15-METAR|223|ICAO-KGXA|||||||||||||||||||||||||||||||||||||||||||||||||||||||||||||||||||||||||1026.1||1|FM15-METAR|223|ICAO-KGXA|||||||||||||||||||||||||||||||||||||||||||MET082METAR KGXA 222155Z AUTO 04011G18KT 10SM CLR 09/M19 A3030 RMK AO2 SLP292 T00871188;||F||223|ICAO-KGXA
USI0000KGXA|GRAY BUTTE FLD|2011|12|22|23|00|34.5639|-117.6750|920.5|9.0||1|FM15-METAR|223|ICAO-KGXA|-20.0||1|FM15-METAR|223|ICAO-KGXA|||||||1029.1||1|FM15-METAR|223|ICAO-KGXA|040|N-Normal|1|FM15-METAR|223|ICAO-KGXA|6.7|N-Normal|1|FM15-METAR|223|ICAO-KGXA|9.3||1|FM15-METAR|223|ICAO-KGXA|||||||11|Derived||FM15-METAR|223|ICAO-KGXA|||||||||||||||||||||||||||||||||||||||||||||||||||||||||||||||||||||||||1025.7||1|FM15-METAR|223|ICAO-KGXA|||||||||||||||||||||||||||||||||||||||||||MET082METAR KGXA 222255Z AUTO 04013G18KT 10SM CLR 09/M20 A3029 RMK AO2 SLP291 T00851200;||F||223|ICAO-KGXA
USI0000KGXA|GRAY BUTTE FLD|2011|12|23|00|00|34.5639|-117.6750|920.5|8.0||1|FM15-METAR|223|ICAO-KGXA|-19.0||1|FM15-METAR|223|ICAO-KGXA|||||||1029.9||1|FM15-METAR|223|ICAO-KGXA|070|N-Normal|1|FM15-METAR|223|ICAO-KGXA|5.1|N-Normal|1|FM15-METAR|223|ICAO-KGXA|||||||||||||13|Derived||FM15-METAR|223|ICAO-KGXA|||||||||||||||||||||||||||||||||||||||||||||||||||||||||||||||||||||||||1026.4||1|FM15-METAR|223|ICAO-KGXA|0.3|3-Decr-or-|1|FM15-METAR|223|ICAO-KGXA|||||||||||||||||||||||||||||||||||||MET107METAR KGXA 222355Z AUTO 07010KT 10SM CLR 08/M19 A3031 RMK AO2 SLP299 T00771188 10056 21025 401531022 53003;||F||223|ICAO-KGXA
USI0000KGXA|GRAY BUTTE FLD|2011|12|23|01|00|34.5639|-117.6750|920.5|5.0||1|FM15-METAR|223|ICAO-KGXA|-18.0||1|FM15-METAR|223|ICAO-KGXA|||||||1031.1||1|FM15-METAR|223|ICAO-KGXA|110|N-Normal|1|FM15-METAR|223|ICAO-KGXA|2.1|N-Normal|1|FM15-METAR|223|ICAO-KGXA|||||||||||||17|Derived||FM15-METAR|223|ICAO-KGXA|||||||||||||||||||||||||||||||||||||||||||||||||||||||||||||||||||||||||1026.8||1|FM15-METAR|223|ICAO-KGXA|||||||||||||||||||||||||||||||||||||||||||MET081METAR KGXA 230055Z AUTO 11004KT 10SM CLR 05/M18 A3032 RMK AO2 SLP311 T00451183 $;||F||223|ICAO-KGXA
USI0000KGXA|GRAY BUTTE FLD|2011|12|23|02|00|34.5639|-117.6750|920.5|2.0||1|FM15-METAR|223|ICAO-KGXA|-17.0||1|FM15-METAR|223|ICAO-KGXA|||||||1032.7||1|FM15-METAR|223|ICAO-KGXA|130|N-Normal|1|FM15-METAR|223|ICAO-KGXA|2.1|N-Normal|1|FM15-METAR|223|ICAO-KGXA|||||||||||||23|Derived||FM15-METAR|223|ICAO-KGXA|||||||||||||||||||||||||||||||||||||||||||||||||||||||||||||||||||||||||1027.4||1|FM15-METAR|223|ICAO-KGXA|||||||||||||||||||||||||||||||||||||||||||MET081METAR KGXA 230155Z AUTO 13004KT 10SM CLR 02/M17 A3034 RMK AO2 SLP327 T00241174 $;||F||223|ICAO-KGXA
USI0000KGXA|GRAY BUTTE FLD|2011|12|23|03|00|34.5639|-117.6750|920.5|0.0||1|FM15-METAR|223|ICAO-KGXA|-16.0||1|FM15-METAR|223|ICAO-KGXA|||||||1033.9||1|FM15-METAR|223|ICAO-KGXA|170|N-Normal|1|FM15-METAR|223|ICAO-KGXA|3.1|N-Normal|1|FM15-METAR|223|ICAO-KGXA|||||||||||||29|Derived||FM15-METAR|223|ICAO-KGXA|||||||||||||||||||||||||||||||||||||||||||||||||||||||||||||||||||||||||1028.1||1|FM15-METAR|223|ICAO-KGXA|1.5|3-Decr-or-|1|FM15-METAR|223|ICAO-KGXA|||||||||||||||||||||||||||||||||||||MET087METAR KGXA 230255Z AUTO 17006KT 10SM CLR 00/M16 A3036 RMK AO2 SLP339 T10031164 53015 $;||F||223|ICAO-KGXA
USI0000KGXA|GRAY BUTTE FLD|2011|12|23|04|00|34.5639|-117.6750|920.5|0.0||1|FM15-METAR|223|ICAO-KGXA|-16.0||1|FM15-METAR|223|ICAO-KGXA|||||||1033.8||1|FM15-METAR|223|ICAO-KGXA|160|N-Normal|1|FM15-METAR|223|ICAO-KGXA|2.1|N-Normal|1|FM15-METAR|223|ICAO-KGXA|||||||||||||29|Derived||FM15-METAR|223|ICAO-KGXA|||||||||||||||||||||||||||||||||||||||||||||||||||||||||||||||||||||||||1028.8||1|FM15-METAR|223|ICAO-KGXA|||||||||||||||||||||||||||||||||||||||||||MET081METAR KGXA 230355Z AUTO 16004KT 10SM CLR 00/M16 A3038 RMK AO2 SLP338 T10021163 $;||F||223|ICAO-KGXA
USI0000KGXA|GRAY BUTTE FLD|2011|12|23|05|00|34.5639|-117.6750|920.5|1.0||1|FM15-METAR|223|ICAO-KGXA|-17.0||1|FM15-METAR|223|ICAO-KGXA|||||||1033.6||1|FM15-METAR|223|ICAO-KGXA|180|N-Normal|1|FM15-METAR|223|ICAO-KGXA|3.1|N-Normal|1|FM15-METAR|223|ICAO-KGXA|||||||||||||25|Derived||FM15-METAR|223|ICAO-KGXA|||||||||||||||||||||||||||||||||||||||||||||||||||||||||||||||||||||||||1029.1||1|FM15-METAR|223|ICAO-KGXA|||||||||||||||||||||||||||||||||||||||||||MET081METAR KGXA 230455Z AUTO 18006KT 10SM CLR 01/M17 A3039 RMK AO2 SLP336 T00101174 $;||F||223|ICAO-KGXA
USI0000KGXA|GRAY BUTTE FLD|2011|12|23|06|00|34.5639|-117.6750|920.5|1.0||1|FM15-METAR|223|ICAO-KGXA|-19.0||1|FM15-METAR|223|ICAO-KGXA|||||||1034.1||1|FM15-METAR|223|ICAO-KGXA|160|N-Normal|1|FM15-METAR|223|ICAO-KGXA|2.6|N-Normal|1|FM15-METAR|223|ICAO-KGXA|||||||||||||21|Derived||FM15-METAR|223|ICAO-KGXA|||||||||||||||||||||||||||||||||||||||||||||||||||||||||||||||||||||||||1030.1||1|FM15-METAR|223|ICAO-KGXA|1.8|2-Incr-(st|1|FM15-METAR|223|ICAO-KGXA|||||||||||||||||||||||||||||||||||||MET099METAR KGXA 230555Z AUTO 16005KT 10SM CLR 01/M19 A3042 RMK AO2 SLP341 T00101194 10087 20055 52018 $;||F||223|ICAO-KGXA
USI0000KGXA|GRAY BUTTE FLD|2011|12|23|07|00|34.5639|-117.6750|920.5|-1.0||1|FM15-METAR|223|ICAO-KGXA|-19.0||1|FM15-METAR|223|ICAO-KGXA|||||||1034.5||1|FM15-METAR|223|ICAO-KGXA|160|N-Normal|1|FM15-METAR|223|ICAO-KGXA|2.6|N-Normal|1|FM15-METAR|223|ICAO-KGXA|||||||||||||24|Derived||FM15-METAR|223|ICAO-KGXA|||||||||||||||||||||||||||||||||||||||||||||||||||||||||||||||||||||||||1030.1||1|FM15-METAR|223|ICAO-KGXA|||||||||||||||||||||||||||||||||||||||||||MET082METAR KGXA 230655Z AUTO 16005KT 10SM CLR M01/M19 A3042 RMK AO2 SLP345 T10101192 $;||F||223|ICAO-KGXA
USI0000KGXA|GRAY BUTTE FLD|2011|12|23|08|00|34.5639|-117.6750|920.5|1.0||1|FM15-METAR|223|ICAO-KGXA|-20.0||1|FM15-METAR|223|ICAO-KGXA|||||||1034.1||1|FM15-METAR|223|ICAO-KGXA|160|N-Normal|1|FM15-METAR|223|ICAO-KGXA|2.6|N-Normal|1|FM15-METAR|223|ICAO-KGXA|||||||||||||19|Derived||FM15-METAR|223|ICAO-KGXA|||||||||||||||||||||||||||||||||||||||||||||||||||||||||||||||||||||||||1030.1||1|FM15-METAR|223|ICAO-KGXA|||||||||||||||||||||||||||||||||||||||||||MET081METAR KGXA 230755Z AUTO 16005KT 10SM CLR 01/M20 A3042 RMK AO2 SLP341 T00071205 $;||F||223|ICAO-KGXA
USI0000KGXA|GRAY BUTTE FLD|2011|12|23|09|00|34.5639|-117.6750|920.5|0.0||1|FM15-METAR|223|ICAO-KGXA|-20.0||1|FM15-METAR|223|ICAO-KGXA|||||||1034.4||1|FM15-METAR|223|ICAO-KGXA|160|N-Normal|1|FM15-METAR|223|ICAO-KGXA|3.1|N-Normal|1|FM15-METAR|223|ICAO-KGXA|||||||||||||21|Derived||FM15-METAR|223|ICAO-KGXA|||||||||||||||||||||||||||||||||||||||||||||||||||||||||||||||||||||||||1030.5||1|FM15-METAR|223|ICAO-KGXA|0.4|2-Incr-(st|1|FM15-METAR|223|ICAO-KGXA|||||||||||||||||||||||||||||||||||||MET087METAR KGXA 230855Z AUTO 16006KT 10SM CLR 00/M20 A3043 RMK AO2 SLP344 T00001202 52004 $;||F||223|ICAO-KGXA
USI0000KGXA|GRAY BUTTE FLD|2011|12|23|10|00|34.5639|-117.6750|920.5|-1.0||1|FM15-METAR|223|ICAO-KGXA|-20.0||1|FM15-METAR|223|ICAO-KGXA|||||||1034.9||1|FM15-METAR|223|ICAO-KGXA|250|N-Normal|1|FM15-METAR|223|ICAO-KGXA|3.1|N-Normal|1|FM15-METAR|223|ICAO-KGXA|||||||||||||22|Derived||FM15-METAR|223|ICAO-KGXA|||||||||||||||||||||||||||||||||||||||||||||||||||||||||||||||||||||||||1031.2||1|FM15-METAR|223|ICAO-KGXA|||||||||||||||||||||||||||||||||||||||||||MET078METAR KGXA 230955Z AUTO 25006KT 10SM M01/M20 A3045 RMK AO2 SLP349 T10141201 $;||F||223|ICAO-KGXA
USI0000KGXA|GRAY BUTTE FLD|2011|12|23|11|00|34.5639|-117.6750|920.5|1.0||1|FM15-METAR|223|ICAO-KGXA|-22.0||1|FM15-METAR|223|ICAO-KGXA|||||||1034.1||1|FM15-METAR|223|ICAO-KGXA|140|N-Normal|1|FM15-METAR|223|ICAO-KGXA|2.6|N-Normal|1|FM15-METAR|223|ICAO-KGXA|||||||||||||16|Derived||FM15-METAR|223|ICAO-KGXA|||||||||||||||||||||||||||||||||||||||||||||||||||||||||||||||||||||||||1030.5||1|FM15-METAR|223|ICAO-KGXA|||||||||||||||||||||||||||||||||||||||||||MET077METAR KGXA 231055Z AUTO 14005KT 10SM 01/M22 A3043 RMK AO2 SLP341 T00111221 $;||F||223|ICAO-KGXA
USI0000KGXA|GRAY BUTTE FLD|2011|12|23|12|00|34.5639|-117.6750|920.5|3.0||1|FM15-METAR|223|ICAO-KGXA|-23.0||1|FM15-METAR|223|ICAO-KGXA|||||||1033.8||1|FM15-METAR|223|ICAO-KGXA|160|N-Normal|1|FM15-METAR|223|ICAO-KGXA|2.6|N-Normal|1|FM15-METAR|223|ICAO-KGXA|||||||||||||13|Derived||FM15-METAR|223|ICAO-KGXA|||||||||||||||||||||||||||||||||||||||||||||||||||||||||||||||||||||||||1030.5||1|FM15-METAR|223|ICAO-KGXA|0.1|0-Incr-the|1|FM15-METAR|223|ICAO-KGXA|||||||||||||||||||||||||||||||||||||MET095METAR KGXA 231155Z AUTO 16005KT 10SM 03/M23 A3043 RMK AO2 SLP338 T00281231 10076 21006 50001 $;||F||223|ICAO-KGXA
USI0000KGXA|GRAY BUTTE FLD|2011|12|23|13|00|34.5639|-117.6750|920.5|0.0||1|FM15-METAR|223|ICAO-KGXA|-23.0||1|FM15-METAR|223|ICAO-KGXA|||||||1035.7||1|FM15-METAR|223|ICAO-KGXA|150|N-Normal|1|FM15-METAR|223|ICAO-KGXA|2.1|N-Normal|1|FM15-METAR|223|ICAO-KGXA|||||||||||||16|Derived||FM15-METAR|223|ICAO-KGXA|||||||||||||||||||||||||||||||||||||||||||||||||||||||||||||||||||||||||1031.2||1|FM15-METAR|223|ICAO-KGXA|||||||||||||||||||||||||||||||||||||||||||MET077METAR KGXA 231255Z AUTO 15004KT 10SM 00/M23 A3045 RMK AO2 SLP357 T10031228 $;||F||223|ICAO-KGXA
USI0000KGXA|GRAY BUTTE FLD|2011|12|23|14|00|34.5639|-117.6750|920.5|-1.0||1|FM15-METAR|223|ICAO-KGXA|-22.0||1|FM15-METAR|223|ICAO-KGXA|||||||1037.5||1|FM15-METAR|223|ICAO-KGXA|150|N-Normal|1|FM15-METAR|223|ICAO-KGXA|2.6|N-Normal|1|FM15-METAR|223|ICAO-KGXA|||||||||||||19|Derived||FM15-METAR|223|ICAO-KGXA|||||||||||||||||||||||||||||||||||||||||||||||||||||||||||||||||||||||||1031.8||1|FM15-METAR|223|ICAO-KGXA|||||||||||||||||||||||||||||||||||||||||||MET078METAR KGXA 231355Z AUTO 15005KT 10SM M01/M22 A3047 RMK AO2 SLP375 T10081217 $;||F||223|ICAO-KGXA
USI0000KGXA|GRAY BUTTE FLD|2011|12|23|15|00|34.5639|-117.6750|920.5|-1.0||1|FM15-METAR|223|ICAO-KGXA|-21.0||1|FM15-METAR|223|ICAO-KGXA|||||||1037.8||1|FM15-METAR|223|ICAO-KGXA|160|N-Normal|1|FM15-METAR|223|ICAO-KGXA|2.6|N-Normal|1|FM15-METAR|223|ICAO-KGXA|||||||||||||20|Derived||FM15-METAR|223|ICAO-KGXA|||||||||||||||||||||||||||||||||||||||||||||||||||||||||||||||||||||||||1032.2||1|FM15-METAR|223|ICAO-KGXA|1.4|3-Decr-or-|1|FM15-METAR|223|ICAO-KGXA|||||||||||||||||||||||||||||||||||||MET099METAR KGXA 231455Z AUTO 16005KT 10SM M01/M21 A3048 RMK AO2 SLP378 T10061214 53014 PWINO PNO TSNO $;||F||223|ICAO-KGXA
