Station_ID|Station_name|Year|Month|Day|Hour|Minute|Latitude|Longitude|Elevation|temperature|temperature_Measurement_Code|temperature_Quality_Code|temperature_Report_Type|temperature_Source_Code|temperature_Source_Station_ID|dew_point_temperature|dew_point_temperature_Measurement_Code|dew_point_temperature_Quality_Code|dew_point_temperature_Report_Type|dew_point_temperature_Source_Code|dew_point_temperature_Source_Station_ID|station_level_pressure|station_level_pressure_Measurement_Code|station_level_pressure_Quality_Code|station_level_pressure_Report_Type|station_level_pressure_Source_Code|station_level_pressure_Source_Station_ID|sea_level_pressure|sea_level_pressure_Measurement_Code|sea_level_pressure_Quality_Code|sea_level_pressure_Report_Type|sea_level_pressure_Source_Code|sea_level_pressure_Source_Station_ID|wind_direction|wind_direction_Measurement_Code|wind_direction_Quality_Code|wind_direction_Report_Type|wind_direction_Source_Code|wind_direction_Source_Station_ID|wind_speed|wind_speed_Measurement_Code|wind_speed_Quality_Code|wind_speed_Report_Type|wind_speed_Source_Code|wind_speed_Source_Station_ID|wind_gust|wind_gust_Measurement_Code|wind_gust_Quality_Code|wind_gust_Report_Type|wind_gust_Source_Code|wind_gust_Source_Station_ID|precipitation|precipitation_Measurement_Code|precipitation_Quality_Code|precipitation_Report_Type|precipitation_Source_Code|precipitation_Source_Station_ID|relative_humidity|relative_humidity_Measurement_Code|relative_humidity_Quality_Code|relative_humidity_Report_Type|relative_humidity_Source_Code|relative_humidity_Source_Station_ID|wet_bulb_temperature|wet_bulb_temperature_Measurement_Code|wet_bulb_temperature_Quality_Code|wet_bulb_temperature_Report_Type|wet_bulb_temperature_Source_Code|wet_bulb_temperature_Source_Station_ID|pres_wx_MW1|pres_wx_MW1_Measurement_Code|pres_wx_MW1_Quality_Code|pres_wx_MW1_Report_Type|pres_wx_MW1_Source_Code|pres_wx_MW1_Source_Station_ID|pres_wx_MW2|pres_wx_MW2_Measurement_Code|pres_wx_MW2_Quality_Code|pres_wx_MW2_Report_Type|pres_wx_MW2_Source_Code|pres_wx_MW2_Source_Station_ID|pres_wx_MW3|pres_wx_MW3_Measurement_Code|pres_wx_MW3_Quality_Code|pres_wx_MW3_Report_Type|pres_wx_MW3_Source_Code|pres_wx_MW3_Source_Station_ID|pres_wx_AU1|pres_wx_AU1_Measurement_Code|pres_wx_AU1_Quality_Code|pres_wx_AU1_Report_Type|pres_wx_AU1_Source_Code|pres_wx_AU1_Source_Station_ID|pres_wx_AU2|pres_wx_AU2_Measurement_Code|pres_wx_AU2_Quality_Code|pres_wx_AU2_Report_Type|pres_wx_AU2_Source_Code|pres_wx_AU2_Source_Station_ID|pres_wx_AU3|pres_wx_AU3_Measurement_Code|pres_wx_AU3_Quality_Code|pres_wx_AU3_Report_Type|pres_wx_AU3_Source_Code|pres_wx_AU3_Source_Station_ID|pres_wx_AW1|pres_wx_AW1_Measurement_Code|pres_wx_AW1_Quality_Code|pres_wx_AW1_Report_Type|pres_wx_AW1_Source_Code|pres_wx_AW1_Source_Station_ID|pres_wx_AW2|pres_wx_AW2_Measurement_Code|pres_wx_AW2_Quality_Code|pres_wx_AW2_Report_Type|pres_wx_AW2_Source_Code|pres_wx_AW2_Source_Station_ID|pres_wx_AW3|pres_wx_AW3_Measurement_Code|pres_wx_AW3_Quality_Code|pres_wx_AW3_Report_Type|pres_wx_AW3_Source_Code|pres_wx_AW3_Source_Station_ID|snow_depth|snow_depth_Measurement_Code|snow_depth_Quality_Code|snow_depth_Report_Type|snow_depth_Source_Code|snow_depth_Source_Station_ID|visibility|visibility_Measurement_Code|visibility_Quality_Code|visibility_Report_Type|visibility_Source_Code|visibility_Source_Station_ID|altimeter|altimeter_Measurement_Code|altimeter_Quality_Code|altimeter_Report_Type|altimeter_Source_Code|altimeter_Source_Station_ID|pressure_3hr_change|pressure_3hr_change_Measurement_Code|pressure_3hr_change_Quality_Code|pressure_3hr_change_Report_Type|pressure_3hr_change_Source_Code|pressure_3hr_change_Source_Station_ID|sky_cover_1|sky_cover_1_Measurement_Code|sky_cover_1_Quality_Code|sky_cover_1_Report_Type|sky_cover_1_Source_Code|sky_cover_1_Source_Station_ID|sky_cover_baseht_1|sky_cover_baseht_1_Measurement_Code|sky_cover_baseht_1_Quality_Code|sky_cover_baseht_1_Report_Type|sky_cover_baseht_1_Source_Code|sky_cover_baseht_1_Source_Station_ID|sky_cover_2|sky_cover_2_Measurement_Code|sky_cover_2_Quality_Code|sky_cover_2_Report_Type|sky_cover_2_Source_Code|sky_cover_2_Source_Station_ID|sky_cover_baseht_2|sky_cover_baseht_2_Measurement_Code|sky_cover_baseht_2_Quality_Code|sky_cover_baseht_2_Report_Type|sky_cover_baseht_2_Source_Code|sky_cover_baseht_2_Source_Station_ID|sky_cover_3|sky_cover_3_Measurement_Code|sky_cover_3_Quality_Code|sky_cover_3_Report_Type|sky_cover_3_Source_Code|sky_cover_3_Source_Station_ID|sky_cover_baseht_3|sky_cover_baseht_3_Measurement_Code|sky_cover_baseht_3_Quality_Code|sky_cover_baseht_3_Report_Type|sky_cover_baseht_3_Source_Code|sky_cover_baseht_3_Source_Station_ID|remarks|remarks_Measurement_Code|remarks_Quality_Code|remarks_Report_Type|remarks_Source_Code|remarks_Source_Station_ID
USI0000KCPU|CALAVERAS CO MAURY RASMUSSEN F|2023|05|15|20|35|38.1461|-120.6482|403.9|29.5||1|FM15-METAR|223|ICAO-KCPU|13.3||1|FM15-METAR|223|ICAO-KCPU|||||||||||||360|N-Normal|1|FM15-METAR|223|ICAO-KCPU|1.5|N-Normal|1|FM15-METAR|223|ICAO-KCPU|||||||||||||37|Derived||FM15-METAR|223|ICAO-KCPU|||||||||||||||||||||||||||||||||||||||||||||||||||||||||||||||||||||||||1019.0||1|FM15-METAR|223|ICAO-KCPU|||||||||||||||||||||||||||||||||||||||||||MET067METAR KCPU 152035Z AUTO 36003KT 10SM 30/13 A3009 RMK AO2 T02950133=||F||223|ICAO-KCPU
USI0000KCPU|CALAVERAS CO MAURY RASMUSSEN F|2023|05|15|21|15|38.1461|-120.6482|403.9|29.4||1|FM15-METAR|223|ICAO-KCPU|12.8||1|FM15-METAR|223|ICAO-KCPU|||||||||||||360|N-Normal|1|FM15-METAR|223|ICAO-KCPU|2.1|N-Normal|1|FM15-METAR|223|ICAO-KCPU|||||||||||||36|Derived||FM15-METAR|223|ICAO-KCPU|||||||||||||||||||||||||||||||||||||||||||||||||||||||||||||||||||||||||1018.6||1|FM15-METAR|223|ICAO-KCPU|||||||||||||||||||||||||||||||||||||||||||MET071METAR KCPU 152115Z AUTO 36004KT 10SM CLR 29/13 A3008 RMK AO2 T02940128=||F||223|ICAO-KCPU
USI0000KCPU|CALAVERAS CO MAURY RASMUSSEN F|2023|05|15|21|35|38.1461|-120.6482|403.9|30.0||1|FM15-METAR|223|ICAO-KCPU|12.3||1|FM15-METAR|223|ICAO-KCPU|||||||||||||999|C-Calm|9|FM15-METAR|223|ICAO-KCPU|0.0|C-Calm|1|FM15-METAR|223|ICAO-KCPU|||||||||||||34|Derived||FM15-METAR|223|ICAO-KCPU|||||||||||||||||||||||||||||||||||||||||||||||||||||||||||||||||||||||||1018.6||1|FM15-METAR|223|ICAO-KCPU|||||||||||||||||||||||||||||||||||||||||||MET071METAR KCPU 152135Z AUTO 00000KT 10SM CLR 30/12 A3008 RMK AO2 T03000123=||F||223|ICAO-KCPU
USI0000KCPU|CALAVERAS CO MAURY RASMUSSEN F|2023|05|15|21|55|38.1461|-120.6482|403.9|30.1||1|FM15-METAR|223|ICAO-KCPU|11.5||1|FM15-METAR|223|ICAO-KCPU|||||||||||||360|N-Normal|1|FM15-METAR|223|ICAO-KCPU|1.5|N-Normal|1|FM15-METAR|223|ICAO-KCPU|||||||||||||32|Derived||FM15-METAR|223|ICAO-KCPU|||||||||||||||||||||||||||||||||||||||||||||||||||||||||||||||||||||||||1018.6||1|FM15-METAR|223|ICAO-KCPU|||||||||||||||||||||||||||||||||||||||||||MET071METAR KCPU 152155Z AUTO 36003KT 10SM CLR 30/12 A3008 RMK AO2 T03010115=||F||223|ICAO-KCPU
USI0000KCPU|CALAVERAS CO MAURY RASMUSSEN F|2023|05|15|22|15|38.1461|-120.6482|403.9|30.0||1|FM15-METAR|223|ICAO-KCPU|11.6||1|FM15-METAR|223|ICAO-KCPU|||||||||||||350|N-Normal|1|FM15-METAR|223|ICAO-KCPU|2.1|N-Normal|1|FM15-METAR|223|ICAO-KCPU|||||||||||||32|Derived||FM15-METAR|223|ICAO-KCPU|||||||||||||||||||||||||||||||||||||||||||||||||||||||||||||||||||||||||1018.6||1|FM15-METAR|223|ICAO-KCPU|||||||||||||||||||||||||||||||||||||||||||MET071METAR KCPU 152215Z AUTO 35004KT 10SM CLR 30/12 A3008 RMK AO2 T03000116=||F||223|ICAO-KCPU
USI0000KCPU|CALAVERAS CO MAURY RASMUSSEN F|2023|05|15|22|35|38.1461|-120.6482|403.9|30.1||1|FM15-METAR|223|ICAO-KCPU|11.0||1|FM15-METAR|223|ICAO-KCPU|||||||||||||350|N-Normal|1|FM15-METAR|223|ICAO-KCPU|2.6|N-Normal|1|FM15-METAR|223|ICAO-KCPU|||||||||||||31|Derived||FM15-METAR|223|ICAO-KCPU|||||||||||||||||||||||||||||||||||||||||||||||||||||||||||||||||||||||||1018.3||1|FM15-METAR|223|ICAO-KCPU|||||||||||||||||||||||||||||||||||||||||||MET071METAR KCPU 152235Z AUTO 35005KT 10SM CLR 30/11 A3007 RMK AO2 T03010110=||F||223|ICAO-KCPU
USI0000KCPU|CALAVERAS CO MAURY RASMUSSEN F|2023|05|15|22|55|38.1461|-120.6482|403.9|29.9||1|FM15-METAR|223|ICAO-KCPU|10.8||1|FM15-METAR|223|ICAO-KCPU|||||||||||||340|N-Normal|1|FM15-METAR|223|ICAO-KCPU|2.1|N-Normal|1|FM15-METAR|223|ICAO-KCPU|||||||||||||31|Derived||FM15-METAR|223|ICAO-KCPU|||||||||||||||||||||||||||||||||||||||||||||||||||||||||||||||||||||||||1018.3||1|FM15-METAR|223|ICAO-KCPU|||||||||||||||||||||||||||||||||||||||||||MET071METAR KCPU 152255Z AUTO 34004KT 10SM CLR 30/11 A3007 RMK AO2 T02990108=||F||223|ICAO-KCPU
USI0000KCPU|CALAVERAS CO MAURY RASMUSSEN F|2023|05|15|23|55|38.1461|-120.6482|403.9|29.6||1|FM15-METAR|223|ICAO-KCPU|10.3||1|FM15-METAR|223|ICAO-KCPU|||||||||||||340|N-Normal|1|FM15-METAR|223|ICAO-KCPU|2.1|N-Normal|1|FM15-METAR|223|ICAO-KCPU|||||||||||||30|Derived||FM15-METAR|223|ICAO-KCPU|||||||||||||||||||||||||||||||||||||||||||||||||||||||||||||||||||||||||1017.9||1|FM15-METAR|223|ICAO-KCPU|||||||||||||||||||||||||||||||||||||||||||MET077METAR KCPU 152355Z AUTO 34004KT 10SM CLR 30/10 A3006 RMK AO2 6//// T02960103=||F||223|ICAO-KCPU
USI0000KCPU|CALAVERAS CO MAURY RASMUSSEN F|2023|05|16|00|15|38.1461|-120.6482|403.9|29.5||1|FM15-METAR|223|ICAO-KCPU|10.7||1|FM15-METAR|223|ICAO-KCPU|||||||||||||340|N-Normal|1|FM15-METAR|223|ICAO-KCPU|2.1|N-Normal|1|FM15-METAR|223|ICAO-KCPU|||||||||||||31|Derived||FM15-METAR|223|ICAO-KCPU|||||||||||||||||||||||||||||||||||||||||||||||||||||||||||||||||||||||||1017.6||1|FM15-METAR|223|ICAO-KCPU|||||||||||||||||||||||||||||||||||||||||||MET071METAR KCPU 160015Z AUTO 34004KT 10SM CLR 30/11 A3005 RMK AO2 T02950107=||F||223|ICAO-KCPU
USI0000KCPU|CALAVERAS CO MAURY RASMUSSEN F|2023|05|16|00|35|38.1461|-120.6482|403.9|29.6||1|FM15-METAR|223|ICAO-KCPU|10.1||1|FM15-METAR|223|ICAO-KCPU|||||||||||||330|N-Normal|1|FM15-METAR|223|ICAO-KCPU|2.1|N-Normal|1|FM15-METAR|223|ICAO-KCPU|||||||||||||30|Derived||FM15-METAR|223|ICAO-KCPU|||||||||||||||||||||||||||||||||||||||||||||||||||||||||||||||||||||||||1017.6||1|FM15-METAR|223|ICAO-KCPU|||||||||||||||||||||||||||||||||||||||||||MET071METAR KCPU 160035Z AUTO 33004KT 10SM CLR 30/10 A3005 RMK AO2 T02960101=||F||223|ICAO-KCPU
USI0000KCPU|CALAVERAS CO MAURY RASMUSSEN F|2023|05|16|00|55|38.1461|-120.6482|403.9|29.1||1|FM15-METAR|223|ICAO-KCPU|9.2||1|FM15-METAR|223|ICAO-KCPU|||||||||||||340|N-Normal|1|FM15-METAR|223|ICAO-KCPU|2.1|N-Normal|1|FM15-METAR|223|ICAO-KCPU|||||||||||||29|Derived||FM15-METAR|223|ICAO-KCPU|||||||||||||||||||||||||||||||||||||||||||||||||||||||||||||||||||||||||1017.6||1|FM15-METAR|223|ICAO-KCPU|||||||||||||||||||||||||||||||||||||||||||MET071METAR KCPU 160055Z AUTO 34004KT 10SM CLR 29/09 A3005 RMK AO2 T02910092=||F||223|ICAO-KCPU
USI0000KCPU|CALAVERAS CO MAURY RASMUSSEN F|2023|05|16|01|15|38.1461|-120.6482|403.9|28.8||1|FM15-METAR|223|ICAO-KCPU|10.8||1|FM15-METAR|223|ICAO-KCPU|||||||||||||330|N-Normal|1|FM15-METAR|223|ICAO-KCPU|2.1|N-Normal|1|FM15-METAR|223|ICAO-KCPU|||||||||||||33|Derived||FM15-METAR|223|ICAO-KCPU|||||||||||||||||||||||||||||||||||||||||||||||||||||||||||||||||||||||||1017.6||1|FM15-METAR|223|ICAO-KCPU|||||||||||||||||||||||||||||||||||||||||||MET071METAR KCPU 160115Z AUTO 33004KT 10SM CLR 29/11 A3005 RMK AO2 T02880108=||F||223|ICAO-KCPU
USI0000KCPU|CALAVERAS CO MAURY RASMUSSEN F|2023|05|16|01|35|38.1461|-120.6482|403.9|28.3||1|FM15-METAR|223|ICAO-KCPU|10.8||1|FM15-METAR|223|ICAO-KCPU|||||||||||||330|N-Normal|1|FM15-METAR|223|ICAO-KCPU|2.6|N-Normal|1|FM15-METAR|223|ICAO-KCPU|||||||||||||34|Derived||FM15-METAR|223|ICAO-KCPU|||||||||||||||||||||||||||||||||||||||||||||||||||||||||||||||||||||||||1017.6||1|FM15-METAR|223|ICAO-KCPU|||||||||||||||||||||||||||||||||||||||||||MET071METAR KCPU 160135Z AUTO 33005KT 10SM CLR 28/11 A3005 RMK AO2 T02830108=||F||223|ICAO-KCPU
USI0000KCPU|CALAVERAS CO MAURY RASMUSSEN F|2023|05|16|01|55|38.1461|-120.6482|403.9|28.2||1|FM15-METAR|223|ICAO-KCPU|11.4||1|FM15-METAR|223|ICAO-KCPU|||||||||||||320|N-Normal|1|FM15-METAR|223|ICAO-KCPU|2.6|N-Normal|1|FM15-METAR|223|ICAO-KCPU|||||||||||||35|Derived||FM15-METAR|223|ICAO-KCPU|||||||||||||||||||||||||||||||||||||||||||||||||||||||||||||||||||||||||1017.6||1|FM15-METAR|223|ICAO-KCPU|||||||||||||||||||||||||||||||||||||||||||MET071METAR KCPU 160155Z AUTO 32005KT 10SM CLR 28/11 A3005 RMK AO2 T02820114=||F||223|ICAO-KCPU
USI0000KCPU|CALAVERAS CO MAURY RASMUSSEN F|2023|05|16|02|15|38.1461|-120.6482|403.9|27.5||1|FM15-METAR|223|ICAO-KCPU|11.4||1|FM15-METAR|223|ICAO-KCPU|||||||||||||320|N-Normal|1|FM15-METAR|223|ICAO-KCPU|3.1|N-Normal|1|FM15-METAR|223|ICAO-KCPU|||||||||||||37|Derived||FM15-METAR|223|ICAO-KCPU|||||||||||||||||||||||||||||||||||||||||||||||||||||||||||||||||||||||||1017.6||1|FM15-METAR|223|ICAO-KCPU|||||||||||||||||||||||||||||||||||||||||||MET071METAR KCPU 160215Z AUTO 32006KT 10SM CLR 28/11 A3005 RMK AO2 T02750114=||F||223|ICAO-KCPU
USI0000KCPU|CALAVERAS CO MAURY RASMUSSEN F|2023|05|16|02|35|38.1461|-120.6482|403.9|26.8||1|FM15-METAR|223|ICAO-KCPU|11.9||1|FM15-METAR|223|ICAO-KCPU|||||||||||||320|N-Normal|1|FM15-METAR|223|ICAO-KCPU|3.1|N-Normal|1|FM15-METAR|223|ICAO-KCPU|||||||||||||40|Derived||FM15-METAR|223|ICAO-KCPU|||||||||||||||||||||||||||||||||||||||||||||||||||||||||||||||||||||||||1017.6||1|FM15-METAR|223|ICAO-KCPU|||||||||||||||||||||||||||||||||||||||||||MET071METAR KCPU 160235Z AUTO 32006KT 10SM CLR 27/12 A3005 RMK AO2 T02680119=||F||223|ICAO-KCPU
USI0000KCPU|CALAVERAS CO MAURY RASMUSSEN F|2023|05|16|02|55|38.1461|-120.6482|403.9|25.8||1|FM15-METAR|223|ICAO-KCPU|12.0||1|FM15-METAR|223|ICAO-KCPU|||||||||||||320|N-Normal|1|FM15-METAR|223|ICAO-KCPU|2.6|N-Normal|1|FM15-METAR|223|ICAO-KCPU|||||||||||||42|Derived||FM15-METAR|223|ICAO-KCPU|||||||||||||||||||||||||||||||||||||||||||||||||||||||||||||||||||||||||1017.6||1|FM15-METAR|223|ICAO-KCPU|||||||||||||||||||||||||||||||||||||||||||MET071METAR KCPU 160255Z AUTO 32005KT 10SM CLR 26/12 A3005 RMK AO2 T02580120=||F||223|ICAO-KCPU
USI0000KCPU|CALAVERAS CO MAURY RASMUSSEN F|2023|05|16|03|15|38.1461|-120.6482|403.9|25.0||1|FM15-METAR|223|ICAO-KCPU|12.0||1|FM15-METAR|223|ICAO-KCPU|||||||||||||330|N-Normal|1|FM15-METAR|223|ICAO-KCPU|2.6|N-Normal|1|FM15-METAR|223|ICAO-KCPU|||||||||||||44|Derived||FM15-METAR|223|ICAO-KCPU|||||||||||||||||||||||||||||||||||||||||||||||||||||||||||||||||||||||||1017.6||1|FM15-METAR|223|ICAO-KCPU|||||||||||||||||||||||||||||||||||||||||||MET071METAR KCPU 160315Z AUTO 33005KT 10SM CLR 25/12 A3005 RMK AO2 T02500120=||F||223|ICAO-KCPU
USI0000KCPU|CALAVERAS CO MAURY RASMUSSEN F|2023|05|16|03|35|38.1461|-120.6482|403.9|24.3||1|FM15-METAR|223|ICAO-KCPU|11.5||1|FM15-METAR|223|ICAO-KCPU|||||||||||||330|N-Normal|1|FM15-METAR|223|ICAO-KCPU|3.1|N-Normal|1|FM15-METAR|223|ICAO-KCPU|||||||||||||45|Derived||FM15-METAR|223|ICAO-KCPU|||||||||||||||||||||||||||||||||||||||||||||||||||||||||||||||||||||||||1017.6||1|FM15-METAR|223|ICAO-KCPU|||||||||||||||||||||||||||||||||||||||||||MET071METAR KCPU 160335Z AUTO 33006KT 10SM CLR 24/12 A3005 RMK AO2 T02430115=||F||223|ICAO-KCPU
USI0000KCPU|CALAVERAS CO MAURY RASMUSSEN F|2023|05|16|03|55|38.1461|-120.6482|403.9|23.6||1|FM15-METAR|223|ICAO-KCPU|10.7||1|FM15-METAR|223|ICAO-KCPU|||||||||||||330|N-Normal|1|FM15-METAR|223|ICAO-KCPU|4.1|N-Normal|1|FM15-METAR|223|ICAO-KCPU|||||||||||||44|Derived||FM15-METAR|223|ICAO-KCPU|||||||||||||||||||||||||||||||||||||||||||||||||||||||||||||||||||||||||1017.9||1|FM15-METAR|223|ICAO-KCPU|||||||||||||||||||||||||||||||||||||||||||MET071METAR KCPU 160355Z AUTO 33008KT 10SM CLR 24/11 A3006 RMK AO2 T02360107=||F||223|ICAO-KCPU
USI0000KCPU|CALAVERAS CO MAURY RASMUSSEN F|2023|05|16|04|15|38.1461|-120.6482|403.9|23.2||1|FM15-METAR|223|ICAO-KCPU|10.6||1|FM15-METAR|223|ICAO-KCPU|||||||||||||330|N-Normal|1|FM15-METAR|223|ICAO-KCPU|3.1|N-Normal|1|FM15-METAR|223|ICAO-KCPU|||||||||||||45|Derived||FM15-METAR|223|ICAO-KCPU|||||||||||||||||||||||||||||||||||||||||||||||||||||||||||||||||||||||||1018.3||1|FM15-METAR|223|ICAO-KCPU|||||||||||||||||||||||||||||||||||||||||||MET071METAR KCPU 160415Z AUTO 33006KT 10SM CLR 23/11 A3007 RMK AO2 T02320106=||F||223|ICAO-KCPU
USI0000KCPU|CALAVERAS CO MAURY RASMUSSEN F|2023|05|16|04|30|38.1461|-120.6482|403.9|22.7||1|FM15-METAR|223|ICAO-KCPU|10.7||1|FM15-METAR|223|ICAO-KCPU|||||||||||||350|N-Normal|1|FM15-METAR|223|ICAO-KCPU|1.5|N-Normal|1|FM15-METAR|223|ICAO-KCPU|||||||||||||47|Derived||FM15-METAR|223|ICAO-KCPU|||||||||||||||||||||||||||||||||||||||||||||||||||||||||||||||||||||||||1018.6||1|FM15-METAR|223|ICAO-KCPU|||||||||||||||||||||||||||||||||||||||||||MET071METAR KCPU 160430Z AUTO 35003KT 10SM CLR 23/11 A3008 RMK AO2 T02270107=||F||223|ICAO-KCPU
USI0000KCPU|CALAVERAS CO MAURY RASMUSSEN F|2023|05|16|04|55|38.1461|-120.6482|403.9|21.3||1|FM15-METAR|223|ICAO-KCPU|10.7||1|FM15-METAR|223|ICAO-KCPU|||||||||||||340|N-Normal|1|FM15-METAR|223|ICAO-KCPU|2.6|N-Normal|1|FM15-METAR|223|ICAO-KCPU|||||||||||||51|Derived||FM15-METAR|223|ICAO-KCPU|||||||||||||||||||||||||||||||||||||||||||||||||||||||||||||||||||||||||1018.6||1|FM15-METAR|223|ICAO-KCPU|||||||||||||||||||||||||||||||||||||||||||MET071METAR KCPU 160455Z AUTO 34005KT 10SM CLR 21/11 A3008 RMK AO2 T02130107=||F||223|ICAO-KCPU
USI0000KCPU|CALAVERAS CO MAURY RASMUSSEN F|2023|05|16|05|15|38.1461|-120.6482|403.9|21.0||1|FM15-METAR|223|ICAO-KCPU|9.6||1|FM15-METAR|223|ICAO-KCPU|||||||||||||340|N-Normal|1|FM15-METAR|223|ICAO-KCPU|2.1|N-Normal|1|FM15-METAR|223|ICAO-KCPU|||||||||||||48|Derived||FM15-METAR|223|ICAO-KCPU|||||||||||||||||||||||||||||||||||||||||||||||||||||||||||||||||||||||||1018.6||1|FM15-METAR|223|ICAO-KCPU|||||||||||||||||||||||||||||||||||||||||||MET071METAR KCPU 160515Z AUTO 34004KT 10SM CLR 21/10 A3008 RMK AO2 T02100096=||F||223|ICAO-KCPU
USI0000KCPU|CALAVERAS CO MAURY RASMUSSEN F|2023|05|16|05|35|38.1461|-120.6482|403.9|20.2||1|FM15-METAR|223|ICAO-KCPU|9.4||1|FM15-METAR|223|ICAO-KCPU|||||||||||||999|C-Calm|9|FM15-METAR|223|ICAO-KCPU|0.0|C-Calm|1|FM15-METAR|223|ICAO-KCPU|||||||||||||50|Derived||FM15-METAR|223|ICAO-KCPU|||||||||||||||||||||||||||||||||||||||||||||||||||||||||||||||||||||||||1018.6||1|FM15-METAR|223|ICAO-KCPU|||||||||||||||||||||||||||||||||||||||||||MET071METAR KCPU 160535Z AUTO 00000KT 10SM CLR 20/09 A3008 RMK AO2 T02020094=||F||223|ICAO-KCPU
USI0000KCPU|CALAVERAS CO MAURY RASMUSSEN F|2023|05|16|05|55|38.1461|-120.6482|403.9|19.2||1|FM15-METAR|223|ICAO-KCPU|11.0||1|FM15-METAR|223|ICAO-KCPU|||||||||||||999|C-Calm|9|FM15-METAR|223|ICAO-KCPU|0.0|C-Calm|1|FM15-METAR|223|ICAO-KCPU|||||||||||||59|Derived||FM15-METAR|223|ICAO-KCPU|||||||||||||||||||||||||||||||||||||||||||||||||||||||||||||||||||||||||1018.6||1|FM15-METAR|223|ICAO-KCPU|||||||||||||||||||||||||||||||||||||||||||MET083METAR KCPU 160555Z AUTO 00000KT 10SM CLR 19/11 A3008 RMK AO2 T01920110 10298 20192=||F||223|ICAO-KCPU
USI0000KCPU|CALAVERAS CO MAURY RASMUSSEN F|2023|05|16|06|15|38.1461|-120.6482|403.9|19.3||1|FM15-METAR|223|ICAO-KCPU|10.7||1|FM15-METAR|223|ICAO-KCPU|||||||||||||999|C-Calm|9|FM15-METAR|223|ICAO-KCPU|0.0|C-Calm|1|FM15-METAR|223|ICAO-KCPU|||||||||||||58|Derived||FM15-METAR|223|ICAO-KCPU|||||||||||||||||||||||||||||||||||||||||||||||||||||||||||||||||||||||||1018.6||1|FM15-METAR|223|ICAO-KCPU|||||||||||||||||||||||||||||||||||||||||||MET071METAR KCPU 160615Z AUTO 00000KT 10SM CLR 19/11 A3008 RMK AO2 T01930107=||F||223|ICAO-KCPU
USI0000KCPU|CALAVERAS CO MAURY RASMUSSEN F|2023|05|16|06|35|38.1461|-120.6482|403.9|18.6||1|FM15-METAR|223|ICAO-KCPU|11.0||1|FM15-METAR|223|ICAO-KCPU|||||||||||||999|C-Calm|9|FM15-METAR|223|ICAO-KCPU|0.0|C-Calm|1|FM15-METAR|223|ICAO-KCPU|||||||||||||61|Derived||FM15-METAR|223|ICAO-KCPU|||||||||||||||||||||||||||||||||||||||||||||||||||||||||||||||||||||||||1018.6||1|FM15-METAR|223|ICAO-KCPU|||||||||||||||||||||||||||||||||||||||||||MET071METAR KCPU 160635Z AUTO 00000KT 10SM CLR 19/11 A3008 RMK AO2 T01860110=||F||223|ICAO-KCPU
USI0000KCPU|CALAVERAS CO MAURY RASMUSSEN F|2023|05|16|06|55|38.1461|-120.6482|403.9|18.4||1|FM15-METAR|223|ICAO-KCPU|11.1||1|FM15-METAR|223|ICAO-KCPU|||||||||||||999|C-Calm|9|FM15-METAR|223|ICAO-KCPU|0.0|C-Calm|1|FM15-METAR|223|ICAO-KCPU|||||||||||||63|Derived||FM15-METAR|223|ICAO-KCPU|||||||||||||||||||||||||||||||||||||||||||||||||||||||||||||||||||||||||1018.3||1|FM15-METAR|223|ICAO-KCPU|||||||||||||||||||||||||||||||||||||||||||MET071METAR KCPU 160655Z AUTO 00000KT 10SM CLR 18/11 A3007 RMK AO2 T01840111=||F||223|ICAO-KCPU
USI0000KCPU|CALAVERAS CO MAURY RASMUSSEN F|2023|05|16|07|15|38.1461|-120.6482|403.9|18.1||1|FM15-METAR|223|ICAO-KCPU|11.0||1|FM15-METAR|223|ICAO-KCPU|||||||||||||999|C-Calm|9|FM15-METAR|223|ICAO-KCPU|0.0|C-Calm|1|FM15-METAR|223|ICAO-KCPU|||||||||||||63|Derived||FM15-METAR|223|ICAO-KCPU|||||||||||||||||||||||||||||||||||||||||||||||||||||||||||||||||||||||||1018.3||1|FM15-METAR|223|ICAO-KCPU|||||||||||||||||||||||||||||||||||||||||||MET071METAR KCPU 160715Z AUTO 00000KT 10SM CLR 18/11 A3007 RMK AO2 T01810110=||F||223|ICAO-KCPU
USI0000KCPU|CALAVERAS CO MAURY RASMUSSEN F|2023|05|16|07|35|38.1461|-120.6482|403.9|17.1||1|FM15-METAR|223|ICAO-KCPU|11.0||1|FM15-METAR|223|ICAO-KCPU|||||||||||||999|C-Calm|9|FM15-METAR|223|ICAO-KCPU|0.0|C-Calm|1|FM15-METAR|223|ICAO-KCPU|||||||||||||68|Derived||FM15-METAR|223|ICAO-KCPU|||||||||||||||||||||||||||||||||||||||||||||||||||||||||||||||||||||||||1017.9||1|FM15-METAR|223|ICAO-KCPU|||||||||||||||||||||||||||||||||||||||||||MET071METAR KCPU 160735Z AUTO 00000KT 10SM CLR 17/11 A3006 RMK AO2 T01710110=||F||223|ICAO-KCPU
USI0000KCPU|CALAVERAS CO MAURY RASMUSSEN F|2023|05|16|07|55|38.1461|-120.6482|403.9|16.6||1|FM15-METAR|223|ICAO-KCPU|10.2||1|FM15-METAR|223|ICAO-KCPU|||||||||||||999|C-Calm|9|FM15-METAR|223|ICAO-KCPU|0.0|C-Calm|1|FM15-METAR|223|ICAO-KCPU|||||||||||||66|Derived||FM15-METAR|223|ICAO-KCPU|||||||||||||||||||||||||||||||||||||||||||||||||||||||||||||||||||||||||1017.9||1|FM15-METAR|223|ICAO-KCPU|||||||||||||||||||||||||||||||||||||||||||MET071METAR KCPU 160755Z AUTO 00000KT 10SM CLR 17/10 A3006 RMK AO2 T01660102=||F||223|ICAO-KCPU
USI0000KCPU|CALAVERAS CO MAURY RASMUSSEN F|2023|05|16|08|15|38.1461|-120.6482|403.9|16.0||1|FM15-METAR|223|ICAO-KCPU|9.9||1|FM15-METAR|223|ICAO-KCPU|||||||||||||999|C-Calm|9|FM15-METAR|223|ICAO-KCPU|0.0|C-Calm|1|FM15-METAR|223|ICAO-KCPU|||||||||||||67|Derived||FM15-METAR|223|ICAO-KCPU|||||||||||||||||||||||||||||||||||||||||||||||||||||||||||||||||||||||||1017.9||1|FM15-METAR|223|ICAO-KCPU|||||||||||||||||||||||||||||||||||||||||||MET071METAR KCPU 160815Z AUTO 00000KT 10SM CLR 16/10 A3006 RMK AO2 T01600099=||F||223|ICAO-KCPU
USI0000KCPU|CALAVERAS CO MAURY RASMUSSEN F|2023|05|16|08|35|38.1461|-120.6482|403.9|15.1||1|FM15-METAR|223|ICAO-KCPU|8.7||1|FM15-METAR|223|ICAO-KCPU|||||||||||||999|C-Calm|9|FM15-METAR|223|ICAO-KCPU|0.0|C-Calm|1|FM15-METAR|223|ICAO-KCPU|||||||||||||66|Derived||FM15-METAR|223|ICAO-KCPU|||||||||||||||||||||||||||||||||||||||||||||||||||||||||||||||||||||||||1017.9||1|FM15-METAR|223|ICAO-KCPU|||||||||||||||||||||||||||||||||||||||||||MET071METAR KCPU 160835Z AUTO 00000KT 10SM CLR 15/09 A3006 RMK AO2 T01510087=||F||223|ICAO-KCPU
USI0000KCPU|CALAVERAS CO MAURY RASMUSSEN F|2023|05|16|08|55|38.1461|-120.6482|403.9|15.2||1|FM15-METAR|223|ICAO-KCPU|10.4||1|FM15-METAR|223|ICAO-KCPU|||||||||||||999|C-Calm|9|FM15-METAR|223|ICAO-KCPU|0.0|C-Calm|1|FM15-METAR|223|ICAO-KCPU|||||||||||||73|Derived||FM15-METAR|223|ICAO-KCPU|||||||||||||||||||||||||||||||||||||||||||||||||||||||||||||||||||||||||1017.6||1|FM15-METAR|223|ICAO-KCPU|||||||||||||||||||||||||||||||||||||||||||MET071METAR KCPU 160855Z AUTO 00000KT 10SM CLR 15/10 A3005 RMK AO2 T01520104=||F||223|ICAO-KCPU
USI0000KCPU|CALAVERAS CO MAURY RASMUSSEN F|2023|05|16|09|15|38.1461|-120.6482|403.9|15.2||1|FM15-METAR|223|ICAO-KCPU|9.5||1|FM15-METAR|223|ICAO-KCPU|||||||||||||999|C-Calm|9|FM15-METAR|223|ICAO-KCPU|0.0|C-Calm|1|FM15-METAR|223|ICAO-KCPU|||||||||||||69|Derived||FM15-METAR|223|ICAO-KCPU|||||||||||||||||||||||||||||||||||||||||||||||||||||||||||||||||||||||||1017.6||1|FM15-METAR|223|ICAO-KCPU|||||||||||||||||||||||||||||||||||||||||||MET071METAR KCPU 160915Z AUTO 00000KT 10SM CLR 15/10 A3005 RMK AO2 T01520095=||F||223|ICAO-KCPU
USI0000KCPU|CALAVERAS CO MAURY RASMUSSEN F|2023|05|16|09|35|38.1461|-120.6482|403.9|15.4||1|FM15-METAR|223|ICAO-KCPU|7.3||1|FM15-METAR|223|ICAO-KCPU|||||||||||||999|C-Calm|9|FM15-METAR|223|ICAO-KCPU|0.0|C-Calm|1|FM15-METAR|223|ICAO-KCPU|||||||||||||59|Derived||FM15-METAR|223|ICAO-KCPU|||||||||||||||||||||||||||||||||||||||||||||||||||||||||||||||||||||||||1017.6||1|FM15-METAR|223|ICAO-KCPU|||||||||||||||||||||||||||||||||||||||||||MET071METAR KCPU 160935Z AUTO 00000KT 10SM CLR 15/07 A3005 RMK AO2 T01540073=||F||223|ICAO-KCPU
USI0000KCPU|CALAVERAS CO MAURY RASMUSSEN F|2023|05|16|09|55|38.1461|-120.6482|403.9|14.3||1|FM15-METAR|223|ICAO-KCPU|8.8||1|FM15-METAR|223|ICAO-KCPU|||||||||||||999|C-Calm|9|FM15-METAR|223|ICAO-KCPU|0.0|C-Calm|1|FM15-METAR|223|ICAO-KCPU|||||||||||||70|Derived||FM15-METAR|223|ICAO-KCPU|||||||||||||||||||||||||||||||||||||||||||||||||||||||||||||||||||||||||1017.6||1|FM15-METAR|223|ICAO-KCPU|||||||||||||||||||||||||||||||||||||||||||MET071METAR KCPU 160955Z AUTO 00000KT 10SM CLR 14/09 A3005 RMK AO2 T01430088=||F||223|ICAO-KCPU
USI0000KCPU|CALAVERAS CO MAURY RASMUSSEN F|2023|05|16|10|15|38.1461|-120.6482|403.9|14.3||1|FM15-METAR|223|ICAO-KCPU|10.1||1|FM15-METAR|223|ICAO-KCPU|||||||||||||999|C-Calm|9|FM15-METAR|223|ICAO-KCPU|0.0|C-Calm|1|FM15-METAR|223|ICAO-KCPU|||||||||||||76|Derived||FM15-METAR|223|ICAO-KCPU|||||||||||||||||||||||||||||||||||||||||||||||||||||||||||||||||||||||||1017.3||1|FM15-METAR|223|ICAO-KCPU|||||||||||||||||||||||||||||||||||||||||||MET071METAR KCPU 161015Z AUTO 00000KT 10SM CLR 14/10 A3004 RMK AO2 T01430101=||F||223|ICAO-KCPU
USI0000KCPU|CALAVERAS CO MAURY RASMUSSEN F|2023|05|16|10|35|38.1461|-120.6482|403.9|14.5||1|FM15-METAR|223|ICAO-KCPU|9.5||1|FM15-METAR|223|ICAO-KCPU|||||||||||||999|C-Calm|9|FM15-METAR|223|ICAO-KCPU|0.0|C-Calm|1|FM15-METAR|223|ICAO-KCPU|||||||||||||72|Derived||FM15-METAR|223|ICAO-KCPU|||||||||||||||||||||||||||||||||||||||||||||||||||||||||||||||||||||||||1017.3||1|FM15-METAR|223|ICAO-KCPU|||||||||||||||||||||||||||||||||||||||||||MET071METAR KCPU 161035Z AUTO 00000KT 10SM CLR 15/10 A3004 RMK AO2 T01450095=||F||223|ICAO-KCPU
USI0000KCPU|CALAVERAS CO MAURY RASMUSSEN F|2023|05|16|10|55|38.1461|-120.6482|403.9|14.6||1|FM15-METAR|223|ICAO-KCPU|9.3||1|FM15-METAR|223|ICAO-KCPU|||||||||||||999|C-Calm|9|FM15-METAR|223|ICAO-KCPU|0.0|C-Calm|1|FM15-METAR|223|ICAO-KCPU|||||||||||||71|Derived||FM15-METAR|223|ICAO-KCPU|||||||||||||||||||||||||||||||||||||||||||||||||||||||||||||||||||||||||1017.3||1|FM15-METAR|223|ICAO-KCPU|||||||||||||||||||||||||||||||||||||||||||MET071METAR KCPU 161055Z AUTO 00000KT 10SM CLR 15/09 A3004 RMK AO2 T01460093=||F||223|ICAO-KCPU
USI0000KCPU|CALAVERAS CO MAURY RASMUSSEN F|2023|05|16|11|15|38.1461|-120.6482|403.9|14.5||1|FM15-METAR|223|ICAO-KCPU|8.7||1|FM15-METAR|223|ICAO-KCPU|||||||||||||999|C-Calm|9|FM15-METAR|223|ICAO-KCPU|0.0|C-Calm|1|FM15-METAR|223|ICAO-KCPU|||||||||||||68|Derived||FM15-METAR|223|ICAO-KCPU|||||||||||||||||||||||||||||||||||||||||||||||||||||||||||||||||||||||||1017.3||1|FM15-METAR|223|ICAO-KCPU|||||||||||||||||||||||||||||||||||||||||||MET071METAR KCPU 161115Z AUTO 00000KT 10SM CLR 15/09 A3004 RMK AO2 T01450087=||F||223|ICAO-KCPU
USI0000KCPU|CALAVERAS CO MAURY RASMUSSEN F|2023|05|16|11|35|38.1461|-120.6482|403.9|14.5||1|FM15-METAR|223|ICAO-KCPU|5.6||1|FM15-METAR|223|ICAO-KCPU|||||||||||||999|C-Calm|9|FM15-METAR|223|ICAO-KCPU|0.0|C-Calm|1|FM15-METAR|223|ICAO-KCPU|||||||||||||55|Derived||FM15-METAR|223|ICAO-KCPU|||||||||||||||||||||||||||||||||||||||||||||||||||||||||||||||||||||||||1017.3||1|FM15-METAR|223|ICAO-KCPU|||||||||||||||||||||||||||||||||||||||||||MET071METAR KCPU 161135Z AUTO 00000KT 10SM CLR 15/06 A3004 RMK AO2 T01450056=||F||223|ICAO-KCPU
USI0000KCPU|CALAVERAS CO MAURY RASMUSSEN F|2023|05|16|11|55|38.1461|-120.6482|403.9|14.0||1|FM15-METAR|223|ICAO-KCPU|5.2||1|FM15-METAR|223|ICAO-KCPU|||||||||||||999|C-Calm|9|FM15-METAR|223|ICAO-KCPU|0.0|C-Calm|1|FM15-METAR|223|ICAO-KCPU|||||||||||||56|Derived||FM15-METAR|223|ICAO-KCPU|||||||||||||||||||||||||||||||||||||||||||||||||||||||||||||||||||||||||1017.3||1|FM15-METAR|223|ICAO-KCPU|||||||||||||||||||||||||||||||||||||||||||MET089METAR KCPU 161155Z AUTO 00000KT 10SM CLR 14/05 A3004 RMK AO2 7//// T01400052 10193 20137=||F||223|ICAO-KCPU
USI0000KCPU|CALAVERAS CO MAURY RASMUSSEN F|2023|05|16|12|15|38.1461|-120.6482|403.9|14.5||1|FM15-METAR|223|ICAO-KCPU|4.7||1|FM15-METAR|223|ICAO-KCPU|||||||||||||999|C-Calm|9|FM15-METAR|223|ICAO-KCPU|0.0|C-Calm|1|FM15-METAR|223|ICAO-KCPU|||||||||||||52|Derived||FM15-METAR|223|ICAO-KCPU|||||||||||||||||||||||||||||||||||||||||||||||||||||||||||||||||||||||||1017.3||1|FM15-METAR|223|ICAO-KCPU|||||||||||||||||||||||||||||||||||||||||||MET071METAR KCPU 161215Z AUTO 00000KT 10SM CLR 15/05 A3004 RMK AO2 T01450047=||F||223|ICAO-KCPU
USI0000KCPU|CALAVERAS CO MAURY RASMUSSEN F|2023|05|16|12|35|38.1461|-120.6482|403.9|13.6||1|FM15-METAR|223|ICAO-KCPU|5.0||1|FM15-METAR|223|ICAO-KCPU|||||||||||||999|C-Calm|9|FM15-METAR|223|ICAO-KCPU|0.0|C-Calm|1|FM15-METAR|223|ICAO-KCPU|||||||||||||56|Derived||FM15-METAR|223|ICAO-KCPU|||||||||||||||||||||||||||||||||||||||||||||||||||||||||||||||||||||||||1017.3||1|FM15-METAR|223|ICAO-KCPU|||||||||||||||||||||||||||||||||||||||||||MET071METAR KCPU 161235Z AUTO 00000KT 10SM CLR 14/05 A3004 RMK AO2 T01360050=||F||223|ICAO-KCPU
USI0000KCPU|CALAVERAS CO MAURY RASMUSSEN F|2023|05|16|12|55|38.1461|-120.6482|403.9|14.2||1|FM15-METAR|223|ICAO-KCPU|5.8||1|FM15-METAR|223|ICAO-KCPU|||||||||||||999|C-Calm|9|FM15-METAR|223|ICAO-KCPU|0.0|C-Calm|1|FM15-METAR|223|ICAO-KCPU|||||||||||||57|Derived||FM15-METAR|223|ICAO-KCPU|||||||||||||||||||||||||||||||||||||||||||||||||||||||||||||||||||||||||1017.3||1|FM15-METAR|223|ICAO-KCPU|||||||||||||||||||||||||||||||||||||||||||MET071METAR KCPU 161255Z AUTO 00000KT 10SM CLR 14/06 A3004 RMK AO2 T01420058=||F||223|ICAO-KCPU
USI0000KCPU|CALAVERAS CO MAURY RASMUSSEN F|2023|05|16|13|15|38.1461|-120.6482|403.9|13.6||1|FM15-METAR|223|ICAO-KCPU|4.4||1|FM15-METAR|223|ICAO-KCPU|||||||||||||999|C-Calm|9|FM15-METAR|223|ICAO-KCPU|0.0|C-Calm|1|FM15-METAR|223|ICAO-KCPU|||||||||||||54|Derived||FM15-METAR|223|ICAO-KCPU|||||||||||||||||||||||||||||||||||||||||||||||||||||||||||||||||||||||||1017.3||1|FM15-METAR|223|ICAO-KCPU|||||||||||||||||||||||||||||||||||||||||||MET071METAR KCPU 161315Z AUTO 00000KT 10SM CLR 14/04 A3004 RMK AO2 T01360044=||F||223|ICAO-KCPU
USI0000KCPU|CALAVERAS CO MAURY RASMUSSEN F|2023|05|16|13|35|38.1461|-120.6482|403.9|13.2||1|FM15-METAR|223|ICAO-KCPU|7.6||1|FM15-METAR|223|ICAO-KCPU|||||||||||||999|C-Calm|9|FM15-METAR|223|ICAO-KCPU|0.0|C-Calm|1|FM15-METAR|223|ICAO-KCPU|||||||||||||69|Derived||FM15-METAR|223|ICAO-KCPU|||||||||||||||||||||||||||||||||||||||||||||||||||||||||||||||||||||||||1017.3||1|FM15-METAR|223|ICAO-KCPU|||||||||||||||||||||||||||||||||||||||||||MET071METAR KCPU 161335Z AUTO 00000KT 10SM CLR 13/08 A3004 RMK AO2 T01320076=||F||223|ICAO-KCPU
USI0000KCPU|CALAVERAS CO MAURY RASMUSSEN F|2023|05|16|13|55|38.1461|-120.6482|403.9|14.4||1|FM15-METAR|223|ICAO-KCPU|8.5||1|FM15-METAR|223|ICAO-KCPU|||||||||||||999|C-Calm|9|FM15-METAR|223|ICAO-KCPU|0.0|C-Calm|1|FM15-METAR|223|ICAO-KCPU|||||||||||||68|Derived||FM15-METAR|223|ICAO-KCPU|||||||||||||||||||||||||||||||||||||||||||||||||||||||||||||||||||||||||1017.6||1|FM15-METAR|223|ICAO-KCPU|||||||||||||||||||||||||||||||||||||||||||MET071METAR KCPU 161355Z AUTO 00000KT 10SM CLR 14/09 A3005 RMK AO2 T01440085=||F||223|ICAO-KCPU
USI0000KCPU|CALAVERAS CO MAURY RASMUSSEN F|2023|05|16|14|15|38.1461|-120.6482|403.9|15.3||1|FM15-METAR|223|ICAO-KCPU|8.2||1|FM15-METAR|223|ICAO-KCPU|||||||||||||999|C-Calm|9|FM15-METAR|223|ICAO-KCPU|0.0|C-Calm|1|FM15-METAR|223|ICAO-KCPU|||||||||||||63|Derived||FM15-METAR|223|ICAO-KCPU|||||||||||||||||||||||||||||||||||||||||||||||||||||||||||||||||||||||||1017.6||1|FM15-METAR|223|ICAO-KCPU|||||||||||||||||||||||||||||||||||||||||||MET071METAR KCPU 161415Z AUTO 00000KT 10SM CLR 15/08 A3005 RMK AO2 T01530082=||F||223|ICAO-KCPU
USI0000KCPU|CALAVERAS CO MAURY RASMUSSEN F|2023|05|16|14|35|38.1461|-120.6482|403.9|16.9||1|FM15-METAR|223|ICAO-KCPU|8.0||1|FM15-METAR|223|ICAO-KCPU|||||||||||||999|C-Calm|9|FM15-METAR|223|ICAO-KCPU|0.0|C-Calm|1|FM15-METAR|223|ICAO-KCPU|||||||||||||56|Derived||FM15-METAR|223|ICAO-KCPU|||||||||||||||||||||||||||||||||||||||||||||||||||||||||||||||||||||||||1017.6||1|FM15-METAR|223|ICAO-KCPU|||||||||||||||||||||||||||||||||||||||||||MET071METAR KCPU 161435Z AUTO 00000KT 10SM CLR 17/08 A3005 RMK AO2 T01690080=||F||223|ICAO-KCPU
USI0000KCPU|CALAVERAS CO MAURY RASMUSSEN F|2023|05|16|14|55|38.1461|-120.6482|403.9|17.6||1|FM15-METAR|223|ICAO-KCPU|8.4||1|FM15-METAR|223|ICAO-KCPU|||||||||||||999|C-Calm|9|FM15-METAR|223|ICAO-KCPU|0.0|C-Calm|1|FM15-METAR|223|ICAO-KCPU|||||||||||||55|Derived||FM15-METAR|223|ICAO-KCPU|||||||||||||||||||||||||||||||||||||||||||||||||||||||||||||||||||||||||1017.6||1|FM15-METAR|223|ICAO-KCPU|||||||||||||||||||||||||||||||||||||||||||MET071METAR KCPU 161455Z AUTO 00000KT 10SM CLR 18/08 A3005 RMK AO2 T01760084=||F||223|ICAO-KCPU
USI0000KCPU|CALAVERAS CO MAURY RASMUSSEN F|2023|05|16|15|10|38.1461|-120.6482|403.9|18.0||1|FM15-METAR|223|ICAO-KCPU|8.2||1|FM15-METAR|223|ICAO-KCPU|||||||||||||999|C-Calm|9|FM15-METAR|223|ICAO-KCPU|0.0|C-Calm|1|FM15-METAR|223|ICAO-KCPU|||||||||||||53|Derived||FM15-METAR|223|ICAO-KCPU|||||||||||||||||||||||||||||||||||||||||||||||||||||||||||||||||||||||||1017.6||1|FM15-METAR|223|ICAO-KCPU|||||||||||||||||||||||||||||||||||||||||||MET071METAR KCPU 161510Z AUTO 00000KT 10SM CLR 18/08 A3005 RMK AO2 T01800082=||F||223|ICAO-KCPU
USI0000KCPU|CALAVERAS CO MAURY RASMUSSEN F|2023|05|16|15|35|38.1461|-120.6482|403.9|20.0||1|FM15-METAR|223|ICAO-KCPU|7.9||1|FM15-METAR|223|ICAO-KCPU|||||||||||||999|C-Calm|9|FM15-METAR|223|ICAO-KCPU|0.0|C-Calm|1|FM15-METAR|223|ICAO-KCPU|||||||||||||46|Derived||FM15-METAR|223|ICAO-KCPU|||||||||||||||||||||||||||||||||||||||||||||||||||||||||||||||||||||||||1017.6||1|FM15-METAR|223|ICAO-KCPU|||||||||||||||||||||||||||||||||||||||||||MET071METAR KCPU 161535Z AUTO 00000KT 10SM CLR 20/08 A3005 RMK AO2 T02000079=||F||223|ICAO-KCPU
USI0000KCPU|CALAVERAS CO MAURY RASMUSSEN F|2023|05|16|16|35|38.1461|-120.6482|403.9|24.1||1|FM15-METAR|223|ICAO-KCPU|8.3||1|FM15-METAR|223|ICAO-KCPU|||||||||||||999|C-Calm|9|FM15-METAR|223|ICAO-KCPU|0.0|C-Calm|1|FM15-METAR|223|ICAO-KCPU|||||||||||||37|Derived||FM15-METAR|223|ICAO-KCPU|||||||||||||||||||||||||||||||||||||||||||||||||||||||||||||||||||||||||1017.6||1|FM15-METAR|223|ICAO-KCPU|||||||||||||||||||||||||||||||||||||||||||MET071METAR KCPU 161635Z AUTO 00000KT 10SM CLR 24/08 A3005 RMK AO2 T02410083=||F||223|ICAO-KCPU
USI0000KCPU|CALAVERAS CO MAURY RASMUSSEN F|2023|05|16|16|55|38.1461|-120.6482|403.9|25.3||1|FM15-METAR|223|ICAO-KCPU|3.4||1|FM15-METAR|223|ICAO-KCPU|||||||||||||999|C-Calm|9|FM15-METAR|223|ICAO-KCPU|0.0|C-Calm|1|FM15-METAR|223|ICAO-KCPU|||||||||||||24|Derived||FM15-METAR|223|ICAO-KCPU|||||||||||||||||||||||||||||||||||||||||||||||||||||||||||||||||||||||||1017.6||1|FM15-METAR|223|ICAO-KCPU|||||||||||||||||||||||||||||||||||||||||||MET071METAR KCPU 161655Z AUTO 00000KT 10SM CLR 25/03 A3005 RMK AO2 T02530034=||F||223|ICAO-KCPU
USI0000KCPU|CALAVERAS CO MAURY RASMUSSEN F|2023|05|16|18|35|38.1461|-120.6482|403.9|29.0||1|FM15-METAR|223|ICAO-KCPU|7.3||1|FM15-METAR|223|ICAO-KCPU|||||||||||||350|N-Normal|1|FM15-METAR|223|ICAO-KCPU|2.1|N-Normal|1|FM15-METAR|223|ICAO-KCPU|||||||||||||25|Derived||FM15-METAR|223|ICAO-KCPU|||||||||||||||||||||||||||||||||||||||||||||||||||||||||||||||||||||||||1017.3||1|FM15-METAR|223|ICAO-KCPU|||||||||||||||||||||||||||||||||||||||||||MET071METAR KCPU 161835Z AUTO 35004KT 10SM CLR 29/07 A3004 RMK AO2 T02900073=||F||223|ICAO-KCPU
USI0000KCPU|CALAVERAS CO MAURY RASMUSSEN F|2023|05|16|18|55|38.1461|-120.6482|403.9|29.1||1|FM15-METAR|223|ICAO-KCPU|9.2||1|FM15-METAR|223|ICAO-KCPU|||||||||||||340|N-Normal|1|FM15-METAR|223|ICAO-KCPU|2.6|N-Normal|1|FM15-METAR|223|ICAO-KCPU|||||||||||||29|Derived||FM15-METAR|223|ICAO-KCPU|||||||||||||||||||||||||||||||||||||||||||||||||||||||||||||||||||||||||1017.3||1|FM15-METAR|223|ICAO-KCPU|||||||||||||||||||||||||||||||||||||||||||MET071METAR KCPU 161855Z AUTO 34005KT 10SM CLR 29/09 A3004 RMK AO2 T02910092=||F||223|ICAO-KCPU
USI0000KCPU|CALAVERAS CO MAURY RASMUSSEN F|2023|05|16|19|15|38.1461|-120.6482|403.9|29.5||1|FM15-METAR|223|ICAO-KCPU|6.5||1|FM15-METAR|223|ICAO-KCPU|||||||||||||340|N-Normal|1|FM15-METAR|223|ICAO-KCPU|3.6|N-Normal|1|FM15-METAR|223|ICAO-KCPU|||||||||||||23|Derived||FM15-METAR|223|ICAO-KCPU|||||||||||||||||||||||||||||||||||||||||||||||||||||||||||||||||||||||||1016.9||1|FM15-METAR|223|ICAO-KCPU|||||||||||||||||||||||||||||||||||||||||||MET071METAR KCPU 161915Z AUTO 34007KT 10SM CLR 30/07 A3003 RMK AO2 T02950065=||F||223|ICAO-KCPU
USI0000KCPU|CALAVERAS CO MAURY RASMUSSEN F|2023|05|16|19|35|38.1461|-120.6482|403.9|30.0||1|FM15-METAR|223|ICAO-KCPU|5.2||1|FM15-METAR|223|ICAO-KCPU|||||||||||||340|N-Normal|1|FM15-METAR|223|ICAO-KCPU|3.1|N-Normal|1|FM15-METAR|223|ICAO-KCPU|||||||||||||21|Derived||FM15-METAR|223|ICAO-KCPU|||||||||||||||||||||||||||||||||||||||||||||||||||||||||||||||||||||||||1016.9||1|FM15-METAR|223|ICAO-KCPU|||||||||||||||||||||||||||||||||||||||||||MET071METAR KCPU 161935Z AUTO 34006KT 10SM CLR 30/05 A3003 RMK AO2 T03000052=||F||223|ICAO-KCPU
USI0000KCPU|CALAVERAS CO MAURY RASMUSSEN F|2023|05|16|19|55|38.1461|-120.6482|403.9|29.8||1|FM15-METAR|223|ICAO-KCPU|6.0||1|FM15-METAR|223|ICAO-KCPU|||||||||||||340|N-Normal|1|FM15-METAR|223|ICAO-KCPU|3.1|N-Normal|1|FM15-METAR|223|ICAO-KCPU|||||||||||||22|Derived||FM15-METAR|223|ICAO-KCPU|||||||||||||||||||||||||||||||||||||||||||||||||||||||||||||||||||||||||1016.6||1|FM15-METAR|223|ICAO-KCPU|||||||||||||||||||||||||||||||||||||||||||MET071METAR KCPU 161955Z AUTO 34006KT 10SM CLR 30/06 A3002 RMK AO2 T02980060=||F||223|ICAO-KCPU
USI0000KCPU|CALAVERAS CO MAURY RASMUSSEN F|2023|05|16|20|15|38.1461|-120.6482|403.9|30.1||1|FM15-METAR|223|ICAO-KCPU|6.2||1|FM15-METAR|223|ICAO-KCPU|||||||||||||340|N-Normal|1|FM15-METAR|223|ICAO-KCPU|4.1|N-Normal|1|FM15-METAR|223|ICAO-KCPU|||||||||||||22|Derived||FM15-METAR|223|ICAO-KCPU|||||||||||||||||||||||||||||||||||||||||||||||||||||||||||||||||||||||||1016.6||1|FM15-METAR|223|ICAO-KCPU|||||||||||||||||||||||||||||||||||||||||||MET071METAR KCPU 162015Z AUTO 34008KT 10SM CLR 30/06 A3002 RMK AO2 T03010062=||F||223|ICAO-KCPU
USI0000KCPU|CALAVERAS CO MAURY RASMUSSEN F|2023|05|16|20|35|38.1461|-120.6482|403.9|30.2||1|FM15-METAR|223|ICAO-KCPU|6.0||1|FM15-METAR|223|ICAO-KCPU|||||||||||||330|N-Normal|1|FM15-METAR|223|ICAO-KCPU|4.1|N-Normal|1|FM15-METAR|223|ICAO-KCPU|||||||||||||22|Derived||FM15-METAR|223|ICAO-KCPU|||||||||||||||||||||||||||||||||||||||||||||||||||||||||||||||||||||||||1016.6||1|FM15-METAR|223|ICAO-KCPU|||||||||||||||||||||||||||||||||||||||||||MET071METAR KCPU 162035Z AUTO 33008KT 10SM CLR 30/06 A3002 RMK AO2 T03020060=||F||223|ICAO-KCPU
USI0000KCPU|CALAVERAS CO MAURY RASMUSSEN F|2023|05|16|20|55|38.1461|-120.6482|403.9|30.2||1|FM15-METAR|223|ICAO-KCPU|5.7||1|FM15-METAR|223|ICAO-KCPU|||||||||||||320|N-Normal|1|FM15-METAR|223|ICAO-KCPU|4.6|N-Normal|1|FM15-METAR|223|ICAO-KCPU|||||||||||||21|Derived||FM15-METAR|223|ICAO-KCPU|||||||||||||||||||||||||||||||||||||||||||||||||||||||||||||||||||||||||1016.3||1|FM15-METAR|223|ICAO-KCPU|||||||||||||||||||||||||||||||||||||||||||MET071METAR KCPU 162055Z AUTO 32009KT 10SM CLR 30/06 A3001 RMK AO2 T03020057=||F||223|ICAO-KCPU
USI0000KCPU|CALAVERAS CO MAURY RASMUSSEN F|2023|05|16|21|15|38.1461|-120.6482|403.9|30.4||1|FM15-METAR|223|ICAO-KCPU|6.5||1|FM15-METAR|223|ICAO-KCPU|||||||||||||330|N-Normal|1|FM15-METAR|223|ICAO-KCPU|4.1|N-Normal|1|FM15-METAR|223|ICAO-KCPU|||||||||||||22|Derived||FM15-METAR|223|ICAO-KCPU|||||||||||||||||||||||||||||||||||||||||||||||||||||||||||||||||||||||||1016.3||1|FM15-METAR|223|ICAO-KCPU|||||||||||||||||||||||||||||||||||||||||||MET071METAR KCPU 162115Z AUTO 33008KT 10SM CLR 30/07 A3001 RMK AO2 T03040065=||F||223|ICAO-KCPU
USI0000KCPU|CALAVERAS CO MAURY RASMUSSEN F|2023|05|16|21|35|38.1461|-120.6482|403.9|30.7||1|FM15-METAR|223|ICAO-KCPU|7.3||1|FM15-METAR|223|ICAO-KCPU|||||||||||||330|N-Normal|1|FM15-METAR|223|ICAO-KCPU|3.1|N-Normal|1|FM15-METAR|223|ICAO-KCPU|||||||||||||23|Derived||FM15-METAR|223|ICAO-KCPU|||||||||||||||||||||||||||||||||||||||||||||||||||||||||||||||||||||||||1015.9||1|FM15-METAR|223|ICAO-KCPU|||||||||||||||||||||||||||||||||||||||||||MET071METAR KCPU 162135Z AUTO 33006KT 10SM CLR 31/07 A3000 RMK AO2 T03070073=||F||223|ICAO-KCPU
USI0000KCPU|CALAVERAS CO MAURY RASMUSSEN F|2023|05|16|21|55|38.1461|-120.6482|403.9|31.2||1|FM15-METAR|223|ICAO-KCPU|7.0||1|FM15-METAR|223|ICAO-KCPU|||||||||||||310|N-Normal|1|FM15-METAR|223|ICAO-KCPU|4.6|N-Normal|1|FM15-METAR|223|ICAO-KCPU|||||||||||||22|Derived||FM15-METAR|223|ICAO-KCPU|||||||||||||||||||||||||||||||||||||||||||||||||||||||||||||||||||||||||1015.9||1|FM15-METAR|223|ICAO-KCPU|||||||||||||||||||||||||||||||||||||||||||MET071METAR KCPU 162155Z AUTO 31009KT 10SM CLR 31/07 A3000 RMK AO2 T03120070=||F||223|ICAO-KCPU
USI0000KCPU|CALAVERAS CO MAURY RASMUSSEN F|2023|05|16|22|15|38.1461|-120.6482|403.9|31.1||1|FM15-METAR|223|ICAO-KCPU|6.7||1|FM15-METAR|223|ICAO-KCPU|||||||||||||320|N-Normal|1|FM15-METAR|223|ICAO-KCPU|3.6|N-Normal|1|FM15-METAR|223|ICAO-KCPU|||||||||||||22|Derived||FM15-METAR|223|ICAO-KCPU|||||||||||||||||||||||||||||||||||||||||||||||||||||||||||||||||||||||||1015.6||1|FM15-METAR|223|ICAO-KCPU|||||||||||||||||||||||||||||||||||||||||||MET071METAR KCPU 162215Z AUTO 32007KT 10SM CLR 31/07 A2999 RMK AO2 T03110067=||F||223|ICAO-KCPU
USI0000KCPU|CALAVERAS CO MAURY RASMUSSEN F|2023|05|16|22|35|38.1461|-120.6482|403.9|31.4||1|FM15-METAR|223|ICAO-KCPU|6.7||1|FM15-METAR|223|ICAO-KCPU|||||||||||||320|N-Normal|1|FM15-METAR|223|ICAO-KCPU|3.6|N-Normal|1|FM15-METAR|223|ICAO-KCPU|||||||||||||21|Derived||FM15-METAR|223|ICAO-KCPU|||||||||||||||||||||||||||||||||||||||||||||||||||||||||||||||||||||||||1015.6||1|FM15-METAR|223|ICAO-KCPU|||||||||||||||||||||||||||||||||||||||||||MET071METAR KCPU 162235Z AUTO 32007KT 10SM CLR 31/07 A2999 RMK AO2 T03140067=||F||223|ICAO-KCPU
USI0000KCPU|CALAVERAS CO MAURY RASMUSSEN F|2023|05|16|22|55|38.1461|-120.6482|403.9|31.7||1|FM15-METAR|223|ICAO-KCPU|6.6||1|FM15-METAR|223|ICAO-KCPU|||||||||||||310|N-Normal|1|FM15-METAR|223|ICAO-KCPU|4.6|N-Normal|1|FM15-METAR|223|ICAO-KCPU|||||||||||||21|Derived||FM15-METAR|223|ICAO-KCPU|||||||||||||||||||||||||||||||||||||||||||||||||||||||||||||||||||||||||1015.2||1|FM15-METAR|223|ICAO-KCPU|||||||||||||||||||||||||||||||||||||||||||MET071METAR KCPU 162255Z AUTO 31009KT 10SM CLR 32/07 A2998 RMK AO2 T03170066=||F||223|ICAO-KCPU
USI0000KCPU|CALAVERAS CO MAURY RASMUSSEN F|2023|05|16|23|15|38.1461|-120.6482|403.9|31.6||1|FM15-METAR|223|ICAO-KCPU|7.3||1|FM15-METAR|223|ICAO-KCPU|||||||||||||310|N-Normal|1|FM15-METAR|223|ICAO-KCPU|3.1|N-Normal|1|FM15-METAR|223|ICAO-KCPU|||||||||||||22|Derived||FM15-METAR|223|ICAO-KCPU|||||||||||||||||||||||||||||||||||||||||||||||||||||||||||||||||||||||||1014.9||1|FM15-METAR|223|ICAO-KCPU|||||||||||||||||||||||||||||||||||||||||||MET071METAR KCPU 162315Z AUTO 31006KT 10SM CLR 32/07 A2997 RMK AO2 T03160073=||F||223|ICAO-KCPU
USI0000KCPU|CALAVERAS CO MAURY RASMUSSEN F|2023|05|16|23|35|38.1461|-120.6482|403.9|31.5||1|FM15-METAR|223|ICAO-KCPU|7.4||1|FM15-METAR|223|ICAO-KCPU|||||||||||||300|N-Normal|1|FM15-METAR|223|ICAO-KCPU|3.6|N-Normal|1|FM15-METAR|223|ICAO-KCPU|||||||||||||22|Derived||FM15-METAR|223|ICAO-KCPU|||||||||||||||||||||||||||||||||||||||||||||||||||||||||||||||||||||||||1014.9||1|FM15-METAR|223|ICAO-KCPU|||||||||||||||||||||||||||||||||||||||||||MET071METAR KCPU 162335Z AUTO 30007KT 10SM CLR 32/07 A2997 RMK AO2 T03150074=||F||223|ICAO-KCPU
USI0000KCPU|CALAVERAS CO MAURY RASMUSSEN F|2023|05|16|23|55|38.1461|-120.6482|403.9|31.3||1|FM15-METAR|223|ICAO-KCPU|7.0||1|FM15-METAR|223|ICAO-KCPU|||||||||||||310|N-Normal|1|FM15-METAR|223|ICAO-KCPU|2.6|N-Normal|1|FM15-METAR|223|ICAO-KCPU|||||||||||||22|Derived||FM15-METAR|223|ICAO-KCPU|||||||||||||||||||||||||||||||||||||||||||||||||||||||||||||||||||||||||1014.9||1|FM15-METAR|223|ICAO-KCPU|||||||||||||||||||||||||||||||||||||||||||MET083METAR KCPU 162355Z AUTO 31005KT 10SM CLR 31/07 A2997 RMK AO2 T03130070 10317 20280=||F||223|ICAO-KCPU
USI0000KCPU|CALAVERAS CO MAURY RASMUSSEN F|2023|05|17|00|15|38.1461|-120.6482|403.9|31.2||1|FM15-METAR|223|ICAO-KCPU|6.5||1|FM15-METAR|223|ICAO-KCPU|||||||||||||320|N-Normal|1|FM15-METAR|223|ICAO-KCPU|3.1|N-Normal|1|FM15-METAR|223|ICAO-KCPU|||||||||||||21|Derived||FM15-METAR|223|ICAO-KCPU|||||||||||||||||||||||||||||||||||||||||||||||||||||||||||||||||||||||||1014.9||1|FM15-METAR|223|ICAO-KCPU|||||||||||||||||||||||||||||||||||||||||||MET071METAR KCPU 170015Z AUTO 32006KT 10SM CLR 31/07 A2997 RMK AO2 T03120065=||F||223|ICAO-KCPU
USI0000KCPU|CALAVERAS CO MAURY RASMUSSEN F|2023|05|17|00|35|38.1461|-120.6482|403.9|31.2||1|FM15-METAR|223|ICAO-KCPU|6.8||1|FM15-METAR|223|ICAO-KCPU|||||||||||||320|N-Normal|1|FM15-METAR|223|ICAO-KCPU|3.1|N-Normal|1|FM15-METAR|223|ICAO-KCPU|||||||||||||22|Derived||FM15-METAR|223|ICAO-KCPU|||||||||||||||||||||||||||||||||||||||||||||||||||||||||||||||||||||||||1014.6||1|FM15-METAR|223|ICAO-KCPU|||||||||||||||||||||||||||||||||||||||||||MET071METAR KCPU 170035Z AUTO 32006KT 10SM CLR 31/07 A2996 RMK AO2 T03120068=||F||223|ICAO-KCPU
USI0000KCPU|CALAVERAS CO MAURY RASMUSSEN F|2023|05|17|00|55|38.1461|-120.6482|403.9|31.0||1|FM15-METAR|223|ICAO-KCPU|6.8||1|FM15-METAR|223|ICAO-KCPU|||||||||||||300|N-Normal|1|FM15-METAR|223|ICAO-KCPU|3.6|N-Normal|1|FM15-METAR|223|ICAO-KCPU|||||||||||||22|Derived||FM15-METAR|223|ICAO-KCPU|||||||||||||||||||||||||||||||||||||||||||||||||||||||||||||||||||||||||1014.6||1|FM15-METAR|223|ICAO-KCPU|||||||||||||||||||||||||||||||||||||||||||MET071METAR KCPU 170055Z AUTO 30007KT 10SM CLR 31/07 A2996 RMK AO2 T03100068=||F||223|ICAO-KCPU
USI0000KCPU|CALAVERAS CO MAURY RASMUSSEN F|2023|05|17|01|15|38.1461|-120.6482|403.9|30.7||1|FM15-METAR|223|ICAO-KCPU|6.5||1|FM15-METAR|223|ICAO-KCPU|||||||||||||310|N-Normal|1|FM15-METAR|223|ICAO-KCPU|3.1|N-Normal|1|FM15-METAR|223|ICAO-KCPU|||||||||||||22|Derived||FM15-METAR|223|ICAO-KCPU|||||||||||||||||||||||||||||||||||||||||||||||||||||||||||||||||||||||||1014.6||1|FM15-METAR|223|ICAO-KCPU|||||||||||||||||||||||||||||||||||||||||||MET071METAR KCPU 170115Z AUTO 31006KT 10SM CLR 31/07 A2996 RMK AO2 T03070065=||F||223|ICAO-KCPU
USI0000KCPU|CALAVERAS CO MAURY RASMUSSEN F|2023|05|17|01|35|38.1461|-120.6482|403.9|30.2||1|FM15-METAR|223|ICAO-KCPU|5.9||1|FM15-METAR|223|ICAO-KCPU|||||||||||||310|N-Normal|1|FM15-METAR|223|ICAO-KCPU|3.1|N-Normal|1|FM15-METAR|223|ICAO-KCPU|||||||||||||22|Derived||FM15-METAR|223|ICAO-KCPU|||||||||||||||||||||||||||||||||||||||||||||||||||||||||||||||||||||||||1014.6||1|FM15-METAR|223|ICAO-KCPU|||||||||||||||||||||||||||||||||||||||||||MET071METAR KCPU 170135Z AUTO 31006KT 10SM CLR 30/06 A2996 RMK AO2 T03020059=||F||223|ICAO-KCPU
USI0000KCPU|CALAVERAS CO MAURY RASMUSSEN F|2023|05|17|01|55|38.1461|-120.6482|403.9|29.9||1|FM15-METAR|223|ICAO-KCPU|7.1||1|FM15-METAR|223|ICAO-KCPU|||||||||||||320|N-Normal|1|FM15-METAR|223|ICAO-KCPU|2.6|N-Normal|1|FM15-METAR|223|ICAO-KCPU|||||||||||||24|Derived||FM15-METAR|223|ICAO-KCPU|||||||||||||||||||||||||||||||||||||||||||||||||||||||||||||||||||||||||1014.2||1|FM15-METAR|223|ICAO-KCPU|||||||||||||||||||||||||||||||||||||||||||MET071METAR KCPU 170155Z AUTO 32005KT 10SM CLR 30/07 A2995 RMK AO2 T02990071=||F||223|ICAO-KCPU
USI0000KCPU|CALAVERAS CO MAURY RASMUSSEN F|2023|05|17|02|15|38.1461|-120.6482|403.9|29.3||1|FM15-METAR|223|ICAO-KCPU|6.7||1|FM15-METAR|223|ICAO-KCPU|||||||||||||310|N-Normal|1|FM15-METAR|223|ICAO-KCPU|2.1|N-Normal|1|FM15-METAR|223|ICAO-KCPU|||||||||||||24|Derived||FM15-METAR|223|ICAO-KCPU|||||||||||||||||||||||||||||||||||||||||||||||||||||||||||||||||||||||||1014.2||1|FM15-METAR|223|ICAO-KCPU|||||||||||||||||||||||||||||||||||||||||||MET071METAR KCPU 170215Z AUTO 31004KT 10SM CLR 29/07 A2995 RMK AO2 T02930067=||F||223|ICAO-KCPU
USI0000KCPU|CALAVERAS CO MAURY RASMUSSEN F|2023|05|17|02|35|38.1461|-120.6482|403.9|28.7||1|FM15-METAR|223|ICAO-KCPU|6.6||1|FM15-METAR|223|ICAO-KCPU|||||||||||||320|N-Normal|1|FM15-METAR|223|ICAO-KCPU|1.5|N-Normal|1|FM15-METAR|223|ICAO-KCPU|||||||||||||25|Derived||FM15-METAR|223|ICAO-KCPU|||||||||||||||||||||||||||||||||||||||||||||||||||||||||||||||||||||||||1014.6||1|FM15-METAR|223|ICAO-KCPU|||||||||||||||||||||||||||||||||||||||||||MET071METAR KCPU 170235Z AUTO 32003KT 10SM CLR 29/07 A2996 RMK AO2 T02870066=||F||223|ICAO-KCPU
USI0000KCPU|CALAVERAS CO MAURY RASMUSSEN F|2023|05|17|02|55|38.1461|-120.6482|403.9|27.8||1|FM15-METAR|223|ICAO-KCPU|6.6||1|FM15-METAR|223|ICAO-KCPU|||||||||||||310|N-Normal|1|FM15-METAR|223|ICAO-KCPU|1.5|N-Normal|1|FM15-METAR|223|ICAO-KCPU|||||||||||||26|Derived||FM15-METAR|223|ICAO-KCPU|||||||||||||||||||||||||||||||||||||||||||||||||||||||||||||||||||||||||1014.6||1|FM15-METAR|223|ICAO-KCPU|||||||||||||||||||||||||||||||||||||||||||MET071METAR KCPU 170255Z AUTO 31003KT 10SM CLR 28/07 A2996 RMK AO2 T02780066=||F||223|ICAO-KCPU
USI0000KCPU|CALAVERAS CO MAURY RASMUSSEN F|2023|05|17|03|15|38.1461|-120.6482|403.9|27.1||1|FM15-METAR|223|ICAO-KCPU|7.4||1|FM15-METAR|223|ICAO-KCPU|||||||||||||999|C-Calm|9|FM15-METAR|223|ICAO-KCPU|0.0|C-Calm|1|FM15-METAR|223|ICAO-KCPU|||||||||||||29|Derived||FM15-METAR|223|ICAO-KCPU|||||||||||||||||||||||||||||||||||||||||||||||||||||||||||||||||||||||||1014.9||1|FM15-METAR|223|ICAO-KCPU|||||||||||||||||||||||||||||||||||||||||||MET071METAR KCPU 170315Z AUTO 00000KT 10SM CLR 27/07 A2997 RMK AO2 T02710074=||F||223|ICAO-KCPU
USI0000KCPU|CALAVERAS CO MAURY RASMUSSEN F|2023|05|17|03|35|38.1461|-120.6482|403.9|26.1||1|FM15-METAR|223|ICAO-KCPU|7.9||1|FM15-METAR|223|ICAO-KCPU|||||||||||||999|C-Calm|9|FM15-METAR|223|ICAO-KCPU|0.0|C-Calm|1|FM15-METAR|223|ICAO-KCPU|||||||||||||32|Derived||FM15-METAR|223|ICAO-KCPU|||||||||||||||||||||||||||||||||||||||||||||||||||||||||||||||||||||||||1014.9||1|FM15-METAR|223|ICAO-KCPU|||||||||||||||||||||||||||||||||||||||||||MET071METAR KCPU 170335Z AUTO 00000KT 10SM CLR 26/08 A2997 RMK AO2 T02610079=||F||223|ICAO-KCPU
USI0000KCPU|CALAVERAS CO MAURY RASMUSSEN F|2023|05|17|03|55|38.1461|-120.6482|403.9|25.5||1|FM15-METAR|223|ICAO-KCPU|8.0||1|FM15-METAR|223|ICAO-KCPU|||||||||||||999|C-Calm|9|FM15-METAR|223|ICAO-KCPU|0.0|C-Calm|1|FM15-METAR|223|ICAO-KCPU|||||||||||||33|Derived||FM15-METAR|223|ICAO-KCPU|||||||||||||||||||||||||||||||||||||||||||||||||||||||||||||||||||||||||1014.9||1|FM15-METAR|223|ICAO-KCPU|||||||||||||||||||||||||||||||||||||||||||MET071METAR KCPU 170355Z AUTO 00000KT 10SM CLR 26/08 A2997 RMK AO2 T02550080=||F||223|ICAO-KCPU
USI0000KCPU|CALAVERAS CO MAURY RASMUSSEN F|2023|05|17|04|15|38.1461|-120.6482|403.9|24.6||1|FM15-METAR|223|ICAO-KCPU|7.9||1|FM15-METAR|223|ICAO-KCPU|||||||||||||999|C-Calm|9|FM15-METAR|223|ICAO-KCPU|0.0|C-Calm|1|FM15-METAR|223|ICAO-KCPU|||||||||||||35|Derived||FM15-METAR|223|ICAO-KCPU|||||||||||||||||||||||||||||||||||||||||||||||||||||||||||||||||||||||||1015.2||1|FM15-METAR|223|ICAO-KCPU|||||||||||||||||||||||||||||||||||||||||||MET071METAR KCPU 170415Z AUTO 00000KT 10SM CLR 25/08 A2998 RMK AO2 T02460079=||F||223|ICAO-KCPU
USI0000KCPU|CALAVERAS CO MAURY RASMUSSEN F|2023|05|17|04|35|38.1461|-120.6482|403.9|24.8||1|FM15-METAR|223|ICAO-KCPU|7.5||1|FM15-METAR|223|ICAO-KCPU|||||||||||||999|C-Calm|9|FM15-METAR|223|ICAO-KCPU|0.0|C-Calm|1|FM15-METAR|223|ICAO-KCPU|||||||||||||33|Derived||FM15-METAR|223|ICAO-KCPU|||||||||||||||||||||||||||||||||||||||||||||||||||||||||||||||||||||||||1015.2||1|FM15-METAR|223|ICAO-KCPU|||||||||||||||||||||||||||||||||||||||||||MET071METAR KCPU 170435Z AUTO 00000KT 10SM CLR 25/08 A2998 RMK AO2 T02480075=||F||223|ICAO-KCPU
USI0000KCPU|CALAVERAS CO MAURY RASMUSSEN F|2023|05|17|04|55|38.1461|-120.6482|403.9|23.4||1|FM15-METAR|223|ICAO-KCPU|8.0||1|FM15-METAR|223|ICAO-KCPU|||||||||||||999|C-Calm|9|FM15-METAR|223|ICAO-KCPU|0.0|C-Calm|1|FM15-METAR|223|ICAO-KCPU|||||||||||||37|Derived||FM15-METAR|223|ICAO-KCPU|||||||||||||||||||||||||||||||||||||||||||||||||||||||||||||||||||||||||1015.6||1|FM15-METAR|223|ICAO-KCPU|||||||||||||||||||||||||||||||||||||||||||MET071METAR KCPU 170455Z AUTO 00000KT 10SM CLR 23/08 A2999 RMK AO2 T02340080=||F||223|ICAO-KCPU
USI0000KCPU|CALAVERAS CO MAURY RASMUSSEN F|2023|05|17|05|15|38.1461|-120.6482|403.9|21.2||1|FM15-METAR|223|ICAO-KCPU|8.9||1|FM15-METAR|223|ICAO-KCPU|||||||||||||999|C-Calm|9|FM15-METAR|223|ICAO-KCPU|0.0|C-Calm|1|FM15-METAR|223|ICAO-KCPU|||||||||||||45|Derived||FM15-METAR|223|ICAO-KCPU|||||||||||||||||||||||||||||||||||||||||||||||||||||||||||||||||||||||||1015.6||1|FM15-METAR|223|ICAO-KCPU|||||||||||||||||||||||||||||||||||||||||||MET071METAR KCPU 170515Z AUTO 00000KT 10SM CLR 21/09 A2999 RMK AO2 T02120089=||F||223|ICAO-KCPU
USI0000KCPU|CALAVERAS CO MAURY RASMUSSEN F|2023|05|17|05|35|38.1461|-120.6482|403.9|20.5||1|FM15-METAR|223|ICAO-KCPU|9.0||1|FM15-METAR|223|ICAO-KCPU|||||||||||||999|C-Calm|9|FM15-METAR|223|ICAO-KCPU|0.0|C-Calm|1|FM15-METAR|223|ICAO-KCPU|||||||||||||48|Derived||FM15-METAR|223|ICAO-KCPU|||||||||||||||||||||||||||||||||||||||||||||||||||||||||||||||||||||||||1015.6||1|FM15-METAR|223|ICAO-KCPU|||||||||||||||||||||||||||||||||||||||||||MET071METAR KCPU 170535Z AUTO 00000KT 10SM CLR 21/09 A2999 RMK AO2 T02050090=||F||223|ICAO-KCPU
USI0000KCPU|CALAVERAS CO MAURY RASMUSSEN F|2023|05|17|05|55|38.1461|-120.6482|403.9|20.0||1|FM15-METAR|223|ICAO-KCPU|9.1||1|FM15-METAR|223|ICAO-KCPU|||||||||||||999|C-Calm|9|FM15-METAR|223|ICAO-KCPU|0.0|C-Calm|1|FM15-METAR|223|ICAO-KCPU|||||||||||||50|Derived||FM15-METAR|223|ICAO-KCPU|||||||||||||||||||||||||||||||||||||||||||||||||||||||||||||||||||||||||1015.6||1|FM15-METAR|223|ICAO-KCPU|||||||||||||||||||||||||||||||||||||||||||MET083METAR KCPU 170555Z AUTO 00000KT 10SM CLR 20/09 A2999 RMK AO2 T02000091 10315 20200=||F||223|ICAO-KCPU
USI0000KCPU|CALAVERAS CO MAURY RASMUSSEN F|2023|05|17|06|15|38.1461|-120.6482|403.9|19.3||1|FM15-METAR|223|ICAO-KCPU|9.0||1|FM15-METAR|223|ICAO-KCPU|||||||||||||999|C-Calm|9|FM15-METAR|223|ICAO-KCPU|0.0|C-Calm|1|FM15-METAR|223|ICAO-KCPU|||||||||||||51|Derived||FM15-METAR|223|ICAO-KCPU|||||||||||||||||||||||||||||||||||||||||||||||||||||||||||||||||||||||||1015.6||1|FM15-METAR|223|ICAO-KCPU|||||||||||||||||||||||||||||||||||||||||||MET071METAR KCPU 170615Z AUTO 00000KT 10SM CLR 19/09 A2999 RMK AO2 T01930090=||F||223|ICAO-KCPU
USI0000KCPU|CALAVERAS CO MAURY RASMUSSEN F|2023|05|17|06|35|38.1461|-120.6482|403.9|19.5||1|FM15-METAR|223|ICAO-KCPU|9.0||1|FM15-METAR|223|ICAO-KCPU|||||||||||||999|C-Calm|9|FM15-METAR|223|ICAO-KCPU|0.0|C-Calm|1|FM15-METAR|223|ICAO-KCPU|||||||||||||51|Derived||FM15-METAR|223|ICAO-KCPU|||||||||||||||||||||||||||||||||||||||||||||||||||||||||||||||||||||||||1015.2||1|FM15-METAR|223|ICAO-KCPU|||||||||||||||||||||||||||||||||||||||||||MET071METAR KCPU 170635Z AUTO 00000KT 10SM CLR 20/09 A2998 RMK AO2 T01950090=||F||223|ICAO-KCPU
USI0000KCPU|CALAVERAS CO MAURY RASMUSSEN F|2023|05|17|06|55|38.1461|-120.6482|403.9|19.1||1|FM15-METAR|223|ICAO-KCPU|8.7||1|FM15-METAR|223|ICAO-KCPU|||||||||||||999|C-Calm|9|FM15-METAR|223|ICAO-KCPU|0.0|C-Calm|1|FM15-METAR|223|ICAO-KCPU|||||||||||||51|Derived||FM15-METAR|223|ICAO-KCPU|||||||||||||||||||||||||||||||||||||||||||||||||||||||||||||||||||||||||1015.2||1|FM15-METAR|223|ICAO-KCPU|||||||||||||||||||||||||||||||||||||||||||MET071METAR KCPU 170655Z AUTO 00000KT 10SM CLR 19/09 A2998 RMK AO2 T01910087=||F||223|ICAO-KCPU
USI0000KCPU|CALAVERAS CO MAURY RASMUSSEN F|2023|05|17|07|15|38.1461|-120.6482|403.9|18.7||1|FM15-METAR|223|ICAO-KCPU|8.5||1|FM15-METAR|223|ICAO-KCPU|||||||||||||999|C-Calm|9|FM15-METAR|223|ICAO-KCPU|0.0|C-Calm|1|FM15-METAR|223|ICAO-KCPU|||||||||||||52|Derived||FM15-METAR|223|ICAO-KCPU|||||||||||||||||||||||||||||||||||||||||||||||||||||||||||||||||||||||||1015.2||1|FM15-METAR|223|ICAO-KCPU|||||||||||||||||||||||||||||||||||||||||||MET071METAR KCPU 170715Z AUTO 00000KT 10SM CLR 19/09 A2998 RMK AO2 T01870085=||F||223|ICAO-KCPU
USI0000KCPU|CALAVERAS CO MAURY RASMUSSEN F|2023|05|17|07|35|38.1461|-120.6482|403.9|17.4||1|FM15-METAR|223|ICAO-KCPU|8.2||1|FM15-METAR|223|ICAO-KCPU|||||||||||||999|C-Calm|9|FM15-METAR|223|ICAO-KCPU|0.0|C-Calm|1|FM15-METAR|223|ICAO-KCPU|||||||||||||55|Derived||FM15-METAR|223|ICAO-KCPU|||||||||||||||||||||||||||||||||||||||||||||||||||||||||||||||||||||||||1015.2||1|FM15-METAR|223|ICAO-KCPU|||||||||||||||||||||||||||||||||||||||||||MET071METAR KCPU 170735Z AUTO 00000KT 10SM CLR 17/08 A2998 RMK AO2 T01740082=||F||223|ICAO-KCPU
USI0000KCPU|CALAVERAS CO MAURY RASMUSSEN F|2023|05|17|07|55|38.1461|-120.6482|403.9|17.2||1|FM15-METAR|223|ICAO-KCPU|8.5||1|FM15-METAR|223|ICAO-KCPU|||||||||||||999|C-Calm|9|FM15-METAR|223|ICAO-KCPU|0.0|C-Calm|1|FM15-METAR|223|ICAO-KCPU|||||||||||||57|Derived||FM15-METAR|223|ICAO-KCPU|||||||||||||||||||||||||||||||||||||||||||||||||||||||||||||||||||||||||1015.2||1|FM15-METAR|223|ICAO-KCPU|||||||||||||||||||||||||||||||||||||||||||MET081METAR KCPU 170755Z AUTO 00000KT 10SM CLR 17/09 A2998 RMK AO2 T01720085 403170131=||F||223|ICAO-KCPU
USI0000KCPU|CALAVERAS CO MAURY RASMUSSEN F|2023|05|17|08|15|38.1461|-120.6482|403.9|16.8||1|FM15-METAR|223|ICAO-KCPU|8.0||1|FM15-METAR|223|ICAO-KCPU|||||||||||||999|C-Calm|9|FM15-METAR|223|ICAO-KCPU|0.0|C-Calm|1|FM15-METAR|223|ICAO-KCPU|||||||||||||56|Derived||FM15-METAR|223|ICAO-KCPU|||||||||||||||||||||||||||||||||||||||||||||||||||||||||||||||||||||||||1015.2||1|FM15-METAR|223|ICAO-KCPU|||||||||||||||||||||||||||||||||||||||||||MET071METAR KCPU 170815Z AUTO 00000KT 10SM CLR 17/08 A2998 RMK AO2 T01680080=||F||223|ICAO-KCPU
USI0000KCPU|CALAVERAS CO MAURY RASMUSSEN F|2023|05|17|08|35|38.1461|-120.6482|403.9|15.7||1|FM15-METAR|223|ICAO-KCPU|8.8||1|FM15-METAR|223|ICAO-KCPU|||||||||||||999|C-Calm|9|FM15-METAR|223|ICAO-KCPU|0.0|C-Calm|1|FM15-METAR|223|ICAO-KCPU|||||||||||||64|Derived||FM15-METAR|223|ICAO-KCPU|||||||||||||||||||||||||||||||||||||||||||||||||||||||||||||||||||||||||1014.9||1|FM15-METAR|223|ICAO-KCPU|||||||||||||||||||||||||||||||||||||||||||MET071METAR KCPU 170835Z AUTO 00000KT 10SM CLR 16/09 A2997 RMK AO2 T01570088=||F||223|ICAO-KCPU
USI0000KCPU|CALAVERAS CO MAURY RASMUSSEN F|2023|05|17|08|50|38.1461|-120.6482|403.9|16.2||1|FM15-METAR|223|ICAO-KCPU|8.8||1|FM15-METAR|223|ICAO-KCPU|||||||||||||999|C-Calm|9|FM15-METAR|223|ICAO-KCPU|0.0|C-Calm|1|FM15-METAR|223|ICAO-KCPU|||||||||||||62|Derived||FM15-METAR|223|ICAO-KCPU|||||||||||||||||||||||||||||||||||||||||||||||||||||||||||||||||||||||||1014.9||1|FM15-METAR|223|ICAO-KCPU|||||||||||||||||||||||||||||||||||||||||||MET071METAR KCPU 170850Z AUTO 00000KT 10SM CLR 16/09 A2997 RMK AO2 T01620088=||F||223|ICAO-KCPU
USI0000KCPU|CALAVERAS CO MAURY RASMUSSEN F|2023|05|17|09|15|38.1461|-120.6482|403.9|14.9||1|FM15-METAR|223|ICAO-KCPU|7.9||1|FM15-METAR|223|ICAO-KCPU|||||||||||||999|C-Calm|9|FM15-METAR|223|ICAO-KCPU|0.0|C-Calm|1|FM15-METAR|223|ICAO-KCPU|||||||||||||63|Derived||FM15-METAR|223|ICAO-KCPU|||||||||||||||||||||||||||||||||||||||||||||||||||||||||||||||||||||||||1014.9||1|FM15-METAR|223|ICAO-KCPU|||||||||||||||||||||||||||||||||||||||||||MET071METAR KCPU 170915Z AUTO 00000KT 10SM CLR 15/08 A2997 RMK AO2 T01490079=||F||223|ICAO-KCPU
USI0000KCPU|CALAVERAS CO MAURY RASMUSSEN F|2023|05|17|09|35|38.1461|-120.6482|403.9|15.4||1|FM15-METAR|223|ICAO-KCPU|7.5||1|FM15-METAR|223|ICAO-KCPU|||||||||||||999|C-Calm|9|FM15-METAR|223|ICAO-KCPU|0.0|C-Calm|1|FM15-METAR|223|ICAO-KCPU|||||||||||||60|Derived||FM15-METAR|223|ICAO-KCPU|||||||||||||||||||||||||||||||||||||||||||||||||||||||||||||||||||||||||1014.9||1|FM15-METAR|223|ICAO-KCPU|||||||||||||||||||||||||||||||||||||||||||MET071METAR KCPU 170935Z AUTO 00000KT 10SM CLR 15/08 A2997 RMK AO2 T01540075=||F||223|ICAO-KCPU
USI0000KCPU|CALAVERAS CO MAURY RASMUSSEN F|2023|05|17|09|55|38.1461|-120.6482|403.9|14.2||1|FM15-METAR|223|ICAO-KCPU|7.5||1|FM15-METAR|223|ICAO-KCPU|||||||||||||999|C-Calm|9|FM15-METAR|223|ICAO-KCPU|0.0|C-Calm|1|FM15-METAR|223|ICAO-KCPU|||||||||||||64|Derived||FM15-METAR|223|ICAO-KCPU|||||||||||||||||||||||||||||||||||||||||||||||||||||||||||||||||||||||||1014.6||1|FM15-METAR|223|ICAO-KCPU|||||||||||||||||||||||||||||||||||||||||||MET071METAR KCPU 170955Z AUTO 00000KT 10SM CLR 14/08 A2996 RMK AO2 T01420075=||F||223|ICAO-KCPU
USI0000KCPU|CALAVERAS CO MAURY RASMUSSEN F|2023|05|17|10|15|38.1461|-120.6482|403.9|14.6||1|FM15-METAR|223|ICAO-KCPU|7.2||1|FM15-METAR|223|ICAO-KCPU|||||||||||||999|C-Calm|9|FM15-METAR|223|ICAO-KCPU|0.0|C-Calm|1|FM15-METAR|223|ICAO-KCPU|||||||||||||61|Derived||FM15-METAR|223|ICAO-KCPU|||||||||||||||||||||||||||||||||||||||||||||||||||||||||||||||||||||||||1014.6||1|FM15-METAR|223|ICAO-KCPU|||||||||||||||||||||||||||||||||||||||||||MET071METAR KCPU 171015Z AUTO 00000KT 10SM CLR 15/07 A2996 RMK AO2 T01460072=||F||223|ICAO-KCPU
USI0000KCPU|CALAVERAS CO MAURY RASMUSSEN F|2023|05|17|10|35|38.1461|-120.6482|403.9|14.6||1|FM15-METAR|223|ICAO-KCPU|7.6||1|FM15-METAR|223|ICAO-KCPU|||||||||||||999|C-Calm|9|FM15-METAR|223|ICAO-KCPU|0.0|C-Calm|1|FM15-METAR|223|ICAO-KCPU|||||||||||||63|Derived||FM15-METAR|223|ICAO-KCPU|||||||||||||||||||||||||||||||||||||||||||||||||||||||||||||||||||||||||1014.6||1|FM15-METAR|223|ICAO-KCPU|||||||||||||||||||||||||||||||||||||||||||MET071METAR KCPU 171035Z AUTO 00000KT 10SM CLR 15/08 A2996 RMK AO2 T01460076=||F||223|ICAO-KCPU
USI0000KCPU|CALAVERAS CO MAURY RASMUSSEN F|2023|05|17|10|55|38.1461|-120.6482|403.9|14.0||1|FM15-METAR|223|ICAO-KCPU|8.8||1|FM15-METAR|223|ICAO-KCPU|||||||||||||999|C-Calm|9|FM15-METAR|223|ICAO-KCPU|0.0|C-Calm|1|FM15-METAR|223|ICAO-KCPU|||||||||||||71|Derived||FM15-METAR|223|ICAO-KCPU|||||||||||||||||||||||||||||||||||||||||||||||||||||||||||||||||||||||||1014.6||1|FM15-METAR|223|ICAO-KCPU|||||||||||||||||||||||||||||||||||||||||||MET071METAR KCPU 171055Z AUTO 00000KT 10SM CLR 14/09 A2996 RMK AO2 T01400088=||F||223|ICAO-KCPU
USI0000KCPU|CALAVERAS CO MAURY RASMUSSEN F|2023|05|17|11|15|38.1461|-120.6482|403.9|14.0||1|FM15-METAR|223|ICAO-KCPU|9.1||1|FM15-METAR|223|ICAO-KCPU|||||||||||||999|C-Calm|9|FM15-METAR|223|ICAO-KCPU|0.0|C-Calm|1|FM15-METAR|223|ICAO-KCPU|||||||||||||73|Derived||FM15-METAR|223|ICAO-KCPU|||||||||||||||||||||||||||||||||||||||||||||||||||||||||||||||||||||||||1014.6||1|FM15-METAR|223|ICAO-KCPU|||||||||||||||||||||||||||||||||||||||||||MET071METAR KCPU 171115Z AUTO 00000KT 10SM CLR 14/09 A2996 RMK AO2 T01400091=||F||223|ICAO-KCPU
USI0000KCPU|CALAVERAS CO MAURY RASMUSSEN F|2023|05|17|11|35|38.1461|-120.6482|403.9|13.8||1|FM15-METAR|223|ICAO-KCPU|8.6||1|FM15-METAR|223|ICAO-KCPU|||||||||||||999|C-Calm|9|FM15-METAR|223|ICAO-KCPU|0.0|C-Calm|1|FM15-METAR|223|ICAO-KCPU|||||||||||||71|Derived||FM15-METAR|223|ICAO-KCPU|||||||||||||||||||||||||||||||||||||||||||||||||||||||||||||||||||||||||1014.2||1|FM15-METAR|223|ICAO-KCPU|||||||||||||||||||||||||||||||||||||||||||MET071METAR KCPU 171135Z AUTO 00000KT 10SM CLR 14/09 A2995 RMK AO2 T01380086=||F||223|ICAO-KCPU
USI0000KCPU|CALAVERAS CO MAURY RASMUSSEN F|2023|05|17|12|15|38.1461|-120.6482|403.9|13.5||1|FM15-METAR|223|ICAO-KCPU|7.8||1|FM15-METAR|223|ICAO-KCPU|||||||||||||200|N-Normal|1|FM15-METAR|223|ICAO-KCPU|1.5|N-Normal|1|FM15-METAR|223|ICAO-KCPU|||||||||||||69|Derived||FM15-METAR|223|ICAO-KCPU|||||||||||||||||||||||||||||||||||||||||||||||||||||||||||||||||||||||||1014.2||1|FM15-METAR|223|ICAO-KCPU|||||||||||||||||||||||||||||||||||||||||||MET071METAR KCPU 171215Z AUTO 20003KT 10SM CLR 14/08 A2995 RMK AO2 T01350078=||F||223|ICAO-KCPU
USI0000KCPU|CALAVERAS CO MAURY RASMUSSEN F|2023|05|17|12|35|38.1461|-120.6482|403.9|13.8||1|FM15-METAR|223|ICAO-KCPU|7.2||1|FM15-METAR|223|ICAO-KCPU|||||||||||||200|N-Normal|1|FM15-METAR|223|ICAO-KCPU|1.5|N-Normal|1|FM15-METAR|223|ICAO-KCPU|||||||||||||65|Derived||FM15-METAR|223|ICAO-KCPU|||||||||||||||||||||||||||||||||||||||||||||||||||||||||||||||||||||||||1014.2||1|FM15-METAR|223|ICAO-KCPU|||||||||||||||||||||||||||||||||||||||||||MET071METAR KCPU 171235Z AUTO 20003KT 10SM CLR 14/07 A2995 RMK AO2 T01380072=||F||223|ICAO-KCPU
USI0000KCPU|CALAVERAS CO MAURY RASMUSSEN F|2023|05|17|12|55|38.1461|-120.6482|403.9|13.6||1|FM15-METAR|223|ICAO-KCPU|6.9||1|FM15-METAR|223|ICAO-KCPU|||||||||||||999|C-Calm|9|FM15-METAR|223|ICAO-KCPU|0.0|C-Calm|1|FM15-METAR|223|ICAO-KCPU|||||||||||||64|Derived||FM15-METAR|223|ICAO-KCPU|||||||||||||||||||||||||||||||||||||||||||||||||||||||||||||||||||||||||1014.2||1|FM15-METAR|223|ICAO-KCPU|||||||||||||||||||||||||||||||||||||||||||MET071METAR KCPU 171255Z AUTO 00000KT 10SM CLR 14/07 A2995 RMK AO2 T01360069=||F||223|ICAO-KCPU
USI0000KCPU|CALAVERAS CO MAURY RASMUSSEN F|2023|05|17|13|15|38.1461|-120.6482|403.9|14.3||1|FM15-METAR|223|ICAO-KCPU|6.4||1|FM15-METAR|223|ICAO-KCPU|||||||||||||999|C-Calm|9|FM15-METAR|223|ICAO-KCPU|0.0|C-Calm|1|FM15-METAR|223|ICAO-KCPU|||||||||||||59|Derived||FM15-METAR|223|ICAO-KCPU|||||||||||||||||||||||||||||||||||||||||||||||||||||||||||||||||||||||||1014.2||1|FM15-METAR|223|ICAO-KCPU|||||||||||||||||||||||||||||||||||||||||||MET071METAR KCPU 171315Z AUTO 00000KT 10SM CLR 14/06 A2995 RMK AO2 T01430064=||F||223|ICAO-KCPU
USI0000KCPU|CALAVERAS CO MAURY RASMUSSEN F|2023|05|17|13|35|38.1461|-120.6482|403.9|14.6||1|FM15-METAR|223|ICAO-KCPU|6.5||1|FM15-METAR|223|ICAO-KCPU|||||||||||||999|C-Calm|9|FM15-METAR|223|ICAO-KCPU|0.0|C-Calm|1|FM15-METAR|223|ICAO-KCPU|||||||||||||59|Derived||FM15-METAR|223|ICAO-KCPU|||||||||||||||||||||||||||||||||||||||||||||||||||||||||||||||||||||||||1014.2||1|FM15-METAR|223|ICAO-KCPU|||||||||||||||||||||||||||||||||||||||||||MET071METAR KCPU 171335Z AUTO 00000KT 10SM CLR 15/07 A2995 RMK AO2 T01460065=||F||223|ICAO-KCPU
USI0000KCPU|CALAVERAS CO MAURY RASMUSSEN F|2023|05|17|13|55|38.1461|-120.6482|403.9|15.0||1|FM15-METAR|223|ICAO-KCPU|7.8||1|FM15-METAR|223|ICAO-KCPU|||||||||||||999|C-Calm|9|FM15-METAR|223|ICAO-KCPU|0.0|C-Calm|1|FM15-METAR|223|ICAO-KCPU|||||||||||||62|Derived||FM15-METAR|223|ICAO-KCPU|||||||||||||||||||||||||||||||||||||||||||||||||||||||||||||||||||||||||1014.6||1|FM15-METAR|223|ICAO-KCPU|||||||||||||||||||||||||||||||||||||||||||MET071METAR KCPU 171355Z AUTO 00000KT 10SM CLR 15/08 A2996 RMK AO2 T01500078=||F||223|ICAO-KCPU
USI0000KCPU|CALAVERAS CO MAURY RASMUSSEN F|2023|05|17|14|15|38.1461|-120.6482|403.9|17.0||1|FM15-METAR|223|ICAO-KCPU|5.4||1|FM15-METAR|223|ICAO-KCPU|||||||||||||999|C-Calm|9|FM15-METAR|223|ICAO-KCPU|0.0|C-Calm|1|FM15-METAR|223|ICAO-KCPU|||||||||||||47|Derived||FM15-METAR|223|ICAO-KCPU|||||||||||||||||||||||||||||||||||||||||||||||||||||||||||||||||||||||||1014.6||1|FM15-METAR|223|ICAO-KCPU|||||||||||||||||||||||||||||||||||||||||||MET071METAR KCPU 171415Z AUTO 00000KT 10SM CLR 17/05 A2996 RMK AO2 T01700054=||F||223|ICAO-KCPU
USI0000KCPU|CALAVERAS CO MAURY RASMUSSEN F|2023|05|17|14|35|38.1461|-120.6482|403.9|17.3||1|FM15-METAR|223|ICAO-KCPU|6.2||1|FM15-METAR|223|ICAO-KCPU|||||||||||||999|C-Calm|9|FM15-METAR|223|ICAO-KCPU|0.0|C-Calm|1|FM15-METAR|223|ICAO-KCPU|||||||||||||48|Derived||FM15-METAR|223|ICAO-KCPU|||||||||||||||||||||||||||||||||||||||||||||||||||||||||||||||||||||||||1014.6||1|FM15-METAR|223|ICAO-KCPU|||||||||||||||||||||||||||||||||||||||||||MET071METAR KCPU 171435Z AUTO 00000KT 10SM CLR 17/06 A2996 RMK AO2 T01730062=||F||223|ICAO-KCPU
USI0000KCPU|CALAVERAS CO MAURY RASMUSSEN F|2023|05|17|14|55|38.1461|-120.6482|403.9|17.8||1|FM15-METAR|223|ICAO-KCPU|6.3||1|FM15-METAR|223|ICAO-KCPU|||||||||||||999|C-Calm|9|FM15-METAR|223|ICAO-KCPU|0.0|C-Calm|1|FM15-METAR|223|ICAO-KCPU|||||||||||||47|Derived||FM15-METAR|223|ICAO-KCPU|||||||||||||||||||||||||||||||||||||||||||||||||||||||||||||||||||||||||1014.9||1|FM15-METAR|223|ICAO-KCPU|||||||||||||||||||||||||||||||||||||||||||MET071METAR KCPU 171455Z AUTO 00000KT 10SM CLR 18/06 A2997 RMK AO2 T01780063=||F||223|ICAO-KCPU
USI0000KCPU|CALAVERAS CO MAURY RASMUSSEN F|2023|05|17|15|15|38.1461|-120.6482|403.9|19.0||1|FM15-METAR|223|ICAO-KCPU|7.8||1|FM15-METAR|223|ICAO-KCPU|||||||||||||999|C-Calm|9|FM15-METAR|223|ICAO-KCPU|0.0|C-Calm|1|FM15-METAR|223|ICAO-KCPU|||||||||||||48|Derived||FM15-METAR|223|ICAO-KCPU|||||||||||||||||||||||||||||||||||||||||||||||||||||||||||||||||||||||||1014.9||1|FM15-METAR|223|ICAO-KCPU|||||||||||||||||||||||||||||||||||||||||||MET071METAR KCPU 171515Z AUTO 00000KT 10SM CLR 19/08 A2997 RMK AO2 T01900078=||F||223|ICAO-KCPU
USI0000KCPU|CALAVERAS CO MAURY RASMUSSEN F|2023|05|17|15|35|38.1461|-120.6482|403.9|20.3||1|FM15-METAR|223|ICAO-KCPU|8.8||1|FM15-METAR|223|ICAO-KCPU|||||||||||||999|C-Calm|9|FM15-METAR|223|ICAO-KCPU|0.0|C-Calm|1|FM15-METAR|223|ICAO-KCPU|||||||||||||48|Derived||FM15-METAR|223|ICAO-KCPU|||||||||||||||||||||||||||||||||||||||||||||||||||||||||||||||||||||||||1014.9||1|FM15-METAR|223|ICAO-KCPU|||||||||||||||||||||||||||||||||||||||||||MET071METAR KCPU 171535Z AUTO 00000KT 10SM CLR 20/09 A2997 RMK AO2 T02030088=||F||223|ICAO-KCPU
USI0000KCPU|CALAVERAS CO MAURY RASMUSSEN F|2023|05|17|15|55|38.1461|-120.6482|403.9|21.6||1|FM15-METAR|223|ICAO-KCPU|9.5||1|FM15-METAR|223|ICAO-KCPU|||||||||||||999|C-Calm|9|FM15-METAR|223|ICAO-KCPU|0.0|C-Calm|1|FM15-METAR|223|ICAO-KCPU|||||||||||||46|Derived||FM15-METAR|223|ICAO-KCPU|||||||||||||||||||||||||||||||||||||||||||||||||||||||||||||||||||||||||1014.9||1|FM15-METAR|223|ICAO-KCPU|||||||||||||||||||||||||||||||||||||||||||MET071METAR KCPU 171555Z AUTO 00000KT 10SM CLR 22/10 A2997 RMK AO2 T02160095=||F||223|ICAO-KCPU
USI0000KCPU|CALAVERAS CO MAURY RASMUSSEN F|2023|05|17|16|15|38.1461|-120.6482|403.9|23.9||1|FM15-METAR|223|ICAO-KCPU|4.4||1|FM15-METAR|223|ICAO-KCPU|||||||||||||999|C-Calm|9|FM15-METAR|223|ICAO-KCPU|0.0|C-Calm|1|FM15-METAR|223|ICAO-KCPU|||||||||||||28|Derived||FM15-METAR|223|ICAO-KCPU|||||||||||||||||||||||||||||||||||||||||||||||||||||||||||||||||||||||||1014.9||1|FM15-METAR|223|ICAO-KCPU|||||||||||||||||||||||||||||||||||||||||||MET071METAR KCPU 171615Z AUTO 00000KT 10SM CLR 24/04 A2997 RMK AO2 T02390044=||F||223|ICAO-KCPU
USI0000KCPU|CALAVERAS CO MAURY RASMUSSEN F|2023|05|17|16|35|38.1461|-120.6482|403.9|24.0||1|FM15-METAR|223|ICAO-KCPU|5.9||1|FM15-METAR|223|ICAO-KCPU|||||||||||||999|C-Calm|9|FM15-METAR|223|ICAO-KCPU|0.0|C-Calm|1|FM15-METAR|223|ICAO-KCPU|||||||||||||31|Derived||FM15-METAR|223|ICAO-KCPU|||||||||||||||||||||||||||||||||||||||||||||||||||||||||||||||||||||||||1014.9||1|FM15-METAR|223|ICAO-KCPU|||||||||||||||||||||||||||||||||||||||||||MET071METAR KCPU 171635Z AUTO 00000KT 10SM CLR 24/06 A2997 RMK AO2 T02400059=||F||223|ICAO-KCPU
USI0000KCPU|CALAVERAS CO MAURY RASMUSSEN F|2023|05|17|16|55|38.1461|-120.6482|403.9|26.0||1|FM15-METAR|223|ICAO-KCPU|8.4||1|FM15-METAR|223|ICAO-KCPU|||||||||||||999|C-Calm|9|FM15-METAR|223|ICAO-KCPU|0.0|C-Calm|1|FM15-METAR|223|ICAO-KCPU|||||||||||||33|Derived||FM15-METAR|223|ICAO-KCPU|||||||||||||||||||||||||||||||||||||||||||||||||||||||||||||||||||||||||1014.6||1|FM15-METAR|223|ICAO-KCPU|||||||||||||||||||||||||||||||||||||||||||MET071METAR KCPU 171655Z AUTO 00000KT 10SM CLR 26/08 A2996 RMK AO2 T02600084=||F||223|ICAO-KCPU
USI0000KCPU|CALAVERAS CO MAURY RASMUSSEN F|2023|05|17|17|15|38.1461|-120.6482|403.9|27.0||1|FM15-METAR|223|ICAO-KCPU|8.0||1|FM15-METAR|223|ICAO-KCPU|||||||||||||999|C-Calm|9|FM15-METAR|223|ICAO-KCPU|0.0|C-Calm|1|FM15-METAR|223|ICAO-KCPU|||||||||||||30|Derived||FM15-METAR|223|ICAO-KCPU|||||||||||||||||||||||||||||||||||||||||||||||||||||||||||||||||||||||||1014.6||1|FM15-METAR|223|ICAO-KCPU|||||||||||||||||||||||||||||||||||||||||||MET071METAR KCPU 171715Z AUTO 00000KT 10SM CLR 27/08 A2996 RMK AO2 T02700080=||F||223|ICAO-KCPU
USI0000KCPU|CALAVERAS CO MAURY RASMUSSEN F|2023|05|17|17|35|38.1461|-120.6482|403.9|27.5||1|FM15-METAR|223|ICAO-KCPU|8.5||1|FM15-METAR|223|ICAO-KCPU|||||||||||||999|C-Calm|9|FM15-METAR|223|ICAO-KCPU|0.0|C-Calm|1|FM15-METAR|223|ICAO-KCPU|||||||||||||30|Derived||FM15-METAR|223|ICAO-KCPU|||||||||||||||||||||||||||||||||||||||||||||||||||||||||||||||||||||||||1014.6||1|FM15-METAR|223|ICAO-KCPU|||||||||||||||||||||||||||||||||||||||||||MET071METAR KCPU 171735Z AUTO 00000KT 10SM CLR 28/09 A2996 RMK AO2 T02750085=||F||223|ICAO-KCPU
USI0000KCPU|CALAVERAS CO MAURY RASMUSSEN F|2023|05|17|17|55|38.1461|-120.6482|403.9|28.6||1|FM15-METAR|223|ICAO-KCPU|8.3||1|FM15-METAR|223|ICAO-KCPU|||||||||||||999|C-Calm|9|FM15-METAR|223|ICAO-KCPU|0.0|C-Calm|1|FM15-METAR|223|ICAO-KCPU|||||||||||||28|Derived||FM15-METAR|223|ICAO-KCPU|||||||||||||||||||||||||||||||||||||||||||||||||||||||||||||||||||||||||1014.6||1|FM15-METAR|223|ICAO-KCPU|||||||||||||||||||||||||||||||||||||||||||MET083METAR KCPU 171755Z AUTO 00000KT 10SM CLR 29/08 A2996 RMK AO2 T02860083 10286 20134=||F||223|ICAO-KCPU
USI0000KCPU|CALAVERAS CO MAURY RASMUSSEN F|2023|05|17|18|15|38.1461|-120.6482|403.9|29.0||1|FM15-METAR|223|ICAO-KCPU|7.4||1|FM15-METAR|223|ICAO-KCPU|||||||||||||999|C-Calm|9|FM15-METAR|223|ICAO-KCPU|0.0|C-Calm|1|FM15-METAR|223|ICAO-KCPU|||||||||||||26|Derived||FM15-METAR|223|ICAO-KCPU|||||||||||||||||||||||||||||||||||||||||||||||||||||||||||||||||||||||||1014.6||1|FM15-METAR|223|ICAO-KCPU|||||||||||||||||||||||||||||||||||||||||||MET071METAR KCPU 171815Z AUTO 00000KT 10SM CLR 29/07 A2996 RMK AO2 T02900074=||F||223|ICAO-KCPU
USI0000KCPU|CALAVERAS CO MAURY RASMUSSEN F|2023|05|17|18|35|38.1461|-120.6482|403.9|29.4||1|FM15-METAR|223|ICAO-KCPU|6.4||1|FM15-METAR|223|ICAO-KCPU|||||||||||||999|C-Calm|9|FM15-METAR|223|ICAO-KCPU|0.0|C-Calm|1|FM15-METAR|223|ICAO-KCPU|||||||||||||23|Derived||FM15-METAR|223|ICAO-KCPU|||||||||||||||||||||||||||||||||||||||||||||||||||||||||||||||||||||||||1014.6||1|FM15-METAR|223|ICAO-KCPU|||||||||||||||||||||||||||||||||||||||||||MET071METAR KCPU 171835Z AUTO 00000KT 10SM CLR 29/06 A2996 RMK AO2 T02940064=||F||223|ICAO-KCPU
USI0000KCPU|CALAVERAS CO MAURY RASMUSSEN F|2023|05|17|18|55|38.1461|-120.6482|403.9|30.1||1|FM15-METAR|223|ICAO-KCPU|6.7||1|FM15-METAR|223|ICAO-KCPU|||||||||||||999|C-Calm|9|FM15-METAR|223|ICAO-KCPU|0.0|C-Calm|1|FM15-METAR|223|ICAO-KCPU|||||||||||||23|Derived||FM15-METAR|223|ICAO-KCPU|||||||||||||||||||||||||||||||||||||||||||||||||||||||||||||||||||||||||1014.2||1|FM15-METAR|223|ICAO-KCPU|||||||||||||||||||||||||||||||||||||||||||MET071METAR KCPU 171855Z AUTO 00000KT 10SM CLR 30/07 A2995 RMK AO2 T03010067=||F||223|ICAO-KCPU
USI0000KCPU|CALAVERAS CO MAURY RASMUSSEN F|2023|05|17|19|15|38.1461|-120.6482|403.9|30.9||1|FM15-METAR|223|ICAO-KCPU|6.4||1|FM15-METAR|223|ICAO-KCPU|||||||||||||999|C-Calm|9|FM15-METAR|223|ICAO-KCPU|0.0|C-Calm|1|FM15-METAR|223|ICAO-KCPU|||||||||||||21|Derived||FM15-METAR|223|ICAO-KCPU|||||||||||||||||||||||||||||||||||||||||||||||||||||||||||||||||||||||||1013.9||1|FM15-METAR|223|ICAO-KCPU|||||||||||||||||||||||||||||||||||||||||||MET071METAR KCPU 171915Z AUTO 00000KT 10SM CLR 31/06 A2994 RMK AO2 T03090064=||F||223|ICAO-KCPU
USI0000KCPU|CALAVERAS CO MAURY RASMUSSEN F|2023|05|17|19|35|38.1461|-120.6482|403.9|30.8||1|FM15-METAR|223|ICAO-KCPU|6.6||1|FM15-METAR|223|ICAO-KCPU|||||||||||||999|C-Calm|9|FM15-METAR|223|ICAO-KCPU|0.0|C-Calm|1|FM15-METAR|223|ICAO-KCPU|||||||||||||22|Derived||FM15-METAR|223|ICAO-KCPU|||||||||||||||||||||||||||||||||||||||||||||||||||||||||||||||||||||||||1013.9||1|FM15-METAR|223|ICAO-KCPU|||||||||||||||||||||||||||||||||||||||||||MET071METAR KCPU 171935Z AUTO 00000KT 10SM CLR 31/07 A2994 RMK AO2 T03080066=||F||223|ICAO-KCPU
USI0000KCPU|CALAVERAS CO MAURY RASMUSSEN F|2023|05|17|19|55|38.1461|-120.6482|403.9|30.6||1|FM15-METAR|223|ICAO-KCPU|7.5||1|FM15-METAR|223|ICAO-KCPU|||||||||||||350|N-Normal|1|FM15-METAR|223|ICAO-KCPU|1.5|N-Normal|1|FM15-METAR|223|ICAO-KCPU|||||||||||||24|Derived||FM15-METAR|223|ICAO-KCPU|||||||||||||||||||||||||||||||||||||||||||||||||||||||||||||||||||||||||1013.5||1|FM15-METAR|223|ICAO-KCPU|||||||||||||||||||||||||||||||||||||||||||MET071METAR KCPU 171955Z AUTO 35003KT 10SM CLR 31/08 A2993 RMK AO2 T03060075=||F||223|ICAO-KCPU
USI0000KCPU|CALAVERAS CO MAURY RASMUSSEN F|2023|05|17|20|15|38.1461|-120.6482|403.9|31.0||1|FM15-METAR|223|ICAO-KCPU|8.6||1|FM15-METAR|223|ICAO-KCPU|||||||||||||350|N-Normal|1|FM15-METAR|223|ICAO-KCPU|1.5|N-Normal|1|FM15-METAR|223|ICAO-KCPU|||||||||||||25|Derived||FM15-METAR|223|ICAO-KCPU|||||||||||||||||||||||||||||||||||||||||||||||||||||||||||||||||||||||||1013.5||1|FM15-METAR|223|ICAO-KCPU|||||||||||||||||||||||||||||||||||||||||||MET071METAR KCPU 172015Z AUTO 35003KT 10SM CLR 31/09 A2993 RMK AO2 T03100086=||F||223|ICAO-KCPU
USI0000KCPU|CALAVERAS CO MAURY RASMUSSEN F|2023|05|17|20|35|38.1461|-120.6482|403.9|30.9||1|FM15-METAR|223|ICAO-KCPU|10.0||1|FM15-METAR|223|ICAO-KCPU|||||||||||||340|N-Normal|1|FM15-METAR|223|ICAO-KCPU|2.6|N-Normal|1|FM15-METAR|223|ICAO-KCPU|||||||||||||27|Derived||FM15-METAR|223|ICAO-KCPU|||||||||||||||||||||||||||||||||||||||||||||||||||||||||||||||||||||||||1013.2||1|FM15-METAR|223|ICAO-KCPU|||||||||||||||||||||||||||||||||||||||||||MET071METAR KCPU 172035Z AUTO 34005KT 10SM CLR 31/10 A2992 RMK AO2 T03090100=||F||223|ICAO-KCPU
USI0000KCPU|CALAVERAS CO MAURY RASMUSSEN F|2023|05|17|20|55|38.1461|-120.6482|403.9|31.0||1|FM15-METAR|223|ICAO-KCPU|10.5||1|FM15-METAR|223|ICAO-KCPU|||||||||||||340|N-Normal|1|FM15-METAR|223|ICAO-KCPU|2.1|N-Normal|1|FM15-METAR|223|ICAO-KCPU|||||||||||||28|Derived||FM15-METAR|223|ICAO-KCPU|||||||||||||||||||||||||||||||||||||||||||||||||||||||||||||||||||||||||1013.2||1|FM15-METAR|223|ICAO-KCPU|||||||||||||||||||||||||||||||||||||||||||MET071METAR KCPU 172055Z AUTO 34004KT 10SM CLR 31/11 A2992 RMK AO2 T03100105=||F||223|ICAO-KCPU
USI0000KCPU|CALAVERAS CO MAURY RASMUSSEN F|2023|05|17|21|15|38.1461|-120.6482|403.9|31.1||1|FM15-METAR|223|ICAO-KCPU|10.2||1|FM15-METAR|223|ICAO-KCPU|||||||||||||350|N-Normal|1|FM15-METAR|223|ICAO-KCPU|1.5|N-Normal|1|FM15-METAR|223|ICAO-KCPU|||||||||||||27|Derived||FM15-METAR|223|ICAO-KCPU|||||||||||||||||||||||||||||||||||||||||||||||||||||||||||||||||||||||||1013.2||1|FM15-METAR|223|ICAO-KCPU|||||||||||||||||||||||||||||||||||||||||||MET071METAR KCPU 172115Z AUTO 35003KT 10SM CLR 31/10 A2992 RMK AO2 T03110102=||F||223|ICAO-KCPU
USI0000KCPU|CALAVERAS CO MAURY RASMUSSEN F|2023|05|17|21|35|38.1461|-120.6482|403.9|31.7||1|FM15-METAR|223|ICAO-KCPU|9.1||1|FM15-METAR|223|ICAO-KCPU|||||||||||||340|N-Normal|1|FM15-METAR|223|ICAO-KCPU|2.1|N-Normal|1|FM15-METAR|223|ICAO-KCPU|||||||||||||25|Derived||FM15-METAR|223|ICAO-KCPU|||||||||||||||||||||||||||||||||||||||||||||||||||||||||||||||||||||||||1012.9||1|FM15-METAR|223|ICAO-KCPU|||||||||||||||||||||||||||||||||||||||||||MET071METAR KCPU 172135Z AUTO 34004KT 10SM CLR 32/09 A2991 RMK AO2 T03170091=||F||223|ICAO-KCPU
USI0000KCPU|CALAVERAS CO MAURY RASMUSSEN F|2023|05|17|21|55|38.1461|-120.6482|403.9|31.9||1|FM15-METAR|223|ICAO-KCPU|8.0||1|FM15-METAR|223|ICAO-KCPU|||||||||||||999|C-Calm|9|FM15-METAR|223|ICAO-KCPU|0.0|C-Calm|1|FM15-METAR|223|ICAO-KCPU|||||||||||||23|Derived||FM15-METAR|223|ICAO-KCPU|||||||||||||||||||||||||||||||||||||||||||||||||||||||||||||||||||||||||1012.9||1|FM15-METAR|223|ICAO-KCPU|||||||||||||||||||||||||||||||||||||||||||MET071METAR KCPU 172155Z AUTO 00000KT 10SM CLR 32/08 A2991 RMK AO2 T03190080=||F||223|ICAO-KCPU
USI0000KCPU|CALAVERAS CO MAURY RASMUSSEN F|2023|05|17|22|15|38.1461|-120.6482|403.9|32.2||1|FM15-METAR|223|ICAO-KCPU|4.4||1|FM15-METAR|223|ICAO-KCPU|||||||||||||350|N-Normal|1|FM15-METAR|223|ICAO-KCPU|1.5|N-Normal|1|FM15-METAR|223|ICAO-KCPU|||||||||||||17|Derived||FM15-METAR|223|ICAO-KCPU|||||||||||||||||||||||||||||||||||||||||||||||||||||||||||||||||||||||||1012.5||1|FM15-METAR|223|ICAO-KCPU|||||||||||||||||||||||||||||||||||||||||||MET071METAR KCPU 172215Z AUTO 35003KT 10SM CLR 32/04 A2990 RMK AO2 T03220044=||F||223|ICAO-KCPU
USI0000KCPU|CALAVERAS CO MAURY RASMUSSEN F|2023|05|17|22|35|38.1461|-120.6482|403.9|32.1||1|FM15-METAR|223|ICAO-KCPU|3.9||1|FM15-METAR|223|ICAO-KCPU|||||||||||||350|N-Normal|1|FM15-METAR|223|ICAO-KCPU|2.1|N-Normal|1|FM15-METAR|223|ICAO-KCPU|||||||||||||17|Derived||FM15-METAR|223|ICAO-KCPU|||||||||||||||||||||||||||||||||||||||||||||||||||||||||||||||||||||||||1012.5||1|FM15-METAR|223|ICAO-KCPU|||||||||||||||||||||||||||||||||||||||||||MET071METAR KCPU 172235Z AUTO 35004KT 10SM CLR 32/04 A2990 RMK AO2 T03210039=||F||223|ICAO-KCPU
USI0000KCPU|CALAVERAS CO MAURY RASMUSSEN F|2023|05|17|22|55|38.1461|-120.6482|403.9|32.5||1|FM15-METAR|223|ICAO-KCPU|0.2||1|FM15-METAR|223|ICAO-KCPU|||||||||||||330|N-Normal|1|FM15-METAR|223|ICAO-KCPU|2.1|N-Normal|1|FM15-METAR|223|ICAO-KCPU|||||||||||||13|Derived||FM15-METAR|223|ICAO-KCPU|||||||||||||||||||||||||||||||||||||||||||||||||||||||||||||||||||||||||1012.5||1|FM15-METAR|223|ICAO-KCPU|||||||||||||||||||||||||||||||||||||||||||MET071METAR KCPU 172255Z AUTO 33004KT 10SM CLR 33/00 A2990 RMK AO2 T03250002=||F||223|ICAO-KCPU
USI0000KCPU|CALAVERAS CO MAURY RASMUSSEN F|2023|05|17|23|15|38.1461|-120.6482|403.9|32.0||1|FM15-METAR|223|ICAO-KCPU|2.4||1|FM15-METAR|223|ICAO-KCPU|||||||||||||999|C-Calm|9|FM15-METAR|223|ICAO-KCPU|0.0|C-Calm|1|FM15-METAR|223|ICAO-KCPU|||||||||||||15|Derived||FM15-METAR|223|ICAO-KCPU|||||||||||||||||||||||||||||||||||||||||||||||||||||||||||||||||||||||||1012.2||1|FM15-METAR|223|ICAO-KCPU|||||||||||||||||||||||||||||||||||||||||||MET071METAR KCPU 172315Z AUTO 00000KT 10SM CLR 32/02 A2989 RMK AO2 T03200024=||F||223|ICAO-KCPU
USI0000KCPU|CALAVERAS CO MAURY RASMUSSEN F|2023|05|17|23|35|38.1461|-120.6482|403.9|31.9||1|FM15-METAR|223|ICAO-KCPU|3.8||1|FM15-METAR|223|ICAO-KCPU|||||||||||||310|N-Normal|1|FM15-METAR|223|ICAO-KCPU|2.1|N-Normal|1|FM15-METAR|223|ICAO-KCPU|||||||||||||17|Derived||FM15-METAR|223|ICAO-KCPU|||||||||||||||||||||||||||||||||||||||||||||||||||||||||||||||||||||||||1012.2||1|FM15-METAR|223|ICAO-KCPU|||||||||||||||||||||||||||||||||||||||||||MET071METAR KCPU 172335Z AUTO 31004KT 10SM CLR 32/04 A2989 RMK AO2 T03190038=||F||223|ICAO-KCPU
USI0000KCPU|CALAVERAS CO MAURY RASMUSSEN F|2023|05|17|23|55|38.1461|-120.6482|403.9|31.4||1|FM15-METAR|223|ICAO-KCPU|3.0||1|FM15-METAR|223|ICAO-KCPU|||||||||||||999|C-Calm|9|FM15-METAR|223|ICAO-KCPU|0.0|C-Calm|1|FM15-METAR|223|ICAO-KCPU|||||||||||||16|Derived||FM15-METAR|223|ICAO-KCPU|||||||||||||||||||||||||||||||||||||||||||||||||||||||||||||||||||||||||1011.8||1|FM15-METAR|223|ICAO-KCPU|||||||||||||||||||||||||||||||||||||||||||MET083METAR KCPU 172355Z AUTO 00000KT 10SM CLR 31/03 A2988 RMK AO2 T03140030 10325 20287=||F||223|ICAO-KCPU
USI0000KCPU|CALAVERAS CO MAURY RASMUSSEN F|2023|05|18|00|15|38.1461|-120.6482|403.9|32.0||1|FM15-METAR|223|ICAO-KCPU|4.3||1|FM15-METAR|223|ICAO-KCPU|||||||||||||290|N-Normal|1|FM15-METAR|223|ICAO-KCPU|2.1|N-Normal|1|FM15-METAR|223|ICAO-KCPU|||||||||||||17|Derived||FM15-METAR|223|ICAO-KCPU|||||||||||||||||||||||||||||||||||||||||||||||||||||||||||||||||||||||||1011.8||1|FM15-METAR|223|ICAO-KCPU|||||||||||||||||||||||||||||||||||||||||||MET071METAR KCPU 180015Z AUTO 29004KT 10SM CLR 32/04 A2988 RMK AO2 T03200043=||F||223|ICAO-KCPU
USI0000KCPU|CALAVERAS CO MAURY RASMUSSEN F|2023|05|18|00|35|38.1461|-120.6482|403.9|31.5||1|FM15-METAR|223|ICAO-KCPU|3.6||1|FM15-METAR|223|ICAO-KCPU|||||||||||||280|N-Normal|1|FM15-METAR|223|ICAO-KCPU|1.5|N-Normal|1|FM15-METAR|223|ICAO-KCPU|||||||||||||17|Derived||FM15-METAR|223|ICAO-KCPU|||||||||||||||||||||||||||||||||||||||||||||||||||||||||||||||||||||||||1011.5||1|FM15-METAR|223|ICAO-KCPU|||||||||||||||||||||||||||||||||||||||||||MET071METAR KCPU 180035Z AUTO 28003KT 10SM CLR 32/04 A2987 RMK AO2 T03150036=||F||223|ICAO-KCPU
USI0000KCPU|CALAVERAS CO MAURY RASMUSSEN F|2023|05|18|00|55|38.1461|-120.6482|403.9|31.4||1|FM15-METAR|223|ICAO-KCPU|3.7||1|FM15-METAR|223|ICAO-KCPU|||||||||||||310|N-Normal|1|FM15-METAR|223|ICAO-KCPU|2.1|N-Normal|1|FM15-METAR|223|ICAO-KCPU|||||||||||||17|Derived||FM15-METAR|223|ICAO-KCPU|||||||||||||||||||||||||||||||||||||||||||||||||||||||||||||||||||||||||1011.5||1|FM15-METAR|223|ICAO-KCPU|||||||||||||||||||||||||||||||||||||||||||MET071METAR KCPU 180055Z AUTO 31004KT 10SM CLR 31/04 A2987 RMK AO2 T03140037=||F||223|ICAO-KCPU
USI0000KCPU|CALAVERAS CO MAURY RASMUSSEN F|2023|05|18|01|15|38.1461|-120.6482|403.9|30.8||1|FM15-METAR|223|ICAO-KCPU|3.7||1|FM15-METAR|223|ICAO-KCPU|||||||||||||999|C-Calm|9|FM15-METAR|223|ICAO-KCPU|0.0|C-Calm|1|FM15-METAR|223|ICAO-KCPU|||||||||||||18|Derived||FM15-METAR|223|ICAO-KCPU|||||||||||||||||||||||||||||||||||||||||||||||||||||||||||||||||||||||||1011.5||1|FM15-METAR|223|ICAO-KCPU|||||||||||||||||||||||||||||||||||||||||||MET071METAR KCPU 180115Z AUTO 00000KT 10SM CLR 31/04 A2987 RMK AO2 T03080037=||F||223|ICAO-KCPU
USI0000KCPU|CALAVERAS CO MAURY RASMUSSEN F|2023|05|18|01|35|38.1461|-120.6482|403.9|30.7||1|FM15-METAR|223|ICAO-KCPU|4.8||1|FM15-METAR|223|ICAO-KCPU|||||||||||||300|N-Normal|1|FM15-METAR|223|ICAO-KCPU|1.5|N-Normal|1|FM15-METAR|223|ICAO-KCPU|||||||||||||19|Derived||FM15-METAR|223|ICAO-KCPU|||||||||||||||||||||||||||||||||||||||||||||||||||||||||||||||||||||||||1011.5||1|FM15-METAR|223|ICAO-KCPU|||||||||||||||||||||||||||||||||||||||||||MET071METAR KCPU 180135Z AUTO 30003KT 10SM CLR 31/05 A2987 RMK AO2 T03070048=||F||223|ICAO-KCPU
USI0000KCPU|CALAVERAS CO MAURY RASMUSSEN F|2023|05|18|01|55|38.1461|-120.6482|403.9|30.1||1|FM15-METAR|223|ICAO-KCPU|5.2||1|FM15-METAR|223|ICAO-KCPU|||||||||||||300|N-Normal|1|FM15-METAR|223|ICAO-KCPU|2.1|N-Normal|1|FM15-METAR|223|ICAO-KCPU|||||||||||||21|Derived||FM15-METAR|223|ICAO-KCPU|||||||||||||||||||||||||||||||||||||||||||||||||||||||||||||||||||||||||1011.5||1|FM15-METAR|223|ICAO-KCPU|||||||||||||||||||||||||||||||||||||||||||MET071METAR KCPU 180155Z AUTO 30004KT 10SM CLR 30/05 A2987 RMK AO2 T03010052=||F||223|ICAO-KCPU
USI0000KCPU|CALAVERAS CO MAURY RASMUSSEN F|2023|05|18|02|15|38.1461|-120.6482|403.9|29.1||1|FM15-METAR|223|ICAO-KCPU|7.0||1|FM15-METAR|223|ICAO-KCPU|||||||||||||300|N-Normal|1|FM15-METAR|223|ICAO-KCPU|1.5|N-Normal|1|FM15-METAR|223|ICAO-KCPU|||||||||||||25|Derived||FM15-METAR|223|ICAO-KCPU|||||||||||||||||||||||||||||||||||||||||||||||||||||||||||||||||||||||||1011.5||1|FM15-METAR|223|ICAO-KCPU|||||||||||||||||||||||||||||||||||||||||||MET071METAR KCPU 180215Z AUTO 30003KT 10SM CLR 29/07 A2987 RMK AO2 T02910070=||F||223|ICAO-KCPU
USI0000KCPU|CALAVERAS CO MAURY RASMUSSEN F|2023|05|18|02|35|38.1461|-120.6482|403.9|28.3||1|FM15-METAR|223|ICAO-KCPU|8.2||1|FM15-METAR|223|ICAO-KCPU|||||||||||||310|N-Normal|1|FM15-METAR|223|ICAO-KCPU|2.1|N-Normal|1|FM15-METAR|223|ICAO-KCPU|||||||||||||28|Derived||FM15-METAR|223|ICAO-KCPU|||||||||||||||||||||||||||||||||||||||||||||||||||||||||||||||||||||||||1011.5||1|FM15-METAR|223|ICAO-KCPU|||||||||||||||||||||||||||||||||||||||||||MET071METAR KCPU 180235Z AUTO 31004KT 10SM CLR 28/08 A2987 RMK AO2 T02830082=||F||223|ICAO-KCPU
USI0000KCPU|CALAVERAS CO MAURY RASMUSSEN F|2023|05|18|02|55|38.1461|-120.6482|403.9|27.5||1|FM15-METAR|223|ICAO-KCPU|9.2||1|FM15-METAR|223|ICAO-KCPU|||||||||||||320|N-Normal|1|FM15-METAR|223|ICAO-KCPU|2.6|N-Normal|1|FM15-METAR|223|ICAO-KCPU|||||||||||||32|Derived||FM15-METAR|223|ICAO-KCPU|||||||||||||||||||||||||||||||||||||||||||||||||||||||||||||||||||||||||1011.5||1|FM15-METAR|223|ICAO-KCPU|||||||||||||||||||||||||||||||||||||||||||MET071METAR KCPU 180255Z AUTO 32005KT 10SM CLR 28/09 A2987 RMK AO2 T02750092=||F||223|ICAO-KCPU
USI0000KCPU|CALAVERAS CO MAURY RASMUSSEN F|2023|05|18|03|15|38.1461|-120.6482|403.9|26.6||1|FM15-METAR|223|ICAO-KCPU|9.5||1|FM15-METAR|223|ICAO-KCPU|||||||||||||320|N-Normal|1|FM15-METAR|223|ICAO-KCPU|1.5|N-Normal|1|FM15-METAR|223|ICAO-KCPU|||||||||||||34|Derived||FM15-METAR|223|ICAO-KCPU|||||||||||||||||||||||||||||||||||||||||||||||||||||||||||||||||||||||||1011.5||1|FM15-METAR|223|ICAO-KCPU|||||||||||||||||||||||||||||||||||||||||||MET071METAR KCPU 180315Z AUTO 32003KT 10SM CLR 27/10 A2987 RMK AO2 T02660095=||F||223|ICAO-KCPU
USI0000KCPU|CALAVERAS CO MAURY RASMUSSEN F|2023|05|18|03|35|38.1461|-120.6482|403.9|26.0||1|FM15-METAR|223|ICAO-KCPU|8.5||1|FM15-METAR|223|ICAO-KCPU|||||||||||||340|N-Normal|1|FM15-METAR|223|ICAO-KCPU|1.5|N-Normal|1|FM15-METAR|223|ICAO-KCPU|||||||||||||33|Derived||FM15-METAR|223|ICAO-KCPU|||||||||||||||||||||||||||||||||||||||||||||||||||||||||||||||||||||||||1011.8||1|FM15-METAR|223|ICAO-KCPU|||||||||||||||||||||||||||||||||||||||||||MET071METAR KCPU 180335Z AUTO 34003KT 10SM CLR 26/09 A2988 RMK AO2 T02600085=||F||223|ICAO-KCPU
USI0000KCPU|CALAVERAS CO MAURY RASMUSSEN F|2023|05|18|03|55|38.1461|-120.6482|403.9|24.1||1|FM15-METAR|223|ICAO-KCPU|9.1||1|FM15-METAR|223|ICAO-KCPU|||||||||||||350|N-Normal|1|FM15-METAR|223|ICAO-KCPU|2.1|N-Normal|1|FM15-METAR|223|ICAO-KCPU|||||||||||||39|Derived||FM15-METAR|223|ICAO-KCPU|||||||||||||||||||||||||||||||||||||||||||||||||||||||||||||||||||||||||1011.8||1|FM15-METAR|223|ICAO-KCPU|||||||||||||||||||||||||||||||||||||||||||MET071METAR KCPU 180355Z AUTO 35004KT 10SM CLR 24/09 A2988 RMK AO2 T02410091=||F||223|ICAO-KCPU
USI0000KCPU|CALAVERAS CO MAURY RASMUSSEN F|2023|05|18|04|15|38.1461|-120.6482|403.9|23.5||1|FM15-METAR|223|ICAO-KCPU|8.7||1|FM15-METAR|223|ICAO-KCPU|||||||||||||340|N-Normal|1|FM15-METAR|223|ICAO-KCPU|2.6|N-Normal|1|FM15-METAR|223|ICAO-KCPU|||||||||||||39|Derived||FM15-METAR|223|ICAO-KCPU|||||||||||||||||||||||||||||||||||||||||||||||||||||||||||||||||||||||||1012.2||1|FM15-METAR|223|ICAO-KCPU|||||||||||||||||||||||||||||||||||||||||||MET071METAR KCPU 180415Z AUTO 34005KT 10SM CLR 24/09 A2989 RMK AO2 T02350087=||F||223|ICAO-KCPU
USI0000KCPU|CALAVERAS CO MAURY RASMUSSEN F|2023|05|18|04|35|38.1461|-120.6482|403.9|22.5||1|FM15-METAR|223|ICAO-KCPU|8.6||1|FM15-METAR|223|ICAO-KCPU|||||||||||||999|C-Calm|9|FM15-METAR|223|ICAO-KCPU|0.0|C-Calm|1|FM15-METAR|223|ICAO-KCPU|||||||||||||41|Derived||FM15-METAR|223|ICAO-KCPU|||||||||||||||||||||||||||||||||||||||||||||||||||||||||||||||||||||||||1012.5||1|FM15-METAR|223|ICAO-KCPU|||||||||||||||||||||||||||||||||||||||||||MET071METAR KCPU 180435Z AUTO 00000KT 10SM CLR 23/09 A2990 RMK AO2 T02250086=||F||223|ICAO-KCPU
USI0000KCPU|CALAVERAS CO MAURY RASMUSSEN F|2023|05|18|04|55|38.1461|-120.6482|403.9|21.6||1|FM15-METAR|223|ICAO-KCPU|8.9||1|FM15-METAR|223|ICAO-KCPU|||||||||||||999|C-Calm|9|FM15-METAR|223|ICAO-KCPU|0.0|C-Calm|1|FM15-METAR|223|ICAO-KCPU|||||||||||||44|Derived||FM15-METAR|223|ICAO-KCPU|||||||||||||||||||||||||||||||||||||||||||||||||||||||||||||||||||||||||1012.5||1|FM15-METAR|223|ICAO-KCPU|||||||||||||||||||||||||||||||||||||||||||MET071METAR KCPU 180455Z AUTO 00000KT 10SM CLR 22/09 A2990 RMK AO2 T02160089=||F||223|ICAO-KCPU
USI0000KCPU|CALAVERAS CO MAURY RASMUSSEN F|2023|05|18|05|15|38.1461|-120.6482|403.9|21.5||1|FM15-METAR|223|ICAO-KCPU|8.2||1|FM15-METAR|223|ICAO-KCPU|||||||||||||999|C-Calm|9|FM15-METAR|223|ICAO-KCPU|0.0|C-Calm|1|FM15-METAR|223|ICAO-KCPU|||||||||||||43|Derived||FM15-METAR|223|ICAO-KCPU|||||||||||||||||||||||||||||||||||||||||||||||||||||||||||||||||||||||||1012.5||1|FM15-METAR|223|ICAO-KCPU|||||||||||||||||||||||||||||||||||||||||||MET071METAR KCPU 180515Z AUTO 00000KT 10SM CLR 22/08 A2990 RMK AO2 T02150082=||F||223|ICAO-KCPU
USI0000KCPU|CALAVERAS CO MAURY RASMUSSEN F|2023|05|18|05|35|38.1461|-120.6482|403.9|21.0||1|FM15-METAR|223|ICAO-KCPU|8.1||1|FM15-METAR|223|ICAO-KCPU|||||||||||||999|C-Calm|9|FM15-METAR|223|ICAO-KCPU|0.0|C-Calm|1|FM15-METAR|223|ICAO-KCPU|||||||||||||44|Derived||FM15-METAR|223|ICAO-KCPU|||||||||||||||||||||||||||||||||||||||||||||||||||||||||||||||||||||||||1012.5||1|FM15-METAR|223|ICAO-KCPU|||||||||||||||||||||||||||||||||||||||||||MET071METAR KCPU 180535Z AUTO 00000KT 10SM CLR 21/08 A2990 RMK AO2 T02100081=||F||223|ICAO-KCPU
USI0000KCPU|CALAVERAS CO MAURY RASMUSSEN F|2023|05|18|05|55|38.1461|-120.6482|403.9|20.6||1|FM15-METAR|223|ICAO-KCPU|8.6||1|FM15-METAR|223|ICAO-KCPU|||||||||||||999|C-Calm|9|FM15-METAR|223|ICAO-KCPU|0.0|C-Calm|1|FM15-METAR|223|ICAO-KCPU|||||||||||||46|Derived||FM15-METAR|223|ICAO-KCPU|||||||||||||||||||||||||||||||||||||||||||||||||||||||||||||||||||||||||1012.5||1|FM15-METAR|223|ICAO-KCPU|||||||||||||||||||||||||||||||||||||||||||MET083METAR KCPU 180555Z AUTO 00000KT 10SM CLR 21/09 A2990 RMK AO2 T02060086 10320 20206=||F||223|ICAO-KCPU
USI0000KCPU|CALAVERAS CO MAURY RASMUSSEN F|2023|05|18|06|15|38.1461|-120.6482|403.9|20.2||1|FM15-METAR|223|ICAO-KCPU|8.8||1|FM15-METAR|223|ICAO-KCPU|||||||||||||999|C-Calm|9|FM15-METAR|223|ICAO-KCPU|0.0|C-Calm|1|FM15-METAR|223|ICAO-KCPU|||||||||||||48|Derived||FM15-METAR|223|ICAO-KCPU|||||||||||||||||||||||||||||||||||||||||||||||||||||||||||||||||||||||||1012.5||1|FM15-METAR|223|ICAO-KCPU|||||||||||||||||||||||||||||||||||||||||||MET071METAR KCPU 180615Z AUTO 00000KT 10SM CLR 20/09 A2990 RMK AO2 T02020088=||F||223|ICAO-KCPU
USI0000KCPU|CALAVERAS CO MAURY RASMUSSEN F|2023|05|18|06|30|38.1461|-120.6482|403.9|19.7||1|FM15-METAR|223|ICAO-KCPU|8.9||1|FM15-METAR|223|ICAO-KCPU|||||||||||||999|C-Calm|9|FM15-METAR|223|ICAO-KCPU|0.0|C-Calm|1|FM15-METAR|223|ICAO-KCPU|||||||||||||50|Derived||FM15-METAR|223|ICAO-KCPU|||||||||||||||||||||||||||||||||||||||||||||||||||||||||||||||||||||||||1012.5||1|FM15-METAR|223|ICAO-KCPU|||||||||||||||||||||||||||||||||||||||||||MET071METAR KCPU 180630Z AUTO 00000KT 10SM CLR 20/09 A2990 RMK AO2 T01970089=||F||223|ICAO-KCPU
USI0000KCPU|CALAVERAS CO MAURY RASMUSSEN F|2023|05|18|06|55|38.1461|-120.6482|403.9|18.3||1|FM15-METAR|223|ICAO-KCPU|9.0||1|FM15-METAR|223|ICAO-KCPU|||||||||||||999|C-Calm|9|FM15-METAR|223|ICAO-KCPU|0.0|C-Calm|1|FM15-METAR|223|ICAO-KCPU|||||||||||||55|Derived||FM15-METAR|223|ICAO-KCPU|||||||||||||||||||||||||||||||||||||||||||||||||||||||||||||||||||||||||1012.5||1|FM15-METAR|223|ICAO-KCPU|||||||||||||||||||||||||||||||||||||||||||MET071METAR KCPU 180655Z AUTO 00000KT 10SM CLR 18/09 A2990 RMK AO2 T01830090=||F||223|ICAO-KCPU
USI0000KCPU|CALAVERAS CO MAURY RASMUSSEN F|2023|05|18|07|15|38.1461|-120.6482|403.9|17.0||1|FM15-METAR|223|ICAO-KCPU|9.0||1|FM15-METAR|223|ICAO-KCPU|||||||||||||999|C-Calm|9|FM15-METAR|223|ICAO-KCPU|0.0|C-Calm|1|FM15-METAR|223|ICAO-KCPU|||||||||||||59|Derived||FM15-METAR|223|ICAO-KCPU|||||||||||||||||||||||||||||||||||||||||||||||||||||||||||||||||||||||||1012.5||1|FM15-METAR|223|ICAO-KCPU|||||||||||||||||||||||||||||||||||||||||||MET071METAR KCPU 180715Z AUTO 00000KT 10SM CLR 17/09 A2990 RMK AO2 T01700090=||F||223|ICAO-KCPU
USI0000KCPU|CALAVERAS CO MAURY RASMUSSEN F|2023|05|18|07|35|38.1461|-120.6482|403.9|17.1||1|FM15-METAR|223|ICAO-KCPU|9.0||1|FM15-METAR|223|ICAO-KCPU|||||||||||||999|C-Calm|9|FM15-METAR|223|ICAO-KCPU|0.0|C-Calm|1|FM15-METAR|223|ICAO-KCPU|||||||||||||59|Derived||FM15-METAR|223|ICAO-KCPU|||||||||||||||||||||||||||||||||||||||||||||||||||||||||||||||||||||||||1012.5||1|FM15-METAR|223|ICAO-KCPU|||||||||||||||||||||||||||||||||||||||||||MET071METAR KCPU 180735Z AUTO 00000KT 10SM CLR 17/09 A2990 RMK AO2 T01710090=||F||223|ICAO-KCPU
USI0000KCPU|CALAVERAS CO MAURY RASMUSSEN F|2023|05|18|07|55|38.1461|-120.6482|403.9|16.1||1|FM15-METAR|223|ICAO-KCPU|8.7||1|FM15-METAR|223|ICAO-KCPU|||||||||||||999|C-Calm|9|FM15-METAR|223|ICAO-KCPU|0.0|C-Calm|1|FM15-METAR|223|ICAO-KCPU|||||||||||||62|Derived||FM15-METAR|223|ICAO-KCPU|||||||||||||||||||||||||||||||||||||||||||||||||||||||||||||||||||||||||1012.5||1|FM15-METAR|223|ICAO-KCPU|||||||||||||||||||||||||||||||||||||||||||MET081METAR KCPU 180755Z AUTO 00000KT 10SM CLR 16/09 A2990 RMK AO2 T01610087 403250134=||F||223|ICAO-KCPU
USI0000KCPU|CALAVERAS CO MAURY RASMUSSEN F|2023|05|18|08|15|38.1461|-120.6482|403.9|15.8||1|FM15-METAR|223|ICAO-KCPU|8.5||1|FM15-METAR|223|ICAO-KCPU|||||||||||||999|C-Calm|9|FM15-METAR|223|ICAO-KCPU|0.0|C-Calm|1|FM15-METAR|223|ICAO-KCPU|||||||||||||62|Derived||FM15-METAR|223|ICAO-KCPU|||||||||||||||||||||||||||||||||||||||||||||||||||||||||||||||||||||||||1012.5||1|FM15-METAR|223|ICAO-KCPU|||||||||||||||||||||||||||||||||||||||||||MET071METAR KCPU 180815Z AUTO 00000KT 10SM CLR 16/09 A2990 RMK AO2 T01580085=||F||223|ICAO-KCPU
USI0000KCPU|CALAVERAS CO MAURY RASMUSSEN F|2023|05|18|08|35|38.1461|-120.6482|403.9|15.4||1|FM15-METAR|223|ICAO-KCPU|8.2||1|FM15-METAR|223|ICAO-KCPU|||||||||||||999|C-Calm|9|FM15-METAR|223|ICAO-KCPU|0.0|C-Calm|1|FM15-METAR|223|ICAO-KCPU|||||||||||||62|Derived||FM15-METAR|223|ICAO-KCPU|||||||||||||||||||||||||||||||||||||||||||||||||||||||||||||||||||||||||1012.5||1|FM15-METAR|223|ICAO-KCPU|||||||||||||||||||||||||||||||||||||||||||MET071METAR KCPU 180835Z AUTO 00000KT 10SM CLR 15/08 A2990 RMK AO2 T01540082=||F||223|ICAO-KCPU
USI0000KCPU|CALAVERAS CO MAURY RASMUSSEN F|2023|05|18|08|55|38.1461|-120.6482|403.9|15.5||1|FM15-METAR|223|ICAO-KCPU|8.5||1|FM15-METAR|223|ICAO-KCPU|||||||||||||999|C-Calm|9|FM15-METAR|223|ICAO-KCPU|0.0|C-Calm|1|FM15-METAR|223|ICAO-KCPU|||||||||||||63|Derived||FM15-METAR|223|ICAO-KCPU|||||||||||||||||||||||||||||||||||||||||||||||||||||||||||||||||||||||||1012.2||1|FM15-METAR|223|ICAO-KCPU|||||||||||||||||||||||||||||||||||||||||||MET071METAR KCPU 180855Z AUTO 00000KT 10SM CLR 16/09 A2989 RMK AO2 T01550085=||F||223|ICAO-KCPU
USI0000KCPU|CALAVERAS CO MAURY RASMUSSEN F|2023|05|18|09|15|38.1461|-120.6482|403.9|15.4||1|FM15-METAR|223|ICAO-KCPU|8.2||1|FM15-METAR|223|ICAO-KCPU|||||||||||||999|C-Calm|9|FM15-METAR|223|ICAO-KCPU|0.0|C-Calm|1|FM15-METAR|223|ICAO-KCPU|||||||||||||62|Derived||FM15-METAR|223|ICAO-KCPU|||||||||||||||||||||||||||||||||||||||||||||||||||||||||||||||||||||||||1012.2||1|FM15-METAR|223|ICAO-KCPU|||||||||||||||||||||||||||||||||||||||||||MET071METAR KCPU 180915Z AUTO 00000KT 10SM CLR 15/08 A2989 RMK AO2 T01540082=||F||223|ICAO-KCPU
USI0000KCPU|CALAVERAS CO MAURY RASMUSSEN F|2023|05|18|09|35|38.1461|-120.6482|403.9|14.4||1|FM15-METAR|223|ICAO-KCPU|8.5||1|FM15-METAR|223|ICAO-KCPU|||||||||||||999|C-Calm|9|FM15-METAR|223|ICAO-KCPU|0.0|C-Calm|1|FM15-METAR|223|ICAO-KCPU|||||||||||||68|Derived||FM15-METAR|223|ICAO-KCPU|||||||||||||||||||||||||||||||||||||||||||||||||||||||||||||||||||||||||1011.8||1|FM15-METAR|223|ICAO-KCPU|||||||||||||||||||||||||||||||||||||||||||MET071METAR KCPU 180935Z AUTO 00000KT 10SM CLR 14/09 A2988 RMK AO2 T01440085=||F||223|ICAO-KCPU
USI0000KCPU|CALAVERAS CO MAURY RASMUSSEN F|2023|05|18|09|55|38.1461|-120.6482|403.9|13.9||1|FM15-METAR|223|ICAO-KCPU|7.8||1|FM15-METAR|223|ICAO-KCPU|||||||||||||999|C-Calm|9|FM15-METAR|223|ICAO-KCPU|0.0|C-Calm|1|FM15-METAR|223|ICAO-KCPU|||||||||||||67|Derived||FM15-METAR|223|ICAO-KCPU|||||||||||||||||||||||||||||||||||||||||||||||||||||||||||||||||||||||||1011.8||1|FM15-METAR|223|ICAO-KCPU|||||||||||||||||||||||||||||||||||||||||||MET071METAR KCPU 180955Z AUTO 00000KT 10SM CLR 14/08 A2988 RMK AO2 T01390078=||F||223|ICAO-KCPU
USI0000KCPU|CALAVERAS CO MAURY RASMUSSEN F|2023|05|18|10|15|38.1461|-120.6482|403.9|13.0||1|FM15-METAR|223|ICAO-KCPU|7.9||1|FM15-METAR|223|ICAO-KCPU|||||||||||||999|C-Calm|9|FM15-METAR|223|ICAO-KCPU|0.0|C-Calm|1|FM15-METAR|223|ICAO-KCPU|||||||||||||71|Derived||FM15-METAR|223|ICAO-KCPU|||||||||||||||||||||||||||||||||||||||||||||||||||||||||||||||||||||||||1011.8||1|FM15-METAR|223|ICAO-KCPU|||||||||||||||||||||||||||||||||||||||||||MET071METAR KCPU 181015Z AUTO 00000KT 10SM CLR 13/08 A2988 RMK AO2 T01300079=||F||223|ICAO-KCPU
USI0000KCPU|CALAVERAS CO MAURY RASMUSSEN F|2023|05|18|10|35|38.1461|-120.6482|403.9|13.5||1|FM15-METAR|223|ICAO-KCPU|6.6||1|FM15-METAR|223|ICAO-KCPU|||||||||||||120|N-Normal|1|FM15-METAR|223|ICAO-KCPU|1.5|N-Normal|1|FM15-METAR|223|ICAO-KCPU|||||||||||||63|Derived||FM15-METAR|223|ICAO-KCPU|||||||||||||||||||||||||||||||||||||||||||||||||||||||||||||||||||||||||1011.8||1|FM15-METAR|223|ICAO-KCPU|||||||||||||||||||||||||||||||||||||||||||MET071METAR KCPU 181035Z AUTO 12003KT 10SM CLR 14/07 A2988 RMK AO2 T01350066=||F||223|ICAO-KCPU
USI0000KCPU|CALAVERAS CO MAURY RASMUSSEN F|2023|05|18|10|55|38.1461|-120.6482|403.9|13.2||1|FM15-METAR|223|ICAO-KCPU|8.1||1|FM15-METAR|223|ICAO-KCPU|||||||||||||999|C-Calm|9|FM15-METAR|223|ICAO-KCPU|0.0|C-Calm|1|FM15-METAR|223|ICAO-KCPU|||||||||||||71|Derived||FM15-METAR|223|ICAO-KCPU|||||||||||||||||||||||||||||||||||||||||||||||||||||||||||||||||||||||||1011.5||1|FM15-METAR|223|ICAO-KCPU|||||||||||||||||||||||||||||||||||||||||||MET071METAR KCPU 181055Z AUTO 00000KT 10SM CLR 13/08 A2987 RMK AO2 T01320081=||F||223|ICAO-KCPU
USI0000KCPU|CALAVERAS CO MAURY RASMUSSEN F|2023|05|18|11|15|38.1461|-120.6482|403.9|12.9||1|FM15-METAR|223|ICAO-KCPU|6.6||1|FM15-METAR|223|ICAO-KCPU|||||||||||||999|C-Calm|9|FM15-METAR|223|ICAO-KCPU|0.0|C-Calm|1|FM15-METAR|223|ICAO-KCPU|||||||||||||66|Derived||FM15-METAR|223|ICAO-KCPU|||||||||||||||||||||||||||||||||||||||||||||||||||||||||||||||||||||||||1011.5||1|FM15-METAR|223|ICAO-KCPU|||||||||||||||||||||||||||||||||||||||||||MET071METAR KCPU 181115Z AUTO 00000KT 10SM CLR 13/07 A2987 RMK AO2 T01290066=||F||223|ICAO-KCPU
USI0000KCPU|CALAVERAS CO MAURY RASMUSSEN F|2023|05|18|11|35|38.1461|-120.6482|403.9|12.0||1|FM15-METAR|223|ICAO-KCPU|7.1||1|FM15-METAR|223|ICAO-KCPU|||||||||||||999|C-Calm|9|FM15-METAR|223|ICAO-KCPU|0.0|C-Calm|1|FM15-METAR|223|ICAO-KCPU|||||||||||||72|Derived||FM15-METAR|223|ICAO-KCPU|||||||||||||||||||||||||||||||||||||||||||||||||||||||||||||||||||||||||1011.5||1|FM15-METAR|223|ICAO-KCPU|||||||||||||||||||||||||||||||||||||||||||MET071METAR KCPU 181135Z AUTO 00000KT 10SM CLR 12/07 A2987 RMK AO2 T01200071=||F||223|ICAO-KCPU
USI0000KCPU|CALAVERAS CO MAURY RASMUSSEN F|2023|05|18|11|55|38.1461|-120.6482|403.9|12.5||1|FM15-METAR|223|ICAO-KCPU|6.8||1|FM15-METAR|223|ICAO-KCPU|||||||||||||999|C-Calm|9|FM15-METAR|223|ICAO-KCPU|0.0|C-Calm|1|FM15-METAR|223|ICAO-KCPU|||||||||||||68|Derived||FM15-METAR|223|ICAO-KCPU|||||||||||||||||||||||||||||||||||||||||||||||||||||||||||||||||||||||||1011.5||1|FM15-METAR|223|ICAO-KCPU|||||||||||||||||||||||||||||||||||||||||||MET083METAR KCPU 181155Z AUTO 00000KT 10SM CLR 13/07 A2987 RMK AO2 T01250068 10206 20120=||F||223|ICAO-KCPU
USI0000KCPU|CALAVERAS CO MAURY RASMUSSEN F|2023|05|18|12|15|38.1461|-120.6482|403.9|12.7||1|FM15-METAR|223|ICAO-KCPU|5.5||1|FM15-METAR|223|ICAO-KCPU|||||||||||||999|C-Calm|9|FM15-METAR|223|ICAO-KCPU|0.0|C-Calm|1|FM15-METAR|223|ICAO-KCPU|||||||||||||62|Derived||FM15-METAR|223|ICAO-KCPU|||||||||||||||||||||||||||||||||||||||||||||||||||||||||||||||||||||||||1011.8||1|FM15-METAR|223|ICAO-KCPU|||||||||||||||||||||||||||||||||||||||||||MET071METAR KCPU 181215Z AUTO 00000KT 10SM CLR 13/06 A2988 RMK AO2 T01270055=||F||223|ICAO-KCPU
USI0000KCPU|CALAVERAS CO MAURY RASMUSSEN F|2023|05|18|12|35|38.1461|-120.6482|403.9|13.0||1|FM15-METAR|223|ICAO-KCPU|5.1||1|FM15-METAR|223|ICAO-KCPU|||||||||||||999|C-Calm|9|FM15-METAR|223|ICAO-KCPU|0.0|C-Calm|1|FM15-METAR|223|ICAO-KCPU|||||||||||||59|Derived||FM15-METAR|223|ICAO-KCPU|||||||||||||||||||||||||||||||||||||||||||||||||||||||||||||||||||||||||1011.8||1|FM15-METAR|223|ICAO-KCPU|||||||||||||||||||||||||||||||||||||||||||MET071METAR KCPU 181235Z AUTO 00000KT 10SM CLR 13/05 A2988 RMK AO2 T01300051=||F||223|ICAO-KCPU
USI0000KCPU|CALAVERAS CO MAURY RASMUSSEN F|2023|05|18|12|55|38.1461|-120.6482|403.9|12.3||1|FM15-METAR|223|ICAO-KCPU|5.2||1|FM15-METAR|223|ICAO-KCPU|||||||||||||999|C-Calm|9|FM15-METAR|223|ICAO-KCPU|0.0|C-Calm|1|FM15-METAR|223|ICAO-KCPU|||||||||||||62|Derived||FM15-METAR|223|ICAO-KCPU|||||||||||||||||||||||||||||||||||||||||||||||||||||||||||||||||||||||||1011.8||1|FM15-METAR|223|ICAO-KCPU|||||||||||||||||||||||||||||||||||||||||||MET071METAR KCPU 181255Z AUTO 00000KT 10SM CLR 12/05 A2988 RMK AO2 T01230052=||F||223|ICAO-KCPU
USI0000KCPU|CALAVERAS CO MAURY RASMUSSEN F|2023|05|18|13|15|38.1461|-120.6482|403.9|11.6||1|FM15-METAR|223|ICAO-KCPU|6.1||1|FM15-METAR|223|ICAO-KCPU|||||||||||||999|C-Calm|9|FM15-METAR|223|ICAO-KCPU|0.0|C-Calm|1|FM15-METAR|223|ICAO-KCPU|||||||||||||69|Derived||FM15-METAR|223|ICAO-KCPU|||||||||||||||||||||||||||||||||||||||||||||||||||||||||||||||||||||||||1011.8||1|FM15-METAR|223|ICAO-KCPU|||||||||||||||||||||||||||||||||||||||||||MET071METAR KCPU 181315Z AUTO 00000KT 10SM CLR 12/06 A2988 RMK AO2 T01160061=||F||223|ICAO-KCPU
USI0000KCPU|CALAVERAS CO MAURY RASMUSSEN F|2023|05|18|13|35|38.1461|-120.6482|403.9|12.5||1|FM15-METAR|223|ICAO-KCPU|6.8||1|FM15-METAR|223|ICAO-KCPU|||||||||||||999|C-Calm|9|FM15-METAR|223|ICAO-KCPU|0.0|C-Calm|1|FM15-METAR|223|ICAO-KCPU|||||||||||||68|Derived||FM15-METAR|223|ICAO-KCPU|||||||||||||||||||||||||||||||||||||||||||||||||||||||||||||||||||||||||1012.2||1|FM15-METAR|223|ICAO-KCPU|||||||||||||||||||||||||||||||||||||||||||MET071METAR KCPU 181335Z AUTO 00000KT 10SM CLR 13/07 A2989 RMK AO2 T01250068=||F||223|ICAO-KCPU
USI0000KCPU|CALAVERAS CO MAURY RASMUSSEN F|2023|05|18|13|55|38.1461|-120.6482|403.9|12.9||1|FM15-METAR|223|ICAO-KCPU|7.0||1|FM15-METAR|223|ICAO-KCPU|||||||||||||999|C-Calm|9|FM15-METAR|223|ICAO-KCPU|0.0|C-Calm|1|FM15-METAR|223|ICAO-KCPU|||||||||||||68|Derived||FM15-METAR|223|ICAO-KCPU|||||||||||||||||||||||||||||||||||||||||||||||||||||||||||||||||||||||||1012.2||1|FM15-METAR|223|ICAO-KCPU|||||||||||||||||||||||||||||||||||||||||||MET071METAR KCPU 181355Z AUTO 00000KT 10SM CLR 13/07 A2989 RMK AO2 T01290070=||F||223|ICAO-KCPU
USI0000KCPU|CALAVERAS CO MAURY RASMUSSEN F|2023|05|18|14|15|38.1461|-120.6482|403.9|15.9||1|FM15-METAR|223|ICAO-KCPU|6.0||1|FM15-METAR|223|ICAO-KCPU|||||||||||||999|C-Calm|9|FM15-METAR|223|ICAO-KCPU|0.0|C-Calm|1|FM15-METAR|223|ICAO-KCPU|||||||||||||52|Derived||FM15-METAR|223|ICAO-KCPU|||||||||||||||||||||||||||||||||||||||||||||||||||||||||||||||||||||||||1012.2||1|FM15-METAR|223|ICAO-KCPU|||||||||||||||||||||||||||||||||||||||||||MET071METAR KCPU 181415Z AUTO 00000KT 10SM CLR 16/06 A2989 RMK AO2 T01590060=||F||223|ICAO-KCPU
USI0000KCPU|CALAVERAS CO MAURY RASMUSSEN F|2023|05|18|14|35|38.1461|-120.6482|403.9|16.6||1|FM15-METAR|223|ICAO-KCPU|6.3||1|FM15-METAR|223|ICAO-KCPU|||||||||||||999|C-Calm|9|FM15-METAR|223|ICAO-KCPU|0.0|C-Calm|1|FM15-METAR|223|ICAO-KCPU|||||||||||||51|Derived||FM15-METAR|223|ICAO-KCPU|||||||||||||||||||||||||||||||||||||||||||||||||||||||||||||||||||||||||1012.5||1|FM15-METAR|223|ICAO-KCPU|||||||||||||||||||||||||||||||||||||||||||MET071METAR KCPU 181435Z AUTO 00000KT 10SM CLR 17/06 A2990 RMK AO2 T01660063=||F||223|ICAO-KCPU
USI0000KCPU|CALAVERAS CO MAURY RASMUSSEN F|2023|05|18|14|55|38.1461|-120.6482|403.9|17.6||1|FM15-METAR|223|ICAO-KCPU|6.2||1|FM15-METAR|223|ICAO-KCPU|||||||||||||999|C-Calm|9|FM15-METAR|223|ICAO-KCPU|0.0|C-Calm|1|FM15-METAR|223|ICAO-KCPU|||||||||||||47|Derived||FM15-METAR|223|ICAO-KCPU|||||||||||||||||||||||||||||||||||||||||||||||||||||||||||||||||||||||||1012.5||1|FM15-METAR|223|ICAO-KCPU|||||||||||||||||||||||||||||||||||||||||||MET071METAR KCPU 181455Z AUTO 00000KT 10SM CLR 18/06 A2990 RMK AO2 T01760062=||F||223|ICAO-KCPU
USI0000KCPU|CALAVERAS CO MAURY RASMUSSEN F|2023|05|18|15|15|38.1461|-120.6482|403.9|18.5||1|FM15-METAR|223|ICAO-KCPU|8.1||1|FM15-METAR|223|ICAO-KCPU|||||||||||||999|C-Calm|9|FM15-METAR|223|ICAO-KCPU|0.0|C-Calm|1|FM15-METAR|223|ICAO-KCPU|||||||||||||51|Derived||FM15-METAR|223|ICAO-KCPU|||||||||||||||||||||||||||||||||||||||||||||||||||||||||||||||||||||||||1012.9||1|FM15-METAR|223|ICAO-KCPU|||||||||||||||||||||||||||||||||||||||||||MET071METAR KCPU 181515Z AUTO 00000KT 10SM CLR 19/08 A2991 RMK AO2 T01850081=||F||223|ICAO-KCPU
USI0000KCPU|CALAVERAS CO MAURY RASMUSSEN F|2023|05|18|18|15|38.1461|-120.6482|403.9|27.1||1|FM15-METAR|223|ICAO-KCPU|7.4||1|FM15-METAR|223|ICAO-KCPU|||||||||||||999|C-Calm|9|FM15-METAR|223|ICAO-KCPU|0.0|C-Calm|1|FM15-METAR|223|ICAO-KCPU|||||||||||||29|Derived||FM15-METAR|223|ICAO-KCPU|||||||||||||||||||||||||||||||||||||||||||||||||||||||||||||||||||||||||1013.2||1|FM15-METAR|223|ICAO-KCPU|||||||||||||||||||||||||||||||||||||||||||MET071METAR KCPU 181815Z AUTO 00000KT 10SM CLR 27/07 A2992 RMK AO2 T02710074=||F||223|ICAO-KCPU
USI0000KCPU|CALAVERAS CO MAURY RASMUSSEN F|2023|05|18|18|35|38.1461|-120.6482|403.9|27.4||1|FM15-METAR|223|ICAO-KCPU|7.7||1|FM15-METAR|223|ICAO-KCPU|||||||||||||350|N-Normal|1|FM15-METAR|223|ICAO-KCPU|1.5|N-Normal|1|FM15-METAR|223|ICAO-KCPU|||||||||||||29|Derived||FM15-METAR|223|ICAO-KCPU|||||||||||||||||||||||||||||||||||||||||||||||||||||||||||||||||||||||||1013.2||1|FM15-METAR|223|ICAO-KCPU|||||||||||||||||||||||||||||||||||||||||||MET071METAR KCPU 181835Z AUTO 35003KT 10SM CLR 27/08 A2992 RMK AO2 T02740077=||F||223|ICAO-KCPU
USI0000KCPU|CALAVERAS CO MAURY RASMUSSEN F|2023|05|18|18|55|38.1461|-120.6482|403.9|27.9||1|FM15-METAR|223|ICAO-KCPU|8.5||1|FM15-METAR|223|ICAO-KCPU|||||||||||||330|N-Normal|1|FM15-METAR|223|ICAO-KCPU|2.6|N-Normal|1|FM15-METAR|223|ICAO-KCPU|||||||||||||30|Derived||FM15-METAR|223|ICAO-KCPU|||||||||||||||||||||||||||||||||||||||||||||||||||||||||||||||||||||||||1013.2||1|FM15-METAR|223|ICAO-KCPU|||||||||||||||||||||||||||||||||||||||||||MET071METAR KCPU 181855Z AUTO 33005KT 10SM CLR 28/09 A2992 RMK AO2 T02790085=||F||223|ICAO-KCPU
USI0000KCPU|CALAVERAS CO MAURY RASMUSSEN F|2023|05|18|19|15|38.1461|-120.6482|403.9|27.7||1|FM15-METAR|223|ICAO-KCPU|8.7||1|FM15-METAR|223|ICAO-KCPU|||||||||||||330|N-Normal|1|FM15-METAR|223|ICAO-KCPU|3.1|N-Normal|1|FM15-METAR|223|ICAO-KCPU|||||||||||||30|Derived||FM15-METAR|223|ICAO-KCPU|||||||||||||||||||||||||||||||||||||||||||||||||||||||||||||||||||||||||1013.2||1|FM15-METAR|223|ICAO-KCPU|||||||||||||||||||||||||||||||||||||||||||MET071METAR KCPU 181915Z AUTO 33006KT 10SM CLR 28/09 A2992 RMK AO2 T02770087=||F||223|ICAO-KCPU
USI0000KCPU|CALAVERAS CO MAURY RASMUSSEN F|2023|05|18|19|35|38.1461|-120.6482|403.9|28.1||1|FM15-METAR|223|ICAO-KCPU|9.9||1|FM15-METAR|223|ICAO-KCPU|||||||||||||360|N-Normal|1|FM15-METAR|223|ICAO-KCPU|2.1|N-Normal|1|FM15-METAR|223|ICAO-KCPU|||||||||||||32|Derived||FM15-METAR|223|ICAO-KCPU|||||||||||||||||||||||||||||||||||||||||||||||||||||||||||||||||||||||||1013.2||1|FM15-METAR|223|ICAO-KCPU|||||||||||||||||||||||||||||||||||||||||||MET071METAR KCPU 181935Z AUTO 36004KT 10SM CLR 28/10 A2992 RMK AO2 T02810099=||F||223|ICAO-KCPU
USI0000KCPU|CALAVERAS CO MAURY RASMUSSEN F|2023|05|18|19|55|38.1461|-120.6482|403.9|28.1||1|FM15-METAR|223|ICAO-KCPU|9.8||1|FM15-METAR|223|ICAO-KCPU|||||||||||||010|N-Normal|1|FM15-METAR|223|ICAO-KCPU|2.6|N-Normal|1|FM15-METAR|223|ICAO-KCPU|||||||||||||32|Derived||FM15-METAR|223|ICAO-KCPU|||||||||||||||||||||||||||||||||||||||||||||||||||||||||||||||||||||||||1013.5||1|FM15-METAR|223|ICAO-KCPU|||||||||||||||||||||||||||||||||||||||||||MET071METAR KCPU 181955Z AUTO 01005KT 10SM CLR 28/10 A2993 RMK AO2 T02810098=||F||223|ICAO-KCPU
USI0000KCPU|CALAVERAS CO MAURY RASMUSSEN F|2023|05|18|20|15|38.1461|-120.6482|403.9|28.5||1|FM15-METAR|223|ICAO-KCPU|9.3||1|FM15-METAR|223|ICAO-KCPU|||||||||||||350|N-Normal|1|FM15-METAR|223|ICAO-KCPU|2.1|N-Normal|1|FM15-METAR|223|ICAO-KCPU|||||||||||||30|Derived||FM15-METAR|223|ICAO-KCPU|||||||||||||||||||||||||||||||||||||||||||||||||||||||||||||||||||||||||1013.5||1|FM15-METAR|223|ICAO-KCPU|||||||||||||||||||||||||||||||||||||||||||MET071METAR KCPU 182015Z AUTO 35004KT 10SM CLR 29/09 A2993 RMK AO2 T02850093=||F||223|ICAO-KCPU
USI0000KCPU|CALAVERAS CO MAURY RASMUSSEN F|2023|05|18|20|35|38.1461|-120.6482|403.9|29.4||1|FM15-METAR|223|ICAO-KCPU|9.2||1|FM15-METAR|223|ICAO-KCPU|||||||||||||010|N-Normal|1|FM15-METAR|223|ICAO-KCPU|1.5|N-Normal|1|FM15-METAR|223|ICAO-KCPU|||||||||||||28|Derived||FM15-METAR|223|ICAO-KCPU|||||||||||||||||||||||||||||||||||||||||||||||||||||||||||||||||||||||||1013.2||1|FM15-METAR|223|ICAO-KCPU|||||||||||||||||||||||||||||||||||||||||||MET071METAR KCPU 182035Z AUTO 01003KT 10SM CLR 29/09 A2992 RMK AO2 T02940092=||F||223|ICAO-KCPU
USI0000KCPU|CALAVERAS CO MAURY RASMUSSEN F|2023|05|18|20|55|38.1461|-120.6482|403.9|29.5||1|FM15-METAR|223|ICAO-KCPU|9.3||1|FM15-METAR|223|ICAO-KCPU|||||||||||||020|N-Normal|1|FM15-METAR|223|ICAO-KCPU|1.5|N-Normal|1|FM15-METAR|223|ICAO-KCPU|||||||||||||28|Derived||FM15-METAR|223|ICAO-KCPU|||||||||||||||||||||||||||||||||||||||||||||||||||||||||||||||||||||||||1013.2||1|FM15-METAR|223|ICAO-KCPU|||||||||||||||||||||||||||||||||||||||||||MET071METAR KCPU 182055Z AUTO 02003KT 10SM CLR 30/09 A2992 RMK AO2 T02950093=||F||223|ICAO-KCPU
USI0000KCPU|CALAVERAS CO MAURY RASMUSSEN F|2023|05|18|21|15|38.1461|-120.6482|403.9|29.9||1|FM15-METAR|223|ICAO-KCPU|9.4||1|FM15-METAR|223|ICAO-KCPU|||||||||||||360|N-Normal|1|FM15-METAR|223|ICAO-KCPU|2.1|N-Normal|1|FM15-METAR|223|ICAO-KCPU|||||||||||||28|Derived||FM15-METAR|223|ICAO-KCPU|||||||||||||||||||||||||||||||||||||||||||||||||||||||||||||||||||||||||1013.2||1|FM15-METAR|223|ICAO-KCPU|||||||||||||||||||||||||||||||||||||||||||MET071METAR KCPU 182115Z AUTO 36004KT 10SM CLR 30/09 A2992 RMK AO2 T02990094=||F||223|ICAO-KCPU
USI0000KCPU|CALAVERAS CO MAURY RASMUSSEN F|2023|05|18|21|35|38.1461|-120.6482|403.9|30.4||1|FM15-METAR|223|ICAO-KCPU|10.0||1|FM15-METAR|223|ICAO-KCPU|||||||||||||020|N-Normal|1|FM15-METAR|223|ICAO-KCPU|2.6|N-Normal|1|FM15-METAR|223|ICAO-KCPU|||||||||||||28|Derived||FM15-METAR|223|ICAO-KCPU|||||||||||||||||||||||||||||||||||||||||||||||||||||||||||||||||||||||||1012.9||1|FM15-METAR|223|ICAO-KCPU|||||||||||||||||||||||||||||||||||||||||||MET071METAR KCPU 182135Z AUTO 02005KT 10SM CLR 30/10 A2991 RMK AO2 T03040100=||F||223|ICAO-KCPU
USI0000KCPU|CALAVERAS CO MAURY RASMUSSEN F|2023|05|18|21|55|38.1461|-120.6482|403.9|30.5||1|FM15-METAR|223|ICAO-KCPU|9.5||1|FM15-METAR|223|ICAO-KCPU|||||||||||||020|N-Normal|1|FM15-METAR|223|ICAO-KCPU|3.1|N-Normal|1|FM15-METAR|223|ICAO-KCPU|||||||||||||27|Derived||FM15-METAR|223|ICAO-KCPU|||||||||||||||||||||||||||||||||||||||||||||||||||||||||||||||||||||||||1012.9||1|FM15-METAR|223|ICAO-KCPU|||||||||||||||||||||||||||||||||||||||||||MET071METAR KCPU 182155Z AUTO 02006KT 10SM CLR 31/10 A2991 RMK AO2 T03050095=||F||223|ICAO-KCPU
USI0000KCPU|CALAVERAS CO MAURY RASMUSSEN F|2023|05|18|22|15|38.1461|-120.6482|403.9|30.8||1|FM15-METAR|223|ICAO-KCPU|9.5||1|FM15-METAR|223|ICAO-KCPU|||||||||||||320|N-Normal|1|FM15-METAR|223|ICAO-KCPU|2.1|N-Normal|1|FM15-METAR|223|ICAO-KCPU|||||||||||||27|Derived||FM15-METAR|223|ICAO-KCPU|||||||||||||||||||||||||||||||||||||||||||||||||||||||||||||||||||||||||1012.9||1|FM15-METAR|223|ICAO-KCPU|||||||||||||||||||||||||||||||||||||||||||MET071METAR KCPU 182215Z AUTO 32004KT 10SM CLR 31/10 A2991 RMK AO2 T03080095=||F||223|ICAO-KCPU
USI0000KCPU|CALAVERAS CO MAURY RASMUSSEN F|2023|05|18|22|35|38.1461|-120.6482|403.9|30.5||1|FM15-METAR|223|ICAO-KCPU|8.7||1|FM15-METAR|223|ICAO-KCPU|||||||||||||300|N-Normal|1|FM15-METAR|223|ICAO-KCPU|2.6|N-Normal|1|FM15-METAR|223|ICAO-KCPU|||||||||||||26|Derived||FM15-METAR|223|ICAO-KCPU|||||||||||||||||||||||||||||||||||||||||||||||||||||||||||||||||||||||||1012.5||1|FM15-METAR|223|ICAO-KCPU|||||||||||||||||||||||||||||||||||||||||||MET071METAR KCPU 182235Z AUTO 30005KT 10SM CLR 31/09 A2990 RMK AO2 T03050087=||F||223|ICAO-KCPU
USI0000KCPU|CALAVERAS CO MAURY RASMUSSEN F|2023|05|18|22|55|38.1461|-120.6482|403.9|30.2||1|FM15-METAR|223|ICAO-KCPU|9.0||1|FM15-METAR|223|ICAO-KCPU|||||||||||||310|N-Normal|1|FM15-METAR|223|ICAO-KCPU|2.1|N-Normal|1|FM15-METAR|223|ICAO-KCPU|||||||||||||27|Derived||FM15-METAR|223|ICAO-KCPU|||||||||||||||||||||||||||||||||||||||||||||||||||||||||||||||||||||||||1012.5||1|FM15-METAR|223|ICAO-KCPU|||||||||||||||||||||||||||||||||||||||||||MET071METAR KCPU 182255Z AUTO 31004KT 10SM CLR 30/09 A2990 RMK AO2 T03020090=||F||223|ICAO-KCPU
USI0000KCPU|CALAVERAS CO MAURY RASMUSSEN F|2023|05|18|23|15|38.1461|-120.6482|403.9|30.0||1|FM15-METAR|223|ICAO-KCPU|9.2||1|FM15-METAR|223|ICAO-KCPU|||||||||||||330|N-Normal|1|FM15-METAR|223|ICAO-KCPU|2.6|N-Normal|1|FM15-METAR|223|ICAO-KCPU|||||||||||||27|Derived||FM15-METAR|223|ICAO-KCPU|||||||||||||||||||||||||||||||||||||||||||||||||||||||||||||||||||||||||1012.5||1|FM15-METAR|223|ICAO-KCPU|||||||||||||||||||||||||||||||||||||||||||MET071METAR KCPU 182315Z AUTO 33005KT 10SM CLR 30/09 A2990 RMK AO2 T03000092=||F||223|ICAO-KCPU
USI0000KCPU|CALAVERAS CO MAURY RASMUSSEN F|2023|05|18|23|35|38.1461|-120.6482|403.9|29.9||1|FM15-METAR|223|ICAO-KCPU|9.4||1|FM15-METAR|223|ICAO-KCPU|||||||||||||310|N-Normal|1|FM15-METAR|223|ICAO-KCPU|3.1|N-Normal|1|FM15-METAR|223|ICAO-KCPU|||||||||||||28|Derived||FM15-METAR|223|ICAO-KCPU|||||||||||||||||||||||||||||||||||||||||||||||||||||||||||||||||||||||||1012.5||1|FM15-METAR|223|ICAO-KCPU|||||||||||||||||||||||||||||||||||||||||||MET071METAR KCPU 182335Z AUTO 31006KT 10SM CLR 30/09 A2990 RMK AO2 T02990094=||F||223|ICAO-KCPU
USI0000KCPU|CALAVERAS CO MAURY RASMUSSEN F|2023|05|18|23|55|38.1461|-120.6482|403.9|29.7||1|FM15-METAR|223|ICAO-KCPU|8.6||1|FM15-METAR|223|ICAO-KCPU|||||||||||||330|N-Normal|1|FM15-METAR|223|ICAO-KCPU|3.1|N-Normal|1|FM15-METAR|223|ICAO-KCPU|||||||||||||27|Derived||FM15-METAR|223|ICAO-KCPU|||||||||||||||||||||||||||||||||||||||||||||||||||||||||||||||||||||||||1012.9||1|FM15-METAR|223|ICAO-KCPU|||||||||||||||||||||||||||||||||||||||||||MET083METAR KCPU 182355Z AUTO 33006KT 10SM CLR 30/09 A2991 RMK AO2 T02970086 10309 20265=||F||223|ICAO-KCPU
USI0000KCPU|CALAVERAS CO MAURY RASMUSSEN F|2023|05|19|00|15|38.1461|-120.6482|403.9|29.5||1|FM15-METAR|223|ICAO-KCPU|8.9||1|FM15-METAR|223|ICAO-KCPU|||||||||||||310|N-Normal|1|FM15-METAR|223|ICAO-KCPU|3.1|N-Normal|1|FM15-METAR|223|ICAO-KCPU|||||||||||||28|Derived||FM15-METAR|223|ICAO-KCPU|||||||||||||||||||||||||||||||||||||||||||||||||||||||||||||||||||||||||1012.9||1|FM15-METAR|223|ICAO-KCPU|||||||||||||||||||||||||||||||||||||||||||MET071METAR KCPU 190015Z AUTO 31006KT 10SM CLR 30/09 A2991 RMK AO2 T02950089=||F||223|ICAO-KCPU
USI0000KCPU|CALAVERAS CO MAURY RASMUSSEN F|2023|05|19|00|35|38.1461|-120.6482|403.9|29.4||1|FM15-METAR|223|ICAO-KCPU|9.4||1|FM15-METAR|223|ICAO-KCPU|||||||||||||320|N-Normal|1|FM15-METAR|223|ICAO-KCPU|3.1|N-Normal|1|FM15-METAR|223|ICAO-KCPU|||||||||||||29|Derived||FM15-METAR|223|ICAO-KCPU|||||||||||||||||||||||||||||||||||||||||||||||||||||||||||||||||||||||||1012.9||1|FM15-METAR|223|ICAO-KCPU|||||||||||||||||||||||||||||||||||||||||||MET071METAR KCPU 190035Z AUTO 32006KT 10SM CLR 29/09 A2991 RMK AO2 T02940094=||F||223|ICAO-KCPU
USI0000KCPU|CALAVERAS CO MAURY RASMUSSEN F|2023|05|19|00|55|38.1461|-120.6482|403.9|28.6||1|FM15-METAR|223|ICAO-KCPU|9.7||1|FM15-METAR|223|ICAO-KCPU|||||||||||||310|N-Normal|1|FM15-METAR|223|ICAO-KCPU|3.1|N-Normal|1|FM15-METAR|223|ICAO-KCPU|||||||||||||31|Derived||FM15-METAR|223|ICAO-KCPU|||||||||||||||||||||||||||||||||||||||||||||||||||||||||||||||||||||||||1012.9||1|FM15-METAR|223|ICAO-KCPU|||||||||||||||||||||||||||||||||||||||||||MET071METAR KCPU 190055Z AUTO 31006KT 10SM CLR 29/10 A2991 RMK AO2 T02860097=||F||223|ICAO-KCPU
USI0000KCPU|CALAVERAS CO MAURY RASMUSSEN F|2023|05|19|01|15|38.1461|-120.6482|403.9|28.7||1|FM15-METAR|223|ICAO-KCPU|10.0||1|FM15-METAR|223|ICAO-KCPU|||||||||||||330|N-Normal|1|FM15-METAR|223|ICAO-KCPU|2.6|N-Normal|1|FM15-METAR|223|ICAO-KCPU|||||||||||||31|Derived||FM15-METAR|223|ICAO-KCPU|||||||||||||||||||||||||||||||||||||||||||||||||||||||||||||||||||||||||1013.2||1|FM15-METAR|223|ICAO-KCPU|||||||||||||||||||||||||||||||||||||||||||MET071METAR KCPU 190115Z AUTO 33005KT 10SM CLR 29/10 A2992 RMK AO2 T02870100=||F||223|ICAO-KCPU
USI0000KCPU|CALAVERAS CO MAURY RASMUSSEN F|2023|05|19|01|35|38.1461|-120.6482|403.9|27.9||1|FM15-METAR|223|ICAO-KCPU|9.5||1|FM15-METAR|223|ICAO-KCPU|||||||||||||300|N-Normal|1|FM15-METAR|223|ICAO-KCPU|2.1|N-Normal|1|FM15-METAR|223|ICAO-KCPU|||||||||||||32|Derived||FM15-METAR|223|ICAO-KCPU|||||||||||||||||||||||||||||||||||||||||||||||||||||||||||||||||||||||||1013.2||1|FM15-METAR|223|ICAO-KCPU|||||||||||||||||||||||||||||||||||||||||||MET071METAR KCPU 190135Z AUTO 30004KT 10SM CLR 28/10 A2992 RMK AO2 T02790095=||F||223|ICAO-KCPU
USI0000KCPU|CALAVERAS CO MAURY RASMUSSEN F|2023|05|19|01|55|38.1461|-120.6482|403.9|27.6||1|FM15-METAR|223|ICAO-KCPU|9.9||1|FM15-METAR|223|ICAO-KCPU|||||||||||||310|N-Normal|1|FM15-METAR|223|ICAO-KCPU|2.6|N-Normal|1|FM15-METAR|223|ICAO-KCPU|||||||||||||33|Derived||FM15-METAR|223|ICAO-KCPU|||||||||||||||||||||||||||||||||||||||||||||||||||||||||||||||||||||||||1013.2||1|FM15-METAR|223|ICAO-KCPU|||||||||||||||||||||||||||||||||||||||||||MET071METAR KCPU 190155Z AUTO 31005KT 10SM CLR 28/10 A2992 RMK AO2 T02760099=||F||223|ICAO-KCPU
USI0000KCPU|CALAVERAS CO MAURY RASMUSSEN F|2023|05|19|02|15|38.1461|-120.6482|403.9|27.1||1|FM15-METAR|223|ICAO-KCPU|10.0||1|FM15-METAR|223|ICAO-KCPU|||||||||||||310|N-Normal|1|FM15-METAR|223|ICAO-KCPU|2.1|N-Normal|1|FM15-METAR|223|ICAO-KCPU|||||||||||||34|Derived||FM15-METAR|223|ICAO-KCPU|||||||||||||||||||||||||||||||||||||||||||||||||||||||||||||||||||||||||1013.2||1|FM15-METAR|223|ICAO-KCPU|||||||||||||||||||||||||||||||||||||||||||MET071METAR KCPU 190215Z AUTO 31004KT 10SM CLR 27/10 A2992 RMK AO2 T02710100=||F||223|ICAO-KCPU
USI0000KCPU|CALAVERAS CO MAURY RASMUSSEN F|2023|05|19|02|35|38.1461|-120.6482|403.9|26.3||1|FM15-METAR|223|ICAO-KCPU|9.8||1|FM15-METAR|223|ICAO-KCPU|||||||||||||310|N-Normal|1|FM15-METAR|223|ICAO-KCPU|1.5|N-Normal|1|FM15-METAR|223|ICAO-KCPU|||||||||||||35|Derived||FM15-METAR|223|ICAO-KCPU|||||||||||||||||||||||||||||||||||||||||||||||||||||||||||||||||||||||||1013.2||1|FM15-METAR|223|ICAO-KCPU|||||||||||||||||||||||||||||||||||||||||||MET071METAR KCPU 190235Z AUTO 31003KT 10SM CLR 26/10 A2992 RMK AO2 T02630098=||F||223|ICAO-KCPU
USI0000KCPU|CALAVERAS CO MAURY RASMUSSEN F|2023|05|19|02|55|38.1461|-120.6482|403.9|25.3||1|FM15-METAR|223|ICAO-KCPU|9.3||1|FM15-METAR|223|ICAO-KCPU|||||||||||||320|N-Normal|1|FM15-METAR|223|ICAO-KCPU|2.1|N-Normal|1|FM15-METAR|223|ICAO-KCPU|||||||||||||36|Derived||FM15-METAR|223|ICAO-KCPU|||||||||||||||||||||||||||||||||||||||||||||||||||||||||||||||||||||||||1013.5||1|FM15-METAR|223|ICAO-KCPU|||||||||||||||||||||||||||||||||||||||||||MET071METAR KCPU 190255Z AUTO 32004KT 10SM CLR 25/09 A2993 RMK AO2 T02530093=||F||223|ICAO-KCPU
USI0000KCPU|CALAVERAS CO MAURY RASMUSSEN F|2023|05|19|03|15|38.1461|-120.6482|403.9|24.9||1|FM15-METAR|223|ICAO-KCPU|9.6||1|FM15-METAR|223|ICAO-KCPU|||||||||||||320|N-Normal|1|FM15-METAR|223|ICAO-KCPU|2.1|N-Normal|1|FM15-METAR|223|ICAO-KCPU|||||||||||||38|Derived||FM15-METAR|223|ICAO-KCPU|||||||||||||||||||||||||||||||||||||||||||||||||||||||||||||||||||||||||1013.5||1|FM15-METAR|223|ICAO-KCPU|||||||||||||||||||||||||||||||||||||||||||MET071METAR KCPU 190315Z AUTO 32004KT 10SM CLR 25/10 A2993 RMK AO2 T02490096=||F||223|ICAO-KCPU
USI0000KCPU|CALAVERAS CO MAURY RASMUSSEN F|2023|05|19|03|35|38.1461|-120.6482|403.9|23.6||1|FM15-METAR|223|ICAO-KCPU|10.1||1|FM15-METAR|223|ICAO-KCPU|||||||||||||999|C-Calm|9|FM15-METAR|223|ICAO-KCPU|0.0|C-Calm|1|FM15-METAR|223|ICAO-KCPU|||||||||||||43|Derived||FM15-METAR|223|ICAO-KCPU|||||||||||||||||||||||||||||||||||||||||||||||||||||||||||||||||||||||||1013.5||1|FM15-METAR|223|ICAO-KCPU|||||||||||||||||||||||||||||||||||||||||||MET071METAR KCPU 190335Z AUTO 00000KT 10SM CLR 24/10 A2993 RMK AO2 T02360101=||F||223|ICAO-KCPU
USI0000KCPU|CALAVERAS CO MAURY RASMUSSEN F|2023|05|19|03|55|38.1461|-120.6482|403.9|22.4||1|FM15-METAR|223|ICAO-KCPU|10.9||1|FM15-METAR|223|ICAO-KCPU|||||||||||||999|C-Calm|9|FM15-METAR|223|ICAO-KCPU|0.0|C-Calm|1|FM15-METAR|223|ICAO-KCPU|||||||||||||48|Derived||FM15-METAR|223|ICAO-KCPU|||||||||||||||||||||||||||||||||||||||||||||||||||||||||||||||||||||||||1013.5||1|FM15-METAR|223|ICAO-KCPU|||||||||||||||||||||||||||||||||||||||||||MET071METAR KCPU 190355Z AUTO 00000KT 10SM CLR 22/11 A2993 RMK AO2 T02240109=||F||223|ICAO-KCPU
USI0000KCPU|CALAVERAS CO MAURY RASMUSSEN F|2023|05|19|04|15|38.1461|-120.6482|403.9|21.8||1|FM15-METAR|223|ICAO-KCPU|11.0||1|FM15-METAR|223|ICAO-KCPU|||||||||||||999|C-Calm|9|FM15-METAR|223|ICAO-KCPU|0.0|C-Calm|1|FM15-METAR|223|ICAO-KCPU|||||||||||||50|Derived||FM15-METAR|223|ICAO-KCPU|||||||||||||||||||||||||||||||||||||||||||||||||||||||||||||||||||||||||1013.9||1|FM15-METAR|223|ICAO-KCPU|||||||||||||||||||||||||||||||||||||||||||MET071METAR KCPU 190415Z AUTO 00000KT 10SM CLR 22/11 A2994 RMK AO2 T02180110=||F||223|ICAO-KCPU
USI0000KCPU|CALAVERAS CO MAURY RASMUSSEN F|2023|05|19|04|35|38.1461|-120.6482|403.9|21.5||1|FM15-METAR|223|ICAO-KCPU|10.8||1|FM15-METAR|223|ICAO-KCPU|||||||||||||999|C-Calm|9|FM15-METAR|223|ICAO-KCPU|0.0|C-Calm|1|FM15-METAR|223|ICAO-KCPU|||||||||||||51|Derived||FM15-METAR|223|ICAO-KCPU|||||||||||||||||||||||||||||||||||||||||||||||||||||||||||||||||||||||||1013.9||1|FM15-METAR|223|ICAO-KCPU|||||||||||||||||||||||||||||||||||||||||||MET071METAR KCPU 190435Z AUTO 00000KT 10SM CLR 22/11 A2994 RMK AO2 T02150108=||F||223|ICAO-KCPU
USI0000KCPU|CALAVERAS CO MAURY RASMUSSEN F|2023|05|19|04|55|38.1461|-120.6482|403.9|21.2||1|FM15-METAR|223|ICAO-KCPU|10.8||1|FM15-METAR|223|ICAO-KCPU|||||||||||||999|C-Calm|9|FM15-METAR|223|ICAO-KCPU|0.0|C-Calm|1|FM15-METAR|223|ICAO-KCPU|||||||||||||52|Derived||FM15-METAR|223|ICAO-KCPU|||||||||||||||||||||||||||||||||||||||||||||||||||||||||||||||||||||||||1014.2||1|FM15-METAR|223|ICAO-KCPU|||||||||||||||||||||||||||||||||||||||||||MET071METAR KCPU 190455Z AUTO 00000KT 10SM CLR 21/11 A2995 RMK AO2 T02120108=||F||223|ICAO-KCPU
USI0000KCPU|CALAVERAS CO MAURY RASMUSSEN F|2023|05|19|05|15|38.1461|-120.6482|403.9|20.8||1|FM15-METAR|223|ICAO-KCPU|10.7||1|FM15-METAR|223|ICAO-KCPU|||||||||||||999|C-Calm|9|FM15-METAR|223|ICAO-KCPU|0.0|C-Calm|1|FM15-METAR|223|ICAO-KCPU|||||||||||||53|Derived||FM15-METAR|223|ICAO-KCPU|||||||||||||||||||||||||||||||||||||||||||||||||||||||||||||||||||||||||1014.2||1|FM15-METAR|223|ICAO-KCPU|||||||||||||||||||||||||||||||||||||||||||MET071METAR KCPU 190515Z AUTO 00000KT 10SM CLR 21/11 A2995 RMK AO2 T02080107=||F||223|ICAO-KCPU
USI0000KCPU|CALAVERAS CO MAURY RASMUSSEN F|2023|05|19|05|35|38.1461|-120.6482|403.9|20.0||1|FM15-METAR|223|ICAO-KCPU|11.0||1|FM15-METAR|223|ICAO-KCPU|||||||||||||999|C-Calm|9|FM15-METAR|223|ICAO-KCPU|0.0|C-Calm|1|FM15-METAR|223|ICAO-KCPU|||||||||||||56|Derived||FM15-METAR|223|ICAO-KCPU|||||||||||||||||||||||||||||||||||||||||||||||||||||||||||||||||||||||||1014.2||1|FM15-METAR|223|ICAO-KCPU|||||||||||||||||||||||||||||||||||||||||||MET071METAR KCPU 190535Z AUTO 00000KT 10SM CLR 20/11 A2995 RMK AO2 T02000110=||F||223|ICAO-KCPU
USI0000KCPU|CALAVERAS CO MAURY RASMUSSEN F|2023|05|19|05|55|38.1461|-120.6482|403.9|19.2||1|FM15-METAR|223|ICAO-KCPU|10.9||1|FM15-METAR|223|ICAO-KCPU|||||||||||||999|C-Calm|9|FM15-METAR|223|ICAO-KCPU|0.0|C-Calm|1|FM15-METAR|223|ICAO-KCPU|||||||||||||59|Derived||FM15-METAR|223|ICAO-KCPU|||||||||||||||||||||||||||||||||||||||||||||||||||||||||||||||||||||||||1014.2||1|FM15-METAR|223|ICAO-KCPU|||||||||||||||||||||||||||||||||||||||||||MET083METAR KCPU 190555Z AUTO 00000KT 10SM CLR 19/11 A2995 RMK AO2 T01920109 10297 20192=||F||223|ICAO-KCPU
USI0000KCPU|CALAVERAS CO MAURY RASMUSSEN F|2023|05|19|06|15|38.1461|-120.6482|403.9|18.9||1|FM15-METAR|223|ICAO-KCPU|10.6||1|FM15-METAR|223|ICAO-KCPU|||||||||||||999|C-Calm|9|FM15-METAR|223|ICAO-KCPU|0.0|C-Calm|1|FM15-METAR|223|ICAO-KCPU|||||||||||||59|Derived||FM15-METAR|223|ICAO-KCPU|||||||||||||||||||||||||||||||||||||||||||||||||||||||||||||||||||||||||1014.2||1|FM15-METAR|223|ICAO-KCPU|||||||||||||||||||||||||||||||||||||||||||MET071METAR KCPU 190615Z AUTO 00000KT 10SM CLR 19/11 A2995 RMK AO2 T01890106=||F||223|ICAO-KCPU
USI0000KCPU|CALAVERAS CO MAURY RASMUSSEN F|2023|05|19|06|35|38.1461|-120.6482|403.9|18.6||1|FM15-METAR|223|ICAO-KCPU|10.5||1|FM15-METAR|223|ICAO-KCPU|||||||||||||999|C-Calm|9|FM15-METAR|223|ICAO-KCPU|0.0|C-Calm|1|FM15-METAR|223|ICAO-KCPU|||||||||||||59|Derived||FM15-METAR|223|ICAO-KCPU|||||||||||||||||||||||||||||||||||||||||||||||||||||||||||||||||||||||||1014.2||1|FM15-METAR|223|ICAO-KCPU|||||||||||||||||||||||||||||||||||||||||||MET071METAR KCPU 190635Z AUTO 00000KT 10SM CLR 19/11 A2995 RMK AO2 T01860105=||F||223|ICAO-KCPU
USI0000KCPU|CALAVERAS CO MAURY RASMUSSEN F|2023|05|19|06|55|38.1461|-120.6482|403.9|18.1||1|FM15-METAR|223|ICAO-KCPU|10.5||1|FM15-METAR|223|ICAO-KCPU|||||||||||||999|C-Calm|9|FM15-METAR|223|ICAO-KCPU|0.0|C-Calm|1|FM15-METAR|223|ICAO-KCPU|||||||||||||61|Derived||FM15-METAR|223|ICAO-KCPU|||||||||||||||||||||||||||||||||||||||||||||||||||||||||||||||||||||||||1014.2||1|FM15-METAR|223|ICAO-KCPU|||||||||||||||||||||||||||||||||||||||||||MET071METAR KCPU 190655Z AUTO 00000KT 10SM CLR 18/11 A2995 RMK AO2 T01810105=||F||223|ICAO-KCPU
USI0000KCPU|CALAVERAS CO MAURY RASMUSSEN F|2023|05|19|07|15|38.1461|-120.6482|403.9|17.5||1|FM15-METAR|223|ICAO-KCPU|10.6||1|FM15-METAR|223|ICAO-KCPU|||||||||||||999|C-Calm|9|FM15-METAR|223|ICAO-KCPU|0.0|C-Calm|1|FM15-METAR|223|ICAO-KCPU|||||||||||||64|Derived||FM15-METAR|223|ICAO-KCPU|||||||||||||||||||||||||||||||||||||||||||||||||||||||||||||||||||||||||1014.2||1|FM15-METAR|223|ICAO-KCPU|||||||||||||||||||||||||||||||||||||||||||MET071METAR KCPU 190715Z AUTO 00000KT 10SM CLR 18/11 A2995 RMK AO2 T01750106=||F||223|ICAO-KCPU
USI0000KCPU|CALAVERAS CO MAURY RASMUSSEN F|2023|05|19|07|35|38.1461|-120.6482|403.9|16.5||1|FM15-METAR|223|ICAO-KCPU|10.7||1|FM15-METAR|223|ICAO-KCPU|||||||||||||999|C-Calm|9|FM15-METAR|223|ICAO-KCPU|0.0|C-Calm|1|FM15-METAR|223|ICAO-KCPU|||||||||||||69|Derived||FM15-METAR|223|ICAO-KCPU|||||||||||||||||||||||||||||||||||||||||||||||||||||||||||||||||||||||||1014.2||1|FM15-METAR|223|ICAO-KCPU|||||||||||||||||||||||||||||||||||||||||||MET071METAR KCPU 190735Z AUTO 00000KT 10SM CLR 17/11 A2995 RMK AO2 T01650107=||F||223|ICAO-KCPU
USI0000KCPU|CALAVERAS CO MAURY RASMUSSEN F|2023|05|19|07|55|38.1461|-120.6482|403.9|16.1||1|FM15-METAR|223|ICAO-KCPU|10.7||1|FM15-METAR|223|ICAO-KCPU|||||||||||||999|C-Calm|9|FM15-METAR|223|ICAO-KCPU|0.0|C-Calm|1|FM15-METAR|223|ICAO-KCPU|||||||||||||71|Derived||FM15-METAR|223|ICAO-KCPU|||||||||||||||||||||||||||||||||||||||||||||||||||||||||||||||||||||||||1014.2||1|FM15-METAR|223|ICAO-KCPU|||||||||||||||||||||||||||||||||||||||||||MET081METAR KCPU 190755Z AUTO 00000KT 10SM CLR 16/11 A2995 RMK AO2 T01610107 403090115=||F||223|ICAO-KCPU
USI0000KCPU|CALAVERAS CO MAURY RASMUSSEN F|2023|05|19|08|15|38.1461|-120.6482|403.9|15.7||1|FM15-METAR|223|ICAO-KCPU|10.6||1|FM15-METAR|223|ICAO-KCPU|||||||||||||999|C-Calm|9|FM15-METAR|223|ICAO-KCPU|0.0|C-Calm|1|FM15-METAR|223|ICAO-KCPU|||||||||||||72|Derived||FM15-METAR|223|ICAO-KCPU|||||||||||||||||||||||||||||||||||||||||||||||||||||||||||||||||||||||||1014.2||1|FM15-METAR|223|ICAO-KCPU|||||||||||||||||||||||||||||||||||||||||||MET071METAR KCPU 190815Z AUTO 00000KT 10SM CLR 16/11 A2995 RMK AO2 T01570106=||F||223|ICAO-KCPU
USI0000KCPU|CALAVERAS CO MAURY RASMUSSEN F|2023|05|19|08|35|38.1461|-120.6482|403.9|16.0||1|FM15-METAR|223|ICAO-KCPU|10.6||1|FM15-METAR|223|ICAO-KCPU|||||||||||||999|C-Calm|9|FM15-METAR|223|ICAO-KCPU|0.0|C-Calm|1|FM15-METAR|223|ICAO-KCPU|||||||||||||71|Derived||FM15-METAR|223|ICAO-KCPU|||||||||||||||||||||||||||||||||||||||||||||||||||||||||||||||||||||||||1014.2||1|FM15-METAR|223|ICAO-KCPU|||||||||||||||||||||||||||||||||||||||||||MET071METAR KCPU 190835Z AUTO 00000KT 10SM CLR 16/11 A2995 RMK AO2 T01600106=||F||223|ICAO-KCPU
USI0000KCPU|CALAVERAS CO MAURY RASMUSSEN F|2023|05|19|08|55|38.1461|-120.6482|403.9|14.6||1|FM15-METAR|223|ICAO-KCPU|10.6||1|FM15-METAR|223|ICAO-KCPU|||||||||||||999|C-Calm|9|FM15-METAR|223|ICAO-KCPU|0.0|C-Calm|1|FM15-METAR|223|ICAO-KCPU|||||||||||||77|Derived||FM15-METAR|223|ICAO-KCPU|||||||||||||||||||||||||||||||||||||||||||||||||||||||||||||||||||||||||1014.2||1|FM15-METAR|223|ICAO-KCPU|||||||||||||||||||||||||||||||||||||||||||MET071METAR KCPU 190855Z AUTO 00000KT 10SM CLR 15/11 A2995 RMK AO2 T01460106=||F||223|ICAO-KCPU
USI0000KCPU|CALAVERAS CO MAURY RASMUSSEN F|2023|05|19|09|15|38.1461|-120.6482|403.9|15.4||1|FM15-METAR|223|ICAO-KCPU|10.7||1|FM15-METAR|223|ICAO-KCPU|||||||||||||999|C-Calm|9|FM15-METAR|223|ICAO-KCPU|0.0|C-Calm|1|FM15-METAR|223|ICAO-KCPU|||||||||||||74|Derived||FM15-METAR|223|ICAO-KCPU|||||||||||||||||||||||||||||||||||||||||||||||||||||||||||||||||||||||||1014.2||1|FM15-METAR|223|ICAO-KCPU|||||||||||||||||||||||||||||||||||||||||||MET071METAR KCPU 190915Z AUTO 00000KT 10SM CLR 15/11 A2995 RMK AO2 T01540107=||F||223|ICAO-KCPU
USI0000KCPU|CALAVERAS CO MAURY RASMUSSEN F|2023|05|19|09|35|38.1461|-120.6482|403.9|13.5||1|FM15-METAR|223|ICAO-KCPU|10.1||1|FM15-METAR|223|ICAO-KCPU|||||||||||||999|C-Calm|9|FM15-METAR|223|ICAO-KCPU|0.0|C-Calm|1|FM15-METAR|223|ICAO-KCPU|||||||||||||80|Derived||FM15-METAR|223|ICAO-KCPU|||||||||||||||||||||||||||||||||||||||||||||||||||||||||||||||||||||||||1014.2||1|FM15-METAR|223|ICAO-KCPU|||||||||||||||||||||||||||||||||||||||||||MET071METAR KCPU 190935Z AUTO 00000KT 10SM CLR 14/10 A2995 RMK AO2 T01350101=||F||223|ICAO-KCPU
USI0000KCPU|CALAVERAS CO MAURY RASMUSSEN F|2023|05|19|09|55|38.1461|-120.6482|403.9|12.8||1|FM15-METAR|223|ICAO-KCPU|9.8||1|FM15-METAR|223|ICAO-KCPU|||||||||||||999|C-Calm|9|FM15-METAR|223|ICAO-KCPU|0.0|C-Calm|1|FM15-METAR|223|ICAO-KCPU|||||||||||||82|Derived||FM15-METAR|223|ICAO-KCPU|||||||||||||||||||||||||||||||||||||||||||||||||||||||||||||||||||||||||1014.2||1|FM15-METAR|223|ICAO-KCPU|||||||||||||||||||||||||||||||||||||||||||MET071METAR KCPU 190955Z AUTO 00000KT 10SM CLR 13/10 A2995 RMK AO2 T01280098=||F||223|ICAO-KCPU
USI0000KCPU|CALAVERAS CO MAURY RASMUSSEN F|2023|05|19|10|15|38.1461|-120.6482|403.9|13.3||1|FM15-METAR|223|ICAO-KCPU|9.8||1|FM15-METAR|223|ICAO-KCPU|||||||||||||999|C-Calm|9|FM15-METAR|223|ICAO-KCPU|0.0|C-Calm|1|FM15-METAR|223|ICAO-KCPU|||||||||||||80|Derived||FM15-METAR|223|ICAO-KCPU|||||||||||||||||||||||||||||||||||||||||||||||||||||||||||||||||||||||||1014.2||1|FM15-METAR|223|ICAO-KCPU|||||||||||||||||||||||||||||||||||||||||||MET071METAR KCPU 191015Z AUTO 00000KT 10SM CLR 13/10 A2995 RMK AO2 T01330098=||F||223|ICAO-KCPU
USI0000KCPU|CALAVERAS CO MAURY RASMUSSEN F|2023|05|19|10|35|38.1461|-120.6482|403.9|13.2||1|FM15-METAR|223|ICAO-KCPU|10.0||1|FM15-METAR|223|ICAO-KCPU|||||||||||||999|C-Calm|9|FM15-METAR|223|ICAO-KCPU|0.0|C-Calm|1|FM15-METAR|223|ICAO-KCPU|||||||||||||81|Derived||FM15-METAR|223|ICAO-KCPU|||||||||||||||||||||||||||||||||||||||||||||||||||||||||||||||||||||||||1014.2||1|FM15-METAR|223|ICAO-KCPU|||||||||||||||||||||||||||||||||||||||||||MET071METAR KCPU 191035Z AUTO 00000KT 10SM CLR 13/10 A2995 RMK AO2 T01320100=||F||223|ICAO-KCPU
USI0000KCPU|CALAVERAS CO MAURY RASMUSSEN F|2023|05|19|10|55|38.1461|-120.6482|403.9|13.2||1|FM15-METAR|223|ICAO-KCPU|9.9||1|FM15-METAR|223|ICAO-KCPU|||||||||||||999|C-Calm|9|FM15-METAR|223|ICAO-KCPU|0.0|C-Calm|1|FM15-METAR|223|ICAO-KCPU|||||||||||||81|Derived||FM15-METAR|223|ICAO-KCPU|||||||||||||||||||||||||||||||||||||||||||||||||||||||||||||||||||||||||1014.2||1|FM15-METAR|223|ICAO-KCPU|||||||||||||||||||||||||||||||||||||||||||MET071METAR KCPU 191055Z AUTO 00000KT 10SM CLR 13/10 A2995 RMK AO2 T01320099=||F||223|ICAO-KCPU
USI0000KCPU|CALAVERAS CO MAURY RASMUSSEN F|2023|05|19|11|15|38.1461|-120.6482|403.9|12.6||1|FM15-METAR|223|ICAO-KCPU|10.0||1|FM15-METAR|223|ICAO-KCPU|||||||||||||999|C-Calm|9|FM15-METAR|223|ICAO-KCPU|0.0|C-Calm|1|FM15-METAR|223|ICAO-KCPU|||||||||||||84|Derived||FM15-METAR|223|ICAO-KCPU|||||||||||||||||||||||||||||||||||||||||||||||||||||||||||||||||||||||||1014.2||1|FM15-METAR|223|ICAO-KCPU|||||||||||||||||||||||||||||||||||||||||||MET071METAR KCPU 191115Z AUTO 00000KT 10SM CLR 13/10 A2995 RMK AO2 T01260100=||F||223|ICAO-KCPU
USI0000KCPU|CALAVERAS CO MAURY RASMUSSEN F|2023|05|19|11|35|38.1461|-120.6482|403.9|12.8||1|FM15-METAR|223|ICAO-KCPU|9.7||1|FM15-METAR|223|ICAO-KCPU|||||||||||||999|C-Calm|9|FM15-METAR|223|ICAO-KCPU|0.0|C-Calm|1|FM15-METAR|223|ICAO-KCPU|||||||||||||82|Derived||FM15-METAR|223|ICAO-KCPU|||||||||||||||||||||||||||||||||||||||||||||||||||||||||||||||||||||||||1014.2||1|FM15-METAR|223|ICAO-KCPU|||||||||||||||||||||||||||||||||||||||||||MET071METAR KCPU 191135Z AUTO 00000KT 10SM CLR 13/10 A2995 RMK AO2 T01280097=||F||223|ICAO-KCPU
USI0000KCPU|CALAVERAS CO MAURY RASMUSSEN F|2023|05|19|11|55|38.1461|-120.6482|403.9|13.1||1|FM15-METAR|223|ICAO-KCPU|9.8||1|FM15-METAR|223|ICAO-KCPU|||||||||||||200|N-Normal|1|FM15-METAR|223|ICAO-KCPU|1.5|N-Normal|1|FM15-METAR|223|ICAO-KCPU|||||||||||||81|Derived||FM15-METAR|223|ICAO-KCPU|||||||||||||||||||||||||||||||||||||||||||||||||||||||||||||||||||||||||1014.2||1|FM15-METAR|223|ICAO-KCPU|||||||||||||||||||||||||||||||||||||||||||MET083METAR KCPU 191155Z AUTO 20003KT 10SM CLR 13/10 A2995 RMK AO2 T01310098 10192 20121=||F||223|ICAO-KCPU
USI0000KCPU|CALAVERAS CO MAURY RASMUSSEN F|2023|05|19|12|15|38.1461|-120.6482|403.9|12.9||1|FM15-METAR|223|ICAO-KCPU|9.6||1|FM15-METAR|223|ICAO-KCPU|||||||||||||999|C-Calm|9|FM15-METAR|223|ICAO-KCPU|0.0|C-Calm|1|FM15-METAR|223|ICAO-KCPU|||||||||||||81|Derived||FM15-METAR|223|ICAO-KCPU|||||||||||||||||||||||||||||||||||||||||||||||||||||||||||||||||||||||||1014.2||1|FM15-METAR|223|ICAO-KCPU|||||||||||||||||||||||||||||||||||||||||||MET071METAR KCPU 191215Z AUTO 00000KT 10SM CLR 13/10 A2995 RMK AO2 T01290096=||F||223|ICAO-KCPU
USI0000KCPU|CALAVERAS CO MAURY RASMUSSEN F|2023|05|19|12|35|38.1461|-120.6482|403.9|12.9||1|FM15-METAR|223|ICAO-KCPU|9.5||1|FM15-METAR|223|ICAO-KCPU|||||||||||||999|C-Calm|9|FM15-METAR|223|ICAO-KCPU|0.0|C-Calm|1|FM15-METAR|223|ICAO-KCPU|||||||||||||80|Derived||FM15-METAR|223|ICAO-KCPU|||||||||||||||||||||||||||||||||||||||||||||||||||||||||||||||||||||||||1014.6||1|FM15-METAR|223|ICAO-KCPU|||||||||||||||||||||||||||||||||||||||||||MET071METAR KCPU 191235Z AUTO 00000KT 10SM CLR 13/10 A2996 RMK AO2 T01290095=||F||223|ICAO-KCPU
USI0000KCPU|CALAVERAS CO MAURY RASMUSSEN F|2023|05|19|12|55|38.1461|-120.6482|403.9|12.7||1|FM15-METAR|223|ICAO-KCPU|8.8||1|FM15-METAR|223|ICAO-KCPU|||||||||||||999|C-Calm|9|FM15-METAR|223|ICAO-KCPU|0.0|C-Calm|1|FM15-METAR|223|ICAO-KCPU|||||||||||||77|Derived||FM15-METAR|223|ICAO-KCPU|||||||||||||||||||||||||||||||||||||||||||||||||||||||||||||||||||||||||1014.6||1|FM15-METAR|223|ICAO-KCPU|||||||||||||||||||||||||||||||||||||||||||MET071METAR KCPU 191255Z AUTO 00000KT 10SM CLR 13/09 A2996 RMK AO2 T01270088=||F||223|ICAO-KCPU
USI0000KCPU|CALAVERAS CO MAURY RASMUSSEN F|2023|05|19|13|15|38.1461|-120.6482|403.9|13.0||1|FM15-METAR|223|ICAO-KCPU|8.8||1|FM15-METAR|223|ICAO-KCPU|||||||||||||999|C-Calm|9|FM15-METAR|223|ICAO-KCPU|0.0|C-Calm|1|FM15-METAR|223|ICAO-KCPU|||||||||||||76|Derived||FM15-METAR|223|ICAO-KCPU|||||||||||||||||||||||||||||||||||||||||||||||||||||||||||||||||||||||||1014.6||1|FM15-METAR|223|ICAO-KCPU|||||||||||||||||||||||||||||||||||||||||||MET071METAR KCPU 191315Z AUTO 00000KT 10SM CLR 13/09 A2996 RMK AO2 T01300088=||F||223|ICAO-KCPU
USI0000KCPU|CALAVERAS CO MAURY RASMUSSEN F|2023|05|19|13|35|38.1461|-120.6482|403.9|13.5||1|FM15-METAR|223|ICAO-KCPU|9.0||1|FM15-METAR|223|ICAO-KCPU|||||||||||||999|C-Calm|9|FM15-METAR|223|ICAO-KCPU|0.0|C-Calm|1|FM15-METAR|223|ICAO-KCPU|||||||||||||74|Derived||FM15-METAR|223|ICAO-KCPU|||||||||||||||||||||||||||||||||||||||||||||||||||||||||||||||||||||||||1014.9||1|FM15-METAR|223|ICAO-KCPU|||||||||||||||||||||||||||||||||||||||||||MET071METAR KCPU 191335Z AUTO 00000KT 10SM CLR 14/09 A2997 RMK AO2 T01350090=||F||223|ICAO-KCPU
USI0000KCPU|CALAVERAS CO MAURY RASMUSSEN F|2023|05|19|13|55|38.1461|-120.6482|403.9|13.9||1|FM15-METAR|223|ICAO-KCPU|9.2||1|FM15-METAR|223|ICAO-KCPU|||||||||||||999|C-Calm|9|FM15-METAR|223|ICAO-KCPU|0.0|C-Calm|1|FM15-METAR|223|ICAO-KCPU|||||||||||||74|Derived||FM15-METAR|223|ICAO-KCPU|||||||||||||||||||||||||||||||||||||||||||||||||||||||||||||||||||||||||1014.9||1|FM15-METAR|223|ICAO-KCPU|||||||||||||||||||||||||||||||||||||||||||MET071METAR KCPU 191355Z AUTO 00000KT 10SM CLR 14/09 A2997 RMK AO2 T01390092=||F||223|ICAO-KCPU
USI0000KCPU|CALAVERAS CO MAURY RASMUSSEN F|2023|05|19|14|15|38.1461|-120.6482|403.9|15.1||1|FM15-METAR|223|ICAO-KCPU|9.6||1|FM15-METAR|223|ICAO-KCPU|||||||||||||999|C-Calm|9|FM15-METAR|223|ICAO-KCPU|0.0|C-Calm|1|FM15-METAR|223|ICAO-KCPU|||||||||||||70|Derived||FM15-METAR|223|ICAO-KCPU|||||||||||||||||||||||||||||||||||||||||||||||||||||||||||||||||||||||||1015.2||1|FM15-METAR|223|ICAO-KCPU|||||||||||||||||||||||||||||||||||||||||||MET071METAR KCPU 191415Z AUTO 00000KT 10SM CLR 15/10 A2998 RMK AO2 T01510096=||F||223|ICAO-KCPU
USI0000KCPU|CALAVERAS CO MAURY RASMUSSEN F|2023|05|19|14|35|38.1461|-120.6482|403.9|16.0||1|FM15-METAR|223|ICAO-KCPU|8.9||1|FM15-METAR|223|ICAO-KCPU|||||||||||||999|C-Calm|9|FM15-METAR|223|ICAO-KCPU|0.0|C-Calm|1|FM15-METAR|223|ICAO-KCPU|||||||||||||63|Derived||FM15-METAR|223|ICAO-KCPU|||||||||||||||||||||||||||||||||||||||||||||||||||||||||||||||||||||||||1015.6||1|FM15-METAR|223|ICAO-KCPU|||||||||||||||||||||||||||||||||||||||||||MET071METAR KCPU 191435Z AUTO 00000KT 10SM CLR 16/09 A2999 RMK AO2 T01600089=||F||223|ICAO-KCPU
USI0000KCPU|CALAVERAS CO MAURY RASMUSSEN F|2023|05|19|14|55|38.1461|-120.6482|403.9|16.7||1|FM15-METAR|223|ICAO-KCPU|10.2||1|FM15-METAR|223|ICAO-KCPU|||||||||||||999|C-Calm|9|FM15-METAR|223|ICAO-KCPU|0.0|C-Calm|1|FM15-METAR|223|ICAO-KCPU|||||||||||||66|Derived||FM15-METAR|223|ICAO-KCPU|||||||||||||||||||||||||||||||||||||||||||||||||||||||||||||||||||||||||1015.6||1|FM15-METAR|223|ICAO-KCPU|||||||||||||||||||||||||||||||||||||||||||MET071METAR KCPU 191455Z AUTO 00000KT 10SM CLR 17/10 A2999 RMK AO2 T01670102=||F||223|ICAO-KCPU
USI0000KCPU|CALAVERAS CO MAURY RASMUSSEN F|2023|05|19|15|15|38.1461|-120.6482|403.9|18.0||1|FM15-METAR|223|ICAO-KCPU|10.1||1|FM15-METAR|223|ICAO-KCPU|||||||||||||999|C-Calm|9|FM15-METAR|223|ICAO-KCPU|0.0|C-Calm|1|FM15-METAR|223|ICAO-KCPU|||||||||||||60|Derived||FM15-METAR|223|ICAO-KCPU|||||||||||||||||||||||||||||||||||||||||||||||||||||||||||||||||||||||||1015.6||1|FM15-METAR|223|ICAO-KCPU|||||||||||||||||||||||||||||||||||||||||||MET071METAR KCPU 191515Z AUTO 00000KT 10SM CLR 18/10 A2999 RMK AO2 T01800101=||F||223|ICAO-KCPU
USI0000KCPU|CALAVERAS CO MAURY RASMUSSEN F|2023|05|19|15|35|38.1461|-120.6482|403.9|19.1||1|FM15-METAR|223|ICAO-KCPU|10.8||1|FM15-METAR|223|ICAO-KCPU|||||||||||||999|C-Calm|9|FM15-METAR|223|ICAO-KCPU|0.0|C-Calm|1|FM15-METAR|223|ICAO-KCPU|||||||||||||59|Derived||FM15-METAR|223|ICAO-KCPU|||||||||||||||||||||||||||||||||||||||||||||||||||||||||||||||||||||||||1015.6||1|FM15-METAR|223|ICAO-KCPU|||||||||||||||||||||||||||||||||||||||||||MET071METAR KCPU 191535Z AUTO 00000KT 10SM CLR 19/11 A2999 RMK AO2 T01910108=||F||223|ICAO-KCPU
USI0000KCPU|CALAVERAS CO MAURY RASMUSSEN F|2023|05|19|15|55|38.1461|-120.6482|403.9|21.1||1|FM15-METAR|223|ICAO-KCPU|10.4||1|FM15-METAR|223|ICAO-KCPU|||||||||||||999|C-Calm|9|FM15-METAR|223|ICAO-KCPU|0.0|C-Calm|1|FM15-METAR|223|ICAO-KCPU|||||||||||||51|Derived||FM15-METAR|223|ICAO-KCPU|||||||||||||||||||||||||||||||||||||||||||||||||||||||||||||||||||||||||1015.6||1|FM15-METAR|223|ICAO-KCPU|||||||||||||||||||||||||||||||||||||||||||MET071METAR KCPU 191555Z AUTO 00000KT 10SM CLR 21/10 A2999 RMK AO2 T02110104=||F||223|ICAO-KCPU
USI0000KCPU|CALAVERAS CO MAURY RASMUSSEN F|2023|05|19|16|15|38.1461|-120.6482|403.9|21.9||1|FM15-METAR|223|ICAO-KCPU|7.0||1|FM15-METAR|223|ICAO-KCPU|||||||||||||999|C-Calm|9|FM15-METAR|223|ICAO-KCPU|0.0|C-Calm|1|FM15-METAR|223|ICAO-KCPU|||||||||||||38|Derived||FM15-METAR|223|ICAO-KCPU|||||||||||||||||||||||||||||||||||||||||||||||||||||||||||||||||||||||||1015.9||1|FM15-METAR|223|ICAO-KCPU|||||||||||||||||||||||||||||||||||||||||||MET071METAR KCPU 191615Z AUTO 00000KT 10SM CLR 22/07 A3000 RMK AO2 T02190070=||F||223|ICAO-KCPU
USI0000KCPU|CALAVERAS CO MAURY RASMUSSEN F|2023|05|19|16|35|38.1461|-120.6482|403.9|23.2||1|FM15-METAR|223|ICAO-KCPU|7.7||1|FM15-METAR|223|ICAO-KCPU|||||||||||||999|C-Calm|9|FM15-METAR|223|ICAO-KCPU|0.0|C-Calm|1|FM15-METAR|223|ICAO-KCPU|||||||||||||37|Derived||FM15-METAR|223|ICAO-KCPU|||||||||||||||||||||||||||||||||||||||||||||||||||||||||||||||||||||||||1015.9||1|FM15-METAR|223|ICAO-KCPU|||||||||||||||||||||||||||||||||||||||||||MET071METAR KCPU 191635Z AUTO 00000KT 10SM CLR 23/08 A3000 RMK AO2 T02320077=||F||223|ICAO-KCPU
USI0000KCPU|CALAVERAS CO MAURY RASMUSSEN F|2023|05|19|16|55|38.1461|-120.6482|403.9|24.7||1|FM15-METAR|223|ICAO-KCPU|9.7||1|FM15-METAR|223|ICAO-KCPU|||||||||||||999|C-Calm|9|FM15-METAR|223|ICAO-KCPU|0.0|C-Calm|1|FM15-METAR|223|ICAO-KCPU|||||||||||||39|Derived||FM15-METAR|223|ICAO-KCPU|||||||||||||||||||||||||||||||||||||||||||||||||||||||||||||||||||||||||1015.9||1|FM15-METAR|223|ICAO-KCPU|||||||||||||||||||||||||||||||||||||||||||MET071METAR KCPU 191655Z AUTO 00000KT 10SM CLR 25/10 A3000 RMK AO2 T02470097=||F||223|ICAO-KCPU
USI0000KCPU|CALAVERAS CO MAURY RASMUSSEN F|2023|05|19|17|15|38.1461|-120.6482|403.9|24.1||1|FM15-METAR|223|ICAO-KCPU|9.3||1|FM15-METAR|223|ICAO-KCPU|||||||||||||340|N-Normal|1|FM15-METAR|223|ICAO-KCPU|1.5|N-Normal|1|FM15-METAR|223|ICAO-KCPU|||||||||||||39|Derived||FM15-METAR|223|ICAO-KCPU|||||||||||||||||||||||||||||||||||||||||||||||||||||||||||||||||||||||||1016.3||1|FM15-METAR|223|ICAO-KCPU|||||||||||||||||||||||||||||||||||||||||||MET071METAR KCPU 191715Z AUTO 34003KT 10SM CLR 24/09 A3001 RMK AO2 T02410093=||F||223|ICAO-KCPU
USI0000KCPU|CALAVERAS CO MAURY RASMUSSEN F|2023|05|19|17|35|38.1461|-120.6482|403.9|24.4||1|FM15-METAR|223|ICAO-KCPU|9.7||1|FM15-METAR|223|ICAO-KCPU|||||||||||||330|N-Normal|1|FM15-METAR|223|ICAO-KCPU|2.1|N-Normal|1|FM15-METAR|223|ICAO-KCPU|||||||||||||39|Derived||FM15-METAR|223|ICAO-KCPU|||||||||||||||||||||||||||||||||||||||||||||||||||||||||||||||||||||||||1016.3||1|FM15-METAR|223|ICAO-KCPU|||||||||||||||||||||||||||||||||||||||||||MET071METAR KCPU 191735Z AUTO 33004KT 10SM CLR 24/10 A3001 RMK AO2 T02440097=||F||223|ICAO-KCPU
USI0000KCPU|CALAVERAS CO MAURY RASMUSSEN F|2023|05|19|17|55|38.1461|-120.6482|403.9|24.9||1|FM15-METAR|223|ICAO-KCPU|10.2||1|FM15-METAR|223|ICAO-KCPU|||||||||||||330|N-Normal|1|FM15-METAR|223|ICAO-KCPU|2.6|N-Normal|1|FM15-METAR|223|ICAO-KCPU|||||||||||||40|Derived||FM15-METAR|223|ICAO-KCPU|||||||||||||||||||||||||||||||||||||||||||||||||||||||||||||||||||||||||1016.3||1|FM15-METAR|223|ICAO-KCPU|||||||||||||||||||||||||||||||||||||||||||MET083METAR KCPU 191755Z AUTO 33005KT 10SM CLR 25/10 A3001 RMK AO2 T02490102 10249 20126=||F||223|ICAO-KCPU
USI0000KCPU|CALAVERAS CO MAURY RASMUSSEN F|2023|05|19|18|15|38.1461|-120.6482|403.9|25.0||1|FM15-METAR|223|ICAO-KCPU|10.5||1|FM15-METAR|223|ICAO-KCPU|||||||||||||340|N-Normal|1|FM15-METAR|223|ICAO-KCPU|2.1|N-Normal|1|FM15-METAR|223|ICAO-KCPU|||||||||||||40|Derived||FM15-METAR|223|ICAO-KCPU|||||||||||||||||||||||||||||||||||||||||||||||||||||||||||||||||||||||||1016.3||1|FM15-METAR|223|ICAO-KCPU|||||||||||||||||||||||||||||||||||||||||||MET071METAR KCPU 191815Z AUTO 34004KT 10SM CLR 25/11 A3001 RMK AO2 T02500105=||F||223|ICAO-KCPU
USI0000KCPU|CALAVERAS CO MAURY RASMUSSEN F|2023|05|19|18|35|38.1461|-120.6482|403.9|25.9||1|FM15-METAR|223|ICAO-KCPU|9.9||1|FM15-METAR|223|ICAO-KCPU|||||||||||||340|N-Normal|1|FM15-METAR|223|ICAO-KCPU|2.6|N-Normal|1|FM15-METAR|223|ICAO-KCPU|||||||||||||37|Derived||FM15-METAR|223|ICAO-KCPU|||||||||||||||||||||||||||||||||||||||||||||||||||||||||||||||||||||||||1016.6||1|FM15-METAR|223|ICAO-KCPU|||||||||||||||||||||||||||||||||||||||||||MET071METAR KCPU 191835Z AUTO 34005KT 10SM CLR 26/10 A3002 RMK AO2 T02590099=||F||223|ICAO-KCPU
USI0000KCPU|CALAVERAS CO MAURY RASMUSSEN F|2023|05|19|18|55|38.1461|-120.6482|403.9|26.3||1|FM15-METAR|223|ICAO-KCPU|10.5||1|FM15-METAR|223|ICAO-KCPU|||||||||||||340|N-Normal|1|FM15-METAR|223|ICAO-KCPU|2.6|N-Normal|1|FM15-METAR|223|ICAO-KCPU|||||||||||||37|Derived||FM15-METAR|223|ICAO-KCPU|||||||||||||||||||||||||||||||||||||||||||||||||||||||||||||||||||||||||1016.6||1|FM15-METAR|223|ICAO-KCPU|||||||||||||||||||||||||||||||||||||||||||MET071METAR KCPU 191855Z AUTO 34005KT 10SM CLR 26/11 A3002 RMK AO2 T02630105=||F||223|ICAO-KCPU
USI0000KCPU|CALAVERAS CO MAURY RASMUSSEN F|2023|05|19|19|15|38.1461|-120.6482|403.9|26.7||1|FM15-METAR|223|ICAO-KCPU|9.6||1|FM15-METAR|223|ICAO-KCPU|||||||||||||340|N-Normal|1|FM15-METAR|223|ICAO-KCPU|2.6|N-Normal|1|FM15-METAR|223|ICAO-KCPU|||||||||||||34|Derived||FM15-METAR|223|ICAO-KCPU|||||||||||||||||||||||||||||||||||||||||||||||||||||||||||||||||||||||||1016.6||1|FM15-METAR|223|ICAO-KCPU|||||||||||||||||||||||||||||||||||||||||||MET071METAR KCPU 191915Z AUTO 34005KT 10SM CLR 27/10 A3002 RMK AO2 T02670096=||F||223|ICAO-KCPU
USI0000KCPU|CALAVERAS CO MAURY RASMUSSEN F|2023|05|19|19|35|38.1461|-120.6482|403.9|27.3||1|FM15-METAR|223|ICAO-KCPU|9.2||1|FM15-METAR|223|ICAO-KCPU|||||||||||||350|N-Normal|1|FM15-METAR|223|ICAO-KCPU|2.6|N-Normal|1|FM15-METAR|223|ICAO-KCPU|||||||||||||32|Derived||FM15-METAR|223|ICAO-KCPU|||||||||||||||||||||||||||||||||||||||||||||||||||||||||||||||||||||||||1016.6||1|FM15-METAR|223|ICAO-KCPU|||||||||||||||||||||||||||||||||||||||||||MET071METAR KCPU 191935Z AUTO 35005KT 10SM CLR 27/09 A3002 RMK AO2 T02730092=||F||223|ICAO-KCPU
USI0000KCPU|CALAVERAS CO MAURY RASMUSSEN F|2023|05|19|19|55|38.1461|-120.6482|403.9|27.5||1|FM15-METAR|223|ICAO-KCPU|9.5||1|FM15-METAR|223|ICAO-KCPU|||||||||||||360|N-Normal|1|FM15-METAR|223|ICAO-KCPU|2.6|N-Normal|1|FM15-METAR|223|ICAO-KCPU|||||||||||||32|Derived||FM15-METAR|223|ICAO-KCPU|||||||||||||||||||||||||||||||||||||||||||||||||||||||||||||||||||||||||1016.6||1|FM15-METAR|223|ICAO-KCPU|||||||||||||||||||||||||||||||||||||||||||MET071METAR KCPU 191955Z AUTO 36005KT 10SM CLR 28/10 A3002 RMK AO2 T02750095=||F||223|ICAO-KCPU
USI0000KCPU|CALAVERAS CO MAURY RASMUSSEN F|2023|05|19|20|15|38.1461|-120.6482|403.9|28.1||1|FM15-METAR|223|ICAO-KCPU|9.2||1|FM15-METAR|223|ICAO-KCPU|||||||||||||350|N-Normal|1|FM15-METAR|223|ICAO-KCPU|2.6|N-Normal|1|FM15-METAR|223|ICAO-KCPU|||||||||||||31|Derived||FM15-METAR|223|ICAO-KCPU|||||||||||||||||||||||||||||||||||||||||||||||||||||||||||||||||||||||||1016.6||1|FM15-METAR|223|ICAO-KCPU|||||||||||||||||||||||||||||||||||||||||||MET071METAR KCPU 192015Z AUTO 35005KT 10SM CLR 28/09 A3002 RMK AO2 T02810092=||F||223|ICAO-KCPU
USI0000KCPU|CALAVERAS CO MAURY RASMUSSEN F|2023|05|19|20|35|38.1461|-120.6482|403.9|28.3||1|FM15-METAR|223|ICAO-KCPU|10.0||1|FM15-METAR|223|ICAO-KCPU|||||||||||||350|N-Normal|1|FM15-METAR|223|ICAO-KCPU|1.5|N-Normal|1|FM15-METAR|223|ICAO-KCPU|||||||||||||32|Derived||FM15-METAR|223|ICAO-KCPU|||||||||||||||||||||||||||||||||||||||||||||||||||||||||||||||||||||||||1016.6||1|FM15-METAR|223|ICAO-KCPU|||||||||||||||||||||||||||||||||||||||||||MET071METAR KCPU 192035Z AUTO 35003KT 10SM CLR 28/10 A3002 RMK AO2 T02830100=||F||223|ICAO-KCPU
USI0000KCPU|CALAVERAS CO MAURY RASMUSSEN F|2023|05|19|20|55|38.1461|-120.6482|403.9|28.9||1|FM15-METAR|223|ICAO-KCPU|10.2||1|FM15-METAR|223|ICAO-KCPU|||||||||||||360|N-Normal|1|FM15-METAR|223|ICAO-KCPU|1.5|N-Normal|1|FM15-METAR|223|ICAO-KCPU|||||||||||||31|Derived||FM15-METAR|223|ICAO-KCPU|||||||||||||||||||||||||||||||||||||||||||||||||||||||||||||||||||||||||1016.6||1|FM15-METAR|223|ICAO-KCPU|||||||||||||||||||||||||||||||||||||||||||MET071METAR KCPU 192055Z AUTO 36003KT 10SM CLR 29/10 A3002 RMK AO2 T02890102=||F||223|ICAO-KCPU
USI0000KCPU|CALAVERAS CO MAURY RASMUSSEN F|2023|05|19|21|15|38.1461|-120.6482|403.9|29.0||1|FM15-METAR|223|ICAO-KCPU|10.1||1|FM15-METAR|223|ICAO-KCPU|||||||||||||340|N-Normal|1|FM15-METAR|223|ICAO-KCPU|1.5|N-Normal|1|FM15-METAR|223|ICAO-KCPU|||||||||||||31|Derived||FM15-METAR|223|ICAO-KCPU|||||||||||||||||||||||||||||||||||||||||||||||||||||||||||||||||||||||||1016.6||1|FM15-METAR|223|ICAO-KCPU|||||||||||||||||||||||||||||||||||||||||||MET071METAR KCPU 192115Z AUTO 34003KT 10SM CLR 29/10 A3002 RMK AO2 T02900101=||F||223|ICAO-KCPU
USI0000KCPU|CALAVERAS CO MAURY RASMUSSEN F|2023|05|19|21|35|38.1461|-120.6482|403.9|29.0||1|FM15-METAR|223|ICAO-KCPU|9.8||1|FM15-METAR|223|ICAO-KCPU|||||||||||||360|N-Normal|1|FM15-METAR|223|ICAO-KCPU|2.1|N-Normal|1|FM15-METAR|223|ICAO-KCPU|||||||||||||30|Derived||FM15-METAR|223|ICAO-KCPU|||||||||||||||||||||||||||||||||||||||||||||||||||||||||||||||||||||||||1016.3||1|FM15-METAR|223|ICAO-KCPU|||||||||||||||||||||||||||||||||||||||||||MET071METAR KCPU 192135Z AUTO 36004KT 10SM CLR 29/10 A3001 RMK AO2 T02900098=||F||223|ICAO-KCPU
USI0000KCPU|CALAVERAS CO MAURY RASMUSSEN F|2023|05|19|21|55|38.1461|-120.6482|403.9|29.6||1|FM15-METAR|223|ICAO-KCPU|9.8||1|FM15-METAR|223|ICAO-KCPU|||||||||||||340|N-Normal|1|FM15-METAR|223|ICAO-KCPU|2.1|N-Normal|1|FM15-METAR|223|ICAO-KCPU|||||||||||||29|Derived||FM15-METAR|223|ICAO-KCPU|||||||||||||||||||||||||||||||||||||||||||||||||||||||||||||||||||||||||1016.3||1|FM15-METAR|223|ICAO-KCPU|||||||||||||||||||||||||||||||||||||||||||MET071METAR KCPU 192155Z AUTO 34004KT 10SM CLR 30/10 A3001 RMK AO2 T02960098=||F||223|ICAO-KCPU
USI0000KCPU|CALAVERAS CO MAURY RASMUSSEN F|2023|05|19|22|15|38.1461|-120.6482|403.9|29.9||1|FM15-METAR|223|ICAO-KCPU|9.0||1|FM15-METAR|223|ICAO-KCPU|||||||||||||350|N-Normal|1|FM15-METAR|223|ICAO-KCPU|2.1|N-Normal|1|FM15-METAR|223|ICAO-KCPU|||||||||||||27|Derived||FM15-METAR|223|ICAO-KCPU|||||||||||||||||||||||||||||||||||||||||||||||||||||||||||||||||||||||||1016.3||1|FM15-METAR|223|ICAO-KCPU|||||||||||||||||||||||||||||||||||||||||||MET071METAR KCPU 192215Z AUTO 35004KT 10SM CLR 30/09 A3001 RMK AO2 T02990090=||F||223|ICAO-KCPU
USI0000KCPU|CALAVERAS CO MAURY RASMUSSEN F|2023|05|19|22|35|38.1461|-120.6482|403.9|29.8||1|FM15-METAR|223|ICAO-KCPU|8.5||1|FM15-METAR|223|ICAO-KCPU|||||||||||||330|N-Normal|1|FM15-METAR|223|ICAO-KCPU|3.1|N-Normal|1|FM15-METAR|223|ICAO-KCPU|||||||||||||26|Derived||FM15-METAR|223|ICAO-KCPU|||||||||||||||||||||||||||||||||||||||||||||||||||||||||||||||||||||||||1016.3||1|FM15-METAR|223|ICAO-KCPU|||||||||||||||||||||||||||||||||||||||||||MET068METAR KCPU 192235Z AUTO 33006KT 30/09 A3001 RMK AO2 T02980085 PWINO=||F||223|ICAO-KCPU
USI0000KCPU|CALAVERAS CO MAURY RASMUSSEN F|2023|05|19|22|55|38.1461|-120.6482|403.9|30.1||1|FM15-METAR|223|ICAO-KCPU|7.7||1|FM15-METAR|223|ICAO-KCPU|||||||||||||310|N-Normal|1|FM15-METAR|223|ICAO-KCPU|3.1|N-Normal|1|FM15-METAR|223|ICAO-KCPU|||||||||||||25|Derived||FM15-METAR|223|ICAO-KCPU|||||||||||||||||||||||||||||||||||||||||||||||||||||||||||||||||||||||||1015.9||1|FM15-METAR|223|ICAO-KCPU|||||||||||||||||||||||||||||||||||||||||||MET067METAR KCPU 192255Z AUTO 31006KT 10SM 30/08 A3000 RMK AO2 T03010077=||F||223|ICAO-KCPU
USI0000KCPU|CALAVERAS CO MAURY RASMUSSEN F|2023|05|19|23|15|38.1461|-120.6482|403.9|29.6||1|FM15-METAR|223|ICAO-KCPU|8.3||1|FM15-METAR|223|ICAO-KCPU|||||||||||||270|N-Normal|1|FM15-METAR|223|ICAO-KCPU|2.1|N-Normal|1|FM15-METAR|223|ICAO-KCPU|||||||||||||26|Derived||FM15-METAR|223|ICAO-KCPU|||||||||||||||||||||||||||||||||||||||||||||||||||||||||||||||||||||||||1015.9||1|FM15-METAR|223|ICAO-KCPU|||||||||||||||||||||||||||||||||||||||||||MET071METAR KCPU 192315Z AUTO 27004KT 10SM CLR 30/08 A3000 RMK AO2 T02960083=||F||223|ICAO-KCPU
USI0000KCPU|CALAVERAS CO MAURY RASMUSSEN F|2023|05|19|23|35|38.1461|-120.6482|403.9|29.9||1|FM15-METAR|223|ICAO-KCPU|8.5||1|FM15-METAR|223|ICAO-KCPU|||||||||||||320|N-Normal|1|FM15-METAR|223|ICAO-KCPU|2.6|N-Normal|1|FM15-METAR|223|ICAO-KCPU|||||||||||||26|Derived||FM15-METAR|223|ICAO-KCPU|||||||||||||||||||||||||||||||||||||||||||||||||||||||||||||||||||||||||1015.9||1|FM15-METAR|223|ICAO-KCPU|||||||||||||||||||||||||||||||||||||||||||MET071METAR KCPU 192335Z AUTO 32005KT 10SM CLR 30/09 A3000 RMK AO2 T02990085=||F||223|ICAO-KCPU
USI0000KCPU|CALAVERAS CO MAURY RASMUSSEN F|2023|05|19|23|55|38.1461|-120.6482|403.9|29.7||1|FM15-METAR|223|ICAO-KCPU|9.6||1|FM15-METAR|223|ICAO-KCPU|||||||||||||340|N-Normal|1|FM15-METAR|223|ICAO-KCPU|3.1|N-Normal|1|FM15-METAR|223|ICAO-KCPU|||||||||||||29|Derived||FM15-METAR|223|ICAO-KCPU|||||||||||||||||||||||||||||||||||||||||||||||||||||||||||||||||||||||||1015.9||1|FM15-METAR|223|ICAO-KCPU|||||||||||||||||||||||||||||||||||||||||||MET083METAR KCPU 192355Z AUTO 34006KT 10SM CLR 30/10 A3000 RMK AO2 T02970096 10302 20249=||F||223|ICAO-KCPU
USI0000KCPU|CALAVERAS CO MAURY RASMUSSEN F|2023|05|20|00|15|38.1461|-120.6482|403.9|29.2||1|FM15-METAR|223|ICAO-KCPU|9.4||1|FM15-METAR|223|ICAO-KCPU|||||||||||||320|N-Normal|1|FM15-METAR|223|ICAO-KCPU|2.1|N-Normal|1|FM15-METAR|223|ICAO-KCPU|||||||||||||29|Derived||FM15-METAR|223|ICAO-KCPU|||||||||||||||||||||||||||||||||||||||||||||||||||||||||||||||||||||||||1015.9||1|FM15-METAR|223|ICAO-KCPU|||||||||||||||||||||||||||||||||||||||||||MET071METAR KCPU 200015Z AUTO 32004KT 10SM CLR 29/09 A3000 RMK AO2 T02920094=||F||223|ICAO-KCPU
USI0000KCPU|CALAVERAS CO MAURY RASMUSSEN F|2023|05|20|00|35|38.1461|-120.6482|403.9|29.2||1|FM15-METAR|223|ICAO-KCPU|7.3||1|FM15-METAR|223|ICAO-KCPU|||||||||||||330|N-Normal|1|FM15-METAR|223|ICAO-KCPU|3.1|N-Normal|1|FM15-METAR|223|ICAO-KCPU|||||||||||||25|Derived||FM15-METAR|223|ICAO-KCPU|||||||||||||||||||||||||||||||||||||||||||||||||||||||||||||||||||||||||1015.9||1|FM15-METAR|223|ICAO-KCPU|||||||||||||||||||||||||||||||||||||||||||MET071METAR KCPU 200035Z AUTO 33006KT 10SM CLR 29/07 A3000 RMK AO2 T02920073=||F||223|ICAO-KCPU
USI0000KCPU|CALAVERAS CO MAURY RASMUSSEN F|2023|05|20|00|55|38.1461|-120.6482|403.9|29.0||1|FM15-METAR|223|ICAO-KCPU|6.2||1|FM15-METAR|223|ICAO-KCPU|||||||||||||330|N-Normal|1|FM15-METAR|223|ICAO-KCPU|2.6|N-Normal|1|FM15-METAR|223|ICAO-KCPU|||||||||||||24|Derived||FM15-METAR|223|ICAO-KCPU|||||||||||||||||||||||||||||||||||||||||||||||||||||||||||||||||||||||||1015.9||1|FM15-METAR|223|ICAO-KCPU|||||||||||||||||||||||||||||||||||||||||||MET071METAR KCPU 200055Z AUTO 33005KT 10SM CLR 29/06 A3000 RMK AO2 T02900062=||F||223|ICAO-KCPU
USI0000KCPU|CALAVERAS CO MAURY RASMUSSEN F|2023|05|20|01|15|38.1461|-120.6482|403.9|28.6||1|FM15-METAR|223|ICAO-KCPU|9.2||1|FM15-METAR|223|ICAO-KCPU|||||||||||||320|N-Normal|1|FM15-METAR|223|ICAO-KCPU|2.1|N-Normal|1|FM15-METAR|223|ICAO-KCPU|||||||||||||30|Derived||FM15-METAR|223|ICAO-KCPU|||||||||||||||||||||||||||||||||||||||||||||||||||||||||||||||||||||||||1015.6||1|FM15-METAR|223|ICAO-KCPU|||||||||||||||||||||||||||||||||||||||||||MET071METAR KCPU 200115Z AUTO 32004KT 10SM CLR 29/09 A2999 RMK AO2 T02860092=||F||223|ICAO-KCPU
USI0000KCPU|CALAVERAS CO MAURY RASMUSSEN F|2023|05|20|01|35|38.1461|-120.6482|403.9|28.0||1|FM15-METAR|223|ICAO-KCPU|11.5||1|FM15-METAR|223|ICAO-KCPU|||||||||||||330|N-Normal|1|FM15-METAR|223|ICAO-KCPU|2.6|N-Normal|1|FM15-METAR|223|ICAO-KCPU|||||||||||||36|Derived||FM15-METAR|223|ICAO-KCPU|||||||||||||||||||||||||||||||||||||||||||||||||||||||||||||||||||||||||1015.6||1|FM15-METAR|223|ICAO-KCPU|||||||||||||||||||||||||||||||||||||||||||MET071METAR KCPU 200135Z AUTO 33005KT 10SM CLR 28/12 A2999 RMK AO2 T02800115=||F||223|ICAO-KCPU
USI0000KCPU|CALAVERAS CO MAURY RASMUSSEN F|2023|05|20|01|55|38.1461|-120.6482|403.9|27.5||1|FM15-METAR|223|ICAO-KCPU|11.7||1|FM15-METAR|223|ICAO-KCPU|||||||||||||320|N-Normal|1|FM15-METAR|223|ICAO-KCPU|2.6|N-Normal|1|FM15-METAR|223|ICAO-KCPU|||||||||||||37|Derived||FM15-METAR|223|ICAO-KCPU|||||||||||||||||||||||||||||||||||||||||||||||||||||||||||||||||||||||||1015.6||1|FM15-METAR|223|ICAO-KCPU|||||||||||||||||||||||||||||||||||||||||||MET071METAR KCPU 200155Z AUTO 32005KT 10SM CLR 28/12 A2999 RMK AO2 T02750117=||F||223|ICAO-KCPU
USI0000KCPU|CALAVERAS CO MAURY RASMUSSEN F|2023|05|20|02|15|38.1461|-120.6482|403.9|27.0||1|FM15-METAR|223|ICAO-KCPU|11.7||1|FM15-METAR|223|ICAO-KCPU|||||||||||||999|C-Calm|9|FM15-METAR|223|ICAO-KCPU|0.0|C-Calm|1|FM15-METAR|223|ICAO-KCPU|||||||||||||39|Derived||FM15-METAR|223|ICAO-KCPU|||||||||||||||||||||||||||||||||||||||||||||||||||||||||||||||||||||||||1015.9||1|FM15-METAR|223|ICAO-KCPU|||||||||||||||||||||||||||||||||||||||||||MET071METAR KCPU 200215Z AUTO 00000KT 10SM CLR 27/12 A3000 RMK AO2 T02700117=||F||223|ICAO-KCPU
USI0000KCPU|CALAVERAS CO MAURY RASMUSSEN F|2023|05|20|02|55|38.1461|-120.6482|403.9|24.2||1|FM15-METAR|223|ICAO-KCPU|11.7||1|FM15-METAR|223|ICAO-KCPU|||||||||||||340|N-Normal|1|FM15-METAR|223|ICAO-KCPU|1.5|N-Normal|1|FM15-METAR|223|ICAO-KCPU|||||||||||||46|Derived||FM15-METAR|223|ICAO-KCPU|||||||||||||||||||||||||||||||||||||||||||||||||||||||||||||||||||||||||1015.6||1|FM15-METAR|223|ICAO-KCPU|||||||||||||||||||||||||||||||||||||||||||MET071METAR KCPU 200255Z AUTO 34003KT 10SM CLR 24/12 A2999 RMK AO2 T02420117=||F||223|ICAO-KCPU
USI0000KCPU|CALAVERAS CO MAURY RASMUSSEN F|2023|05|20|03|15|38.1461|-120.6482|403.9|22.9||1|FM15-METAR|223|ICAO-KCPU|11.5||1|FM15-METAR|223|ICAO-KCPU|||||||||||||360|N-Normal|1|FM15-METAR|223|ICAO-KCPU|1.5|N-Normal|1|FM15-METAR|223|ICAO-KCPU|||||||||||||49|Derived||FM15-METAR|223|ICAO-KCPU|||||||||||||||||||||||||||||||||||||||||||||||||||||||||||||||||||||||||1015.9||1|FM15-METAR|223|ICAO-KCPU|||||||||||||||||||||||||||||||||||||||||||MET071METAR KCPU 200315Z AUTO 36003KT 10SM CLR 23/12 A3000 RMK AO2 T02290115=||F||223|ICAO-KCPU
USI0000KCPU|CALAVERAS CO MAURY RASMUSSEN F|2023|05|20|03|35|38.1461|-120.6482|403.9|22.5||1|FM15-METAR|223|ICAO-KCPU|11.3||1|FM15-METAR|223|ICAO-KCPU|||||||||||||340|N-Normal|1|FM15-METAR|223|ICAO-KCPU|2.1|N-Normal|1|FM15-METAR|223|ICAO-KCPU|||||||||||||49|Derived||FM15-METAR|223|ICAO-KCPU|||||||||||||||||||||||||||||||||||||||||||||||||||||||||||||||||||||||||1016.3||1|FM15-METAR|223|ICAO-KCPU|||||||||||||||||||||||||||||||||||||||||||MET071METAR KCPU 200335Z AUTO 34004KT 10SM CLR 23/11 A3001 RMK AO2 T02250113=||F||223|ICAO-KCPU
USI0000KCPU|CALAVERAS CO MAURY RASMUSSEN F|2023|05|20|03|55|38.1461|-120.6482|403.9|21.9||1|FM15-METAR|223|ICAO-KCPU|11.1||1|FM15-METAR|223|ICAO-KCPU|||||||||||||340|N-Normal|1|FM15-METAR|223|ICAO-KCPU|1.5|N-Normal|1|FM15-METAR|223|ICAO-KCPU|||||||||||||50|Derived||FM15-METAR|223|ICAO-KCPU|||||||||||||||||||||||||||||||||||||||||||||||||||||||||||||||||||||||||1016.6||1|FM15-METAR|223|ICAO-KCPU|||||||||||||||||||||||||||||||||||||||||||MET071METAR KCPU 200355Z AUTO 34003KT 10SM CLR 22/11 A3002 RMK AO2 T02190111=||F||223|ICAO-KCPU
USI0000KCPU|CALAVERAS CO MAURY RASMUSSEN F|2023|05|20|04|15|38.1461|-120.6482|403.9|21.1||1|FM15-METAR|223|ICAO-KCPU|10.8||1|FM15-METAR|223|ICAO-KCPU|||||||||||||999|C-Calm|9|FM15-METAR|223|ICAO-KCPU|0.0|C-Calm|1|FM15-METAR|223|ICAO-KCPU|||||||||||||52|Derived||FM15-METAR|223|ICAO-KCPU|||||||||||||||||||||||||||||||||||||||||||||||||||||||||||||||||||||||||1016.6||1|FM15-METAR|223|ICAO-KCPU|||||||||||||||||||||||||||||||||||||||||||MET071METAR KCPU 200415Z AUTO 00000KT 10SM CLR 21/11 A3002 RMK AO2 T02110108=||F||223|ICAO-KCPU
USI0000KCPU|CALAVERAS CO MAURY RASMUSSEN F|2023|05|20|04|35|38.1461|-120.6482|403.9|20.6||1|FM15-METAR|223|ICAO-KCPU|10.6||1|FM15-METAR|223|ICAO-KCPU|||||||||||||999|C-Calm|9|FM15-METAR|223|ICAO-KCPU|0.0|C-Calm|1|FM15-METAR|223|ICAO-KCPU|||||||||||||53|Derived||FM15-METAR|223|ICAO-KCPU|||||||||||||||||||||||||||||||||||||||||||||||||||||||||||||||||||||||||1016.9||1|FM15-METAR|223|ICAO-KCPU|||||||||||||||||||||||||||||||||||||||||||MET071METAR KCPU 200435Z AUTO 00000KT 10SM CLR 21/11 A3003 RMK AO2 T02060106=||F||223|ICAO-KCPU
USI0000KCPU|CALAVERAS CO MAURY RASMUSSEN F|2023|05|20|04|55|38.1461|-120.6482|403.9|20.2||1|FM15-METAR|223|ICAO-KCPU|10.6||1|FM15-METAR|223|ICAO-KCPU|||||||||||||999|C-Calm|9|FM15-METAR|223|ICAO-KCPU|0.0|C-Calm|1|FM15-METAR|223|ICAO-KCPU|||||||||||||54|Derived||FM15-METAR|223|ICAO-KCPU|||||||||||||||||||||||||||||||||||||||||||||||||||||||||||||||||||||||||1016.9||1|FM15-METAR|223|ICAO-KCPU|||||||||||||||||||||||||||||||||||||||||||MET071METAR KCPU 200455Z AUTO 00000KT 10SM CLR 20/11 A3003 RMK AO2 T02020106=||F||223|ICAO-KCPU
USI0000KCPU|CALAVERAS CO MAURY RASMUSSEN F|2023|05|20|05|15|38.1461|-120.6482|403.9|19.8||1|FM15-METAR|223|ICAO-KCPU|10.7||1|FM15-METAR|223|ICAO-KCPU|||||||||||||999|C-Calm|9|FM15-METAR|223|ICAO-KCPU|0.0|C-Calm|1|FM15-METAR|223|ICAO-KCPU|||||||||||||56|Derived||FM15-METAR|223|ICAO-KCPU|||||||||||||||||||||||||||||||||||||||||||||||||||||||||||||||||||||||||1016.9||1|FM15-METAR|223|ICAO-KCPU|||||||||||||||||||||||||||||||||||||||||||MET071METAR KCPU 200515Z AUTO 00000KT 10SM CLR 20/11 A3003 RMK AO2 T01980107=||F||223|ICAO-KCPU
USI0000KCPU|CALAVERAS CO MAURY RASMUSSEN F|2023|05|20|05|35|38.1461|-120.6482|403.9|19.7||1|FM15-METAR|223|ICAO-KCPU|10.0||1|FM15-METAR|223|ICAO-KCPU|||||||||||||999|C-Calm|9|FM15-METAR|223|ICAO-KCPU|0.0|C-Calm|1|FM15-METAR|223|ICAO-KCPU|||||||||||||54|Derived||FM15-METAR|223|ICAO-KCPU|||||||||||||||||||||||||||||||||||||||||||||||||||||||||||||||||||||||||1017.3||1|FM15-METAR|223|ICAO-KCPU|||||||||||||||||||||||||||||||||||||||||||MET071METAR KCPU 200535Z AUTO 00000KT 10SM CLR 20/10 A3004 RMK AO2 T01970100=||F||223|ICAO-KCPU
USI0000KCPU|CALAVERAS CO MAURY RASMUSSEN F|2023|05|20|05|55|38.1461|-120.6482|403.9|19.0||1|FM15-METAR|223|ICAO-KCPU|10.0||1|FM15-METAR|223|ICAO-KCPU|||||||||||||999|C-Calm|9|FM15-METAR|223|ICAO-KCPU|0.0|C-Calm|1|FM15-METAR|223|ICAO-KCPU|||||||||||||56|Derived||FM15-METAR|223|ICAO-KCPU|||||||||||||||||||||||||||||||||||||||||||||||||||||||||||||||||||||||||1017.3||1|FM15-METAR|223|ICAO-KCPU|||||||||||||||||||||||||||||||||||||||||||MET083METAR KCPU 200555Z AUTO 00000KT 10SM CLR 19/10 A3004 RMK AO2 T01900100 10295 20190=||F||223|ICAO-KCPU
USI0000KCPU|CALAVERAS CO MAURY RASMUSSEN F|2023|05|20|06|15|38.1461|-120.6482|403.9|18.8||1|FM15-METAR|223|ICAO-KCPU|9.9||1|FM15-METAR|223|ICAO-KCPU|||||||||||||999|C-Calm|9|FM15-METAR|223|ICAO-KCPU|0.0|C-Calm|1|FM15-METAR|223|ICAO-KCPU|||||||||||||56|Derived||FM15-METAR|223|ICAO-KCPU|||||||||||||||||||||||||||||||||||||||||||||||||||||||||||||||||||||||||1017.3||1|FM15-METAR|223|ICAO-KCPU|||||||||||||||||||||||||||||||||||||||||||MET071METAR KCPU 200615Z AUTO 00000KT 10SM CLR 19/10 A3004 RMK AO2 T01880099=||F||223|ICAO-KCPU
USI0000KCPU|CALAVERAS CO MAURY RASMUSSEN F|2023|05|20|06|35|38.1461|-120.6482|403.9|18.4||1|FM15-METAR|223|ICAO-KCPU|10.3||1|FM15-METAR|223|ICAO-KCPU|||||||||||||320|N-Normal|1|FM15-METAR|223|ICAO-KCPU|2.1|N-Normal|1|FM15-METAR|223|ICAO-KCPU|||||||||||||59|Derived||FM15-METAR|223|ICAO-KCPU|||||||||||||||||||||||||||||||||||||||||||||||||||||||||||||||||||||||||1017.3||1|FM15-METAR|223|ICAO-KCPU|||||||||||||||||||||||||||||||||||||||||||MET071METAR KCPU 200635Z AUTO 32004KT 10SM CLR 18/10 A3004 RMK AO2 T01840103=||F||223|ICAO-KCPU
USI0000KCPU|CALAVERAS CO MAURY RASMUSSEN F|2023|05|20|06|55|38.1461|-120.6482|403.9|17.8||1|FM15-METAR|223|ICAO-KCPU|10.2||1|FM15-METAR|223|ICAO-KCPU|||||||||||||999|C-Calm|9|FM15-METAR|223|ICAO-KCPU|0.0|C-Calm|1|FM15-METAR|223|ICAO-KCPU|||||||||||||61|Derived||FM15-METAR|223|ICAO-KCPU|||||||||||||||||||||||||||||||||||||||||||||||||||||||||||||||||||||||||1017.3||1|FM15-METAR|223|ICAO-KCPU|||||||||||||||||||||||||||||||||||||||||||MET071METAR KCPU 200655Z AUTO 00000KT 10SM CLR 18/10 A3004 RMK AO2 T01780102=||F||223|ICAO-KCPU
USI0000KCPU|CALAVERAS CO MAURY RASMUSSEN F|2023|05|20|07|15|38.1461|-120.6482|403.9|16.9||1|FM15-METAR|223|ICAO-KCPU|10.4||1|FM15-METAR|223|ICAO-KCPU|||||||||||||999|C-Calm|9|FM15-METAR|223|ICAO-KCPU|0.0|C-Calm|1|FM15-METAR|223|ICAO-KCPU|||||||||||||66|Derived||FM15-METAR|223|ICAO-KCPU|||||||||||||||||||||||||||||||||||||||||||||||||||||||||||||||||||||||||1017.3||1|FM15-METAR|223|ICAO-KCPU|||||||||||||||||||||||||||||||||||||||||||MET071METAR KCPU 200715Z AUTO 00000KT 10SM CLR 17/10 A3004 RMK AO2 T01690104=||F||223|ICAO-KCPU
USI0000KCPU|CALAVERAS CO MAURY RASMUSSEN F|2023|05|20|07|35|38.1461|-120.6482|403.9|17.0||1|FM15-METAR|223|ICAO-KCPU|9.7||1|FM15-METAR|223|ICAO-KCPU|||||||||||||999|C-Calm|9|FM15-METAR|223|ICAO-KCPU|0.0|C-Calm|1|FM15-METAR|223|ICAO-KCPU|||||||||||||62|Derived||FM15-METAR|223|ICAO-KCPU|||||||||||||||||||||||||||||||||||||||||||||||||||||||||||||||||||||||||1017.3||1|FM15-METAR|223|ICAO-KCPU|||||||||||||||||||||||||||||||||||||||||||MET071METAR KCPU 200735Z AUTO 00000KT 10SM CLR 17/10 A3004 RMK AO2 T01700097=||F||223|ICAO-KCPU
USI0000KCPU|CALAVERAS CO MAURY RASMUSSEN F|2023|05|20|07|55|38.1461|-120.6482|403.9|17.0||1|FM15-METAR|223|ICAO-KCPU|9.0||1|FM15-METAR|223|ICAO-KCPU|||||||||||||999|C-Calm|9|FM15-METAR|223|ICAO-KCPU|0.0|C-Calm|1|FM15-METAR|223|ICAO-KCPU|||||||||||||59|Derived||FM15-METAR|223|ICAO-KCPU|||||||||||||||||||||||||||||||||||||||||||||||||||||||||||||||||||||||||1017.3||1|FM15-METAR|223|ICAO-KCPU|||||||||||||||||||||||||||||||||||||||||||MET081METAR KCPU 200755Z AUTO 00000KT 10SM CLR 17/09 A3004 RMK AO2 T01700090 403020121=||F||223|ICAO-KCPU
USI0000KCPU|CALAVERAS CO MAURY RASMUSSEN F|2023|05|20|08|15|38.1461|-120.6482|403.9|16.0||1|FM15-METAR|223|ICAO-KCPU|10.2||1|FM15-METAR|223|ICAO-KCPU|||||||||||||999|C-Calm|9|FM15-METAR|223|ICAO-KCPU|0.0|C-Calm|1|FM15-METAR|223|ICAO-KCPU|||||||||||||69|Derived||FM15-METAR|223|ICAO-KCPU|||||||||||||||||||||||||||||||||||||||||||||||||||||||||||||||||||||||||1017.3||1|FM15-METAR|223|ICAO-KCPU|||||||||||||||||||||||||||||||||||||||||||MET071METAR KCPU 200815Z AUTO 00000KT 10SM CLR 16/10 A3004 RMK AO2 T01600102=||F||223|ICAO-KCPU
USI0000KCPU|CALAVERAS CO MAURY RASMUSSEN F|2023|05|20|08|35|38.1461|-120.6482|403.9|15.5||1|FM15-METAR|223|ICAO-KCPU|11.0||1|FM15-METAR|223|ICAO-KCPU|||||||||||||999|C-Calm|9|FM15-METAR|223|ICAO-KCPU|0.0|C-Calm|1|FM15-METAR|223|ICAO-KCPU|||||||||||||75|Derived||FM15-METAR|223|ICAO-KCPU|||||||||||||||||||||||||||||||||||||||||||||||||||||||||||||||||||||||||1017.3||1|FM15-METAR|223|ICAO-KCPU|||||||||||||||||||||||||||||||||||||||||||MET071METAR KCPU 200835Z AUTO 00000KT 10SM CLR 16/11 A3004 RMK AO2 T01550110=||F||223|ICAO-KCPU
USI0000KCPU|CALAVERAS CO MAURY RASMUSSEN F|2023|05|20|08|55|38.1461|-120.6482|403.9|15.4||1|FM15-METAR|223|ICAO-KCPU|10.5||1|FM15-METAR|223|ICAO-KCPU|||||||||||||999|C-Calm|9|FM15-METAR|223|ICAO-KCPU|0.0|C-Calm|1|FM15-METAR|223|ICAO-KCPU|||||||||||||73|Derived||FM15-METAR|223|ICAO-KCPU|||||||||||||||||||||||||||||||||||||||||||||||||||||||||||||||||||||||||1017.3||1|FM15-METAR|223|ICAO-KCPU|||||||||||||||||||||||||||||||||||||||||||MET071METAR KCPU 200855Z AUTO 00000KT 10SM CLR 15/11 A3004 RMK AO2 T01540105=||F||223|ICAO-KCPU
USI0000KCPU|CALAVERAS CO MAURY RASMUSSEN F|2023|05|20|09|15|38.1461|-120.6482|403.9|15.6||1|FM15-METAR|223|ICAO-KCPU|10.5||1|FM15-METAR|223|ICAO-KCPU|||||||||||||999|C-Calm|9|FM15-METAR|223|ICAO-KCPU|0.0|C-Calm|1|FM15-METAR|223|ICAO-KCPU|||||||||||||72|Derived||FM15-METAR|223|ICAO-KCPU|||||||||||||||||||||||||||||||||||||||||||||||||||||||||||||||||||||||||1017.3||1|FM15-METAR|223|ICAO-KCPU|||||||||||||||||||||||||||||||||||||||||||MET071METAR KCPU 200915Z AUTO 00000KT 10SM CLR 16/11 A3004 RMK AO2 T01560105=||F||223|ICAO-KCPU
USI0000KCPU|CALAVERAS CO MAURY RASMUSSEN F|2023|05|20|09|35|38.1461|-120.6482|403.9|14.3||1|FM15-METAR|223|ICAO-KCPU|10.8||1|FM15-METAR|223|ICAO-KCPU|||||||||||||999|C-Calm|9|FM15-METAR|223|ICAO-KCPU|0.0|C-Calm|1|FM15-METAR|223|ICAO-KCPU|||||||||||||80|Derived||FM15-METAR|223|ICAO-KCPU|||||||||||||||||||||||||||||||||||||||||||||||||||||||||||||||||||||||||1017.3||1|FM15-METAR|223|ICAO-KCPU|||||||||||||||||||||||||||||||||||||||||||MET071METAR KCPU 200935Z AUTO 00000KT 10SM CLR 14/11 A3004 RMK AO2 T01430108=||F||223|ICAO-KCPU
USI0000KCPU|CALAVERAS CO MAURY RASMUSSEN F|2023|05|20|09|55|38.1461|-120.6482|403.9|14.4||1|FM15-METAR|223|ICAO-KCPU|10.7||1|FM15-METAR|223|ICAO-KCPU|||||||||||||999|C-Calm|9|FM15-METAR|223|ICAO-KCPU|0.0|C-Calm|1|FM15-METAR|223|ICAO-KCPU|||||||||||||79|Derived||FM15-METAR|223|ICAO-KCPU|||||||||||||||||||||||||||||||||||||||||||||||||||||||||||||||||||||||||1016.9||1|FM15-METAR|223|ICAO-KCPU|||||||||||||||||||||||||||||||||||||||||||MET071METAR KCPU 200955Z AUTO 00000KT 10SM CLR 14/11 A3003 RMK AO2 T01440107=||F||223|ICAO-KCPU
USI0000KCPU|CALAVERAS CO MAURY RASMUSSEN F|2023|05|20|10|15|38.1461|-120.6482|403.9|14.1||1|FM15-METAR|223|ICAO-KCPU|11.1||1|FM15-METAR|223|ICAO-KCPU|||||||||||||999|C-Calm|9|FM15-METAR|223|ICAO-KCPU|0.0|C-Calm|1|FM15-METAR|223|ICAO-KCPU|||||||||||||82|Derived||FM15-METAR|223|ICAO-KCPU|||||||||||||||||||||||||||||||||||||||||||||||||||||||||||||||||||||||||1016.9||1|FM15-METAR|223|ICAO-KCPU|||||||||||||||||||||||||||||||||||||||||||MET071METAR KCPU 201015Z AUTO 00000KT 10SM CLR 14/11 A3003 RMK AO2 T01410111=||F||223|ICAO-KCPU
USI0000KCPU|CALAVERAS CO MAURY RASMUSSEN F|2023|05|20|10|35|38.1461|-120.6482|403.9|13.5||1|FM15-METAR|223|ICAO-KCPU|10.7||1|FM15-METAR|223|ICAO-KCPU|||||||||||||999|C-Calm|9|FM15-METAR|223|ICAO-KCPU|0.0|C-Calm|1|FM15-METAR|223|ICAO-KCPU|||||||||||||83|Derived||FM15-METAR|223|ICAO-KCPU|||||||||||||||||||||||||||||||||||||||||||||||||||||||||||||||||||||||||1016.9||1|FM15-METAR|223|ICAO-KCPU|||||||||||||||||||||||||||||||||||||||||||MET071METAR KCPU 201035Z AUTO 00000KT 10SM CLR 14/11 A3003 RMK AO2 T01350107=||F||223|ICAO-KCPU
USI0000KCPU|CALAVERAS CO MAURY RASMUSSEN F|2023|05|20|10|55|38.1461|-120.6482|403.9|14.0||1|FM15-METAR|223|ICAO-KCPU|10.6||1|FM15-METAR|223|ICAO-KCPU|||||||||||||999|C-Calm|9|FM15-METAR|223|ICAO-KCPU|0.0|C-Calm|1|FM15-METAR|223|ICAO-KCPU|||||||||||||80|Derived||FM15-METAR|223|ICAO-KCPU|||||||||||||||||||||||||||||||||||||||||||||||||||||||||||||||||||||||||1016.9||1|FM15-METAR|223|ICAO-KCPU|||||||||||||||||||||||||||||||||||||||||||MET071METAR KCPU 201055Z AUTO 00000KT 10SM CLR 14/11 A3003 RMK AO2 T01400106=||F||223|ICAO-KCPU
USI0000KCPU|CALAVERAS CO MAURY RASMUSSEN F|2023|05|20|11|15|38.1461|-120.6482|403.9|13.5||1|FM15-METAR|223|ICAO-KCPU|11.1||1|FM15-METAR|223|ICAO-KCPU|||||||||||||999|C-Calm|9|FM15-METAR|223|ICAO-KCPU|0.0|C-Calm|1|FM15-METAR|223|ICAO-KCPU|||||||||||||86|Derived||FM15-METAR|223|ICAO-KCPU|||||||||||||||||||||||||||||||||||||||||||||||||||||||||||||||||||||||||1016.9||1|FM15-METAR|223|ICAO-KCPU|||||||||||||||||||||||||||||||||||||||||||MET071METAR KCPU 201115Z AUTO 00000KT 10SM CLR 14/11 A3003 RMK AO2 T01350111=||F||223|ICAO-KCPU
USI0000KCPU|CALAVERAS CO MAURY RASMUSSEN F|2023|05|20|11|35|38.1461|-120.6482|403.9|13.4||1|FM15-METAR|223|ICAO-KCPU|11.2||1|FM15-METAR|223|ICAO-KCPU|||||||||||||999|C-Calm|9|FM15-METAR|223|ICAO-KCPU|0.0|C-Calm|1|FM15-METAR|223|ICAO-KCPU|||||||||||||87|Derived||FM15-METAR|223|ICAO-KCPU|||||||||||||||||||||||||||||||||||||||||||||||||||||||||||||||||||||||||1016.9||1|FM15-METAR|223|ICAO-KCPU|||||||||||||||||||||||||||||||||||||||||||MET071METAR KCPU 201135Z AUTO 00000KT 10SM CLR 13/11 A3003 RMK AO2 T01340112=||F||223|ICAO-KCPU
USI0000KCPU|CALAVERAS CO MAURY RASMUSSEN F|2023|05|20|11|55|38.1461|-120.6482|403.9|12.1||1|FM15-METAR|223|ICAO-KCPU|10.6||1|FM15-METAR|223|ICAO-KCPU|||||||||||||999|C-Calm|9|FM15-METAR|223|ICAO-KCPU|0.0|C-Calm|1|FM15-METAR|223|ICAO-KCPU|||||||||||||91|Derived||FM15-METAR|223|ICAO-KCPU|||||||||||||||||||||||||||||||||||||||||||||||||||||||||||||||||||||||||1017.3||1|FM15-METAR|223|ICAO-KCPU|||||||||||||||||||||||||||||||||||||||||||MET083METAR KCPU 201155Z AUTO 00000KT 10SM CLR 12/11 A3004 RMK AO2 T01210106 10192 20121=||F||223|ICAO-KCPU
USI0000KCPU|CALAVERAS CO MAURY RASMUSSEN F|2023|05|20|12|15|38.1461|-120.6482|403.9|13.4||1|FM15-METAR|223|ICAO-KCPU|10.9||1|FM15-METAR|223|ICAO-KCPU|||||||||||||999|C-Calm|9|FM15-METAR|223|ICAO-KCPU|0.0|C-Calm|1|FM15-METAR|223|ICAO-KCPU|||||||||||||85|Derived||FM15-METAR|223|ICAO-KCPU|||||||||||||||||||||||||||||||||||||||||||||||||||||||||||||||||||||||||1016.9||1|FM15-METAR|223|ICAO-KCPU|||||||||||||||||||||||||||||||||||||||||||MET071METAR KCPU 201215Z AUTO 00000KT 10SM CLR 13/11 A3003 RMK AO2 T01340109=||F||223|ICAO-KCPU
USI0000KCPU|CALAVERAS CO MAURY RASMUSSEN F|2023|05|20|12|35|38.1461|-120.6482|403.9|12.6||1|FM15-METAR|223|ICAO-KCPU|10.4||1|FM15-METAR|223|ICAO-KCPU|||||||||||||999|C-Calm|9|FM15-METAR|223|ICAO-KCPU|0.0|C-Calm|1|FM15-METAR|223|ICAO-KCPU|||||||||||||87|Derived||FM15-METAR|223|ICAO-KCPU|||||||||||||||||||||||||||||||||||||||||||||||||||||||||||||||||||||||||1017.3||1|FM15-METAR|223|ICAO-KCPU|||||||||||||||||||||||||||||||||||||||||||MET071METAR KCPU 201235Z AUTO 00000KT 10SM CLR 13/10 A3004 RMK AO2 T01260104=||F||223|ICAO-KCPU
USI0000KCPU|CALAVERAS CO MAURY RASMUSSEN F|2023|05|20|12|55|38.1461|-120.6482|403.9|12.7||1|FM15-METAR|223|ICAO-KCPU|10.8||1|FM15-METAR|223|ICAO-KCPU|||||||||||||999|C-Calm|9|FM15-METAR|223|ICAO-KCPU|0.0|C-Calm|1|FM15-METAR|223|ICAO-KCPU|||||||||||||88|Derived||FM15-METAR|223|ICAO-KCPU|||||||||||||||||||||||||||||||||||||||||||||||||||||||||||||||||||||||||1017.3||1|FM15-METAR|223|ICAO-KCPU|||||||||||||||||||||||||||||||||||||||||||MET071METAR KCPU 201255Z AUTO 00000KT 10SM CLR 13/11 A3004 RMK AO2 T01270108=||F||223|ICAO-KCPU
USI0000KCPU|CALAVERAS CO MAURY RASMUSSEN F|2023|05|20|13|15|38.1461|-120.6482|403.9|12.5||1|FM15-METAR|223|ICAO-KCPU|10.8||1|FM15-METAR|223|ICAO-KCPU|||||||||||||999|C-Calm|9|FM15-METAR|223|ICAO-KCPU|0.0|C-Calm|1|FM15-METAR|223|ICAO-KCPU|||||||||||||89|Derived||FM15-METAR|223|ICAO-KCPU|||||||||||||||||||||||||||||||||||||||||||||||||||||||||||||||||||||||||1017.6||1|FM15-METAR|223|ICAO-KCPU|||||||||||||||||||||||||||||||||||||||||||MET071METAR KCPU 201315Z AUTO 00000KT 10SM CLR 13/11 A3005 RMK AO2 T01250108=||F||223|ICAO-KCPU
USI0000KCPU|CALAVERAS CO MAURY RASMUSSEN F|2023|05|20|13|35|38.1461|-120.6482|403.9|12.5||1|FM15-METAR|223|ICAO-KCPU|10.8||1|FM15-METAR|223|ICAO-KCPU|||||||||||||999|C-Calm|9|FM15-METAR|223|ICAO-KCPU|0.0|C-Calm|1|FM15-METAR|223|ICAO-KCPU|||||||||||||89|Derived||FM15-METAR|223|ICAO-KCPU|||||||||||||||||||||||||||||||||||||||||||||||||||||||||||||||||||||||||1017.6||1|FM15-METAR|223|ICAO-KCPU|||||||||||||||||||||||||||||||||||||||||||MET071METAR KCPU 201335Z AUTO 00000KT 10SM CLR 13/11 A3005 RMK AO2 T01250108=||F||223|ICAO-KCPU
USI0000KCPU|CALAVERAS CO MAURY RASMUSSEN F|2023|05|20|13|55|38.1461|-120.6482|403.9|13.0||1|FM15-METAR|223|ICAO-KCPU|10.6||1|FM15-METAR|223|ICAO-KCPU|||||||||||||999|C-Calm|9|FM15-METAR|223|ICAO-KCPU|0.0|C-Calm|1|FM15-METAR|223|ICAO-KCPU|||||||||||||85|Derived||FM15-METAR|223|ICAO-KCPU|||||||||||||||||||||||||||||||||||||||||||||||||||||||||||||||||||||||||1017.9||1|FM15-METAR|223|ICAO-KCPU|||||||||||||||||||||||||||||||||||||||||||MET071METAR KCPU 201355Z AUTO 00000KT 10SM CLR 13/11 A3006 RMK AO2 T01300106=||F||223|ICAO-KCPU
USI0000KCPU|CALAVERAS CO MAURY RASMUSSEN F|2023|05|20|14|15|38.1461|-120.6482|403.9|14.3||1|FM15-METAR|223|ICAO-KCPU|11.1||1|FM15-METAR|223|ICAO-KCPU|||||||||||||999|C-Calm|9|FM15-METAR|223|ICAO-KCPU|0.0|C-Calm|1|FM15-METAR|223|ICAO-KCPU|||||||||||||81|Derived||FM15-METAR|223|ICAO-KCPU|||||||||||||||||||||||||||||||||||||||||||||||||||||||||||||||||||||||||1017.9||1|FM15-METAR|223|ICAO-KCPU|||||||||||||||||||||||||||||||||||||||||||MET071METAR KCPU 201415Z AUTO 00000KT 10SM CLR 14/11 A3006 RMK AO2 T01430111=||F||223|ICAO-KCPU
USI0000KCPU|CALAVERAS CO MAURY RASMUSSEN F|2023|05|20|14|35|38.1461|-120.6482|403.9|15.2||1|FM15-METAR|223|ICAO-KCPU|11.2||1|FM15-METAR|223|ICAO-KCPU|||||||||||||999|C-Calm|9|FM15-METAR|223|ICAO-KCPU|0.0|C-Calm|1|FM15-METAR|223|ICAO-KCPU|||||||||||||77|Derived||FM15-METAR|223|ICAO-KCPU|||||||||||||||||||||||||||||||||||||||||||||||||||||||||||||||||||||||||1018.3||1|FM15-METAR|223|ICAO-KCPU|||||||||||||||||||||||||||||||||||||||||||MET071METAR KCPU 201435Z AUTO 00000KT 10SM CLR 15/11 A3007 RMK AO2 T01520112=||F||223|ICAO-KCPU
USI0000KCPU|CALAVERAS CO MAURY RASMUSSEN F|2023|05|20|14|55|38.1461|-120.6482|403.9|15.8||1|FM15-METAR|223|ICAO-KCPU|11.1||1|FM15-METAR|223|ICAO-KCPU|||||||||||||999|C-Calm|9|FM15-METAR|223|ICAO-KCPU|0.0|C-Calm|1|FM15-METAR|223|ICAO-KCPU|||||||||||||74|Derived||FM15-METAR|223|ICAO-KCPU|||||||||||||||||||||||||||||||||||||||||||||||||||||||||||||||||||||||||1018.3||1|FM15-METAR|223|ICAO-KCPU|||||||||||||||||||||||||||||||||||||||||||MET070METAR KCPU 201455Z AUTO 00000KT 7SM CLR 16/11 A3007 RMK AO2 T01580111=||F||223|ICAO-KCPU
USI0000KCPU|CALAVERAS CO MAURY RASMUSSEN F|2023|05|20|15|15|38.1461|-120.6482|403.9|16.9||1|FM15-METAR|223|ICAO-KCPU|9.9||1|FM15-METAR|223|ICAO-KCPU|||||||||||||999|C-Calm|9|FM15-METAR|223|ICAO-KCPU|0.0|C-Calm|1|FM15-METAR|223|ICAO-KCPU|||||||||||||64|Derived||FM15-METAR|223|ICAO-KCPU|||||||||||||||||||||||||||||||||||||||||||||||||||||||||||||||||||||||||1018.6||1|FM15-METAR|223|ICAO-KCPU|||||||||||||||||||||||||||||||||||||||||||MET071METAR KCPU 201515Z AUTO 00000KT 10SM CLR 17/10 A3008 RMK AO2 T01690099=||F||223|ICAO-KCPU
USI0000KCPU|CALAVERAS CO MAURY RASMUSSEN F|2023|05|20|15|35|38.1461|-120.6482|403.9|17.5||1|FM15-METAR|223|ICAO-KCPU|10.0||1|FM15-METAR|223|ICAO-KCPU|||||||||||||999|C-Calm|9|FM15-METAR|223|ICAO-KCPU|0.0|C-Calm|1|FM15-METAR|223|ICAO-KCPU|||||||||||||62|Derived||FM15-METAR|223|ICAO-KCPU|||||||||||||||||||||||||||||||||||||||||||||||||||||||||||||||||||||||||1018.6||1|FM15-METAR|223|ICAO-KCPU|||||||||||||||||||||||||||||||||||||||||||MET071METAR KCPU 201535Z AUTO 00000KT 10SM CLR 18/10 A3008 RMK AO2 T01750100=||F||223|ICAO-KCPU
USI0000KCPU|CALAVERAS CO MAURY RASMUSSEN F|2023|05|20|15|55|38.1461|-120.6482|403.9|18.5||1|FM15-METAR|223|ICAO-KCPU|10.2||1|FM15-METAR|223|ICAO-KCPU|||||||||||||999|C-Calm|9|FM15-METAR|223|ICAO-KCPU|0.0|C-Calm|1|FM15-METAR|223|ICAO-KCPU|||||||||||||59|Derived||FM15-METAR|223|ICAO-KCPU|||||||||||||||||||||||||||||||||||||||||||||||||||||||||||||||||||||||||1018.6||1|FM15-METAR|223|ICAO-KCPU|||||||||||||||||||||||||||||||||||||||||||MET071METAR KCPU 201555Z AUTO 00000KT 10SM CLR 19/10 A3008 RMK AO2 T01850102=||F||223|ICAO-KCPU
USI0000KCPU|CALAVERAS CO MAURY RASMUSSEN F|2023|05|20|16|15|38.1461|-120.6482|403.9|19.0||1|FM15-METAR|223|ICAO-KCPU|10.1||1|FM15-METAR|223|ICAO-KCPU|||||||||||||999|C-Calm|9|FM15-METAR|223|ICAO-KCPU|0.0|C-Calm|1|FM15-METAR|223|ICAO-KCPU|||||||||||||56|Derived||FM15-METAR|223|ICAO-KCPU|||||||||||||||||||||||||||||||||||||||||||||||||||||||||||||||||||||||||1018.6||1|FM15-METAR|223|ICAO-KCPU|||||||||||||||||||||||||||||||||||||||||||MET071METAR KCPU 201615Z AUTO 00000KT 10SM CLR 19/10 A3008 RMK AO2 T01900101=||F||223|ICAO-KCPU
USI0000KCPU|CALAVERAS CO MAURY RASMUSSEN F|2023|05|20|16|35|38.1461|-120.6482|403.9|20.1||1|FM15-METAR|223|ICAO-KCPU|10.5||1|FM15-METAR|223|ICAO-KCPU|||||||||||||340|N-Normal|1|FM15-METAR|223|ICAO-KCPU|1.5|N-Normal|1|FM15-METAR|223|ICAO-KCPU|||||||||||||54|Derived||FM15-METAR|223|ICAO-KCPU|||||||||||||||||||||||||||||||||||||||||||||||||||||||||||||||||||||||||1018.6||1|FM15-METAR|223|ICAO-KCPU|||||||||||||||||||||||||||||||||||||||||||MET071METAR KCPU 201635Z AUTO 34003KT 10SM CLR 20/11 A3008 RMK AO2 T02010105=||F||223|ICAO-KCPU
USI0000KCPU|CALAVERAS CO MAURY RASMUSSEN F|2023|05|20|16|55|38.1461|-120.6482|403.9|21.0||1|FM15-METAR|223|ICAO-KCPU|10.5||1|FM15-METAR|223|ICAO-KCPU|||||||||||||340|N-Normal|1|FM15-METAR|223|ICAO-KCPU|1.5|N-Normal|1|FM15-METAR|223|ICAO-KCPU|||||||||||||51|Derived||FM15-METAR|223|ICAO-KCPU|||||||||||||||||||||||||||||||||||||||||||||||||||||||||||||||||||||||||1018.6||1|FM15-METAR|223|ICAO-KCPU|||||||||||||||||||||||||||||||||||||||||||MET071METAR KCPU 201655Z AUTO 34003KT 10SM CLR 21/11 A3008 RMK AO2 T02100105=||F||223|ICAO-KCPU
USI0000KCPU|CALAVERAS CO MAURY RASMUSSEN F|2023|05|20|17|15|38.1461|-120.6482|403.9|21.8||1|FM15-METAR|223|ICAO-KCPU|10.1||1|FM15-METAR|223|ICAO-KCPU|||||||||||||330|N-Normal|1|FM15-METAR|223|ICAO-KCPU|2.1|N-Normal|1|FM15-METAR|223|ICAO-KCPU|||||||||||||47|Derived||FM15-METAR|223|ICAO-KCPU|||||||||||||||||||||||||||||||||||||||||||||||||||||||||||||||||||||||||1018.6||1|FM15-METAR|223|ICAO-KCPU|||||||||||||||||||||||||||||||||||||||||||MET071METAR KCPU 201715Z AUTO 33004KT 10SM CLR 22/10 A3008 RMK AO2 T02180101=||F||223|ICAO-KCPU
USI0000KCPU|CALAVERAS CO MAURY RASMUSSEN F|2023|05|20|17|35|38.1461|-120.6482|403.9|22.2||1|FM15-METAR|223|ICAO-KCPU|10.1||1|FM15-METAR|223|ICAO-KCPU|||||||||||||340|N-Normal|1|FM15-METAR|223|ICAO-KCPU|2.1|N-Normal|1|FM15-METAR|223|ICAO-KCPU|||||||||||||46|Derived||FM15-METAR|223|ICAO-KCPU|||||||||||||||||||||||||||||||||||||||||||||||||||||||||||||||||||||||||1018.6||1|FM15-METAR|223|ICAO-KCPU|||||||||||||||||||||||||||||||||||||||||||MET071METAR KCPU 201735Z AUTO 34004KT 10SM CLR 22/10 A3008 RMK AO2 T02220101=||F||223|ICAO-KCPU
USI0000KCPU|CALAVERAS CO MAURY RASMUSSEN F|2023|05|20|17|55|38.1461|-120.6482|403.9|22.8||1|FM15-METAR|223|ICAO-KCPU|10.3||1|FM15-METAR|223|ICAO-KCPU|||||||||||||330|N-Normal|1|FM15-METAR|223|ICAO-KCPU|2.6|N-Normal|1|FM15-METAR|223|ICAO-KCPU|||||||||||||45|Derived||FM15-METAR|223|ICAO-KCPU|||||||||||||||||||||||||||||||||||||||||||||||||||||||||||||||||||||||||1018.6||1|FM15-METAR|223|ICAO-KCPU|||||||||||||||||||||||||||||||||||||||||||MET083METAR KCPU 201755Z AUTO 33005KT 10SM CLR 23/10 A3008 RMK AO2 T02280103 10228 20120=||F||223|ICAO-KCPU
USI0000KCPU|CALAVERAS CO MAURY RASMUSSEN F|2023|05|20|18|15|38.1461|-120.6482|403.9|23.5||1|FM15-METAR|223|ICAO-KCPU|10.5||1|FM15-METAR|223|ICAO-KCPU|||||||||||||999|C-Calm|9|FM15-METAR|223|ICAO-KCPU|0.0|C-Calm|1|FM15-METAR|223|ICAO-KCPU|||||||||||||44|Derived||FM15-METAR|223|ICAO-KCPU|||||||||||||||||||||||||||||||||||||||||||||||||||||||||||||||||||||||||1018.6||1|FM15-METAR|223|ICAO-KCPU|||||||||||||||||||||||||||||||||||||||||||MET071METAR KCPU 201815Z AUTO 00000KT 10SM CLR 24/11 A3008 RMK AO2 T02350105=||F||223|ICAO-KCPU
USI0000KCPU|CALAVERAS CO MAURY RASMUSSEN F|2023|05|20|18|35|38.1461|-120.6482|403.9|24.3||1|FM15-METAR|223|ICAO-KCPU|10.8||1|FM15-METAR|223|ICAO-KCPU|||||||||||||350|N-Normal|1|FM15-METAR|223|ICAO-KCPU|1.5|N-Normal|1|FM15-METAR|223|ICAO-KCPU|||||||||||||43|Derived||FM15-METAR|223|ICAO-KCPU|||||||||||||||||||||||||||||||||||||||||||||||||||||||||||||||||||||||||1018.6||1|FM15-METAR|223|ICAO-KCPU|||||||||||||||||||||||||||||||||||||||||||MET071METAR KCPU 201835Z AUTO 35003KT 10SM CLR 24/11 A3008 RMK AO2 T02430108=||F||223|ICAO-KCPU
USI0000KCPU|CALAVERAS CO MAURY RASMUSSEN F|2023|05|20|18|55|38.1461|-120.6482|403.9|24.5||1|FM15-METAR|223|ICAO-KCPU|10.8||1|FM15-METAR|223|ICAO-KCPU|||||||||||||330|N-Normal|1|FM15-METAR|223|ICAO-KCPU|1.5|N-Normal|1|FM15-METAR|223|ICAO-KCPU|||||||||||||42|Derived||FM15-METAR|223|ICAO-KCPU|||||||||||||||||||||||||||||||||||||||||||||||||||||||||||||||||||||||||1018.6||1|FM15-METAR|223|ICAO-KCPU|||||||||||||||||||||||||||||||||||||||||||MET071METAR KCPU 201855Z AUTO 33003KT 10SM CLR 25/11 A3008 RMK AO2 T02450108=||F||223|ICAO-KCPU
USI0000KCPU|CALAVERAS CO MAURY RASMUSSEN F|2023|05|20|19|15|38.1461|-120.6482|403.9|24.7||1|FM15-METAR|223|ICAO-KCPU|11.0||1|FM15-METAR|223|ICAO-KCPU|||||||||||||330|N-Normal|1|FM15-METAR|223|ICAO-KCPU|2.1|N-Normal|1|FM15-METAR|223|ICAO-KCPU|||||||||||||42|Derived||FM15-METAR|223|ICAO-KCPU|||||||||||||||||||||||||||||||||||||||||||||||||||||||||||||||||||||||||1018.6||1|FM15-METAR|223|ICAO-KCPU|||||||||||||||||||||||||||||||||||||||||||MET071METAR KCPU 201915Z AUTO 33004KT 10SM CLR 25/11 A3008 RMK AO2 T02470110=||F||223|ICAO-KCPU
USI0000KCPU|CALAVERAS CO MAURY RASMUSSEN F|2023|05|20|19|35|38.1461|-120.6482|403.9|25.1||1|FM15-METAR|223|ICAO-KCPU|11.1||1|FM15-METAR|223|ICAO-KCPU|||||||||||||330|N-Normal|1|FM15-METAR|223|ICAO-KCPU|2.1|N-Normal|1|FM15-METAR|223|ICAO-KCPU|||||||||||||42|Derived||FM15-METAR|223|ICAO-KCPU|||||||||||||||||||||||||||||||||||||||||||||||||||||||||||||||||||||||||1018.6||1|FM15-METAR|223|ICAO-KCPU|||||||||||||||||||||||||||||||||||||||||||MET071METAR KCPU 201935Z AUTO 33004KT 10SM CLR 25/11 A3008 RMK AO2 T02510111=||F||223|ICAO-KCPU
USI0000KCPU|CALAVERAS CO MAURY RASMUSSEN F|2023|05|20|19|55|38.1461|-120.6482|403.9|25.6||1|FM15-METAR|223|ICAO-KCPU|11.5||1|FM15-METAR|223|ICAO-KCPU|||||||||||||340|N-Normal|1|FM15-METAR|223|ICAO-KCPU|2.1|N-Normal|1|FM15-METAR|223|ICAO-KCPU|||||||||||||41|Derived||FM15-METAR|223|ICAO-KCPU|||||||||||||||||||||||||||||||||||||||||||||||||||||||||||||||||||||||||1018.6||1|FM15-METAR|223|ICAO-KCPU|||||||||||||||||||||||||||||||||||||||||||MET071METAR KCPU 201955Z AUTO 34004KT 10SM CLR 26/12 A3008 RMK AO2 T02560115=||F||223|ICAO-KCPU
USI0000KCPU|CALAVERAS CO MAURY RASMUSSEN F|2023|05|20|20|15|38.1461|-120.6482|403.9|26.2||1|FM15-METAR|223|ICAO-KCPU|11.4||1|FM15-METAR|223|ICAO-KCPU|||||||||||||340|N-Normal|1|FM15-METAR|223|ICAO-KCPU|2.6|N-Normal|1|FM15-METAR|223|ICAO-KCPU|||||||||||||40|Derived||FM15-METAR|223|ICAO-KCPU|||||||||||||||||||||||||||||||||||||||||||||||||||||||||||||||||||||||||1018.6||1|FM15-METAR|223|ICAO-KCPU|||||||||||||||||||||||||||||||||||||||||||MET071METAR KCPU 202015Z AUTO 34005KT 10SM CLR 26/11 A3008 RMK AO2 T02620114=||F||223|ICAO-KCPU
USI0000KCPU|CALAVERAS CO MAURY RASMUSSEN F|2023|05|20|20|35|38.1461|-120.6482|403.9|26.6||1|FM15-METAR|223|ICAO-KCPU|11.1||1|FM15-METAR|223|ICAO-KCPU|||||||||||||330|N-Normal|1|FM15-METAR|223|ICAO-KCPU|2.6|N-Normal|1|FM15-METAR|223|ICAO-KCPU|||||||||||||38|Derived||FM15-METAR|223|ICAO-KCPU|||||||||||||||||||||||||||||||||||||||||||||||||||||||||||||||||||||||||1018.3||1|FM15-METAR|223|ICAO-KCPU|||||||||||||||||||||||||||||||||||||||||||MET071METAR KCPU 202035Z AUTO 33005KT 10SM CLR 27/11 A3007 RMK AO2 T02660111=||F||223|ICAO-KCPU
USI0000KCPU|CALAVERAS CO MAURY RASMUSSEN F|2023|05|20|20|55|38.1461|-120.6482|403.9|26.7||1|FM15-METAR|223|ICAO-KCPU|10.7||1|FM15-METAR|223|ICAO-KCPU|||||||||||||340|N-Normal|1|FM15-METAR|223|ICAO-KCPU|2.1|N-Normal|1|FM15-METAR|223|ICAO-KCPU|||||||||||||37|Derived||FM15-METAR|223|ICAO-KCPU|||||||||||||||||||||||||||||||||||||||||||||||||||||||||||||||||||||||||1018.3||1|FM15-METAR|223|ICAO-KCPU|||||||||||||||||||||||||||||||||||||||||||MET071METAR KCPU 202055Z AUTO 34004KT 10SM CLR 27/11 A3007 RMK AO2 T02670107=||F||223|ICAO-KCPU
USI0000KCPU|CALAVERAS CO MAURY RASMUSSEN F|2023|05|20|21|15|38.1461|-120.6482|403.9|27.2||1|FM15-METAR|223|ICAO-KCPU|10.2||1|FM15-METAR|223|ICAO-KCPU|||||||||||||340|N-Normal|1|FM15-METAR|223|ICAO-KCPU|2.6|N-Normal|1|FM15-METAR|223|ICAO-KCPU|||||||||||||34|Derived||FM15-METAR|223|ICAO-KCPU|||||||||||||||||||||||||||||||||||||||||||||||||||||||||||||||||||||||||1018.3||1|FM15-METAR|223|ICAO-KCPU|||||||||||||||||||||||||||||||||||||||||||MET071METAR KCPU 202115Z AUTO 34005KT 10SM CLR 27/10 A3007 RMK AO2 T02720102=||F||223|ICAO-KCPU
USI0000KCPU|CALAVERAS CO MAURY RASMUSSEN F|2023|05|20|21|30|38.1461|-120.6482|403.9|27.5||1|FM15-METAR|223|ICAO-KCPU|10.2||1|FM15-METAR|223|ICAO-KCPU|||||||||||||360|N-Normal|1|FM15-METAR|223|ICAO-KCPU|2.1|N-Normal|1|FM15-METAR|223|ICAO-KCPU|||||||||||||34|Derived||FM15-METAR|223|ICAO-KCPU|||||||||||||||||||||||||||||||||||||||||||||||||||||||||||||||||||||||||1018.3||1|FM15-METAR|223|ICAO-KCPU|||||||||||||||||||||||||||||||||||||||||||MET071METAR KCPU 202130Z AUTO 36004KT 10SM CLR 28/10 A3007 RMK AO2 T02750102=||F||223|ICAO-KCPU
USI0000KCPU|CALAVERAS CO MAURY RASMUSSEN F|2023|05|20|21|55|38.1461|-120.6482|403.9|27.4||1|FM15-METAR|223|ICAO-KCPU|9.5||1|FM15-METAR|223|ICAO-KCPU|||||||||||||330|N-Normal|1|FM15-METAR|223|ICAO-KCPU|2.6|N-Normal|1|FM15-METAR|223|ICAO-KCPU|||||||||||||33|Derived||FM15-METAR|223|ICAO-KCPU|||||||||||||||||||||||||||||||||||||||||||||||||||||||||||||||||||||||||1017.9||1|FM15-METAR|223|ICAO-KCPU|||||||||||||||||||||||||||||||||||||||||||MET071METAR KCPU 202155Z AUTO 33005KT 10SM CLR 27/10 A3006 RMK AO2 T02740095=||F||223|ICAO-KCPU
USI0000KCPU|CALAVERAS CO MAURY RASMUSSEN F|2023|05|20|22|15|38.1461|-120.6482|403.9|27.6||1|FM15-METAR|223|ICAO-KCPU|9.5||1|FM15-METAR|223|ICAO-KCPU|||||||||||||330|N-Normal|1|FM15-METAR|223|ICAO-KCPU|2.1|N-Normal|1|FM15-METAR|223|ICAO-KCPU|||||||||||||32|Derived||FM15-METAR|223|ICAO-KCPU|||||||||||||||||||||||||||||||||||||||||||||||||||||||||||||||||||||||||1017.6||1|FM15-METAR|223|ICAO-KCPU|||||||||||||||||||||||||||||||||||||||||||MET071METAR KCPU 202215Z AUTO 33004KT 10SM CLR 28/10 A3005 RMK AO2 T02760095=||F||223|ICAO-KCPU
USI0000KCPU|CALAVERAS CO MAURY RASMUSSEN F|2023|05|20|22|35|38.1461|-120.6482|403.9|27.7||1|FM15-METAR|223|ICAO-KCPU|8.6||1|FM15-METAR|223|ICAO-KCPU|||||||||||||340|N-Normal|1|FM15-METAR|223|ICAO-KCPU|2.6|N-Normal|1|FM15-METAR|223|ICAO-KCPU|||||||||||||30|Derived||FM15-METAR|223|ICAO-KCPU|||||||||||||||||||||||||||||||||||||||||||||||||||||||||||||||||||||||||1017.6||1|FM15-METAR|223|ICAO-KCPU|||||||||||||||||||||||||||||||||||||||||||MET071METAR KCPU 202235Z AUTO 34005KT 10SM CLR 28/09 A3005 RMK AO2 T02770086=||F||223|ICAO-KCPU
USI0000KCPU|CALAVERAS CO MAURY RASMUSSEN F|2023|05|20|22|55|38.1461|-120.6482|403.9|27.8||1|FM15-METAR|223|ICAO-KCPU|8.1||1|FM15-METAR|223|ICAO-KCPU|||||||||||||340|N-Normal|1|FM15-METAR|223|ICAO-KCPU|2.1|N-Normal|1|FM15-METAR|223|ICAO-KCPU|||||||||||||29|Derived||FM15-METAR|223|ICAO-KCPU|||||||||||||||||||||||||||||||||||||||||||||||||||||||||||||||||||||||||1017.3||1|FM15-METAR|223|ICAO-KCPU|||||||||||||||||||||||||||||||||||||||||||MET071METAR KCPU 202255Z AUTO 34004KT 10SM CLR 28/08 A3004 RMK AO2 T02780081=||F||223|ICAO-KCPU
USI0000KCPU|CALAVERAS CO MAURY RASMUSSEN F|2023|05|20|23|15|38.1461|-120.6482|403.9|27.8||1|FM15-METAR|223|ICAO-KCPU|8.2||1|FM15-METAR|223|ICAO-KCPU|||||||||||||340|N-Normal|1|FM15-METAR|223|ICAO-KCPU|2.6|N-Normal|1|FM15-METAR|223|ICAO-KCPU|||||||||||||29|Derived||FM15-METAR|223|ICAO-KCPU|||||||||||||||||||||||||||||||||||||||||||||||||||||||||||||||||||||||||1017.3||1|FM15-METAR|223|ICAO-KCPU|||||||||||||||||||||||||||||||||||||||||||MET071METAR KCPU 202315Z AUTO 34005KT 10SM CLR 28/08 A3004 RMK AO2 T02780082=||F||223|ICAO-KCPU
USI0000KCPU|CALAVERAS CO MAURY RASMUSSEN F|2023|05|20|23|35|38.1461|-120.6482|403.9|28.3||1|FM15-METAR|223|ICAO-KCPU|9.2||1|FM15-METAR|223|ICAO-KCPU|||||||||||||350|N-Normal|1|FM15-METAR|223|ICAO-KCPU|2.1|N-Normal|1|FM15-METAR|223|ICAO-KCPU|||||||||||||30|Derived||FM15-METAR|223|ICAO-KCPU|||||||||||||||||||||||||||||||||||||||||||||||||||||||||||||||||||||||||1016.9||1|FM15-METAR|223|ICAO-KCPU|||||||||||||||||||||||||||||||||||||||||||MET071METAR KCPU 202335Z AUTO 35004KT 10SM CLR 28/09 A3003 RMK AO2 T02830092=||F||223|ICAO-KCPU
USI0000KCPU|CALAVERAS CO MAURY RASMUSSEN F|2023|05|20|23|55|38.1461|-120.6482|403.9|28.1||1|FM15-METAR|223|ICAO-KCPU|9.4||1|FM15-METAR|223|ICAO-KCPU|||||||||||||350|N-Normal|1|FM15-METAR|223|ICAO-KCPU|2.1|N-Normal|1|FM15-METAR|223|ICAO-KCPU|||||||||||||31|Derived||FM15-METAR|223|ICAO-KCPU|||||||||||||||||||||||||||||||||||||||||||||||||||||||||||||||||||||||||1017.3||1|FM15-METAR|223|ICAO-KCPU|||||||||||||||||||||||||||||||||||||||||||MET083METAR KCPU 202355Z AUTO 35004KT 10SM CLR 28/09 A3004 RMK AO2 T02810094 10283 20228=||F||223|ICAO-KCPU
USI0000KCPU|CALAVERAS CO MAURY RASMUSSEN F|2023|05|21|00|35|38.1461|-120.6482|403.9|27.3||1|FM15-METAR|223|ICAO-KCPU|9.5||1|FM15-METAR|223|ICAO-KCPU|||||||||||||340|N-Normal|1|FM15-METAR|223|ICAO-KCPU|2.6|N-Normal|1|FM15-METAR|223|ICAO-KCPU|||||||||||||33|Derived||FM15-METAR|223|ICAO-KCPU|||||||||||||||||||||||||||||||||||||||||||||||||||||||||||||||||||||||||1017.3||1|FM15-METAR|223|ICAO-KCPU|||||||||||||||||||||||||||||||||||||||||||MET071METAR KCPU 210035Z AUTO 34005KT 10SM CLR 27/10 A3004 RMK AO2 T02730095=||F||223|ICAO-KCPU
USI0000KCPU|CALAVERAS CO MAURY RASMUSSEN F|2023|05|21|00|55|38.1461|-120.6482|403.9|27.1||1|FM15-METAR|223|ICAO-KCPU|10.0||1|FM15-METAR|223|ICAO-KCPU|||||||||||||340|N-Normal|1|FM15-METAR|223|ICAO-KCPU|2.6|N-Normal|1|FM15-METAR|223|ICAO-KCPU|||||||||||||34|Derived||FM15-METAR|223|ICAO-KCPU|||||||||||||||||||||||||||||||||||||||||||||||||||||||||||||||||||||||||1016.9||1|FM15-METAR|223|ICAO-KCPU|||||||||||||||||||||||||||||||||||||||||||MET071METAR KCPU 210055Z AUTO 34005KT 10SM CLR 27/10 A3003 RMK AO2 T02710100=||F||223|ICAO-KCPU
USI0000KCPU|CALAVERAS CO MAURY RASMUSSEN F|2023|05|21|01|15|38.1461|-120.6482|403.9|26.4||1|FM15-METAR|223|ICAO-KCPU|9.9||1|FM15-METAR|223|ICAO-KCPU|||||||||||||340|N-Normal|1|FM15-METAR|223|ICAO-KCPU|3.1|N-Normal|1|FM15-METAR|223|ICAO-KCPU|||||||||||||35|Derived||FM15-METAR|223|ICAO-KCPU|||||||||||||||||||||||||||||||||||||||||||||||||||||||||||||||||||||||||1016.9||1|FM15-METAR|223|ICAO-KCPU|||||||||||||||||||||||||||||||||||||||||||MET071METAR KCPU 210115Z AUTO 34006KT 10SM CLR 26/10 A3003 RMK AO2 T02640099=||F||223|ICAO-KCPU
USI0000KCPU|CALAVERAS CO MAURY RASMUSSEN F|2023|05|21|01|35|38.1461|-120.6482|403.9|25.8||1|FM15-METAR|223|ICAO-KCPU|10.5||1|FM15-METAR|223|ICAO-KCPU|||||||||||||340|N-Normal|1|FM15-METAR|223|ICAO-KCPU|1.5|N-Normal|1|FM15-METAR|223|ICAO-KCPU|||||||||||||38|Derived||FM15-METAR|223|ICAO-KCPU|||||||||||||||||||||||||||||||||||||||||||||||||||||||||||||||||||||||||1017.3||1|FM15-METAR|223|ICAO-KCPU|||||||||||||||||||||||||||||||||||||||||||MET071METAR KCPU 210135Z AUTO 34003KT 10SM CLR 26/11 A3004 RMK AO2 T02580105=||F||223|ICAO-KCPU
USI0000KCPU|CALAVERAS CO MAURY RASMUSSEN F|2023|05|21|01|55|38.1461|-120.6482|403.9|25.3||1|FM15-METAR|223|ICAO-KCPU|10.4||1|FM15-METAR|223|ICAO-KCPU|||||||||||||330|N-Normal|1|FM15-METAR|223|ICAO-KCPU|2.6|N-Normal|1|FM15-METAR|223|ICAO-KCPU|||||||||||||39|Derived||FM15-METAR|223|ICAO-KCPU|||||||||||||||||||||||||||||||||||||||||||||||||||||||||||||||||||||||||1016.9||1|FM15-METAR|223|ICAO-KCPU|||||||||||||||||||||||||||||||||||||||||||MET071METAR KCPU 210155Z AUTO 33005KT 10SM CLR 25/10 A3003 RMK AO2 T02530104=||F||223|ICAO-KCPU
USI0000KCPU|CALAVERAS CO MAURY RASMUSSEN F|2023|05|21|02|15|38.1461|-120.6482|403.9|24.9||1|FM15-METAR|223|ICAO-KCPU|10.8||1|FM15-METAR|223|ICAO-KCPU|||||||||||||340|N-Normal|1|FM15-METAR|223|ICAO-KCPU|2.1|N-Normal|1|FM15-METAR|223|ICAO-KCPU|||||||||||||41|Derived||FM15-METAR|223|ICAO-KCPU|||||||||||||||||||||||||||||||||||||||||||||||||||||||||||||||||||||||||1016.9||1|FM15-METAR|223|ICAO-KCPU|||||||||||||||||||||||||||||||||||||||||||MET071METAR KCPU 210215Z AUTO 34004KT 10SM CLR 25/11 A3003 RMK AO2 T02490108=||F||223|ICAO-KCPU
USI0000KCPU|CALAVERAS CO MAURY RASMUSSEN F|2023|05|21|02|35|38.1461|-120.6482|403.9|24.3||1|FM15-METAR|223|ICAO-KCPU|10.7||1|FM15-METAR|223|ICAO-KCPU|||||||||||||340|N-Normal|1|FM15-METAR|223|ICAO-KCPU|1.5|N-Normal|1|FM15-METAR|223|ICAO-KCPU|||||||||||||42|Derived||FM15-METAR|223|ICAO-KCPU|||||||||||||||||||||||||||||||||||||||||||||||||||||||||||||||||||||||||1016.9||1|FM15-METAR|223|ICAO-KCPU|||||||||||||||||||||||||||||||||||||||||||MET071METAR KCPU 210235Z AUTO 34003KT 10SM CLR 24/11 A3003 RMK AO2 T02430107=||F||223|ICAO-KCPU
USI0000KCPU|CALAVERAS CO MAURY RASMUSSEN F|2023|05|21|02|55|38.1461|-120.6482|403.9|23.1||1|FM15-METAR|223|ICAO-KCPU|10.6||1|FM15-METAR|223|ICAO-KCPU|||||||||||||330|N-Normal|1|FM15-METAR|223|ICAO-KCPU|1.5|N-Normal|1|FM15-METAR|223|ICAO-KCPU|||||||||||||45|Derived||FM15-METAR|223|ICAO-KCPU|||||||||||||||||||||||||||||||||||||||||||||||||||||||||||||||||||||||||1016.9||1|FM15-METAR|223|ICAO-KCPU|||||||||||||||||||||||||||||||||||||||||||MET071METAR KCPU 210255Z AUTO 33003KT 10SM CLR 23/11 A3003 RMK AO2 T02310106=||F||223|ICAO-KCPU
USI0000KCPU|CALAVERAS CO MAURY RASMUSSEN F|2023|05|21|03|15|38.1461|-120.6482|403.9|22.2||1|FM15-METAR|223|ICAO-KCPU|10.7||1|FM15-METAR|223|ICAO-KCPU|||||||||||||340|N-Normal|1|FM15-METAR|223|ICAO-KCPU|1.5|N-Normal|1|FM15-METAR|223|ICAO-KCPU|||||||||||||48|Derived||FM15-METAR|223|ICAO-KCPU|||||||||||||||||||||||||||||||||||||||||||||||||||||||||||||||||||||||||1016.9||1|FM15-METAR|223|ICAO-KCPU|||||||||||||||||||||||||||||||||||||||||||MET071METAR KCPU 210315Z AUTO 34003KT 10SM CLR 22/11 A3003 RMK AO2 T02220107=||F||223|ICAO-KCPU
USI0000KCPU|CALAVERAS CO MAURY RASMUSSEN F|2023|05|21|03|35|38.1461|-120.6482|403.9|21.2||1|FM15-METAR|223|ICAO-KCPU|10.6||1|FM15-METAR|223|ICAO-KCPU|||||||||||||340|N-Normal|1|FM15-METAR|223|ICAO-KCPU|2.6|N-Normal|1|FM15-METAR|223|ICAO-KCPU|||||||||||||51|Derived||FM15-METAR|223|ICAO-KCPU|||||||||||||||||||||||||||||||||||||||||||||||||||||||||||||||||||||||||1016.9||1|FM15-METAR|223|ICAO-KCPU|||||||||||||||||||||||||||||||||||||||||||MET071METAR KCPU 210335Z AUTO 34005KT 10SM CLR 21/11 A3003 RMK AO2 T02120106=||F||223|ICAO-KCPU
USI0000KCPU|CALAVERAS CO MAURY RASMUSSEN F|2023|05|21|03|55|38.1461|-120.6482|403.9|20.8||1|FM15-METAR|223|ICAO-KCPU|10.7||1|FM15-METAR|223|ICAO-KCPU|||||||||||||350|N-Normal|1|FM15-METAR|223|ICAO-KCPU|2.1|N-Normal|1|FM15-METAR|223|ICAO-KCPU|||||||||||||53|Derived||FM15-METAR|223|ICAO-KCPU|||||||||||||||||||||||||||||||||||||||||||||||||||||||||||||||||||||||||1017.3||1|FM15-METAR|223|ICAO-KCPU|||||||||||||||||||||||||||||||||||||||||||MET071METAR KCPU 210355Z AUTO 35004KT 10SM CLR 21/11 A3004 RMK AO2 T02080107=||F||223|ICAO-KCPU
USI0000KCPU|CALAVERAS CO MAURY RASMUSSEN F|2023|05|21|04|15|38.1461|-120.6482|403.9|20.6||1|FM15-METAR|223|ICAO-KCPU|11.0||1|FM15-METAR|223|ICAO-KCPU|||||||||||||340|N-Normal|1|FM15-METAR|223|ICAO-KCPU|2.1|N-Normal|1|FM15-METAR|223|ICAO-KCPU|||||||||||||54|Derived||FM15-METAR|223|ICAO-KCPU|||||||||||||||||||||||||||||||||||||||||||||||||||||||||||||||||||||||||1017.3||1|FM15-METAR|223|ICAO-KCPU|||||||||||||||||||||||||||||||||||||||||||MET071METAR KCPU 210415Z AUTO 34004KT 10SM CLR 21/11 A3004 RMK AO2 T02060110=||F||223|ICAO-KCPU
USI0000KCPU|CALAVERAS CO MAURY RASMUSSEN F|2023|05|21|04|35|38.1461|-120.6482|403.9|20.1||1|FM15-METAR|223|ICAO-KCPU|11.1||1|FM15-METAR|223|ICAO-KCPU|||||||||||||999|C-Calm|9|FM15-METAR|223|ICAO-KCPU|0.0|C-Calm|1|FM15-METAR|223|ICAO-KCPU|||||||||||||56|Derived||FM15-METAR|223|ICAO-KCPU|||||||||||||||||||||||||||||||||||||||||||||||||||||||||||||||||||||||||1017.6||1|FM15-METAR|223|ICAO-KCPU|||||||||||||||||||||||||||||||||||||||||||MET071METAR KCPU 210435Z AUTO 00000KT 10SM CLR 20/11 A3005 RMK AO2 T02010111=||F||223|ICAO-KCPU
USI0000KCPU|CALAVERAS CO MAURY RASMUSSEN F|2023|05|21|04|55|38.1461|-120.6482|403.9|20.0||1|FM15-METAR|223|ICAO-KCPU|11.0||1|FM15-METAR|223|ICAO-KCPU|||||||||||||999|C-Calm|9|FM15-METAR|223|ICAO-KCPU|0.0|C-Calm|1|FM15-METAR|223|ICAO-KCPU|||||||||||||56|Derived||FM15-METAR|223|ICAO-KCPU|||||||||||||||||||||||||||||||||||||||||||||||||||||||||||||||||||||||||1017.6||1|FM15-METAR|223|ICAO-KCPU|||||||||||||||||||||||||||||||||||||||||||MET071METAR KCPU 210455Z AUTO 00000KT 10SM CLR 20/11 A3005 RMK AO2 T02000110=||F||223|ICAO-KCPU
USI0000KCPU|CALAVERAS CO MAURY RASMUSSEN F|2023|05|21|05|15|38.1461|-120.6482|403.9|18.7||1|FM15-METAR|223|ICAO-KCPU|11.0||1|FM15-METAR|223|ICAO-KCPU|||||||||||||999|C-Calm|9|FM15-METAR|223|ICAO-KCPU|0.0|C-Calm|1|FM15-METAR|223|ICAO-KCPU|||||||||||||61|Derived||FM15-METAR|223|ICAO-KCPU|||||||||||||||||||||||||||||||||||||||||||||||||||||||||||||||||||||||||1017.9||1|FM15-METAR|223|ICAO-KCPU|||||||||||||||||||||||||||||||||||||||||||MET071METAR KCPU 210515Z AUTO 00000KT 10SM CLR 19/11 A3006 RMK AO2 T01870110=||F||223|ICAO-KCPU
USI0000KCPU|CALAVERAS CO MAURY RASMUSSEN F|2023|05|21|05|35|38.1461|-120.6482|403.9|18.3||1|FM15-METAR|223|ICAO-KCPU|10.6||1|FM15-METAR|223|ICAO-KCPU|||||||||||||340|N-Normal|1|FM15-METAR|223|ICAO-KCPU|1.5|N-Normal|1|FM15-METAR|223|ICAO-KCPU|||||||||||||61|Derived||FM15-METAR|223|ICAO-KCPU|||||||||||||||||||||||||||||||||||||||||||||||||||||||||||||||||||||||||1017.9||1|FM15-METAR|223|ICAO-KCPU|||||||||||||||||||||||||||||||||||||||||||MET071METAR KCPU 210535Z AUTO 34003KT 10SM CLR 18/11 A3006 RMK AO2 T01830106=||F||223|ICAO-KCPU
USI0000KCPU|CALAVERAS CO MAURY RASMUSSEN F|2023|05|21|05|55|38.1461|-120.6482|403.9|18.5||1|FM15-METAR|223|ICAO-KCPU|10.0||1|FM15-METAR|223|ICAO-KCPU|||||||||||||999|C-Calm|9|FM15-METAR|223|ICAO-KCPU|0.0|C-Calm|1|FM15-METAR|223|ICAO-KCPU|||||||||||||58|Derived||FM15-METAR|223|ICAO-KCPU|||||||||||||||||||||||||||||||||||||||||||||||||||||||||||||||||||||||||1017.9||1|FM15-METAR|223|ICAO-KCPU|||||||||||||||||||||||||||||||||||||||||||MET083METAR KCPU 210555Z AUTO 00000KT 10SM CLR 19/10 A3006 RMK AO2 T01850100 10280 20183=||F||223|ICAO-KCPU
USI0000KCPU|CALAVERAS CO MAURY RASMUSSEN F|2023|05|21|06|15|38.1461|-120.6482|403.9|17.3||1|FM15-METAR|223|ICAO-KCPU|10.2||1|FM15-METAR|223|ICAO-KCPU|||||||||||||999|C-Calm|9|FM15-METAR|223|ICAO-KCPU|0.0|C-Calm|1|FM15-METAR|223|ICAO-KCPU|||||||||||||63|Derived||FM15-METAR|223|ICAO-KCPU|||||||||||||||||||||||||||||||||||||||||||||||||||||||||||||||||||||||||1017.9||1|FM15-METAR|223|ICAO-KCPU|||||||||||||||||||||||||||||||||||||||||||MET071METAR KCPU 210615Z AUTO 00000KT 10SM CLR 17/10 A3006 RMK AO2 T01730102=||F||223|ICAO-KCPU
USI0000KCPU|CALAVERAS CO MAURY RASMUSSEN F|2023|05|21|06|35|38.1461|-120.6482|403.9|17.3||1|FM15-METAR|223|ICAO-KCPU|10.7||1|FM15-METAR|223|ICAO-KCPU|||||||||||||999|C-Calm|9|FM15-METAR|223|ICAO-KCPU|0.0|C-Calm|1|FM15-METAR|223|ICAO-KCPU|||||||||||||65|Derived||FM15-METAR|223|ICAO-KCPU|||||||||||||||||||||||||||||||||||||||||||||||||||||||||||||||||||||||||1017.6||1|FM15-METAR|223|ICAO-KCPU|||||||||||||||||||||||||||||||||||||||||||MET071METAR KCPU 210635Z AUTO 00000KT 10SM CLR 17/11 A3005 RMK AO2 T01730107=||F||223|ICAO-KCPU
USI0000KCPU|CALAVERAS CO MAURY RASMUSSEN F|2023|05|21|06|55|38.1461|-120.6482|403.9|16.6||1|FM15-METAR|223|ICAO-KCPU|10.9||1|FM15-METAR|223|ICAO-KCPU|||||||||||||340|N-Normal|1|FM15-METAR|223|ICAO-KCPU|2.1|N-Normal|1|FM15-METAR|223|ICAO-KCPU|||||||||||||69|Derived||FM15-METAR|223|ICAO-KCPU|||||||||||||||||||||||||||||||||||||||||||||||||||||||||||||||||||||||||1017.6||1|FM15-METAR|223|ICAO-KCPU|||||||||||||||||||||||||||||||||||||||||||MET071METAR KCPU 210655Z AUTO 34004KT 10SM CLR 17/11 A3005 RMK AO2 T01660109=||F||223|ICAO-KCPU
USI0000KCPU|CALAVERAS CO MAURY RASMUSSEN F|2023|05|21|07|15|38.1461|-120.6482|403.9|16.4||1|FM15-METAR|223|ICAO-KCPU|11.0||1|FM15-METAR|223|ICAO-KCPU|||||||||||||999|C-Calm|9|FM15-METAR|223|ICAO-KCPU|0.0|C-Calm|1|FM15-METAR|223|ICAO-KCPU|||||||||||||71|Derived||FM15-METAR|223|ICAO-KCPU|||||||||||||||||||||||||||||||||||||||||||||||||||||||||||||||||||||||||1017.6||1|FM15-METAR|223|ICAO-KCPU|||||||||||||||||||||||||||||||||||||||||||MET071METAR KCPU 210715Z AUTO 00000KT 10SM CLR 16/11 A3005 RMK AO2 T01640110=||F||223|ICAO-KCPU
USI0000KCPU|CALAVERAS CO MAURY RASMUSSEN F|2023|05|21|07|35|38.1461|-120.6482|403.9|16.9||1|FM15-METAR|223|ICAO-KCPU|11.0||1|FM15-METAR|223|ICAO-KCPU|||||||||||||330|N-Normal|1|FM15-METAR|223|ICAO-KCPU|1.5|N-Normal|1|FM15-METAR|223|ICAO-KCPU|||||||||||||68|Derived||FM15-METAR|223|ICAO-KCPU|||||||||||||||||||||||||||||||||||||||||||||||||||||||||||||||||||||||||1017.3||1|FM15-METAR|223|ICAO-KCPU|||||||||||||||||||||||||||||||||||||||||||MET071METAR KCPU 210735Z AUTO 33003KT 10SM CLR 17/11 A3004 RMK AO2 T01690110=||F||223|ICAO-KCPU
USI0000KCPU|CALAVERAS CO MAURY RASMUSSEN F|2023|05|21|07|55|38.1461|-120.6482|403.9|15.7||1|FM15-METAR|223|ICAO-KCPU|10.9||1|FM15-METAR|223|ICAO-KCPU|||||||||||||999|C-Calm|9|FM15-METAR|223|ICAO-KCPU|0.0|C-Calm|1|FM15-METAR|223|ICAO-KCPU|||||||||||||73|Derived||FM15-METAR|223|ICAO-KCPU|||||||||||||||||||||||||||||||||||||||||||||||||||||||||||||||||||||||||1017.6||1|FM15-METAR|223|ICAO-KCPU|||||||||||||||||||||||||||||||||||||||||||MET081METAR KCPU 210755Z AUTO 00000KT 10SM CLR 16/11 A3005 RMK AO2 T01570109 402830120=||F||223|ICAO-KCPU
USI0000KCPU|CALAVERAS CO MAURY RASMUSSEN F|2023|05|21|08|15|38.1461|-120.6482|403.9|15.9||1|FM15-METAR|223|ICAO-KCPU|11.0||1|FM15-METAR|223|ICAO-KCPU|||||||||||||999|C-Calm|9|FM15-METAR|223|ICAO-KCPU|0.0|C-Calm|1|FM15-METAR|223|ICAO-KCPU|||||||||||||73|Derived||FM15-METAR|223|ICAO-KCPU|||||||||||||||||||||||||||||||||||||||||||||||||||||||||||||||||||||||||1017.3||1|FM15-METAR|223|ICAO-KCPU|||||||||||||||||||||||||||||||||||||||||||MET071METAR KCPU 210815Z AUTO 00000KT 10SM CLR 16/11 A3004 RMK AO2 T01590110=||F||223|ICAO-KCPU
USI0000KCPU|CALAVERAS CO MAURY RASMUSSEN F|2023|05|21|08|35|38.1461|-120.6482|403.9|15.5||1|FM15-METAR|223|ICAO-KCPU|10.5||1|FM15-METAR|223|ICAO-KCPU|||||||||||||999|C-Calm|9|FM15-METAR|223|ICAO-KCPU|0.0|C-Calm|1|FM15-METAR|223|ICAO-KCPU|||||||||||||72|Derived||FM15-METAR|223|ICAO-KCPU|||||||||||||||||||||||||||||||||||||||||||||||||||||||||||||||||||||||||1017.3||1|FM15-METAR|223|ICAO-KCPU|||||||||||||||||||||||||||||||||||||||||||MET071METAR KCPU 210835Z AUTO 00000KT 10SM CLR 16/11 A3004 RMK AO2 T01550105=||F||223|ICAO-KCPU
USI0000KCPU|CALAVERAS CO MAURY RASMUSSEN F|2023|05|21|08|55|38.1461|-120.6482|403.9|14.9||1|FM15-METAR|223|ICAO-KCPU|10.5||1|FM15-METAR|223|ICAO-KCPU|||||||||||||999|C-Calm|9|FM15-METAR|223|ICAO-KCPU|0.0|C-Calm|1|FM15-METAR|223|ICAO-KCPU|||||||||||||75|Derived||FM15-METAR|223|ICAO-KCPU|||||||||||||||||||||||||||||||||||||||||||||||||||||||||||||||||||||||||1017.3||1|FM15-METAR|223|ICAO-KCPU|||||||||||||||||||||||||||||||||||||||||||MET071METAR KCPU 210855Z AUTO 00000KT 10SM CLR 15/11 A3004 RMK AO2 T01490105=||F||223|ICAO-KCPU
USI0000KCPU|CALAVERAS CO MAURY RASMUSSEN F|2023|05|21|09|15|38.1461|-120.6482|403.9|14.0||1|FM15-METAR|223|ICAO-KCPU|10.8||1|FM15-METAR|223|ICAO-KCPU|||||||||||||999|C-Calm|9|FM15-METAR|223|ICAO-KCPU|0.0|C-Calm|1|FM15-METAR|223|ICAO-KCPU|||||||||||||81|Derived||FM15-METAR|223|ICAO-KCPU|||||||||||||||||||||||||||||||||||||||||||||||||||||||||||||||||||||||||1017.3||1|FM15-METAR|223|ICAO-KCPU|||||||||||||||||||||||||||||||||||||||||||MET071METAR KCPU 210915Z AUTO 00000KT 10SM CLR 14/11 A3004 RMK AO2 T01400108=||F||223|ICAO-KCPU
USI0000KCPU|CALAVERAS CO MAURY RASMUSSEN F|2023|05|21|09|35|38.1461|-120.6482|403.9|15.0||1|FM15-METAR|223|ICAO-KCPU|10.6||1|FM15-METAR|223|ICAO-KCPU|||||||||||||999|C-Calm|9|FM15-METAR|223|ICAO-KCPU|0.0|C-Calm|1|FM15-METAR|223|ICAO-KCPU|||||||||||||75|Derived||FM15-METAR|223|ICAO-KCPU|||||||||||||||||||||||||||||||||||||||||||||||||||||||||||||||||||||||||1017.3||1|FM15-METAR|223|ICAO-KCPU|||||||||||||||||||||||||||||||||||||||||||MET071METAR KCPU 210935Z AUTO 00000KT 10SM CLR 15/11 A3004 RMK AO2 T01500106=||F||223|ICAO-KCPU
USI0000KCPU|CALAVERAS CO MAURY RASMUSSEN F|2023|05|21|09|55|38.1461|-120.6482|403.9|14.5||1|FM15-METAR|223|ICAO-KCPU|10.6||1|FM15-METAR|223|ICAO-KCPU|||||||||||||999|C-Calm|9|FM15-METAR|223|ICAO-KCPU|0.0|C-Calm|1|FM15-METAR|223|ICAO-KCPU|||||||||||||78|Derived||FM15-METAR|223|ICAO-KCPU|||||||||||||||||||||||||||||||||||||||||||||||||||||||||||||||||||||||||1016.9||1|FM15-METAR|223|ICAO-KCPU|||||||||||||||||||||||||||||||||||||||||||MET071METAR KCPU 210955Z AUTO 00000KT 10SM CLR 15/11 A3003 RMK AO2 T01450106=||F||223|ICAO-KCPU
USI0000KCPU|CALAVERAS CO MAURY RASMUSSEN F|2023|05|21|10|15|38.1461|-120.6482|403.9|13.6||1|FM15-METAR|223|ICAO-KCPU|11.0||1|FM15-METAR|223|ICAO-KCPU|||||||||||||999|C-Calm|9|FM15-METAR|223|ICAO-KCPU|0.0|C-Calm|1|FM15-METAR|223|ICAO-KCPU|||||||||||||84|Derived||FM15-METAR|223|ICAO-KCPU|||||||||||||||||||||||||||||||||||||||||||||||||||||||||||||||||||||||||1016.9||1|FM15-METAR|223|ICAO-KCPU|||||||||||||||||||||||||||||||||||||||||||MET071METAR KCPU 211015Z AUTO 00000KT 10SM CLR 14/11 A3003 RMK AO2 T01360110=||F||223|ICAO-KCPU
USI0000KCPU|CALAVERAS CO MAURY RASMUSSEN F|2023|05|21|10|35|38.1461|-120.6482|403.9|14.3||1|FM15-METAR|223|ICAO-KCPU|10.7||1|FM15-METAR|223|ICAO-KCPU|||||||||||||999|C-Calm|9|FM15-METAR|223|ICAO-KCPU|0.0|C-Calm|1|FM15-METAR|223|ICAO-KCPU|||||||||||||79|Derived||FM15-METAR|223|ICAO-KCPU|||||||||||||||||||||||||||||||||||||||||||||||||||||||||||||||||||||||||1016.9||1|FM15-METAR|223|ICAO-KCPU|||||||||||||||||||||||||||||||||||||||||||MET071METAR KCPU 211035Z AUTO 00000KT 10SM CLR 14/11 A3003 RMK AO2 T01430107=||F||223|ICAO-KCPU
USI0000KCPU|CALAVERAS CO MAURY RASMUSSEN F|2023|05|21|10|55|38.1461|-120.6482|403.9|14.2||1|FM15-METAR|223|ICAO-KCPU|10.5||1|FM15-METAR|223|ICAO-KCPU|||||||||||||999|C-Calm|9|FM15-METAR|223|ICAO-KCPU|0.0|C-Calm|1|FM15-METAR|223|ICAO-KCPU|||||||||||||79|Derived||FM15-METAR|223|ICAO-KCPU|||||||||||||||||||||||||||||||||||||||||||||||||||||||||||||||||||||||||1016.6||1|FM15-METAR|223|ICAO-KCPU|||||||||||||||||||||||||||||||||||||||||||MET071METAR KCPU 211055Z AUTO 00000KT 10SM CLR 14/11 A3002 RMK AO2 T01420105=||F||223|ICAO-KCPU
USI0000KCPU|CALAVERAS CO MAURY RASMUSSEN F|2023|05|21|11|15|38.1461|-120.6482|403.9|13.0||1|FM15-METAR|223|ICAO-KCPU|10.8||1|FM15-METAR|223|ICAO-KCPU|||||||||||||999|C-Calm|9|FM15-METAR|223|ICAO-KCPU|0.0|C-Calm|1|FM15-METAR|223|ICAO-KCPU|||||||||||||87|Derived||FM15-METAR|223|ICAO-KCPU|||||||||||||||||||||||||||||||||||||||||||||||||||||||||||||||||||||||||1016.6||1|FM15-METAR|223|ICAO-KCPU|||||||||||||||||||||||||||||||||||||||||||MET071METAR KCPU 211115Z AUTO 00000KT 10SM CLR 13/11 A3002 RMK AO2 T01300108=||F||223|ICAO-KCPU
USI0000KCPU|CALAVERAS CO MAURY RASMUSSEN F|2023|05|21|11|35|38.1461|-120.6482|403.9|13.3||1|FM15-METAR|223|ICAO-KCPU|11.0||1|FM15-METAR|223|ICAO-KCPU|||||||||||||999|C-Calm|9|FM15-METAR|223|ICAO-KCPU|0.0|C-Calm|1|FM15-METAR|223|ICAO-KCPU|||||||||||||86|Derived||FM15-METAR|223|ICAO-KCPU|||||||||||||||||||||||||||||||||||||||||||||||||||||||||||||||||||||||||1016.6||1|FM15-METAR|223|ICAO-KCPU|||||||||||||||||||||||||||||||||||||||||||MET071METAR KCPU 211135Z AUTO 00000KT 10SM CLR 13/11 A3002 RMK AO2 T01330110=||F||223|ICAO-KCPU
USI0000KCPU|CALAVERAS CO MAURY RASMUSSEN F|2023|05|21|11|55|38.1461|-120.6482|403.9|13.7||1|FM15-METAR|223|ICAO-KCPU|11.0||1|FM15-METAR|223|ICAO-KCPU|||||||||||||999|C-Calm|9|FM15-METAR|223|ICAO-KCPU|0.0|C-Calm|1|FM15-METAR|223|ICAO-KCPU|||||||||||||84|Derived||FM15-METAR|223|ICAO-KCPU|||||||||||||||||||||||||||||||||||||||||||||||||||||||||||||||||||||||||1016.6||1|FM15-METAR|223|ICAO-KCPU|||||||||||||||||||||||||||||||||||||||||||MET083METAR KCPU 211155Z AUTO 00000KT 10SM CLR 14/11 A3002 RMK AO2 T01370110 10186 20130=||F||223|ICAO-KCPU
USI0000KCPU|CALAVERAS CO MAURY RASMUSSEN F|2023|05|21|12|15|38.1461|-120.6482|403.9|13.4||1|FM15-METAR|223|ICAO-KCPU|11.1||1|FM15-METAR|223|ICAO-KCPU|||||||||||||999|C-Calm|9|FM15-METAR|223|ICAO-KCPU|0.0|C-Calm|1|FM15-METAR|223|ICAO-KCPU|||||||||||||86|Derived||FM15-METAR|223|ICAO-KCPU|||||||||||||||||||||||||||||||||||||||||||||||||||||||||||||||||||||||||1016.6||1|FM15-METAR|223|ICAO-KCPU|||||||||||||||||||||||||||||||||||||||||||MET071METAR KCPU 211215Z AUTO 00000KT 10SM CLR 13/11 A3002 RMK AO2 T01340111=||F||223|ICAO-KCPU
USI0000KCPU|CALAVERAS CO MAURY RASMUSSEN F|2023|05|21|12|35|38.1461|-120.6482|403.9|12.9||1|FM15-METAR|223|ICAO-KCPU|10.7||1|FM15-METAR|223|ICAO-KCPU|||||||||||||999|C-Calm|9|FM15-METAR|223|ICAO-KCPU|0.0|C-Calm|1|FM15-METAR|223|ICAO-KCPU|||||||||||||87|Derived||FM15-METAR|223|ICAO-KCPU|||||||||||||||||||||||||||||||||||||||||||||||||||||||||||||||||||||||||1016.6||1|FM15-METAR|223|ICAO-KCPU|||||||||||||||||||||||||||||||||||||||||||MET071METAR KCPU 211235Z AUTO 00000KT 10SM CLR 13/11 A3002 RMK AO2 T01290107=||F||223|ICAO-KCPU
USI0000KCPU|CALAVERAS CO MAURY RASMUSSEN F|2023|05|21|12|55|38.1461|-120.6482|403.9|12.5||1|FM15-METAR|223|ICAO-KCPU|10.7||1|FM15-METAR|223|ICAO-KCPU|||||||||||||999|C-Calm|9|FM15-METAR|223|ICAO-KCPU|0.0|C-Calm|1|FM15-METAR|223|ICAO-KCPU|||||||||||||89|Derived||FM15-METAR|223|ICAO-KCPU|||||||||||||||||||||||||||||||||||||||||||||||||||||||||||||||||||||||||1016.6||1|FM15-METAR|223|ICAO-KCPU|||||||||||||||||||||||||||||||||||||||||||MET071METAR KCPU 211255Z AUTO 00000KT 10SM CLR 13/11 A3002 RMK AO2 T01250107=||F||223|ICAO-KCPU
USI0000KCPU|CALAVERAS CO MAURY RASMUSSEN F|2023|05|21|13|15|38.1461|-120.6482|403.9|12.7||1|FM15-METAR|223|ICAO-KCPU|11.0||1|FM15-METAR|223|ICAO-KCPU|||||||||||||999|C-Calm|9|FM15-METAR|223|ICAO-KCPU|0.0|C-Calm|1|FM15-METAR|223|ICAO-KCPU|||||||||||||89|Derived||FM15-METAR|223|ICAO-KCPU|||||||||||||||||||||||||||||||||||||||||||||||||||||||||||||||||||||||||1016.6||1|FM15-METAR|223|ICAO-KCPU|||||||||||||||||||||||||||||||||||||||||||MET071METAR KCPU 211315Z AUTO 00000KT 10SM CLR 13/11 A3002 RMK AO2 T01270110=||F||223|ICAO-KCPU
USI0000KCPU|CALAVERAS CO MAURY RASMUSSEN F|2023|05|21|13|35|38.1461|-120.6482|403.9|13.7||1|FM15-METAR|223|ICAO-KCPU|11.0||1|FM15-METAR|223|ICAO-KCPU|||||||||||||999|C-Calm|9|FM15-METAR|223|ICAO-KCPU|0.0|C-Calm|1|FM15-METAR|223|ICAO-KCPU|||||||||||||84|Derived||FM15-METAR|223|ICAO-KCPU|||||||||||||||||||||||||||||||||||||||||||||||||||||||||||||||||||||||||1016.9||1|FM15-METAR|223|ICAO-KCPU|||||||||||||||||||||||||||||||||||||||||||MET071METAR KCPU 211335Z AUTO 00000KT 10SM CLR 14/11 A3003 RMK AO2 T01370110=||F||223|ICAO-KCPU
USI0000KCPU|CALAVERAS CO MAURY RASMUSSEN F|2023|05|21|13|55|38.1461|-120.6482|403.9|14.7||1|FM15-METAR|223|ICAO-KCPU|11.1||1|FM15-METAR|223|ICAO-KCPU|||||||||||||999|C-Calm|9|FM15-METAR|223|ICAO-KCPU|0.0|C-Calm|1|FM15-METAR|223|ICAO-KCPU|||||||||||||79|Derived||FM15-METAR|223|ICAO-KCPU|||||||||||||||||||||||||||||||||||||||||||||||||||||||||||||||||||||||||1016.9||1|FM15-METAR|223|ICAO-KCPU|||||||||||||||||||||||||||||||||||||||||||MET071METAR KCPU 211355Z AUTO 00000KT 10SM CLR 15/11 A3003 RMK AO2 T01470111=||F||223|ICAO-KCPU
USI0000KCPU|CALAVERAS CO MAURY RASMUSSEN F|2023|05|21|14|15|38.1461|-120.6482|403.9|13.5||1|FM15-METAR|223|ICAO-KCPU|11.0||1|FM15-METAR|223|ICAO-KCPU|||||||||||||999|C-Calm|9|FM15-METAR|223|ICAO-KCPU|0.0|C-Calm|1|FM15-METAR|223|ICAO-KCPU|||||||||||||85|Derived||FM15-METAR|223|ICAO-KCPU|||||||||||||||||||||||||||||||||||||||||||||||||||||||||||||||||||||||||1016.9||1|FM15-METAR|223|ICAO-KCPU|||||||||||||||||||||||||||||||||||||||||||MET071METAR KCPU 211415Z AUTO 00000KT 10SM CLR 14/11 A3003 RMK AO2 T01350110=||F||223|ICAO-KCPU
USI0000KCPU|CALAVERAS CO MAURY RASMUSSEN F|2023|05|21|14|35|38.1461|-120.6482|403.9|14.3||1|FM15-METAR|223|ICAO-KCPU|11.1||1|FM15-METAR|223|ICAO-KCPU|||||||||||||999|C-Calm|9|FM15-METAR|223|ICAO-KCPU|0.0|C-Calm|1|FM15-METAR|223|ICAO-KCPU|||||||||||||81|Derived||FM15-METAR|223|ICAO-KCPU|||||||||||||||||||||||||||||||||||||||||||||||||||||||||||||||||||||||||1017.3||1|FM15-METAR|223|ICAO-KCPU|||||||||||||||||||||||||||||||||||||||||||MET071METAR KCPU 211435Z AUTO 00000KT 10SM CLR 14/11 A3004 RMK AO2 T01430111=||F||223|ICAO-KCPU
USI0000KCPU|CALAVERAS CO MAURY RASMUSSEN F|2023|05|21|14|55|38.1461|-120.6482|403.9|15.6||1|FM15-METAR|223|ICAO-KCPU|11.5||1|FM15-METAR|223|ICAO-KCPU|||||||||||||999|C-Calm|9|FM15-METAR|223|ICAO-KCPU|0.0|C-Calm|1|FM15-METAR|223|ICAO-KCPU|||||||||||||77|Derived||FM15-METAR|223|ICAO-KCPU|||||||||||||||||||||||||||||||||||||||||||||||||||||||||||||||||||||||||1017.3||1|FM15-METAR|223|ICAO-KCPU|||||||||||||||||||||||||||||||||||||||||||MET071METAR KCPU 211455Z AUTO 00000KT 10SM CLR 16/12 A3004 RMK AO2 T01560115=||F||223|ICAO-KCPU
USI0000KCPU|CALAVERAS CO MAURY RASMUSSEN F|2023|05|21|15|15|38.1461|-120.6482|403.9|17.2||1|FM15-METAR|223|ICAO-KCPU|11.6||1|FM15-METAR|223|ICAO-KCPU|||||||||||||999|C-Calm|9|FM15-METAR|223|ICAO-KCPU|0.0|C-Calm|1|FM15-METAR|223|ICAO-KCPU|||||||||||||70|Derived||FM15-METAR|223|ICAO-KCPU|||||||||||||||||||||||||||||||||||||||||||||||||||||||||||||||||||||||||1017.3||1|FM15-METAR|223|ICAO-KCPU|||||||||||||||||||||||||||||||||||||||||||MET071METAR KCPU 211515Z AUTO 00000KT 10SM CLR 17/12 A3004 RMK AO2 T01720116=||F||223|ICAO-KCPU
USI0000KCPU|CALAVERAS CO MAURY RASMUSSEN F|2023|05|21|15|35|38.1461|-120.6482|403.9|17.9||1|FM15-METAR|223|ICAO-KCPU|11.7||1|FM15-METAR|223|ICAO-KCPU|||||||||||||999|C-Calm|9|FM15-METAR|223|ICAO-KCPU|0.0|C-Calm|1|FM15-METAR|223|ICAO-KCPU|||||||||||||67|Derived||FM15-METAR|223|ICAO-KCPU|||||||||||||||||||||||||||||||||||||||||||||||||||||||||||||||||||||||||1016.9||1|FM15-METAR|223|ICAO-KCPU|||||||||||||||||||||||||||||||||||||||||||MET071METAR KCPU 211535Z AUTO 00000KT 10SM CLR 18/12 A3003 RMK AO2 T01790117=||F||223|ICAO-KCPU
USI0000KCPU|CALAVERAS CO MAURY RASMUSSEN F|2023|05|21|15|55|38.1461|-120.6482|403.9|19.8||1|FM15-METAR|223|ICAO-KCPU|12.1||1|FM15-METAR|223|ICAO-KCPU|||||||||||||999|C-Calm|9|FM15-METAR|223|ICAO-KCPU|0.0|C-Calm|1|FM15-METAR|223|ICAO-KCPU|||||||||||||61|Derived||FM15-METAR|223|ICAO-KCPU|||||||||||||||||||||||||||||||||||||||||||||||||||||||||||||||||||||||||1016.9||1|FM15-METAR|223|ICAO-KCPU|||||||||||||||||||||||||||||||||||||||||||MET071METAR KCPU 211555Z AUTO 00000KT 10SM CLR 20/12 A3003 RMK AO2 T01980121=||F||223|ICAO-KCPU
USI0000KCPU|CALAVERAS CO MAURY RASMUSSEN F|2023|05|21|16|15|38.1461|-120.6482|403.9|21.4||1|FM15-METAR|223|ICAO-KCPU|11.7||1|FM15-METAR|223|ICAO-KCPU|||||||||||||999|C-Calm|9|FM15-METAR|223|ICAO-KCPU|0.0|C-Calm|1|FM15-METAR|223|ICAO-KCPU|||||||||||||54|Derived||FM15-METAR|223|ICAO-KCPU|||||||||||||||||||||||||||||||||||||||||||||||||||||||||||||||||||||||||1016.9||1|FM15-METAR|223|ICAO-KCPU|||||||||||||||||||||||||||||||||||||||||||MET071METAR KCPU 211615Z AUTO 00000KT 10SM CLR 21/12 A3003 RMK AO2 T02140117=||F||223|ICAO-KCPU
USI0000KCPU|CALAVERAS CO MAURY RASMUSSEN F|2023|05|21|16|35|38.1461|-120.6482|403.9|22.3||1|FM15-METAR|223|ICAO-KCPU|10.7||1|FM15-METAR|223|ICAO-KCPU|||||||||||||999|C-Calm|9|FM15-METAR|223|ICAO-KCPU|0.0|C-Calm|1|FM15-METAR|223|ICAO-KCPU|||||||||||||48|Derived||FM15-METAR|223|ICAO-KCPU|||||||||||||||||||||||||||||||||||||||||||||||||||||||||||||||||||||||||1016.6||1|FM15-METAR|223|ICAO-KCPU|||||||||||||||||||||||||||||||||||||||||||MET071METAR KCPU 211635Z AUTO 00000KT 10SM CLR 22/11 A3002 RMK AO2 T02230107=||F||223|ICAO-KCPU
USI0000KCPU|CALAVERAS CO MAURY RASMUSSEN F|2023|05|21|16|55|38.1461|-120.6482|403.9|23.5||1|FM15-METAR|223|ICAO-KCPU|9.7||1|FM15-METAR|223|ICAO-KCPU|||||||||||||999|C-Calm|9|FM15-METAR|223|ICAO-KCPU|0.0|C-Calm|1|FM15-METAR|223|ICAO-KCPU|||||||||||||42|Derived||FM15-METAR|223|ICAO-KCPU|||||||||||||||||||||||||||||||||||||||||||||||||||||||||||||||||||||||||1016.6||1|FM15-METAR|223|ICAO-KCPU|||||||||||||||||||||||||||||||||||||||||||MET071METAR KCPU 211655Z AUTO 00000KT 10SM CLR 24/10 A3002 RMK AO2 T02350097=||F||223|ICAO-KCPU
USI0000KCPU|CALAVERAS CO MAURY RASMUSSEN F|2023|05|21|17|15|38.1461|-120.6482|403.9|24.7||1|FM15-METAR|223|ICAO-KCPU|9.5||1|FM15-METAR|223|ICAO-KCPU|||||||||||||999|C-Calm|9|FM15-METAR|223|ICAO-KCPU|0.0|C-Calm|1|FM15-METAR|223|ICAO-KCPU|||||||||||||38|Derived||FM15-METAR|223|ICAO-KCPU|||||||||||||||||||||||||||||||||||||||||||||||||||||||||||||||||||||||||1016.6||1|FM15-METAR|223|ICAO-KCPU|||||||||||||||||||||||||||||||||||||||||||MET071METAR KCPU 211715Z AUTO 00000KT 10SM CLR 25/10 A3002 RMK AO2 T02470095=||F||223|ICAO-KCPU
USI0000KCPU|CALAVERAS CO MAURY RASMUSSEN F|2023|05|21|17|35|38.1461|-120.6482|403.9|26.5||1|FM15-METAR|223|ICAO-KCPU|9.8||1|FM15-METAR|223|ICAO-KCPU|||||||||||||999|C-Calm|9|FM15-METAR|223|ICAO-KCPU|0.0|C-Calm|1|FM15-METAR|223|ICAO-KCPU|||||||||||||35|Derived||FM15-METAR|223|ICAO-KCPU|||||||||||||||||||||||||||||||||||||||||||||||||||||||||||||||||||||||||1016.3||1|FM15-METAR|223|ICAO-KCPU|||||||||||||||||||||||||||||||||||||||||||MET071METAR KCPU 211735Z AUTO 00000KT 10SM CLR 27/10 A3001 RMK AO2 T02650098=||F||223|ICAO-KCPU
USI0000KCPU|CALAVERAS CO MAURY RASMUSSEN F|2023|05|21|17|55|38.1461|-120.6482|403.9|26.6||1|FM15-METAR|223|ICAO-KCPU|10.4||1|FM15-METAR|223|ICAO-KCPU|||||||||||||999|C-Calm|9|FM15-METAR|223|ICAO-KCPU|0.0|C-Calm|1|FM15-METAR|223|ICAO-KCPU|||||||||||||36|Derived||FM15-METAR|223|ICAO-KCPU|||||||||||||||||||||||||||||||||||||||||||||||||||||||||||||||||||||||||1016.3||1|FM15-METAR|223|ICAO-KCPU|||||||||||||||||||||||||||||||||||||||||||MET083METAR KCPU 211755Z AUTO 00000KT 10SM CLR 27/10 A3001 RMK AO2 T02660104 10268 20120=||F||223|ICAO-KCPU
USI0000KCPU|CALAVERAS CO MAURY RASMUSSEN F|2023|05|21|18|15|38.1461|-120.6482|403.9|27.6||1|FM15-METAR|223|ICAO-KCPU|10.6||1|FM15-METAR|223|ICAO-KCPU|||||||||||||999|C-Calm|9|FM15-METAR|223|ICAO-KCPU|0.0|C-Calm|1|FM15-METAR|223|ICAO-KCPU|||||||||||||35|Derived||FM15-METAR|223|ICAO-KCPU|||||||||||||||||||||||||||||||||||||||||||||||||||||||||||||||||||||||||1016.3||1|FM15-METAR|223|ICAO-KCPU|||||||||||||||||||||||||||||||||||||||||||MET071METAR KCPU 211815Z AUTO 00000KT 10SM CLR 28/11 A3001 RMK AO2 T02760106=||F||223|ICAO-KCPU
USI0000KCPU|CALAVERAS CO MAURY RASMUSSEN F|2023|05|21|18|35|38.1461|-120.6482|403.9|27.9||1|FM15-METAR|223|ICAO-KCPU|11.5||1|FM15-METAR|223|ICAO-KCPU|||||||||||||340|N-Normal|1|FM15-METAR|223|ICAO-KCPU|2.1|N-Normal|1|FM15-METAR|223|ICAO-KCPU|||||||||||||36|Derived||FM15-METAR|223|ICAO-KCPU|||||||||||||||||||||||||||||||||||||||||||||||||||||||||||||||||||||||||1015.9||1|FM15-METAR|223|ICAO-KCPU|||||||||||||||||||||||||||||||||||||||||||MET071METAR KCPU 211835Z AUTO 34004KT 10SM CLR 28/12 A3000 RMK AO2 T02790115=||F||223|ICAO-KCPU
USI0000KCPU|CALAVERAS CO MAURY RASMUSSEN F|2023|05|21|18|55|38.1461|-120.6482|403.9|27.2||1|FM15-METAR|223|ICAO-KCPU|12.0||1|FM15-METAR|223|ICAO-KCPU|||||||||||||330|N-Normal|1|FM15-METAR|223|ICAO-KCPU|2.6|N-Normal|1|FM15-METAR|223|ICAO-KCPU|||||||||||||39|Derived||FM15-METAR|223|ICAO-KCPU|||||||||||||||||||||||||||||||||||||||||||||||||||||||||||||||||||||||||1015.9||1|FM15-METAR|223|ICAO-KCPU|||||||||||||||||||||||||||||||||||||||||||MET071METAR KCPU 211855Z AUTO 33005KT 10SM CLR 27/12 A3000 RMK AO2 T02720120=||F||223|ICAO-KCPU
USI0000KCPU|CALAVERAS CO MAURY RASMUSSEN F|2023|05|21|19|15|38.1461|-120.6482|403.9|27.3||1|FM15-METAR|223|ICAO-KCPU|11.9||1|FM15-METAR|223|ICAO-KCPU|||||||||||||340|N-Normal|1|FM15-METAR|223|ICAO-KCPU|2.1|N-Normal|1|FM15-METAR|223|ICAO-KCPU|||||||||||||38|Derived||FM15-METAR|223|ICAO-KCPU|||||||||||||||||||||||||||||||||||||||||||||||||||||||||||||||||||||||||1015.9||1|FM15-METAR|223|ICAO-KCPU|||||||||||||||||||||||||||||||||||||||||||MET071METAR KCPU 211915Z AUTO 34004KT 10SM CLR 27/12 A3000 RMK AO2 T02730119=||F||223|ICAO-KCPU
USI0000KCPU|CALAVERAS CO MAURY RASMUSSEN F|2023|05|21|19|35|38.1461|-120.6482|403.9|27.5||1|FM15-METAR|223|ICAO-KCPU|11.9||1|FM15-METAR|223|ICAO-KCPU|||||||||||||340|N-Normal|1|FM15-METAR|223|ICAO-KCPU|2.6|N-Normal|1|FM15-METAR|223|ICAO-KCPU|||||||||||||38|Derived||FM15-METAR|223|ICAO-KCPU|||||||||||||||||||||||||||||||||||||||||||||||||||||||||||||||||||||||||1015.6||1|FM15-METAR|223|ICAO-KCPU|||||||||||||||||||||||||||||||||||||||||||MET071METAR KCPU 211935Z AUTO 34005KT 10SM CLR 28/12 A2999 RMK AO2 T02750119=||F||223|ICAO-KCPU
USI0000KCPU|CALAVERAS CO MAURY RASMUSSEN F|2023|05|21|19|55|38.1461|-120.6482|403.9|27.4||1|FM15-METAR|223|ICAO-KCPU|11.9||1|FM15-METAR|223|ICAO-KCPU|||||||||||||340|N-Normal|1|FM15-METAR|223|ICAO-KCPU|2.6|N-Normal|1|FM15-METAR|223|ICAO-KCPU|||||||||||||38|Derived||FM15-METAR|223|ICAO-KCPU|||||||||||||||||||||||||||||||||||||||||||||||||||||||||||||||||||||||||1015.6||1|FM15-METAR|223|ICAO-KCPU|||||||||||||||||||||||||||||||||||||||||||MET071METAR KCPU 211955Z AUTO 34005KT 10SM CLR 27/12 A2999 RMK AO2 T02740119=||F||223|ICAO-KCPU
USI0000KCPU|CALAVERAS CO MAURY RASMUSSEN F|2023|05|21|20|15|38.1461|-120.6482|403.9|27.7||1|FM15-METAR|223|ICAO-KCPU|12.3||1|FM15-METAR|223|ICAO-KCPU|||||||||||||340|N-Normal|1|FM15-METAR|223|ICAO-KCPU|2.6|N-Normal|1|FM15-METAR|223|ICAO-KCPU|||||||||||||39|Derived||FM15-METAR|223|ICAO-KCPU|||||||||||||||||||||||||||||||||||||||||||||||||||||||||||||||||||||||||1015.6||1|FM15-METAR|223|ICAO-KCPU|||||||||||||||||||||||||||||||||||||||||||MET071METAR KCPU 212015Z AUTO 34005KT 10SM CLR 28/12 A2999 RMK AO2 T02770123=||F||223|ICAO-KCPU
USI0000KCPU|CALAVERAS CO MAURY RASMUSSEN F|2023|05|21|20|35|38.1461|-120.6482|403.9|28.3||1|FM15-METAR|223|ICAO-KCPU|12.2||1|FM15-METAR|223|ICAO-KCPU|||||||||||||020|N-Normal|1|FM15-METAR|223|ICAO-KCPU|2.6|N-Normal|1|FM15-METAR|223|ICAO-KCPU|||||||||||||37|Derived||FM15-METAR|223|ICAO-KCPU|||||||||||||||||||||||||||||||||||||||||||||||||||||||||||||||||||||||||1015.2||1|FM15-METAR|223|ICAO-KCPU|||||||||||||||||||||||||||||||||||||||||||MET071METAR KCPU 212035Z AUTO 02005KT 10SM CLR 28/12 A2998 RMK AO2 T02830122=||F||223|ICAO-KCPU
USI0000KCPU|CALAVERAS CO MAURY RASMUSSEN F|2023|05|21|20|55|38.1461|-120.6482|403.9|28.3||1|FM15-METAR|223|ICAO-KCPU|11.7||1|FM15-METAR|223|ICAO-KCPU|||||||||||||010|N-Normal|1|FM15-METAR|223|ICAO-KCPU|2.1|N-Normal|1|FM15-METAR|223|ICAO-KCPU|||||||||||||36|Derived||FM15-METAR|223|ICAO-KCPU|||||||||||||||||||||||||||||||||||||||||||||||||||||||||||||||||||||||||1014.9||1|FM15-METAR|223|ICAO-KCPU|||||||||||||||||||||||||||||||||||||||||||MET071METAR KCPU 212055Z AUTO 01004KT 10SM CLR 28/12 A2997 RMK AO2 T02830117=||F||223|ICAO-KCPU
USI0000KCPU|CALAVERAS CO MAURY RASMUSSEN F|2023|05|21|21|15|38.1461|-120.6482|403.9|28.9||1|FM15-METAR|223|ICAO-KCPU|11.4||1|FM15-METAR|223|ICAO-KCPU|||||||||||||350|N-Normal|1|FM15-METAR|223|ICAO-KCPU|2.6|N-Normal|1|FM15-METAR|223|ICAO-KCPU|||||||||||||34|Derived||FM15-METAR|223|ICAO-KCPU|||||||||||||||||||||||||||||||||||||||||||||||||||||||||||||||||||||||||1014.9||1|FM15-METAR|223|ICAO-KCPU|||||||||||||||||||||||||||||||||||||||||||MET071METAR KCPU 212115Z AUTO 35005KT 10SM CLR 29/11 A2997 RMK AO2 T02890114=||F||223|ICAO-KCPU
USI0000KCPU|CALAVERAS CO MAURY RASMUSSEN F|2023|05|21|21|35|38.1461|-120.6482|403.9|28.7||1|FM15-METAR|223|ICAO-KCPU|10.2||1|FM15-METAR|223|ICAO-KCPU|||||||||||||350|N-Normal|1|FM15-METAR|223|ICAO-KCPU|2.6|N-Normal|1|FM15-METAR|223|ICAO-KCPU|||||||||||||32|Derived||FM15-METAR|223|ICAO-KCPU|||||||||||||||||||||||||||||||||||||||||||||||||||||||||||||||||||||||||1014.9||1|FM15-METAR|223|ICAO-KCPU|||||||||||||||||||||||||||||||||||||||||||MET071METAR KCPU 212135Z AUTO 35005KT 10SM CLR 29/10 A2997 RMK AO2 T02870102=||F||223|ICAO-KCPU
USI0000KCPU|CALAVERAS CO MAURY RASMUSSEN F|2023|05|21|21|55|38.1461|-120.6482|403.9|29.3||1|FM15-METAR|223|ICAO-KCPU|9.8||1|FM15-METAR|223|ICAO-KCPU|||||||||||||340|N-Normal|1|FM15-METAR|223|ICAO-KCPU|3.1|N-Normal|1|FM15-METAR|223|ICAO-KCPU|||||||||||||30|Derived||FM15-METAR|223|ICAO-KCPU|||||||||||||||||||||||||||||||||||||||||||||||||||||||||||||||||||||||||1014.6||1|FM15-METAR|223|ICAO-KCPU|||||||||||||||||||||||||||||||||||||||||||MET071METAR KCPU 212155Z AUTO 34006KT 10SM CLR 29/10 A2996 RMK AO2 T02930098=||F||223|ICAO-KCPU
USI0000KCPU|CALAVERAS CO MAURY RASMUSSEN F|2023|05|21|22|15|38.1461|-120.6482|403.9|29.0||1|FM15-METAR|223|ICAO-KCPU|8.7||1|FM15-METAR|223|ICAO-KCPU|||||||||||||350|N-Normal|1|FM15-METAR|223|ICAO-KCPU|2.6|N-Normal|1|FM15-METAR|223|ICAO-KCPU|||||||||||||28|Derived||FM15-METAR|223|ICAO-KCPU|||||||||||||||||||||||||||||||||||||||||||||||||||||||||||||||||||||||||1014.6||1|FM15-METAR|223|ICAO-KCPU|||||||||||||||||||||||||||||||||||||||||||MET071METAR KCPU 212215Z AUTO 35005KT 10SM CLR 29/09 A2996 RMK AO2 T02900087=||F||223|ICAO-KCPU
USI0000KCPU|CALAVERAS CO MAURY RASMUSSEN F|2023|05|21|22|35|38.1461|-120.6482|403.9|29.1||1|FM15-METAR|223|ICAO-KCPU|7.9||1|FM15-METAR|223|ICAO-KCPU|||||||||||||330|N-Normal|1|FM15-METAR|223|ICAO-KCPU|3.1|N-Normal|1|FM15-METAR|223|ICAO-KCPU|||||||||||||26|Derived||FM15-METAR|223|ICAO-KCPU|||||||||||||||||||||||||||||||||||||||||||||||||||||||||||||||||||||||||1014.2||1|FM15-METAR|223|ICAO-KCPU|||||||||||||||||||||||||||||||||||||||||||MET071METAR KCPU 212235Z AUTO 33006KT 10SM CLR 29/08 A2995 RMK AO2 T02910079=||F||223|ICAO-KCPU
USI0000KCPU|CALAVERAS CO MAURY RASMUSSEN F|2023|05|21|22|55|38.1461|-120.6482|403.9|29.3||1|FM15-METAR|223|ICAO-KCPU|8.3||1|FM15-METAR|223|ICAO-KCPU|||||||||||||340|N-Normal|1|FM15-METAR|223|ICAO-KCPU|3.1|N-Normal|1|FM15-METAR|223|ICAO-KCPU|||||||||||||27|Derived||FM15-METAR|223|ICAO-KCPU|||||||||||||||||||||||||||||||||||||||||||||||||||||||||||||||||||||||||1014.2||1|FM15-METAR|223|ICAO-KCPU|||||||||||||||||||||||||||||||||||||||||||MET071METAR KCPU 212255Z AUTO 34006KT 10SM CLR 29/08 A2995 RMK AO2 T02930083=||F||223|ICAO-KCPU
USI0000KCPU|CALAVERAS CO MAURY RASMUSSEN F|2023|05|21|23|15|38.1461|-120.6482|403.9|29.0||1|FM15-METAR|223|ICAO-KCPU|8.9||1|FM15-METAR|223|ICAO-KCPU|||||||||||||330|N-Normal|1|FM15-METAR|223|ICAO-KCPU|2.1|N-Normal|1|FM15-METAR|223|ICAO-KCPU|||||||||||||28|Derived||FM15-METAR|223|ICAO-KCPU|||||||||||||||||||||||||||||||||||||||||||||||||||||||||||||||||||||||||1013.9||1|FM15-METAR|223|ICAO-KCPU|||||||||||||||||||||||||||||||||||||||||||MET071METAR KCPU 212315Z AUTO 33004KT 10SM CLR 29/09 A2994 RMK AO2 T02900089=||F||223|ICAO-KCPU
USI0000KCPU|CALAVERAS CO MAURY RASMUSSEN F|2023|05|21|23|30|38.1461|-120.6482|403.9|28.9||1|FM15-METAR|223|ICAO-KCPU|8.1||1|FM15-METAR|223|ICAO-KCPU|||||||||||||330|N-Normal|1|FM15-METAR|223|ICAO-KCPU|2.1|N-Normal|1|FM15-METAR|223|ICAO-KCPU|||||||||||||27|Derived||FM15-METAR|223|ICAO-KCPU|||||||||||||||||||||||||||||||||||||||||||||||||||||||||||||||||||||||||1013.9||1|FM15-METAR|223|ICAO-KCPU|||||||||||||||||||||||||||||||||||||||||||MET071METAR KCPU 212330Z AUTO 33004KT 10SM CLR 29/08 A2994 RMK AO2 T02890081=||F||223|ICAO-KCPU
USI0000KCPU|CALAVERAS CO MAURY RASMUSSEN F|2023|05|21|23|55|38.1461|-120.6482|403.9|29.2||1|FM15-METAR|223|ICAO-KCPU|8.5||1|FM15-METAR|223|ICAO-KCPU|||||||||||||340|N-Normal|1|FM15-METAR|223|ICAO-KCPU|2.1|N-Normal|1|FM15-METAR|223|ICAO-KCPU|||||||||||||27|Derived||FM15-METAR|223|ICAO-KCPU|||||||||||||||||||||||||||||||||||||||||||||||||||||||||||||||||||||||||1013.9||1|FM15-METAR|223|ICAO-KCPU|||||||||||||||||||||||||||||||||||||||||||MET083METAR KCPU 212355Z AUTO 34004KT 10SM CLR 29/09 A2994 RMK AO2 T02920085 10294 20267=||F||223|ICAO-KCPU
USI0000KCPU|CALAVERAS CO MAURY RASMUSSEN F|2023|05|22|00|15|38.1461|-120.6482|403.9|29.1||1|FM15-METAR|223|ICAO-KCPU|6.6||1|FM15-METAR|223|ICAO-KCPU|||||||||||||340|N-Normal|1|FM15-METAR|223|ICAO-KCPU|1.5|N-Normal|1|FM15-METAR|223|ICAO-KCPU|||||||||||||24|Derived||FM15-METAR|223|ICAO-KCPU|||||||||||||||||||||||||||||||||||||||||||||||||||||||||||||||||||||||||1013.9||1|FM15-METAR|223|ICAO-KCPU|||||||||||||||||||||||||||||||||||||||||||MET071METAR KCPU 220015Z AUTO 34003KT 10SM CLR 29/07 A2994 RMK AO2 T02910066=||F||223|ICAO-KCPU
USI0000KCPU|CALAVERAS CO MAURY RASMUSSEN F|2023|05|22|00|35|38.1461|-120.6482|403.9|29.0||1|FM15-METAR|223|ICAO-KCPU|5.4||1|FM15-METAR|223|ICAO-KCPU|||||||||||||350|N-Normal|1|FM15-METAR|223|ICAO-KCPU|1.5|N-Normal|1|FM15-METAR|223|ICAO-KCPU|||||||||||||22|Derived||FM15-METAR|223|ICAO-KCPU|||||||||||||||||||||||||||||||||||||||||||||||||||||||||||||||||||||||||1013.5||1|FM15-METAR|223|ICAO-KCPU|||||||||||||||||||||||||||||||||||||||||||MET071METAR KCPU 220035Z AUTO 35003KT 10SM CLR 29/05 A2993 RMK AO2 T02900054=||F||223|ICAO-KCPU
USI0000KCPU|CALAVERAS CO MAURY RASMUSSEN F|2023|05|22|00|55|38.1461|-120.6482|403.9|29.0||1|FM15-METAR|223|ICAO-KCPU|6.5||1|FM15-METAR|223|ICAO-KCPU|||||||||||||330|N-Normal|1|FM15-METAR|223|ICAO-KCPU|1.5|N-Normal|1|FM15-METAR|223|ICAO-KCPU|||||||||||||24|Derived||FM15-METAR|223|ICAO-KCPU|||||||||||||||||||||||||||||||||||||||||||||||||||||||||||||||||||||||||1013.5||1|FM15-METAR|223|ICAO-KCPU|||||||||||||||||||||||||||||||||||||||||||MET071METAR KCPU 220055Z AUTO 33003KT 10SM CLR 29/07 A2993 RMK AO2 T02900065=||F||223|ICAO-KCPU
USI0000KCPU|CALAVERAS CO MAURY RASMUSSEN F|2023|05|22|01|15|38.1461|-120.6482|403.9|28.8||1|FM15-METAR|223|ICAO-KCPU|4.9||1|FM15-METAR|223|ICAO-KCPU|||||||||||||999|C-Calm|9|FM15-METAR|223|ICAO-KCPU|0.0|C-Calm|1|FM15-METAR|223|ICAO-KCPU|||||||||||||22|Derived||FM15-METAR|223|ICAO-KCPU|||||||||||||||||||||||||||||||||||||||||||||||||||||||||||||||||||||||||1013.5||1|FM15-METAR|223|ICAO-KCPU|||||||||||||||||||||||||||||||||||||||||||MET071METAR KCPU 220115Z AUTO 00000KT 10SM CLR 29/05 A2993 RMK AO2 T02880049=||F||223|ICAO-KCPU
USI0000KCPU|CALAVERAS CO MAURY RASMUSSEN F|2023|05|22|01|35|38.1461|-120.6482|403.9|28.6||1|FM15-METAR|223|ICAO-KCPU|5.0||1|FM15-METAR|223|ICAO-KCPU|||||||||||||330|N-Normal|1|FM15-METAR|223|ICAO-KCPU|1.5|N-Normal|1|FM15-METAR|223|ICAO-KCPU|||||||||||||22|Derived||FM15-METAR|223|ICAO-KCPU|||||||||||||||||||||||||||||||||||||||||||||||||||||||||||||||||||||||||1013.5||1|FM15-METAR|223|ICAO-KCPU|||||||||||||||||||||||||||||||||||||||||||MET071METAR KCPU 220135Z AUTO 33003KT 10SM CLR 29/05 A2993 RMK AO2 T02860050=||F||223|ICAO-KCPU
USI0000KCPU|CALAVERAS CO MAURY RASMUSSEN F|2023|05|22|01|55|38.1461|-120.6482|403.9|28.1||1|FM15-METAR|223|ICAO-KCPU|4.4||1|FM15-METAR|223|ICAO-KCPU|||||||||||||999|C-Calm|9|FM15-METAR|223|ICAO-KCPU|0.0|C-Calm|1|FM15-METAR|223|ICAO-KCPU|||||||||||||22|Derived||FM15-METAR|223|ICAO-KCPU|||||||||||||||||||||||||||||||||||||||||||||||||||||||||||||||||||||||||1013.5||1|FM15-METAR|223|ICAO-KCPU|||||||||||||||||||||||||||||||||||||||||||MET071METAR KCPU 220155Z AUTO 00000KT 10SM CLR 28/04 A2993 RMK AO2 T02810044=||F||223|ICAO-KCPU
USI0000KCPU|CALAVERAS CO MAURY RASMUSSEN F|2023|05|22|02|15|38.1461|-120.6482|403.9|28.0||1|FM15-METAR|223|ICAO-KCPU|5.4||1|FM15-METAR|223|ICAO-KCPU|||||||||||||320|N-Normal|1|FM15-METAR|223|ICAO-KCPU|1.5|N-Normal|1|FM15-METAR|223|ICAO-KCPU|||||||||||||24|Derived||FM15-METAR|223|ICAO-KCPU|||||||||||||||||||||||||||||||||||||||||||||||||||||||||||||||||||||||||1013.5||1|FM15-METAR|223|ICAO-KCPU|||||||||||||||||||||||||||||||||||||||||||MET071METAR KCPU 220215Z AUTO 32003KT 10SM CLR 28/05 A2993 RMK AO2 T02800054=||F||223|ICAO-KCPU
USI0000KCPU|CALAVERAS CO MAURY RASMUSSEN F|2023|05|22|02|55|38.1461|-120.6482|403.9|26.1||1|FM15-METAR|223|ICAO-KCPU|6.5||1|FM15-METAR|223|ICAO-KCPU|||||||||||||320|N-Normal|1|FM15-METAR|223|ICAO-KCPU|2.1|N-Normal|1|FM15-METAR|223|ICAO-KCPU|||||||||||||29|Derived||FM15-METAR|223|ICAO-KCPU|||||||||||||||||||||||||||||||||||||||||||||||||||||||||||||||||||||||||1013.5||1|FM15-METAR|223|ICAO-KCPU|||||||||||||||||||||||||||||||||||||||||||MET071METAR KCPU 220255Z AUTO 32004KT 10SM CLR 26/07 A2993 RMK AO2 T02610065=||F||223|ICAO-KCPU
USI0000KCPU|CALAVERAS CO MAURY RASMUSSEN F|2023|05|22|03|15|38.1461|-120.6482|403.9|25.7||1|FM15-METAR|223|ICAO-KCPU|7.0||1|FM15-METAR|223|ICAO-KCPU|||||||||||||350|N-Normal|1|FM15-METAR|223|ICAO-KCPU|1.5|N-Normal|1|FM15-METAR|223|ICAO-KCPU|||||||||||||30|Derived||FM15-METAR|223|ICAO-KCPU|||||||||||||||||||||||||||||||||||||||||||||||||||||||||||||||||||||||||1013.9||1|FM15-METAR|223|ICAO-KCPU|||||||||||||||||||||||||||||||||||||||||||MET071METAR KCPU 220315Z AUTO 35003KT 10SM CLR 26/07 A2994 RMK AO2 T02570070=||F||223|ICAO-KCPU
USI0000KCPU|CALAVERAS CO MAURY RASMUSSEN F|2023|05|22|03|35|38.1461|-120.6482|403.9|24.8||1|FM15-METAR|223|ICAO-KCPU|8.6||1|FM15-METAR|223|ICAO-KCPU|||||||||||||330|N-Normal|1|FM15-METAR|223|ICAO-KCPU|2.6|N-Normal|1|FM15-METAR|223|ICAO-KCPU|||||||||||||36|Derived||FM15-METAR|223|ICAO-KCPU|||||||||||||||||||||||||||||||||||||||||||||||||||||||||||||||||||||||||1013.9||1|FM15-METAR|223|ICAO-KCPU|||||||||||||||||||||||||||||||||||||||||||MET071METAR KCPU 220335Z AUTO 33005KT 10SM CLR 25/09 A2994 RMK AO2 T02480086=||F||223|ICAO-KCPU
USI0000KCPU|CALAVERAS CO MAURY RASMUSSEN F|2023|05|22|03|55|38.1461|-120.6482|403.9|23.9||1|FM15-METAR|223|ICAO-KCPU|9.0||1|FM15-METAR|223|ICAO-KCPU|||||||||||||350|N-Normal|1|FM15-METAR|223|ICAO-KCPU|1.5|N-Normal|1|FM15-METAR|223|ICAO-KCPU|||||||||||||39|Derived||FM15-METAR|223|ICAO-KCPU|||||||||||||||||||||||||||||||||||||||||||||||||||||||||||||||||||||||||1014.2||1|FM15-METAR|223|ICAO-KCPU|||||||||||||||||||||||||||||||||||||||||||MET071METAR KCPU 220355Z AUTO 35003KT 10SM CLR 24/09 A2995 RMK AO2 T02390090=||F||223|ICAO-KCPU
USI0000KCPU|CALAVERAS CO MAURY RASMUSSEN F|2023|05|22|04|15|38.1461|-120.6482|403.9|23.2||1|FM15-METAR|223|ICAO-KCPU|9.3||1|FM15-METAR|223|ICAO-KCPU|||||||||||||999|C-Calm|9|FM15-METAR|223|ICAO-KCPU|0.0|C-Calm|1|FM15-METAR|223|ICAO-KCPU|||||||||||||41|Derived||FM15-METAR|223|ICAO-KCPU|||||||||||||||||||||||||||||||||||||||||||||||||||||||||||||||||||||||||1014.2||1|FM15-METAR|223|ICAO-KCPU|||||||||||||||||||||||||||||||||||||||||||MET071METAR KCPU 220415Z AUTO 00000KT 10SM CLR 23/09 A2995 RMK AO2 T02320093=||F||223|ICAO-KCPU
USI0000KCPU|CALAVERAS CO MAURY RASMUSSEN F|2023|05|22|04|35|38.1461|-120.6482|403.9|22.5||1|FM15-METAR|223|ICAO-KCPU|9.4||1|FM15-METAR|223|ICAO-KCPU|||||||||||||999|C-Calm|9|FM15-METAR|223|ICAO-KCPU|0.0|C-Calm|1|FM15-METAR|223|ICAO-KCPU|||||||||||||43|Derived||FM15-METAR|223|ICAO-KCPU|||||||||||||||||||||||||||||||||||||||||||||||||||||||||||||||||||||||||1014.2||1|FM15-METAR|223|ICAO-KCPU|||||||||||||||||||||||||||||||||||||||||||MET071METAR KCPU 220435Z AUTO 00000KT 10SM CLR 23/09 A2995 RMK AO2 T02250094=||F||223|ICAO-KCPU
USI0000KCPU|CALAVERAS CO MAURY RASMUSSEN F|2023|05|22|04|55|38.1461|-120.6482|403.9|22.8||1|FM15-METAR|223|ICAO-KCPU|9.0||1|FM15-METAR|223|ICAO-KCPU|||||||||||||999|C-Calm|9|FM15-METAR|223|ICAO-KCPU|0.0|C-Calm|1|FM15-METAR|223|ICAO-KCPU|||||||||||||41|Derived||FM15-METAR|223|ICAO-KCPU|||||||||||||||||||||||||||||||||||||||||||||||||||||||||||||||||||||||||1014.2||1|FM15-METAR|223|ICAO-KCPU|||||||||||||||||||||||||||||||||||||||||||MET071METAR KCPU 220455Z AUTO 00000KT 10SM CLR 23/09 A2995 RMK AO2 T02280090=||F||223|ICAO-KCPU
USI0000KCPU|CALAVERAS CO MAURY RASMUSSEN F|2023|05|22|05|15|38.1461|-120.6482|403.9|22.0||1|FM15-METAR|223|ICAO-KCPU|9.3||1|FM15-METAR|223|ICAO-KCPU|||||||||||||999|C-Calm|9|FM15-METAR|223|ICAO-KCPU|0.0|C-Calm|1|FM15-METAR|223|ICAO-KCPU|||||||||||||44|Derived||FM15-METAR|223|ICAO-KCPU|||||||||||||||||||||||||||||||||||||||||||||||||||||||||||||||||||||||||1014.2||1|FM15-METAR|223|ICAO-KCPU|||||||||||||||||||||||||||||||||||||||||||MET071METAR KCPU 220515Z AUTO 00000KT 10SM CLR 22/09 A2995 RMK AO2 T02200093=||F||223|ICAO-KCPU
USI0000KCPU|CALAVERAS CO MAURY RASMUSSEN F|2023|05|22|05|35|38.1461|-120.6482|403.9|21.5||1|FM15-METAR|223|ICAO-KCPU|9.6||1|FM15-METAR|223|ICAO-KCPU|||||||||||||999|C-Calm|9|FM15-METAR|223|ICAO-KCPU|0.0|C-Calm|1|FM15-METAR|223|ICAO-KCPU|||||||||||||47|Derived||FM15-METAR|223|ICAO-KCPU|||||||||||||||||||||||||||||||||||||||||||||||||||||||||||||||||||||||||1014.6||1|FM15-METAR|223|ICAO-KCPU|||||||||||||||||||||||||||||||||||||||||||MET071METAR KCPU 220535Z AUTO 00000KT 10SM CLR 22/10 A2996 RMK AO2 T02150096=||F||223|ICAO-KCPU
USI0000KCPU|CALAVERAS CO MAURY RASMUSSEN F|2023|05|22|05|55|38.1461|-120.6482|403.9|20.5||1|FM15-METAR|223|ICAO-KCPU|9.7||1|FM15-METAR|223|ICAO-KCPU|||||||||||||999|C-Calm|9|FM15-METAR|223|ICAO-KCPU|0.0|C-Calm|1|FM15-METAR|223|ICAO-KCPU|||||||||||||50|Derived||FM15-METAR|223|ICAO-KCPU|||||||||||||||||||||||||||||||||||||||||||||||||||||||||||||||||||||||||1014.2||1|FM15-METAR|223|ICAO-KCPU|||||||||||||||||||||||||||||||||||||||||||MET083METAR KCPU 220555Z AUTO 00000KT 10SM CLR 21/10 A2995 RMK AO2 T02050097 10294 20205=||F||223|ICAO-KCPU
USI0000KCPU|CALAVERAS CO MAURY RASMUSSEN F|2023|05|22|06|15|38.1461|-120.6482|403.9|19.8||1|FM15-METAR|223|ICAO-KCPU|10.0||1|FM15-METAR|223|ICAO-KCPU|||||||||||||999|C-Calm|9|FM15-METAR|223|ICAO-KCPU|0.0|C-Calm|1|FM15-METAR|223|ICAO-KCPU|||||||||||||53|Derived||FM15-METAR|223|ICAO-KCPU|||||||||||||||||||||||||||||||||||||||||||||||||||||||||||||||||||||||||1014.2||1|FM15-METAR|223|ICAO-KCPU|||||||||||||||||||||||||||||||||||||||||||MET071METAR KCPU 220615Z AUTO 00000KT 10SM CLR 20/10 A2995 RMK AO2 T01980100=||F||223|ICAO-KCPU
USI0000KCPU|CALAVERAS CO MAURY RASMUSSEN F|2023|05|22|06|35|38.1461|-120.6482|403.9|19.5||1|FM15-METAR|223|ICAO-KCPU|10.2||1|FM15-METAR|223|ICAO-KCPU|||||||||||||999|C-Calm|9|FM15-METAR|223|ICAO-KCPU|0.0|C-Calm|1|FM15-METAR|223|ICAO-KCPU|||||||||||||55|Derived||FM15-METAR|223|ICAO-KCPU|||||||||||||||||||||||||||||||||||||||||||||||||||||||||||||||||||||||||1014.2||1|FM15-METAR|223|ICAO-KCPU|||||||||||||||||||||||||||||||||||||||||||MET071METAR KCPU 220635Z AUTO 00000KT 10SM CLR 20/10 A2995 RMK AO2 T01950102=||F||223|ICAO-KCPU
USI0000KCPU|CALAVERAS CO MAURY RASMUSSEN F|2023|05|22|06|55|38.1461|-120.6482|403.9|18.8||1|FM15-METAR|223|ICAO-KCPU|10.0||1|FM15-METAR|223|ICAO-KCPU|||||||||||||999|C-Calm|9|FM15-METAR|223|ICAO-KCPU|0.0|C-Calm|1|FM15-METAR|223|ICAO-KCPU|||||||||||||57|Derived||FM15-METAR|223|ICAO-KCPU|||||||||||||||||||||||||||||||||||||||||||||||||||||||||||||||||||||||||1014.2||1|FM15-METAR|223|ICAO-KCPU|||||||||||||||||||||||||||||||||||||||||||MET071METAR KCPU 220655Z AUTO 00000KT 10SM CLR 19/10 A2995 RMK AO2 T01880100=||F||223|ICAO-KCPU
USI0000KCPU|CALAVERAS CO MAURY RASMUSSEN F|2023|05|22|07|15|38.1461|-120.6482|403.9|17.5||1|FM15-METAR|223|ICAO-KCPU|9.7||1|FM15-METAR|223|ICAO-KCPU|||||||||||||999|C-Calm|9|FM15-METAR|223|ICAO-KCPU|0.0|C-Calm|1|FM15-METAR|223|ICAO-KCPU|||||||||||||60|Derived||FM15-METAR|223|ICAO-KCPU|||||||||||||||||||||||||||||||||||||||||||||||||||||||||||||||||||||||||1013.9||1|FM15-METAR|223|ICAO-KCPU|||||||||||||||||||||||||||||||||||||||||||MET071METAR KCPU 220715Z AUTO 00000KT 10SM CLR 18/10 A2994 RMK AO2 T01750097=||F||223|ICAO-KCPU
USI0000KCPU|CALAVERAS CO MAURY RASMUSSEN F|2023|05|22|07|35|38.1461|-120.6482|403.9|17.0||1|FM15-METAR|223|ICAO-KCPU|9.5||1|FM15-METAR|223|ICAO-KCPU|||||||||||||999|C-Calm|9|FM15-METAR|223|ICAO-KCPU|0.0|C-Calm|1|FM15-METAR|223|ICAO-KCPU|||||||||||||62|Derived||FM15-METAR|223|ICAO-KCPU|||||||||||||||||||||||||||||||||||||||||||||||||||||||||||||||||||||||||1013.9||1|FM15-METAR|223|ICAO-KCPU|||||||||||||||||||||||||||||||||||||||||||MET071METAR KCPU 220735Z AUTO 00000KT 10SM CLR 17/10 A2994 RMK AO2 T01700095=||F||223|ICAO-KCPU
USI0000KCPU|CALAVERAS CO MAURY RASMUSSEN F|2023|05|22|07|55|38.1461|-120.6482|403.9|16.6||1|FM15-METAR|223|ICAO-KCPU|9.7||1|FM15-METAR|223|ICAO-KCPU|||||||||||||999|C-Calm|9|FM15-METAR|223|ICAO-KCPU|0.0|C-Calm|1|FM15-METAR|223|ICAO-KCPU|||||||||||||64|Derived||FM15-METAR|223|ICAO-KCPU|||||||||||||||||||||||||||||||||||||||||||||||||||||||||||||||||||||||||1013.5||1|FM15-METAR|223|ICAO-KCPU|||||||||||||||||||||||||||||||||||||||||||MET081METAR KCPU 220755Z AUTO 00000KT 10SM CLR 17/10 A2993 RMK AO2 T01660097 402940120=||F||223|ICAO-KCPU
USI0000KCPU|CALAVERAS CO MAURY RASMUSSEN F|2023|05|22|08|15|38.1461|-120.6482|403.9|16.6||1|FM15-METAR|223|ICAO-KCPU|9.8||1|FM15-METAR|223|ICAO-KCPU|||||||||||||999|C-Calm|9|FM15-METAR|223|ICAO-KCPU|0.0|C-Calm|1|FM15-METAR|223|ICAO-KCPU|||||||||||||64|Derived||FM15-METAR|223|ICAO-KCPU|||||||||||||||||||||||||||||||||||||||||||||||||||||||||||||||||||||||||1013.5||1|FM15-METAR|223|ICAO-KCPU|||||||||||||||||||||||||||||||||||||||||||MET071METAR KCPU 220815Z AUTO 00000KT 10SM CLR 17/10 A2993 RMK AO2 T01660098=||F||223|ICAO-KCPU
USI0000KCPU|CALAVERAS CO MAURY RASMUSSEN F|2023|05|22|08|35|38.1461|-120.6482|403.9|17.0||1|FM15-METAR|223|ICAO-KCPU|10.0||1|FM15-METAR|223|ICAO-KCPU|||||||||||||999|C-Calm|9|FM15-METAR|223|ICAO-KCPU|0.0|C-Calm|1|FM15-METAR|223|ICAO-KCPU|||||||||||||64|Derived||FM15-METAR|223|ICAO-KCPU|||||||||||||||||||||||||||||||||||||||||||||||||||||||||||||||||||||||||1013.5||1|FM15-METAR|223|ICAO-KCPU|||||||||||||||||||||||||||||||||||||||||||MET071METAR KCPU 220835Z AUTO 00000KT 10SM CLR 17/10 A2993 RMK AO2 T01700100=||F||223|ICAO-KCPU
USI0000KCPU|CALAVERAS CO MAURY RASMUSSEN F|2023|05|22|08|55|38.1461|-120.6482|403.9|16.5||1|FM15-METAR|223|ICAO-KCPU|9.8||1|FM15-METAR|223|ICAO-KCPU|||||||||||||999|C-Calm|9|FM15-METAR|223|ICAO-KCPU|0.0|C-Calm|1|FM15-METAR|223|ICAO-KCPU|||||||||||||65|Derived||FM15-METAR|223|ICAO-KCPU|||||||||||||||||||||||||||||||||||||||||||||||||||||||||||||||||||||||||1013.5||1|FM15-METAR|223|ICAO-KCPU|||||||||||||||||||||||||||||||||||||||||||MET071METAR KCPU 220855Z AUTO 00000KT 10SM CLR 17/10 A2993 RMK AO2 T01650098=||F||223|ICAO-KCPU
USI0000KCPU|CALAVERAS CO MAURY RASMUSSEN F|2023|05|22|09|15|38.1461|-120.6482|403.9|16.7||1|FM15-METAR|223|ICAO-KCPU|9.5||1|FM15-METAR|223|ICAO-KCPU|||||||||||||999|C-Calm|9|FM15-METAR|223|ICAO-KCPU|0.0|C-Calm|1|FM15-METAR|223|ICAO-KCPU|||||||||||||63|Derived||FM15-METAR|223|ICAO-KCPU|||||||||||||||||||||||||||||||||||||||||||||||||||||||||||||||||||||||||1013.2||1|FM15-METAR|223|ICAO-KCPU|||||||||||||||||||||||||||||||||||||||||||MET071METAR KCPU 220915Z AUTO 00000KT 10SM CLR 17/10 A2992 RMK AO2 T01670095=||F||223|ICAO-KCPU
USI0000KCPU|CALAVERAS CO MAURY RASMUSSEN F|2023|05|22|09|35|38.1461|-120.6482|403.9|16.7||1|FM15-METAR|223|ICAO-KCPU|9.0||1|FM15-METAR|223|ICAO-KCPU|||||||||||||999|C-Calm|9|FM15-METAR|223|ICAO-KCPU|0.0|C-Calm|1|FM15-METAR|223|ICAO-KCPU|||||||||||||61|Derived||FM15-METAR|223|ICAO-KCPU|||||||||||||||||||||||||||||||||||||||||||||||||||||||||||||||||||||||||1013.2||1|FM15-METAR|223|ICAO-KCPU|||||||||||||||||||||||||||||||||||||||||||MET071METAR KCPU 220935Z AUTO 00000KT 10SM CLR 17/09 A2992 RMK AO2 T01670090=||F||223|ICAO-KCPU
USI0000KCPU|CALAVERAS CO MAURY RASMUSSEN F|2023|05|22|09|55|38.1461|-120.6482|403.9|16.2||1|FM15-METAR|223|ICAO-KCPU|9.0||1|FM15-METAR|223|ICAO-KCPU|||||||||||||999|C-Calm|9|FM15-METAR|223|ICAO-KCPU|0.0|C-Calm|1|FM15-METAR|223|ICAO-KCPU|||||||||||||63|Derived||FM15-METAR|223|ICAO-KCPU|||||||||||||||||||||||||||||||||||||||||||||||||||||||||||||||||||||||||1013.2||1|FM15-METAR|223|ICAO-KCPU|||||||||||||||||||||||||||||||||||||||||||MET071METAR KCPU 220955Z AUTO 00000KT 10SM CLR 16/09 A2992 RMK AO2 T01620090=||F||223|ICAO-KCPU
USI0000KCPU|CALAVERAS CO MAURY RASMUSSEN F|2023|05|22|10|15|38.1461|-120.6482|403.9|15.0||1|FM15-METAR|223|ICAO-KCPU|9.1||1|FM15-METAR|223|ICAO-KCPU|||||||||||||999|C-Calm|9|FM15-METAR|223|ICAO-KCPU|0.0|C-Calm|1|FM15-METAR|223|ICAO-KCPU|||||||||||||68|Derived||FM15-METAR|223|ICAO-KCPU|||||||||||||||||||||||||||||||||||||||||||||||||||||||||||||||||||||||||1013.2||1|FM15-METAR|223|ICAO-KCPU|||||||||||||||||||||||||||||||||||||||||||MET071METAR KCPU 221015Z AUTO 00000KT 10SM CLR 15/09 A2992 RMK AO2 T01500091=||F||223|ICAO-KCPU
USI0000KCPU|CALAVERAS CO MAURY RASMUSSEN F|2023|05|22|10|35|38.1461|-120.6482|403.9|15.9||1|FM15-METAR|223|ICAO-KCPU|9.0||1|FM15-METAR|223|ICAO-KCPU|||||||||||||999|C-Calm|9|FM15-METAR|223|ICAO-KCPU|0.0|C-Calm|1|FM15-METAR|223|ICAO-KCPU|||||||||||||64|Derived||FM15-METAR|223|ICAO-KCPU|||||||||||||||||||||||||||||||||||||||||||||||||||||||||||||||||||||||||1012.9||1|FM15-METAR|223|ICAO-KCPU|||||||||||||||||||||||||||||||||||||||||||MET071METAR KCPU 221035Z AUTO 00000KT 10SM CLR 16/09 A2991 RMK AO2 T01590090=||F||223|ICAO-KCPU
USI0000KCPU|CALAVERAS CO MAURY RASMUSSEN F|2023|05|22|10|55|38.1461|-120.6482|403.9|15.5||1|FM15-METAR|223|ICAO-KCPU|9.1||1|FM15-METAR|223|ICAO-KCPU|||||||||||||999|C-Calm|9|FM15-METAR|223|ICAO-KCPU|0.0|C-Calm|1|FM15-METAR|223|ICAO-KCPU|||||||||||||66|Derived||FM15-METAR|223|ICAO-KCPU|||||||||||||||||||||||||||||||||||||||||||||||||||||||||||||||||||||||||1012.9||1|FM15-METAR|223|ICAO-KCPU|||||||||||||||||||||||||||||||||||||||||||MET071METAR KCPU 221055Z AUTO 00000KT 10SM CLR 16/09 A2991 RMK AO2 T01550091=||F||223|ICAO-KCPU
USI0000KCPU|CALAVERAS CO MAURY RASMUSSEN F|2023|05|22|11|15|38.1461|-120.6482|403.9|15.3||1|FM15-METAR|223|ICAO-KCPU|9.9||1|FM15-METAR|223|ICAO-KCPU|||||||||||||999|C-Calm|9|FM15-METAR|223|ICAO-KCPU|0.0|C-Calm|1|FM15-METAR|223|ICAO-KCPU|||||||||||||70|Derived||FM15-METAR|223|ICAO-KCPU|||||||||||||||||||||||||||||||||||||||||||||||||||||||||||||||||||||||||1012.9||1|FM15-METAR|223|ICAO-KCPU|||||||||||||||||||||||||||||||||||||||||||MET071METAR KCPU 221115Z AUTO 00000KT 10SM CLR 15/10 A2991 RMK AO2 T01530099=||F||223|ICAO-KCPU
USI0000KCPU|CALAVERAS CO MAURY RASMUSSEN F|2023|05|22|11|35|38.1461|-120.6482|403.9|15.0||1|FM15-METAR|223|ICAO-KCPU|10.0||1|FM15-METAR|223|ICAO-KCPU|||||||||||||999|C-Calm|9|FM15-METAR|223|ICAO-KCPU|0.0|C-Calm|1|FM15-METAR|223|ICAO-KCPU|||||||||||||72|Derived||FM15-METAR|223|ICAO-KCPU|||||||||||||||||||||||||||||||||||||||||||||||||||||||||||||||||||||||||1012.9||1|FM15-METAR|223|ICAO-KCPU|||||||||||||||||||||||||||||||||||||||||||MET071METAR KCPU 221135Z AUTO 00000KT 10SM CLR 15/10 A2991 RMK AO2 T01500100=||F||223|ICAO-KCPU
USI0000KCPU|CALAVERAS CO MAURY RASMUSSEN F|2023|05|22|11|55|38.1461|-120.6482|403.9|14.9||1|FM15-METAR|223|ICAO-KCPU|9.6||1|FM15-METAR|223|ICAO-KCPU|||||||||||||999|C-Calm|9|FM15-METAR|223|ICAO-KCPU|0.0|C-Calm|1|FM15-METAR|223|ICAO-KCPU|||||||||||||71|Derived||FM15-METAR|223|ICAO-KCPU|||||||||||||||||||||||||||||||||||||||||||||||||||||||||||||||||||||||||1012.5||1|FM15-METAR|223|ICAO-KCPU|||||||||||||||||||||||||||||||||||||||||||MET083METAR KCPU 221155Z AUTO 00000KT 10SM CLR 15/10 A2990 RMK AO2 T01490096 10204 20149=||F||223|ICAO-KCPU
USI0000KCPU|CALAVERAS CO MAURY RASMUSSEN F|2023|05|22|12|15|38.1461|-120.6482|403.9|14.5||1|FM15-METAR|223|ICAO-KCPU|9.6||1|FM15-METAR|223|ICAO-KCPU|||||||||||||999|C-Calm|9|FM15-METAR|223|ICAO-KCPU|0.0|C-Calm|1|FM15-METAR|223|ICAO-KCPU|||||||||||||73|Derived||FM15-METAR|223|ICAO-KCPU|||||||||||||||||||||||||||||||||||||||||||||||||||||||||||||||||||||||||1012.5||1|FM15-METAR|223|ICAO-KCPU|||||||||||||||||||||||||||||||||||||||||||MET071METAR KCPU 221215Z AUTO 00000KT 10SM CLR 15/10 A2990 RMK AO2 T01450096=||F||223|ICAO-KCPU
USI0000KCPU|CALAVERAS CO MAURY RASMUSSEN F|2023|05|22|12|35|38.1461|-120.6482|403.9|15.1||1|FM15-METAR|223|ICAO-KCPU|9.6||1|FM15-METAR|223|ICAO-KCPU|||||||||||||999|C-Calm|9|FM15-METAR|223|ICAO-KCPU|0.0|C-Calm|1|FM15-METAR|223|ICAO-KCPU|||||||||||||70|Derived||FM15-METAR|223|ICAO-KCPU|||||||||||||||||||||||||||||||||||||||||||||||||||||||||||||||||||||||||1012.5||1|FM15-METAR|223|ICAO-KCPU|||||||||||||||||||||||||||||||||||||||||||MET071METAR KCPU 221235Z AUTO 00000KT 10SM CLR 15/10 A2990 RMK AO2 T01510096=||F||223|ICAO-KCPU
USI0000KCPU|CALAVERAS CO MAURY RASMUSSEN F|2023|05|22|12|55|38.1461|-120.6482|403.9|13.9||1|FM15-METAR|223|ICAO-KCPU|9.4||1|FM15-METAR|223|ICAO-KCPU|||||||||||||999|C-Calm|9|FM15-METAR|223|ICAO-KCPU|0.0|C-Calm|1|FM15-METAR|223|ICAO-KCPU|||||||||||||74|Derived||FM15-METAR|223|ICAO-KCPU|||||||||||||||||||||||||||||||||||||||||||||||||||||||||||||||||||||||||1012.9||1|FM15-METAR|223|ICAO-KCPU|||||||||||||||||||||||||||||||||||||||||||MET071METAR KCPU 221255Z AUTO 00000KT 10SM CLR 14/09 A2991 RMK AO2 T01390094=||F||223|ICAO-KCPU
USI0000KCPU|CALAVERAS CO MAURY RASMUSSEN F|2023|05|22|13|15|38.1461|-120.6482|403.9|14.6||1|FM15-METAR|223|ICAO-KCPU|9.0||1|FM15-METAR|223|ICAO-KCPU|||||||||||||999|C-Calm|9|FM15-METAR|223|ICAO-KCPU|0.0|C-Calm|1|FM15-METAR|223|ICAO-KCPU|||||||||||||69|Derived||FM15-METAR|223|ICAO-KCPU|||||||||||||||||||||||||||||||||||||||||||||||||||||||||||||||||||||||||1012.9||1|FM15-METAR|223|ICAO-KCPU|||||||||||||||||||||||||||||||||||||||||||MET071METAR KCPU 221315Z AUTO 00000KT 10SM CLR 15/09 A2991 RMK AO2 T01460090=||F||223|ICAO-KCPU
USI0000KCPU|CALAVERAS CO MAURY RASMUSSEN F|2023|05|22|13|35|38.1461|-120.6482|403.9|14.6||1|FM15-METAR|223|ICAO-KCPU|9.1||1|FM15-METAR|223|ICAO-KCPU|||||||||||||999|C-Calm|9|FM15-METAR|223|ICAO-KCPU|0.0|C-Calm|1|FM15-METAR|223|ICAO-KCPU|||||||||||||70|Derived||FM15-METAR|223|ICAO-KCPU|||||||||||||||||||||||||||||||||||||||||||||||||||||||||||||||||||||||||1012.9||1|FM15-METAR|223|ICAO-KCPU|||||||||||||||||||||||||||||||||||||||||||MET071METAR KCPU 221335Z AUTO 00000KT 10SM CLR 15/09 A2991 RMK AO2 T01460091=||F||223|ICAO-KCPU
USI0000KCPU|CALAVERAS CO MAURY RASMUSSEN F|2023|05|22|13|55|38.1461|-120.6482|403.9|15.2||1|FM15-METAR|223|ICAO-KCPU|9.3||1|FM15-METAR|223|ICAO-KCPU|||||||||||||999|C-Calm|9|FM15-METAR|223|ICAO-KCPU|0.0|C-Calm|1|FM15-METAR|223|ICAO-KCPU|||||||||||||68|Derived||FM15-METAR|223|ICAO-KCPU|||||||||||||||||||||||||||||||||||||||||||||||||||||||||||||||||||||||||1012.9||1|FM15-METAR|223|ICAO-KCPU|||||||||||||||||||||||||||||||||||||||||||MET071METAR KCPU 221355Z AUTO 00000KT 10SM CLR 15/09 A2991 RMK AO2 T01520093=||F||223|ICAO-KCPU
USI0000KCPU|CALAVERAS CO MAURY RASMUSSEN F|2023|05|22|14|15|38.1461|-120.6482|403.9|15.2||1|FM15-METAR|223|ICAO-KCPU|9.0||1|FM15-METAR|223|ICAO-KCPU|||||||||||||999|C-Calm|9|FM15-METAR|223|ICAO-KCPU|0.0|C-Calm|1|FM15-METAR|223|ICAO-KCPU|||||||||||||67|Derived||FM15-METAR|223|ICAO-KCPU|||||||||||||||||||||||||||||||||||||||||||||||||||||||||||||||||||||||||1012.9||1|FM15-METAR|223|ICAO-KCPU|||||||||||||||||||||||||||||||||||||||||||MET071METAR KCPU 221415Z AUTO 00000KT 10SM CLR 15/09 A2991 RMK AO2 T01520090=||F||223|ICAO-KCPU
USI0000KCPU|CALAVERAS CO MAURY RASMUSSEN F|2023|05|22|14|35|38.1461|-120.6482|403.9|16.3||1|FM15-METAR|223|ICAO-KCPU|9.4||1|FM15-METAR|223|ICAO-KCPU|||||||||||||999|C-Calm|9|FM15-METAR|223|ICAO-KCPU|0.0|C-Calm|1|FM15-METAR|223|ICAO-KCPU|||||||||||||64|Derived||FM15-METAR|223|ICAO-KCPU|||||||||||||||||||||||||||||||||||||||||||||||||||||||||||||||||||||||||1012.9||1|FM15-METAR|223|ICAO-KCPU|||||||||||||||||||||||||||||||||||||||||||MET071METAR KCPU 221435Z AUTO 00000KT 10SM CLR 16/09 A2991 RMK AO2 T01630094=||F||223|ICAO-KCPU
USI0000KCPU|CALAVERAS CO MAURY RASMUSSEN F|2023|05|22|14|55|38.1461|-120.6482|403.9|17.5||1|FM15-METAR|223|ICAO-KCPU|9.7||1|FM15-METAR|223|ICAO-KCPU|||||||||||||999|C-Calm|9|FM15-METAR|223|ICAO-KCPU|0.0|C-Calm|1|FM15-METAR|223|ICAO-KCPU|||||||||||||60|Derived||FM15-METAR|223|ICAO-KCPU|||||||||||||||||||||||||||||||||||||||||||||||||||||||||||||||||||||||||1012.9||1|FM15-METAR|223|ICAO-KCPU|||||||||||||||||||||||||||||||||||||||||||MET071METAR KCPU 221455Z AUTO 00000KT 10SM CLR 18/10 A2991 RMK AO2 T01750097=||F||223|ICAO-KCPU
USI0000KCPU|CALAVERAS CO MAURY RASMUSSEN F|2023|05|22|15|15|38.1461|-120.6482|403.9|19.2||1|FM15-METAR|223|ICAO-KCPU|9.9||1|FM15-METAR|223|ICAO-KCPU|||||||||||||999|C-Calm|9|FM15-METAR|223|ICAO-KCPU|0.0|C-Calm|1|FM15-METAR|223|ICAO-KCPU|||||||||||||55|Derived||FM15-METAR|223|ICAO-KCPU|||||||||||||||||||||||||||||||||||||||||||||||||||||||||||||||||||||||||1013.2||1|FM15-METAR|223|ICAO-KCPU|||||||||||||||||||||||||||||||||||||||||||MET071METAR KCPU 221515Z AUTO 00000KT 10SM CLR 19/10 A2992 RMK AO2 T01920099=||F||223|ICAO-KCPU
USI0000KCPU|CALAVERAS CO MAURY RASMUSSEN F|2023|05|22|15|35|38.1461|-120.6482|403.9|20.2||1|FM15-METAR|223|ICAO-KCPU|10.7||1|FM15-METAR|223|ICAO-KCPU|||||||||||||999|C-Calm|9|FM15-METAR|223|ICAO-KCPU|0.0|C-Calm|1|FM15-METAR|223|ICAO-KCPU|||||||||||||55|Derived||FM15-METAR|223|ICAO-KCPU|||||||||||||||||||||||||||||||||||||||||||||||||||||||||||||||||||||||||1013.2||1|FM15-METAR|223|ICAO-KCPU|||||||||||||||||||||||||||||||||||||||||||MET071METAR KCPU 221535Z AUTO 00000KT 10SM CLR 20/11 A2992 RMK AO2 T02020107=||F||223|ICAO-KCPU
USI0000KCPU|CALAVERAS CO MAURY RASMUSSEN F|2023|05|22|15|55|38.1461|-120.6482|403.9|22.1||1|FM15-METAR|223|ICAO-KCPU|11.0||1|FM15-METAR|223|ICAO-KCPU|||||||||||||999|C-Calm|9|FM15-METAR|223|ICAO-KCPU|0.0|C-Calm|1|FM15-METAR|223|ICAO-KCPU|||||||||||||49|Derived||FM15-METAR|223|ICAO-KCPU|||||||||||||||||||||||||||||||||||||||||||||||||||||||||||||||||||||||||1013.2||1|FM15-METAR|223|ICAO-KCPU|||||||||||||||||||||||||||||||||||||||||||MET071METAR KCPU 221555Z AUTO 00000KT 10SM CLR 22/11 A2992 RMK AO2 T02210110=||F||223|ICAO-KCPU
USI0000KCPU|CALAVERAS CO MAURY RASMUSSEN F|2023|05|22|16|15|38.1461|-120.6482|403.9|23.3||1|FM15-METAR|223|ICAO-KCPU|10.8||1|FM15-METAR|223|ICAO-KCPU|||||||||||||999|C-Calm|9|FM15-METAR|223|ICAO-KCPU|0.0|C-Calm|1|FM15-METAR|223|ICAO-KCPU|||||||||||||45|Derived||FM15-METAR|223|ICAO-KCPU|||||||||||||||||||||||||||||||||||||||||||||||||||||||||||||||||||||||||1013.2||1|FM15-METAR|223|ICAO-KCPU|||||||||||||||||||||||||||||||||||||||||||MET071METAR KCPU 221615Z AUTO 00000KT 10SM CLR 23/11 A2992 RMK AO2 T02330108=||F||223|ICAO-KCPU
USI0000KCPU|CALAVERAS CO MAURY RASMUSSEN F|2023|05|22|16|35|38.1461|-120.6482|403.9|24.5||1|FM15-METAR|223|ICAO-KCPU|9.8||1|FM15-METAR|223|ICAO-KCPU|||||||||||||999|C-Calm|9|FM15-METAR|223|ICAO-KCPU|0.0|C-Calm|1|FM15-METAR|223|ICAO-KCPU|||||||||||||39|Derived||FM15-METAR|223|ICAO-KCPU|||||||||||||||||||||||||||||||||||||||||||||||||||||||||||||||||||||||||1013.2||1|FM15-METAR|223|ICAO-KCPU|||||||||||||||||||||||||||||||||||||||||||MET071METAR KCPU 221635Z AUTO 00000KT 10SM CLR 25/10 A2992 RMK AO2 T02450098=||F||223|ICAO-KCPU
USI0000KCPU|CALAVERAS CO MAURY RASMUSSEN F|2023|05|22|16|55|38.1461|-120.6482|403.9|26.3||1|FM15-METAR|223|ICAO-KCPU|9.7||1|FM15-METAR|223|ICAO-KCPU|||||||||||||999|C-Calm|9|FM15-METAR|223|ICAO-KCPU|0.0|C-Calm|1|FM15-METAR|223|ICAO-KCPU|||||||||||||35|Derived||FM15-METAR|223|ICAO-KCPU|||||||||||||||||||||||||||||||||||||||||||||||||||||||||||||||||||||||||1013.2||1|FM15-METAR|223|ICAO-KCPU|||||||||||||||||||||||||||||||||||||||||||MET071METAR KCPU 221655Z AUTO 00000KT 10SM CLR 26/10 A2992 RMK AO2 T02630097=||F||223|ICAO-KCPU
USI0000KCPU|CALAVERAS CO MAURY RASMUSSEN F|2023|05|22|17|15|38.1461|-120.6482|403.9|26.8||1|FM15-METAR|223|ICAO-KCPU|9.9||1|FM15-METAR|223|ICAO-KCPU|||||||||||||999|C-Calm|9|FM15-METAR|223|ICAO-KCPU|0.0|C-Calm|1|FM15-METAR|223|ICAO-KCPU|||||||||||||35|Derived||FM15-METAR|223|ICAO-KCPU|||||||||||||||||||||||||||||||||||||||||||||||||||||||||||||||||||||||||1012.9||1|FM15-METAR|223|ICAO-KCPU|||||||||||||||||||||||||||||||||||||||||||MET071METAR KCPU 221715Z AUTO 00000KT 10SM CLR 27/10 A2991 RMK AO2 T02680099=||F||223|ICAO-KCPU
USI0000KCPU|CALAVERAS CO MAURY RASMUSSEN F|2023|05|22|17|35|38.1461|-120.6482|403.9|27.0||1|FM15-METAR|223|ICAO-KCPU|8.2||1|FM15-METAR|223|ICAO-KCPU|||||||||||||999|C-Calm|9|FM15-METAR|223|ICAO-KCPU|0.0|C-Calm|1|FM15-METAR|223|ICAO-KCPU|||||||||||||31|Derived||FM15-METAR|223|ICAO-KCPU|||||||||||||||||||||||||||||||||||||||||||||||||||||||||||||||||||||||||1012.9||1|FM15-METAR|223|ICAO-KCPU|||||||||||||||||||||||||||||||||||||||||||MET071METAR KCPU 221735Z AUTO 00000KT 10SM CLR 27/08 A2991 RMK AO2 T02700082=||F||223|ICAO-KCPU
USI0000KCPU|CALAVERAS CO MAURY RASMUSSEN F|2023|05|22|17|55|38.1461|-120.6482|403.9|27.8||1|FM15-METAR|223|ICAO-KCPU|9.1||1|FM15-METAR|223|ICAO-KCPU|||||||||||||150|N-Normal|1|FM15-METAR|223|ICAO-KCPU|1.5|N-Normal|1|FM15-METAR|223|ICAO-KCPU|||||||||||||31|Derived||FM15-METAR|223|ICAO-KCPU|||||||||||||||||||||||||||||||||||||||||||||||||||||||||||||||||||||||||1012.9||1|FM15-METAR|223|ICAO-KCPU|||||||||||||||||||||||||||||||||||||||||||MET083METAR KCPU 221755Z AUTO 15003KT 10SM CLR 28/09 A2991 RMK AO2 T02780091 10278 20138=||F||223|ICAO-KCPU
USI0000KCPU|CALAVERAS CO MAURY RASMUSSEN F|2023|05|22|18|15|38.1461|-120.6482|403.9|27.8||1|FM15-METAR|223|ICAO-KCPU|9.6||1|FM15-METAR|223|ICAO-KCPU|||||||||||||999|C-Calm|9|FM15-METAR|223|ICAO-KCPU|0.0|C-Calm|1|FM15-METAR|223|ICAO-KCPU|||||||||||||32|Derived||FM15-METAR|223|ICAO-KCPU|||||||||||||||||||||||||||||||||||||||||||||||||||||||||||||||||||||||||1012.9||1|FM15-METAR|223|ICAO-KCPU|||||||||||||||||||||||||||||||||||||||||||MET071METAR KCPU 221815Z AUTO 00000KT 10SM CLR 28/10 A2991 RMK AO2 T02780096=||F||223|ICAO-KCPU
USI0000KCPU|CALAVERAS CO MAURY RASMUSSEN F|2023|05|22|18|35|38.1461|-120.6482|403.9|29.2||1|FM15-METAR|223|ICAO-KCPU|10.0||1|FM15-METAR|223|ICAO-KCPU|||||||||||||999|C-Calm|9|FM15-METAR|223|ICAO-KCPU|0.0|C-Calm|1|FM15-METAR|223|ICAO-KCPU|||||||||||||30|Derived||FM15-METAR|223|ICAO-KCPU|||||||||||||||||||||||||||||||||||||||||||||||||||||||||||||||||||||||||1012.9||1|FM15-METAR|223|ICAO-KCPU|||||||||||||||||||||||||||||||||||||||||||MET071METAR KCPU 221835Z AUTO 00000KT 10SM CLR 29/10 A2991 RMK AO2 T02920100=||F||223|ICAO-KCPU
USI0000KCPU|CALAVERAS CO MAURY RASMUSSEN F|2023|05|22|18|55|38.1461|-120.6482|403.9|29.5||1|FM15-METAR|223|ICAO-KCPU|9.7||1|FM15-METAR|223|ICAO-KCPU|||||||||||||999|C-Calm|9|FM15-METAR|223|ICAO-KCPU|0.0|C-Calm|1|FM15-METAR|223|ICAO-KCPU|||||||||||||29|Derived||FM15-METAR|223|ICAO-KCPU|||||||||||||||||||||||||||||||||||||||||||||||||||||||||||||||||||||||||1012.5||1|FM15-METAR|223|ICAO-KCPU|||||||||||||||||||||||||||||||||||||||||||MET071METAR KCPU 221855Z AUTO 00000KT 10SM CLR 30/10 A2990 RMK AO2 T02950097=||F||223|ICAO-KCPU
USI0000KCPU|CALAVERAS CO MAURY RASMUSSEN F|2023|05|22|19|15|38.1461|-120.6482|403.9|30.3||1|FM15-METAR|223|ICAO-KCPU|8.8||1|FM15-METAR|223|ICAO-KCPU|||||||||||||150|N-Normal|1|FM15-METAR|223|ICAO-KCPU|1.5|N-Normal|1|FM15-METAR|223|ICAO-KCPU|||||||||||||26|Derived||FM15-METAR|223|ICAO-KCPU|||||||||||||||||||||||||||||||||||||||||||||||||||||||||||||||||||||||||1012.5||1|FM15-METAR|223|ICAO-KCPU|||||||||||||||||||||||||||||||||||||||||||MET071METAR KCPU 221915Z AUTO 15003KT 10SM CLR 30/09 A2990 RMK AO2 T03030088=||F||223|ICAO-KCPU
USI0000KCPU|CALAVERAS CO MAURY RASMUSSEN F|2023|05|22|19|35|38.1461|-120.6482|403.9|30.9||1|FM15-METAR|223|ICAO-KCPU|7.3||1|FM15-METAR|223|ICAO-KCPU|||||||||||||999|C-Calm|9|FM15-METAR|223|ICAO-KCPU|0.0|C-Calm|1|FM15-METAR|223|ICAO-KCPU|||||||||||||23|Derived||FM15-METAR|223|ICAO-KCPU|||||||||||||||||||||||||||||||||||||||||||||||||||||||||||||||||||||||||1012.5||1|FM15-METAR|223|ICAO-KCPU|||||||||||||||||||||||||||||||||||||||||||MET071METAR KCPU 221935Z AUTO 00000KT 10SM CLR 31/07 A2990 RMK AO2 T03090073=||F||223|ICAO-KCPU
USI0000KCPU|CALAVERAS CO MAURY RASMUSSEN F|2023|05|22|19|55|38.1461|-120.6482|403.9|31.3||1|FM15-METAR|223|ICAO-KCPU|9.0||1|FM15-METAR|223|ICAO-KCPU|||||||||||||999|C-Calm|9|FM15-METAR|223|ICAO-KCPU|0.0|C-Calm|1|FM15-METAR|223|ICAO-KCPU|||||||||||||25|Derived||FM15-METAR|223|ICAO-KCPU|||||||||||||||||||||||||||||||||||||||||||||||||||||||||||||||||||||||||1012.2||1|FM15-METAR|223|ICAO-KCPU|||||||||||||||||||||||||||||||||||||||||||MET071METAR KCPU 221955Z AUTO 00000KT 10SM CLR 31/09 A2989 RMK AO2 T03130090=||F||223|ICAO-KCPU
USI0000KCPU|CALAVERAS CO MAURY RASMUSSEN F|2023|05|22|20|15|38.1461|-120.6482|403.9|31.5||1|FM15-METAR|223|ICAO-KCPU|9.3||1|FM15-METAR|223|ICAO-KCPU|||||||||||||210|N-Normal|1|FM15-METAR|223|ICAO-KCPU|2.1|N-Normal|1|FM15-METAR|223|ICAO-KCPU|||||||||||||25|Derived||FM15-METAR|223|ICAO-KCPU|||||||||||||||||||||||||||||||||||||||||||||||||||||||||||||||||||||||||1011.8||1|FM15-METAR|223|ICAO-KCPU|||||||||||||||||||||||||||||||||||||||||||MET071METAR KCPU 222015Z AUTO 21004KT 10SM CLR 32/09 A2988 RMK AO2 T03150093=||F||223|ICAO-KCPU
