Station_ID|Station_name|Year|Month|Day|Hour|Minute|Latitude|Longitude|Elevation|temperature|temperature_Measurement_Code|temperature_Quality_Code|temperature_Report_Type|temperature_Source_Code|temperature_Source_Station_ID|dew_point_temperature|dew_point_temperature_Measurement_Code|dew_point_temperature_Quality_Code|dew_point_temperature_Report_Type|dew_point_temperature_Source_Code|dew_point_temperature_Source_Station_ID|station_level_pressure|station_level_pressure_Measurement_Code|station_level_pressure_Quality_Code|station_level_pressure_Report_Type|station_level_pressure_Source_Code|station_level_pressure_Source_Station_ID|sea_level_pressure|sea_level_pressure_Measurement_Code|sea_level_pressure_Quality_Code|sea_level_pressure_Report_Type|sea_level_pressure_Source_Code|sea_level_pressure_Source_Station_ID|wind_direction|wind_direction_Measurement_Code|wind_direction_Quality_Code|wind_direction_Report_Type|wind_direction_Source_Code|wind_direction_Source_Station_ID|wind_speed|wind_speed_Measurement_Code|wind_speed_Quality_Code|wind_speed_Report_Type|wind_speed_Source_Code|wind_speed_Source_Station_ID|wind_gust|wind_gust_Measurement_Code|wind_gust_Quality_Code|wind_gust_Report_Type|wind_gust_Source_Code|wind_gust_Source_Station_ID|precipitation|precipitation_Measurement_Code|precipitation_Quality_Code|precipitation_Report_Type|precipitation_Source_Code|precipitation_Source_Station_ID|relative_humidity|relative_humidity_Measurement_Code|relative_humidity_Quality_Code|relative_humidity_Report_Type|relative_humidity_Source_Code|relative_humidity_Source_Station_ID|wet_bulb_temperature|wet_bulb_temperature_Measurement_Code|wet_bulb_temperature_Quality_Code|wet_bulb_temperature_Report_Type|wet_bulb_temperature_Source_Code|wet_bulb_temperature_Source_Station_ID|pres_wx_MW1|pres_wx_MW1_Measurement_Code|pres_wx_MW1_Quality_Code|pres_wx_MW1_Report_Type|pres_wx_MW1_Source_Code|pres_wx_MW1_Source_Station_ID|pres_wx_MW2|pres_wx_MW2_Measurement_Code|pres_wx_MW2_Quality_Code|pres_wx_MW2_Report_Type|pres_wx_MW2_Source_Code|pres_wx_MW2_Source_Station_ID|pres_wx_MW3|pres_wx_MW3_Measurement_Code|pres_wx_MW3_Quality_Code|pres_wx_MW3_Report_Type|pres_wx_MW3_Source_Code|pres_wx_MW3_Source_Station_ID|pres_wx_AU1|pres_wx_AU1_Measurement_Code|pres_wx_AU1_Quality_Code|pres_wx_AU1_Report_Type|pres_wx_AU1_Source_Code|pres_wx_AU1_Source_Station_ID|pres_wx_AU2|pres_wx_AU2_Measurement_Code|pres_wx_AU2_Quality_Code|pres_wx_AU2_Report_Type|pres_wx_AU2_Source_Code|pres_wx_AU2_Source_Station_ID|pres_wx_AU3|pres_wx_AU3_Measurement_Code|pres_wx_AU3_Quality_Code|pres_wx_AU3_Report_Type|pres_wx_AU3_Source_Code|pres_wx_AU3_Source_Station_ID|pres_wx_AW1|pres_wx_AW1_Measurement_Code|pres_wx_AW1_Quality_Code|pres_wx_AW1_Report_Type|pres_wx_AW1_Source_Code|pres_wx_AW1_Source_Station_ID|pres_wx_AW2|pres_wx_AW2_Measurement_Code|pres_wx_AW2_Quality_Code|pres_wx_AW2_Report_Type|pres_wx_AW2_Source_Code|pres_wx_AW2_Source_Station_ID|pres_wx_AW3|pres_wx_AW3_Measurement_Code|pres_wx_AW3_Quality_Code|pres_wx_AW3_Report_Type|pres_wx_AW3_Source_Code|pres_wx_AW3_Source_Station_ID|snow_depth|snow_depth_Measurement_Code|snow_depth_Quality_Code|snow_depth_Report_Type|snow_depth_Source_Code|snow_depth_Source_Station_ID|visibility|visibility_Measurement_Code|visibility_Quality_Code|visibility_Report_Type|visibility_Source_Code|visibility_Source_Station_ID|altimeter|altimeter_Measurement_Code|altimeter_Quality_Code|altimeter_Report_Type|altimeter_Source_Code|altimeter_Source_Station_ID|pressure_3hr_change|pressure_3hr_change_Measurement_Code|pressure_3hr_change_Quality_Code|pressure_3hr_change_Report_Type|pressure_3hr_change_Source_Code|pressure_3hr_change_Source_Station_ID|sky_cover_1|sky_cover_1_Measurement_Code|sky_cover_1_Quality_Code|sky_cover_1_Report_Type|sky_cover_1_Source_Code|sky_cover_1_Source_Station_ID|sky_cover_baseht_1|sky_cover_baseht_1_Measurement_Code|sky_cover_baseht_1_Quality_Code|sky_cover_baseht_1_Report_Type|sky_cover_baseht_1_Source_Code|sky_cover_baseht_1_Source_Station_ID|sky_cover_2|sky_cover_2_Measurement_Code|sky_cover_2_Quality_Code|sky_cover_2_Report_Type|sky_cover_2_Source_Code|sky_cover_2_Source_Station_ID|sky_cover_baseht_2|sky_cover_baseht_2_Measurement_Code|sky_cover_baseht_2_Quality_Code|sky_cover_baseht_2_Report_Type|sky_cover_baseht_2_Source_Code|sky_cover_baseht_2_Source_Station_ID|sky_cover_3|sky_cover_3_Measurement_Code|sky_cover_3_Quality_Code|sky_cover_3_Report_Type|sky_cover_3_Source_Code|sky_cover_3_Source_Station_ID|sky_cover_baseht_3|sky_cover_baseht_3_Measurement_Code|sky_cover_baseht_3_Quality_Code|sky_cover_baseht_3_Report_Type|sky_cover_baseht_3_Source_Code|sky_cover_baseht_3_Source_Station_ID|remarks|remarks_Measurement_Code|remarks_Quality_Code|remarks_Report_Type|remarks_Source_Code|remarks_Source_Station_ID
USW00023167|FRESNO CHANDLER DWTN AP|2023|02|15|22|25|36.7333|-119.8167|84.1|11.0||1|FM15-METAR|223|ICAO-KFCH|-2.0||1|FM15-METAR|223|ICAO-KFCH|||||||||||||130|N-Normal|1|FM15-METAR|223|ICAO-KFCH|3.6|N-Normal|1|FM15-METAR|223|ICAO-KFCH|||||||||||||41|Derived||FM15-METAR|223|ICAO-KFCH|||||||||||||||||||||||||||||||||||||||||||||||||||||||||||||||||||||||||1024.0||1|FM15-METAR|223|ICAO-KFCH|||||||||||||||||||||||||||||||||||||||||||MET058METAR KFCH 152225Z AUTO 13007KT 10SM 11/M02 A3024 RMK A01=||F||223|ICAO-KFCH
USW00023167|FRESNO CHANDLER DWTN AP|2023|02|15|22|45|36.7333|-119.8167|84.1|11.0||1|FM15-METAR|223|ICAO-KFCH|-3.0||1|FM15-METAR|223|ICAO-KFCH|||||||||||||999|V-Variable|9|FM15-METAR|223|ICAO-KFCH|1.5|V-Variable|1|FM15-METAR|223|ICAO-KFCH|||||||||||||38|Derived||FM15-METAR|223|ICAO-KFCH|||||||||||||||||||||||||||||||||||||||||||||||||||||||||||||||||||||||||1024.0||1|FM15-METAR|223|ICAO-KFCH|||||||||||||||||||||||||||||||||||||||||||MET062METAR KFCH 152245Z AUTO VRB03KT 10SM CLR 11/M03 A3024 RMK A01=||F||223|ICAO-KFCH
USW00023167|FRESNO CHANDLER DWTN AP|2023|02|15|23|15|36.7333|-119.8167|84.1|12.0||1|FM15-METAR|223|ICAO-KFCH|-3.0||1|FM15-METAR|223|ICAO-KFCH|||||||||||||999|C-Calm|9|FM15-METAR|223|ICAO-KFCH|0.0|C-Calm|1|FM15-METAR|223|ICAO-KFCH|||||||||||||35|Derived||FM15-METAR|223|ICAO-KFCH|||||||||||||||||||||||||||||||||||||||||||||||||||||||||||||||||||||||||1024.0||1|FM15-METAR|223|ICAO-KFCH|||||||||||||||||||||||||||||||||||||||||||MET062METAR KFCH 152315Z AUTO 00000KT 10SM CLR 12/M03 A3024 RMK A01=||F||223|ICAO-KFCH
USW00023167|FRESNO CHANDLER DWTN AP|2023|02|15|23|35|36.7333|-119.8167|84.1|12.0||1|FM15-METAR|223|ICAO-KFCH|-3.0||1|FM15-METAR|223|ICAO-KFCH|||||||||||||170|N-Normal|1|FM15-METAR|223|ICAO-KFCH|2.6|N-Normal|1|FM15-METAR|223|ICAO-KFCH|||||||||||||35|Derived||FM15-METAR|223|ICAO-KFCH|||||||||||||||||||||||||||||||||||||||||||||||||||||||||||||||||||||||||1024.4||1|FM15-METAR|223|ICAO-KFCH|||||||||||||||||||||||||||||||||||||||||||MET062METAR KFCH 152335Z AUTO 17005KT 10SM CLR 12/M03 A3025 RMK A01=||F||223|ICAO-KFCH
USW00023167|FRESNO CHANDLER DWTN AP|2023|02|15|23|55|36.7333|-119.8167|84.1|12.0||1|FM15-METAR|223|ICAO-KFCH|-4.0||1|FM15-METAR|223|ICAO-KFCH|||||||||||||999|C-Calm|9|FM15-METAR|223|ICAO-KFCH|0.0|C-Calm|1|FM15-METAR|223|ICAO-KFCH|||||||||||||33|Derived||FM15-METAR|223|ICAO-KFCH|||||||||||||||||||||||||||||||||||||||||||||||||||||||||||||||||||||||||1024.4||1|FM15-METAR|223|ICAO-KFCH|||||||||||||||||||||||||||||||||||||||||||MET062METAR KFCH 152355Z AUTO 00000KT 10SM CLR 12/M04 A3025 RMK A01=||F||223|ICAO-KFCH
USW00023167|FRESNO CHANDLER DWTN AP|2023|02|16|00|35|36.7333|-119.8167|84.1|12.0||1|FM15-METAR|223|ICAO-KFCH|-4.0||1|FM15-METAR|223|ICAO-KFCH|||||||||||||999|C-Calm|9|FM15-METAR|223|ICAO-KFCH|0.0|C-Calm|1|FM15-METAR|223|ICAO-KFCH|||||||||||||33|Derived||FM15-METAR|223|ICAO-KFCH|||||||||||||||||||||||||||||||||||||||||||||||||||||||||||||||||||||||||1024.4||1|FM15-METAR|223|ICAO-KFCH|||||||||||||||||||||||||||||||||||||||||||MET062METAR KFCH 160035Z AUTO 00000KT 10SM CLR 12/M04 A3025 RMK A01=||F||223|ICAO-KFCH
USW00023167|FRESNO CHANDLER DWTN AP|2023|02|16|00|55|36.7333|-119.8167|84.1|12.0||1|FM15-METAR|223|ICAO-KFCH|-4.0||1|FM15-METAR|223|ICAO-KFCH|||||||||||||999|C-Calm|9|FM15-METAR|223|ICAO-KFCH|0.0|C-Calm|1|FM15-METAR|223|ICAO-KFCH|||||||||||||33|Derived||FM15-METAR|223|ICAO-KFCH|||||||||||||||||||||||||||||||||||||||||||||||||||||||||||||||||||||||||1024.4||1|FM15-METAR|223|ICAO-KFCH|||||||||||||||||||||||||||||||||||||||||||MET062METAR KFCH 160055Z AUTO 00000KT 10SM CLR 12/M04 A3025 RMK A01=||F||223|ICAO-KFCH
USW00023167|FRESNO CHANDLER DWTN AP|2023|02|16|01|15|36.7333|-119.8167|84.1|11.0||1|FM15-METAR|223|ICAO-KFCH|-4.0||1|FM15-METAR|223|ICAO-KFCH|||||||||||||999|C-Calm|9|FM15-METAR|223|ICAO-KFCH|0.0|C-Calm|1|FM15-METAR|223|ICAO-KFCH|||||||||||||35|Derived||FM15-METAR|223|ICAO-KFCH|||||||||||||||||||||||||||||||||||||||||||||||||||||||||||||||||||||||||1024.7||1|FM15-METAR|223|ICAO-KFCH|||||||||||||||||||||||||||||||||||||||||||MET062METAR KFCH 160115Z AUTO 00000KT 10SM CLR 11/M04 A3026 RMK A01=||F||223|ICAO-KFCH
USW00023167|FRESNO CHANDLER DWTN AP|2023|02|16|01|35|36.7333|-119.8167|84.1|11.0||1|FM15-METAR|223|ICAO-KFCH|-3.0||1|FM15-METAR|223|ICAO-KFCH|||||||||||||999|C-Calm|9|FM15-METAR|223|ICAO-KFCH|0.0|C-Calm|1|FM15-METAR|223|ICAO-KFCH|||||||||||||38|Derived||FM15-METAR|223|ICAO-KFCH|||||||||||||||||||||||||||||||||||||||||||||||||||||||||||||||||||||||||1024.7||1|FM15-METAR|223|ICAO-KFCH|||||||||||||||||||||||||||||||||||||||||||MET062METAR KFCH 160135Z AUTO 00000KT 10SM CLR 11/M03 A3026 RMK A01=||F||223|ICAO-KFCH
USW00023167|FRESNO CHANDLER DWTN AP|2023|02|16|01|50|36.7333|-119.8167|84.1|11.0||1|FM15-METAR|223|ICAO-KFCH|-3.0||1|FM15-METAR|223|ICAO-KFCH|||||||||||||999|C-Calm|9|FM15-METAR|223|ICAO-KFCH|0.0|C-Calm|1|FM15-METAR|223|ICAO-KFCH|||||||||||||38|Derived||FM15-METAR|223|ICAO-KFCH|||||||||||||||||||||||||||||||||||||||||||||||||||||||||||||||||||||||||1025.1||1|FM15-METAR|223|ICAO-KFCH|||||||||||||||||||||||||||||||||||||||||||MET062METAR KFCH 160150Z AUTO 00000KT 10SM CLR 11/M03 A3027 RMK A01=||F||223|ICAO-KFCH
USW00023167|FRESNO CHANDLER DWTN AP|2023|02|16|02|15|36.7333|-119.8167|84.1|10.0||1|FM15-METAR|223|ICAO-KFCH|-3.0||1|FM15-METAR|223|ICAO-KFCH|||||||||||||999|C-Calm|9|FM15-METAR|223|ICAO-KFCH|0.0|C-Calm|1|FM15-METAR|223|ICAO-KFCH|||||||||||||40|Derived||FM15-METAR|223|ICAO-KFCH|||||||||||||||||||||||||||||||||||||||||||||||||||||||||||||||||||||||||1025.4||1|FM15-METAR|223|ICAO-KFCH|||||||||||||||||||||||||||||||||||||||||||MET062METAR KFCH 160215Z AUTO 00000KT 10SM CLR 10/M03 A3028 RMK A01=||F||223|ICAO-KFCH
USW00023167|FRESNO CHANDLER DWTN AP|2023|02|16|02|35|36.7333|-119.8167|84.1|9.0||1|FM15-METAR|223|ICAO-KFCH|-2.0||1|FM15-METAR|223|ICAO-KFCH|||||||||||||999|C-Calm|9|FM15-METAR|223|ICAO-KFCH|0.0|C-Calm|1|FM15-METAR|223|ICAO-KFCH|||||||||||||46|Derived||FM15-METAR|223|ICAO-KFCH|||||||||||||||||||||||||||||||||||||||||||||||||||||||||||||||||||||||||1025.7||1|FM15-METAR|223|ICAO-KFCH|||||||||||||||||||||||||||||||||||||||||||MET072METAR KFCH 160235Z AUTO 00000KT 10SM FEW035 SCT043 09/M02 A3029 RMK A01=||F||223|ICAO-KFCH
USW00023167|FRESNO CHANDLER DWTN AP|2023|02|16|02|50|36.7333|-119.8167|84.1|9.0||1|FM15-METAR|223|ICAO-KFCH|-3.0||1|FM15-METAR|223|ICAO-KFCH|||||||||||||999|C-Calm|9|FM15-METAR|223|ICAO-KFCH|0.0|C-Calm|1|FM15-METAR|223|ICAO-KFCH|||||||||||||43|Derived||FM15-METAR|223|ICAO-KFCH|||||||||||||||||||||||||||||||||||||||||||||||||||||||||||||||||||||||||1025.7||1|FM15-METAR|223|ICAO-KFCH|||||||||||||||||||||||||||||||||||||||||||MET079METAR KFCH 160250Z AUTO 00000KT 10SM FEW031 SCT036 BKN045 09/M03 A3029 RMK A01=||F||223|ICAO-KFCH
USW00023167|FRESNO CHANDLER DWTN AP|2023|02|16|03|15|36.7333|-119.8167|84.1|8.0||1|FM15-METAR|223|ICAO-KFCH|-2.0||1|FM15-METAR|223|ICAO-KFCH|||||||||||||999|C-Calm|9|FM15-METAR|223|ICAO-KFCH|0.0|C-Calm|1|FM15-METAR|223|ICAO-KFCH|||||||||||||50|Derived||FM15-METAR|223|ICAO-KFCH|||||||||||||||||||||||||||||||||||||||||||||||||||||||||||||||||||||||||1025.7||1|FM15-METAR|223|ICAO-KFCH|||||||||||||||||||||||||||||||||||||||||||MET062METAR KFCH 160315Z AUTO 00000KT 10SM CLR 08/M02 A3029 RMK A01=||F||223|ICAO-KFCH
USW00023167|FRESNO CHANDLER DWTN AP|2023|02|16|03|35|36.7333|-119.8167|84.1|8.0||1|FM15-METAR|223|ICAO-KFCH|-2.0||1|FM15-METAR|223|ICAO-KFCH|||||||||||||999|C-Calm|9|FM15-METAR|223|ICAO-KFCH|0.0|C-Calm|1|FM15-METAR|223|ICAO-KFCH|||||||||||||50|Derived||FM15-METAR|223|ICAO-KFCH|||||||||||||||||||||||||||||||||||||||||||||||||||||||||||||||||||||||||1026.1||1|FM15-METAR|223|ICAO-KFCH|||||||||||||||||||||||||||||||||||||||||||MET065METAR KFCH 160335Z AUTO 00000KT 10SM FEW032 08/M02 A3030 RMK A01=||F||223|ICAO-KFCH
USW00023167|FRESNO CHANDLER DWTN AP|2023|02|16|03|55|36.7333|-119.8167|84.1|7.0||1|FM15-METAR|223|ICAO-KFCH|-2.0||1|FM15-METAR|223|ICAO-KFCH|||||||||||||999|C-Calm|9|FM15-METAR|223|ICAO-KFCH|0.0|C-Calm|1|FM15-METAR|223|ICAO-KFCH|||||||||||||53|Derived||FM15-METAR|223|ICAO-KFCH|||||||||||||||||||||||||||||||||||||||||||||||||||||||||||||||||||||||||1026.1||1|FM15-METAR|223|ICAO-KFCH|||||||||||||||||||||||||||||||||||||||||||MET062METAR KFCH 160355Z AUTO 00000KT 10SM CLR 07/M02 A3030 RMK A01=||F||223|ICAO-KFCH
USW00023167|FRESNO CHANDLER DWTN AP|2023|02|16|04|15|36.7333|-119.8167|84.1|6.0||1|FM15-METAR|223|ICAO-KFCH|-1.0||1|FM15-METAR|223|ICAO-KFCH|||||||||||||999|C-Calm|9|FM15-METAR|223|ICAO-KFCH|0.0|C-Calm|1|FM15-METAR|223|ICAO-KFCH|||||||||||||61|Derived||FM15-METAR|223|ICAO-KFCH|||||||||||||||||||||||||||||||||||||||||||||||||||||||||||||||||||||||||1026.1||1|FM15-METAR|223|ICAO-KFCH|||||||||||||||||||||||||||||||||||||||||||MET062METAR KFCH 160415Z AUTO 00000KT 10SM CLR 06/M01 A3030 RMK A01=||F||223|ICAO-KFCH
USW00023167|FRESNO CHANDLER DWTN AP|2023|02|16|04|35|36.7333|-119.8167|84.1|7.0||1|FM15-METAR|223|ICAO-KFCH|-1.0||1|FM15-METAR|223|ICAO-KFCH|||||||||||||999|C-Calm|9|FM15-METAR|223|ICAO-KFCH|0.0|C-Calm|1|FM15-METAR|223|ICAO-KFCH|||||||||||||57|Derived||FM15-METAR|223|ICAO-KFCH|||||||||||||||||||||||||||||||||||||||||||||||||||||||||||||||||||||||||1026.1||1|FM15-METAR|223|ICAO-KFCH|||||||||||||||||||||||||||||||||||||||||||MET062METAR KFCH 160435Z AUTO 00000KT 10SM CLR 07/M01 A3030 RMK A01=||F||223|ICAO-KFCH
USW00023167|FRESNO CHANDLER DWTN AP|2023|02|16|04|55|36.7333|-119.8167|84.1|||||||||||||||||||||||||||||||||||||||||||||||||||||||||||||||||||||||||||||||||||||||||||||||||||||||||||||||||||||||||||||||1026.4||1|FM15-METAR|223|ICAO-KFCH|||||||||||||||||||||||||||||||||||||||||||MET038METAR KFCH 160455Z AUTO A3031 RMK A01=||F||223|ICAO-KFCH
USW00023167|FRESNO CHANDLER DWTN AP|2023|02|16|05|15|36.7333|-119.8167|84.1|6.0||1|FM15-METAR|223|ICAO-KFCH|-1.0||1|FM15-METAR|223|ICAO-KFCH|||||||||||||999|C-Calm|9|FM15-METAR|223|ICAO-KFCH|0.0|C-Calm|1|FM15-METAR|223|ICAO-KFCH|||||||||||||61|Derived||FM15-METAR|223|ICAO-KFCH|||||||||||||||||||||||||||||||||||||||||||||||||||||||||||||||||||||||||1026.4||1|FM15-METAR|223|ICAO-KFCH|||||||||||||||||||||||||||||||||||||||||||MET058METAR KFCH 160515Z AUTO 00000KT 10SM 06/M01 A3031 RMK A01=||F||223|ICAO-KFCH
USW00023167|FRESNO CHANDLER DWTN AP|2023|02|16|05|35|36.7333|-119.8167|84.1|5.0||1|FM15-METAR|223|ICAO-KFCH|-1.0||1|FM15-METAR|223|ICAO-KFCH|||||||||||||999|C-Calm|9|FM15-METAR|223|ICAO-KFCH|0.0|C-Calm|1|FM15-METAR|223|ICAO-KFCH|||||||||||||66|Derived||FM15-METAR|223|ICAO-KFCH|||||||||||||||||||||||||||||||||||||||||||||||||||||||||||||||||||||||||1026.4||1|FM15-METAR|223|ICAO-KFCH|||||||||||||||||||||||||||||||||||||||||||MET062METAR KFCH 160535Z AUTO 00000KT 10SM CLR 05/M01 A3031 RMK A01=||F||223|ICAO-KFCH
USW00023167|FRESNO CHANDLER DWTN AP|2023|02|16|05|55|36.7333|-119.8167|84.1|6.0||1|FM15-METAR|223|ICAO-KFCH|-1.0||1|FM15-METAR|223|ICAO-KFCH|||||||||||||999|C-Calm|9|FM15-METAR|223|ICAO-KFCH|0.0|C-Calm|1|FM15-METAR|223|ICAO-KFCH|||||||||||||61|Derived||FM15-METAR|223|ICAO-KFCH|||||||||||||||||||||||||||||||||||||||||||||||||||||||||||||||||||||||||1026.7||1|FM15-METAR|223|ICAO-KFCH|||||||||||||||||||||||||||||||||||||||||||MET062METAR KFCH 160555Z AUTO 00000KT 10SM CLR 06/M01 A3032 RMK A01=||F||223|ICAO-KFCH
USW00023167|FRESNO CHANDLER DWTN AP|2023|02|16|06|15|36.7333|-119.8167|84.1|5.0||1|FM15-METAR|223|ICAO-KFCH|-1.0||1|FM15-METAR|223|ICAO-KFCH|||||||||||||999|C-Calm|9|FM15-METAR|223|ICAO-KFCH|0.0|C-Calm|1|FM15-METAR|223|ICAO-KFCH|||||||||||||66|Derived||FM15-METAR|223|ICAO-KFCH|||||||||||||||||||||||||||||||||||||||||||||||||||||||||||||||||||||||||1026.7||1|FM15-METAR|223|ICAO-KFCH|||||||||||||||||||||||||||||||||||||||||||MET062METAR KFCH 160615Z AUTO 00000KT 10SM CLR 05/M01 A3032 RMK A01=||F||223|ICAO-KFCH
USW00023167|FRESNO CHANDLER DWTN AP|2023|02|16|06|35|36.7333|-119.8167|84.1|5.0||1|FM15-METAR|223|ICAO-KFCH|-1.0||1|FM15-METAR|223|ICAO-KFCH|||||||||||||999|C-Calm|9|FM15-METAR|223|ICAO-KFCH|0.0|C-Calm|1|FM15-METAR|223|ICAO-KFCH|||||||||||||66|Derived||FM15-METAR|223|ICAO-KFCH|||||||||||||||||||||||||||||||||||||||||||||||||||||||||||||||||||||||||1026.7||1|FM15-METAR|223|ICAO-KFCH|||||||||||||||||||||||||||||||||||||||||||MET062METAR KFCH 160635Z AUTO 00000KT 10SM CLR 05/M01 A3032 RMK A01=||F||223|ICAO-KFCH
USW00023167|FRESNO CHANDLER DWTN AP|2023|02|16|06|55|36.7333|-119.8167|84.1|4.0||1|FM15-METAR|223|ICAO-KFCH|-1.0||1|FM15-METAR|223|ICAO-KFCH|||||||||||||999|C-Calm|9|FM15-METAR|223|ICAO-KFCH|0.0|C-Calm|1|FM15-METAR|223|ICAO-KFCH|||||||||||||70|Derived||FM15-METAR|223|ICAO-KFCH|||||||||||||||||||||||||||||||||||||||||||||||||||||||||||||||||||||||||1027.1||1|FM15-METAR|223|ICAO-KFCH|||||||||||||||||||||||||||||||||||||||||||MET062METAR KFCH 160655Z AUTO 00000KT 10SM CLR 04/M01 A3033 RMK A01=||F||223|ICAO-KFCH
USW00023167|FRESNO CHANDLER DWTN AP|2023|02|16|07|15|36.7333|-119.8167|84.1|5.0||1|FM15-METAR|223|ICAO-KFCH|-1.0||1|FM15-METAR|223|ICAO-KFCH|||||||||||||999|C-Calm|9|FM15-METAR|223|ICAO-KFCH|0.0|C-Calm|1|FM15-METAR|223|ICAO-KFCH|||||||||||||66|Derived||FM15-METAR|223|ICAO-KFCH|||||||||||||||||||||||||||||||||||||||||||||||||||||||||||||||||||||||||1027.4||1|FM15-METAR|223|ICAO-KFCH|||||||||||||||||||||||||||||||||||||||||||MET062METAR KFCH 160715Z AUTO 00000KT 10SM CLR 05/M01 A3034 RMK A01=||F||223|ICAO-KFCH
USW00023167|FRESNO CHANDLER DWTN AP|2023|02|16|07|35|36.7333|-119.8167|84.1|5.0||1|FM15-METAR|223|ICAO-KFCH|-1.0||1|FM15-METAR|223|ICAO-KFCH|||||||||||||999|C-Calm|9|FM15-METAR|223|ICAO-KFCH|0.0|C-Calm|1|FM15-METAR|223|ICAO-KFCH|||||||||||||66|Derived||FM15-METAR|223|ICAO-KFCH|||||||||||||||||||||||||||||||||||||||||||||||||||||||||||||||||||||||||1027.4||1|FM15-METAR|223|ICAO-KFCH|||||||||||||||||||||||||||||||||||||||||||MET062METAR KFCH 160735Z AUTO 00000KT 10SM CLR 05/M01 A3034 RMK A01=||F||223|ICAO-KFCH
USW00023167|FRESNO CHANDLER DWTN AP|2023|02|16|07|55|36.7333|-119.8167|84.1|4.0||1|FM15-METAR|223|ICAO-KFCH|-1.0||1|FM15-METAR|223|ICAO-KFCH|||||||||||||999|C-Calm|9|FM15-METAR|223|ICAO-KFCH|0.0|C-Calm|1|FM15-METAR|223|ICAO-KFCH|||||||||||||70|Derived||FM15-METAR|223|ICAO-KFCH|||||||||||||||||||||||||||||||||||||||||||||||||||||||||||||||||||||||||1027.4||1|FM15-METAR|223|ICAO-KFCH|||||||||||||||||||||||||||||||||||||||||||MET062METAR KFCH 160755Z AUTO 00000KT 10SM CLR 04/M01 A3034 RMK A01=||F||223|ICAO-KFCH
USW00023167|FRESNO CHANDLER DWTN AP|2023|02|16|08|15|36.7333|-119.8167|84.1|4.0||1|FM15-METAR|223|ICAO-KFCH|0.0||1|FM15-METAR|223|ICAO-KFCH|||||||||||||999|C-Calm|9|FM15-METAR|223|ICAO-KFCH|0.0|C-Calm|1|FM15-METAR|223|ICAO-KFCH|||||||||||||75|Derived||FM15-METAR|223|ICAO-KFCH|||||||||||||||||||||||||||||||||||||||||||||||||||||||||||||||||||||||||1027.4||1|FM15-METAR|223|ICAO-KFCH|||||||||||||||||||||||||||||||||||||||||||MET062METAR KFCH 160815Z AUTO 00000KT 10SM CLR 04/M00 A3034 RMK A01=||F||223|ICAO-KFCH
USW00023167|FRESNO CHANDLER DWTN AP|2023|02|16|08|35|36.7333|-119.8167|84.1|4.0||1|FM15-METAR|223|ICAO-KFCH|0.0||1|FM15-METAR|223|ICAO-KFCH|||||||||||||080|N-Normal|1|FM15-METAR|223|ICAO-KFCH|3.6|N-Normal|1|FM15-METAR|223|ICAO-KFCH|||||||||||||75|Derived||FM15-METAR|223|ICAO-KFCH|||||||||||||||||||||||||||||||||||||||||||||||||||||||||||||||||||||||||1027.4||1|FM15-METAR|223|ICAO-KFCH|||||||||||||||||||||||||||||||||||||||||||MET062METAR KFCH 160835Z AUTO 08007KT 10SM CLR 04/M00 A3034 RMK A01=||F||223|ICAO-KFCH
USW00023167|FRESNO CHANDLER DWTN AP|2023|02|16|08|55|36.7333|-119.8167|84.1|4.0||1|FM15-METAR|223|ICAO-KFCH|0.0||1|FM15-METAR|223|ICAO-KFCH|||||||||||||090|N-Normal|1|FM15-METAR|223|ICAO-KFCH|3.1|N-Normal|1|FM15-METAR|223|ICAO-KFCH|||||||||||||75|Derived||FM15-METAR|223|ICAO-KFCH|||||||||||||||||||||||||||||||||||||||||||||||||||||||||||||||||||||||||1027.1||1|FM15-METAR|223|ICAO-KFCH|||||||||||||||||||||||||||||||||||||||||||MET061METAR KFCH 160855Z AUTO 09006KT 10SM CLR 04/00 A3033 RMK A01=||F||223|ICAO-KFCH
USW00023167|FRESNO CHANDLER DWTN AP|2023|02|16|09|15|36.7333|-119.8167|84.1|4.0||1|FM15-METAR|223|ICAO-KFCH|0.0||1|FM15-METAR|223|ICAO-KFCH|||||||||||||110|N-Normal|1|FM15-METAR|223|ICAO-KFCH|2.6|N-Normal|1|FM15-METAR|223|ICAO-KFCH|||||||||||||75|Derived||FM15-METAR|223|ICAO-KFCH|||||||||||||||||||||||||||||||||||||||||||||||||||||||||||||||||||||||||1027.1||1|FM15-METAR|223|ICAO-KFCH|||||||||||||||||||||||||||||||||||||||||||MET062METAR KFCH 160915Z AUTO 11005KT 10SM CLR 04/M00 A3033 RMK A01=||F||223|ICAO-KFCH
USW00023167|FRESNO CHANDLER DWTN AP|2023|02|16|09|30|36.7333|-119.8167|84.1|3.0||1|FM15-METAR|223|ICAO-KFCH|0.0||1|FM15-METAR|223|ICAO-KFCH|||||||||||||120|N-Normal|1|FM15-METAR|223|ICAO-KFCH|3.1|N-Normal|1|FM15-METAR|223|ICAO-KFCH|||||||||||||81|Derived||FM15-METAR|223|ICAO-KFCH|||||||||||||||||||||||||||||||||||||||||||||||||||||||||||||||||||||||||1026.7||1|FM15-METAR|223|ICAO-KFCH|||||||||||||||||||||||||||||||||||||||||||MET062METAR KFCH 160930Z AUTO 12006KT 10SM CLR 03/M00 A3032 RMK A01=||F||223|ICAO-KFCH
USW00023167|FRESNO CHANDLER DWTN AP|2023|02|16|09|50|36.7333|-119.8167|84.1|3.0||1|FM15-METAR|223|ICAO-KFCH|0.0||1|FM15-METAR|223|ICAO-KFCH|||||||||||||120|N-Normal|1|FM15-METAR|223|ICAO-KFCH|2.6|N-Normal|1|FM15-METAR|223|ICAO-KFCH|||||||||||||81|Derived||FM15-METAR|223|ICAO-KFCH|||||||||||||||||||||||||||||||||||||||||||||||||||||||||||||||||||||||||1026.7||1|FM15-METAR|223|ICAO-KFCH|||||||||||||||||||||||||||||||||||||||||||MET062METAR KFCH 160950Z AUTO 12005KT 10SM CLR 03/M00 A3032 RMK A01=||F||223|ICAO-KFCH
USW00023167|FRESNO CHANDLER DWTN AP|2023|02|16|10|15|36.7333|-119.8167|84.1|3.0||1|FM15-METAR|223|ICAO-KFCH|0.0||1|FM15-METAR|223|ICAO-KFCH|||||||||||||100|N-Normal|1|FM15-METAR|223|ICAO-KFCH|2.1|N-Normal|1|FM15-METAR|223|ICAO-KFCH|||||||||||||81|Derived||FM15-METAR|223|ICAO-KFCH|||||||||||||||||||||||||||||||||||||||||||||||||||||||||||||||||||||||||1026.4||1|FM15-METAR|223|ICAO-KFCH|||||||||||||||||||||||||||||||||||||||||||MET062METAR KFCH 161015Z AUTO 10004KT 10SM CLR 03/M00 A3031 RMK A01=||F||223|ICAO-KFCH
USW00023167|FRESNO CHANDLER DWTN AP|2023|02|16|10|35|36.7333|-119.8167|84.1|2.0||1|FM15-METAR|223|ICAO-KFCH|0.0||1|FM15-METAR|223|ICAO-KFCH|||||||||||||120|N-Normal|1|FM15-METAR|223|ICAO-KFCH|1.5|N-Normal|1|FM15-METAR|223|ICAO-KFCH|||||||||||||87|Derived||FM15-METAR|223|ICAO-KFCH|||||||||||||||||||||||||||||||||||||||||||||||||||||||||||||||||||||||||1026.1||1|FM15-METAR|223|ICAO-KFCH|||||||||||||||||||||||||||||||||||||||||||MET062METAR KFCH 161035Z AUTO 12003KT 10SM CLR 02/M00 A3030 RMK A01=||F||223|ICAO-KFCH
USW00023167|FRESNO CHANDLER DWTN AP|2023|02|16|10|55|36.7333|-119.8167|84.1|2.0||1|FM15-METAR|223|ICAO-KFCH|0.0||1|FM15-METAR|223|ICAO-KFCH|||||||||||||100|N-Normal|1|FM15-METAR|223|ICAO-KFCH|2.6|N-Normal|1|FM15-METAR|223|ICAO-KFCH|||||||||||||87|Derived||FM15-METAR|223|ICAO-KFCH|||||||||||||||||||||||||||||||||||||||||||||||||||||||||||||||||||||||||1026.1||1|FM15-METAR|223|ICAO-KFCH|||||||||||||||||||||||||||||||||||||||||||MET062METAR KFCH 161055Z AUTO 10005KT 10SM CLR 02/M00 A3030 RMK A01=||F||223|ICAO-KFCH
USW00023167|FRESNO CHANDLER DWTN AP|2023|02|16|11|15|36.7333|-119.8167|84.1|2.0||1|FM15-METAR|223|ICAO-KFCH|0.0||1|FM15-METAR|223|ICAO-KFCH|||||||||||||999|C-Calm|9|FM15-METAR|223|ICAO-KFCH|0.0|C-Calm|1|FM15-METAR|223|ICAO-KFCH|||||||||||||87|Derived||FM15-METAR|223|ICAO-KFCH|||||||||||||||||||||||||||||||||||||||||||||||||||||||||||||||||||||||||1026.1||1|FM15-METAR|223|ICAO-KFCH|||||||||||||||||||||||||||||||||||||||||||MET062METAR KFCH 161115Z AUTO 00000KT 10SM CLR 02/M00 A3030 RMK A01=||F||223|ICAO-KFCH
USW00023167|FRESNO CHANDLER DWTN AP|2023|02|16|11|35|36.7333|-119.8167|84.1|2.0||1|FM15-METAR|223|ICAO-KFCH|0.0||1|FM15-METAR|223|ICAO-KFCH|||||||||||||999|C-Calm|9|FM15-METAR|223|ICAO-KFCH|0.0|C-Calm|1|FM15-METAR|223|ICAO-KFCH|||||||||||||87|Derived||FM15-METAR|223|ICAO-KFCH|||||||||||||||||||||||||||||||||||||||||||||||||||||||||||||||||||||||||1026.1||1|FM15-METAR|223|ICAO-KFCH|||||||||||||||||||||||||||||||||||||||||||MET062METAR KFCH 161135Z AUTO 00000KT 10SM CLR 02/M00 A3030 RMK A01=||F||223|ICAO-KFCH
USW00023167|FRESNO CHANDLER DWTN AP|2023|02|16|11|50|36.7333|-119.8167|84.1|2.0||1|FM15-METAR|223|ICAO-KFCH|0.0||1|FM15-METAR|223|ICAO-KFCH|||||||||||||999|C-Calm|9|FM15-METAR|223|ICAO-KFCH|0.0|C-Calm|1|FM15-METAR|223|ICAO-KFCH|||||||||||||87|Derived||FM15-METAR|223|ICAO-KFCH|||||||||||||||||||||||||||||||||||||||||||||||||||||||||||||||||||||||||1026.1||1|FM15-METAR|223|ICAO-KFCH|||||||||||||||||||||||||||||||||||||||||||MET062METAR KFCH 161150Z AUTO 00000KT 10SM CLR 02/M00 A3030 RMK A01=||F||223|ICAO-KFCH
USW00023167|FRESNO CHANDLER DWTN AP|2023|02|16|12|10|36.7333|-119.8167|84.1|2.0||1|FM15-METAR|223|ICAO-KFCH|0.0||1|FM15-METAR|223|ICAO-KFCH|||||||||||||999|C-Calm|9|FM15-METAR|223|ICAO-KFCH|0.0|C-Calm|1|FM15-METAR|223|ICAO-KFCH|||||||||||||87|Derived||FM15-METAR|223|ICAO-KFCH|||||||||||||||||||||||||||||||||||||||||||||||||||||||||||||||||||||||||1026.1||1|FM15-METAR|223|ICAO-KFCH|||||||||||||||||||||||||||||||||||||||||||MET062METAR KFCH 161210Z AUTO 00000KT 10SM CLR 02/M00 A3030 RMK A01=||F||223|ICAO-KFCH
USW00023167|FRESNO CHANDLER DWTN AP|2023|02|16|12|35|36.7333|-119.8167|84.1|2.0||1|FM15-METAR|223|ICAO-KFCH|0.0||1|FM15-METAR|223|ICAO-KFCH|||||||||||||090|N-Normal|1|FM15-METAR|223|ICAO-KFCH|1.5|N-Normal|1|FM15-METAR|223|ICAO-KFCH|||||||||||||87|Derived||FM15-METAR|223|ICAO-KFCH|||||||||||||||||||||||||||||||||||||||||||||||||||||||||||||||||||||||||1026.1||1|FM15-METAR|223|ICAO-KFCH|||||||||||||||||||||||||||||||||||||||||||MET062METAR KFCH 161235Z AUTO 09003KT 10SM CLR 02/M00 A3030 RMK A01=||F||223|ICAO-KFCH
USW00023167|FRESNO CHANDLER DWTN AP|2023|02|16|12|50|36.7333|-119.8167|84.1|2.0||1|FM15-METAR|223|ICAO-KFCH|0.0||1|FM15-METAR|223|ICAO-KFCH|||||||||||||999|C-Calm|9|FM15-METAR|223|ICAO-KFCH|0.0|C-Calm|1|FM15-METAR|223|ICAO-KFCH|||||||||||||87|Derived||FM15-METAR|223|ICAO-KFCH|||||||||||||||||||||||||||||||||||||||||||||||||||||||||||||||||||||||||1026.4||1|FM15-METAR|223|ICAO-KFCH|||||||||||||||||||||||||||||||||||||||||||MET062METAR KFCH 161250Z AUTO 00000KT 10SM CLR 02/M00 A3031 RMK A01=||F||223|ICAO-KFCH
USW00023167|FRESNO CHANDLER DWTN AP|2023|02|16|13|10|36.7333|-119.8167|84.1|2.0||1|FM15-METAR|223|ICAO-KFCH|0.0||1|FM15-METAR|223|ICAO-KFCH|||||||||||||999|C-Calm|9|FM15-METAR|223|ICAO-KFCH|0.0|C-Calm|1|FM15-METAR|223|ICAO-KFCH|||||||||||||87|Derived||FM15-METAR|223|ICAO-KFCH|||||||||||||||||||||||||||||||||||||||||||||||||||||||||||||||||||||||||1026.4||1|FM15-METAR|223|ICAO-KFCH|||||||||||||||||||||||||||||||||||||||||||MET062METAR KFCH 161310Z AUTO 00000KT 10SM CLR 02/M00 A3031 RMK A01=||F||223|ICAO-KFCH
USW00023167|FRESNO CHANDLER DWTN AP|2023|02|16|13|30|36.7333|-119.8167|84.1|2.0||1|FM15-METAR|223|ICAO-KFCH|0.0||1|FM15-METAR|223|ICAO-KFCH|||||||||||||090|N-Normal|1|FM15-METAR|223|ICAO-KFCH|2.1|N-Normal|1|FM15-METAR|223|ICAO-KFCH|||||||||||||87|Derived||FM15-METAR|223|ICAO-KFCH|||||||||||||||||||||||||||||||||||||||||||||||||||||||||||||||||||||||||1026.4||1|FM15-METAR|223|ICAO-KFCH|||||||||||||||||||||||||||||||||||||||||||MET062METAR KFCH 161330Z AUTO 09004KT 10SM CLR 02/M00 A3031 RMK A01=||F||223|ICAO-KFCH
USW00023167|FRESNO CHANDLER DWTN AP|2023|02|16|13|55|36.7333|-119.8167|84.1|2.0||1|FM15-METAR|223|ICAO-KFCH|0.0||1|FM15-METAR|223|ICAO-KFCH|||||||||||||999|C-Calm|9|FM15-METAR|223|ICAO-KFCH|0.0|C-Calm|1|FM15-METAR|223|ICAO-KFCH|||||||||||||87|Derived||FM15-METAR|223|ICAO-KFCH|||||||||||||||||||||||||||||||||||||||||||||||||||||||||||||||||||||||||1026.4||1|FM15-METAR|223|ICAO-KFCH|||||||||||||||||||||||||||||||||||||||||||MET062METAR KFCH 161355Z AUTO 00000KT 10SM CLR 02/M00 A3031 RMK A01=||F||223|ICAO-KFCH
USW00023167|FRESNO CHANDLER DWTN AP|2023|02|16|14|15|36.7333|-119.8167|84.1|1.0||1|FM15-METAR|223|ICAO-KFCH|0.0||1|FM15-METAR|223|ICAO-KFCH|||||||||||||050|N-Normal|1|FM15-METAR|223|ICAO-KFCH|1.5|N-Normal|1|FM15-METAR|223|ICAO-KFCH|||||||||||||93|Derived||FM15-METAR|223|ICAO-KFCH|||||||||||||||||||||||||||||||||||||||||||||||||||||||||||||||||||||||||1026.4||1|FM15-METAR|223|ICAO-KFCH|||||||||||||||||||||||||||||||||||||||||||MET062METAR KFCH 161415Z AUTO 05003KT 10SM CLR 01/M00 A3031 RMK A01=||F||223|ICAO-KFCH
USW00023167|FRESNO CHANDLER DWTN AP|2023|02|16|14|35|36.7333|-119.8167|84.1|1.0||1|FM15-METAR|223|ICAO-KFCH|0.0||1|FM15-METAR|223|ICAO-KFCH|||||||||||||070|N-Normal|1|FM15-METAR|223|ICAO-KFCH|2.1|N-Normal|1|FM15-METAR|223|ICAO-KFCH|||||||||||||93|Derived||FM15-METAR|223|ICAO-KFCH|||||||||||||||||||||||||||||||||||||||||||||||||||||||||||||||||||||||||1026.4||1|FM15-METAR|223|ICAO-KFCH|||||||||||||||||||||||||||||||||||||||||||MET062METAR KFCH 161435Z AUTO 07004KT 10SM CLR 01/M00 A3031 RMK A01=||F||223|ICAO-KFCH
USW00023167|FRESNO CHANDLER DWTN AP|2023|02|16|14|50|36.7333|-119.8167|84.1|2.0||1|FM15-METAR|223|ICAO-KFCH|-1.0||1|FM15-METAR|223|ICAO-KFCH|||||||||||||080|N-Normal|1|FM15-METAR|223|ICAO-KFCH|2.6|N-Normal|1|FM15-METAR|223|ICAO-KFCH|||||||||||||81|Derived||FM15-METAR|223|ICAO-KFCH|||||||||||||||||||||||||||||||||||||||||||||||||||||||||||||||||||||||||1026.7||1|FM15-METAR|223|ICAO-KFCH|||||||||||||||||||||||||||||||||||||||||||MET062METAR KFCH 161450Z AUTO 08005KT 10SM CLR 02/M01 A3032 RMK A01=||F||223|ICAO-KFCH
USW00023167|FRESNO CHANDLER DWTN AP|2023|02|16|15|15|36.7333|-119.8167|84.1|2.0||1|FM15-METAR|223|ICAO-KFCH|-1.0||1|FM15-METAR|223|ICAO-KFCH|||||||||||||999|C-Calm|9|FM15-METAR|223|ICAO-KFCH|0.0|C-Calm|1|FM15-METAR|223|ICAO-KFCH|||||||||||||81|Derived||FM15-METAR|223|ICAO-KFCH|||||||||||||||||||||||||||||||||||||||||||||||||||||||||||||||||||||||||1026.4||1|FM15-METAR|223|ICAO-KFCH|||||||||||||||||||||||||||||||||||||||||||MET062METAR KFCH 161515Z AUTO 00000KT 10SM CLR 02/M01 A3031 RMK A01=||F||223|ICAO-KFCH
USW00023167|FRESNO CHANDLER DWTN AP|2023|02|16|15|35|36.7333|-119.8167|84.1|3.0||1|FM15-METAR|223|ICAO-KFCH|0.0||1|FM15-METAR|223|ICAO-KFCH|||||||||||||110|N-Normal|1|FM15-METAR|223|ICAO-KFCH|2.6|N-Normal|1|FM15-METAR|223|ICAO-KFCH|||||||||||||81|Derived||FM15-METAR|223|ICAO-KFCH|||||||||||||||||||||||||||||||||||||||||||||||||||||||||||||||||||||||||1026.7||1|FM15-METAR|223|ICAO-KFCH|||||||||||||||||||||||||||||||||||||||||||MET062METAR KFCH 161535Z AUTO 11005KT 10SM CLR 03/M00 A3032 RMK A01=||F||223|ICAO-KFCH
USW00023167|FRESNO CHANDLER DWTN AP|2023|02|16|15|50|36.7333|-119.8167|84.1|3.0||1|FM15-METAR|223|ICAO-KFCH|0.0||1|FM15-METAR|223|ICAO-KFCH|||||||||||||100|N-Normal|1|FM15-METAR|223|ICAO-KFCH|2.1|N-Normal|1|FM15-METAR|223|ICAO-KFCH|||||||||||||81|Derived||FM15-METAR|223|ICAO-KFCH|||||||||||||||||||||||||||||||||||||||||||||||||||||||||||||||||||||||||1027.1||1|FM15-METAR|223|ICAO-KFCH|||||||||||||||||||||||||||||||||||||||||||MET062METAR KFCH 161550Z AUTO 10004KT 10SM CLR 03/M00 A3033 RMK A01=||F||223|ICAO-KFCH
USW00023167|FRESNO CHANDLER DWTN AP|2023|02|16|16|10|36.7333|-119.8167|84.1|4.0||1|FM15-METAR|223|ICAO-KFCH|0.0||1|FM15-METAR|223|ICAO-KFCH|||||||||||||110|N-Normal|1|FM15-METAR|223|ICAO-KFCH|2.6|N-Normal|1|FM15-METAR|223|ICAO-KFCH|||||||||||||75|Derived||FM15-METAR|223|ICAO-KFCH|||||||||||||||||||||||||||||||||||||||||||||||||||||||||||||||||||||||||1027.1||1|FM15-METAR|223|ICAO-KFCH|||||||||||||||||||||||||||||||||||||||||||MET061METAR KFCH 161610Z AUTO 11005KT 10SM CLR 04/00 A3033 RMK A01=||F||223|ICAO-KFCH
USW00023167|FRESNO CHANDLER DWTN AP|2023|02|16|16|35|36.7333|-119.8167|84.1|6.0||1|FM15-METAR|223|ICAO-KFCH|0.0||1|FM15-METAR|223|ICAO-KFCH|||||||||||||130|N-Normal|1|FM15-METAR|223|ICAO-KFCH|2.6|N-Normal|1|FM15-METAR|223|ICAO-KFCH|||||||||||||66|Derived||FM15-METAR|223|ICAO-KFCH|||||||||||||||||||||||||||||||||||||||||||||||||||||||||||||||||||||||||1027.1||1|FM15-METAR|223|ICAO-KFCH|||||||||||||||||||||||||||||||||||||||||||MET058METAR KFCH 161635Z AUTO 13005KT 10SM 06/M00 A3033 RMK A01=||F||223|ICAO-KFCH
USW00023167|FRESNO CHANDLER DWTN AP|2023|02|16|16|55|36.7333|-119.8167|84.1|6.0||1|FM15-METAR|223|ICAO-KFCH|0.0||1|FM15-METAR|223|ICAO-KFCH|||||||||||||180|N-Normal|1|FM15-METAR|223|ICAO-KFCH|2.1|N-Normal|1|FM15-METAR|223|ICAO-KFCH|||||||||||||66|Derived||FM15-METAR|223|ICAO-KFCH|||||||||||||||||||||||||||||||||||||||||||||||||||||||||||||||||||||||||1027.4||1|FM15-METAR|223|ICAO-KFCH|||||||||||||||||||||||||||||||||||||||||||MET061METAR KFCH 161655Z AUTO 18004KT 10SM CLR 06/00 A3034 RMK A01=||F||223|ICAO-KFCH
USW00023167|FRESNO CHANDLER DWTN AP|2023|02|16|17|15|36.7333|-119.8167|84.1|6.0||1|FM15-METAR|223|ICAO-KFCH|0.0||1|FM15-METAR|223|ICAO-KFCH|||||||||||||150|N-Normal|1|FM15-METAR|223|ICAO-KFCH|2.1|N-Normal|1|FM15-METAR|223|ICAO-KFCH|||||||||||||66|Derived||FM15-METAR|223|ICAO-KFCH|||||||||||||||||||||||||||||||||||||||||||||||||||||||||||||||||||||||||1027.4||1|FM15-METAR|223|ICAO-KFCH|||||||||||||||||||||||||||||||||||||||||||MET062METAR KFCH 161715Z AUTO 15004KT 10SM CLR 06/M00 A3034 RMK A01=||F||223|ICAO-KFCH
USW00023167|FRESNO CHANDLER DWTN AP|2023|02|16|17|30|36.7333|-119.8167|84.1|7.0||1|FM15-METAR|223|ICAO-KFCH|0.0||1|FM15-METAR|223|ICAO-KFCH|||||||||||||160|N-Normal|1|FM15-METAR|223|ICAO-KFCH|2.1|N-Normal|1|FM15-METAR|223|ICAO-KFCH|||||||||||||61|Derived||FM15-METAR|223|ICAO-KFCH|||||||||||||||||||||||||||||||||||||||||||||||||||||||||||||||||||||||||1027.4||1|FM15-METAR|223|ICAO-KFCH|||||||||||||||||||||||||||||||||||||||||||MET061METAR KFCH 161730Z AUTO 16004KT 10SM CLR 07/00 A3034 RMK A01=||F||223|ICAO-KFCH
USW00023167|FRESNO CHANDLER DWTN AP|2023|02|16|17|50|36.7333|-119.8167|84.1|8.0||1|FM15-METAR|223|ICAO-KFCH|0.0||1|FM15-METAR|223|ICAO-KFCH|||||||||||||160|N-Normal|1|FM15-METAR|223|ICAO-KFCH|3.1|N-Normal|1|FM15-METAR|223|ICAO-KFCH|||||||||||||57|Derived||FM15-METAR|223|ICAO-KFCH|||||||||||||||||||||||||||||||||||||||||||||||||||||||||||||||||||||||||1027.4||1|FM15-METAR|223|ICAO-KFCH|||||||||||||||||||||||||||||||||||||||||||MET058METAR KFCH 161750Z AUTO 16006KT 10SM 08/M00 A3034 RMK A01=||F||223|ICAO-KFCH
USW00023167|FRESNO CHANDLER DWTN AP|2023|02|16|18|15|36.7333|-119.8167|84.1|9.0||1|FM15-METAR|223|ICAO-KFCH|-1.0||1|FM15-METAR|223|ICAO-KFCH|||||||||||||170|N-Normal|1|FM15-METAR|223|ICAO-KFCH|2.6|N-Normal|1|FM15-METAR|223|ICAO-KFCH|||||||||||||50|Derived||FM15-METAR|223|ICAO-KFCH|||||||||||||||||||||||||||||||||||||||||||||||||||||||||||||||||||||||||1027.4||1|FM15-METAR|223|ICAO-KFCH|||||||||||||||||||||||||||||||||||||||||||MET062METAR KFCH 161815Z AUTO 17005KT 10SM CLR 09/M01 A3034 RMK A01=||F||223|ICAO-KFCH
USW00023167|FRESNO CHANDLER DWTN AP|2023|02|16|18|30|36.7333|-119.8167|84.1|9.0||1|FM15-METAR|223|ICAO-KFCH|-1.0||1|FM15-METAR|223|ICAO-KFCH|||||||||||||150|N-Normal|1|FM15-METAR|223|ICAO-KFCH|2.1|N-Normal|1|FM15-METAR|223|ICAO-KFCH|||||||||||||50|Derived||FM15-METAR|223|ICAO-KFCH|||||||||||||||||||||||||||||||||||||||||||||||||||||||||||||||||||||||||1027.4||1|FM15-METAR|223|ICAO-KFCH|||||||||||||||||||||||||||||||||||||||||||MET062METAR KFCH 161830Z AUTO 15004KT 10SM CLR 09/M01 A3034 RMK A01=||F||223|ICAO-KFCH
USW00023167|FRESNO CHANDLER DWTN AP|2023|02|16|18|50|36.7333|-119.8167|84.1|10.0||1|FM15-METAR|223|ICAO-KFCH|-2.0||1|FM15-METAR|223|ICAO-KFCH|||||||||||||999|V-Variable|9|FM15-METAR|223|ICAO-KFCH|1.5|V-Variable|1|FM15-METAR|223|ICAO-KFCH|||||||||||||43|Derived||FM15-METAR|223|ICAO-KFCH|||||||||||||||||||||||||||||||||||||||||||||||||||||||||||||||||||||||||1027.4||1|FM15-METAR|223|ICAO-KFCH|||||||||||||||||||||||||||||||||||||||||||MET062METAR KFCH 161850Z AUTO VRB03KT 10SM CLR 10/M02 A3034 RMK A01=||F||223|ICAO-KFCH
USW00023167|FRESNO CHANDLER DWTN AP|2023|02|16|19|15|36.7333|-119.8167|84.1|11.0||1|FM15-METAR|223|ICAO-KFCH|-2.0||1|FM15-METAR|223|ICAO-KFCH|||||||||||||160|N-Normal|1|FM15-METAR|223|ICAO-KFCH|3.1|N-Normal|1|FM15-METAR|223|ICAO-KFCH|||||||||||||41|Derived||FM15-METAR|223|ICAO-KFCH|||||||||||||||||||||||||||||||||||||||||||||||||||||||||||||||||||||||||1027.1||1|FM15-METAR|223|ICAO-KFCH|||||||||||||||||||||||||||||||||||||||||||MET062METAR KFCH 161915Z AUTO 16006KT 10SM CLR 11/M02 A3033 RMK A01=||F||223|ICAO-KFCH
USW00023167|FRESNO CHANDLER DWTN AP|2023|02|16|19|35|36.7333|-119.8167|84.1|12.0||1|FM15-METAR|223|ICAO-KFCH|-3.0||1|FM15-METAR|223|ICAO-KFCH|||||||||||||140|N-Normal|1|FM15-METAR|223|ICAO-KFCH|3.6|N-Normal|1|FM15-METAR|223|ICAO-KFCH|||||||||||||35|Derived||FM15-METAR|223|ICAO-KFCH|||||||||||||||||||||||||||||||||||||||||||||||||||||||||||||||||||||||||1026.7||1|FM15-METAR|223|ICAO-KFCH|||||||||||||||||||||||||||||||||||||||||||MET062METAR KFCH 161935Z AUTO 14007KT 10SM CLR 12/M03 A3032 RMK A01=||F||223|ICAO-KFCH
USW00023167|FRESNO CHANDLER DWTN AP|2023|02|16|19|55|36.7333|-119.8167|84.1|12.0||1|FM15-METAR|223|ICAO-KFCH|-3.0||1|FM15-METAR|223|ICAO-KFCH|||||||||||||140|N-Normal|1|FM15-METAR|223|ICAO-KFCH|2.6|N-Normal|1|FM15-METAR|223|ICAO-KFCH|||||||||||||35|Derived||FM15-METAR|223|ICAO-KFCH|||||||||||||||||||||||||||||||||||||||||||||||||||||||||||||||||||||||||1026.4||1|FM15-METAR|223|ICAO-KFCH|||||||||||||||||||||||||||||||||||||||||||MET062METAR KFCH 161955Z AUTO 14005KT 10SM CLR 12/M03 A3031 RMK A01=||F||223|ICAO-KFCH
USW00023167|FRESNO CHANDLER DWTN AP|2023|02|16|20|15|36.7333|-119.8167|84.1|13.0||1|FM15-METAR|223|ICAO-KFCH|-4.0||1|FM15-METAR|223|ICAO-KFCH|||||||||||||140|N-Normal|1|FM15-METAR|223|ICAO-KFCH|4.1|N-Normal|1|FM15-METAR|223|ICAO-KFCH|||||||||||||31|Derived||FM15-METAR|223|ICAO-KFCH|||||||||||||||||||||||||||||||||||||||||||||||||||||||||||||||||||||||||1026.1||1|FM15-METAR|223|ICAO-KFCH|||||||||||||||||||||||||||||||||||||||||||MET062METAR KFCH 162015Z AUTO 14008KT 10SM CLR 13/M04 A3030 RMK A01=||F||223|ICAO-KFCH
USW00023167|FRESNO CHANDLER DWTN AP|2023|02|16|20|35|36.7333|-119.8167|84.1|14.0||1|FM15-METAR|223|ICAO-KFCH|-5.0||1|FM15-METAR|223|ICAO-KFCH|||||||||||||170|N-Normal|1|FM15-METAR|223|ICAO-KFCH|4.1|N-Normal|1|FM15-METAR|223|ICAO-KFCH|||||||||||||27|Derived||FM15-METAR|223|ICAO-KFCH|||||||||||||||||||||||||||||||||||||||||||||||||||||||||||||||||||||||||1025.7||1|FM15-METAR|223|ICAO-KFCH|||||||||||||||||||||||||||||||||||||||||||MET062METAR KFCH 162035Z AUTO 17008KT 10SM CLR 14/M05 A3029 RMK A01=||F||223|ICAO-KFCH
USW00023167|FRESNO CHANDLER DWTN AP|2023|02|16|20|55|36.7333|-119.8167|84.1|14.0||1|FM15-METAR|223|ICAO-KFCH|-5.0||1|FM15-METAR|223|ICAO-KFCH|||||||||||||160|N-Normal|1|FM15-METAR|223|ICAO-KFCH|3.6|N-Normal|1|FM15-METAR|223|ICAO-KFCH|||||||||||||27|Derived||FM15-METAR|223|ICAO-KFCH|||||||||||||||||||||||||||||||||||||||||||||||||||||||||||||||||||||||||1025.4||1|FM15-METAR|223|ICAO-KFCH|||||||||||||||||||||||||||||||||||||||||||MET062METAR KFCH 162055Z AUTO 16007KT 10SM CLR 14/M05 A3028 RMK A01=||F||223|ICAO-KFCH
USW00023167|FRESNO CHANDLER DWTN AP|2023|02|16|21|15|36.7333|-119.8167|84.1|14.0||1|FM15-METAR|223|ICAO-KFCH|-6.0||1|FM15-METAR|223|ICAO-KFCH|||||||||||||160|N-Normal|1|FM15-METAR|223|ICAO-KFCH|3.6|N-Normal|1|FM15-METAR|223|ICAO-KFCH|||||||||||||25|Derived||FM15-METAR|223|ICAO-KFCH|||||||||||||||||||||||||||||||||||||||||||||||||||||||||||||||||||||||||1025.1||1|FM15-METAR|223|ICAO-KFCH|||||||||||||||||||||||||||||||||||||||||||MET062METAR KFCH 162115Z AUTO 16007KT 10SM CLR 14/M06 A3027 RMK A01=||F||223|ICAO-KFCH
USW00023167|FRESNO CHANDLER DWTN AP|2023|02|16|21|35|36.7333|-119.8167|84.1|14.0||1|FM15-METAR|223|ICAO-KFCH|-7.0||1|FM15-METAR|223|ICAO-KFCH|||||||||||||150|N-Normal|1|FM15-METAR|223|ICAO-KFCH|3.1|N-Normal|1|FM15-METAR|223|ICAO-KFCH|||||||||||||23|Derived||FM15-METAR|223|ICAO-KFCH|||||||||||||||||||||||||||||||||||||||||||||||||||||||||||||||||||||||||1024.7||1|FM15-METAR|223|ICAO-KFCH|||||||||||||||||||||||||||||||||||||||||||MET062METAR KFCH 162135Z AUTO 15006KT 10SM CLR 14/M07 A3026 RMK A01=||F||223|ICAO-KFCH
USW00023167|FRESNO CHANDLER DWTN AP|2023|02|16|21|55|36.7333|-119.8167|84.1|15.0||1|FM15-METAR|223|ICAO-KFCH|-7.0||1|FM15-METAR|223|ICAO-KFCH|||||||||||||160|N-Normal|1|FM15-METAR|223|ICAO-KFCH|3.1|N-Normal|1|FM15-METAR|223|ICAO-KFCH|||||||||||||21|Derived||FM15-METAR|223|ICAO-KFCH|||||||||||||||||||||||||||||||||||||||||||||||||||||||||||||||||||||||||1024.4||1|FM15-METAR|223|ICAO-KFCH|||||||||||||||||||||||||||||||||||||||||||MET062METAR KFCH 162155Z AUTO 16006KT 10SM CLR 15/M07 A3025 RMK A01=||F||223|ICAO-KFCH
USW00023167|FRESNO CHANDLER DWTN AP|2023|02|16|22|15|36.7333|-119.8167|84.1|15.0||1|FM15-METAR|223|ICAO-KFCH|-7.0||1|FM15-METAR|223|ICAO-KFCH|||||||||||||150|N-Normal|1|FM15-METAR|223|ICAO-KFCH|2.6|N-Normal|1|FM15-METAR|223|ICAO-KFCH|||||||||||||21|Derived||FM15-METAR|223|ICAO-KFCH|||||||||||||||||||||||||||||||||||||||||||||||||||||||||||||||||||||||||1024.0||1|FM15-METAR|223|ICAO-KFCH|||||||||||||||||||||||||||||||||||||||||||MET062METAR KFCH 162215Z AUTO 15005KT 10SM CLR 15/M07 A3024 RMK A01=||F||223|ICAO-KFCH
USW00023167|FRESNO CHANDLER DWTN AP|2023|02|16|22|35|36.7333|-119.8167|84.1|15.0||1|FM15-METAR|223|ICAO-KFCH|-7.0||1|FM15-METAR|223|ICAO-KFCH|||||||||||||150|N-Normal|1|FM15-METAR|223|ICAO-KFCH|1.5|N-Normal|1|FM15-METAR|223|ICAO-KFCH|||||||||||||21|Derived||FM15-METAR|223|ICAO-KFCH|||||||||||||||||||||||||||||||||||||||||||||||||||||||||||||||||||||||||1023.7||1|FM15-METAR|223|ICAO-KFCH|||||||||||||||||||||||||||||||||||||||||||MET062METAR KFCH 162235Z AUTO 15003KT 10SM CLR 15/M07 A3023 RMK A01=||F||223|ICAO-KFCH
USW00023167|FRESNO CHANDLER DWTN AP|2023|02|16|22|55|36.7333|-119.8167|84.1|15.0||1|FM15-METAR|223|ICAO-KFCH|-8.0||1|FM15-METAR|223|ICAO-KFCH|||||||||||||150|N-Normal|1|FM15-METAR|223|ICAO-KFCH|2.6|N-Normal|1|FM15-METAR|223|ICAO-KFCH|||||||||||||20|Derived||FM15-METAR|223|ICAO-KFCH|||||||||||||||||||||||||||||||||||||||||||||||||||||||||||||||||||||||||1023.7||1|FM15-METAR|223|ICAO-KFCH|||||||||||||||||||||||||||||||||||||||||||MET062METAR KFCH 162255Z AUTO 15005KT 10SM CLR 15/M08 A3023 RMK A01=||F||223|ICAO-KFCH
USW00023167|FRESNO CHANDLER DWTN AP|2023|02|16|23|15|36.7333|-119.8167|84.1|15.0||1|FM15-METAR|223|ICAO-KFCH|-8.0||1|FM15-METAR|223|ICAO-KFCH|||||||||||||180|N-Normal|1|FM15-METAR|223|ICAO-KFCH|3.6|N-Normal|1|FM15-METAR|223|ICAO-KFCH|||||||||||||20|Derived||FM15-METAR|223|ICAO-KFCH|||||||||||||||||||||||||||||||||||||||||||||||||||||||||||||||||||||||||1023.4||1|FM15-METAR|223|ICAO-KFCH|||||||||||||||||||||||||||||||||||||||||||MET062METAR KFCH 162315Z AUTO 18007KT 10SM CLR 15/M08 A3022 RMK A01=||F||223|ICAO-KFCH
USW00023167|FRESNO CHANDLER DWTN AP|2023|02|16|23|35|36.7333|-119.8167|84.1|15.0||1|FM15-METAR|223|ICAO-KFCH|-9.0||1|FM15-METAR|223|ICAO-KFCH|||||||||||||190|N-Normal|1|FM15-METAR|223|ICAO-KFCH|2.1|N-Normal|1|FM15-METAR|223|ICAO-KFCH|||||||||||||18|Derived||FM15-METAR|223|ICAO-KFCH|||||||||||||||||||||||||||||||||||||||||||||||||||||||||||||||||||||||||1023.4||1|FM15-METAR|223|ICAO-KFCH|||||||||||||||||||||||||||||||||||||||||||MET062METAR KFCH 162335Z AUTO 19004KT 10SM CLR 15/M09 A3022 RMK A01=||F||223|ICAO-KFCH
USW00023167|FRESNO CHANDLER DWTN AP|2023|02|16|23|55|36.7333|-119.8167|84.1|15.0||1|FM15-METAR|223|ICAO-KFCH|-8.0||1|FM15-METAR|223|ICAO-KFCH|||||||||||||140|N-Normal|1|FM15-METAR|223|ICAO-KFCH|2.1|N-Normal|1|FM15-METAR|223|ICAO-KFCH|||||||||||||20|Derived||FM15-METAR|223|ICAO-KFCH|||||||||||||||||||||||||||||||||||||||||||||||||||||||||||||||||||||||||1023.0||1|FM15-METAR|223|ICAO-KFCH|||||||||||||||||||||||||||||||||||||||||||MET062METAR KFCH 162355Z AUTO 14004KT 10SM CLR 15/M08 A3021 RMK A01=||F||223|ICAO-KFCH
USW00023167|FRESNO CHANDLER DWTN AP|2023|02|17|00|15|36.7333|-119.8167|84.1|15.0||1|FM15-METAR|223|ICAO-KFCH|-9.0||1|FM15-METAR|223|ICAO-KFCH|||||||||||||160|N-Normal|1|FM15-METAR|223|ICAO-KFCH|3.1|N-Normal|1|FM15-METAR|223|ICAO-KFCH|||||||||||||18|Derived||FM15-METAR|223|ICAO-KFCH|||||||||||||||||||||||||||||||||||||||||||||||||||||||||||||||||||||||||1023.0||1|FM15-METAR|223|ICAO-KFCH|||||||||||||||||||||||||||||||||||||||||||MET062METAR KFCH 170015Z AUTO 16006KT 10SM CLR 15/M09 A3021 RMK A01=||F||223|ICAO-KFCH
USW00023167|FRESNO CHANDLER DWTN AP|2023|02|17|00|35|36.7333|-119.8167|84.1|15.0||1|FM15-METAR|223|ICAO-KFCH|-11.0||1|FM15-METAR|223|ICAO-KFCH|||||||||||||150|N-Normal|1|FM15-METAR|223|ICAO-KFCH|2.1|N-Normal|1|FM15-METAR|223|ICAO-KFCH|||||||||||||16|Derived||FM15-METAR|223|ICAO-KFCH|||||||||||||||||||||||||||||||||||||||||||||||||||||||||||||||||||||||||1023.0||1|FM15-METAR|223|ICAO-KFCH|||||||||||||||||||||||||||||||||||||||||||MET062METAR KFCH 170035Z AUTO 15004KT 10SM CLR 15/M11 A3021 RMK A01=||F||223|ICAO-KFCH
USW00023167|FRESNO CHANDLER DWTN AP|2023|02|17|00|55|36.7333|-119.8167|84.1|15.0||1|FM15-METAR|223|ICAO-KFCH|-8.0||1|FM15-METAR|223|ICAO-KFCH|||||||||||||140|N-Normal|1|FM15-METAR|223|ICAO-KFCH|1.5|N-Normal|1|FM15-METAR|223|ICAO-KFCH|||||||||||||20|Derived||FM15-METAR|223|ICAO-KFCH|||||||||||||||||||||||||||||||||||||||||||||||||||||||||||||||||||||||||1022.7||1|FM15-METAR|223|ICAO-KFCH|||||||||||||||||||||||||||||||||||||||||||MET062METAR KFCH 170055Z AUTO 14003KT 10SM CLR 15/M08 A3020 RMK A01=||F||223|ICAO-KFCH
USW00023167|FRESNO CHANDLER DWTN AP|2023|02|17|01|15|36.7333|-119.8167|84.1|14.0||1|FM15-METAR|223|ICAO-KFCH|-7.0||1|FM15-METAR|223|ICAO-KFCH|||||||||||||130|N-Normal|1|FM15-METAR|223|ICAO-KFCH|2.1|N-Normal|1|FM15-METAR|223|ICAO-KFCH|||||||||||||23|Derived||FM15-METAR|223|ICAO-KFCH|||||||||||||||||||||||||||||||||||||||||||||||||||||||||||||||||||||||||1022.7||1|FM15-METAR|223|ICAO-KFCH|||||||||||||||||||||||||||||||||||||||||||MET062METAR KFCH 170115Z AUTO 13004KT 10SM CLR 14/M07 A3020 RMK A01=||F||223|ICAO-KFCH
USW00023167|FRESNO CHANDLER DWTN AP|2023|02|17|01|35|36.7333|-119.8167|84.1|14.0||1|FM15-METAR|223|ICAO-KFCH|-8.0||1|FM15-METAR|223|ICAO-KFCH|||||||||||||999|C-Calm|9|FM15-METAR|223|ICAO-KFCH|0.0|C-Calm|1|FM15-METAR|223|ICAO-KFCH|||||||||||||21|Derived||FM15-METAR|223|ICAO-KFCH|||||||||||||||||||||||||||||||||||||||||||||||||||||||||||||||||||||||||1022.7||1|FM15-METAR|223|ICAO-KFCH|||||||||||||||||||||||||||||||||||||||||||MET062METAR KFCH 170135Z AUTO 00000KT 10SM CLR 14/M08 A3020 RMK A01=||F||223|ICAO-KFCH
USW00023167|FRESNO CHANDLER DWTN AP|2023|02|17|01|55|36.7333|-119.8167|84.1|13.0||1|FM15-METAR|223|ICAO-KFCH|-10.0||1|FM15-METAR|223|ICAO-KFCH|||||||||||||999|C-Calm|9|FM15-METAR|223|ICAO-KFCH|0.0|C-Calm|1|FM15-METAR|223|ICAO-KFCH|||||||||||||19|Derived||FM15-METAR|223|ICAO-KFCH|||||||||||||||||||||||||||||||||||||||||||||||||||||||||||||||||||||||||1022.7||1|FM15-METAR|223|ICAO-KFCH|||||||||||||||||||||||||||||||||||||||||||MET062METAR KFCH 170155Z AUTO 00000KT 10SM CLR 13/M10 A3020 RMK A01=||F||223|ICAO-KFCH
USW00023167|FRESNO CHANDLER DWTN AP|2023|02|17|02|15|36.7333|-119.8167|84.1|13.0||1|FM15-METAR|223|ICAO-KFCH|-9.0||1|FM15-METAR|223|ICAO-KFCH|||||||||||||999|C-Calm|9|FM15-METAR|223|ICAO-KFCH|0.0|C-Calm|1|FM15-METAR|223|ICAO-KFCH|||||||||||||21|Derived||FM15-METAR|223|ICAO-KFCH|||||||||||||||||||||||||||||||||||||||||||||||||||||||||||||||||||||||||1022.7||1|FM15-METAR|223|ICAO-KFCH|||||||||||||||||||||||||||||||||||||||||||MET062METAR KFCH 170215Z AUTO 00000KT 10SM CLR 13/M09 A3020 RMK A01=||F||223|ICAO-KFCH
USW00023167|FRESNO CHANDLER DWTN AP|2023|02|17|02|35|36.7333|-119.8167|84.1|11.0||1|FM15-METAR|223|ICAO-KFCH|-7.0||1|FM15-METAR|223|ICAO-KFCH|||||||||||||999|C-Calm|9|FM15-METAR|223|ICAO-KFCH|0.0|C-Calm|1|FM15-METAR|223|ICAO-KFCH|||||||||||||28|Derived||FM15-METAR|223|ICAO-KFCH|||||||||||||||||||||||||||||||||||||||||||||||||||||||||||||||||||||||||1022.7||1|FM15-METAR|223|ICAO-KFCH|||||||||||||||||||||||||||||||||||||||||||MET062METAR KFCH 170235Z AUTO 00000KT 10SM CLR 11/M07 A3020 RMK A01=||F||223|ICAO-KFCH
USW00023167|FRESNO CHANDLER DWTN AP|2023|02|17|02|55|36.7333|-119.8167|84.1|11.0||1|FM15-METAR|223|ICAO-KFCH|-6.0||1|FM15-METAR|223|ICAO-KFCH|||||||||||||999|C-Calm|9|FM15-METAR|223|ICAO-KFCH|0.0|C-Calm|1|FM15-METAR|223|ICAO-KFCH|||||||||||||30|Derived||FM15-METAR|223|ICAO-KFCH|||||||||||||||||||||||||||||||||||||||||||||||||||||||||||||||||||||||||1022.7||1|FM15-METAR|223|ICAO-KFCH|||||||||||||||||||||||||||||||||||||||||||MET053METAR KFCH 170255Z AUTO 00000KT 11/M06 A3020 RMK A01=||F||223|ICAO-KFCH
USW00023167|FRESNO CHANDLER DWTN AP|2023|02|17|03|15|36.7333|-119.8167|84.1|10.0||1|FM15-METAR|223|ICAO-KFCH|-6.0||1|FM15-METAR|223|ICAO-KFCH|||||||||||||999|C-Calm|9|FM15-METAR|223|ICAO-KFCH|0.0|C-Calm|1|FM15-METAR|223|ICAO-KFCH|||||||||||||32|Derived||FM15-METAR|223|ICAO-KFCH|||||||||||||||||||||||||||||||||||||||||||||||||||||||||||||||||||||||||1022.7||1|FM15-METAR|223|ICAO-KFCH|||||||||||||||||||||||||||||||||||||||||||MET058METAR KFCH 170315Z AUTO 00000KT 10SM 10/M06 A3020 RMK A01=||F||223|ICAO-KFCH
USW00023167|FRESNO CHANDLER DWTN AP|2023|02|17|03|35|36.7333|-119.8167|84.1|9.0||1|FM15-METAR|223|ICAO-KFCH|-5.0||1|FM15-METAR|223|ICAO-KFCH|||||||||||||999|C-Calm|9|FM15-METAR|223|ICAO-KFCH|0.0|C-Calm|1|FM15-METAR|223|ICAO-KFCH|||||||||||||37|Derived||FM15-METAR|223|ICAO-KFCH|||||||||||||||||||||||||||||||||||||||||||||||||||||||||||||||||||||||||1022.3||1|FM15-METAR|223|ICAO-KFCH|||||||||||||||||||||||||||||||||||||||||||MET062METAR KFCH 170335Z AUTO 00000KT 10SM CLR 09/M05 A3019 RMK A01=||F||223|ICAO-KFCH
USW00023167|FRESNO CHANDLER DWTN AP|2023|02|17|03|55|36.7333|-119.8167|84.1|9.0||1|FM15-METAR|223|ICAO-KFCH|-4.0||1|FM15-METAR|223|ICAO-KFCH|||||||||||||999|C-Calm|9|FM15-METAR|223|ICAO-KFCH|0.0|C-Calm|1|FM15-METAR|223|ICAO-KFCH|||||||||||||40|Derived||FM15-METAR|223|ICAO-KFCH|||||||||||||||||||||||||||||||||||||||||||||||||||||||||||||||||||||||||1022.3||1|FM15-METAR|223|ICAO-KFCH|||||||||||||||||||||||||||||||||||||||||||MET062METAR KFCH 170355Z AUTO 00000KT 10SM CLR 09/M04 A3019 RMK A01=||F||223|ICAO-KFCH
USW00023167|FRESNO CHANDLER DWTN AP|2023|02|17|04|15|36.7333|-119.8167|84.1|9.0||1|FM15-METAR|223|ICAO-KFCH|-4.0||1|FM15-METAR|223|ICAO-KFCH|||||||||||||999|C-Calm|9|FM15-METAR|223|ICAO-KFCH|0.0|C-Calm|1|FM15-METAR|223|ICAO-KFCH|||||||||||||40|Derived||FM15-METAR|223|ICAO-KFCH|||||||||||||||||||||||||||||||||||||||||||||||||||||||||||||||||||||||||1022.3||1|FM15-METAR|223|ICAO-KFCH|||||||||||||||||||||||||||||||||||||||||||MET062METAR KFCH 170415Z AUTO 00000KT 10SM CLR 09/M04 A3019 RMK A01=||F||223|ICAO-KFCH
USW00023167|FRESNO CHANDLER DWTN AP|2023|02|17|04|35|36.7333|-119.8167|84.1|8.0||1|FM15-METAR|223|ICAO-KFCH|-4.0||1|FM15-METAR|223|ICAO-KFCH|||||||||||||999|C-Calm|9|FM15-METAR|223|ICAO-KFCH|0.0|C-Calm|1|FM15-METAR|223|ICAO-KFCH|||||||||||||43|Derived||FM15-METAR|223|ICAO-KFCH|||||||||||||||||||||||||||||||||||||||||||||||||||||||||||||||||||||||||1022.3||1|FM15-METAR|223|ICAO-KFCH|||||||||||||||||||||||||||||||||||||||||||MET062METAR KFCH 170435Z AUTO 00000KT 10SM CLR 08/M04 A3019 RMK A01=||F||223|ICAO-KFCH
USW00023167|FRESNO CHANDLER DWTN AP|2023|02|17|04|55|36.7333|-119.8167|84.1|8.0||1|FM15-METAR|223|ICAO-KFCH|-4.0||1|FM15-METAR|223|ICAO-KFCH|||||||||||||999|C-Calm|9|FM15-METAR|223|ICAO-KFCH|0.0|C-Calm|1|FM15-METAR|223|ICAO-KFCH|||||||||||||43|Derived||FM15-METAR|223|ICAO-KFCH|||||||||||||||||||||||||||||||||||||||||||||||||||||||||||||||||||||||||1022.3||1|FM15-METAR|223|ICAO-KFCH|||||||||||||||||||||||||||||||||||||||||||MET062METAR KFCH 170455Z AUTO 00000KT 10SM CLR 08/M04 A3019 RMK A01=||F||223|ICAO-KFCH
USW00023167|FRESNO CHANDLER DWTN AP|2023|02|17|05|15|36.7333|-119.8167|84.1|8.0||1|FM15-METAR|223|ICAO-KFCH|-4.0||1|FM15-METAR|223|ICAO-KFCH|||||||||||||999|C-Calm|9|FM15-METAR|223|ICAO-KFCH|0.0|C-Calm|1|FM15-METAR|223|ICAO-KFCH|||||||||||||43|Derived||FM15-METAR|223|ICAO-KFCH|||||||||||||||||||||||||||||||||||||||||||||||||||||||||||||||||||||||||1022.7||1|FM15-METAR|223|ICAO-KFCH|||||||||||||||||||||||||||||||||||||||||||MET062METAR KFCH 170515Z AUTO 00000KT 10SM CLR 08/M04 A3020 RMK A01=||F||223|ICAO-KFCH
USW00023167|FRESNO CHANDLER DWTN AP|2023|02|17|05|35|36.7333|-119.8167|84.1|7.0||1|FM15-METAR|223|ICAO-KFCH|-3.0||1|FM15-METAR|223|ICAO-KFCH|||||||||||||999|C-Calm|9|FM15-METAR|223|ICAO-KFCH|0.0|C-Calm|1|FM15-METAR|223|ICAO-KFCH|||||||||||||49|Derived||FM15-METAR|223|ICAO-KFCH|||||||||||||||||||||||||||||||||||||||||||||||||||||||||||||||||||||||||1022.7||1|FM15-METAR|223|ICAO-KFCH|||||||||||||||||||||||||||||||||||||||||||MET062METAR KFCH 170535Z AUTO 00000KT 10SM CLR 07/M03 A3020 RMK A01=||F||223|ICAO-KFCH
USW00023167|FRESNO CHANDLER DWTN AP|2023|02|17|05|55|36.7333|-119.8167|84.1|7.0||4|FM15-METAR|223|ICAO-KFCH|-4.0||4|FM15-METAR|223|ICAO-KFCH|||||||||||||||||||||||||||||||||||||46|Derived||FM15-METAR|223|ICAO-KFCH|||||||||||||||||||||||||||||||||||||||||||||||||||||||||||||||||||||||||1022.7||4|FM15-METAR|223|ICAO-KFCH|||||||||||||||||||||||||||||||||||||||||||MET060METAR KFCH 170555Z AUTO 000KT 10SM CLR 07/M04 A3020 RMK A01=||F||223|ICAO-KFCH
USW00023167|FRESNO CHANDLER DWTN AP|2023|02|17|06|15|36.7333|-119.8167|84.1|||||||||||||||||||||||||||||||||||||||||||||||||||||||||||||||||||||||||||||||||||||||||||||||||||||||||||||||||||||||||||||||||||||||||||||||||||||||||||||||||||||||||||||||MET032METAR KFCH 170615Z AUTO RMK A01=||F||223|ICAO-KFCH
USW00023167|FRESNO CHANDLER DWTN AP|2023|02|17|06|35|36.7333|-119.8167|84.1|6.0||1|FM15-METAR|223|ICAO-KFCH|-3.0||1|FM15-METAR|223|ICAO-KFCH|||||||||||||999|C-Calm|9|FM15-METAR|223|ICAO-KFCH|0.0|C-Calm|1|FM15-METAR|223|ICAO-KFCH|||||||||||||53|Derived||FM15-METAR|223|ICAO-KFCH|||||||||||||||||||||||||||||||||||||||||||||||||||||||||||||||||||||||||1022.7||1|FM15-METAR|223|ICAO-KFCH|||||||||||||||||||||||||||||||||||||||||||MET057METAR KFCH 170635Z AUTO 00000KT 9SM 06/M03 A3020 RMK A01=||F||223|ICAO-KFCH
USW00023167|FRESNO CHANDLER DWTN AP|2023|02|17|06|55|36.7333|-119.8167|84.1|6.0||1|FM15-METAR|223|ICAO-KFCH|-3.0||1|FM15-METAR|223|ICAO-KFCH|||||||||||||999|C-Calm|9|FM15-METAR|223|ICAO-KFCH|0.0|C-Calm|1|FM15-METAR|223|ICAO-KFCH|||||||||||||53|Derived||FM15-METAR|223|ICAO-KFCH|||||||||||||||||||||||||||||||||||||||||||||||||||||||||||||||||||||||||1022.7||1|FM15-METAR|223|ICAO-KFCH|||||||||||||||||||||||||||||||||||||||||||MET062METAR KFCH 170655Z AUTO 00000KT 10SM CLR 06/M03 A3020 RMK A01=||F||223|ICAO-KFCH
USW00023167|FRESNO CHANDLER DWTN AP|2023|02|17|07|15|36.7333|-119.8167|84.1|6.0||1|FM15-METAR|223|ICAO-KFCH|-3.0||1|FM15-METAR|223|ICAO-KFCH|||||||||||||999|C-Calm|9|FM15-METAR|223|ICAO-KFCH|0.0|C-Calm|1|FM15-METAR|223|ICAO-KFCH|||||||||||||53|Derived||FM15-METAR|223|ICAO-KFCH|||||||||||||||||||||||||||||||||||||||||||||||||||||||||||||||||||||||||1022.7||1|FM15-METAR|223|ICAO-KFCH|||||||||||||||||||||||||||||||||||||||||||MET062METAR KFCH 170715Z AUTO 00000KT 10SM CLR 06/M03 A3020 RMK A01=||F||223|ICAO-KFCH
USW00023167|FRESNO CHANDLER DWTN AP|2023|02|17|07|35|36.7333|-119.8167|84.1|6.0||1|FM15-METAR|223|ICAO-KFCH|-3.0||1|FM15-METAR|223|ICAO-KFCH|||||||||||||070|N-Normal|1|FM15-METAR|223|ICAO-KFCH|1.5|N-Normal|1|FM15-METAR|223|ICAO-KFCH|||||||||||||53|Derived||FM15-METAR|223|ICAO-KFCH|||||||||||||||||||||||||||||||||||||||||||||||||||||||||||||||||||||||||1022.7||1|FM15-METAR|223|ICAO-KFCH|||||||||||||||||||||||||||||||||||||||||||MET062METAR KFCH 170735Z AUTO 07003KT 10SM CLR 06/M03 A3020 RMK A01=||F||223|ICAO-KFCH
USW00023167|FRESNO CHANDLER DWTN AP|2023|02|17|07|55|36.7333|-119.8167|84.1|6.0||1|FM15-METAR|223|ICAO-KFCH|-3.0||1|FM15-METAR|223|ICAO-KFCH|||||||||||||999|C-Calm|9|FM15-METAR|223|ICAO-KFCH|0.0|C-Calm|1|FM15-METAR|223|ICAO-KFCH|||||||||||||53|Derived||FM15-METAR|223|ICAO-KFCH|||||||||||||||||||||||||||||||||||||||||||||||||||||||||||||||||||||||||1022.7||1|FM15-METAR|223|ICAO-KFCH|||||||||||||||||||||||||||||||||||||||||||MET062METAR KFCH 170755Z AUTO 00000KT 10SM CLR 06/M03 A3020 RMK A01=||F||223|ICAO-KFCH
USW00023167|FRESNO CHANDLER DWTN AP|2023|02|17|08|15|36.7333|-119.8167|84.1|7.0||1|FM15-METAR|223|ICAO-KFCH|-3.0||1|FM15-METAR|223|ICAO-KFCH|||||||||||||999|C-Calm|9|FM15-METAR|223|ICAO-KFCH|0.0|C-Calm|1|FM15-METAR|223|ICAO-KFCH|||||||||||||49|Derived||FM15-METAR|223|ICAO-KFCH|||||||||||||||||||||||||||||||||||||||||||||||||||||||||||||||||||||||||1022.7||1|FM15-METAR|223|ICAO-KFCH|||||||||||||||||||||||||||||||||||||||||||MET062METAR KFCH 170815Z AUTO 00000KT 10SM CLR 07/M03 A3020 RMK A01=||F||223|ICAO-KFCH
USW00023167|FRESNO CHANDLER DWTN AP|2023|02|17|08|35|36.7333|-119.8167|84.1|6.0||1|FM15-METAR|223|ICAO-KFCH|-2.0||1|FM15-METAR|223|ICAO-KFCH|||||||||||||999|C-Calm|9|FM15-METAR|223|ICAO-KFCH|0.0|C-Calm|1|FM15-METAR|223|ICAO-KFCH|||||||||||||57|Derived||FM15-METAR|223|ICAO-KFCH|||||||||||||||||||||||||||||||||||||||||||||||||||||||||||||||||||||||||1022.7||1|FM15-METAR|223|ICAO-KFCH|||||||||||||||||||||||||||||||||||||||||||MET062METAR KFCH 170835Z AUTO 00000KT 10SM CLR 06/M02 A3020 RMK A01=||F||223|ICAO-KFCH
USW00023167|FRESNO CHANDLER DWTN AP|2023|02|17|08|55|36.7333|-119.8167|84.1|6.0||1|FM15-METAR|223|ICAO-KFCH|-2.0||1|FM15-METAR|223|ICAO-KFCH|||||||||||||999|C-Calm|9|FM15-METAR|223|ICAO-KFCH|0.0|C-Calm|1|FM15-METAR|223|ICAO-KFCH|||||||||||||57|Derived||FM15-METAR|223|ICAO-KFCH|||||||||||||||||||||||||||||||||||||||||||||||||||||||||||||||||||||||||1022.7||1|FM15-METAR|223|ICAO-KFCH|||||||||||||||||||||||||||||||||||||||||||MET062METAR KFCH 170855Z AUTO 00000KT 10SM CLR 06/M02 A3020 RMK A01=||F||223|ICAO-KFCH
USW00023167|FRESNO CHANDLER DWTN AP|2023|02|17|09|15|36.7333|-119.8167|84.1|6.0||1|FM15-METAR|223|ICAO-KFCH|-2.0||1|FM15-METAR|223|ICAO-KFCH|||||||||||||050|N-Normal|1|FM15-METAR|223|ICAO-KFCH|1.5|N-Normal|1|FM15-METAR|223|ICAO-KFCH|||||||||||||57|Derived||FM15-METAR|223|ICAO-KFCH|||||||||||||||||||||||||||||||||||||||||||||||||||||||||||||||||||||||||1022.3||1|FM15-METAR|223|ICAO-KFCH|||||||||||||||||||||||||||||||||||||||||||MET062METAR KFCH 170915Z AUTO 05003KT 10SM CLR 06/M02 A3019 RMK A01=||F||223|ICAO-KFCH
USW00023167|FRESNO CHANDLER DWTN AP|2023|02|17|09|35|36.7333|-119.8167|84.1|5.0||1|FM15-METAR|223|ICAO-KFCH|-2.0||1|FM15-METAR|223|ICAO-KFCH|||||||||||||999|C-Calm|9|FM15-METAR|223|ICAO-KFCH|0.0|C-Calm|1|FM15-METAR|223|ICAO-KFCH|||||||||||||61|Derived||FM15-METAR|223|ICAO-KFCH|||||||||||||||||||||||||||||||||||||||||||||||||||||||||||||||||||||||||1022.3||1|FM15-METAR|223|ICAO-KFCH|||||||||||||||||||||||||||||||||||||||||||MET062METAR KFCH 170935Z AUTO 00000KT 10SM CLR 05/M02 A3019 RMK A01=||F||223|ICAO-KFCH
USW00023167|FRESNO CHANDLER DWTN AP|2023|02|17|09|55|36.7333|-119.8167|84.1|5.0||1|FM15-METAR|223|ICAO-KFCH|-2.0||1|FM15-METAR|223|ICAO-KFCH|||||||||||||999|C-Calm|9|FM15-METAR|223|ICAO-KFCH|0.0|C-Calm|1|FM15-METAR|223|ICAO-KFCH|||||||||||||61|Derived||FM15-METAR|223|ICAO-KFCH|||||||||||||||||||||||||||||||||||||||||||||||||||||||||||||||||||||||||1022.0||1|FM15-METAR|223|ICAO-KFCH|||||||||||||||||||||||||||||||||||||||||||MET062METAR KFCH 170955Z AUTO 00000KT 10SM CLR 05/M02 A3018 RMK A01=||F||223|ICAO-KFCH
USW00023167|FRESNO CHANDLER DWTN AP|2023|02|17|10|15|36.7333|-119.8167|84.1|5.0||1|FM15-METAR|223|ICAO-KFCH|-2.0||1|FM15-METAR|223|ICAO-KFCH|||||||||||||999|C-Calm|9|FM15-METAR|223|ICAO-KFCH|0.0|C-Calm|1|FM15-METAR|223|ICAO-KFCH|||||||||||||61|Derived||FM15-METAR|223|ICAO-KFCH|||||||||||||||||||||||||||||||||||||||||||||||||||||||||||||||||||||||||1022.0||1|FM15-METAR|223|ICAO-KFCH|||||||||||||||||||||||||||||||||||||||||||MET062METAR KFCH 171015Z AUTO 00000KT 10SM CLR 05/M02 A3018 RMK A01=||F||223|ICAO-KFCH
USW00023167|FRESNO CHANDLER DWTN AP|2023|02|17|10|35|36.7333|-119.8167|84.1|5.0||1|FM15-METAR|223|ICAO-KFCH|-2.0||1|FM15-METAR|223|ICAO-KFCH|||||||||||||999|C-Calm|9|FM15-METAR|223|ICAO-KFCH|0.0|C-Calm|1|FM15-METAR|223|ICAO-KFCH|||||||||||||61|Derived||FM15-METAR|223|ICAO-KFCH|||||||||||||||||||||||||||||||||||||||||||||||||||||||||||||||||||||||||1021.7||1|FM15-METAR|223|ICAO-KFCH|||||||||||||||||||||||||||||||||||||||||||MET062METAR KFCH 171035Z AUTO 00000KT 10SM CLR 05/M02 A3017 RMK A01=||F||223|ICAO-KFCH
USW00023167|FRESNO CHANDLER DWTN AP|2023|02|17|10|55|36.7333|-119.8167|84.1|5.0||1|FM15-METAR|223|ICAO-KFCH|-2.0||1|FM15-METAR|223|ICAO-KFCH|||||||||||||999|C-Calm|9|FM15-METAR|223|ICAO-KFCH|0.0|C-Calm|1|FM15-METAR|223|ICAO-KFCH|||||||||||||61|Derived||FM15-METAR|223|ICAO-KFCH|||||||||||||||||||||||||||||||||||||||||||||||||||||||||||||||||||||||||1021.3||1|FM15-METAR|223|ICAO-KFCH|||||||||||||||||||||||||||||||||||||||||||MET062METAR KFCH 171055Z AUTO 00000KT 10SM CLR 05/M02 A3016 RMK A01=||F||223|ICAO-KFCH
USW00023167|FRESNO CHANDLER DWTN AP|2023|02|17|11|15|36.7333|-119.8167|84.1|5.0||1|FM15-METAR|223|ICAO-KFCH|-3.0||1|FM15-METAR|223|ICAO-KFCH|||||||||||||999|C-Calm|9|FM15-METAR|223|ICAO-KFCH|0.0|C-Calm|1|FM15-METAR|223|ICAO-KFCH|||||||||||||57|Derived||FM15-METAR|223|ICAO-KFCH|||||||||||||||||||||||||||||||||||||||||||||||||||||||||||||||||||||||||1021.3||1|FM15-METAR|223|ICAO-KFCH|||||||||||||||||||||||||||||||||||||||||||MET062METAR KFCH 171115Z AUTO 00000KT 10SM CLR 05/M03 A3016 RMK A01=||F||223|ICAO-KFCH
USW00023167|FRESNO CHANDLER DWTN AP|2023|02|17|11|35|36.7333|-119.8167|84.1|5.0||1|FM15-METAR|223|ICAO-KFCH|-2.0||1|FM15-METAR|223|ICAO-KFCH|||||||||||||999|C-Calm|9|FM15-METAR|223|ICAO-KFCH|0.0|C-Calm|1|FM15-METAR|223|ICAO-KFCH|||||||||||||61|Derived||FM15-METAR|223|ICAO-KFCH|||||||||||||||||||||||||||||||||||||||||||||||||||||||||||||||||||||||||1021.0||1|FM15-METAR|223|ICAO-KFCH|||||||||||||||||||||||||||||||||||||||||||MET062METAR KFCH 171135Z AUTO 00000KT 10SM CLR 05/M02 A3015 RMK A01=||F||223|ICAO-KFCH
USW00023167|FRESNO CHANDLER DWTN AP|2023|02|17|11|55|36.7333|-119.8167|84.1|3.0||1|FM15-METAR|223|ICAO-KFCH|-1.0||1|FM15-METAR|223|ICAO-KFCH|||||||||||||999|C-Calm|9|FM15-METAR|223|ICAO-KFCH|0.0|C-Calm|1|FM15-METAR|223|ICAO-KFCH|||||||||||||75|Derived||FM15-METAR|223|ICAO-KFCH|||||||||||||||||||||||||||||||||||||||||||||||||||||||||||||||||||||||||1021.0||1|FM15-METAR|223|ICAO-KFCH|||||||||||||||||||||||||||||||||||||||||||MET062METAR KFCH 171155Z AUTO 00000KT 10SM CLR 03/M01 A3015 RMK A01=||F||223|ICAO-KFCH
USW00023167|FRESNO CHANDLER DWTN AP|2023|02|17|12|15|36.7333|-119.8167|84.1|3.0||1|FM15-METAR|223|ICAO-KFCH|-2.0||1|FM15-METAR|223|ICAO-KFCH|||||||||||||999|C-Calm|9|FM15-METAR|223|ICAO-KFCH|0.0|C-Calm|1|FM15-METAR|223|ICAO-KFCH|||||||||||||70|Derived||FM15-METAR|223|ICAO-KFCH|||||||||||||||||||||||||||||||||||||||||||||||||||||||||||||||||||||||||1021.0||1|FM15-METAR|223|ICAO-KFCH|||||||||||||||||||||||||||||||||||||||||||MET062METAR KFCH 171215Z AUTO 00000KT 10SM CLR 03/M02 A3015 RMK A01=||F||223|ICAO-KFCH
USW00023167|FRESNO CHANDLER DWTN AP|2023|02|17|12|35|36.7333|-119.8167|84.1|2.0||1|FM15-METAR|223|ICAO-KFCH|-1.0||1|FM15-METAR|223|ICAO-KFCH|||||||||||||999|C-Calm|9|FM15-METAR|223|ICAO-KFCH|0.0|C-Calm|1|FM15-METAR|223|ICAO-KFCH|||||||||||||81|Derived||FM15-METAR|223|ICAO-KFCH|||||||||||||||||||||||||||||||||||||||||||||||||||||||||||||||||||||||||1020.7||1|FM15-METAR|223|ICAO-KFCH|||||||||||||||||||||||||||||||||||||||||||MET062METAR KFCH 171235Z AUTO 00000KT 10SM CLR 02/M01 A3014 RMK A01=||F||223|ICAO-KFCH
USW00023167|FRESNO CHANDLER DWTN AP|2023|02|17|12|55|36.7333|-119.8167|84.1|3.0||1|FM15-METAR|223|ICAO-KFCH|-1.0||1|FM15-METAR|223|ICAO-KFCH|||||||||||||999|C-Calm|9|FM15-METAR|223|ICAO-KFCH|0.0|C-Calm|1|FM15-METAR|223|ICAO-KFCH|||||||||||||75|Derived||FM15-METAR|223|ICAO-KFCH|||||||||||||||||||||||||||||||||||||||||||||||||||||||||||||||||||||||||1020.7||1|FM15-METAR|223|ICAO-KFCH|||||||||||||||||||||||||||||||||||||||||||MET062METAR KFCH 171255Z AUTO 00000KT 10SM CLR 03/M01 A3014 RMK A01=||F||223|ICAO-KFCH
USW00023167|FRESNO CHANDLER DWTN AP|2023|02|17|13|15|36.7333|-119.8167|84.1|2.0||1|FM15-METAR|223|ICAO-KFCH|-1.0||1|FM15-METAR|223|ICAO-KFCH|||||||||||||999|C-Calm|9|FM15-METAR|223|ICAO-KFCH|0.0|C-Calm|1|FM15-METAR|223|ICAO-KFCH|||||||||||||81|Derived||FM15-METAR|223|ICAO-KFCH|||||||||||||||||||||||||||||||||||||||||||||||||||||||||||||||||||||||||1020.7||1|FM15-METAR|223|ICAO-KFCH|||||||||||||||||||||||||||||||||||||||||||MET062METAR KFCH 171315Z AUTO 00000KT 10SM CLR 02/M01 A3014 RMK A01=||F||223|ICAO-KFCH
USW00023167|FRESNO CHANDLER DWTN AP|2023|02|17|13|35|36.7333|-119.8167|84.1|2.0||1|FM15-METAR|223|ICAO-KFCH|-1.0||1|FM15-METAR|223|ICAO-KFCH|||||||||||||999|C-Calm|9|FM15-METAR|223|ICAO-KFCH|0.0|C-Calm|1|FM15-METAR|223|ICAO-KFCH|||||||||||||81|Derived||FM15-METAR|223|ICAO-KFCH|||||||||||||||||||||||||||||||||||||||||||||||||||||||||||||||||||||||||1020.3||1|FM15-METAR|223|ICAO-KFCH|||||||||||||||||||||||||||||||||||||||||||MET062METAR KFCH 171335Z AUTO 00000KT 10SM CLR 02/M01 A3013 RMK A01=||F||223|ICAO-KFCH
USW00023167|FRESNO CHANDLER DWTN AP|2023|02|17|13|55|36.7333|-119.8167|84.1|2.0||1|FM15-METAR|223|ICAO-KFCH|-1.0||1|FM15-METAR|223|ICAO-KFCH|||||||||||||999|C-Calm|9|FM15-METAR|223|ICAO-KFCH|0.0|C-Calm|1|FM15-METAR|223|ICAO-KFCH|||||||||||||81|Derived||FM15-METAR|223|ICAO-KFCH|||||||||||||||||||||||||||||||||||||||||||||||||||||||||||||||||||||||||1020.3||1|FM15-METAR|223|ICAO-KFCH|||||||||||||||||||||||||||||||||||||||||||MET062METAR KFCH 171355Z AUTO 00000KT 10SM CLR 02/M01 A3013 RMK A01=||F||223|ICAO-KFCH
USW00023167|FRESNO CHANDLER DWTN AP|2023|02|17|14|15|36.7333|-119.8167|84.1|2.0||1|FM15-METAR|223|ICAO-KFCH|-1.0||1|FM15-METAR|223|ICAO-KFCH|||||||||||||999|C-Calm|9|FM15-METAR|223|ICAO-KFCH|0.0|C-Calm|1|FM15-METAR|223|ICAO-KFCH|||||||||||||81|Derived||FM15-METAR|223|ICAO-KFCH|||||||||||||||||||||||||||||||||||||||||||||||||||||||||||||||||||||||||1020.3||1|FM15-METAR|223|ICAO-KFCH|||||||||||||||||||||||||||||||||||||||||||MET062METAR KFCH 171415Z AUTO 00000KT 10SM CLR 02/M01 A3013 RMK A01=||F||223|ICAO-KFCH
USW00023167|FRESNO CHANDLER DWTN AP|2023|02|17|14|35|36.7333|-119.8167|84.1|2.0||1|FM15-METAR|223|ICAO-KFCH|-1.0||1|FM15-METAR|223|ICAO-KFCH|||||||||||||999|C-Calm|9|FM15-METAR|223|ICAO-KFCH|0.0|C-Calm|1|FM15-METAR|223|ICAO-KFCH|||||||||||||81|Derived||FM15-METAR|223|ICAO-KFCH|||||||||||||||||||||||||||||||||||||||||||||||||||||||||||||||||||||||||1020.3||1|FM15-METAR|223|ICAO-KFCH|||||||||||||||||||||||||||||||||||||||||||MET062METAR KFCH 171435Z AUTO 00000KT 10SM CLR 02/M01 A3013 RMK A01=||F||223|ICAO-KFCH
USW00023167|FRESNO CHANDLER DWTN AP|2023|02|17|14|55|36.7333|-119.8167|84.1|2.0||1|FM15-METAR|223|ICAO-KFCH|-1.0||1|FM15-METAR|223|ICAO-KFCH|||||||||||||999|C-Calm|9|FM15-METAR|223|ICAO-KFCH|0.0|C-Calm|1|FM15-METAR|223|ICAO-KFCH|||||||||||||81|Derived||FM15-METAR|223|ICAO-KFCH|||||||||||||||||||||||||||||||||||||||||||||||||||||||||||||||||||||||||1020.3||1|FM15-METAR|223|ICAO-KFCH|||||||||||||||||||||||||||||||||||||||||||MET061METAR KFCH 171455Z AUTO 00000KT 9SM CLR 02/M01 A3013 RMK A01=||F||223|ICAO-KFCH
USW00023167|FRESNO CHANDLER DWTN AP|2023|02|17|15|10|36.7333|-119.8167|84.1|2.0||1|FM15-METAR|223|ICAO-KFCH|-1.0||1|FM15-METAR|223|ICAO-KFCH|||||||||||||999|C-Calm|9|FM15-METAR|223|ICAO-KFCH|0.0|C-Calm|1|FM15-METAR|223|ICAO-KFCH|||||||||||||81|Derived||FM15-METAR|223|ICAO-KFCH|||||||||||||||||||||||||||||||||||||||||||||||||||||||||||||||||||||||||1020.7||1|FM15-METAR|223|ICAO-KFCH|||||||||||||||||||||||||||||||||||||||||||MET062METAR KFCH 171510Z AUTO 00000KT 10SM CLR 02/M01 A3014 RMK A01=||F||223|ICAO-KFCH
