Station_ID|Station_name|Year|Month|Day|Hour|Minute|Latitude|Longitude|Elevation|temperature|temperature_Measurement_Code|temperature_Quality_Code|temperature_Report_Type|temperature_Source_Code|temperature_Source_Station_ID|dew_point_temperature|dew_point_temperature_Measurement_Code|dew_point_temperature_Quality_Code|dew_point_temperature_Report_Type|dew_point_temperature_Source_Code|dew_point_temperature_Source_Station_ID|station_level_pressure|station_level_pressure_Measurement_Code|station_level_pressure_Quality_Code|station_level_pressure_Report_Type|station_level_pressure_Source_Code|station_level_pressure_Source_Station_ID|sea_level_pressure|sea_level_pressure_Measurement_Code|sea_level_pressure_Quality_Code|sea_level_pressure_Report_Type|sea_level_pressure_Source_Code|sea_level_pressure_Source_Station_ID|wind_direction|wind_direction_Measurement_Code|wind_direction_Quality_Code|wind_direction_Report_Type|wind_direction_Source_Code|wind_direction_Source_Station_ID|wind_speed|wind_speed_Measurement_Code|wind_speed_Quality_Code|wind_speed_Report_Type|wind_speed_Source_Code|wind_speed_Source_Station_ID|wind_gust|wind_gust_Measurement_Code|wind_gust_Quality_Code|wind_gust_Report_Type|wind_gust_Source_Code|wind_gust_Source_Station_ID|precipitation|precipitation_Measurement_Code|precipitation_Quality_Code|precipitation_Report_Type|precipitation_Source_Code|precipitation_Source_Station_ID|relative_humidity|relative_humidity_Measurement_Code|relative_humidity_Quality_Code|relative_humidity_Report_Type|relative_humidity_Source_Code|relative_humidity_Source_Station_ID|wet_bulb_temperature|wet_bulb_temperature_Measurement_Code|wet_bulb_temperature_Quality_Code|wet_bulb_temperature_Report_Type|wet_bulb_temperature_Source_Code|wet_bulb_temperature_Source_Station_ID|pres_wx_MW1|pres_wx_MW1_Measurement_Code|pres_wx_MW1_Quality_Code|pres_wx_MW1_Report_Type|pres_wx_MW1_Source_Code|pres_wx_MW1_Source_Station_ID|pres_wx_MW2|pres_wx_MW2_Measurement_Code|pres_wx_MW2_Quality_Code|pres_wx_MW2_Report_Type|pres_wx_MW2_Source_Code|pres_wx_MW2_Source_Station_ID|pres_wx_MW3|pres_wx_MW3_Measurement_Code|pres_wx_MW3_Quality_Code|pres_wx_MW3_Report_Type|pres_wx_MW3_Source_Code|pres_wx_MW3_Source_Station_ID|pres_wx_AU1|pres_wx_AU1_Measurement_Code|pres_wx_AU1_Quality_Code|pres_wx_AU1_Report_Type|pres_wx_AU1_Source_Code|pres_wx_AU1_Source_Station_ID|pres_wx_AU2|pres_wx_AU2_Measurement_Code|pres_wx_AU2_Quality_Code|pres_wx_AU2_Report_Type|pres_wx_AU2_Source_Code|pres_wx_AU2_Source_Station_ID|pres_wx_AU3|pres_wx_AU3_Measurement_Code|pres_wx_AU3_Quality_Code|pres_wx_AU3_Report_Type|pres_wx_AU3_Source_Code|pres_wx_AU3_Source_Station_ID|pres_wx_AW1|pres_wx_AW1_Measurement_Code|pres_wx_AW1_Quality_Code|pres_wx_AW1_Report_Type|pres_wx_AW1_Source_Code|pres_wx_AW1_Source_Station_ID|pres_wx_AW2|pres_wx_AW2_Measurement_Code|pres_wx_AW2_Quality_Code|pres_wx_AW2_Report_Type|pres_wx_AW2_Source_Code|pres_wx_AW2_Source_Station_ID|pres_wx_AW3|pres_wx_AW3_Measurement_Code|pres_wx_AW3_Quality_Code|pres_wx_AW3_Report_Type|pres_wx_AW3_Source_Code|pres_wx_AW3_Source_Station_ID|snow_depth|snow_depth_Measurement_Code|snow_depth_Quality_Code|snow_depth_Report_Type|snow_depth_Source_Code|snow_depth_Source_Station_ID|visibility|visibility_Measurement_Code|visibility_Quality_Code|visibility_Report_Type|visibility_Source_Code|visibility_Source_Station_ID|altimeter|altimeter_Measurement_Code|altimeter_Quality_Code|altimeter_Report_Type|altimeter_Source_Code|altimeter_Source_Station_ID|pressure_3hr_change|pressure_3hr_change_Measurement_Code|pressure_3hr_change_Quality_Code|pressure_3hr_change_Report_Type|pressure_3hr_change_Source_Code|pressure_3hr_change_Source_Station_ID|sky_cover_1|sky_cover_1_Measurement_Code|sky_cover_1_Quality_Code|sky_cover_1_Report_Type|sky_cover_1_Source_Code|sky_cover_1_Source_Station_ID|sky_cover_baseht_1|sky_cover_baseht_1_Measurement_Code|sky_cover_baseht_1_Quality_Code|sky_cover_baseht_1_Report_Type|sky_cover_baseht_1_Source_Code|sky_cover_baseht_1_Source_Station_ID|sky_cover_2|sky_cover_2_Measurement_Code|sky_cover_2_Quality_Code|sky_cover_2_Report_Type|sky_cover_2_Source_Code|sky_cover_2_Source_Station_ID|sky_cover_baseht_2|sky_cover_baseht_2_Measurement_Code|sky_cover_baseht_2_Quality_Code|sky_cover_baseht_2_Report_Type|sky_cover_baseht_2_Source_Code|sky_cover_baseht_2_Source_Station_ID|sky_cover_3|sky_cover_3_Measurement_Code|sky_cover_3_Quality_Code|sky_cover_3_Report_Type|sky_cover_3_Source_Code|sky_cover_3_Source_Station_ID|sky_cover_baseht_3|sky_cover_baseht_3_Measurement_Code|sky_cover_baseht_3_Quality_Code|sky_cover_baseht_3_Report_Type|sky_cover_baseht_3_Source_Code|sky_cover_baseht_3_Source_Station_ID|remarks|remarks_Measurement_Code|remarks_Quality_Code|remarks_Report_Type|remarks_Source_Code|remarks_Source_Station_ID
USW00000407|E T JOSHUA AP|2018|02|22|21|00|13.1331|-61.2000|13.1|25.0||1|FM15-METAR|223|ICAO-TVSV|23.0||1|FM15-METAR|223|ICAO-TVSV|||||||||||||060|N-Normal|1|FM15-METAR|223|ICAO-TVSV|6.7|N-Normal|1|FM15-METAR|223|ICAO-TVSV|||||||||||||89|Derived||FM15-METAR|223|ICAO-TVSV|||||||||||||||||||||||||||||||||||||||||||||||||||||||||||||||||||||||||1015.0||1|FM15-METAR|223|ICAO-TVSV|||||||BKN:07|07-Seven-o|1|FM15-METAR|223|ICAO-TVSV|||||||||||||||||||||||||||||||MET057METAR TVSV 222100Z 06013KT 9999 BKN018 25/23 Q1015 NOSIG=||F||223|ICAO-TVSV
USW00000407|E T JOSHUA AP|2018|02|22|22|00|13.1331|-61.2000|13.1|24.0||1|FM15-METAR|223|ICAO-TVSV|21.0||1|FM15-METAR|223|ICAO-TVSV|||||||||||||060|N-Normal|1|FM15-METAR|223|ICAO-TVSV|5.7|N-Normal|1|FM15-METAR|223|ICAO-TVSV|||||||||||||83|Derived||FM15-METAR|223|ICAO-TVSV|||||||SHRA:80|SHRA:80-Ra|1|FM15-METAR|223|ICAO-TVSV|||||||||||||||||||||||||||||||||||||||||||||||||||||||||||||1015.0||1|FM15-METAR|223|ICAO-TVSV|||||||BKN:07|07-Seven-o|1|FM15-METAR|223|ICAO-TVSV|||||||||||||||||||||||||||||||MET070METAR TVSV 222200Z 06011KT 9999 -SHRA BKN012 BKN028 24/21 Q1015 NOSIG=||F||223|ICAO-TVSV
USW00000407|E T JOSHUA AP|2018|02|22|23|00|13.1331|-61.2000|13.1|24.0||1|FM15-METAR|223|ICAO-TVSV|21.0||1|FM15-METAR|223|ICAO-TVSV|||||||||||||070|N-Normal|1|FM15-METAR|223|ICAO-TVSV|5.7|N-Normal|1|FM15-METAR|223|ICAO-TVSV|||||||||||||83|Derived||FM15-METAR|223|ICAO-TVSV|||||||||||||||||||||||||||||||||||||||||||||||||||||||||||||||||||||||||1016.0||1|FM15-METAR|223|ICAO-TVSV|||||||BKN:07|07-Seven-o|1|FM15-METAR|223|ICAO-TVSV|||||||||||||||||||||||||||||||MET064METAR TVSV 222300Z 07011KT 9999 BKN016 SCT030 24/21 Q1016 NOSIG=||F||223|ICAO-TVSV
USW00000407|E T JOSHUA AP|2018|02|23|00|00|13.1331|-61.2000|13.1|25.0||1|FM15-METAR|223|ICAO-TVSV|21.0||1|FM15-METAR|223|ICAO-TVSV|||||||||||||070|N-Normal|1|FM15-METAR|223|ICAO-TVSV|7.2|N-Normal|1|FM15-METAR|223|ICAO-TVSV|||||||||||||79|Derived||FM15-METAR|223|ICAO-TVSV|||||||||||||||||||||||||||||||||||||||||||||||||||||||||||||||||||||||||1016.0||1|FM15-METAR|223|ICAO-TVSV|||||||BKN:07|07-Seven-o|1|FM15-METAR|223|ICAO-TVSV|||||||||||||||||||||||||||||||MET051METAR TVSV 230000Z 07014KT 9999 BKN016 25/21 Q1016=||F||223|ICAO-TVSV
USW00000407|E T JOSHUA AP|2018|03|15|17|00|13.1331|-61.2000|13.1|29.0||1|FM15-METAR|223|ICAO-TVSV|23.0||1|FM15-METAR|223|ICAO-TVSV|||||||||||||080|V-Variable|1|FM15-METAR|223|ICAO-TVSV|4.6|V-Variable|1|FM15-METAR|223|ICAO-TVSV|||||||||||||70|Derived||FM15-METAR|223|ICAO-TVSV|||||||||||||||||||||||||||||||||||||||||||||||||||||||||||||||||||||||||1016.0||1|FM15-METAR|223|ICAO-TVSV|||||||BKN:07|07-Seven-o|1|FM15-METAR|223|ICAO-TVSV|||||||||||||||||||||||||||||||MET065METAR TVSV 151700Z 08009KT 050V120 9999 BKN022 29/23 Q1016 NOSIG=||F||223|ICAO-TVSV
USW00000407|E T JOSHUA AP|2018|03|16|23|00|13.1331|-61.2000|13.1|26.0||1|FM15-METAR|223|ICAO-TVSV|21.0||1|FM15-METAR|223|ICAO-TVSV|||||||||||||090|V-Variable|1|FM15-METAR|223|ICAO-TVSV|3.6|V-Variable|1|FM15-METAR|223|ICAO-TVSV|||||||||||||74|Derived||FM15-METAR|223|ICAO-TVSV|||||||||||||||||||||||||||||||||||||||||||||||||||||||||||||||||||||||||1014.0||1|FM15-METAR|223|ICAO-TVSV|||||||FEW:02|02-Two-okt|1|FM15-METAR|223|ICAO-TVSV|||||||||||||||||||||||||||||||MET059METAR TVSV 162300Z 09007KT 050V140 9999 FEW020 26/21 Q1014=||F||223|ICAO-TVSV
USW00000407|E T JOSHUA AP|2018|08|15|21|00|13.1331|-61.2000|13.1|28.0||1|FM15-METAR|223|ICAO-TVSV|23.0||1|FM15-METAR|223|ICAO-TVSV|||||||||||||999|V-Variable|9|FM15-METAR|223|ICAO-TVSV|1.0|V-Variable|1|FM15-METAR|223|ICAO-TVSV|||||||||||||74|Derived||FM15-METAR|223|ICAO-TVSV|||||||||||||||||||||||||||||||||||||||||||||||||||||||||||||||||||||||||1013.0||1|FM15-METAR|223|ICAO-TVSV|||||||FEW:02|02-Two-okt|1|FM15-METAR|223|ICAO-TVSV|||||||||||||||||||||||||||||||MET064METAR TVSV 152100Z VRB02KT 9999 FEW022 SCT032 28/23 Q1013 NOSIG=||F||223|ICAO-TVSV
USW00000407|E T JOSHUA AP|2018|08|15|22|00|13.1331|-61.2000|13.1|28.0||1|FM15-METAR|223|ICAO-TVSV|23.0||1|FM15-METAR|223|ICAO-TVSV|||||||||||||999|C-Calm|9|FM15-METAR|223|ICAO-TVSV|0.0|C-Calm|1|FM15-METAR|223|ICAO-TVSV|||||||||||||74|Derived||FM15-METAR|223|ICAO-TVSV|||||||||||||||||||||||||||||||||||||||||||||||||||||||||||||||||||||||||1014.0||1|FM15-METAR|223|ICAO-TVSV|||||||FEW:02|02-Two-okt|1|FM15-METAR|223|ICAO-TVSV|||||||||||||||||||||||||||||||MET064METAR TVSV 152200Z 00000KT 9999 FEW022 SCT032 28/23 Q1014 NOSIG=||F||223|ICAO-TVSV
