Station_ID|Station_name|Year|Month|Day|Hour|Minute|Latitude|Longitude|Elevation|temperature|temperature_Measurement_Code|temperature_Quality_Code|temperature_Report_Type|temperature_Source_Code|temperature_Source_Station_ID|dew_point_temperature|dew_point_temperature_Measurement_Code|dew_point_temperature_Quality_Code|dew_point_temperature_Report_Type|dew_point_temperature_Source_Code|dew_point_temperature_Source_Station_ID|station_level_pressure|station_level_pressure_Measurement_Code|station_level_pressure_Quality_Code|station_level_pressure_Report_Type|station_level_pressure_Source_Code|station_level_pressure_Source_Station_ID|sea_level_pressure|sea_level_pressure_Measurement_Code|sea_level_pressure_Quality_Code|sea_level_pressure_Report_Type|sea_level_pressure_Source_Code|sea_level_pressure_Source_Station_ID|wind_direction|wind_direction_Measurement_Code|wind_direction_Quality_Code|wind_direction_Report_Type|wind_direction_Source_Code|wind_direction_Source_Station_ID|wind_speed|wind_speed_Measurement_Code|wind_speed_Quality_Code|wind_speed_Report_Type|wind_speed_Source_Code|wind_speed_Source_Station_ID|wind_gust|wind_gust_Measurement_Code|wind_gust_Quality_Code|wind_gust_Report_Type|wind_gust_Source_Code|wind_gust_Source_Station_ID|precipitation|precipitation_Measurement_Code|precipitation_Quality_Code|precipitation_Report_Type|precipitation_Source_Code|precipitation_Source_Station_ID|relative_humidity|relative_humidity_Measurement_Code|relative_humidity_Quality_Code|relative_humidity_Report_Type|relative_humidity_Source_Code|relative_humidity_Source_Station_ID|wet_bulb_temperature|wet_bulb_temperature_Measurement_Code|wet_bulb_temperature_Quality_Code|wet_bulb_temperature_Report_Type|wet_bulb_temperature_Source_Code|wet_bulb_temperature_Source_Station_ID|pres_wx_MW1|pres_wx_MW1_Measurement_Code|pres_wx_MW1_Quality_Code|pres_wx_MW1_Report_Type|pres_wx_MW1_Source_Code|pres_wx_MW1_Source_Station_ID|pres_wx_MW2|pres_wx_MW2_Measurement_Code|pres_wx_MW2_Quality_Code|pres_wx_MW2_Report_Type|pres_wx_MW2_Source_Code|pres_wx_MW2_Source_Station_ID|pres_wx_MW3|pres_wx_MW3_Measurement_Code|pres_wx_MW3_Quality_Code|pres_wx_MW3_Report_Type|pres_wx_MW3_Source_Code|pres_wx_MW3_Source_Station_ID|pres_wx_AU1|pres_wx_AU1_Measurement_Code|pres_wx_AU1_Quality_Code|pres_wx_AU1_Report_Type|pres_wx_AU1_Source_Code|pres_wx_AU1_Source_Station_ID|pres_wx_AU2|pres_wx_AU2_Measurement_Code|pres_wx_AU2_Quality_Code|pres_wx_AU2_Report_Type|pres_wx_AU2_Source_Code|pres_wx_AU2_Source_Station_ID|pres_wx_AU3|pres_wx_AU3_Measurement_Code|pres_wx_AU3_Quality_Code|pres_wx_AU3_Report_Type|pres_wx_AU3_Source_Code|pres_wx_AU3_Source_Station_ID|pres_wx_AW1|pres_wx_AW1_Measurement_Code|pres_wx_AW1_Quality_Code|pres_wx_AW1_Report_Type|pres_wx_AW1_Source_Code|pres_wx_AW1_Source_Station_ID|pres_wx_AW2|pres_wx_AW2_Measurement_Code|pres_wx_AW2_Quality_Code|pres_wx_AW2_Report_Type|pres_wx_AW2_Source_Code|pres_wx_AW2_Source_Station_ID|pres_wx_AW3|pres_wx_AW3_Measurement_Code|pres_wx_AW3_Quality_Code|pres_wx_AW3_Report_Type|pres_wx_AW3_Source_Code|pres_wx_AW3_Source_Station_ID|snow_depth|snow_depth_Measurement_Code|snow_depth_Quality_Code|snow_depth_Report_Type|snow_depth_Source_Code|snow_depth_Source_Station_ID|visibility|visibility_Measurement_Code|visibility_Quality_Code|visibility_Report_Type|visibility_Source_Code|visibility_Source_Station_ID|altimeter|altimeter_Measurement_Code|altimeter_Quality_Code|altimeter_Report_Type|altimeter_Source_Code|altimeter_Source_Station_ID|pressure_3hr_change|pressure_3hr_change_Measurement_Code|pressure_3hr_change_Quality_Code|pressure_3hr_change_Report_Type|pressure_3hr_change_Source_Code|pressure_3hr_change_Source_Station_ID|sky_cover_1|sky_cover_1_Measurement_Code|sky_cover_1_Quality_Code|sky_cover_1_Report_Type|sky_cover_1_Source_Code|sky_cover_1_Source_Station_ID|sky_cover_baseht_1|sky_cover_baseht_1_Measurement_Code|sky_cover_baseht_1_Quality_Code|sky_cover_baseht_1_Report_Type|sky_cover_baseht_1_Source_Code|sky_cover_baseht_1_Source_Station_ID|sky_cover_2|sky_cover_2_Measurement_Code|sky_cover_2_Quality_Code|sky_cover_2_Report_Type|sky_cover_2_Source_Code|sky_cover_2_Source_Station_ID|sky_cover_baseht_2|sky_cover_baseht_2_Measurement_Code|sky_cover_baseht_2_Quality_Code|sky_cover_baseht_2_Report_Type|sky_cover_baseht_2_Source_Code|sky_cover_baseht_2_Source_Station_ID|sky_cover_3|sky_cover_3_Measurement_Code|sky_cover_3_Quality_Code|sky_cover_3_Report_Type|sky_cover_3_Source_Code|sky_cover_3_Source_Station_ID|sky_cover_baseht_3|sky_cover_baseht_3_Measurement_Code|sky_cover_baseht_3_Quality_Code|sky_cover_baseht_3_Report_Type|sky_cover_baseht_3_Source_Code|sky_cover_baseht_3_Source_Station_ID|remarks|remarks_Measurement_Code|remarks_Quality_Code|remarks_Report_Type|remarks_Source_Code|remarks_Source_Station_ID
USW00023167|FRESNO CHANDLER DWTN AP|2022|02|10|21|55|36.7333|-119.8167|84.1|||||||||||||||||||||||||999|C-Calm|9|FM15-METAR|223|ICAO-KFCH|0.0|C-Calm|1|FM15-METAR|223|ICAO-KFCH|||||||||||||||||||||||||||||||||||||||||||||||||||||||||||||||||||||||||||||||||||||||||||1020.7||1|FM15-METAR|223|ICAO-KFCH|||||||||||||||||||||||||||||||||||||||||||MET050METAR KFCH 102155Z AUTO 00000KT 8SM A3014 RMK A01=||F||223|ICAO-KFCH
USW00023167|FRESNO CHANDLER DWTN AP|2022|02|10|22|10|36.7333|-119.8167|84.1|||||||||||||||||||||||||270|N-Normal|1|FM15-METAR|223|ICAO-KFCH|2.1|N-Normal|1|FM15-METAR|223|ICAO-KFCH|||||||||||||||||||||||||||||||||||||||||||||||||||||||||||||||||||||||||||||||||||||||||||1020.7||1|FM15-METAR|223|ICAO-KFCH|||||||||||||||||||||||||||||||||||||||||||MET050METAR KFCH 102210Z AUTO 27004KT 8SM A3014 RMK A01=||F||223|ICAO-KFCH
USW00023167|FRESNO CHANDLER DWTN AP|2022|02|10|22|30|36.7333|-119.8167|84.1|||||||||||||||||||||||||300|N-Normal|1|FM15-METAR|223|ICAO-KFCH|2.1|N-Normal|1|FM15-METAR|223|ICAO-KFCH|||||||||||||||||||||||||||||||||||||||||||||||||||||||||||||||||||||||||||||||||||||||||||1020.7||1|FM15-METAR|223|ICAO-KFCH|||||||||||||||||||||||||||||||||||||||||||MET050METAR KFCH 102230Z AUTO 30004KT 8SM A3014 RMK A01=||F||223|ICAO-KFCH
USW00023167|FRESNO CHANDLER DWTN AP|2022|02|10|22|55|36.7333|-119.8167|84.1|||||||||||||||||||||||||||||||||||||||||||||||||||||||||||||||||||||||||||||||||||||||||||||||||||||||||||||||||||||||||||||||1020.3||1|FM15-METAR|223|ICAO-KFCH|||||||||||||||||||||||||||||||||||||||||||MET042METAR KFCH 102255Z AUTO 8SM A3013 RMK A01=||F||223|ICAO-KFCH
USW00023167|FRESNO CHANDLER DWTN AP|2022|02|10|23|15|36.7333|-119.8167|84.1|||||||||||||||||||||||||999|C-Calm|9|FM15-METAR|223|ICAO-KFCH|0.0|C-Calm|1|FM15-METAR|223|ICAO-KFCH|||||||||||||||||||||||||||||||||||||||||||||||||||||||||||||||||||||||||||||||||||||||||||1020.3||1|FM15-METAR|223|ICAO-KFCH|||||||||||||||||||||||||||||||||||||||||||MET046METAR KFCH 102315Z AUTO 00000KT A3013 RMK A01=||F||223|ICAO-KFCH
USW00023167|FRESNO CHANDLER DWTN AP|2022|02|10|23|35|36.7333|-119.8167|84.1|24.0||1|FM15-METAR|223|ICAO-KFCH|4.0||1|FM15-METAR|223|ICAO-KFCH|||||||||||||999|C-Calm|9|FM15-METAR|223|ICAO-KFCH|0.0|C-Calm|1|FM15-METAR|223|ICAO-KFCH|||||||||||||27|Derived||FM15-METAR|223|ICAO-KFCH|||||||||||||||||||||||||||||||||||||||||||||||||||||||||||||||||||||||||1020.3||1|FM15-METAR|223|ICAO-KFCH|||||||||||||||||||||||||||||||||||||||||||MET056METAR KFCH 102335Z AUTO 00000KT 9SM 24/04 A3013 RMK A01=||F||223|ICAO-KFCH
USW00023167|FRESNO CHANDLER DWTN AP|2022|02|10|23|55|36.7333|-119.8167|84.1|23.0||1|FM15-METAR|223|ICAO-KFCH|4.0||1|FM15-METAR|223|ICAO-KFCH|||||||||||||270|N-Normal|1|FM15-METAR|223|ICAO-KFCH|1.5|N-Normal|1|FM15-METAR|223|ICAO-KFCH|||||||||||||29|Derived||FM15-METAR|223|ICAO-KFCH|||||||||||||||||||||||||||||||||||||||||||||||||||||||||||||||||||||||||1020.0||1|FM15-METAR|223|ICAO-KFCH|||||||||||||||||||||||||||||||||||||||||||MET061METAR KFCH 102355Z AUTO 27003KT 10SM CLR 23/04 A3012 RMK A01=||F||223|ICAO-KFCH
USW00023167|FRESNO CHANDLER DWTN AP|2022|02|11|00|15|36.7333|-119.8167|84.1|23.0||1|FM15-METAR|223|ICAO-KFCH|4.0||1|FM15-METAR|223|ICAO-KFCH|||||||||||||280|N-Normal|1|FM15-METAR|223|ICAO-KFCH|1.5|N-Normal|1|FM15-METAR|223|ICAO-KFCH|||||||||||||29|Derived||FM15-METAR|223|ICAO-KFCH|||||||||||||||||||||||||||||||||||||||||||||||||||||||||||||||||||||||||1020.0||1|FM15-METAR|223|ICAO-KFCH|||||||||||||||||||||||||||||||||||||||||||MET052METAR KFCH 110015Z AUTO 28003KT 23/04 A3012 RMK A01=||F||223|ICAO-KFCH
USW00023167|FRESNO CHANDLER DWTN AP|2022|02|11|00|35|36.7333|-119.8167|84.1|23.0||1|FM15-METAR|223|ICAO-KFCH|4.0||1|FM15-METAR|223|ICAO-KFCH|||||||||||||280|N-Normal|1|FM15-METAR|223|ICAO-KFCH|1.5|N-Normal|1|FM15-METAR|223|ICAO-KFCH|||||||||||||29|Derived||FM15-METAR|223|ICAO-KFCH|||||||||||||||||||||||||||||||||||||||||||||||||||||||||||||||||||||||||1020.0||1|FM15-METAR|223|ICAO-KFCH|||||||||||||||||||||||||||||||||||||||||||MET057METAR KFCH 110035Z AUTO 28003KT 10SM 23/04 A3012 RMK A01=||F||223|ICAO-KFCH
USW00023167|FRESNO CHANDLER DWTN AP|2022|02|11|00|55|36.7333|-119.8167|84.1|23.0||1|FM15-METAR|223|ICAO-KFCH|4.0||1|FM15-METAR|223|ICAO-KFCH|||||||||||||999|C-Calm|9|FM15-METAR|223|ICAO-KFCH|0.0|C-Calm|1|FM15-METAR|223|ICAO-KFCH|||||||||||||29|Derived||FM15-METAR|223|ICAO-KFCH|||||||||||||||||||||||||||||||||||||||||||||||||||||||||||||||||||||||||1020.0||1|FM15-METAR|223|ICAO-KFCH|||||||||||||||||||||||||||||||||||||||||||MET061METAR KFCH 110055Z AUTO 00000KT 10SM CLR 23/04 A3012 RMK A01=||F||223|ICAO-KFCH
USW00023167|FRESNO CHANDLER DWTN AP|2022|02|11|01|15|36.7333|-119.8167|84.1|22.0||1|FM15-METAR|223|ICAO-KFCH|4.0||1|FM15-METAR|223|ICAO-KFCH|||||||||||||310|N-Normal|1|FM15-METAR|223|ICAO-KFCH|1.5|N-Normal|1|FM15-METAR|223|ICAO-KFCH|||||||||||||31|Derived||FM15-METAR|223|ICAO-KFCH|||||||||||||||||||||||||||||||||||||||||||||||||||||||||||||||||||||||||1020.0||1|FM15-METAR|223|ICAO-KFCH|||||||||||||||||||||||||||||||||||||||||||MET061METAR KFCH 110115Z AUTO 31003KT 10SM CLR 22/04 A3012 RMK A01=||F||223|ICAO-KFCH
USW00023167|FRESNO CHANDLER DWTN AP|2022|02|11|01|35|36.7333|-119.8167|84.1|21.0||1|FM15-METAR|223|ICAO-KFCH|5.0||1|FM15-METAR|223|ICAO-KFCH|||||||||||||310|N-Normal|1|FM15-METAR|223|ICAO-KFCH|1.5|N-Normal|1|FM15-METAR|223|ICAO-KFCH|||||||||||||35|Derived||FM15-METAR|223|ICAO-KFCH|||||||||||||||||||||||||||||||||||||||||||||||||||||||||||||||||||||||||1020.3||1|FM15-METAR|223|ICAO-KFCH|||||||||||||||||||||||||||||||||||||||||||MET061METAR KFCH 110135Z AUTO 31003KT 10SM CLR 21/05 A3013 RMK A01=||F||223|ICAO-KFCH
USW00023167|FRESNO CHANDLER DWTN AP|2022|02|11|01|55|36.7333|-119.8167|84.1|20.0||1|FM15-METAR|223|ICAO-KFCH|5.0||1|FM15-METAR|223|ICAO-KFCH|||||||||||||999|C-Calm|9|FM15-METAR|223|ICAO-KFCH|0.0|C-Calm|1|FM15-METAR|223|ICAO-KFCH|||||||||||||38|Derived||FM15-METAR|223|ICAO-KFCH|||||||||||||||||||||||||||||||||||||||||||||||||||||||||||||||||||||||||1020.3||1|FM15-METAR|223|ICAO-KFCH|||||||||||||||||||||||||||||||||||||||||||MET061METAR KFCH 110155Z AUTO 00000KT 10SM CLR 20/05 A3013 RMK A01=||F||223|ICAO-KFCH
USW00023167|FRESNO CHANDLER DWTN AP|2022|02|11|02|15|36.7333|-119.8167|84.1|19.0||1|FM15-METAR|223|ICAO-KFCH|5.0||1|FM15-METAR|223|ICAO-KFCH|||||||||||||999|C-Calm|9|FM15-METAR|223|ICAO-KFCH|0.0|C-Calm|1|FM15-METAR|223|ICAO-KFCH|||||||||||||40|Derived||FM15-METAR|223|ICAO-KFCH|||||||||||||||||||||||||||||||||||||||||||||||||||||||||||||||||||||||||1020.3||1|FM15-METAR|223|ICAO-KFCH|||||||||||||||||||||||||||||||||||||||||||MET061METAR KFCH 110215Z AUTO 00000KT 10SM CLR 19/05 A3013 RMK A01=||F||223|ICAO-KFCH
USW00023167|FRESNO CHANDLER DWTN AP|2022|02|11|02|35|36.7333|-119.8167|84.1|17.0||1|FM15-METAR|223|ICAO-KFCH|6.0||1|FM15-METAR|223|ICAO-KFCH|||||||||||||999|C-Calm|9|FM15-METAR|223|ICAO-KFCH|0.0|C-Calm|1|FM15-METAR|223|ICAO-KFCH|||||||||||||49|Derived||FM15-METAR|223|ICAO-KFCH|||||||||||||||||||||||||||||||||||||||||||||||||||||||||||||||||||||||||1020.3||1|FM15-METAR|223|ICAO-KFCH|||||||||||||||||||||||||||||||||||||||||||MET061METAR KFCH 110235Z AUTO 00000KT 10SM CLR 17/06 A3013 RMK A01=||F||223|ICAO-KFCH
USW00023167|FRESNO CHANDLER DWTN AP|2022|02|11|02|55|36.7333|-119.8167|84.1|18.0||1|FM15-METAR|223|ICAO-KFCH|6.0||1|FM15-METAR|223|ICAO-KFCH|||||||||||||999|C-Calm|9|FM15-METAR|223|ICAO-KFCH|0.0|C-Calm|1|FM15-METAR|223|ICAO-KFCH|||||||||||||46|Derived||FM15-METAR|223|ICAO-KFCH|||||||||||||||||||||||||||||||||||||||||||||||||||||||||||||||||||||||||1020.7||1|FM15-METAR|223|ICAO-KFCH|||||||||||||||||||||||||||||||||||||||||||MET061METAR KFCH 110255Z AUTO 00000KT 10SM CLR 18/06 A3014 RMK A01=||F||223|ICAO-KFCH
USW00023167|FRESNO CHANDLER DWTN AP|2022|02|11|03|15|36.7333|-119.8167|84.1|16.0||1|FM15-METAR|223|ICAO-KFCH|6.0||1|FM15-METAR|223|ICAO-KFCH|||||||||||||999|C-Calm|9|FM15-METAR|223|ICAO-KFCH|0.0|C-Calm|1|FM15-METAR|223|ICAO-KFCH|||||||||||||52|Derived||FM15-METAR|223|ICAO-KFCH|||||||||||||||||||||||||||||||||||||||||||||||||||||||||||||||||||||||||1020.7||1|FM15-METAR|223|ICAO-KFCH|||||||||||||||||||||||||||||||||||||||||||MET061METAR KFCH 110315Z AUTO 00000KT 10SM CLR 16/06 A3014 RMK A01=||F||223|ICAO-KFCH
USW00023167|FRESNO CHANDLER DWTN AP|2022|02|11|03|35|36.7333|-119.8167|84.1|16.0||1|FM15-METAR|223|ICAO-KFCH|6.0||1|FM15-METAR|223|ICAO-KFCH|||||||||||||999|C-Calm|9|FM15-METAR|223|ICAO-KFCH|0.0|C-Calm|1|FM15-METAR|223|ICAO-KFCH|||||||||||||52|Derived||FM15-METAR|223|ICAO-KFCH|||||||||||||||||||||||||||||||||||||||||||||||||||||||||||||||||||||||||1020.7||1|FM15-METAR|223|ICAO-KFCH|||||||||||||||||||||||||||||||||||||||||||MET061METAR KFCH 110335Z AUTO 00000KT 10SM CLR 16/06 A3014 RMK A01=||F||223|ICAO-KFCH
USW00023167|FRESNO CHANDLER DWTN AP|2022|02|11|03|55|36.7333|-119.8167|84.1|15.0||1|FM15-METAR|223|ICAO-KFCH|7.0||1|FM15-METAR|223|ICAO-KFCH|||||||||||||999|C-Calm|9|FM15-METAR|223|ICAO-KFCH|0.0|C-Calm|1|FM15-METAR|223|ICAO-KFCH|||||||||||||59|Derived||FM15-METAR|223|ICAO-KFCH|||||||||||||||||||||||||||||||||||||||||||||||||||||||||||||||||||||||||1021.0||1|FM15-METAR|223|ICAO-KFCH|||||||||||||||||||||||||||||||||||||||||||MET061METAR KFCH 110355Z AUTO 00000KT 10SM CLR 15/07 A3015 RMK A01=||F||223|ICAO-KFCH
USW00023167|FRESNO CHANDLER DWTN AP|2022|02|11|04|15|36.7333|-119.8167|84.1|15.0||1|FM15-METAR|223|ICAO-KFCH|7.0||1|FM15-METAR|223|ICAO-KFCH|||||||||||||999|C-Calm|9|FM15-METAR|223|ICAO-KFCH|0.0|C-Calm|1|FM15-METAR|223|ICAO-KFCH|||||||||||||59|Derived||FM15-METAR|223|ICAO-KFCH|||||||||||||||||||||||||||||||||||||||||||||||||||||||||||||||||||||||||1021.0||1|FM15-METAR|223|ICAO-KFCH|||||||||||||||||||||||||||||||||||||||||||MET061METAR KFCH 110415Z AUTO 00000KT 10SM CLR 15/07 A3015 RMK A01=||F||223|ICAO-KFCH
USW00023167|FRESNO CHANDLER DWTN AP|2022|02|11|04|35|36.7333|-119.8167|84.1|14.0||1|FM15-METAR|223|ICAO-KFCH|7.0||1|FM15-METAR|223|ICAO-KFCH|||||||||||||999|C-Calm|9|FM15-METAR|223|ICAO-KFCH|0.0|C-Calm|1|FM15-METAR|223|ICAO-KFCH|||||||||||||63|Derived||FM15-METAR|223|ICAO-KFCH|||||||||||||||||||||||||||||||||||||||||||||||||||||||||||||||||||||||||1021.0||1|FM15-METAR|223|ICAO-KFCH|||||||||||||||||||||||||||||||||||||||||||MET061METAR KFCH 110435Z AUTO 00000KT 10SM CLR 14/07 A3015 RMK A01=||F||223|ICAO-KFCH
USW00023167|FRESNO CHANDLER DWTN AP|2022|02|11|04|55|36.7333|-119.8167|84.1|14.0||1|FM15-METAR|223|ICAO-KFCH|7.0||1|FM15-METAR|223|ICAO-KFCH|||||||||||||310|N-Normal|1|FM15-METAR|223|ICAO-KFCH|1.5|N-Normal|1|FM15-METAR|223|ICAO-KFCH|||||||||||||63|Derived||FM15-METAR|223|ICAO-KFCH|||||||||||||||||||||||||||||||||||||||||||||||||||||||||||||||||||||||||1021.0||1|FM15-METAR|223|ICAO-KFCH|||||||||||||||||||||||||||||||||||||||||||MET061METAR KFCH 110455Z AUTO 31003KT 10SM CLR 14/07 A3015 RMK A01=||F||223|ICAO-KFCH
USW00023167|FRESNO CHANDLER DWTN AP|2022|02|11|05|15|36.7333|-119.8167|84.1|||||||||||||||||||||||||||||||||||||||||||||||||||||||||||||||||||||||||||||||||||||||||||||||||||||||||||||||||||||||||||||||1021.3||1|FM15-METAR|223|ICAO-KFCH|||||||||||||||||||||||||||||||||||||||||||MET038METAR KFCH 110515Z AUTO A3016 RMK A01=||F||223|ICAO-KFCH
USW00023167|FRESNO CHANDLER DWTN AP|2022|02|11|05|35|36.7333|-119.8167|84.1|13.0||1|FM15-METAR|223|ICAO-KFCH|7.0||1|FM15-METAR|223|ICAO-KFCH|||||||||||||999|C-Calm|9|FM15-METAR|223|ICAO-KFCH|0.0|C-Calm|1|FM15-METAR|223|ICAO-KFCH|||||||||||||67|Derived||FM15-METAR|223|ICAO-KFCH|||||||||||||||||||||||||||||||||||||||||||||||||||||||||||||||||||||||||1021.3||1|FM15-METAR|223|ICAO-KFCH|||||||||||||||||||||||||||||||||||||||||||MET057METAR KFCH 110535Z AUTO 00000KT 10SM 13/07 A3016 RMK A01=||F||223|ICAO-KFCH
USW00023167|FRESNO CHANDLER DWTN AP|2022|02|11|05|55|36.7333|-119.8167|84.1|12.0||1|FM15-METAR|223|ICAO-KFCH|7.0||1|FM15-METAR|223|ICAO-KFCH|||||||||||||020|N-Normal|1|FM15-METAR|223|ICAO-KFCH|1.5|N-Normal|1|FM15-METAR|223|ICAO-KFCH|||||||||||||72|Derived||FM15-METAR|223|ICAO-KFCH|||||||||||||||||||||||||||||||||||||||||||||||||||||||||||||||||||||||||1021.3||1|FM15-METAR|223|ICAO-KFCH|||||||||||||||||||||||||||||||||||||||||||MET061METAR KFCH 110555Z AUTO 02003KT 10SM CLR 12/07 A3016 RMK A01=||F||223|ICAO-KFCH
USW00023167|FRESNO CHANDLER DWTN AP|2022|02|11|06|15|36.7333|-119.8167|84.1|12.0||1|FM15-METAR|223|ICAO-KFCH|7.0||1|FM15-METAR|223|ICAO-KFCH|||||||||||||999|C-Calm|9|FM15-METAR|223|ICAO-KFCH|0.0|C-Calm|1|FM15-METAR|223|ICAO-KFCH|||||||||||||72|Derived||FM15-METAR|223|ICAO-KFCH|||||||||||||||||||||||||||||||||||||||||||||||||||||||||||||||||||||||||1021.0||1|FM15-METAR|223|ICAO-KFCH|||||||||||||||||||||||||||||||||||||||||||MET061METAR KFCH 110615Z AUTO 00000KT 10SM CLR 12/07 A3015 RMK A01=||F||223|ICAO-KFCH
USW00023167|FRESNO CHANDLER DWTN AP|2022|02|11|06|35|36.7333|-119.8167|84.1|12.0||1|FM15-METAR|223|ICAO-KFCH|7.0||1|FM15-METAR|223|ICAO-KFCH|||||||||||||040|N-Normal|1|FM15-METAR|223|ICAO-KFCH|2.1|N-Normal|1|FM15-METAR|223|ICAO-KFCH|||||||||||||72|Derived||FM15-METAR|223|ICAO-KFCH|||||||||||||||||||||||||||||||||||||||||||||||||||||||||||||||||||||||||1021.0||1|FM15-METAR|223|ICAO-KFCH|||||||||||||||||||||||||||||||||||||||||||MET061METAR KFCH 110635Z AUTO 04004KT 10SM CLR 12/07 A3015 RMK A01=||F||223|ICAO-KFCH
USW00023167|FRESNO CHANDLER DWTN AP|2022|02|11|06|55|36.7333|-119.8167|84.1|13.0||1|FM15-METAR|223|ICAO-KFCH|7.0||1|FM15-METAR|223|ICAO-KFCH|||||||||||||999|C-Calm|9|FM15-METAR|223|ICAO-KFCH|0.0|C-Calm|1|FM15-METAR|223|ICAO-KFCH|||||||||||||67|Derived||FM15-METAR|223|ICAO-KFCH|||||||||||||||||||||||||||||||||||||||||||||||||||||||||||||||||||||||||1021.0||1|FM15-METAR|223|ICAO-KFCH|||||||||||||||||||||||||||||||||||||||||||MET061METAR KFCH 110655Z AUTO 00000KT 10SM CLR 13/07 A3015 RMK A01=||F||223|ICAO-KFCH
USW00023167|FRESNO CHANDLER DWTN AP|2022|02|11|07|15|36.7333|-119.8167|84.1|11.0||1|FM15-METAR|223|ICAO-KFCH|7.0||1|FM15-METAR|223|ICAO-KFCH|||||||||||||200|N-Normal|1|FM15-METAR|223|ICAO-KFCH|2.1|N-Normal|1|FM15-METAR|223|ICAO-KFCH|||||||||||||77|Derived||FM15-METAR|223|ICAO-KFCH|||||||||||||||||||||||||||||||||||||||||||||||||||||||||||||||||||||||||1021.0||1|FM15-METAR|223|ICAO-KFCH|||||||||||||||||||||||||||||||||||||||||||MET061METAR KFCH 110715Z AUTO 20004KT 10SM CLR 11/07 A3015 RMK A01=||F||223|ICAO-KFCH
USW00023167|FRESNO CHANDLER DWTN AP|2022|02|11|07|35|36.7333|-119.8167|84.1|10.0||1|FM15-METAR|223|ICAO-KFCH|6.0||1|FM15-METAR|223|ICAO-KFCH|||||||||||||999|C-Calm|9|FM15-METAR|223|ICAO-KFCH|0.0|C-Calm|1|FM15-METAR|223|ICAO-KFCH|||||||||||||76|Derived||FM15-METAR|223|ICAO-KFCH|||||||||||||||||||||||||||||||||||||||||||||||||||||||||||||||||||||||||1021.0||1|FM15-METAR|223|ICAO-KFCH|||||||||||||||||||||||||||||||||||||||||||MET061METAR KFCH 110735Z AUTO 00000KT 10SM CLR 10/06 A3015 RMK A01=||F||223|ICAO-KFCH
USW00023167|FRESNO CHANDLER DWTN AP|2022|02|11|07|55|36.7333|-119.8167|84.1|10.0||1|FM15-METAR|223|ICAO-KFCH|7.0||1|FM15-METAR|223|ICAO-KFCH|||||||||||||999|C-Calm|9|FM15-METAR|223|ICAO-KFCH|0.0|C-Calm|1|FM15-METAR|223|ICAO-KFCH|||||||||||||82|Derived||FM15-METAR|223|ICAO-KFCH|||||||||||||||||||||||||||||||||||||||||||||||||||||||||||||||||||||||||1021.0||1|FM15-METAR|223|ICAO-KFCH|||||||||||||||||||||||||||||||||||||||||||MET061METAR KFCH 110755Z AUTO 00000KT 10SM CLR 10/07 A3015 RMK A01=||F||223|ICAO-KFCH
USW00023167|FRESNO CHANDLER DWTN AP|2022|02|11|08|15|36.7333|-119.8167|84.1|10.0||1|FM15-METAR|223|ICAO-KFCH|6.0||1|FM15-METAR|223|ICAO-KFCH|||||||||||||999|C-Calm|9|FM15-METAR|223|ICAO-KFCH|0.0|C-Calm|1|FM15-METAR|223|ICAO-KFCH|||||||||||||76|Derived||FM15-METAR|223|ICAO-KFCH|||||||||||||||||||||||||||||||||||||||||||||||||||||||||||||||||||||||||1020.7||1|FM15-METAR|223|ICAO-KFCH|||||||||||||||||||||||||||||||||||||||||||MET061METAR KFCH 110815Z AUTO 00000KT 10SM CLR 10/06 A3014 RMK A01=||F||223|ICAO-KFCH
USW00023167|FRESNO CHANDLER DWTN AP|2022|02|11|08|35|36.7333|-119.8167|84.1|9.0||1|FM15-METAR|223|ICAO-KFCH|7.0||1|FM15-METAR|223|ICAO-KFCH|||||||||||||999|C-Calm|9|FM15-METAR|223|ICAO-KFCH|0.0|C-Calm|1|FM15-METAR|223|ICAO-KFCH|||||||||||||87|Derived||FM15-METAR|223|ICAO-KFCH|||||||||||||||||||||||||||||||||||||||||||||||||||||||||||||||||||||||||1020.3||1|FM15-METAR|223|ICAO-KFCH|||||||||||||||||||||||||||||||||||||||||||MET061METAR KFCH 110835Z AUTO 00000KT 10SM CLR 09/07 A3013 RMK A01=||F||223|ICAO-KFCH
USW00023167|FRESNO CHANDLER DWTN AP|2022|02|11|08|55|36.7333|-119.8167|84.1|10.0||1|FM15-METAR|223|ICAO-KFCH|6.0||1|FM15-METAR|223|ICAO-KFCH|||||||||||||999|C-Calm|9|FM15-METAR|223|ICAO-KFCH|0.0|C-Calm|1|FM15-METAR|223|ICAO-KFCH|||||||||||||76|Derived||FM15-METAR|223|ICAO-KFCH|||||||||||||||||||||||||||||||||||||||||||||||||||||||||||||||||||||||||1020.3||1|FM15-METAR|223|ICAO-KFCH|||||||||||||||||||||||||||||||||||||||||||MET061METAR KFCH 110855Z AUTO 00000KT 10SM CLR 10/06 A3013 RMK A01=||F||223|ICAO-KFCH
USW00023167|FRESNO CHANDLER DWTN AP|2022|02|11|09|15|36.7333|-119.8167|84.1|9.0||1|FM15-METAR|223|ICAO-KFCH|6.0||1|FM15-METAR|223|ICAO-KFCH|||||||||||||999|C-Calm|9|FM15-METAR|223|ICAO-KFCH|0.0|C-Calm|1|FM15-METAR|223|ICAO-KFCH|||||||||||||82|Derived||FM15-METAR|223|ICAO-KFCH|||||||||||||||||||||||||||||||||||||||||||||||||||||||||||||||||||||||||1020.0||1|FM15-METAR|223|ICAO-KFCH|||||||||||||||||||||||||||||||||||||||||||MET061METAR KFCH 110915Z AUTO 00000KT 10SM CLR 09/06 A3012 RMK A01=||F||223|ICAO-KFCH
USW00023167|FRESNO CHANDLER DWTN AP|2022|02|11|09|35|36.7333|-119.8167|84.1|9.0||1|FM15-METAR|223|ICAO-KFCH|6.0||1|FM15-METAR|223|ICAO-KFCH|||||||||||||999|C-Calm|9|FM15-METAR|223|ICAO-KFCH|0.0|C-Calm|1|FM15-METAR|223|ICAO-KFCH|||||||||||||82|Derived||FM15-METAR|223|ICAO-KFCH|||||||||||||||||||||||||||||||||||||||||||||||||||||||||||||||||||||||||1020.0||1|FM15-METAR|223|ICAO-KFCH|||||||||||||||||||||||||||||||||||||||||||MET061METAR KFCH 110935Z AUTO 00000KT 10SM CLR 09/06 A3012 RMK A01=||F||223|ICAO-KFCH
USW00023167|FRESNO CHANDLER DWTN AP|2022|02|11|09|55|36.7333|-119.8167|84.1|9.0||1|FM15-METAR|223|ICAO-KFCH|6.0||1|FM15-METAR|223|ICAO-KFCH|||||||||||||999|C-Calm|9|FM15-METAR|223|ICAO-KFCH|0.0|C-Calm|1|FM15-METAR|223|ICAO-KFCH|||||||||||||82|Derived||FM15-METAR|223|ICAO-KFCH|||||||||||||||||||||||||||||||||||||||||||||||||||||||||||||||||||||||||1020.0||1|FM15-METAR|223|ICAO-KFCH|||||||||||||||||||||||||||||||||||||||||||MET061METAR KFCH 110955Z AUTO 00000KT 10SM CLR 09/06 A3012 RMK A01=||F||223|ICAO-KFCH
USW00023167|FRESNO CHANDLER DWTN AP|2022|02|11|10|10|36.7333|-119.8167|84.1|9.0||1|FM15-METAR|223|ICAO-KFCH|6.0||1|FM15-METAR|223|ICAO-KFCH|||||||||||||999|C-Calm|9|FM15-METAR|223|ICAO-KFCH|0.0|C-Calm|1|FM15-METAR|223|ICAO-KFCH|||||||||||||82|Derived||FM15-METAR|223|ICAO-KFCH|||||||||||||||||||||||||||||||||||||||||||||||||||||||||||||||||||||||||1020.0||1|FM15-METAR|223|ICAO-KFCH|||||||||||||||||||||||||||||||||||||||||||MET061METAR KFCH 111010Z AUTO 00000KT 10SM CLR 09/06 A3012 RMK A01=||F||223|ICAO-KFCH
USW00023167|FRESNO CHANDLER DWTN AP|2022|02|11|10|30|36.7333|-119.8167|84.1|9.0||1|FM15-METAR|223|ICAO-KFCH|6.0||1|FM15-METAR|223|ICAO-KFCH|||||||||||||999|C-Calm|9|FM15-METAR|223|ICAO-KFCH|0.0|C-Calm|1|FM15-METAR|223|ICAO-KFCH|||||||||||||82|Derived||FM15-METAR|223|ICAO-KFCH|||||||||||||||||||||||||||||||||||||||||||||||||||||||||||||||||||||||||1019.6||1|FM15-METAR|223|ICAO-KFCH|||||||||||||||||||||||||||||||||||||||||||MET061METAR KFCH 111030Z AUTO 00000KT 10SM CLR 09/06 A3011 RMK A01=||F||223|ICAO-KFCH
USW00023167|FRESNO CHANDLER DWTN AP|2022|02|11|10|55|36.7333|-119.8167|84.1|9.0||1|FM15-METAR|223|ICAO-KFCH|7.0||1|FM15-METAR|223|ICAO-KFCH|||||||||||||110|N-Normal|1|FM15-METAR|223|ICAO-KFCH|3.1|N-Normal|1|FM15-METAR|223|ICAO-KFCH|||||||||||||87|Derived||FM15-METAR|223|ICAO-KFCH|||||||||||||||||||||||||||||||||||||||||||||||||||||||||||||||||||||||||1019.6||1|FM15-METAR|223|ICAO-KFCH|||||||||||||||||||||||||||||||||||||||||||MET061METAR KFCH 111055Z AUTO 11006KT 10SM CLR 09/07 A3011 RMK A01=||F||223|ICAO-KFCH
USW00023167|FRESNO CHANDLER DWTN AP|2022|02|11|11|15|36.7333|-119.8167|84.1|9.0||1|FM15-METAR|223|ICAO-KFCH|7.0||1|FM15-METAR|223|ICAO-KFCH|||||||||||||110|N-Normal|1|FM15-METAR|223|ICAO-KFCH|2.1|N-Normal|1|FM15-METAR|223|ICAO-KFCH|||||||||||||87|Derived||FM15-METAR|223|ICAO-KFCH|||||||||||||||||||||||||||||||||||||||||||||||||||||||||||||||||||||||||1019.3||1|FM15-METAR|223|ICAO-KFCH|||||||||||||||||||||||||||||||||||||||||||MET061METAR KFCH 111115Z AUTO 11004KT 10SM CLR 09/07 A3010 RMK A01=||F||223|ICAO-KFCH
USW00023167|FRESNO CHANDLER DWTN AP|2022|02|11|11|35|36.7333|-119.8167|84.1|9.0||1|FM15-METAR|223|ICAO-KFCH|7.0||1|FM15-METAR|223|ICAO-KFCH|||||||||||||090|N-Normal|1|FM15-METAR|223|ICAO-KFCH|1.5|N-Normal|1|FM15-METAR|223|ICAO-KFCH|||||||||||||87|Derived||FM15-METAR|223|ICAO-KFCH|||||||||||||||||||||||||||||||||||||||||||||||||||||||||||||||||||||||||1019.3||1|FM15-METAR|223|ICAO-KFCH|||||||||||||||||||||||||||||||||||||||||||MET061METAR KFCH 111135Z AUTO 09003KT 10SM CLR 09/07 A3010 RMK A01=||F||223|ICAO-KFCH
USW00023167|FRESNO CHANDLER DWTN AP|2022|02|11|11|50|36.7333|-119.8167|84.1|9.0||1|FM15-METAR|223|ICAO-KFCH|7.0||1|FM15-METAR|223|ICAO-KFCH|||||||||||||120|N-Normal|1|FM15-METAR|223|ICAO-KFCH|2.1|N-Normal|1|FM15-METAR|223|ICAO-KFCH|||||||||||||87|Derived||FM15-METAR|223|ICAO-KFCH|||||||||||||||||||||||||||||||||||||||||||||||||||||||||||||||||||||||||1019.0||1|FM15-METAR|223|ICAO-KFCH|||||||||||||||||||||||||||||||||||||||||||MET061METAR KFCH 111150Z AUTO 12004KT 10SM CLR 09/07 A3009 RMK A01=||F||223|ICAO-KFCH
USW00023167|FRESNO CHANDLER DWTN AP|2022|02|11|12|15|36.7333|-119.8167|84.1|8.0||1|FM15-METAR|223|ICAO-KFCH|7.0||1|FM15-METAR|223|ICAO-KFCH|||||||||||||100|N-Normal|1|FM15-METAR|223|ICAO-KFCH|2.6|N-Normal|1|FM15-METAR|223|ICAO-KFCH|||||||||||||93|Derived||FM15-METAR|223|ICAO-KFCH|||||||||||||||||||||||||||||||||||||||||||||||||||||||||||||||||||||||||1019.3||1|FM15-METAR|223|ICAO-KFCH|||||||||||||||||||||||||||||||||||||||||||MET061METAR KFCH 111215Z AUTO 10005KT 10SM CLR 08/07 A3010 RMK A01=||F||223|ICAO-KFCH
USW00023167|FRESNO CHANDLER DWTN AP|2022|02|11|12|35|36.7333|-119.8167|84.1|9.0||1|FM15-METAR|223|ICAO-KFCH|7.0||1|FM15-METAR|223|ICAO-KFCH|||||||||||||100|N-Normal|1|FM15-METAR|223|ICAO-KFCH|2.1|N-Normal|1|FM15-METAR|223|ICAO-KFCH|||||||||||||87|Derived||FM15-METAR|223|ICAO-KFCH|||||||||||||||||||||||||||||||||||||||||||||||||||||||||||||||||||||||||1019.3||1|FM15-METAR|223|ICAO-KFCH|||||||||||||||||||||||||||||||||||||||||||MET061METAR KFCH 111235Z AUTO 10004KT 10SM CLR 09/07 A3010 RMK A01=||F||223|ICAO-KFCH
USW00023167|FRESNO CHANDLER DWTN AP|2022|02|11|12|55|36.7333|-119.8167|84.1|9.0||1|FM15-METAR|223|ICAO-KFCH|7.0||1|FM15-METAR|223|ICAO-KFCH|||||||||||||090|N-Normal|1|FM15-METAR|223|ICAO-KFCH|2.6|N-Normal|1|FM15-METAR|223|ICAO-KFCH|||||||||||||87|Derived||FM15-METAR|223|ICAO-KFCH|||||||||||||||||||||||||||||||||||||||||||||||||||||||||||||||||||||||||1019.3||1|FM15-METAR|223|ICAO-KFCH|||||||||||||||||||||||||||||||||||||||||||MET061METAR KFCH 111255Z AUTO 09005KT 10SM CLR 09/07 A3010 RMK A01=||F||223|ICAO-KFCH
USW00023167|FRESNO CHANDLER DWTN AP|2022|02|11|13|15|36.7333|-119.8167|84.1|9.0||1|FM15-METAR|223|ICAO-KFCH|7.0||1|FM15-METAR|223|ICAO-KFCH|||||||||||||100|N-Normal|1|FM15-METAR|223|ICAO-KFCH|2.1|N-Normal|1|FM15-METAR|223|ICAO-KFCH|||||||||||||87|Derived||FM15-METAR|223|ICAO-KFCH|||||||||||||||||||||||||||||||||||||||||||||||||||||||||||||||||||||||||1019.3||1|FM15-METAR|223|ICAO-KFCH|||||||||||||||||||||||||||||||||||||||||||MET061METAR KFCH 111315Z AUTO 10004KT 10SM CLR 09/07 A3010 RMK A01=||F||223|ICAO-KFCH
USW00023167|FRESNO CHANDLER DWTN AP|2022|02|11|13|35|36.7333|-119.8167|84.1|9.0||1|FM15-METAR|223|ICAO-KFCH|7.0||1|FM15-METAR|223|ICAO-KFCH|||||||||||||110|N-Normal|1|FM15-METAR|223|ICAO-KFCH|2.6|N-Normal|1|FM15-METAR|223|ICAO-KFCH|||||||||||||87|Derived||FM15-METAR|223|ICAO-KFCH|||||||||||||||||||||||||||||||||||||||||||||||||||||||||||||||||||||||||1019.3||1|FM15-METAR|223|ICAO-KFCH|||||||||||||||||||||||||||||||||||||||||||MET061METAR KFCH 111335Z AUTO 11005KT 10SM CLR 09/07 A3010 RMK A01=||F||223|ICAO-KFCH
USW00023167|FRESNO CHANDLER DWTN AP|2022|02|11|13|55|36.7333|-119.8167|84.1|9.0||1|FM15-METAR|223|ICAO-KFCH|7.0||1|FM15-METAR|223|ICAO-KFCH|||||||||||||999|C-Calm|9|FM15-METAR|223|ICAO-KFCH|0.0|C-Calm|1|FM15-METAR|223|ICAO-KFCH|||||||||||||87|Derived||FM15-METAR|223|ICAO-KFCH|||||||||||||||||||||||||||||||||||||||||||||||||||||||||||||||||||||||||1019.3||1|FM15-METAR|223|ICAO-KFCH|||||||||||||||||||||||||||||||||||||||||||MET061METAR KFCH 111355Z AUTO 00000KT 10SM CLR 09/07 A3010 RMK A01=||F||223|ICAO-KFCH
USW00023167|FRESNO CHANDLER DWTN AP|2022|02|11|14|15|36.7333|-119.8167|84.1|8.0||1|FM15-METAR|223|ICAO-KFCH|7.0||1|FM15-METAR|223|ICAO-KFCH|||||||||||||999|C-Calm|9|FM15-METAR|223|ICAO-KFCH|0.0|C-Calm|1|FM15-METAR|223|ICAO-KFCH|||||||||||||93|Derived||FM15-METAR|223|ICAO-KFCH|||||||||||||||||||||||||||||||||||||||||||||||||||||||||||||||||||||||||1019.3||1|FM15-METAR|223|ICAO-KFCH|||||||||||||||||||||||||||||||||||||||||||MET061METAR KFCH 111415Z AUTO 00000KT 10SM CLR 08/07 A3010 RMK A01=||F||223|ICAO-KFCH
USW00023167|FRESNO CHANDLER DWTN AP|2022|02|11|14|35|36.7333|-119.8167|84.1|8.0||1|FM15-METAR|223|ICAO-KFCH|7.0||1|FM15-METAR|223|ICAO-KFCH|||||||||||||999|C-Calm|9|FM15-METAR|223|ICAO-KFCH|0.0|C-Calm|1|FM15-METAR|223|ICAO-KFCH|||||||||||||93|Derived||FM15-METAR|223|ICAO-KFCH|||||||||||||||||||||||||||||||||||||||||||||||||||||||||||||||||||||||||1019.6||1|FM15-METAR|223|ICAO-KFCH|||||||||||||||||||||||||||||||||||||||||||MET061METAR KFCH 111435Z AUTO 00000KT 10SM CLR 08/07 A3011 RMK A01=||F||223|ICAO-KFCH
USW00023167|FRESNO CHANDLER DWTN AP|2022|02|11|14|55|36.7333|-119.8167|84.1|8.0||1|FM15-METAR|223|ICAO-KFCH|7.0||1|FM15-METAR|223|ICAO-KFCH|||||||||||||999|C-Calm|9|FM15-METAR|223|ICAO-KFCH|0.0|C-Calm|1|FM15-METAR|223|ICAO-KFCH|||||||||||||93|Derived||FM15-METAR|223|ICAO-KFCH|||||||||||||||||||||||||||||||||||||||||||||||||||||||||||||||||||||||||1020.0||1|FM15-METAR|223|ICAO-KFCH|||||||||||||||||||||||||||||||||||||||||||MET061METAR KFCH 111455Z AUTO 00000KT 10SM CLR 08/07 A3012 RMK A01=||F||223|ICAO-KFCH
USW00023167|FRESNO CHANDLER DWTN AP|2022|02|11|15|15|36.7333|-119.8167|84.1|8.0||1|FM15-METAR|223|ICAO-KFCH|6.0||1|FM15-METAR|223|ICAO-KFCH|||||||||||||999|C-Calm|9|FM15-METAR|223|ICAO-KFCH|0.0|C-Calm|1|FM15-METAR|223|ICAO-KFCH|||||||||||||87|Derived||FM15-METAR|223|ICAO-KFCH|||||||||||||||||||||||||||||||||||||||||||||||||||||||||||||||||||||||||1020.3||1|FM15-METAR|223|ICAO-KFCH|||||||||||||||||||||||||||||||||||||||||||MET057METAR KFCH 111515Z AUTO 00000KT 10SM 08/06 A3013 RMK A01=||F||223|ICAO-KFCH
USW00023167|FRESNO CHANDLER DWTN AP|2022|02|11|15|35|36.7333|-119.8167|84.1|8.0||1|FM15-METAR|223|ICAO-KFCH|7.0||1|FM15-METAR|223|ICAO-KFCH|||||||||||||999|C-Calm|9|FM15-METAR|223|ICAO-KFCH|0.0|C-Calm|1|FM15-METAR|223|ICAO-KFCH|||||||||||||93|Derived||FM15-METAR|223|ICAO-KFCH|||||||||||||||||||||||||||||||||||||||||||||||||||||||||||||||||||||||||1020.7||1|FM15-METAR|223|ICAO-KFCH|||||||||||||||||||||||||||||||||||||||||||MET061METAR KFCH 111535Z AUTO 00000KT 10SM CLR 08/07 A3014 RMK A01=||F||223|ICAO-KFCH
USW00023167|FRESNO CHANDLER DWTN AP|2022|02|11|15|55|36.7333|-119.8167|84.1|9.0||1|FM15-METAR|223|ICAO-KFCH|7.0||1|FM15-METAR|223|ICAO-KFCH|||||||||||||999|C-Calm|9|FM15-METAR|223|ICAO-KFCH|0.0|C-Calm|1|FM15-METAR|223|ICAO-KFCH|||||||||||||87|Derived||FM15-METAR|223|ICAO-KFCH|||||||||||||||||||||||||||||||||||||||||||||||||||||||||||||||||||||||||1020.7||1|FM15-METAR|223|ICAO-KFCH|||||||||||||||||||||||||||||||||||||||||||MET061METAR KFCH 111555Z AUTO 00000KT 10SM CLR 09/07 A3014 RMK A01=||F||223|ICAO-KFCH
USW00023167|FRESNO CHANDLER DWTN AP|2022|02|11|16|15|36.7333|-119.8167|84.1|11.0||1|FM15-METAR|223|ICAO-KFCH|8.0||1|FM15-METAR|223|ICAO-KFCH|||||||||||||999|C-Calm|9|FM15-METAR|223|ICAO-KFCH|0.0|C-Calm|1|FM15-METAR|223|ICAO-KFCH|||||||||||||82|Derived||FM15-METAR|223|ICAO-KFCH|||||||||||||||||||||||||||||||||||||||||||||||||||||||||||||||||||||||||1020.7||1|FM15-METAR|223|ICAO-KFCH|||||||||||||||||||||||||||||||||||||||||||MET061METAR KFCH 111615Z AUTO 00000KT 10SM CLR 11/08 A3014 RMK A01=||F||223|ICAO-KFCH
USW00023167|FRESNO CHANDLER DWTN AP|2022|02|11|16|35|36.7333|-119.8167|84.1|13.0||1|FM15-METAR|223|ICAO-KFCH|7.0||1|FM15-METAR|223|ICAO-KFCH|||||||||||||999|C-Calm|9|FM15-METAR|223|ICAO-KFCH|0.0|C-Calm|1|FM15-METAR|223|ICAO-KFCH|||||||||||||67|Derived||FM15-METAR|223|ICAO-KFCH|||||||||||||||||||||||||||||||||||||||||||||||||||||||||||||||||||||||||1021.0||1|FM15-METAR|223|ICAO-KFCH|||||||||||||||||||||||||||||||||||||||||||MET061METAR KFCH 111635Z AUTO 00000KT 10SM CLR 13/07 A3015 RMK A01=||F||223|ICAO-KFCH
USW00023167|FRESNO CHANDLER DWTN AP|2022|02|11|16|55|36.7333|-119.8167|84.1|14.0||1|FM15-METAR|223|ICAO-KFCH|7.0||1|FM15-METAR|223|ICAO-KFCH|||||||||||||999|C-Calm|9|FM15-METAR|223|ICAO-KFCH|0.0|C-Calm|1|FM15-METAR|223|ICAO-KFCH|||||||||||||63|Derived||FM15-METAR|223|ICAO-KFCH|||||||||||||||||||||||||||||||||||||||||||||||||||||||||||||||||||||||||1021.0||1|FM15-METAR|223|ICAO-KFCH|||||||||||||||||||||||||||||||||||||||||||MET061METAR KFCH 111655Z AUTO 00000KT 10SM CLR 14/07 A3015 RMK A01=||F||223|ICAO-KFCH
USW00023167|FRESNO CHANDLER DWTN AP|2022|02|11|17|15|36.7333|-119.8167|84.1|15.0||1|FM15-METAR|223|ICAO-KFCH|7.0||1|FM15-METAR|223|ICAO-KFCH|||||||||||||999|C-Calm|9|FM15-METAR|223|ICAO-KFCH|0.0|C-Calm|1|FM15-METAR|223|ICAO-KFCH|||||||||||||59|Derived||FM15-METAR|223|ICAO-KFCH|||||||||||||||||||||||||||||||||||||||||||||||||||||||||||||||||||||||||1021.0||1|FM15-METAR|223|ICAO-KFCH|||||||||||||||||||||||||||||||||||||||||||MET061METAR KFCH 111715Z AUTO 00000KT 10SM CLR 15/07 A3015 RMK A01=||F||223|ICAO-KFCH
USW00023167|FRESNO CHANDLER DWTN AP|2022|02|11|17|35|36.7333|-119.8167|84.1|16.0||1|FM15-METAR|223|ICAO-KFCH|7.0||1|FM15-METAR|223|ICAO-KFCH|||||||||||||270|N-Normal|1|FM15-METAR|223|ICAO-KFCH|1.5|N-Normal|1|FM15-METAR|223|ICAO-KFCH|||||||||||||55|Derived||FM15-METAR|223|ICAO-KFCH|||||||||||||||||||||||||||||||||||||||||||||||||||||||||||||||||||||||||1021.0||1|FM15-METAR|223|ICAO-KFCH|||||||||||||||||||||||||||||||||||||||||||MET061METAR KFCH 111735Z AUTO 27003KT 10SM CLR 16/07 A3015 RMK A01=||F||223|ICAO-KFCH
USW00023167|FRESNO CHANDLER DWTN AP|2022|02|11|17|55|36.7333|-119.8167|84.1|16.0||1|FM15-METAR|223|ICAO-KFCH|7.0||1|FM15-METAR|223|ICAO-KFCH|||||||||||||999|C-Calm|9|FM15-METAR|223|ICAO-KFCH|0.0|C-Calm|1|FM15-METAR|223|ICAO-KFCH|||||||||||||55|Derived||FM15-METAR|223|ICAO-KFCH|||||||||||||||||||||||||||||||||||||||||||||||||||||||||||||||||||||||||1021.0||1|FM15-METAR|223|ICAO-KFCH|||||||||||||||||||||||||||||||||||||||||||MET061METAR KFCH 111755Z AUTO 00000KT 10SM CLR 16/07 A3015 RMK A01=||F||223|ICAO-KFCH
USW00023167|FRESNO CHANDLER DWTN AP|2022|02|11|18|15|36.7333|-119.8167|84.1|17.0||1|FM15-METAR|223|ICAO-KFCH|8.0||1|FM15-METAR|223|ICAO-KFCH|||||||||||||999|C-Calm|9|FM15-METAR|223|ICAO-KFCH|0.0|C-Calm|1|FM15-METAR|223|ICAO-KFCH|||||||||||||56|Derived||FM15-METAR|223|ICAO-KFCH|||||||||||||||||||||||||||||||||||||||||||||||||||||||||||||||||||||||||1020.7||1|FM15-METAR|223|ICAO-KFCH|||||||||||||||||||||||||||||||||||||||||||MET061METAR KFCH 111815Z AUTO 00000KT 10SM CLR 17/08 A3014 RMK A01=||F||223|ICAO-KFCH
USW00023167|FRESNO CHANDLER DWTN AP|2022|02|11|18|35|36.7333|-119.8167|84.1|18.0||1|FM15-METAR|223|ICAO-KFCH|8.0||1|FM15-METAR|223|ICAO-KFCH|||||||||||||260|N-Normal|1|FM15-METAR|223|ICAO-KFCH|2.1|N-Normal|1|FM15-METAR|223|ICAO-KFCH|||||||||||||52|Derived||FM15-METAR|223|ICAO-KFCH|||||||||||||||||||||||||||||||||||||||||||||||||||||||||||||||||||||||||1020.7||1|FM15-METAR|223|ICAO-KFCH|||||||||||||||||||||||||||||||||||||||||||MET061METAR KFCH 111835Z AUTO 26004KT 10SM CLR 18/08 A3014 RMK A01=||F||223|ICAO-KFCH
USW00023167|FRESNO CHANDLER DWTN AP|2022|02|11|18|55|36.7333|-119.8167|84.1|18.0||1|FM15-METAR|223|ICAO-KFCH|8.0||1|FM15-METAR|223|ICAO-KFCH|||||||||||||999|C-Calm|9|FM15-METAR|223|ICAO-KFCH|0.0|C-Calm|1|FM15-METAR|223|ICAO-KFCH|||||||||||||52|Derived||FM15-METAR|223|ICAO-KFCH|||||||||||||||||||||||||||||||||||||||||||||||||||||||||||||||||||||||||1021.0||1|FM15-METAR|223|ICAO-KFCH|||||||||||||||||||||||||||||||||||||||||||MET061METAR KFCH 111855Z AUTO 00000KT 10SM CLR 18/08 A3015 RMK A01=||F||223|ICAO-KFCH
USW00023167|FRESNO CHANDLER DWTN AP|2022|02|11|19|15|36.7333|-119.8167|84.1|19.0||1|FM15-METAR|223|ICAO-KFCH|8.0||1|FM15-METAR|223|ICAO-KFCH|||||||||||||290|N-Normal|1|FM15-METAR|223|ICAO-KFCH|2.1|N-Normal|1|FM15-METAR|223|ICAO-KFCH|||||||||||||49|Derived||FM15-METAR|223|ICAO-KFCH|||||||||||||||||||||||||||||||||||||||||||||||||||||||||||||||||||||||||1020.7||1|FM15-METAR|223|ICAO-KFCH|||||||||||||||||||||||||||||||||||||||||||MET061METAR KFCH 111915Z AUTO 29004KT 10SM CLR 19/08 A3014 RMK A01=||F||223|ICAO-KFCH
USW00023167|FRESNO CHANDLER DWTN AP|2022|02|11|19|35|36.7333|-119.8167|84.1|20.0||1|FM15-METAR|223|ICAO-KFCH|8.0||1|FM15-METAR|223|ICAO-KFCH|||||||||||||999|V-Variable|9|FM15-METAR|223|ICAO-KFCH|2.1|V-Variable|1|FM15-METAR|223|ICAO-KFCH|||||||||||||46|Derived||FM15-METAR|223|ICAO-KFCH|||||||||||||||||||||||||||||||||||||||||||||||||||||||||||||||||||||||||1020.3||1|FM15-METAR|223|ICAO-KFCH|||||||||||||||||||||||||||||||||||||||||||MET061METAR KFCH 111935Z AUTO VRB04KT 10SM CLR 20/08 A3013 RMK A01=||F||223|ICAO-KFCH
USW00023167|FRESNO CHANDLER DWTN AP|2022|02|11|19|55|36.7333|-119.8167|84.1|21.0||1|FM15-METAR|223|ICAO-KFCH|7.0||1|FM15-METAR|223|ICAO-KFCH|||||||||||||290|N-Normal|1|FM15-METAR|223|ICAO-KFCH|2.6|N-Normal|1|FM15-METAR|223|ICAO-KFCH|||||||||||||40|Derived||FM15-METAR|223|ICAO-KFCH|||||||||||||||||||||||||||||||||||||||||||||||||||||||||||||||||||||||||1020.0||1|FM15-METAR|223|ICAO-KFCH|||||||||||||||||||||||||||||||||||||||||||MET061METAR KFCH 111955Z AUTO 29005KT 10SM CLR 21/07 A3012 RMK A01=||F||223|ICAO-KFCH
USW00023167|FRESNO CHANDLER DWTN AP|2022|02|11|20|15|36.7333|-119.8167|84.1|21.0||1|FM15-METAR|223|ICAO-KFCH|7.0||1|FM15-METAR|223|ICAO-KFCH|||||||||||||300|N-Normal|1|FM15-METAR|223|ICAO-KFCH|2.1|N-Normal|1|FM15-METAR|223|ICAO-KFCH|||||||||||||40|Derived||FM15-METAR|223|ICAO-KFCH|||||||||||||||||||||||||||||||||||||||||||||||||||||||||||||||||||||||||1019.6||1|FM15-METAR|223|ICAO-KFCH|||||||||||||||||||||||||||||||||||||||||||MET061METAR KFCH 112015Z AUTO 30004KT 10SM CLR 21/07 A3011 RMK A01=||F||223|ICAO-KFCH
USW00023167|FRESNO CHANDLER DWTN AP|2022|02|11|20|35|36.7333|-119.8167|84.1|22.0||1|FM15-METAR|223|ICAO-KFCH|7.0||1|FM15-METAR|223|ICAO-KFCH|||||||||||||999|V-Variable|9|FM15-METAR|223|ICAO-KFCH|1.5|V-Variable|1|FM15-METAR|223|ICAO-KFCH|||||||||||||38|Derived||FM15-METAR|223|ICAO-KFCH|||||||||||||||||||||||||||||||||||||||||||||||||||||||||||||||||||||||||1019.3||1|FM15-METAR|223|ICAO-KFCH|||||||||||||||||||||||||||||||||||||||||||MET061METAR KFCH 112035Z AUTO VRB03KT 10SM CLR 22/07 A3010 RMK A01=||F||223|ICAO-KFCH
USW00023167|FRESNO CHANDLER DWTN AP|2022|02|11|20|55|36.7333|-119.8167|84.1|22.0||1|FM15-METAR|223|ICAO-KFCH|7.0||1|FM15-METAR|223|ICAO-KFCH|||||||||||||310|N-Normal|1|FM15-METAR|223|ICAO-KFCH|3.6|N-Normal|1|FM15-METAR|223|ICAO-KFCH|||||||||||||38|Derived||FM15-METAR|223|ICAO-KFCH|||||||||||||||||||||||||||||||||||||||||||||||||||||||||||||||||||||||||1019.0||1|FM15-METAR|223|ICAO-KFCH|||||||||||||||||||||||||||||||||||||||||||MET061METAR KFCH 112055Z AUTO 31007KT 10SM CLR 22/07 A3009 RMK A01=||F||223|ICAO-KFCH
USW00023167|FRESNO CHANDLER DWTN AP|2022|02|11|21|15|36.7333|-119.8167|84.1|22.0||1|FM15-METAR|223|ICAO-KFCH|6.0||1|FM15-METAR|223|ICAO-KFCH|||||||||||||290|N-Normal|1|FM15-METAR|223|ICAO-KFCH|2.6|N-Normal|1|FM15-METAR|223|ICAO-KFCH|5.7||1|FM15-METAR|223|ICAO-KFCH|||||||36|Derived||FM15-METAR|223|ICAO-KFCH|||||||||||||||||||||||||||||||||||||||||||||||||||||||||||||||||||||||||1018.6||1|FM15-METAR|223|ICAO-KFCH|||||||||||||||||||||||||||||||||||||||||||MET064METAR KFCH 112115Z AUTO 29005G11KT 10SM CLR 22/06 A3008 RMK A01=||F||223|ICAO-KFCH
USW00023167|FRESNO CHANDLER DWTN AP|2022|02|11|21|35|36.7333|-119.8167|84.1|23.0||1|FM15-METAR|223|ICAO-KFCH|6.0||1|FM15-METAR|223|ICAO-KFCH|||||||||||||280|N-Normal|1|FM15-METAR|223|ICAO-KFCH|3.1|N-Normal|1|FM15-METAR|223|ICAO-KFCH|||||||||||||33|Derived||FM15-METAR|223|ICAO-KFCH|||||||||||||||||||||||||||||||||||||||||||||||||||||||||||||||||||||||||1018.6||1|FM15-METAR|223|ICAO-KFCH|||||||||||||||||||||||||||||||||||||||||||MET061METAR KFCH 112135Z AUTO 28006KT 10SM CLR 23/06 A3008 RMK A01=||F||223|ICAO-KFCH
USW00023167|FRESNO CHANDLER DWTN AP|2022|02|11|21|55|36.7333|-119.8167|84.1|23.0||1|FM15-METAR|223|ICAO-KFCH|6.0||1|FM15-METAR|223|ICAO-KFCH|||||||||||||999|V-Variable|9|FM15-METAR|223|ICAO-KFCH|3.1|V-Variable|1|FM15-METAR|223|ICAO-KFCH|||||||||||||33|Derived||FM15-METAR|223|ICAO-KFCH|||||||||||||||||||||||||||||||||||||||||||||||||||||||||||||||||||||||||1018.3||1|FM15-METAR|223|ICAO-KFCH|||||||||||||||||||||||||||||||||||||||||||MET061METAR KFCH 112155Z AUTO VRB06KT 10SM CLR 23/06 A3007 RMK A01=||F||223|ICAO-KFCH
USW00023167|FRESNO CHANDLER DWTN AP|2022|02|11|22|15|36.7333|-119.8167|84.1|23.0||1|FM15-METAR|223|ICAO-KFCH|6.0||1|FM15-METAR|223|ICAO-KFCH|||||||||||||290|N-Normal|1|FM15-METAR|223|ICAO-KFCH|2.6|N-Normal|1|FM15-METAR|223|ICAO-KFCH|||||||||||||33|Derived||FM15-METAR|223|ICAO-KFCH|||||||||||||||||||||||||||||||||||||||||||||||||||||||||||||||||||||||||1017.9||1|FM15-METAR|223|ICAO-KFCH|||||||||||||||||||||||||||||||||||||||||||MET061METAR KFCH 112215Z AUTO 29005KT 10SM CLR 23/06 A3006 RMK A01=||F||223|ICAO-KFCH
USW00023167|FRESNO CHANDLER DWTN AP|2022|02|11|22|35|36.7333|-119.8167|84.1|24.0||1|FM15-METAR|223|ICAO-KFCH|6.0||1|FM15-METAR|223|ICAO-KFCH|||||||||||||999|V-Variable|9|FM15-METAR|223|ICAO-KFCH|3.1|V-Variable|1|FM15-METAR|223|ICAO-KFCH|||||||||||||31|Derived||FM15-METAR|223|ICAO-KFCH|||||||||||||||||||||||||||||||||||||||||||||||||||||||||||||||||||||||||1017.6||1|FM15-METAR|223|ICAO-KFCH|||||||||||||||||||||||||||||||||||||||||||MET061METAR KFCH 112235Z AUTO VRB06KT 10SM CLR 24/06 A3005 RMK A01=||F||223|ICAO-KFCH
USW00023167|FRESNO CHANDLER DWTN AP|2022|02|11|22|55|36.7333|-119.8167|84.1|24.0||1|FM15-METAR|223|ICAO-KFCH|6.0||1|FM15-METAR|223|ICAO-KFCH|||||||||||||300|N-Normal|1|FM15-METAR|223|ICAO-KFCH|3.1|N-Normal|1|FM15-METAR|223|ICAO-KFCH|||||||||||||31|Derived||FM15-METAR|223|ICAO-KFCH|||||||||||||||||||||||||||||||||||||||||||||||||||||||||||||||||||||||||1017.6||1|FM15-METAR|223|ICAO-KFCH|||||||||||||||||||||||||||||||||||||||||||MET061METAR KFCH 112255Z AUTO 30006KT 10SM CLR 24/06 A3005 RMK A01=||F||223|ICAO-KFCH
USW00023167|FRESNO CHANDLER DWTN AP|2022|02|11|23|15|36.7333|-119.8167|84.1|24.0||1|FM15-METAR|223|ICAO-KFCH|6.0||1|FM15-METAR|223|ICAO-KFCH|||||||||||||270|N-Normal|1|FM15-METAR|223|ICAO-KFCH|2.1|N-Normal|1|FM15-METAR|223|ICAO-KFCH|||||||||||||31|Derived||FM15-METAR|223|ICAO-KFCH|||||||||||||||||||||||||||||||||||||||||||||||||||||||||||||||||||||||||||||||||||||||||||||||||||||||||||||||||||||||||MET051METAR KFCH 112315Z AUTO 27004KT 10SM 24/06 RMK A01=||F||223|ICAO-KFCH
USW00023167|FRESNO CHANDLER DWTN AP|2022|02|11|23|35|36.7333|-119.8167|84.1|24.0||1|FM15-METAR|223|ICAO-KFCH|6.0||1|FM15-METAR|223|ICAO-KFCH|||||||||||||280|N-Normal|1|FM15-METAR|223|ICAO-KFCH|1.5|N-Normal|1|FM15-METAR|223|ICAO-KFCH|||||||||||||31|Derived||FM15-METAR|223|ICAO-KFCH|||||||||||||||||||||||||||||||||||||||||||||||||||||||||||||||||||||||||1017.3||1|FM15-METAR|223|ICAO-KFCH|||||||||||||||||||||||||||||||||||||||||||MET057METAR KFCH 112335Z AUTO 28003KT 10SM 24/06 A3004 RMK A01=||F||223|ICAO-KFCH
USW00023167|FRESNO CHANDLER DWTN AP|2022|02|11|23|55|36.7333|-119.8167|84.1|24.0||1|FM15-METAR|223|ICAO-KFCH|6.0||1|FM15-METAR|223|ICAO-KFCH|||||||||||||300|N-Normal|1|FM15-METAR|223|ICAO-KFCH|2.1|N-Normal|1|FM15-METAR|223|ICAO-KFCH|||||||||||||31|Derived||FM15-METAR|223|ICAO-KFCH|||||||||||||||||||||||||||||||||||||||||||||||||||||||||||||||||||||||||1017.3||1|FM15-METAR|223|ICAO-KFCH|||||||||||||||||||||||||||||||||||||||||||MET057METAR KFCH 112355Z AUTO 30004KT 10SM 24/06 A3004 RMK A01=||F||223|ICAO-KFCH
USW00023167|FRESNO CHANDLER DWTN AP|2022|02|12|00|15|36.7333|-119.8167|84.1|24.0||1|FM15-METAR|223|ICAO-KFCH|6.0||1|FM15-METAR|223|ICAO-KFCH|||||||||||||300|N-Normal|1|FM15-METAR|223|ICAO-KFCH|2.1|N-Normal|1|FM15-METAR|223|ICAO-KFCH|||||||||||||31|Derived||FM15-METAR|223|ICAO-KFCH|||||||||||||||||||||||||||||||||||||||||||||||||||||||||||||||||||||||||1017.3||1|FM15-METAR|223|ICAO-KFCH|||||||||||||||||||||||||||||||||||||||||||MET061METAR KFCH 120015Z AUTO 30004KT 10SM CLR 24/06 A3004 RMK A01=||F||223|ICAO-KFCH
USW00023167|FRESNO CHANDLER DWTN AP|2022|02|12|00|35|36.7333|-119.8167|84.1|24.0||1|FM15-METAR|223|ICAO-KFCH|6.0||1|FM15-METAR|223|ICAO-KFCH|||||||||||||290|N-Normal|1|FM15-METAR|223|ICAO-KFCH|2.1|N-Normal|1|FM15-METAR|223|ICAO-KFCH|||||||||||||31|Derived||FM15-METAR|223|ICAO-KFCH|||||||||||||||||||||||||||||||||||||||||||||||||||||||||||||||||||||||||1017.3||1|FM15-METAR|223|ICAO-KFCH|||||||||||||||||||||||||||||||||||||||||||MET061METAR KFCH 120035Z AUTO 29004KT 10SM CLR 24/06 A3004 RMK A01=||F||223|ICAO-KFCH
USW00023167|FRESNO CHANDLER DWTN AP|2022|02|12|00|55|36.7333|-119.8167|84.1|23.0||1|FM15-METAR|223|ICAO-KFCH|7.0||1|FM15-METAR|223|ICAO-KFCH|||||||||||||290|N-Normal|1|FM15-METAR|223|ICAO-KFCH|2.1|N-Normal|1|FM15-METAR|223|ICAO-KFCH|||||||||||||36|Derived||FM15-METAR|223|ICAO-KFCH|||||||||||||||||||||||||||||||||||||||||||||||||||||||||||||||||||||||||1017.3||1|FM15-METAR|223|ICAO-KFCH|||||||||||||||||||||||||||||||||||||||||||MET061METAR KFCH 120055Z AUTO 29004KT 10SM CLR 23/07 A3004 RMK A01=||F||223|ICAO-KFCH
USW00023167|FRESNO CHANDLER DWTN AP|2022|02|12|01|15|36.7333|-119.8167|84.1|22.0||1|FM15-METAR|223|ICAO-KFCH|7.0||1|FM15-METAR|223|ICAO-KFCH|||||||||||||270|N-Normal|1|FM15-METAR|223|ICAO-KFCH|2.1|N-Normal|1|FM15-METAR|223|ICAO-KFCH|||||||||||||38|Derived||FM15-METAR|223|ICAO-KFCH|||||||||||||||||||||||||||||||||||||||||||||||||||||||||||||||||||||||||1017.3||1|FM15-METAR|223|ICAO-KFCH|||||||||||||||||||||||||||||||||||||||||||MET061METAR KFCH 120115Z AUTO 27004KT 10SM CLR 22/07 A3004 RMK A01=||F||223|ICAO-KFCH
USW00023167|FRESNO CHANDLER DWTN AP|2022|02|12|01|35|36.7333|-119.8167|84.1|21.0||1|FM15-METAR|223|ICAO-KFCH|7.0||1|FM15-METAR|223|ICAO-KFCH|||||||||||||290|N-Normal|1|FM15-METAR|223|ICAO-KFCH|1.5|N-Normal|1|FM15-METAR|223|ICAO-KFCH|||||||||||||40|Derived||FM15-METAR|223|ICAO-KFCH|||||||||||||||||||||||||||||||||||||||||||||||||||||||||||||||||||||||||1017.6||1|FM15-METAR|223|ICAO-KFCH|||||||||||||||||||||||||||||||||||||||||||MET061METAR KFCH 120135Z AUTO 29003KT 10SM CLR 21/07 A3005 RMK A01=||F||223|ICAO-KFCH
USW00023167|FRESNO CHANDLER DWTN AP|2022|02|12|01|55|36.7333|-119.8167|84.1|21.0||1|FM15-METAR|223|ICAO-KFCH|7.0||1|FM15-METAR|223|ICAO-KFCH|||||||||||||300|N-Normal|1|FM15-METAR|223|ICAO-KFCH|1.5|N-Normal|1|FM15-METAR|223|ICAO-KFCH|||||||||||||40|Derived||FM15-METAR|223|ICAO-KFCH|||||||||||||||||||||||||||||||||||||||||||||||||||||||||||||||||||||||||1017.6||1|FM15-METAR|223|ICAO-KFCH|||||||||||||||||||||||||||||||||||||||||||MET061METAR KFCH 120155Z AUTO 30003KT 10SM CLR 21/07 A3005 RMK A01=||F||223|ICAO-KFCH
USW00023167|FRESNO CHANDLER DWTN AP|2022|02|12|02|15|36.7333|-119.8167|84.1|20.0||1|FM15-METAR|223|ICAO-KFCH|7.0||1|FM15-METAR|223|ICAO-KFCH|||||||||||||310|N-Normal|1|FM15-METAR|223|ICAO-KFCH|1.5|N-Normal|1|FM15-METAR|223|ICAO-KFCH|||||||||||||43|Derived||FM15-METAR|223|ICAO-KFCH|||||||||||||||||||||||||||||||||||||||||||||||||||||||||||||||||||||||||1017.6||1|FM15-METAR|223|ICAO-KFCH|||||||||||||||||||||||||||||||||||||||||||MET061METAR KFCH 120215Z AUTO 31003KT 10SM CLR 20/07 A3005 RMK A01=||F||223|ICAO-KFCH
USW00023167|FRESNO CHANDLER DWTN AP|2022|02|12|02|35|36.7333|-119.8167|84.1|19.0||1|FM15-METAR|223|ICAO-KFCH|7.0||1|FM15-METAR|223|ICAO-KFCH|||||||||||||999|C-Calm|9|FM15-METAR|223|ICAO-KFCH|0.0|C-Calm|1|FM15-METAR|223|ICAO-KFCH|||||||||||||46|Derived||FM15-METAR|223|ICAO-KFCH|||||||||||||||||||||||||||||||||||||||||||||||||||||||||||||||||||||||||1017.6||1|FM15-METAR|223|ICAO-KFCH|||||||||||||||||||||||||||||||||||||||||||MET061METAR KFCH 120235Z AUTO 00000KT 10SM CLR 19/07 A3005 RMK A01=||F||223|ICAO-KFCH
USW00023167|FRESNO CHANDLER DWTN AP|2022|02|12|02|55|36.7333|-119.8167|84.1|18.0||1|FM15-METAR|223|ICAO-KFCH|7.0||1|FM15-METAR|223|ICAO-KFCH|||||||||||||999|C-Calm|9|FM15-METAR|223|ICAO-KFCH|0.0|C-Calm|1|FM15-METAR|223|ICAO-KFCH|||||||||||||49|Derived||FM15-METAR|223|ICAO-KFCH|||||||||||||||||||||||||||||||||||||||||||||||||||||||||||||||||||||||||1017.9||1|FM15-METAR|223|ICAO-KFCH|||||||||||||||||||||||||||||||||||||||||||MET061METAR KFCH 120255Z AUTO 00000KT 10SM CLR 18/07 A3006 RMK A01=||F||223|ICAO-KFCH
USW00023167|FRESNO CHANDLER DWTN AP|2022|02|12|03|15|36.7333|-119.8167|84.1|16.0||1|FM15-METAR|223|ICAO-KFCH|7.0||1|FM15-METAR|223|ICAO-KFCH|||||||||||||999|C-Calm|9|FM15-METAR|223|ICAO-KFCH|0.0|C-Calm|1|FM15-METAR|223|ICAO-KFCH|||||||||||||55|Derived||FM15-METAR|223|ICAO-KFCH|||||||||||||||||||||||||||||||||||||||||||||||||||||||||||||||||||||||||1018.3||1|FM15-METAR|223|ICAO-KFCH|||||||||||||||||||||||||||||||||||||||||||MET061METAR KFCH 120315Z AUTO 00000KT 10SM CLR 16/07 A3007 RMK A01=||F||223|ICAO-KFCH
USW00023167|FRESNO CHANDLER DWTN AP|2022|02|12|03|35|36.7333|-119.8167|84.1|17.0||1|FM15-METAR|223|ICAO-KFCH|7.0||1|FM15-METAR|223|ICAO-KFCH|||||||||||||999|C-Calm|9|FM15-METAR|223|ICAO-KFCH|0.0|C-Calm|1|FM15-METAR|223|ICAO-KFCH|||||||||||||52|Derived||FM15-METAR|223|ICAO-KFCH|||||||||||||||||||||||||||||||||||||||||||||||||||||||||||||||||||||||||1017.9||1|FM15-METAR|223|ICAO-KFCH|||||||||||||||||||||||||||||||||||||||||||MET061METAR KFCH 120335Z AUTO 00000KT 10SM CLR 17/07 A3006 RMK A01=||F||223|ICAO-KFCH
USW00023167|FRESNO CHANDLER DWTN AP|2022|02|12|03|55|36.7333|-119.8167|84.1|15.0||1|FM15-METAR|223|ICAO-KFCH|7.0||1|FM15-METAR|223|ICAO-KFCH|||||||||||||999|C-Calm|9|FM15-METAR|223|ICAO-KFCH|0.0|C-Calm|1|FM15-METAR|223|ICAO-KFCH|||||||||||||59|Derived||FM15-METAR|223|ICAO-KFCH|||||||||||||||||||||||||||||||||||||||||||||||||||||||||||||||||||||||||1018.3||1|FM15-METAR|223|ICAO-KFCH|||||||||||||||||||||||||||||||||||||||||||MET061METAR KFCH 120355Z AUTO 00000KT 10SM CLR 15/07 A3007 RMK A01=||F||223|ICAO-KFCH
USW00023167|FRESNO CHANDLER DWTN AP|2022|02|12|04|15|36.7333|-119.8167|84.1|15.0||1|FM15-METAR|223|ICAO-KFCH|7.0||1|FM15-METAR|223|ICAO-KFCH|||||||||||||999|C-Calm|9|FM15-METAR|223|ICAO-KFCH|0.0|C-Calm|1|FM15-METAR|223|ICAO-KFCH|||||||||||||59|Derived||FM15-METAR|223|ICAO-KFCH|||||||||||||||||||||||||||||||||||||||||||||||||||||||||||||||||||||||||1018.6||1|FM15-METAR|223|ICAO-KFCH|||||||||||||||||||||||||||||||||||||||||||MET061METAR KFCH 120415Z AUTO 00000KT 10SM CLR 15/07 A3008 RMK A01=||F||223|ICAO-KFCH
USW00023167|FRESNO CHANDLER DWTN AP|2022|02|12|04|35|36.7333|-119.8167|84.1|15.0||1|FM15-METAR|223|ICAO-KFCH|8.0||1|FM15-METAR|223|ICAO-KFCH|||||||||||||340|N-Normal|1|FM15-METAR|223|ICAO-KFCH|1.5|N-Normal|1|FM15-METAR|223|ICAO-KFCH|||||||||||||63|Derived||FM15-METAR|223|ICAO-KFCH|||||||||||||||||||||||||||||||||||||||||||||||||||||||||||||||||||||||||1018.6||1|FM15-METAR|223|ICAO-KFCH|||||||||||||||||||||||||||||||||||||||||||MET061METAR KFCH 120435Z AUTO 34003KT 10SM CLR 15/08 A3008 RMK A01=||F||223|ICAO-KFCH
USW00023167|FRESNO CHANDLER DWTN AP|2022|02|12|04|55|36.7333|-119.8167|84.1|14.0||1|FM15-METAR|223|ICAO-KFCH|9.0||1|FM15-METAR|223|ICAO-KFCH|||||||||||||999|C-Calm|9|FM15-METAR|223|ICAO-KFCH|0.0|C-Calm|1|FM15-METAR|223|ICAO-KFCH|||||||||||||72|Derived||FM15-METAR|223|ICAO-KFCH|||||||||||||||||||||||||||||||||||||||||||||||||||||||||||||||||||||||||1019.0||1|FM15-METAR|223|ICAO-KFCH|||||||||||||||||||||||||||||||||||||||||||MET061METAR KFCH 120455Z AUTO 00000KT 10SM CLR 14/09 A3009 RMK A01=||F||223|ICAO-KFCH
USW00023167|FRESNO CHANDLER DWTN AP|2022|02|12|05|15|36.7333|-119.8167|84.1|14.0||1|FM15-METAR|223|ICAO-KFCH|8.0||1|FM15-METAR|223|ICAO-KFCH|||||||||||||999|C-Calm|9|FM15-METAR|223|ICAO-KFCH|0.0|C-Calm|1|FM15-METAR|223|ICAO-KFCH|||||||||||||67|Derived||FM15-METAR|223|ICAO-KFCH|||||||||||||||||||||||||||||||||||||||||||||||||||||||||||||||||||||||||1019.3||1|FM15-METAR|223|ICAO-KFCH|||||||||||||||||||||||||||||||||||||||||||MET061METAR KFCH 120515Z AUTO 00000KT 10SM CLR 14/08 A3010 RMK A01=||F||223|ICAO-KFCH
USW00023167|FRESNO CHANDLER DWTN AP|2022|02|12|05|35|36.7333|-119.8167|84.1|||||||||||||||||||||||||||||||||||||||||||||||||||||||||||||||||||||||||||||||||||||||||||||||||||||||||||||||||||||||||||||||1019.3||1|FM15-METAR|223|ICAO-KFCH|||||||||||||||||||||||||||||||||||||||||||MET047METAR KFCH 120535Z AUTO 10SM CLR A3010 RMK A01=||F||223|ICAO-KFCH
USW00023167|FRESNO CHANDLER DWTN AP|2022|02|12|05|55|36.7333|-119.8167|84.1|14.0||1|FM15-METAR|223|ICAO-KFCH|8.0||1|FM15-METAR|223|ICAO-KFCH|||||||||||||999|C-Calm|9|FM15-METAR|223|ICAO-KFCH|0.0|C-Calm|1|FM15-METAR|223|ICAO-KFCH|||||||||||||67|Derived||FM15-METAR|223|ICAO-KFCH|||||||||||||||||||||||||||||||||||||||||||||||||||||||||||||||||||||||||1019.3||1|FM15-METAR|223|ICAO-KFCH|||||||||||||||||||||||||||||||||||||||||||MET052METAR KFCH 120555Z AUTO 00000KT 14/08 A3010 RMK A01=||F||223|ICAO-KFCH
USW00023167|FRESNO CHANDLER DWTN AP|2022|02|12|06|15|36.7333|-119.8167|84.1|13.0||1|FM15-METAR|223|ICAO-KFCH|8.0||1|FM15-METAR|223|ICAO-KFCH|||||||||||||999|C-Calm|9|FM15-METAR|223|ICAO-KFCH|0.0|C-Calm|1|FM15-METAR|223|ICAO-KFCH|||||||||||||72|Derived||FM15-METAR|223|ICAO-KFCH|||||||||||||||||||||||||||||||||||||||||||||||||||||||||||||||||||||||||1019.3||1|FM15-METAR|223|ICAO-KFCH|||||||||||||||||||||||||||||||||||||||||||MET057METAR KFCH 120615Z AUTO 00000KT 10SM 13/08 A3010 RMK A01=||F||223|ICAO-KFCH
USW00023167|FRESNO CHANDLER DWTN AP|2022|02|12|06|35|36.7333|-119.8167|84.1|13.0||1|FM15-METAR|223|ICAO-KFCH|8.0||1|FM15-METAR|223|ICAO-KFCH|||||||||||||999|C-Calm|9|FM15-METAR|223|ICAO-KFCH|0.0|C-Calm|1|FM15-METAR|223|ICAO-KFCH|||||||||||||72|Derived||FM15-METAR|223|ICAO-KFCH|||||||||||||||||||||||||||||||||||||||||||||||||||||||||||||||||||||||||1019.3||1|FM15-METAR|223|ICAO-KFCH|||||||||||||||||||||||||||||||||||||||||||MET061METAR KFCH 120635Z AUTO 00000KT 10SM CLR 13/08 A3010 RMK A01=||F||223|ICAO-KFCH
USW00023167|FRESNO CHANDLER DWTN AP|2022|02|12|06|55|36.7333|-119.8167|84.1|13.0||1|FM15-METAR|223|ICAO-KFCH|9.0||1|FM15-METAR|223|ICAO-KFCH|||||||||||||999|C-Calm|9|FM15-METAR|223|ICAO-KFCH|0.0|C-Calm|1|FM15-METAR|223|ICAO-KFCH|||||||||||||77|Derived||FM15-METAR|223|ICAO-KFCH|||||||||||||||||||||||||||||||||||||||||||||||||||||||||||||||||||||||||1019.3||1|FM15-METAR|223|ICAO-KFCH|||||||||||||||||||||||||||||||||||||||||||MET061METAR KFCH 120655Z AUTO 00000KT 10SM CLR 13/09 A3010 RMK A01=||F||223|ICAO-KFCH
USW00023167|FRESNO CHANDLER DWTN AP|2022|02|12|07|15|36.7333|-119.8167|84.1|12.0||1|FM15-METAR|223|ICAO-KFCH|9.0||1|FM15-METAR|223|ICAO-KFCH|||||||||||||999|C-Calm|9|FM15-METAR|223|ICAO-KFCH|0.0|C-Calm|1|FM15-METAR|223|ICAO-KFCH|||||||||||||82|Derived||FM15-METAR|223|ICAO-KFCH|||||||||||||||||||||||||||||||||||||||||||||||||||||||||||||||||||||||||1019.6||1|FM15-METAR|223|ICAO-KFCH|||||||||||||||||||||||||||||||||||||||||||MET061METAR KFCH 120715Z AUTO 00000KT 10SM CLR 12/09 A3011 RMK A01=||F||223|ICAO-KFCH
USW00023167|FRESNO CHANDLER DWTN AP|2022|02|12|07|35|36.7333|-119.8167|84.1|12.0||1|FM15-METAR|223|ICAO-KFCH|9.0||1|FM15-METAR|223|ICAO-KFCH|||||||||||||999|C-Calm|9|FM15-METAR|223|ICAO-KFCH|0.0|C-Calm|1|FM15-METAR|223|ICAO-KFCH|||||||||||||82|Derived||FM15-METAR|223|ICAO-KFCH|||||||||||||||||||||||||||||||||||||||||||||||||||||||||||||||||||||||||1020.0||1|FM15-METAR|223|ICAO-KFCH|||||||||||||||||||||||||||||||||||||||||||MET064METAR KFCH 120735Z AUTO 00000KT 10SM FEW024 12/09 A3012 RMK A01=||F||223|ICAO-KFCH
USW00023167|FRESNO CHANDLER DWTN AP|2022|02|12|07|55|36.7333|-119.8167|84.1|12.0||1|FM15-METAR|223|ICAO-KFCH|9.0||1|FM15-METAR|223|ICAO-KFCH|||||||||||||999|C-Calm|9|FM15-METAR|223|ICAO-KFCH|0.0|C-Calm|1|FM15-METAR|223|ICAO-KFCH|||||||||||||82|Derived||FM15-METAR|223|ICAO-KFCH|||||||||||||||||||||||||||||||||||||||||||||||||||||||||||||||||||||||||1019.6||1|FM15-METAR|223|ICAO-KFCH|||||||||||||||||||||||||||||||||||||||||||MET064METAR KFCH 120755Z AUTO 00000KT 10SM BKN024 12/09 A3011 RMK A01=||F||223|ICAO-KFCH
USW00023167|FRESNO CHANDLER DWTN AP|2022|02|12|08|15|36.7333|-119.8167|84.1|11.0||1|FM15-METAR|223|ICAO-KFCH|8.0||1|FM15-METAR|223|ICAO-KFCH|||||||||||||999|C-Calm|9|FM15-METAR|223|ICAO-KFCH|0.0|C-Calm|1|FM15-METAR|223|ICAO-KFCH|||||||||||||82|Derived||FM15-METAR|223|ICAO-KFCH|||||||||||||||||||||||||||||||||||||||||||||||||||||||||||||||||||||||||1020.0||1|FM15-METAR|223|ICAO-KFCH|||||||||||||||||||||||||||||||||||||||||||MET071METAR KFCH 120815Z AUTO 00000KT 10SM SCT020 BKN025 11/08 A3012 RMK A01=||F||223|ICAO-KFCH
USW00023167|FRESNO CHANDLER DWTN AP|2022|02|12|08|35|36.7333|-119.8167|84.1|11.0||1|FM15-METAR|223|ICAO-KFCH|9.0||1|FM15-METAR|223|ICAO-KFCH|||||||||||||999|C-Calm|9|FM15-METAR|223|ICAO-KFCH|0.0|C-Calm|1|FM15-METAR|223|ICAO-KFCH|||||||||||||88|Derived||FM15-METAR|223|ICAO-KFCH|||||||||||||||||||||||||||||||||||||||||||||||||||||||||||||||||||||||||1020.0||1|FM15-METAR|223|ICAO-KFCH|||||||||||||||||||||||||||||||||||||||||||MET071METAR KFCH 120835Z AUTO 00000KT 10SM FEW020 FEW026 11/09 A3012 RMK A01=||F||223|ICAO-KFCH
USW00023167|FRESNO CHANDLER DWTN AP|2022|02|12|08|55|36.7333|-119.8167|84.1|10.0||1|FM15-METAR|223|ICAO-KFCH|7.0||1|FM15-METAR|223|ICAO-KFCH|||||||||||||999|C-Calm|9|FM15-METAR|223|ICAO-KFCH|0.0|C-Calm|1|FM15-METAR|223|ICAO-KFCH|||||||||||||82|Derived||FM15-METAR|223|ICAO-KFCH|||||||||||||||||||||||||||||||||||||||||||||||||||||||||||||||||||||||||1020.0||1|FM15-METAR|223|ICAO-KFCH|||||||||||||||||||||||||||||||||||||||||||MET064METAR KFCH 120855Z AUTO 00000KT 10SM FEW020 10/07 A3012 RMK A01=||F||223|ICAO-KFCH
USW00023167|FRESNO CHANDLER DWTN AP|2022|02|12|09|15|36.7333|-119.8167|84.1|10.0||1|FM15-METAR|223|ICAO-KFCH|8.0||1|FM15-METAR|223|ICAO-KFCH|||||||||||||999|C-Calm|9|FM15-METAR|223|ICAO-KFCH|0.0|C-Calm|1|FM15-METAR|223|ICAO-KFCH|||||||||||||88|Derived||FM15-METAR|223|ICAO-KFCH|||||||||||||||||||||||||||||||||||||||||||||||||||||||||||||||||||||||||1020.0||1|FM15-METAR|223|ICAO-KFCH|||||||||||||||||||||||||||||||||||||||||||MET064METAR KFCH 120915Z AUTO 00000KT 10SM FEW019 10/08 A3012 RMK A01=||F||223|ICAO-KFCH
USW00023167|FRESNO CHANDLER DWTN AP|2022|02|12|09|35|36.7333|-119.8167|84.1|10.0||1|FM15-METAR|223|ICAO-KFCH|8.0||1|FM15-METAR|223|ICAO-KFCH|||||||||||||999|C-Calm|9|FM15-METAR|223|ICAO-KFCH|0.0|C-Calm|1|FM15-METAR|223|ICAO-KFCH|||||||||||||88|Derived||FM15-METAR|223|ICAO-KFCH|||||||||||||||||||||||||||||||||||||||||||||||||||||||||||||||||||||||||1020.0||1|FM15-METAR|223|ICAO-KFCH|||||||||||||||||||||||||||||||||||||||||||MET061METAR KFCH 120935Z AUTO 00000KT 10SM CLR 10/08 A3012 RMK A01=||F||223|ICAO-KFCH
USW00023167|FRESNO CHANDLER DWTN AP|2022|02|12|09|55|36.7333|-119.8167|84.1|9.0||1|FM15-METAR|223|ICAO-KFCH|8.0||1|FM15-METAR|223|ICAO-KFCH|||||||||||||999|C-Calm|9|FM15-METAR|223|ICAO-KFCH|0.0|C-Calm|1|FM15-METAR|223|ICAO-KFCH|||||||||||||94|Derived||FM15-METAR|223|ICAO-KFCH|||||||||||||||||||||||||||||||||||||||||||||||||||||||||||||||||||||||||1020.0||1|FM15-METAR|223|ICAO-KFCH|||||||||||||||||||||||||||||||||||||||||||MET061METAR KFCH 120955Z AUTO 00000KT 10SM CLR 09/08 A3012 RMK A01=||F||223|ICAO-KFCH
USW00023167|FRESNO CHANDLER DWTN AP|2022|02|12|10|15|36.7333|-119.8167|84.1|9.0||1|FM15-METAR|223|ICAO-KFCH|8.0||1|FM15-METAR|223|ICAO-KFCH|||||||||||||999|C-Calm|9|FM15-METAR|223|ICAO-KFCH|0.0|C-Calm|1|FM15-METAR|223|ICAO-KFCH|||||||||||||94|Derived||FM15-METAR|223|ICAO-KFCH|||||||||||||||||||||||||||||||||||||||||||||||||||||||||||||||||||||||||1020.0||1|FM15-METAR|223|ICAO-KFCH|||||||||||||||||||||||||||||||||||||||||||MET064METAR KFCH 121015Z AUTO 00000KT 10SM FEW004 09/08 A3012 RMK A01=||F||223|ICAO-KFCH
USW00023167|FRESNO CHANDLER DWTN AP|2022|02|12|10|35|36.7333|-119.8167|84.1|9.0||1|FM15-METAR|223|ICAO-KFCH|8.0||1|FM15-METAR|223|ICAO-KFCH|||||||||||||999|C-Calm|9|FM15-METAR|223|ICAO-KFCH|0.0|C-Calm|1|FM15-METAR|223|ICAO-KFCH|||||||||||||94|Derived||FM15-METAR|223|ICAO-KFCH|||||||||||||||||||||||||||||||||||||||||||||||||||||||||||||||||||||||||1020.0||1|FM15-METAR|223|ICAO-KFCH|||||||||||||||||||||||||||||||||||||||||||MET061METAR KFCH 121035Z AUTO 00000KT 10SM CLR 09/08 A3012 RMK A01=||F||223|ICAO-KFCH
USW00023167|FRESNO CHANDLER DWTN AP|2022|02|12|10|55|36.7333|-119.8167|84.1|9.0||1|FM15-METAR|223|ICAO-KFCH|7.0||1|FM15-METAR|223|ICAO-KFCH|||||||||||||999|C-Calm|9|FM15-METAR|223|ICAO-KFCH|0.0|C-Calm|1|FM15-METAR|223|ICAO-KFCH|||||||||||||87|Derived||FM15-METAR|223|ICAO-KFCH|||||||||||||||||||||||||||||||||||||||||||||||||||||||||||||||||||||||||1020.0||1|FM15-METAR|223|ICAO-KFCH|||||||||||||||||||||||||||||||||||||||||||MET061METAR KFCH 121055Z AUTO 00000KT 10SM CLR 09/07 A3012 RMK A01=||F||223|ICAO-KFCH
USW00023167|FRESNO CHANDLER DWTN AP|2022|02|12|11|15|36.7333|-119.8167|84.1|9.0||1|FM15-METAR|223|ICAO-KFCH|8.0||1|FM15-METAR|223|ICAO-KFCH|||||||||||||999|C-Calm|9|FM15-METAR|223|ICAO-KFCH|0.0|C-Calm|1|FM15-METAR|223|ICAO-KFCH|||||||||||||94|Derived||FM15-METAR|223|ICAO-KFCH|||||||||||||||||||||||||||||||||||||||||||||||||||||||||||||||||||||||||1019.6||1|FM15-METAR|223|ICAO-KFCH|||||||||||||||||||||||||||||||||||||||||||MET061METAR KFCH 121115Z AUTO 00000KT 10SM CLR 09/08 A3011 RMK A01=||F||223|ICAO-KFCH
USW00023167|FRESNO CHANDLER DWTN AP|2022|02|12|11|35|36.7333|-119.8167|84.1|9.0||1|FM15-METAR|223|ICAO-KFCH|8.0||1|FM15-METAR|223|ICAO-KFCH|||||||||||||999|C-Calm|9|FM15-METAR|223|ICAO-KFCH|0.0|C-Calm|1|FM15-METAR|223|ICAO-KFCH|||||||||||||94|Derived||FM15-METAR|223|ICAO-KFCH|||||||||||||||||||||||||||||||||||||||||||||||||||||||||||||||||||||||||1019.6||1|FM15-METAR|223|ICAO-KFCH|||||||||||||||||||||||||||||||||||||||||||MET061METAR KFCH 121135Z AUTO 00000KT 10SM CLR 09/08 A3011 RMK A01=||F||223|ICAO-KFCH
USW00023167|FRESNO CHANDLER DWTN AP|2022|02|12|11|55|36.7333|-119.8167|84.1|8.0||1|FM15-METAR|223|ICAO-KFCH|7.0||1|FM15-METAR|223|ICAO-KFCH|||||||||||||999|C-Calm|9|FM15-METAR|223|ICAO-KFCH|0.0|C-Calm|1|FM15-METAR|223|ICAO-KFCH|||||||||||||93|Derived||FM15-METAR|223|ICAO-KFCH|||||||||||||||||||||||||||||||||||||||||||||||||||||||||||||||||||||||||1019.6||1|FM15-METAR|223|ICAO-KFCH|||||||||||||||||||||||||||||||||||||||||||MET064METAR KFCH 121155Z AUTO 00000KT 10SM FEW021 08/07 A3011 RMK A01=||F||223|ICAO-KFCH
USW00023167|FRESNO CHANDLER DWTN AP|2022|02|12|12|15|36.7333|-119.8167|84.1|8.0||1|FM15-METAR|223|ICAO-KFCH|8.0||1|FM15-METAR|223|ICAO-KFCH|||||||||||||999|C-Calm|9|FM15-METAR|223|ICAO-KFCH|0.0|C-Calm|1|FM15-METAR|223|ICAO-KFCH|||||||||||||100|Derived||FM15-METAR|223|ICAO-KFCH|||||||||||||||||||||||||||||||||||||||||||||||||||||||||||||||||||||||||1019.6||1|FM15-METAR|223|ICAO-KFCH|||||||||||||||||||||||||||||||||||||||||||MET064METAR KFCH 121215Z AUTO 00000KT 10SM FEW020 08/08 A3011 RMK A01=||F||223|ICAO-KFCH
USW00023167|FRESNO CHANDLER DWTN AP|2022|02|12|12|35|36.7333|-119.8167|84.1|8.0||1|FM15-METAR|223|ICAO-KFCH|7.0||1|FM15-METAR|223|ICAO-KFCH|||||||||||||999|C-Calm|9|FM15-METAR|223|ICAO-KFCH|0.0|C-Calm|1|FM15-METAR|223|ICAO-KFCH|||||||||||||93|Derived||FM15-METAR|223|ICAO-KFCH|||||||||||||||||||||||||||||||||||||||||||||||||||||||||||||||||||||||||1019.6||1|FM15-METAR|223|ICAO-KFCH|||||||||||||||||||||||||||||||||||||||||||MET064METAR KFCH 121235Z AUTO 00000KT 10SM FEW020 08/07 A3011 RMK A01=||F||223|ICAO-KFCH
USW00023167|FRESNO CHANDLER DWTN AP|2022|02|12|12|55|36.7333|-119.8167|84.1|||||||||||||||||||||||||999|C-Calm|9|FM15-METAR|223|ICAO-KFCH|0.0|C-Calm|1|FM15-METAR|223|ICAO-KFCH|||||||||||||||||||||||||||||||||||||||||||||||||||||||||||||||||||||||||||||||||||||||||||1020.0||1|FM15-METAR|223|ICAO-KFCH|||||||||||||||||||||||||||||||||||||||||||MET046METAR KFCH 121255Z AUTO 00000KT A3012 RMK A01=||F||223|ICAO-KFCH
USW00023167|FRESNO CHANDLER DWTN AP|2022|02|12|13|15|36.7333|-119.8167|84.1|8.0||1|FM15-METAR|223|ICAO-KFCH|7.0||1|FM15-METAR|223|ICAO-KFCH|||||||||||||||||||||||||||||||||||||93|Derived||FM15-METAR|223|ICAO-KFCH|||||||||||||||||||||||||||||||||||||||||||||||||||||||||||||||||||||||||1019.6||1|FM15-METAR|223|ICAO-KFCH|||||||||||||||||||||||||||||||||||||||||||MET049METAR KFCH 121315Z AUTO 10SM 08/07 A3011 RMK A01=||F||223|ICAO-KFCH
USW00023167|FRESNO CHANDLER DWTN AP|2022|02|12|13|35|36.7333|-119.8167|84.1|8.0||1|FM15-METAR|223|ICAO-KFCH|7.0||1|FM15-METAR|223|ICAO-KFCH|||||||||||||999|C-Calm|9|FM15-METAR|223|ICAO-KFCH|0.0|C-Calm|1|FM15-METAR|223|ICAO-KFCH|||||||||||||93|Derived||FM15-METAR|223|ICAO-KFCH|||||||||||||||||||||||||||||||||||||||||||||||||||||||||||||||||||||||||1020.0||1|FM15-METAR|223|ICAO-KFCH|||||||||||||||||||||||||||||||||||||||||||MET057METAR KFCH 121335Z AUTO 00000KT 10SM 08/07 A3012 RMK A01=||F||223|ICAO-KFCH
USW00023167|FRESNO CHANDLER DWTN AP|2022|02|12|13|55|36.7333|-119.8167|84.1|8.0||1|FM15-METAR|223|ICAO-KFCH|7.0||1|FM15-METAR|223|ICAO-KFCH|||||||||||||999|C-Calm|9|FM15-METAR|223|ICAO-KFCH|0.0|C-Calm|1|FM15-METAR|223|ICAO-KFCH|||||||||||||93|Derived||FM15-METAR|223|ICAO-KFCH|||||||||||||||||||||||||||||||||||||||||||||||||||||||||||||||||||||||||1020.3||1|FM15-METAR|223|ICAO-KFCH|||||||||||||||||||||||||||||||||||||||||||MET061METAR KFCH 121355Z AUTO 00000KT 10SM CLR 08/07 A3013 RMK A01=||F||223|ICAO-KFCH
USW00023167|FRESNO CHANDLER DWTN AP|2022|02|12|14|15|36.7333|-119.8167|84.1|7.0||1|FM15-METAR|223|ICAO-KFCH|7.0||1|FM15-METAR|223|ICAO-KFCH|||||||||||||999|C-Calm|9|FM15-METAR|223|ICAO-KFCH|0.0|C-Calm|1|FM15-METAR|223|ICAO-KFCH|||||||||||||100|Derived||FM15-METAR|223|ICAO-KFCH|||||||||||||||||||||||||||||||||||||||||||||||||||||||||||||||||||||||||1020.7||1|FM15-METAR|223|ICAO-KFCH|||||||||||||||||||||||||||||||||||||||||||MET061METAR KFCH 121415Z AUTO 00000KT 10SM CLR 07/07 A3014 RMK A01=||F||223|ICAO-KFCH
USW00023167|FRESNO CHANDLER DWTN AP|2022|02|12|14|35|36.7333|-119.8167|84.1|8.0||1|FM15-METAR|223|ICAO-KFCH|7.0||1|FM15-METAR|223|ICAO-KFCH|||||||||||||100|N-Normal|1|FM15-METAR|223|ICAO-KFCH|2.1|N-Normal|1|FM15-METAR|223|ICAO-KFCH|||||||||||||93|Derived||FM15-METAR|223|ICAO-KFCH|||||||||||||||||||||||||||||||||||||||||||||||||||||||||||||||||||||||||1020.7||1|FM15-METAR|223|ICAO-KFCH|||||||||||||||||||||||||||||||||||||||||||MET071METAR KFCH 121435Z AUTO 10004KT 10SM FEW019 FEW027 08/07 A3014 RMK A01=||F||223|ICAO-KFCH
USW00023167|FRESNO CHANDLER DWTN AP|2022|02|12|14|55|36.7333|-119.8167|84.1|8.0||1|FM15-METAR|223|ICAO-KFCH|7.0||1|FM15-METAR|223|ICAO-KFCH|||||||||||||999|C-Calm|9|FM15-METAR|223|ICAO-KFCH|0.0|C-Calm|1|FM15-METAR|223|ICAO-KFCH|||||||||||||93|Derived||FM15-METAR|223|ICAO-KFCH|||||||||||||||||||||||||||||||||||||||||||||||||||||||||||||||||||||||||1021.0||1|FM15-METAR|223|ICAO-KFCH|||||||||||||||||||||||||||||||||||||||||||MET061METAR KFCH 121455Z AUTO 00000KT 10SM CLR 08/07 A3015 RMK A01=||F||223|ICAO-KFCH
USW00023167|FRESNO CHANDLER DWTN AP|2022|02|12|15|15|36.7333|-119.8167|84.1|9.0||1|FM15-METAR|223|ICAO-KFCH|7.0||1|FM15-METAR|223|ICAO-KFCH|||||||||||||100|N-Normal|1|FM15-METAR|223|ICAO-KFCH|2.1|N-Normal|1|FM15-METAR|223|ICAO-KFCH|||||||||||||87|Derived||FM15-METAR|223|ICAO-KFCH|||||||||||||||||||||||||||||||||||||||||||||||||||||||||||||||||||||||||1021.3||1|FM15-METAR|223|ICAO-KFCH|||||||||||||||||||||||||||||||||||||||||||MET061METAR KFCH 121515Z AUTO 10004KT 10SM CLR 09/07 A3016 RMK A01=||F||223|ICAO-KFCH
USW00023167|FRESNO CHANDLER DWTN AP|2022|02|12|15|35|36.7333|-119.8167|84.1|9.0||1|FM15-METAR|223|ICAO-KFCH|7.0||1|FM15-METAR|223|ICAO-KFCH|||||||||||||090|N-Normal|1|FM15-METAR|223|ICAO-KFCH|2.1|N-Normal|1|FM15-METAR|223|ICAO-KFCH|||||||||||||87|Derived||FM15-METAR|223|ICAO-KFCH|||||||||||||||||||||||||||||||||||||||||||||||||||||||||||||||||||||||||1021.7||1|FM15-METAR|223|ICAO-KFCH|||||||||||||||||||||||||||||||||||||||||||MET061METAR KFCH 121535Z AUTO 09004KT 10SM CLR 09/07 A3017 RMK A01=||F||223|ICAO-KFCH
USW00023167|FRESNO CHANDLER DWTN AP|2022|02|12|15|55|36.7333|-119.8167|84.1|10.0||1|FM15-METAR|223|ICAO-KFCH|8.0||1|FM15-METAR|223|ICAO-KFCH|||||||||||||110|N-Normal|1|FM15-METAR|223|ICAO-KFCH|3.1|N-Normal|1|FM15-METAR|223|ICAO-KFCH|||||||||||||88|Derived||FM15-METAR|223|ICAO-KFCH|||||||||||||||||||||||||||||||||||||||||||||||||||||||||||||||||||||||||1021.7||1|FM15-METAR|223|ICAO-KFCH|||||||||||||||||||||||||||||||||||||||||||MET061METAR KFCH 121555Z AUTO 11006KT 10SM CLR 10/08 A3017 RMK A01=||F||223|ICAO-KFCH
USW00023167|FRESNO CHANDLER DWTN AP|2022|02|12|16|15|36.7333|-119.8167|84.1|11.0||1|FM15-METAR|223|ICAO-KFCH|8.0||1|FM15-METAR|223|ICAO-KFCH|||||||||||||100|N-Normal|1|FM15-METAR|223|ICAO-KFCH|2.6|N-Normal|1|FM15-METAR|223|ICAO-KFCH|||||||||||||82|Derived||FM15-METAR|223|ICAO-KFCH|||||||||||||||||||||||||||||||||||||||||||||||||||||||||||||||||||||||||1022.0||1|FM15-METAR|223|ICAO-KFCH|||||||||||||||||||||||||||||||||||||||||||MET061METAR KFCH 121615Z AUTO 10005KT 10SM CLR 11/08 A3018 RMK A01=||F||223|ICAO-KFCH
USW00023167|FRESNO CHANDLER DWTN AP|2022|02|12|16|35|36.7333|-119.8167|84.1|12.0||1|FM15-METAR|223|ICAO-KFCH|8.0||1|FM15-METAR|223|ICAO-KFCH|||||||||||||110|N-Normal|1|FM15-METAR|223|ICAO-KFCH|2.6|N-Normal|1|FM15-METAR|223|ICAO-KFCH|||||||||||||77|Derived||FM15-METAR|223|ICAO-KFCH|||||||||||||||||||||||||||||||||||||||||||||||||||||||||||||||||||||||||1022.3||1|FM15-METAR|223|ICAO-KFCH|||||||||||||||||||||||||||||||||||||||||||MET057METAR KFCH 121635Z AUTO 11005KT 10SM 12/08 A3019 RMK A01=||F||223|ICAO-KFCH
USW00023167|FRESNO CHANDLER DWTN AP|2022|02|12|16|55|36.7333|-119.8167|84.1|13.0||1|FM15-METAR|223|ICAO-KFCH|8.0||1|FM15-METAR|223|ICAO-KFCH|||||||||||||110|N-Normal|1|FM15-METAR|223|ICAO-KFCH|3.1|N-Normal|1|FM15-METAR|223|ICAO-KFCH|||||||||||||72|Derived||FM15-METAR|223|ICAO-KFCH|||||||||||||||||||||||||||||||||||||||||||||||||||||||||||||||||||||||||1022.3||1|FM15-METAR|223|ICAO-KFCH|||||||||||||||||||||||||||||||||||||||||||MET057METAR KFCH 121655Z AUTO 11006KT 10SM 13/08 A3019 RMK A01=||F||223|ICAO-KFCH
USW00023167|FRESNO CHANDLER DWTN AP|2022|02|12|17|15|36.7333|-119.8167|84.1|14.0||1|FM15-METAR|223|ICAO-KFCH|9.0||1|FM15-METAR|223|ICAO-KFCH|||||||||||||120|N-Normal|1|FM15-METAR|223|ICAO-KFCH|3.1|N-Normal|1|FM15-METAR|223|ICAO-KFCH|||||||||||||72|Derived||FM15-METAR|223|ICAO-KFCH|||||||||||||||||||||||||||||||||||||||||||||||||||||||||||||||||||||||||1022.7||1|FM15-METAR|223|ICAO-KFCH|||||||||||||||||||||||||||||||||||||||||||MET061METAR KFCH 121715Z AUTO 12006KT 10SM CLR 14/09 A3020 RMK A01=||F||223|ICAO-KFCH
USW00023167|FRESNO CHANDLER DWTN AP|2022|02|12|17|35|36.7333|-119.8167|84.1|15.0||1|FM15-METAR|223|ICAO-KFCH|9.0||1|FM15-METAR|223|ICAO-KFCH|||||||||||||130|N-Normal|1|FM15-METAR|223|ICAO-KFCH|3.1|N-Normal|1|FM15-METAR|223|ICAO-KFCH|||||||||||||68|Derived||FM15-METAR|223|ICAO-KFCH|||||||||||||||||||||||||||||||||||||||||||||||||||||||||||||||||||||||||1022.7||1|FM15-METAR|223|ICAO-KFCH|||||||||||||||||||||||||||||||||||||||||||MET061METAR KFCH 121735Z AUTO 13006KT 10SM CLR 15/09 A3020 RMK A01=||F||223|ICAO-KFCH
USW00023167|FRESNO CHANDLER DWTN AP|2022|02|12|17|55|36.7333|-119.8167|84.1|16.0||1|FM15-METAR|223|ICAO-KFCH|9.0||1|FM15-METAR|223|ICAO-KFCH|||||||||||||999|C-Calm|9|FM15-METAR|223|ICAO-KFCH|0.0|C-Calm|1|FM15-METAR|223|ICAO-KFCH|||||||||||||63|Derived||FM15-METAR|223|ICAO-KFCH|||||||||||||||||||||||||||||||||||||||||||||||||||||||||||||||||||||||||1022.7||1|FM15-METAR|223|ICAO-KFCH|||||||||||||||||||||||||||||||||||||||||||MET061METAR KFCH 121755Z AUTO 00000KT 10SM CLR 16/09 A3020 RMK A01=||F||223|ICAO-KFCH
USW00023167|FRESNO CHANDLER DWTN AP|2022|02|12|18|15|36.7333|-119.8167|84.1|18.0||1|FM15-METAR|223|ICAO-KFCH|9.0||1|FM15-METAR|223|ICAO-KFCH|||||||||||||999|C-Calm|9|FM15-METAR|223|ICAO-KFCH|0.0|C-Calm|1|FM15-METAR|223|ICAO-KFCH|||||||||||||56|Derived||FM15-METAR|223|ICAO-KFCH|||||||||||||||||||||||||||||||||||||||||||||||||||||||||||||||||||||||||1023.0||1|FM15-METAR|223|ICAO-KFCH|||||||||||||||||||||||||||||||||||||||||||MET061METAR KFCH 121815Z AUTO 00000KT 10SM CLR 18/09 A3021 RMK A01=||F||223|ICAO-KFCH
USW00023167|FRESNO CHANDLER DWTN AP|2022|02|12|18|35|36.7333|-119.8167|84.1|19.0||1|FM15-METAR|223|ICAO-KFCH|9.0||1|FM15-METAR|223|ICAO-KFCH|||||||||||||140|N-Normal|1|FM15-METAR|223|ICAO-KFCH|1.5|N-Normal|1|FM15-METAR|223|ICAO-KFCH|||||||||||||52|Derived||FM15-METAR|223|ICAO-KFCH|||||||||||||||||||||||||||||||||||||||||||||||||||||||||||||||||||||||||1023.0||1|FM15-METAR|223|ICAO-KFCH|||||||||||||||||||||||||||||||||||||||||||MET061METAR KFCH 121835Z AUTO 14003KT 10SM CLR 19/09 A3021 RMK A01=||F||223|ICAO-KFCH
USW00023167|FRESNO CHANDLER DWTN AP|2022|02|12|18|55|36.7333|-119.8167|84.1|19.0||1|FM15-METAR|223|ICAO-KFCH|9.0||1|FM15-METAR|223|ICAO-KFCH|||||||||||||999|V-Variable|9|FM15-METAR|223|ICAO-KFCH|2.1|V-Variable|1|FM15-METAR|223|ICAO-KFCH|||||||||||||52|Derived||FM15-METAR|223|ICAO-KFCH|||||||||||||||||||||||||||||||||||||||||||||||||||||||||||||||||||||||||1023.0||1|FM15-METAR|223|ICAO-KFCH|||||||||||||||||||||||||||||||||||||||||||MET061METAR KFCH 121855Z AUTO VRB04KT 10SM CLR 19/09 A3021 RMK A01=||F||223|ICAO-KFCH
USW00023167|FRESNO CHANDLER DWTN AP|2022|02|12|19|10|36.7333|-119.8167|84.1|20.0||1|FM15-METAR|223|ICAO-KFCH|8.0||1|FM15-METAR|223|ICAO-KFCH|||||||||||||999|C-Calm|9|FM15-METAR|223|ICAO-KFCH|0.0|C-Calm|1|FM15-METAR|223|ICAO-KFCH|||||||||||||46|Derived||FM15-METAR|223|ICAO-KFCH|||||||||||||||||||||||||||||||||||||||||||||||||||||||||||||||||||||||||1023.0||1|FM15-METAR|223|ICAO-KFCH|||||||||||||||||||||||||||||||||||||||||||MET061METAR KFCH 121910Z AUTO 00000KT 10SM CLR 20/08 A3021 RMK A01=||F||223|ICAO-KFCH
USW00023167|FRESNO CHANDLER DWTN AP|2022|02|12|19|35|36.7333|-119.8167|84.1|21.0||1|FM15-METAR|223|ICAO-KFCH|9.0||1|FM15-METAR|223|ICAO-KFCH|||||||||||||999|C-Calm|9|FM15-METAR|223|ICAO-KFCH|0.0|C-Calm|1|FM15-METAR|223|ICAO-KFCH|||||||||||||46|Derived||FM15-METAR|223|ICAO-KFCH|||||||||||||||||||||||||||||||||||||||||||||||||||||||||||||||||||||||||1022.7||1|FM15-METAR|223|ICAO-KFCH|||||||||||||||||||||||||||||||||||||||||||MET061METAR KFCH 121935Z AUTO 00000KT 10SM CLR 21/09 A3020 RMK A01=||F||223|ICAO-KFCH
USW00023167|FRESNO CHANDLER DWTN AP|2022|02|12|19|55|36.7333|-119.8167|84.1|22.0||1|FM15-METAR|223|ICAO-KFCH|9.0||1|FM15-METAR|223|ICAO-KFCH|||||||||||||100|N-Normal|1|FM15-METAR|223|ICAO-KFCH|1.5|N-Normal|1|FM15-METAR|223|ICAO-KFCH|||||||||||||44|Derived||FM15-METAR|223|ICAO-KFCH|||||||||||||||||||||||||||||||||||||||||||||||||||||||||||||||||||||||||1022.3||1|FM15-METAR|223|ICAO-KFCH|||||||||||||||||||||||||||||||||||||||||||MET061METAR KFCH 121955Z AUTO 10003KT 10SM CLR 22/09 A3019 RMK A01=||F||223|ICAO-KFCH
USW00023167|FRESNO CHANDLER DWTN AP|2022|02|12|20|15|36.7333|-119.8167|84.1|23.0||1|FM15-METAR|223|ICAO-KFCH|8.0||1|FM15-METAR|223|ICAO-KFCH|||||||||||||999|C-Calm|9|FM15-METAR|223|ICAO-KFCH|0.0|C-Calm|1|FM15-METAR|223|ICAO-KFCH|||||||||||||38|Derived||FM15-METAR|223|ICAO-KFCH|||||||||||||||||||||||||||||||||||||||||||||||||||||||||||||||||||||||||1022.3||1|FM15-METAR|223|ICAO-KFCH|||||||||||||||||||||||||||||||||||||||||||MET061METAR KFCH 122015Z AUTO 00000KT 10SM CLR 23/08 A3019 RMK A01=||F||223|ICAO-KFCH
USW00023167|FRESNO CHANDLER DWTN AP|2022|02|12|20|35|36.7333|-119.8167|84.1|23.0||1|FM15-METAR|223|ICAO-KFCH|8.0||1|FM15-METAR|223|ICAO-KFCH|||||||||||||090|N-Normal|1|FM15-METAR|223|ICAO-KFCH|1.5|N-Normal|1|FM15-METAR|223|ICAO-KFCH|||||||||||||38|Derived||FM15-METAR|223|ICAO-KFCH|||||||||||||||||||||||||||||||||||||||||||||||||||||||||||||||||||||||||1021.7||1|FM15-METAR|223|ICAO-KFCH|||||||||||||||||||||||||||||||||||||||||||MET061METAR KFCH 122035Z AUTO 09003KT 10SM CLR 23/08 A3017 RMK A01=||F||223|ICAO-KFCH
USW00023167|FRESNO CHANDLER DWTN AP|2022|02|12|20|55|36.7333|-119.8167|84.1|24.0||1|FM15-METAR|223|ICAO-KFCH|7.0||1|FM15-METAR|223|ICAO-KFCH|||||||||||||999|C-Calm|9|FM15-METAR|223|ICAO-KFCH|0.0|C-Calm|1|FM15-METAR|223|ICAO-KFCH|||||||||||||34|Derived||FM15-METAR|223|ICAO-KFCH|||||||||||||||||||||||||||||||||||||||||||||||||||||||||||||||||||||||||1021.3||1|FM15-METAR|223|ICAO-KFCH|||||||||||||||||||||||||||||||||||||||||||MET061METAR KFCH 122055Z AUTO 00000KT 10SM CLR 24/07 A3016 RMK A01=||F||223|ICAO-KFCH
USW00023167|FRESNO CHANDLER DWTN AP|2022|02|12|21|15|36.7333|-119.8167|84.1|||||||||||||||||||||||||||||||||||||||||||||||||||||||||||||||||||||||||||||||||||||||||||||||||||||||||||||||||||||||||||||||1021.0||1|FM15-METAR|223|ICAO-KFCH|||||||||||||||||||||||||||||||||||||||||||MET038METAR KFCH 122115Z AUTO A3015 RMK A01=||F||223|ICAO-KFCH
USW00023167|FRESNO CHANDLER DWTN AP|2022|02|12|21|35|36.7333|-119.8167|84.1|||||||||||||||||||||||||||||||||||||||||||||||||||||||||||||||||||||||||||||||||||||||||||||||||||||||||||||||||||||||||||||||1020.7||1|FM15-METAR|223|ICAO-KFCH|||||||||||||||||||||||||||||||||||||||||||MET038METAR KFCH 122135Z AUTO A3014 RMK A01=||F||223|ICAO-KFCH
USW00023167|FRESNO CHANDLER DWTN AP|2022|02|12|21|55|36.7333|-119.8167|84.1|||||||||||||||||||||||||||||||||||||||||||||||||||||||||||||||||||||||||||||||||||||||||||||||||||||||||||||||||||||||||||||||1020.7||1|FM15-METAR|223|ICAO-KFCH|||||||||||||||||||||||||||||||||||||||||||MET038METAR KFCH 122155Z AUTO A3014 RMK A01=||F||223|ICAO-KFCH
USW00023167|FRESNO CHANDLER DWTN AP|2022|02|12|22|15|36.7333|-119.8167|84.1|||||||||||||||||||||||||130|N-Normal|1|FM15-METAR|223|ICAO-KFCH|1.5|N-Normal|1|FM15-METAR|223|ICAO-KFCH|||||||||||||||||||||||||||||||||||||||||||||||||||||||||||||||||||||||||||||||||||||||||||1020.3||1|FM15-METAR|223|ICAO-KFCH|||||||||||||||||||||||||||||||||||||||||||MET046METAR KFCH 122215Z AUTO 13003KT A3013 RMK A01=||F||223|ICAO-KFCH
USW00023167|FRESNO CHANDLER DWTN AP|2022|02|12|22|35|36.7333|-119.8167|84.1|26.0||1|FM15-METAR|223|ICAO-KFCH|4.0||1|FM15-METAR|223|ICAO-KFCH|||||||||||||100|N-Normal|1|FM15-METAR|223|ICAO-KFCH|1.5|N-Normal|1|FM15-METAR|223|ICAO-KFCH|||||||||||||24|Derived||FM15-METAR|223|ICAO-KFCH|||||||||||||||||||||||||||||||||||||||||||||||||||||||||||||||||||||||||1020.3||1|FM15-METAR|223|ICAO-KFCH|||||||||||||||||||||||||||||||||||||||||||MET057METAR KFCH 122235Z AUTO 10003KT 10SM 26/04 A3013 RMK A01=||F||223|ICAO-KFCH
USW00023167|FRESNO CHANDLER DWTN AP|2022|02|12|22|55|36.7333|-119.8167|84.1|26.0||1|FM15-METAR|223|ICAO-KFCH|3.0||1|FM15-METAR|223|ICAO-KFCH|||||||||||||999|V-Variable|9|FM15-METAR|223|ICAO-KFCH|2.6|V-Variable|1|FM15-METAR|223|ICAO-KFCH|||||||||||||23|Derived||FM15-METAR|223|ICAO-KFCH|||||||||||||||||||||||||||||||||||||||||||||||||||||||||||||||||||||||||1020.3||1|FM15-METAR|223|ICAO-KFCH|||||||||||||||||||||||||||||||||||||||||||MET057METAR KFCH 122255Z AUTO VRB05KT 10SM 26/03 A3013 RMK A01=||F||223|ICAO-KFCH
USW00023167|FRESNO CHANDLER DWTN AP|2022|02|12|23|15|36.7333|-119.8167|84.1|27.0||1|FM15-METAR|223|ICAO-KFCH|3.0||1|FM15-METAR|223|ICAO-KFCH|||||||||||||200|N-Normal|1|FM15-METAR|223|ICAO-KFCH|2.1|N-Normal|1|FM15-METAR|223|ICAO-KFCH|||||||||||||21|Derived||FM15-METAR|223|ICAO-KFCH|||||||||||||||||||||||||||||||||||||||||||||||||||||||||||||||||||||||||1020.0||1|FM15-METAR|223|ICAO-KFCH|||||||||||||||||||||||||||||||||||||||||||MET057METAR KFCH 122315Z AUTO 20004KT 10SM 27/03 A3012 RMK A01=||F||223|ICAO-KFCH
USW00023167|FRESNO CHANDLER DWTN AP|2022|02|12|23|35|36.7333|-119.8167|84.1|27.0||1|FM15-METAR|223|ICAO-KFCH|2.0||1|FM15-METAR|223|ICAO-KFCH|||||||||||||999|C-Calm|9|FM15-METAR|223|ICAO-KFCH|0.0|C-Calm|1|FM15-METAR|223|ICAO-KFCH|||||||||||||20|Derived||FM15-METAR|223|ICAO-KFCH|||||||||||||||||||||||||||||||||||||||||||||||||||||||||||||||||||||||||1020.0||1|FM15-METAR|223|ICAO-KFCH|||||||||||||||||||||||||||||||||||||||||||MET061METAR KFCH 122335Z AUTO 00000KT 10SM CLR 27/02 A3012 RMK A01=||F||223|ICAO-KFCH
USW00023167|FRESNO CHANDLER DWTN AP|2022|02|12|23|55|36.7333|-119.8167|84.1|27.0||1|FM15-METAR|223|ICAO-KFCH|2.0||1|FM15-METAR|223|ICAO-KFCH|||||||||||||999|C-Calm|9|FM15-METAR|223|ICAO-KFCH|0.0|C-Calm|1|FM15-METAR|223|ICAO-KFCH|||||||||||||20|Derived||FM15-METAR|223|ICAO-KFCH|||||||||||||||||||||||||||||||||||||||||||||||||||||||||||||||||||||||||1020.0||1|FM15-METAR|223|ICAO-KFCH|||||||||||||||||||||||||||||||||||||||||||MET061METAR KFCH 122355Z AUTO 00000KT 10SM CLR 27/02 A3012 RMK A01=||F||223|ICAO-KFCH
USW00023167|FRESNO CHANDLER DWTN AP|2022|02|13|00|15|36.7333|-119.8167|84.1|27.0||1|FM15-METAR|223|ICAO-KFCH|2.0||1|FM15-METAR|223|ICAO-KFCH|||||||||||||999|C-Calm|9|FM15-METAR|223|ICAO-KFCH|0.0|C-Calm|1|FM15-METAR|223|ICAO-KFCH|||||||||||||20|Derived||FM15-METAR|223|ICAO-KFCH|||||||||||||||||||||||||||||||||||||||||||||||||||||||||||||||||||||||||1020.0||1|FM15-METAR|223|ICAO-KFCH|||||||||||||||||||||||||||||||||||||||||||MET061METAR KFCH 130015Z AUTO 00000KT 10SM CLR 27/02 A3012 RMK A01=||F||223|ICAO-KFCH
USW00023167|FRESNO CHANDLER DWTN AP|2022|02|13|00|35|36.7333|-119.8167|84.1|27.0||1|FM15-METAR|223|ICAO-KFCH|2.0||1|FM15-METAR|223|ICAO-KFCH|||||||||||||999|C-Calm|9|FM15-METAR|223|ICAO-KFCH|0.0|C-Calm|1|FM15-METAR|223|ICAO-KFCH|||||||||||||20|Derived||FM15-METAR|223|ICAO-KFCH|||||||||||||||||||||||||||||||||||||||||||||||||||||||||||||||||||||||||1020.0||1|FM15-METAR|223|ICAO-KFCH|||||||||||||||||||||||||||||||||||||||||||MET061METAR KFCH 130035Z AUTO 00000KT 10SM CLR 27/02 A3012 RMK A01=||F||223|ICAO-KFCH
USW00023167|FRESNO CHANDLER DWTN AP|2022|02|13|00|55|36.7333|-119.8167|84.1|26.0||1|FM15-METAR|223|ICAO-KFCH|2.0||1|FM15-METAR|223|ICAO-KFCH|||||||||||||999|C-Calm|9|FM15-METAR|223|ICAO-KFCH|0.0|C-Calm|1|FM15-METAR|223|ICAO-KFCH|||||||||||||21|Derived||FM15-METAR|223|ICAO-KFCH|||||||||||||||||||||||||||||||||||||||||||||||||||||||||||||||||||||||||1020.0||1|FM15-METAR|223|ICAO-KFCH|||||||||||||||||||||||||||||||||||||||||||MET061METAR KFCH 130055Z AUTO 00000KT 10SM CLR 26/02 A3012 RMK A01=||F||223|ICAO-KFCH
USW00023167|FRESNO CHANDLER DWTN AP|2022|02|13|01|15|36.7333|-119.8167|84.1|26.0||1|FM15-METAR|223|ICAO-KFCH|2.0||1|FM15-METAR|223|ICAO-KFCH|||||||||||||999|C-Calm|9|FM15-METAR|223|ICAO-KFCH|0.0|C-Calm|1|FM15-METAR|223|ICAO-KFCH|||||||||||||21|Derived||FM15-METAR|223|ICAO-KFCH|||||||||||||||||||||||||||||||||||||||||||||||||||||||||||||||||||||||||1020.0||1|FM15-METAR|223|ICAO-KFCH|||||||||||||||||||||||||||||||||||||||||||MET061METAR KFCH 130115Z AUTO 00000KT 10SM CLR 26/02 A3012 RMK A01=||F||223|ICAO-KFCH
USW00023167|FRESNO CHANDLER DWTN AP|2022|02|13|01|35|36.7333|-119.8167|84.1|24.0||1|FM15-METAR|223|ICAO-KFCH|2.0||1|FM15-METAR|223|ICAO-KFCH|||||||||||||999|C-Calm|9|FM15-METAR|223|ICAO-KFCH|0.0|C-Calm|1|FM15-METAR|223|ICAO-KFCH|||||||||||||24|Derived||FM15-METAR|223|ICAO-KFCH|||||||||||||||||||||||||||||||||||||||||||||||||||||||||||||||||||||||||1020.3||1|FM15-METAR|223|ICAO-KFCH|||||||||||||||||||||||||||||||||||||||||||MET061METAR KFCH 130135Z AUTO 00000KT 10SM CLR 24/02 A3013 RMK A01=||F||223|ICAO-KFCH
USW00023167|FRESNO CHANDLER DWTN AP|2022|02|13|01|55|36.7333|-119.8167|84.1|23.0||1|FM15-METAR|223|ICAO-KFCH|4.0||1|FM15-METAR|223|ICAO-KFCH|||||||||||||290|N-Normal|1|FM15-METAR|223|ICAO-KFCH|1.5|N-Normal|1|FM15-METAR|223|ICAO-KFCH|||||||||||||29|Derived||FM15-METAR|223|ICAO-KFCH|||||||||||||||||||||||||||||||||||||||||||||||||||||||||||||||||||||||||1020.3||1|FM15-METAR|223|ICAO-KFCH|||||||||||||||||||||||||||||||||||||||||||MET061METAR KFCH 130155Z AUTO 29003KT 10SM CLR 23/04 A3013 RMK A01=||F||223|ICAO-KFCH
USW00023167|FRESNO CHANDLER DWTN AP|2022|02|13|02|15|36.7333|-119.8167|84.1|21.0||1|FM15-METAR|223|ICAO-KFCH|5.0||1|FM15-METAR|223|ICAO-KFCH|||||||||||||999|C-Calm|9|FM15-METAR|223|ICAO-KFCH|0.0|C-Calm|1|FM15-METAR|223|ICAO-KFCH|||||||||||||35|Derived||FM15-METAR|223|ICAO-KFCH|||||||||||||||||||||||||||||||||||||||||||||||||||||||||||||||||||||||||1020.7||1|FM15-METAR|223|ICAO-KFCH|||||||||||||||||||||||||||||||||||||||||||MET061METAR KFCH 130215Z AUTO 00000KT 10SM CLR 21/05 A3014 RMK A01=||F||223|ICAO-KFCH
USW00023167|FRESNO CHANDLER DWTN AP|2022|02|13|02|35|36.7333|-119.8167|84.1|20.0||1|FM15-METAR|223|ICAO-KFCH|5.0||1|FM15-METAR|223|ICAO-KFCH|||||||||||||999|C-Calm|9|FM15-METAR|223|ICAO-KFCH|0.0|C-Calm|1|FM15-METAR|223|ICAO-KFCH|||||||||||||38|Derived||FM15-METAR|223|ICAO-KFCH|||||||||||||||||||||||||||||||||||||||||||||||||||||||||||||||||||||||||1020.7||1|FM15-METAR|223|ICAO-KFCH|||||||||||||||||||||||||||||||||||||||||||MET061METAR KFCH 130235Z AUTO 00000KT 10SM CLR 20/05 A3014 RMK A01=||F||223|ICAO-KFCH
USW00023167|FRESNO CHANDLER DWTN AP|2022|02|13|02|55|36.7333|-119.8167|84.1|||||||||||||||||||||||||999|C-Calm|9|FM15-METAR|223|ICAO-KFCH|0.0|C-Calm|1|FM15-METAR|223|ICAO-KFCH|||||||||||||||||||||||||||||||||||||||||||||||||||||||||||||||||||||||||||||||||||||||||||1021.0||1|FM15-METAR|223|ICAO-KFCH|||||||||||||||||||||||||||||||||||||||||||MET046METAR KFCH 130255Z AUTO 00000KT A3015 RMK A01=||F||223|ICAO-KFCH
USW00023167|FRESNO CHANDLER DWTN AP|2022|02|13|03|15|36.7333|-119.8167|84.1|18.0||1|FM15-METAR|223|ICAO-KFCH|5.0||1|FM15-METAR|223|ICAO-KFCH|||||||||||||999|C-Calm|9|FM15-METAR|223|ICAO-KFCH|0.0|C-Calm|1|FM15-METAR|223|ICAO-KFCH|||||||||||||43|Derived||FM15-METAR|223|ICAO-KFCH|||||||||||||||||||||||||||||||||||||||||||||||||||||||||||||||||||||||||1021.0||1|FM15-METAR|223|ICAO-KFCH|||||||||||||||||||||||||||||||||||||||||||MET057METAR KFCH 130315Z AUTO 00000KT 10SM 18/05 A3015 RMK A01=||F||223|ICAO-KFCH
USW00023167|FRESNO CHANDLER DWTN AP|2022|02|13|03|35|36.7333|-119.8167|84.1|18.0||1|FM15-METAR|223|ICAO-KFCH|4.0||1|FM15-METAR|223|ICAO-KFCH|||||||||||||999|C-Calm|9|FM15-METAR|223|ICAO-KFCH|0.0|C-Calm|1|FM15-METAR|223|ICAO-KFCH|||||||||||||40|Derived||FM15-METAR|223|ICAO-KFCH|||||||||||||||||||||||||||||||||||||||||||||||||||||||||||||||||||||||||1021.3||1|FM15-METAR|223|ICAO-KFCH|||||||||||||||||||||||||||||||||||||||||||MET061METAR KFCH 130335Z AUTO 00000KT 10SM CLR 18/04 A3016 RMK A01=||F||223|ICAO-KFCH
USW00023167|FRESNO CHANDLER DWTN AP|2022|02|13|03|55|36.7333|-119.8167|84.1|17.0||1|FM15-METAR|223|ICAO-KFCH|5.0||1|FM15-METAR|223|ICAO-KFCH|||||||||||||999|C-Calm|9|FM15-METAR|223|ICAO-KFCH|0.0|C-Calm|1|FM15-METAR|223|ICAO-KFCH|||||||||||||45|Derived||FM15-METAR|223|ICAO-KFCH|||||||||||||||||||||||||||||||||||||||||||||||||||||||||||||||||||||||||1021.3||1|FM15-METAR|223|ICAO-KFCH|||||||||||||||||||||||||||||||||||||||||||MET061METAR KFCH 130355Z AUTO 00000KT 10SM CLR 17/05 A3016 RMK A01=||F||223|ICAO-KFCH
USW00023167|FRESNO CHANDLER DWTN AP|2022|02|13|04|15|36.7333|-119.8167|84.1|17.0||1|FM15-METAR|223|ICAO-KFCH|5.0||1|FM15-METAR|223|ICAO-KFCH|||||||||||||999|C-Calm|9|FM15-METAR|223|ICAO-KFCH|0.0|C-Calm|1|FM15-METAR|223|ICAO-KFCH|||||||||||||45|Derived||FM15-METAR|223|ICAO-KFCH|||||||||||||||||||||||||||||||||||||||||||||||||||||||||||||||||||||||||1021.7||1|FM15-METAR|223|ICAO-KFCH|||||||||||||||||||||||||||||||||||||||||||MET061METAR KFCH 130415Z AUTO 00000KT 10SM CLR 17/05 A3017 RMK A01=||F||223|ICAO-KFCH
USW00023167|FRESNO CHANDLER DWTN AP|2022|02|13|04|35|36.7333|-119.8167|84.1|16.0||1|FM15-METAR|223|ICAO-KFCH|5.0||1|FM15-METAR|223|ICAO-KFCH|||||||||||||999|C-Calm|9|FM15-METAR|223|ICAO-KFCH|0.0|C-Calm|1|FM15-METAR|223|ICAO-KFCH|||||||||||||48|Derived||FM15-METAR|223|ICAO-KFCH|||||||||||||||||||||||||||||||||||||||||||||||||||||||||||||||||||||||||1021.7||1|FM15-METAR|223|ICAO-KFCH|||||||||||||||||||||||||||||||||||||||||||MET061METAR KFCH 130435Z AUTO 00000KT 10SM CLR 16/05 A3017 RMK A01=||F||223|ICAO-KFCH
USW00023167|FRESNO CHANDLER DWTN AP|2022|02|13|04|55|36.7333|-119.8167|84.1|16.0||1|FM15-METAR|223|ICAO-KFCH|5.0||1|FM15-METAR|223|ICAO-KFCH|||||||||||||999|C-Calm|9|FM15-METAR|223|ICAO-KFCH|0.0|C-Calm|1|FM15-METAR|223|ICAO-KFCH|||||||||||||48|Derived||FM15-METAR|223|ICAO-KFCH|||||||||||||||||||||||||||||||||||||||||||||||||||||||||||||||||||||||||1022.0||1|FM15-METAR|223|ICAO-KFCH|||||||||||||||||||||||||||||||||||||||||||MET061METAR KFCH 130455Z AUTO 00000KT 10SM CLR 16/05 A3018 RMK A01=||F||223|ICAO-KFCH
USW00023167|FRESNO CHANDLER DWTN AP|2022|02|13|05|15|36.7333|-119.8167|84.1|16.0||1|FM15-METAR|223|ICAO-KFCH|6.0||1|FM15-METAR|223|ICAO-KFCH|||||||||||||999|C-Calm|9|FM15-METAR|223|ICAO-KFCH|0.0|C-Calm|1|FM15-METAR|223|ICAO-KFCH|||||||||||||52|Derived||FM15-METAR|223|ICAO-KFCH|||||||||||||||||||||||||||||||||||||||||||||||||||||||||||||||||||||||||1022.3||1|FM15-METAR|223|ICAO-KFCH|||||||||||||||||||||||||||||||||||||||||||MET061METAR KFCH 130515Z AUTO 00000KT 10SM CLR 16/06 A3019 RMK A01=||F||223|ICAO-KFCH
USW00023167|FRESNO CHANDLER DWTN AP|2022|02|13|05|35|36.7333|-119.8167|84.1|14.0||1|FM15-METAR|223|ICAO-KFCH|7.0||1|FM15-METAR|223|ICAO-KFCH|||||||||||||300|N-Normal|1|FM15-METAR|223|ICAO-KFCH|1.5|N-Normal|1|FM15-METAR|223|ICAO-KFCH|||||||||||||63|Derived||FM15-METAR|223|ICAO-KFCH|||||||||||||||||||||||||||||||||||||||||||||||||||||||||||||||||||||||||1022.3||1|FM15-METAR|223|ICAO-KFCH|||||||||||||||||||||||||||||||||||||||||||MET061METAR KFCH 130535Z AUTO 30003KT 10SM CLR 14/07 A3019 RMK A01=||F||223|ICAO-KFCH
USW00023167|FRESNO CHANDLER DWTN AP|2022|02|13|05|50|36.7333|-119.8167|84.1|15.0||1|FM15-METAR|223|ICAO-KFCH|6.0||1|FM15-METAR|223|ICAO-KFCH|||||||||||||999|C-Calm|9|FM15-METAR|223|ICAO-KFCH|0.0|C-Calm|1|FM15-METAR|223|ICAO-KFCH|||||||||||||55|Derived||FM15-METAR|223|ICAO-KFCH|||||||||||||||||||||||||||||||||||||||||||||||||||||||||||||||||||||||||1022.7||1|FM15-METAR|223|ICAO-KFCH|||||||||||||||||||||||||||||||||||||||||||MET061METAR KFCH 130550Z AUTO 00000KT 10SM CLR 15/06 A3020 RMK A01=||F||223|ICAO-KFCH
USW00023167|FRESNO CHANDLER DWTN AP|2022|02|13|06|15|36.7333|-119.8167|84.1|14.0||1|FM15-METAR|223|ICAO-KFCH|6.0||1|FM15-METAR|223|ICAO-KFCH|||||||||||||290|N-Normal|1|FM15-METAR|223|ICAO-KFCH|1.5|N-Normal|1|FM15-METAR|223|ICAO-KFCH|||||||||||||59|Derived||FM15-METAR|223|ICAO-KFCH|||||||||||||||||||||||||||||||||||||||||||||||||||||||||||||||||||||||||1022.7||1|FM15-METAR|223|ICAO-KFCH|||||||||||||||||||||||||||||||||||||||||||MET057METAR KFCH 130615Z AUTO 29003KT 10SM 14/06 A3020 RMK A01=||F||223|ICAO-KFCH
USW00023167|FRESNO CHANDLER DWTN AP|2022|02|13|06|35|36.7333|-119.8167|84.1|13.0||1|FM15-METAR|223|ICAO-KFCH|6.0||1|FM15-METAR|223|ICAO-KFCH|||||||||||||999|C-Calm|9|FM15-METAR|223|ICAO-KFCH|0.0|C-Calm|1|FM15-METAR|223|ICAO-KFCH|||||||||||||63|Derived||FM15-METAR|223|ICAO-KFCH|||||||||||||||||||||||||||||||||||||||||||||||||||||||||||||||||||||||||1023.0||1|FM15-METAR|223|ICAO-KFCH|||||||||||||||||||||||||||||||||||||||||||MET061METAR KFCH 130635Z AUTO 00000KT 10SM CLR 13/06 A3021 RMK A01=||F||223|ICAO-KFCH
USW00023167|FRESNO CHANDLER DWTN AP|2022|02|13|06|50|36.7333|-119.8167|84.1|12.0||1|FM15-METAR|223|ICAO-KFCH|6.0||1|FM15-METAR|223|ICAO-KFCH|||||||||||||999|C-Calm|9|FM15-METAR|223|ICAO-KFCH|0.0|C-Calm|1|FM15-METAR|223|ICAO-KFCH|||||||||||||67|Derived||FM15-METAR|223|ICAO-KFCH|||||||||||||||||||||||||||||||||||||||||||||||||||||||||||||||||||||||||1023.0||1|FM15-METAR|223|ICAO-KFCH|||||||||||||||||||||||||||||||||||||||||||MET061METAR KFCH 130650Z AUTO 00000KT 10SM CLR 12/06 A3021 RMK A01=||F||223|ICAO-KFCH
USW00023167|FRESNO CHANDLER DWTN AP|2022|02|13|07|15|36.7333|-119.8167|84.1|12.0||1|FM15-METAR|223|ICAO-KFCH|6.0||1|FM15-METAR|223|ICAO-KFCH|||||||||||||999|C-Calm|9|FM15-METAR|223|ICAO-KFCH|0.0|C-Calm|1|FM15-METAR|223|ICAO-KFCH|||||||||||||67|Derived||FM15-METAR|223|ICAO-KFCH|||||||||||||||||||||||||||||||||||||||||||||||||||||||||||||||||||||||||1023.0||1|FM15-METAR|223|ICAO-KFCH|||||||||||||||||||||||||||||||||||||||||||MET061METAR KFCH 130715Z AUTO 00000KT 10SM CLR 12/06 A3021 RMK A01=||F||223|ICAO-KFCH
USW00023167|FRESNO CHANDLER DWTN AP|2022|02|13|07|35|36.7333|-119.8167|84.1|12.0||1|FM15-METAR|223|ICAO-KFCH|7.0||1|FM15-METAR|223|ICAO-KFCH|||||||||||||999|C-Calm|9|FM15-METAR|223|ICAO-KFCH|0.0|C-Calm|1|FM15-METAR|223|ICAO-KFCH|||||||||||||72|Derived||FM15-METAR|223|ICAO-KFCH|||||||||||||||||||||||||||||||||||||||||||||||||||||||||||||||||||||||||1023.0||1|FM15-METAR|223|ICAO-KFCH|||||||||||||||||||||||||||||||||||||||||||MET061METAR KFCH 130735Z AUTO 00000KT 10SM CLR 12/07 A3021 RMK A01=||F||223|ICAO-KFCH
USW00023167|FRESNO CHANDLER DWTN AP|2022|02|13|07|50|36.7333|-119.8167|84.1|12.0||1|FM15-METAR|223|ICAO-KFCH|7.0||1|FM15-METAR|223|ICAO-KFCH|||||||||||||999|C-Calm|9|FM15-METAR|223|ICAO-KFCH|0.0|C-Calm|1|FM15-METAR|223|ICAO-KFCH|||||||||||||72|Derived||FM15-METAR|223|ICAO-KFCH|||||||||||||||||||||||||||||||||||||||||||||||||||||||||||||||||||||||||1023.0||1|FM15-METAR|223|ICAO-KFCH|||||||||||||||||||||||||||||||||||||||||||MET061METAR KFCH 130750Z AUTO 00000KT 10SM CLR 12/07 A3021 RMK A01=||F||223|ICAO-KFCH
USW00023167|FRESNO CHANDLER DWTN AP|2022|02|13|08|15|36.7333|-119.8167|84.1|11.0||1|FM15-METAR|223|ICAO-KFCH|7.0||1|FM15-METAR|223|ICAO-KFCH|||||||||||||999|C-Calm|9|FM15-METAR|223|ICAO-KFCH|0.0|C-Calm|1|FM15-METAR|223|ICAO-KFCH|||||||||||||77|Derived||FM15-METAR|223|ICAO-KFCH|||||||||||||||||||||||||||||||||||||||||||||||||||||||||||||||||||||||||1023.0||1|FM15-METAR|223|ICAO-KFCH|||||||||||||||||||||||||||||||||||||||||||MET061METAR KFCH 130815Z AUTO 00000KT 10SM CLR 11/07 A3021 RMK A01=||F||223|ICAO-KFCH
USW00023167|FRESNO CHANDLER DWTN AP|2022|02|13|08|35|36.7333|-119.8167|84.1|11.0||1|FM15-METAR|223|ICAO-KFCH|7.0||1|FM15-METAR|223|ICAO-KFCH|||||||||||||999|C-Calm|9|FM15-METAR|223|ICAO-KFCH|0.0|C-Calm|1|FM15-METAR|223|ICAO-KFCH|||||||||||||77|Derived||FM15-METAR|223|ICAO-KFCH|||||||||||||||||||||||||||||||||||||||||||||||||||||||||||||||||||||||||1023.4||1|FM15-METAR|223|ICAO-KFCH|||||||||||||||||||||||||||||||||||||||||||MET061METAR KFCH 130835Z AUTO 00000KT 10SM CLR 11/07 A3022 RMK A01=||F||223|ICAO-KFCH
USW00023167|FRESNO CHANDLER DWTN AP|2022|02|13|08|55|36.7333|-119.8167|84.1|11.0||1|FM15-METAR|223|ICAO-KFCH|8.0||1|FM15-METAR|223|ICAO-KFCH|||||||||||||300|N-Normal|1|FM15-METAR|223|ICAO-KFCH|1.5|N-Normal|1|FM15-METAR|223|ICAO-KFCH|||||||||||||82|Derived||FM15-METAR|223|ICAO-KFCH|||||||||||||||||||||||||||||||||||||||||||||||||||||||||||||||||||||||||1023.4||1|FM15-METAR|223|ICAO-KFCH|||||||||||||||||||||||||||||||||||||||||||MET061METAR KFCH 130855Z AUTO 30003KT 10SM CLR 11/08 A3022 RMK A01=||F||223|ICAO-KFCH
USW00023167|FRESNO CHANDLER DWTN AP|2022|02|13|09|15|36.7333|-119.8167|84.1|10.0||1|FM15-METAR|223|ICAO-KFCH|7.0||1|FM15-METAR|223|ICAO-KFCH|||||||||||||260|N-Normal|1|FM15-METAR|223|ICAO-KFCH|1.5|N-Normal|1|FM15-METAR|223|ICAO-KFCH|||||||||||||82|Derived||FM15-METAR|223|ICAO-KFCH|||||||||||||||||||||||||||||||||||||||||||||||||||||||||||||||||||||||||1023.4||1|FM15-METAR|223|ICAO-KFCH|||||||||||||||||||||||||||||||||||||||||||MET071METAR KFCH 130915Z AUTO 26003KT 10SM FEW024 FEW036 10/07 A3022 RMK A01=||F||223|ICAO-KFCH
USW00023167|FRESNO CHANDLER DWTN AP|2022|02|13|09|35|36.7333|-119.8167|84.1|10.0||1|FM15-METAR|223|ICAO-KFCH|7.0||1|FM15-METAR|223|ICAO-KFCH|||||||||||||999|C-Calm|9|FM15-METAR|223|ICAO-KFCH|0.0|C-Calm|1|FM15-METAR|223|ICAO-KFCH|||||||||||||82|Derived||FM15-METAR|223|ICAO-KFCH|||||||||||||||||||||||||||||||||||||||||||||||||||||||||||||||||||||||||1023.4||1|FM15-METAR|223|ICAO-KFCH|||||||||||||||||||||||||||||||||||||||||||MET071METAR KFCH 130935Z AUTO 00000KT 10SM FEW022 FEW028 10/07 A3022 RMK A01=||F||223|ICAO-KFCH
USW00023167|FRESNO CHANDLER DWTN AP|2022|02|13|09|55|36.7333|-119.8167|84.1|9.0||1|FM15-METAR|223|ICAO-KFCH|7.0||1|FM15-METAR|223|ICAO-KFCH|||||||||||||999|C-Calm|9|FM15-METAR|223|ICAO-KFCH|0.0|C-Calm|1|FM15-METAR|223|ICAO-KFCH|||||||||||||87|Derived||FM15-METAR|223|ICAO-KFCH|||||||||||||||||||||||||||||||||||||||||||||||||||||||||||||||||||||||||1023.4||1|FM15-METAR|223|ICAO-KFCH|||||||||||||||||||||||||||||||||||||||||||MET078METAR KFCH 130955Z AUTO 00000KT 10SM SCT023 SCT029 SCT038 09/07 A3022 RMK A01=||F||223|ICAO-KFCH
USW00023167|FRESNO CHANDLER DWTN AP|2022|02|13|10|15|36.7333|-119.8167|84.1|9.0||1|FM15-METAR|223|ICAO-KFCH|6.0||1|FM15-METAR|223|ICAO-KFCH|||||||||||||||||||||||||||||||||||||82|Derived||FM15-METAR|223|ICAO-KFCH|||||||||||||||||||||||||||||||||||||||||||||||||||||||||||||||||||||||||1023.4||1|FM15-METAR|223|ICAO-KFCH|||||||||||||||||||||||||||||||||||||||||||MET063METAR KFCH 131015Z AUTO 10SM SCT021 BKN027 09/06 A3022 RMK A01=||F||223|ICAO-KFCH
USW00023167|FRESNO CHANDLER DWTN AP|2022|02|13|10|35|36.7333|-119.8167|84.1|9.0||1|FM15-METAR|223|ICAO-KFCH|7.0||1|FM15-METAR|223|ICAO-KFCH|||||||||||||999|C-Calm|9|FM15-METAR|223|ICAO-KFCH|0.0|C-Calm|1|FM15-METAR|223|ICAO-KFCH|||||||||||||87|Derived||FM15-METAR|223|ICAO-KFCH|||||||||||||||||||||||||||||||||||||||||||||||||||||||||||||||||||||||||1023.4||1|FM15-METAR|223|ICAO-KFCH|||||||||||||||||||||||||||||||||||||||||||MET071METAR KFCH 131035Z AUTO 00000KT 10SM BKN021 OVC027 09/07 A3022 RMK A01=||F||223|ICAO-KFCH
USW00023167|FRESNO CHANDLER DWTN AP|2022|02|13|10|55|36.7333|-119.8167|84.1|9.0||1|FM15-METAR|223|ICAO-KFCH|6.0||1|FM15-METAR|223|ICAO-KFCH|||||||||||||999|C-Calm|9|FM15-METAR|223|ICAO-KFCH|0.0|C-Calm|1|FM15-METAR|223|ICAO-KFCH|||||||||||||82|Derived||FM15-METAR|223|ICAO-KFCH|||||||||||||||||||||||||||||||||||||||||||||||||||||||||||||||||||||||||1023.0||1|FM15-METAR|223|ICAO-KFCH|||||||||||||||||||||||||||||||||||||||||||MET064METAR KFCH 131055Z AUTO 00000KT 10SM OVC021 09/06 A3021 RMK A01=||F||223|ICAO-KFCH
USW00023167|FRESNO CHANDLER DWTN AP|2022|02|13|11|15|36.7333|-119.8167|84.1|9.0||1|FM15-METAR|223|ICAO-KFCH|7.0||1|FM15-METAR|223|ICAO-KFCH|||||||||||||999|C-Calm|9|FM15-METAR|223|ICAO-KFCH|0.0|C-Calm|1|FM15-METAR|223|ICAO-KFCH|||||||||||||87|Derived||FM15-METAR|223|ICAO-KFCH|||||||||||||||||||||||||||||||||||||||||||||||||||||||||||||||||||||||||1023.4||1|FM15-METAR|223|ICAO-KFCH|||||||||||||||||||||||||||||||||||||||||||MET071METAR KFCH 131115Z AUTO 00000KT 10SM BKN024 OVC029 09/07 A3022 RMK A01=||F||223|ICAO-KFCH
USW00023167|FRESNO CHANDLER DWTN AP|2022|02|13|11|35|36.7333|-119.8167|84.1|9.0||1|FM15-METAR|223|ICAO-KFCH|7.0||1|FM15-METAR|223|ICAO-KFCH|||||||||||||999|C-Calm|9|FM15-METAR|223|ICAO-KFCH|0.0|C-Calm|1|FM15-METAR|223|ICAO-KFCH|||||||||||||87|Derived||FM15-METAR|223|ICAO-KFCH|||||||||||||||||||||||||||||||||||||||||||||||||||||||||||||||||||||||||1023.0||1|FM15-METAR|223|ICAO-KFCH|||||||||||||||||||||||||||||||||||||||||||MET071METAR KFCH 131135Z AUTO 00000KT 10SM SCT025 BKN029 09/07 A3021 RMK A01=||F||223|ICAO-KFCH
USW00023167|FRESNO CHANDLER DWTN AP|2022|02|13|11|55|36.7333|-119.8167|84.1|8.0||1|FM15-METAR|223|ICAO-KFCH|6.0||1|FM15-METAR|223|ICAO-KFCH|||||||||||||999|C-Calm|9|FM15-METAR|223|ICAO-KFCH|0.0|C-Calm|1|FM15-METAR|223|ICAO-KFCH|||||||||||||87|Derived||FM15-METAR|223|ICAO-KFCH|||||||||||||||||||||||||||||||||||||||||||||||||||||||||||||||||||||||||1023.0||1|FM15-METAR|223|ICAO-KFCH|||||||||||||||||||||||||||||||||||||||||||MET071METAR KFCH 131155Z AUTO 00000KT 10SM FEW004 FEW026 08/06 A3021 RMK A01=||F||223|ICAO-KFCH
USW00023167|FRESNO CHANDLER DWTN AP|2022|02|13|12|15|36.7333|-119.8167|84.1|||||||||||||||||||||||||999|C-Calm|9|FM15-METAR|223|ICAO-KFCH|0.0|C-Calm|1|FM15-METAR|223|ICAO-KFCH|||||||||||||||||||||||||||||||||||||||||||||||||||||||||||||||||||||||||||||||||||||||||||1023.0||1|FM15-METAR|223|ICAO-KFCH|||||||||||||||||||||||||||||||||||||||||||MET051METAR KFCH 131215Z AUTO 00000KT 10SM A3021 RMK A01=||F||223|ICAO-KFCH
USW00023167|FRESNO CHANDLER DWTN AP|2022|02|13|12|35|36.7333|-119.8167|84.1|8.0||1|FM15-METAR|223|ICAO-KFCH|6.0||1|FM15-METAR|223|ICAO-KFCH|||||||||||||999|C-Calm|9|FM15-METAR|223|ICAO-KFCH|0.0|C-Calm|1|FM15-METAR|223|ICAO-KFCH|||||||||||||87|Derived||FM15-METAR|223|ICAO-KFCH|||||||||||||||||||||||||||||||||||||||||||||||||||||||||||||||||||||||||1023.0||1|FM15-METAR|223|ICAO-KFCH|||||||||||||||||||||||||||||||||||||||||||MET057METAR KFCH 131235Z AUTO 00000KT 10SM 08/06 A3021 RMK A01=||F||223|ICAO-KFCH
USW00023167|FRESNO CHANDLER DWTN AP|2022|02|13|12|55|36.7333|-119.8167|84.1|8.0||1|FM15-METAR|223|ICAO-KFCH|6.0||1|FM15-METAR|223|ICAO-KFCH|||||||||||||999|C-Calm|9|FM15-METAR|223|ICAO-KFCH|0.0|C-Calm|1|FM15-METAR|223|ICAO-KFCH|||||||||||||87|Derived||FM15-METAR|223|ICAO-KFCH|||||||||||||||||||||||||||||||||||||||||||||||||||||||||||||||||||||||||1023.4||1|FM15-METAR|223|ICAO-KFCH|||||||||||||||||||||||||||||||||||||||||||MET057METAR KFCH 131255Z AUTO 00000KT 10SM 08/06 A3022 RMK A01=||F||223|ICAO-KFCH
USW00023167|FRESNO CHANDLER DWTN AP|2022|02|13|13|15|36.7333|-119.8167|84.1|8.0||1|FM15-METAR|223|ICAO-KFCH|6.0||1|FM15-METAR|223|ICAO-KFCH|||||||||||||999|C-Calm|9|FM15-METAR|223|ICAO-KFCH|0.0|C-Calm|1|FM15-METAR|223|ICAO-KFCH|||||||||||||87|Derived||FM15-METAR|223|ICAO-KFCH|||||||||||||||||||||||||||||||||||||||||||||||||||||||||||||||||||||||||1023.4||1|FM15-METAR|223|ICAO-KFCH|||||||||||||||||||||||||||||||||||||||||||MET057METAR KFCH 131315Z AUTO 00000KT 10SM 08/06 A3022 RMK A01=||F||223|ICAO-KFCH
USW00023167|FRESNO CHANDLER DWTN AP|2022|02|13|13|35|36.7333|-119.8167|84.1|7.0||1|FM15-METAR|223|ICAO-KFCH|6.0||1|FM15-METAR|223|ICAO-KFCH|||||||||||||999|C-Calm|9|FM15-METAR|223|ICAO-KFCH|0.0|C-Calm|1|FM15-METAR|223|ICAO-KFCH|||||||||||||93|Derived||FM15-METAR|223|ICAO-KFCH|||||||||||||||||||||||||||||||||||||||||||||||||||||||||||||||||||||||||1023.7||1|FM15-METAR|223|ICAO-KFCH|||||||||||||||||||||||||||||||||||||||||||MET061METAR KFCH 131335Z AUTO 00000KT 10SM CLR 07/06 A3023 RMK A01=||F||223|ICAO-KFCH
USW00023167|FRESNO CHANDLER DWTN AP|2022|02|13|13|55|36.7333|-119.8167|84.1|7.0||1|FM15-METAR|223|ICAO-KFCH|6.0||1|FM15-METAR|223|ICAO-KFCH|||||||||||||999|C-Calm|9|FM15-METAR|223|ICAO-KFCH|0.0|C-Calm|1|FM15-METAR|223|ICAO-KFCH|||||||||||||93|Derived||FM15-METAR|223|ICAO-KFCH|||||||||||||||||||||||||||||||||||||||||||||||||||||||||||||||||||||||||1023.7||1|FM15-METAR|223|ICAO-KFCH|||||||||||||||||||||||||||||||||||||||||||MET061METAR KFCH 131355Z AUTO 00000KT 10SM CLR 07/06 A3023 RMK A01=||F||223|ICAO-KFCH
USW00023167|FRESNO CHANDLER DWTN AP|2022|02|13|14|15|36.7333|-119.8167|84.1|7.0||1|FM15-METAR|223|ICAO-KFCH|6.0||1|FM15-METAR|223|ICAO-KFCH|||||||||||||999|C-Calm|9|FM15-METAR|223|ICAO-KFCH|0.0|C-Calm|1|FM15-METAR|223|ICAO-KFCH|||||||||||||93|Derived||FM15-METAR|223|ICAO-KFCH|||||||||||||||||||||||||||||||||||||||||||||||||||||||||||||||||||||||||1023.7||1|FM15-METAR|223|ICAO-KFCH|||||||||||||||||||||||||||||||||||||||||||MET061METAR KFCH 131415Z AUTO 00000KT 10SM CLR 07/06 A3023 RMK A01=||F||223|ICAO-KFCH
USW00023167|FRESNO CHANDLER DWTN AP|2022|02|13|14|35|36.7333|-119.8167|84.1|7.0||1|FM15-METAR|223|ICAO-KFCH|6.0||1|FM15-METAR|223|ICAO-KFCH|||||||||||||999|C-Calm|9|FM15-METAR|223|ICAO-KFCH|0.0|C-Calm|1|FM15-METAR|223|ICAO-KFCH|||||||||||||93|Derived||FM15-METAR|223|ICAO-KFCH|||||||||||||||||||||||||||||||||||||||||||||||||||||||||||||||||||||||||1024.0||1|FM15-METAR|223|ICAO-KFCH|||||||||||||||||||||||||||||||||||||||||||MET061METAR KFCH 131435Z AUTO 00000KT 10SM CLR 07/06 A3024 RMK A01=||F||223|ICAO-KFCH
USW00023167|FRESNO CHANDLER DWTN AP|2022|02|13|14|50|36.7333|-119.8167|84.1|7.0||1|FM15-METAR|223|ICAO-KFCH|5.0||1|FM15-METAR|223|ICAO-KFCH|||||||||||||999|C-Calm|9|FM15-METAR|223|ICAO-KFCH|0.0|C-Calm|1|FM15-METAR|223|ICAO-KFCH|||||||||||||87|Derived||FM15-METAR|223|ICAO-KFCH|||||||||||||||||||||||||||||||||||||||||||||||||||||||||||||||||||||||||1024.0||1|FM15-METAR|223|ICAO-KFCH|||||||||||||||||||||||||||||||||||||||||||MET061METAR KFCH 131450Z AUTO 00000KT 10SM CLR 07/05 A3024 RMK A01=||F||223|ICAO-KFCH
USW00023167|FRESNO CHANDLER DWTN AP|2022|02|13|15|15|36.7333|-119.8167|84.1|7.0||1|FM15-METAR|223|ICAO-KFCH|5.0||1|FM15-METAR|223|ICAO-KFCH|||||||||||||999|C-Calm|9|FM15-METAR|223|ICAO-KFCH|0.0|C-Calm|1|FM15-METAR|223|ICAO-KFCH|||||||||||||87|Derived||FM15-METAR|223|ICAO-KFCH|||||||||||||||||||||||||||||||||||||||||||||||||||||||||||||||||||||||||1024.4||1|FM15-METAR|223|ICAO-KFCH|||||||||||||||||||||||||||||||||||||||||||MET061METAR KFCH 131515Z AUTO 00000KT 10SM CLR 07/05 A3025 RMK A01=||F||223|ICAO-KFCH
USW00023167|FRESNO CHANDLER DWTN AP|2022|02|13|15|35|36.7333|-119.8167|84.1|8.0||1|FM15-METAR|223|ICAO-KFCH|6.0||1|FM15-METAR|223|ICAO-KFCH|||||||||||||999|C-Calm|9|FM15-METAR|223|ICAO-KFCH|0.0|C-Calm|1|FM15-METAR|223|ICAO-KFCH|||||||||||||87|Derived||FM15-METAR|223|ICAO-KFCH|||||||||||||||||||||||||||||||||||||||||||||||||||||||||||||||||||||||||1024.4||1|FM15-METAR|223|ICAO-KFCH|||||||||||||||||||||||||||||||||||||||||||MET061METAR KFCH 131535Z AUTO 00000KT 10SM CLR 08/06 A3025 RMK A01=||F||223|ICAO-KFCH
USW00023167|FRESNO CHANDLER DWTN AP|2022|02|13|15|50|36.7333|-119.8167|84.1|9.0||1|FM15-METAR|223|ICAO-KFCH|6.0||1|FM15-METAR|223|ICAO-KFCH|||||||||||||999|C-Calm|9|FM15-METAR|223|ICAO-KFCH|0.0|C-Calm|1|FM15-METAR|223|ICAO-KFCH|||||||||||||82|Derived||FM15-METAR|223|ICAO-KFCH|||||||||||||||||||||||||||||||||||||||||||||||||||||||||||||||||||||||||1024.7||1|FM15-METAR|223|ICAO-KFCH|||||||||||||||||||||||||||||||||||||||||||MET061METAR KFCH 131550Z AUTO 00000KT 10SM CLR 09/06 A3026 RMK A01=||F||223|ICAO-KFCH
USW00023167|FRESNO CHANDLER DWTN AP|2022|02|13|16|15|36.7333|-119.8167|84.1|12.0||1|FM15-METAR|223|ICAO-KFCH|7.0||1|FM15-METAR|223|ICAO-KFCH|||||||||||||120|N-Normal|1|FM15-METAR|223|ICAO-KFCH|1.5|N-Normal|1|FM15-METAR|223|ICAO-KFCH|||||||||||||72|Derived||FM15-METAR|223|ICAO-KFCH|||||||||||||||||||||||||||||||||||||||||||||||||||||||||||||||||||||||||1024.7||1|FM15-METAR|223|ICAO-KFCH|||||||||||||||||||||||||||||||||||||||||||MET061METAR KFCH 131615Z AUTO 12003KT 10SM CLR 12/07 A3026 RMK A01=||F||223|ICAO-KFCH
USW00023167|FRESNO CHANDLER DWTN AP|2022|02|13|16|30|36.7333|-119.8167|84.1|13.0||1|FM15-METAR|223|ICAO-KFCH|7.0||1|FM15-METAR|223|ICAO-KFCH|||||||||||||100|N-Normal|1|FM15-METAR|223|ICAO-KFCH|2.1|N-Normal|1|FM15-METAR|223|ICAO-KFCH|||||||||||||67|Derived||FM15-METAR|223|ICAO-KFCH|||||||||||||||||||||||||||||||||||||||||||||||||||||||||||||||||||||||||1024.7||1|FM15-METAR|223|ICAO-KFCH|||||||||||||||||||||||||||||||||||||||||||MET061METAR KFCH 131630Z AUTO 10004KT 10SM CLR 13/07 A3026 RMK A01=||F||223|ICAO-KFCH
USW00023167|FRESNO CHANDLER DWTN AP|2022|02|13|16|50|36.7333|-119.8167|84.1|14.0||1|FM15-METAR|223|ICAO-KFCH|7.0||1|FM15-METAR|223|ICAO-KFCH|||||||||||||140|N-Normal|1|FM15-METAR|223|ICAO-KFCH|1.5|N-Normal|1|FM15-METAR|223|ICAO-KFCH|||||||||||||63|Derived||FM15-METAR|223|ICAO-KFCH|||||||||||||||||||||||||||||||||||||||||||||||||||||||||||||||||||||||||1025.1||1|FM15-METAR|223|ICAO-KFCH|||||||||||||||||||||||||||||||||||||||||||MET061METAR KFCH 131650Z AUTO 14003KT 10SM CLR 14/07 A3027 RMK A01=||F||223|ICAO-KFCH
USW00023167|FRESNO CHANDLER DWTN AP|2022|02|13|17|10|36.7333|-119.8167|84.1|15.0||1|FM15-METAR|223|ICAO-KFCH|6.0||1|FM15-METAR|223|ICAO-KFCH|||||||||||||160|N-Normal|1|FM15-METAR|223|ICAO-KFCH|1.5|N-Normal|1|FM15-METAR|223|ICAO-KFCH|||||||||||||55|Derived||FM15-METAR|223|ICAO-KFCH|||||||||||||||||||||||||||||||||||||||||||||||||||||||||||||||||||||||||1025.4||1|FM15-METAR|223|ICAO-KFCH|||||||||||||||||||||||||||||||||||||||||||MET061METAR KFCH 131710Z AUTO 16003KT 10SM CLR 15/06 A3028 RMK A01=||F||223|ICAO-KFCH
USW00023167|FRESNO CHANDLER DWTN AP|2022|02|13|17|30|36.7333|-119.8167|84.1|16.0||1|FM15-METAR|223|ICAO-KFCH|6.0||1|FM15-METAR|223|ICAO-KFCH|||||||||||||140|N-Normal|1|FM15-METAR|223|ICAO-KFCH|2.1|N-Normal|1|FM15-METAR|223|ICAO-KFCH|||||||||||||52|Derived||FM15-METAR|223|ICAO-KFCH|||||||||||||||||||||||||||||||||||||||||||||||||||||||||||||||||||||||||1025.4||1|FM15-METAR|223|ICAO-KFCH|||||||||||||||||||||||||||||||||||||||||||MET061METAR KFCH 131730Z AUTO 14004KT 10SM CLR 16/06 A3028 RMK A01=||F||223|ICAO-KFCH
USW00023167|FRESNO CHANDLER DWTN AP|2022|02|13|17|50|36.7333|-119.8167|84.1|17.0||1|FM15-METAR|223|ICAO-KFCH|6.0||1|FM15-METAR|223|ICAO-KFCH|||||||||||||140|N-Normal|1|FM15-METAR|223|ICAO-KFCH|2.1|N-Normal|1|FM15-METAR|223|ICAO-KFCH|||||||||||||49|Derived||FM15-METAR|223|ICAO-KFCH|||||||||||||||||||||||||||||||||||||||||||||||||||||||||||||||||||||||||1025.4||1|FM15-METAR|223|ICAO-KFCH|||||||||||||||||||||||||||||||||||||||||||MET061METAR KFCH 131750Z AUTO 14004KT 10SM CLR 17/06 A3028 RMK A01=||F||223|ICAO-KFCH
USW00023167|FRESNO CHANDLER DWTN AP|2022|02|13|18|15|36.7333|-119.8167|84.1|19.0||1|FM15-METAR|223|ICAO-KFCH|6.0||1|FM15-METAR|223|ICAO-KFCH|||||||||||||140|N-Normal|1|FM15-METAR|223|ICAO-KFCH|1.5|N-Normal|1|FM15-METAR|223|ICAO-KFCH|||||||||||||43|Derived||FM15-METAR|223|ICAO-KFCH|||||||||||||||||||||||||||||||||||||||||||||||||||||||||||||||||||||||||1025.4||1|FM15-METAR|223|ICAO-KFCH|||||||||||||||||||||||||||||||||||||||||||MET061METAR KFCH 131815Z AUTO 14003KT 10SM CLR 19/06 A3028 RMK A01=||F||223|ICAO-KFCH
USW00023167|FRESNO CHANDLER DWTN AP|2022|02|13|18|35|36.7333|-119.8167|84.1|20.0||1|FM15-METAR|223|ICAO-KFCH|5.0||1|FM15-METAR|223|ICAO-KFCH|||||||||||||150|N-Normal|1|FM15-METAR|223|ICAO-KFCH|1.5|N-Normal|1|FM15-METAR|223|ICAO-KFCH|||||||||||||38|Derived||FM15-METAR|223|ICAO-KFCH|||||||||||||||||||||||||||||||||||||||||||||||||||||||||||||||||||||||||1025.4||1|FM15-METAR|223|ICAO-KFCH|||||||||||||||||||||||||||||||||||||||||||MET061METAR KFCH 131835Z AUTO 15003KT 10SM CLR 20/05 A3028 RMK A01=||F||223|ICAO-KFCH
USW00023167|FRESNO CHANDLER DWTN AP|2022|02|13|18|55|36.7333|-119.8167|84.1|22.0||1|FM15-METAR|223|ICAO-KFCH|5.0||1|FM15-METAR|223|ICAO-KFCH|||||||||||||999|V-Variable|9|FM15-METAR|223|ICAO-KFCH|2.1|V-Variable|1|FM15-METAR|223|ICAO-KFCH|||||||||||||33|Derived||FM15-METAR|223|ICAO-KFCH|||||||||||||||||||||||||||||||||||||||||||||||||||||||||||||||||||||||||1025.4||1|FM15-METAR|223|ICAO-KFCH|||||||||||||||||||||||||||||||||||||||||||MET061METAR KFCH 131855Z AUTO VRB04KT 10SM CLR 22/05 A3028 RMK A01=||F||223|ICAO-KFCH
USW00023167|FRESNO CHANDLER DWTN AP|2022|02|13|19|15|36.7333|-119.8167|84.1|22.0||1|FM15-METAR|223|ICAO-KFCH|4.0||1|FM15-METAR|223|ICAO-KFCH|||||||||||||999|C-Calm|9|FM15-METAR|223|ICAO-KFCH|0.0|C-Calm|1|FM15-METAR|223|ICAO-KFCH|||||||||||||31|Derived||FM15-METAR|223|ICAO-KFCH|||||||||||||||||||||||||||||||||||||||||||||||||||||||||||||||||||||||||1025.1||1|FM15-METAR|223|ICAO-KFCH|||||||||||||||||||||||||||||||||||||||||||MET061METAR KFCH 131915Z AUTO 00000KT 10SM CLR 22/04 A3027 RMK A01=||F||223|ICAO-KFCH
USW00023167|FRESNO CHANDLER DWTN AP|2022|02|13|19|35|36.7333|-119.8167|84.1|23.0||1|FM15-METAR|223|ICAO-KFCH|5.0||1|FM15-METAR|223|ICAO-KFCH|||||||||||||999|C-Calm|9|FM15-METAR|223|ICAO-KFCH|0.0|C-Calm|1|FM15-METAR|223|ICAO-KFCH|||||||||||||31|Derived||FM15-METAR|223|ICAO-KFCH|||||||||||||||||||||||||||||||||||||||||||||||||||||||||||||||||||||||||1024.7||1|FM15-METAR|223|ICAO-KFCH|||||||||||||||||||||||||||||||||||||||||||MET061METAR KFCH 131935Z AUTO 00000KT 10SM CLR 23/05 A3026 RMK A01=||F||223|ICAO-KFCH
USW00023167|FRESNO CHANDLER DWTN AP|2022|02|13|19|55|36.7333|-119.8167|84.1|23.0||1|FM15-METAR|223|ICAO-KFCH|5.0||1|FM15-METAR|223|ICAO-KFCH|||||||||||||999|C-Calm|9|FM15-METAR|223|ICAO-KFCH|0.0|C-Calm|1|FM15-METAR|223|ICAO-KFCH|||||||||||||31|Derived||FM15-METAR|223|ICAO-KFCH|||||||||||||||||||||||||||||||||||||||||||||||||||||||||||||||||||||||||1024.7||1|FM15-METAR|223|ICAO-KFCH|||||||||||||||||||||||||||||||||||||||||||MET061METAR KFCH 131955Z AUTO 00000KT 10SM CLR 23/05 A3026 RMK A01=||F||223|ICAO-KFCH
USW00023167|FRESNO CHANDLER DWTN AP|2022|02|13|20|15|36.7333|-119.8167|84.1|24.0||1|FM15-METAR|223|ICAO-KFCH|5.0||1|FM15-METAR|223|ICAO-KFCH|||||||||||||999|C-Calm|9|FM15-METAR|223|ICAO-KFCH|0.0|C-Calm|1|FM15-METAR|223|ICAO-KFCH|||||||||||||29|Derived||FM15-METAR|223|ICAO-KFCH|||||||||||||||||||||||||||||||||||||||||||||||||||||||||||||||||||||||||1024.4||1|FM15-METAR|223|ICAO-KFCH|||||||||||||||||||||||||||||||||||||||||||MET061METAR KFCH 132015Z AUTO 00000KT 10SM CLR 24/05 A3025 RMK A01=||F||223|ICAO-KFCH
USW00023167|FRESNO CHANDLER DWTN AP|2022|02|13|20|35|36.7333|-119.8167|84.1|24.0||1|FM15-METAR|223|ICAO-KFCH|5.0||1|FM15-METAR|223|ICAO-KFCH|||||||||||||999|C-Calm|9|FM15-METAR|223|ICAO-KFCH|0.0|C-Calm|1|FM15-METAR|223|ICAO-KFCH|||||||||||||29|Derived||FM15-METAR|223|ICAO-KFCH|||||||||||||||||||||||||||||||||||||||||||||||||||||||||||||||||||||||||1024.0||1|FM15-METAR|223|ICAO-KFCH|||||||||||||||||||||||||||||||||||||||||||MET061METAR KFCH 132035Z AUTO 00000KT 10SM CLR 24/05 A3024 RMK A01=||F||223|ICAO-KFCH
USW00023167|FRESNO CHANDLER DWTN AP|2022|02|13|20|55|36.7333|-119.8167|84.1|24.0||1|FM15-METAR|223|ICAO-KFCH|5.0||1|FM15-METAR|223|ICAO-KFCH|||||||||||||999|C-Calm|9|FM15-METAR|223|ICAO-KFCH|0.0|C-Calm|1|FM15-METAR|223|ICAO-KFCH|||||||||||||29|Derived||FM15-METAR|223|ICAO-KFCH|||||||||||||||||||||||||||||||||||||||||||||||||||||||||||||||||||||||||1023.7||1|FM15-METAR|223|ICAO-KFCH|||||||||||||||||||||||||||||||||||||||||||MET061METAR KFCH 132055Z AUTO 00000KT 10SM CLR 24/05 A3023 RMK A01=||F||223|ICAO-KFCH
USW00023167|FRESNO CHANDLER DWTN AP|2022|02|13|21|15|36.7333|-119.8167|84.1|25.0||1|FM15-METAR|223|ICAO-KFCH|5.0||1|FM15-METAR|223|ICAO-KFCH|||||||||||||999|C-Calm|9|FM15-METAR|223|ICAO-KFCH|0.0|C-Calm|1|FM15-METAR|223|ICAO-KFCH|||||||||||||28|Derived||FM15-METAR|223|ICAO-KFCH|||||||||||||||||||||||||||||||||||||||||||||||||||||||||||||||||||||||||1023.4||1|FM15-METAR|223|ICAO-KFCH|||||||||||||||||||||||||||||||||||||||||||MET061METAR KFCH 132115Z AUTO 00000KT 10SM CLR 25/05 A3022 RMK A01=||F||223|ICAO-KFCH
USW00023167|FRESNO CHANDLER DWTN AP|2022|02|13|21|35|36.7333|-119.8167|84.1|25.0||1|FM15-METAR|223|ICAO-KFCH|5.0||1|FM15-METAR|223|ICAO-KFCH|||||||||||||999|C-Calm|9|FM15-METAR|223|ICAO-KFCH|0.0|C-Calm|1|FM15-METAR|223|ICAO-KFCH|||||||||||||28|Derived||FM15-METAR|223|ICAO-KFCH|||||||||||||||||||||||||||||||||||||||||||||||||||||||||||||||||||||||||1023.0||1|FM15-METAR|223|ICAO-KFCH|||||||||||||||||||||||||||||||||||||||||||MET061METAR KFCH 132135Z AUTO 00000KT 10SM CLR 25/05 A3021 RMK A01=||F||223|ICAO-KFCH
USW00023167|FRESNO CHANDLER DWTN AP|2022|02|13|21|55|36.7333|-119.8167|84.1|26.0||1|FM15-METAR|223|ICAO-KFCH|4.0||1|FM15-METAR|223|ICAO-KFCH|||||||||||||999|C-Calm|9|FM15-METAR|223|ICAO-KFCH|0.0|C-Calm|1|FM15-METAR|223|ICAO-KFCH|||||||||||||24|Derived||FM15-METAR|223|ICAO-KFCH|||||||||||||||||||||||||||||||||||||||||||||||||||||||||||||||||||||||||1023.0||1|FM15-METAR|223|ICAO-KFCH|||||||||||||||||||||||||||||||||||||||||||MET061METAR KFCH 132155Z AUTO 00000KT 10SM CLR 26/04 A3021 RMK A01=||F||223|ICAO-KFCH
USW00023167|FRESNO CHANDLER DWTN AP|2022|02|13|22|15|36.7333|-119.8167|84.1|26.0||1|FM15-METAR|223|ICAO-KFCH|5.0||1|FM15-METAR|223|ICAO-KFCH|||||||||||||999|C-Calm|9|FM15-METAR|223|ICAO-KFCH|0.0|C-Calm|1|FM15-METAR|223|ICAO-KFCH|||||||||||||26|Derived||FM15-METAR|223|ICAO-KFCH|||||||||||||||||||||||||||||||||||||||||||||||||||||||||||||||||||||||||1022.7||1|FM15-METAR|223|ICAO-KFCH|||||||||||||||||||||||||||||||||||||||||||MET061METAR KFCH 132215Z AUTO 00000KT 10SM CLR 26/05 A3020 RMK A01=||F||223|ICAO-KFCH
USW00023167|FRESNO CHANDLER DWTN AP|2022|02|13|22|35|36.7333|-119.8167|84.1|26.0||1|FM15-METAR|223|ICAO-KFCH|5.0||1|FM15-METAR|223|ICAO-KFCH|||||||||||||999|C-Calm|9|FM15-METAR|223|ICAO-KFCH|0.0|C-Calm|1|FM15-METAR|223|ICAO-KFCH|||||||||||||26|Derived||FM15-METAR|223|ICAO-KFCH|||||||||||||||||||||||||||||||||||||||||||||||||||||||||||||||||||||||||1022.3||1|FM15-METAR|223|ICAO-KFCH|||||||||||||||||||||||||||||||||||||||||||MET061METAR KFCH 132235Z AUTO 00000KT 10SM CLR 26/05 A3019 RMK A01=||F||223|ICAO-KFCH
USW00023167|FRESNO CHANDLER DWTN AP|2022|02|13|22|55|36.7333|-119.8167|84.1|26.0||1|FM15-METAR|223|ICAO-KFCH|5.0||1|FM15-METAR|223|ICAO-KFCH|||||||||||||999|C-Calm|9|FM15-METAR|223|ICAO-KFCH|0.0|C-Calm|1|FM15-METAR|223|ICAO-KFCH|||||||||||||26|Derived||FM15-METAR|223|ICAO-KFCH|||||||||||||||||||||||||||||||||||||||||||||||||||||||||||||||||||||||||1022.3||1|FM15-METAR|223|ICAO-KFCH|||||||||||||||||||||||||||||||||||||||||||MET061METAR KFCH 132255Z AUTO 00000KT 10SM CLR 26/05 A3019 RMK A01=||F||223|ICAO-KFCH
USW00023167|FRESNO CHANDLER DWTN AP|2022|02|13|23|10|36.7333|-119.8167|84.1|26.0||1|FM15-METAR|223|ICAO-KFCH|5.0||1|FM15-METAR|223|ICAO-KFCH|||||||||||||999|C-Calm|9|FM15-METAR|223|ICAO-KFCH|0.0|C-Calm|1|FM15-METAR|223|ICAO-KFCH|||||||||||||26|Derived||FM15-METAR|223|ICAO-KFCH|||||||||||||||||||||||||||||||||||||||||||||||||||||||||||||||||||||||||1022.3||1|FM15-METAR|223|ICAO-KFCH|||||||||||||||||||||||||||||||||||||||||||MET061METAR KFCH 132310Z AUTO 00000KT 10SM CLR 26/05 A3019 RMK A01=||F||223|ICAO-KFCH
USW00023167|FRESNO CHANDLER DWTN AP|2022|02|13|23|35|36.7333|-119.8167|84.1|26.0||1|FM15-METAR|223|ICAO-KFCH|4.0||1|FM15-METAR|223|ICAO-KFCH|||||||||||||310|N-Normal|1|FM15-METAR|223|ICAO-KFCH|2.1|N-Normal|1|FM15-METAR|223|ICAO-KFCH|||||||||||||24|Derived||FM15-METAR|223|ICAO-KFCH|||||||||||||||||||||||||||||||||||||||||||||||||||||||||||||||||||||||||1022.0||1|FM15-METAR|223|ICAO-KFCH|||||||||||||||||||||||||||||||||||||||||||MET061METAR KFCH 132335Z AUTO 31004KT 10SM CLR 26/04 A3018 RMK A01=||F||223|ICAO-KFCH
USW00023167|FRESNO CHANDLER DWTN AP|2022|02|13|23|55|36.7333|-119.8167|84.1|26.0||1|FM15-METAR|223|ICAO-KFCH|4.0||1|FM15-METAR|223|ICAO-KFCH|||||||||||||290|N-Normal|1|FM15-METAR|223|ICAO-KFCH|2.1|N-Normal|1|FM15-METAR|223|ICAO-KFCH|||||||||||||24|Derived||FM15-METAR|223|ICAO-KFCH|||||||||||||||||||||||||||||||||||||||||||||||||||||||||||||||||||||||||1021.7||1|FM15-METAR|223|ICAO-KFCH|||||||||||||||||||||||||||||||||||||||||||MET061METAR KFCH 132355Z AUTO 29004KT 10SM CLR 26/04 A3017 RMK A01=||F||223|ICAO-KFCH
USW00023167|FRESNO CHANDLER DWTN AP|2022|02|14|00|15|36.7333|-119.8167|84.1|26.0||1|FM15-METAR|223|ICAO-KFCH|5.0||1|FM15-METAR|223|ICAO-KFCH|||||||||||||999|C-Calm|9|FM15-METAR|223|ICAO-KFCH|0.0|C-Calm|1|FM15-METAR|223|ICAO-KFCH|||||||||||||26|Derived||FM15-METAR|223|ICAO-KFCH|||||||||||||||||||||||||||||||||||||||||||||||||||||||||||||||||||||||||1021.7||1|FM15-METAR|223|ICAO-KFCH|||||||||||||||||||||||||||||||||||||||||||MET061METAR KFCH 140015Z AUTO 00000KT 10SM CLR 26/05 A3017 RMK A01=||F||223|ICAO-KFCH
USW00023167|FRESNO CHANDLER DWTN AP|2022|02|14|00|30|36.7333|-119.8167|84.1|26.0||1|FM15-METAR|223|ICAO-KFCH|5.0||1|FM15-METAR|223|ICAO-KFCH|||||||||||||999|C-Calm|9|FM15-METAR|223|ICAO-KFCH|0.0|C-Calm|1|FM15-METAR|223|ICAO-KFCH|||||||||||||26|Derived||FM15-METAR|223|ICAO-KFCH|||||||||||||||||||||||||||||||||||||||||||||||||||||||||||||||||||||||||1021.7||1|FM15-METAR|223|ICAO-KFCH|||||||||||||||||||||||||||||||||||||||||||MET061METAR KFCH 140030Z AUTO 00000KT 10SM CLR 26/05 A3017 RMK A01=||F||223|ICAO-KFCH
USW00023167|FRESNO CHANDLER DWTN AP|2022|02|14|00|55|36.7333|-119.8167|84.1|25.0||1|FM15-METAR|223|ICAO-KFCH|4.0||1|FM15-METAR|223|ICAO-KFCH|||||||||||||310|N-Normal|1|FM15-METAR|223|ICAO-KFCH|1.5|N-Normal|1|FM15-METAR|223|ICAO-KFCH|||||||||||||26|Derived||FM15-METAR|223|ICAO-KFCH|||||||||||||||||||||||||||||||||||||||||||||||||||||||||||||||||||||||||1021.7||1|FM15-METAR|223|ICAO-KFCH|||||||||||||||||||||||||||||||||||||||||||MET061METAR KFCH 140055Z AUTO 31003KT 10SM CLR 25/04 A3017 RMK A01=||F||223|ICAO-KFCH
USW00023167|FRESNO CHANDLER DWTN AP|2022|02|14|01|15|36.7333|-119.8167|84.1|25.0||1|FM15-METAR|223|ICAO-KFCH|4.0||1|FM15-METAR|223|ICAO-KFCH|||||||||||||999|C-Calm|9|FM15-METAR|223|ICAO-KFCH|0.0|C-Calm|1|FM15-METAR|223|ICAO-KFCH|||||||||||||26|Derived||FM15-METAR|223|ICAO-KFCH|||||||||||||||||||||||||||||||||||||||||||||||||||||||||||||||||||||||||1021.3||1|FM15-METAR|223|ICAO-KFCH|||||||||||||||||||||||||||||||||||||||||||MET061METAR KFCH 140115Z AUTO 00000KT 10SM CLR 25/04 A3016 RMK A01=||F||223|ICAO-KFCH
USW00023167|FRESNO CHANDLER DWTN AP|2022|02|14|01|35|36.7333|-119.8167|84.1|24.0||1|FM15-METAR|223|ICAO-KFCH|5.0||1|FM15-METAR|223|ICAO-KFCH|||||||||||||999|C-Calm|9|FM15-METAR|223|ICAO-KFCH|0.0|C-Calm|1|FM15-METAR|223|ICAO-KFCH|||||||||||||29|Derived||FM15-METAR|223|ICAO-KFCH|||||||||||||||||||||||||||||||||||||||||||||||||||||||||||||||||||||||||1021.3||1|FM15-METAR|223|ICAO-KFCH|||||||||||||||||||||||||||||||||||||||||||MET061METAR KFCH 140135Z AUTO 00000KT 10SM CLR 24/05 A3016 RMK A01=||F||223|ICAO-KFCH
USW00023167|FRESNO CHANDLER DWTN AP|2022|02|14|01|55|36.7333|-119.8167|84.1|22.0||1|FM15-METAR|223|ICAO-KFCH|6.0||1|FM15-METAR|223|ICAO-KFCH|||||||||||||999|C-Calm|9|FM15-METAR|223|ICAO-KFCH|0.0|C-Calm|1|FM15-METAR|223|ICAO-KFCH|||||||||||||36|Derived||FM15-METAR|223|ICAO-KFCH|||||||||||||||||||||||||||||||||||||||||||||||||||||||||||||||||||||||||1021.3||1|FM15-METAR|223|ICAO-KFCH|||||||||||||||||||||||||||||||||||||||||||MET061METAR KFCH 140155Z AUTO 00000KT 10SM CLR 22/06 A3016 RMK A01=||F||223|ICAO-KFCH
USW00023167|FRESNO CHANDLER DWTN AP|2022|02|14|02|15|36.7333|-119.8167|84.1|21.0||1|FM15-METAR|223|ICAO-KFCH|6.0||1|FM15-METAR|223|ICAO-KFCH|||||||||||||999|C-Calm|9|FM15-METAR|223|ICAO-KFCH|0.0|C-Calm|1|FM15-METAR|223|ICAO-KFCH|||||||||||||38|Derived||FM15-METAR|223|ICAO-KFCH|||||||||||||||||||||||||||||||||||||||||||||||||||||||||||||||||||||||||1021.7||1|FM15-METAR|223|ICAO-KFCH|||||||||||||||||||||||||||||||||||||||||||MET061METAR KFCH 140215Z AUTO 00000KT 10SM CLR 21/06 A3017 RMK A01=||F||223|ICAO-KFCH
USW00023167|FRESNO CHANDLER DWTN AP|2022|02|14|02|30|36.7333|-119.8167|84.1|20.0||1|FM15-METAR|223|ICAO-KFCH|6.0||1|FM15-METAR|223|ICAO-KFCH|||||||||||||999|C-Calm|9|FM15-METAR|223|ICAO-KFCH|0.0|C-Calm|1|FM15-METAR|223|ICAO-KFCH|||||||||||||40|Derived||FM15-METAR|223|ICAO-KFCH|||||||||||||||||||||||||||||||||||||||||||||||||||||||||||||||||||||||||1021.7||1|FM15-METAR|223|ICAO-KFCH|||||||||||||||||||||||||||||||||||||||||||MET061METAR KFCH 140230Z AUTO 00000KT 10SM CLR 20/06 A3017 RMK A01=||F||223|ICAO-KFCH
USW00023167|FRESNO CHANDLER DWTN AP|2022|02|14|02|55|36.7333|-119.8167|84.1|19.0||1|FM15-METAR|223|ICAO-KFCH|6.0||1|FM15-METAR|223|ICAO-KFCH|||||||||||||999|C-Calm|9|FM15-METAR|223|ICAO-KFCH|0.0|C-Calm|1|FM15-METAR|223|ICAO-KFCH|||||||||||||43|Derived||FM15-METAR|223|ICAO-KFCH|||||||||||||||||||||||||||||||||||||||||||||||||||||||||||||||||||||||||1021.7||1|FM15-METAR|223|ICAO-KFCH|||||||||||||||||||||||||||||||||||||||||||MET061METAR KFCH 140255Z AUTO 00000KT 10SM CLR 19/06 A3017 RMK A01=||F||223|ICAO-KFCH
USW00023167|FRESNO CHANDLER DWTN AP|2022|02|14|03|15|36.7333|-119.8167|84.1|18.0||1|FM15-METAR|223|ICAO-KFCH|6.0||1|FM15-METAR|223|ICAO-KFCH|||||||||||||999|C-Calm|9|FM15-METAR|223|ICAO-KFCH|0.0|C-Calm|1|FM15-METAR|223|ICAO-KFCH|||||||||||||46|Derived||FM15-METAR|223|ICAO-KFCH|||||||||||||||||||||||||||||||||||||||||||||||||||||||||||||||||||||||||1021.7||1|FM15-METAR|223|ICAO-KFCH|||||||||||||||||||||||||||||||||||||||||||MET061METAR KFCH 140315Z AUTO 00000KT 10SM CLR 18/06 A3017 RMK A01=||F||223|ICAO-KFCH
USW00023167|FRESNO CHANDLER DWTN AP|2022|02|14|03|35|36.7333|-119.8167|84.1|18.0||1|FM15-METAR|223|ICAO-KFCH|7.0||1|FM15-METAR|223|ICAO-KFCH|||||||||||||999|C-Calm|9|FM15-METAR|223|ICAO-KFCH|0.0|C-Calm|1|FM15-METAR|223|ICAO-KFCH|||||||||||||49|Derived||FM15-METAR|223|ICAO-KFCH|||||||||||||||||||||||||||||||||||||||||||||||||||||||||||||||||||||||||1021.7||1|FM15-METAR|223|ICAO-KFCH|||||||||||||||||||||||||||||||||||||||||||MET061METAR KFCH 140335Z AUTO 00000KT 10SM CLR 18/07 A3017 RMK A01=||F||223|ICAO-KFCH
USW00023167|FRESNO CHANDLER DWTN AP|2022|02|14|03|55|36.7333|-119.8167|84.1|17.0||1|FM15-METAR|223|ICAO-KFCH|6.0||1|FM15-METAR|223|ICAO-KFCH|||||||||||||999|C-Calm|9|FM15-METAR|223|ICAO-KFCH|0.0|C-Calm|1|FM15-METAR|223|ICAO-KFCH|||||||||||||49|Derived||FM15-METAR|223|ICAO-KFCH|||||||||||||||||||||||||||||||||||||||||||||||||||||||||||||||||||||||||1021.7||1|FM15-METAR|223|ICAO-KFCH|||||||||||||||||||||||||||||||||||||||||||MET061METAR KFCH 140355Z AUTO 00000KT 10SM CLR 17/06 A3017 RMK A01=||F||223|ICAO-KFCH
USW00023167|FRESNO CHANDLER DWTN AP|2022|02|14|04|15|36.7333|-119.8167|84.1|16.0||1|FM15-METAR|223|ICAO-KFCH|7.0||1|FM15-METAR|223|ICAO-KFCH|||||||||||||999|C-Calm|9|FM15-METAR|223|ICAO-KFCH|0.0|C-Calm|1|FM15-METAR|223|ICAO-KFCH|||||||||||||55|Derived||FM15-METAR|223|ICAO-KFCH|||||||||||||||||||||||||||||||||||||||||||||||||||||||||||||||||||||||||1022.0||1|FM15-METAR|223|ICAO-KFCH|||||||||||||||||||||||||||||||||||||||||||MET061METAR KFCH 140415Z AUTO 00000KT 10SM CLR 16/07 A3018 RMK A01=||F||223|ICAO-KFCH
USW00023167|FRESNO CHANDLER DWTN AP|2022|02|14|04|35|36.7333|-119.8167|84.1|16.0||1|FM15-METAR|223|ICAO-KFCH|7.0||1|FM15-METAR|223|ICAO-KFCH|||||||||||||999|C-Calm|9|FM15-METAR|223|ICAO-KFCH|0.0|C-Calm|1|FM15-METAR|223|ICAO-KFCH|||||||||||||55|Derived||FM15-METAR|223|ICAO-KFCH|||||||||||||||||||||||||||||||||||||||||||||||||||||||||||||||||||||||||1021.7||1|FM15-METAR|223|ICAO-KFCH|||||||||||||||||||||||||||||||||||||||||||MET061METAR KFCH 140435Z AUTO 00000KT 10SM CLR 16/07 A3017 RMK A01=||F||223|ICAO-KFCH
USW00023167|FRESNO CHANDLER DWTN AP|2022|02|14|04|55|36.7333|-119.8167|84.1|15.0||1|FM15-METAR|223|ICAO-KFCH|7.0||1|FM15-METAR|223|ICAO-KFCH|||||||||||||999|C-Calm|9|FM15-METAR|223|ICAO-KFCH|0.0|C-Calm|1|FM15-METAR|223|ICAO-KFCH|||||||||||||59|Derived||FM15-METAR|223|ICAO-KFCH|||||||||||||||||||||||||||||||||||||||||||||||||||||||||||||||||||||||||1021.7||1|FM15-METAR|223|ICAO-KFCH|||||||||||||||||||||||||||||||||||||||||||MET061METAR KFCH 140455Z AUTO 00000KT 10SM CLR 15/07 A3017 RMK A01=||F||223|ICAO-KFCH
USW00023167|FRESNO CHANDLER DWTN AP|2022|02|14|05|15|36.7333|-119.8167|84.1|15.0||1|FM15-METAR|223|ICAO-KFCH|7.0||1|FM15-METAR|223|ICAO-KFCH|||||||||||||999|C-Calm|9|FM15-METAR|223|ICAO-KFCH|0.0|C-Calm|1|FM15-METAR|223|ICAO-KFCH|||||||||||||59|Derived||FM15-METAR|223|ICAO-KFCH|||||||||||||||||||||||||||||||||||||||||||||||||||||||||||||||||||||||||1022.0||1|FM15-METAR|223|ICAO-KFCH|||||||||||||||||||||||||||||||||||||||||||MET061METAR KFCH 140515Z AUTO 00000KT 10SM CLR 15/07 A3018 RMK A01=||F||223|ICAO-KFCH
USW00023167|FRESNO CHANDLER DWTN AP|2022|02|14|05|30|36.7333|-119.8167|84.1|14.0||1|FM15-METAR|223|ICAO-KFCH|7.0||1|FM15-METAR|223|ICAO-KFCH|||||||||||||999|C-Calm|9|FM15-METAR|223|ICAO-KFCH|0.0|C-Calm|1|FM15-METAR|223|ICAO-KFCH|||||||||||||63|Derived||FM15-METAR|223|ICAO-KFCH|||||||||||||||||||||||||||||||||||||||||||||||||||||||||||||||||||||||||1022.0||1|FM15-METAR|223|ICAO-KFCH|||||||||||||||||||||||||||||||||||||||||||MET061METAR KFCH 140530Z AUTO 00000KT 10SM CLR 14/07 A3018 RMK A01=||F||223|ICAO-KFCH
USW00023167|FRESNO CHANDLER DWTN AP|2022|02|14|05|55|36.7333|-119.8167|84.1|||||||||||||||||||||||||||||||||||||||||||||||||||||||||||||||||||||||||||||||||||||||||||||||||||||||||||||||||||||||||||||||1022.0||1|FM15-METAR|223|ICAO-KFCH|||||||||||||||||||||||||||||||||||||||||||MET038METAR KFCH 140555Z AUTO A3018 RMK A01=||F||223|ICAO-KFCH
USW00023167|FRESNO CHANDLER DWTN AP|2022|02|14|06|10|36.7333|-119.8167|84.1|15.0||1|FM15-METAR|223|ICAO-KFCH|7.0||1|FM15-METAR|223|ICAO-KFCH|||||||||||||030|N-Normal|1|FM15-METAR|223|ICAO-KFCH|1.5|N-Normal|1|FM15-METAR|223|ICAO-KFCH|||||||||||||59|Derived||FM15-METAR|223|ICAO-KFCH|||||||||||||||||||||||||||||||||||||||||||||||||||||||||||||||||||||||||1022.3||1|FM15-METAR|223|ICAO-KFCH|||||||||||||||||||||||||||||||||||||||||||MET057METAR KFCH 140610Z AUTO 03003KT 10SM 15/07 A3019 RMK A01=||F||223|ICAO-KFCH
USW00023167|FRESNO CHANDLER DWTN AP|2022|02|14|06|35|36.7333|-119.8167|84.1|13.0||1|FM15-METAR|223|ICAO-KFCH|7.0||1|FM15-METAR|223|ICAO-KFCH|||||||||||||030|N-Normal|1|FM15-METAR|223|ICAO-KFCH|1.5|N-Normal|1|FM15-METAR|223|ICAO-KFCH|||||||||||||67|Derived||FM15-METAR|223|ICAO-KFCH|||||||||||||||||||||||||||||||||||||||||||||||||||||||||||||||||||||||||1022.3||1|FM15-METAR|223|ICAO-KFCH|||||||||||||||||||||||||||||||||||||||||||MET061METAR KFCH 140635Z AUTO 03003KT 10SM CLR 13/07 A3019 RMK A01=||F||223|ICAO-KFCH
USW00023167|FRESNO CHANDLER DWTN AP|2022|02|14|06|55|36.7333|-119.8167|84.1|13.0||1|FM15-METAR|223|ICAO-KFCH|7.0||1|FM15-METAR|223|ICAO-KFCH|||||||||||||020|N-Normal|1|FM15-METAR|223|ICAO-KFCH|1.5|N-Normal|1|FM15-METAR|223|ICAO-KFCH|||||||||||||67|Derived||FM15-METAR|223|ICAO-KFCH|||||||||||||||||||||||||||||||||||||||||||||||||||||||||||||||||||||||||1022.3||1|FM15-METAR|223|ICAO-KFCH|||||||||||||||||||||||||||||||||||||||||||MET061METAR KFCH 140655Z AUTO 02003KT 10SM CLR 13/07 A3019 RMK A01=||F||223|ICAO-KFCH
USW00023167|FRESNO CHANDLER DWTN AP|2022|02|14|07|15|36.7333|-119.8167|84.1|13.0||1|FM15-METAR|223|ICAO-KFCH|7.0||1|FM15-METAR|223|ICAO-KFCH|||||||||||||999|C-Calm|9|FM15-METAR|223|ICAO-KFCH|0.0|C-Calm|1|FM15-METAR|223|ICAO-KFCH|||||||||||||67|Derived||FM15-METAR|223|ICAO-KFCH|||||||||||||||||||||||||||||||||||||||||||||||||||||||||||||||||||||||||1022.3||1|FM15-METAR|223|ICAO-KFCH|||||||||||||||||||||||||||||||||||||||||||MET061METAR KFCH 140715Z AUTO 00000KT 10SM CLR 13/07 A3019 RMK A01=||F||223|ICAO-KFCH
USW00023167|FRESNO CHANDLER DWTN AP|2022|02|14|07|35|36.7333|-119.8167|84.1|13.0||1|FM15-METAR|223|ICAO-KFCH|7.0||1|FM15-METAR|223|ICAO-KFCH|||||||||||||999|C-Calm|9|FM15-METAR|223|ICAO-KFCH|0.0|C-Calm|1|FM15-METAR|223|ICAO-KFCH|||||||||||||67|Derived||FM15-METAR|223|ICAO-KFCH|||||||||||||||||||||||||||||||||||||||||||||||||||||||||||||||||||||||||1022.3||1|FM15-METAR|223|ICAO-KFCH|||||||||||||||||||||||||||||||||||||||||||MET061METAR KFCH 140735Z AUTO 00000KT 10SM CLR 13/07 A3019 RMK A01=||F||223|ICAO-KFCH
USW00023167|FRESNO CHANDLER DWTN AP|2022|02|14|07|55|36.7333|-119.8167|84.1|12.0||1|FM15-METAR|223|ICAO-KFCH|7.0||1|FM15-METAR|223|ICAO-KFCH|||||||||||||060|N-Normal|1|FM15-METAR|223|ICAO-KFCH|1.5|N-Normal|1|FM15-METAR|223|ICAO-KFCH|||||||||||||72|Derived||FM15-METAR|223|ICAO-KFCH|||||||||||||||||||||||||||||||||||||||||||||||||||||||||||||||||||||||||1022.3||1|FM15-METAR|223|ICAO-KFCH|||||||||||||||||||||||||||||||||||||||||||MET061METAR KFCH 140755Z AUTO 06003KT 10SM CLR 12/07 A3019 RMK A01=||F||223|ICAO-KFCH
USW00023167|FRESNO CHANDLER DWTN AP|2022|02|14|08|15|36.7333|-119.8167|84.1|12.0||1|FM15-METAR|223|ICAO-KFCH|7.0||1|FM15-METAR|223|ICAO-KFCH|||||||||||||999|C-Calm|9|FM15-METAR|223|ICAO-KFCH|0.0|C-Calm|1|FM15-METAR|223|ICAO-KFCH|||||||||||||72|Derived||FM15-METAR|223|ICAO-KFCH|||||||||||||||||||||||||||||||||||||||||||||||||||||||||||||||||||||||||1022.3||1|FM15-METAR|223|ICAO-KFCH|||||||||||||||||||||||||||||||||||||||||||MET061METAR KFCH 140815Z AUTO 00000KT 10SM CLR 12/07 A3019 RMK A01=||F||223|ICAO-KFCH
USW00023167|FRESNO CHANDLER DWTN AP|2022|02|14|08|35|36.7333|-119.8167|84.1|12.0||1|FM15-METAR|223|ICAO-KFCH|7.0||1|FM15-METAR|223|ICAO-KFCH|||||||||||||999|C-Calm|9|FM15-METAR|223|ICAO-KFCH|0.0|C-Calm|1|FM15-METAR|223|ICAO-KFCH|||||||||||||72|Derived||FM15-METAR|223|ICAO-KFCH|||||||||||||||||||||||||||||||||||||||||||||||||||||||||||||||||||||||||1022.0||1|FM15-METAR|223|ICAO-KFCH|||||||||||||||||||||||||||||||||||||||||||MET061METAR KFCH 140835Z AUTO 00000KT 10SM CLR 12/07 A3018 RMK A01=||F||223|ICAO-KFCH
USW00023167|FRESNO CHANDLER DWTN AP|2022|02|14|08|55|36.7333|-119.8167|84.1|11.0||1|FM15-METAR|223|ICAO-KFCH|7.0||1|FM15-METAR|223|ICAO-KFCH|||||||||||||999|C-Calm|9|FM15-METAR|223|ICAO-KFCH|0.0|C-Calm|1|FM15-METAR|223|ICAO-KFCH|||||||||||||77|Derived||FM15-METAR|223|ICAO-KFCH|||||||||||||||||||||||||||||||||||||||||||||||||||||||||||||||||||||||||1022.0||1|FM15-METAR|223|ICAO-KFCH|||||||||||||||||||||||||||||||||||||||||||MET061METAR KFCH 140855Z AUTO 00000KT 10SM CLR 11/07 A3018 RMK A01=||F||223|ICAO-KFCH
USW00023167|FRESNO CHANDLER DWTN AP|2022|02|14|09|10|36.7333|-119.8167|84.1|12.0||1|FM15-METAR|223|ICAO-KFCH|7.0||1|FM15-METAR|223|ICAO-KFCH|||||||||||||999|C-Calm|9|FM15-METAR|223|ICAO-KFCH|0.0|C-Calm|1|FM15-METAR|223|ICAO-KFCH|||||||||||||72|Derived||FM15-METAR|223|ICAO-KFCH|||||||||||||||||||||||||||||||||||||||||||||||||||||||||||||||||||||||||1022.0||1|FM15-METAR|223|ICAO-KFCH|||||||||||||||||||||||||||||||||||||||||||MET064METAR KFCH 140910Z AUTO 00000KT 10SM FEW024 12/07 A3018 RMK A01=||F||223|ICAO-KFCH
USW00023167|FRESNO CHANDLER DWTN AP|2022|02|14|09|35|36.7333|-119.8167|84.1|11.0||1|FM15-METAR|223|ICAO-KFCH|7.0||1|FM15-METAR|223|ICAO-KFCH|||||||||||||999|C-Calm|9|FM15-METAR|223|ICAO-KFCH|0.0|C-Calm|1|FM15-METAR|223|ICAO-KFCH|||||||||||||77|Derived||FM15-METAR|223|ICAO-KFCH|||||||||||||||||||||||||||||||||||||||||||||||||||||||||||||||||||||||||1022.0||1|FM15-METAR|223|ICAO-KFCH|||||||||||||||||||||||||||||||||||||||||||MET057METAR KFCH 140935Z AUTO 00000KT 10SM 11/07 A3018 RMK A01=||F||223|ICAO-KFCH
USW00023167|FRESNO CHANDLER DWTN AP|2022|02|14|09|55|36.7333|-119.8167|84.1|11.0||1|FM15-METAR|223|ICAO-KFCH|7.0||1|FM15-METAR|223|ICAO-KFCH|||||||||||||999|C-Calm|9|FM15-METAR|223|ICAO-KFCH|0.0|C-Calm|1|FM15-METAR|223|ICAO-KFCH|||||||||||||77|Derived||FM15-METAR|223|ICAO-KFCH|||||||||||||||||||||||||||||||||||||||||||||||||||||||||||||||||||||||||1021.7||1|FM15-METAR|223|ICAO-KFCH|||||||||||||||||||||||||||||||||||||||||||MET061METAR KFCH 140955Z AUTO 00000KT 10SM CLR 11/07 A3017 RMK A01=||F||223|ICAO-KFCH
USW00023167|FRESNO CHANDLER DWTN AP|2022|02|14|10|15|36.7333|-119.8167|84.1|10.0||1|FM15-METAR|223|ICAO-KFCH|6.0||1|FM15-METAR|223|ICAO-KFCH|||||||||||||999|C-Calm|9|FM15-METAR|223|ICAO-KFCH|0.0|C-Calm|1|FM15-METAR|223|ICAO-KFCH|||||||||||||76|Derived||FM15-METAR|223|ICAO-KFCH|||||||||||||||||||||||||||||||||||||||||||||||||||||||||||||||||||||||||1021.7||1|FM15-METAR|223|ICAO-KFCH|||||||||||||||||||||||||||||||||||||||||||MET061METAR KFCH 141015Z AUTO 00000KT 10SM CLR 10/06 A3017 RMK A01=||F||223|ICAO-KFCH
USW00023167|FRESNO CHANDLER DWTN AP|2022|02|14|10|35|36.7333|-119.8167|84.1|10.0||1|FM15-METAR|223|ICAO-KFCH|7.0||1|FM15-METAR|223|ICAO-KFCH|||||||||||||999|C-Calm|9|FM15-METAR|223|ICAO-KFCH|0.0|C-Calm|1|FM15-METAR|223|ICAO-KFCH|||||||||||||82|Derived||FM15-METAR|223|ICAO-KFCH|||||||||||||||||||||||||||||||||||||||||||||||||||||||||||||||||||||||||1021.7||1|FM15-METAR|223|ICAO-KFCH|||||||||||||||||||||||||||||||||||||||||||MET061METAR KFCH 141035Z AUTO 00000KT 10SM CLR 10/07 A3017 RMK A01=||F||223|ICAO-KFCH
USW00023167|FRESNO CHANDLER DWTN AP|2022|02|14|10|55|36.7333|-119.8167|84.1|9.0||1|FM15-METAR|223|ICAO-KFCH|6.0||1|FM15-METAR|223|ICAO-KFCH|||||||||||||999|C-Calm|9|FM15-METAR|223|ICAO-KFCH|0.0|C-Calm|1|FM15-METAR|223|ICAO-KFCH|||||||||||||82|Derived||FM15-METAR|223|ICAO-KFCH|||||||||||||||||||||||||||||||||||||||||||||||||||||||||||||||||||||||||1021.3||1|FM15-METAR|223|ICAO-KFCH|||||||||||||||||||||||||||||||||||||||||||MET061METAR KFCH 141055Z AUTO 00000KT 10SM CLR 09/06 A3016 RMK A01=||F||223|ICAO-KFCH
USW00023167|FRESNO CHANDLER DWTN AP|2022|02|14|11|15|36.7333|-119.8167|84.1|10.0||1|FM15-METAR|223|ICAO-KFCH|6.0||1|FM15-METAR|223|ICAO-KFCH|||||||||||||999|C-Calm|9|FM15-METAR|223|ICAO-KFCH|0.0|C-Calm|1|FM15-METAR|223|ICAO-KFCH|||||||||||||76|Derived||FM15-METAR|223|ICAO-KFCH|||||||||||||||||||||||||||||||||||||||||||||||||||||||||||||||||||||||||1021.0||1|FM15-METAR|223|ICAO-KFCH|||||||||||||||||||||||||||||||||||||||||||MET061METAR KFCH 141115Z AUTO 00000KT 10SM CLR 10/06 A3015 RMK A01=||F||223|ICAO-KFCH
USW00023167|FRESNO CHANDLER DWTN AP|2022|02|14|11|35|36.7333|-119.8167|84.1|11.0||1|FM15-METAR|223|ICAO-KFCH|6.0||1|FM15-METAR|223|ICAO-KFCH|||||||||||||999|C-Calm|9|FM15-METAR|223|ICAO-KFCH|0.0|C-Calm|1|FM15-METAR|223|ICAO-KFCH|||||||||||||72|Derived||FM15-METAR|223|ICAO-KFCH|||||||||||||||||||||||||||||||||||||||||||||||||||||||||||||||||||||||||1021.0||1|FM15-METAR|223|ICAO-KFCH|||||||||||||||||||||||||||||||||||||||||||MET061METAR KFCH 141135Z AUTO 00000KT 10SM CLR 11/06 A3015 RMK A01=||F||223|ICAO-KFCH
USW00023167|FRESNO CHANDLER DWTN AP|2022|02|14|11|55|36.7333|-119.8167|84.1|9.0||1|FM15-METAR|223|ICAO-KFCH|7.0||1|FM15-METAR|223|ICAO-KFCH|||||||||||||999|C-Calm|9|FM15-METAR|223|ICAO-KFCH|0.0|C-Calm|1|FM15-METAR|223|ICAO-KFCH|||||||||||||87|Derived||FM15-METAR|223|ICAO-KFCH|||||||||||||||||||||||||||||||||||||||||||||||||||||||||||||||||||||||||1021.0||1|FM15-METAR|223|ICAO-KFCH|||||||||||||||||||||||||||||||||||||||||||MET061METAR KFCH 141155Z AUTO 00000KT 10SM CLR 09/07 A3015 RMK A01=||F||223|ICAO-KFCH
USW00023167|FRESNO CHANDLER DWTN AP|2022|02|14|12|15|36.7333|-119.8167|84.1|9.0||1|FM15-METAR|223|ICAO-KFCH|6.0||1|FM15-METAR|223|ICAO-KFCH|||||||||||||999|C-Calm|9|FM15-METAR|223|ICAO-KFCH|0.0|C-Calm|1|FM15-METAR|223|ICAO-KFCH|||||||||||||82|Derived||FM15-METAR|223|ICAO-KFCH|||||||||||||||||||||||||||||||||||||||||||||||||||||||||||||||||||||||||1021.0||1|FM15-METAR|223|ICAO-KFCH|||||||||||||||||||||||||||||||||||||||||||MET061METAR KFCH 141215Z AUTO 00000KT 10SM CLR 09/06 A3015 RMK A01=||F||223|ICAO-KFCH
USW00023167|FRESNO CHANDLER DWTN AP|2022|02|14|12|30|36.7333|-119.8167|84.1|9.0||1|FM15-METAR|223|ICAO-KFCH|6.0||1|FM15-METAR|223|ICAO-KFCH|||||||||||||999|C-Calm|9|FM15-METAR|223|ICAO-KFCH|0.0|C-Calm|1|FM15-METAR|223|ICAO-KFCH|||||||||||||82|Derived||FM15-METAR|223|ICAO-KFCH|||||||||||||||||||||||||||||||||||||||||||||||||||||||||||||||||||||||||1021.0||1|FM15-METAR|223|ICAO-KFCH|||||||||||||||||||||||||||||||||||||||||||MET061METAR KFCH 141230Z AUTO 00000KT 10SM CLR 09/06 A3015 RMK A01=||F||223|ICAO-KFCH
USW00023167|FRESNO CHANDLER DWTN AP|2022|02|14|12|55|36.7333|-119.8167|84.1|9.0||1|FM15-METAR|223|ICAO-KFCH|6.0||1|FM15-METAR|223|ICAO-KFCH|||||||||||||999|C-Calm|9|FM15-METAR|223|ICAO-KFCH|0.0|C-Calm|1|FM15-METAR|223|ICAO-KFCH|||||||||||||82|Derived||FM15-METAR|223|ICAO-KFCH|||||||||||||||||||||||||||||||||||||||||||||||||||||||||||||||||||||||||1020.7||1|FM15-METAR|223|ICAO-KFCH|||||||||||||||||||||||||||||||||||||||||||MET061METAR KFCH 141255Z AUTO 00000KT 10SM CLR 09/06 A3014 RMK A01=||F||223|ICAO-KFCH
USW00023167|FRESNO CHANDLER DWTN AP|2022|02|14|13|15|36.7333|-119.8167|84.1|8.0||1|FM15-METAR|223|ICAO-KFCH|6.0||1|FM15-METAR|223|ICAO-KFCH|||||||||||||999|C-Calm|9|FM15-METAR|223|ICAO-KFCH|0.0|C-Calm|1|FM15-METAR|223|ICAO-KFCH|||||||||||||87|Derived||FM15-METAR|223|ICAO-KFCH|||||||||||||||||||||||||||||||||||||||||||||||||||||||||||||||||||||||||1020.7||1|FM15-METAR|223|ICAO-KFCH|||||||||||||||||||||||||||||||||||||||||||MET061METAR KFCH 141315Z AUTO 00000KT 10SM CLR 08/06 A3014 RMK A01=||F||223|ICAO-KFCH
USW00023167|FRESNO CHANDLER DWTN AP|2022|02|14|13|35|36.7333|-119.8167|84.1|8.0||1|FM15-METAR|223|ICAO-KFCH|6.0||1|FM15-METAR|223|ICAO-KFCH|||||||||||||999|C-Calm|9|FM15-METAR|223|ICAO-KFCH|0.0|C-Calm|1|FM15-METAR|223|ICAO-KFCH|||||||||||||87|Derived||FM15-METAR|223|ICAO-KFCH|||||||||||||||||||||||||||||||||||||||||||||||||||||||||||||||||||||||||1020.7||1|FM15-METAR|223|ICAO-KFCH|||||||||||||||||||||||||||||||||||||||||||MET057METAR KFCH 141335Z AUTO 00000KT 10SM 08/06 A3014 RMK A01=||F||223|ICAO-KFCH
USW00023167|FRESNO CHANDLER DWTN AP|2022|02|14|13|55|36.7333|-119.8167|84.1|8.0||1|FM15-METAR|223|ICAO-KFCH|6.0||1|FM15-METAR|223|ICAO-KFCH|||||||||||||999|C-Calm|9|FM15-METAR|223|ICAO-KFCH|0.0|C-Calm|1|FM15-METAR|223|ICAO-KFCH|||||||||||||87|Derived||FM15-METAR|223|ICAO-KFCH|||||||||||||||||||||||||||||||||||||||||||||||||||||||||||||||||||||||||1020.7||1|FM15-METAR|223|ICAO-KFCH|||||||||||||||||||||||||||||||||||||||||||MET061METAR KFCH 141355Z AUTO 00000KT 10SM CLR 08/06 A3014 RMK A01=||F||223|ICAO-KFCH
USW00023167|FRESNO CHANDLER DWTN AP|2022|02|14|14|10|36.7333|-119.8167|84.1|9.0||1|FM15-METAR|223|ICAO-KFCH|6.0||1|FM15-METAR|223|ICAO-KFCH|||||||||||||999|C-Calm|9|FM15-METAR|223|ICAO-KFCH|0.0|C-Calm|1|FM15-METAR|223|ICAO-KFCH|||||||||||||82|Derived||FM15-METAR|223|ICAO-KFCH|||||||||||||||||||||||||||||||||||||||||||||||||||||||||||||||||||||||||1020.7||1|FM15-METAR|223|ICAO-KFCH|||||||||||||||||||||||||||||||||||||||||||MET061METAR KFCH 141410Z AUTO 00000KT 10SM CLR 09/06 A3014 RMK A01=||F||223|ICAO-KFCH
USW00023167|FRESNO CHANDLER DWTN AP|2022|02|14|14|35|36.7333|-119.8167|84.1|8.0||1|FM15-METAR|223|ICAO-KFCH|6.0||1|FM15-METAR|223|ICAO-KFCH|||||||||||||999|C-Calm|9|FM15-METAR|223|ICAO-KFCH|0.0|C-Calm|1|FM15-METAR|223|ICAO-KFCH|||||||||||||87|Derived||FM15-METAR|223|ICAO-KFCH|||||||||||||||||||||||||||||||||||||||||||||||||||||||||||||||||||||||||1020.7||1|FM15-METAR|223|ICAO-KFCH|||||||||||||||||||||||||||||||||||||||||||MET064METAR KFCH 141435Z AUTO 00000KT 10SM FEW003 08/06 A3014 RMK A01=||F||223|ICAO-KFCH
USW00023167|FRESNO CHANDLER DWTN AP|2022|02|14|14|55|36.7333|-119.8167|84.1|8.0||1|FM15-METAR|223|ICAO-KFCH|5.0||1|FM15-METAR|223|ICAO-KFCH|||||||||||||999|C-Calm|9|FM15-METAR|223|ICAO-KFCH|0.0|C-Calm|1|FM15-METAR|223|ICAO-KFCH|||||||||||||82|Derived||FM15-METAR|223|ICAO-KFCH|||||||||||||||||||||||||||||||||||||||||||||||||||||||||||||||||||||||||1020.7||1|FM15-METAR|223|ICAO-KFCH|||||||||||||||||||||||||||||||||||||||||||MET061METAR KFCH 141455Z AUTO 00000KT 10SM CLR 08/05 A3014 RMK A01=||F||223|ICAO-KFCH
USW00023167|FRESNO CHANDLER DWTN AP|2022|02|14|15|10|36.7333|-119.8167|84.1|8.0||1|FM15-METAR|223|ICAO-KFCH|5.0||1|FM15-METAR|223|ICAO-KFCH|||||||||||||999|C-Calm|9|FM15-METAR|223|ICAO-KFCH|0.0|C-Calm|1|FM15-METAR|223|ICAO-KFCH|||||||||||||82|Derived||FM15-METAR|223|ICAO-KFCH|||||||||||||||||||||||||||||||||||||||||||||||||||||||||||||||||||||||||1020.7||1|FM15-METAR|223|ICAO-KFCH|||||||||||||||||||||||||||||||||||||||||||MET061METAR KFCH 141510Z AUTO 00000KT 10SM CLR 08/05 A3014 RMK A01=||F||223|ICAO-KFCH
USW00023167|FRESNO CHANDLER DWTN AP|2022|02|14|15|30|36.7333|-119.8167|84.1|9.0||1|FM15-METAR|223|ICAO-KFCH|5.0||1|FM15-METAR|223|ICAO-KFCH|||||||||||||999|C-Calm|9|FM15-METAR|223|ICAO-KFCH|0.0|C-Calm|1|FM15-METAR|223|ICAO-KFCH|||||||||||||76|Derived||FM15-METAR|223|ICAO-KFCH|||||||||||||||||||||||||||||||||||||||||||||||||||||||||||||||||||||||||1020.7||1|FM15-METAR|223|ICAO-KFCH|||||||||||||||||||||||||||||||||||||||||||MET061METAR KFCH 141530Z AUTO 00000KT 10SM CLR 09/05 A3014 RMK A01=||F||223|ICAO-KFCH
USW00023167|FRESNO CHANDLER DWTN AP|2022|02|14|15|50|36.7333|-119.8167|84.1|10.0||1|FM15-METAR|223|ICAO-KFCH|6.0||1|FM15-METAR|223|ICAO-KFCH|||||||||||||999|C-Calm|9|FM15-METAR|223|ICAO-KFCH|0.0|C-Calm|1|FM15-METAR|223|ICAO-KFCH|||||||||||||76|Derived||FM15-METAR|223|ICAO-KFCH|||||||||||||||||||||||||||||||||||||||||||||||||||||||||||||||||||||||||1020.7||1|FM15-METAR|223|ICAO-KFCH|||||||||||||||||||||||||||||||||||||||||||MET061METAR KFCH 141550Z AUTO 00000KT 10SM CLR 10/06 A3014 RMK A01=||F||223|ICAO-KFCH
USW00023167|FRESNO CHANDLER DWTN AP|2022|02|14|16|10|36.7333|-119.8167|84.1|12.0||1|FM15-METAR|223|ICAO-KFCH|6.0||1|FM15-METAR|223|ICAO-KFCH|||||||||||||120|N-Normal|1|FM15-METAR|223|ICAO-KFCH|2.6|N-Normal|1|FM15-METAR|223|ICAO-KFCH|||||||||||||67|Derived||FM15-METAR|223|ICAO-KFCH|||||||||||||||||||||||||||||||||||||||||||||||||||||||||||||||||||||||||1020.7||1|FM15-METAR|223|ICAO-KFCH|||||||||||||||||||||||||||||||||||||||||||MET061METAR KFCH 141610Z AUTO 12005KT 10SM CLR 12/06 A3014 RMK A01=||F||223|ICAO-KFCH
USW00023167|FRESNO CHANDLER DWTN AP|2022|02|14|16|30|36.7333|-119.8167|84.1|14.0||1|FM15-METAR|223|ICAO-KFCH|5.0||1|FM15-METAR|223|ICAO-KFCH|||||||||||||120|N-Normal|1|FM15-METAR|223|ICAO-KFCH|2.6|N-Normal|1|FM15-METAR|223|ICAO-KFCH|||||||||||||55|Derived||FM15-METAR|223|ICAO-KFCH|||||||||||||||||||||||||||||||||||||||||||||||||||||||||||||||||||||||||1020.7||1|FM15-METAR|223|ICAO-KFCH|||||||||||||||||||||||||||||||||||||||||||MET061METAR KFCH 141630Z AUTO 12005KT 10SM CLR 14/05 A3014 RMK A01=||F||223|ICAO-KFCH
USW00023167|FRESNO CHANDLER DWTN AP|2022|02|14|16|50|36.7333|-119.8167|84.1|14.0||1|FM15-METAR|223|ICAO-KFCH|5.0||1|FM15-METAR|223|ICAO-KFCH|||||||||||||110|N-Normal|1|FM15-METAR|223|ICAO-KFCH|3.1|N-Normal|1|FM15-METAR|223|ICAO-KFCH|||||||||||||55|Derived||FM15-METAR|223|ICAO-KFCH|||||||||||||||||||||||||||||||||||||||||||||||||||||||||||||||||||||||||1020.7||1|FM15-METAR|223|ICAO-KFCH|||||||||||||||||||||||||||||||||||||||||||MET061METAR KFCH 141650Z AUTO 11006KT 10SM CLR 14/05 A3014 RMK A01=||F||223|ICAO-KFCH
USW00023167|FRESNO CHANDLER DWTN AP|2022|02|14|17|10|36.7333|-119.8167|84.1|15.0||1|FM15-METAR|223|ICAO-KFCH|5.0||1|FM15-METAR|223|ICAO-KFCH|||||||||||||120|N-Normal|1|FM15-METAR|223|ICAO-KFCH|3.1|N-Normal|1|FM15-METAR|223|ICAO-KFCH|||||||||||||51|Derived||FM15-METAR|223|ICAO-KFCH|||||||||||||||||||||||||||||||||||||||||||||||||||||||||||||||||||||||||1020.7||1|FM15-METAR|223|ICAO-KFCH|||||||||||||||||||||||||||||||||||||||||||MET061METAR KFCH 141710Z AUTO 12006KT 10SM CLR 15/05 A3014 RMK A01=||F||223|ICAO-KFCH
USW00023167|FRESNO CHANDLER DWTN AP|2022|02|14|17|35|36.7333|-119.8167|84.1|17.0||1|FM15-METAR|223|ICAO-KFCH|5.0||1|FM15-METAR|223|ICAO-KFCH|||||||||||||130|N-Normal|1|FM15-METAR|223|ICAO-KFCH|4.6|N-Normal|1|FM15-METAR|223|ICAO-KFCH|||||||||||||45|Derived||FM15-METAR|223|ICAO-KFCH|||||||||||||||||||||||||||||||||||||||||||||||||||||||||||||||||||||||||1020.3||1|FM15-METAR|223|ICAO-KFCH|||||||||||||||||||||||||||||||||||||||||||MET061METAR KFCH 141735Z AUTO 13009KT 10SM CLR 17/05 A3013 RMK A01=||F||223|ICAO-KFCH
USW00023167|FRESNO CHANDLER DWTN AP|2022|02|14|17|55|36.7333|-119.8167|84.1|18.0||1|FM15-METAR|223|ICAO-KFCH|6.0||1|FM15-METAR|223|ICAO-KFCH|||||||||||||130|N-Normal|1|FM15-METAR|223|ICAO-KFCH|4.6|N-Normal|1|FM15-METAR|223|ICAO-KFCH|||||||||||||46|Derived||FM15-METAR|223|ICAO-KFCH|||||||||||||||||||||||||||||||||||||||||||||||||||||||||||||||||||||||||1020.0||1|FM15-METAR|223|ICAO-KFCH|||||||||||||||||||||||||||||||||||||||||||MET061METAR KFCH 141755Z AUTO 13009KT 10SM CLR 18/06 A3012 RMK A01=||F||223|ICAO-KFCH
USW00023167|FRESNO CHANDLER DWTN AP|2022|02|14|18|15|36.7333|-119.8167|84.1|19.0||1|FM15-METAR|223|ICAO-KFCH|6.0||1|FM15-METAR|223|ICAO-KFCH|||||||||||||110|N-Normal|1|FM15-METAR|223|ICAO-KFCH|3.1|N-Normal|1|FM15-METAR|223|ICAO-KFCH|||||||||||||43|Derived||FM15-METAR|223|ICAO-KFCH|||||||||||||||||||||||||||||||||||||||||||||||||||||||||||||||||||||||||1020.0||1|FM15-METAR|223|ICAO-KFCH|||||||||||||||||||||||||||||||||||||||||||MET061METAR KFCH 141815Z AUTO 11006KT 10SM CLR 19/06 A3012 RMK A01=||F||223|ICAO-KFCH
USW00023167|FRESNO CHANDLER DWTN AP|2022|02|14|18|30|36.7333|-119.8167|84.1|19.0||1|FM15-METAR|223|ICAO-KFCH|6.0||1|FM15-METAR|223|ICAO-KFCH|||||||||||||110|N-Normal|1|FM15-METAR|223|ICAO-KFCH|3.1|N-Normal|1|FM15-METAR|223|ICAO-KFCH|||||||||||||43|Derived||FM15-METAR|223|ICAO-KFCH|||||||||||||||||||||||||||||||||||||||||||||||||||||||||||||||||||||||||1019.6||1|FM15-METAR|223|ICAO-KFCH|||||||||||||||||||||||||||||||||||||||||||MET061METAR KFCH 141830Z AUTO 11006KT 10SM CLR 19/06 A3011 RMK A01=||F||223|ICAO-KFCH
USW00023167|FRESNO CHANDLER DWTN AP|2022|02|14|18|55|36.7333|-119.8167|84.1|20.0||1|FM15-METAR|223|ICAO-KFCH|6.0||1|FM15-METAR|223|ICAO-KFCH|||||||||||||150|N-Normal|1|FM15-METAR|223|ICAO-KFCH|2.6|N-Normal|1|FM15-METAR|223|ICAO-KFCH|||||||||||||40|Derived||FM15-METAR|223|ICAO-KFCH|||||||||||||||||||||||||||||||||||||||||||||||||||||||||||||||||||||||||1019.6||1|FM15-METAR|223|ICAO-KFCH|||||||||||||||||||||||||||||||||||||||||||MET061METAR KFCH 141855Z AUTO 15005KT 10SM CLR 20/06 A3011 RMK A01=||F||223|ICAO-KFCH
USW00023167|FRESNO CHANDLER DWTN AP|2022|02|14|19|15|36.7333|-119.8167|84.1|21.0||1|FM15-METAR|223|ICAO-KFCH|6.0||1|FM15-METAR|223|ICAO-KFCH|||||||||||||150|N-Normal|1|FM15-METAR|223|ICAO-KFCH|2.6|N-Normal|1|FM15-METAR|223|ICAO-KFCH|5.7||1|FM15-METAR|223|ICAO-KFCH|||||||38|Derived||FM15-METAR|223|ICAO-KFCH|||||||||||||||||||||||||||||||||||||||||||||||||||||||||||||||||||||||||1019.3||1|FM15-METAR|223|ICAO-KFCH|||||||||||||||||||||||||||||||||||||||||||MET064METAR KFCH 141915Z AUTO 15005G11KT 10SM CLR 21/06 A3010 RMK A01=||F||223|ICAO-KFCH
USW00023167|FRESNO CHANDLER DWTN AP|2022|02|14|19|35|36.7333|-119.8167|84.1|21.0||1|FM15-METAR|223|ICAO-KFCH|6.0||1|FM15-METAR|223|ICAO-KFCH|||||||||||||150|N-Normal|1|FM15-METAR|223|ICAO-KFCH|3.6|N-Normal|1|FM15-METAR|223|ICAO-KFCH|||||||||||||38|Derived||FM15-METAR|223|ICAO-KFCH|||||||||||||||||||||||||||||||||||||||||||||||||||||||||||||||||||||||||1018.6||1|FM15-METAR|223|ICAO-KFCH|||||||||||||||||||||||||||||||||||||||||||MET061METAR KFCH 141935Z AUTO 15007KT 10SM CLR 21/06 A3008 RMK A01=||F||223|ICAO-KFCH
USW00023167|FRESNO CHANDLER DWTN AP|2022|02|14|19|55|36.7333|-119.8167|84.1|21.0||1|FM15-METAR|223|ICAO-KFCH|6.0||1|FM15-METAR|223|ICAO-KFCH|||||||||||||180|V-Variable|1|FM15-METAR|223|ICAO-KFCH|3.6|V-Variable|1|FM15-METAR|223|ICAO-KFCH|||||||||||||38|Derived||FM15-METAR|223|ICAO-KFCH|||||||||||||||||||||||||||||||||||||||||||||||||||||||||||||||||||||||||1018.3||1|FM15-METAR|223|ICAO-KFCH|||||||||||||||||||||||||||||||||||||||||||MET069METAR KFCH 141955Z AUTO 18007KT 140V210 10SM CLR 21/06 A3007 RMK A01=||F||223|ICAO-KFCH
USW00023167|FRESNO CHANDLER DWTN AP|2022|02|14|20|15|36.7333|-119.8167|84.1|22.0||1|FM15-METAR|223|ICAO-KFCH|6.0||1|FM15-METAR|223|ICAO-KFCH|||||||||||||160|N-Normal|1|FM15-METAR|223|ICAO-KFCH|2.6|N-Normal|1|FM15-METAR|223|ICAO-KFCH|||||||||||||36|Derived||FM15-METAR|223|ICAO-KFCH|||||||||||||||||||||||||||||||||||||||||||||||||||||||||||||||||||||||||1017.9||1|FM15-METAR|223|ICAO-KFCH|||||||||||||||||||||||||||||||||||||||||||MET061METAR KFCH 142015Z AUTO 16005KT 10SM CLR 22/06 A3006 RMK A01=||F||223|ICAO-KFCH
USW00023167|FRESNO CHANDLER DWTN AP|2022|02|14|20|35|36.7333|-119.8167|84.1|22.0||1|FM15-METAR|223|ICAO-KFCH|7.0||1|FM15-METAR|223|ICAO-KFCH|||||||||||||260|N-Normal|1|FM15-METAR|223|ICAO-KFCH|1.5|N-Normal|1|FM15-METAR|223|ICAO-KFCH|||||||||||||38|Derived||FM15-METAR|223|ICAO-KFCH|||||||||||||||||||||||||||||||||||||||||||||||||||||||||||||||||||||||||1017.6||1|FM15-METAR|223|ICAO-KFCH|||||||||||||||||||||||||||||||||||||||||||MET061METAR KFCH 142035Z AUTO 26003KT 10SM CLR 22/07 A3005 RMK A01=||F||223|ICAO-KFCH
USW00023167|FRESNO CHANDLER DWTN AP|2022|02|14|20|55|36.7333|-119.8167|84.1|22.0||1|FM15-METAR|223|ICAO-KFCH|7.0||1|FM15-METAR|223|ICAO-KFCH|||||||||||||999|C-Calm|9|FM15-METAR|223|ICAO-KFCH|0.0|C-Calm|1|FM15-METAR|223|ICAO-KFCH|||||||||||||38|Derived||FM15-METAR|223|ICAO-KFCH|||||||||||||||||||||||||||||||||||||||||||||||||||||||||||||||||||||||||1017.3||1|FM15-METAR|223|ICAO-KFCH|||||||||||||||||||||||||||||||||||||||||||MET061METAR KFCH 142055Z AUTO 00000KT 10SM CLR 22/07 A3004 RMK A01=||F||223|ICAO-KFCH
USW00023167|FRESNO CHANDLER DWTN AP|2022|02|14|21|10|36.7333|-119.8167|84.1|22.0||1|FM15-METAR|223|ICAO-KFCH|6.0||1|FM15-METAR|223|ICAO-KFCH|||||||||||||999|C-Calm|9|FM15-METAR|223|ICAO-KFCH|0.0|C-Calm|1|FM15-METAR|223|ICAO-KFCH|||||||||||||36|Derived||FM15-METAR|223|ICAO-KFCH|||||||||||||||||||||||||||||||||||||||||||||||||||||||||||||||||||||||||1016.6||1|FM15-METAR|223|ICAO-KFCH|||||||||||||||||||||||||||||||||||||||||||MET061METAR KFCH 142110Z AUTO 00000KT 10SM CLR 22/06 A3002 RMK A01=||F||223|ICAO-KFCH
USW00023167|FRESNO CHANDLER DWTN AP|2022|02|14|21|35|36.7333|-119.8167|84.1|23.0||1|FM15-METAR|223|ICAO-KFCH|6.0||1|FM15-METAR|223|ICAO-KFCH|||||||||||||170|N-Normal|1|FM15-METAR|223|ICAO-KFCH|2.1|N-Normal|1|FM15-METAR|223|ICAO-KFCH|||||||||||||33|Derived||FM15-METAR|223|ICAO-KFCH|||||||||||||||||||||||||||||||||||||||||||||||||||||||||||||||||||||||||1016.3||1|FM15-METAR|223|ICAO-KFCH|||||||||||||||||||||||||||||||||||||||||||MET061METAR KFCH 142135Z AUTO 17004KT 10SM CLR 23/06 A3001 RMK A01=||F||223|ICAO-KFCH
USW00023167|FRESNO CHANDLER DWTN AP|2022|02|14|21|55|36.7333|-119.8167|84.1|23.0||1|FM15-METAR|223|ICAO-KFCH|6.0||1|FM15-METAR|223|ICAO-KFCH|||||||||||||999|C-Calm|9|FM15-METAR|223|ICAO-KFCH|0.0|C-Calm|1|FM15-METAR|223|ICAO-KFCH|||||||||||||33|Derived||FM15-METAR|223|ICAO-KFCH|||||||||||||||||||||||||||||||||||||||||||||||||||||||||||||||||||||||||1015.9||1|FM15-METAR|223|ICAO-KFCH|||||||||||||||||||||||||||||||||||||||||||MET061METAR KFCH 142155Z AUTO 00000KT 10SM CLR 23/06 A3000 RMK A01=||F||223|ICAO-KFCH
USW00023167|FRESNO CHANDLER DWTN AP|2022|02|14|22|15|36.7333|-119.8167|84.1|23.0||1|FM15-METAR|223|ICAO-KFCH|6.0||1|FM15-METAR|223|ICAO-KFCH|||||||||||||999|C-Calm|9|FM15-METAR|223|ICAO-KFCH|0.0|C-Calm|1|FM15-METAR|223|ICAO-KFCH|||||||||||||33|Derived||FM15-METAR|223|ICAO-KFCH|||||||||||||||||||||||||||||||||||||||||||||||||||||||||||||||||||||||||1015.6||1|FM15-METAR|223|ICAO-KFCH|||||||||||||||||||||||||||||||||||||||||||MET061METAR KFCH 142215Z AUTO 00000KT 10SM CLR 23/06 A2999 RMK A01=||F||223|ICAO-KFCH
USW00023167|FRESNO CHANDLER DWTN AP|2022|02|14|22|35|36.7333|-119.8167|84.1|23.0||1|FM15-METAR|223|ICAO-KFCH|6.0||1|FM15-METAR|223|ICAO-KFCH|||||||||||||999|C-Calm|9|FM15-METAR|223|ICAO-KFCH|0.0|C-Calm|1|FM15-METAR|223|ICAO-KFCH|||||||||||||33|Derived||FM15-METAR|223|ICAO-KFCH|||||||||||||||||||||||||||||||||||||||||||||||||||||||||||||||||||||||||1015.6||1|FM15-METAR|223|ICAO-KFCH|||||||||||||||||||||||||||||||||||||||||||MET061METAR KFCH 142235Z AUTO 00000KT 10SM CLR 23/06 A2999 RMK A01=||F||223|ICAO-KFCH
USW00023167|FRESNO CHANDLER DWTN AP|2022|02|14|22|55|36.7333|-119.8167|84.1|23.0||1|FM15-METAR|223|ICAO-KFCH|6.0||1|FM15-METAR|223|ICAO-KFCH|||||||||||||280|N-Normal|1|FM15-METAR|223|ICAO-KFCH|1.5|N-Normal|1|FM15-METAR|223|ICAO-KFCH|||||||||||||33|Derived||FM15-METAR|223|ICAO-KFCH|||||||||||||||||||||||||||||||||||||||||||||||||||||||||||||||||||||||||1015.2||1|FM15-METAR|223|ICAO-KFCH|||||||||||||||||||||||||||||||||||||||||||MET061METAR KFCH 142255Z AUTO 28003KT 10SM CLR 23/06 A2998 RMK A01=||F||223|ICAO-KFCH
USW00023167|FRESNO CHANDLER DWTN AP|2022|02|14|23|15|36.7333|-119.8167|84.1|23.0||1|FM15-METAR|223|ICAO-KFCH|7.0||1|FM15-METAR|223|ICAO-KFCH|||||||||||||310|N-Normal|1|FM15-METAR|223|ICAO-KFCH|2.6|N-Normal|1|FM15-METAR|223|ICAO-KFCH|||||||||||||36|Derived||FM15-METAR|223|ICAO-KFCH|||||||||||||||||||||||||||||||||||||||||||||||||||||||||||||||||||||||||1014.9||1|FM15-METAR|223|ICAO-KFCH|||||||||||||||||||||||||||||||||||||||||||MET061METAR KFCH 142315Z AUTO 31005KT 10SM CLR 23/07 A2997 RMK A01=||F||223|ICAO-KFCH
USW00023167|FRESNO CHANDLER DWTN AP|2022|02|14|23|35|36.7333|-119.8167|84.1|24.0||1|FM15-METAR|223|ICAO-KFCH|6.0||1|FM15-METAR|223|ICAO-KFCH|||||||||||||999|V-Variable|9|FM15-METAR|223|ICAO-KFCH|2.1|V-Variable|1|FM15-METAR|223|ICAO-KFCH|||||||||||||31|Derived||FM15-METAR|223|ICAO-KFCH|||||||||||||||||||||||||||||||||||||||||||||||||||||||||||||||||||||||||1014.9||1|FM15-METAR|223|ICAO-KFCH|||||||||||||||||||||||||||||||||||||||||||MET061METAR KFCH 142335Z AUTO VRB04KT 10SM CLR 24/06 A2997 RMK A01=||F||223|ICAO-KFCH
USW00023167|FRESNO CHANDLER DWTN AP|2022|02|14|23|55|36.7333|-119.8167|84.1|24.0||1|FM15-METAR|223|ICAO-KFCH|6.0||1|FM15-METAR|223|ICAO-KFCH|||||||||||||290|N-Normal|1|FM15-METAR|223|ICAO-KFCH|2.6|N-Normal|1|FM15-METAR|223|ICAO-KFCH|||||||||||||31|Derived||FM15-METAR|223|ICAO-KFCH|||||||||||||||||||||||||||||||||||||||||||||||||||||||||||||||||||||||||1014.6||1|FM15-METAR|223|ICAO-KFCH|||||||||||||||||||||||||||||||||||||||||||MET061METAR KFCH 142355Z AUTO 29005KT 10SM CLR 24/06 A2996 RMK A01=||F||223|ICAO-KFCH
USW00023167|FRESNO CHANDLER DWTN AP|2022|02|15|00|10|36.7333|-119.8167|84.1|23.0||1|FM15-METAR|223|ICAO-KFCH|6.0||1|FM15-METAR|223|ICAO-KFCH|||||||||||||999|V-Variable|9|FM15-METAR|223|ICAO-KFCH|2.1|V-Variable|1|FM15-METAR|223|ICAO-KFCH|||||||||||||33|Derived||FM15-METAR|223|ICAO-KFCH|||||||||||||||||||||||||||||||||||||||||||||||||||||||||||||||||||||||||1014.2||1|FM15-METAR|223|ICAO-KFCH|||||||||||||||||||||||||||||||||||||||||||MET061METAR KFCH 150010Z AUTO VRB04KT 10SM CLR 23/06 A2995 RMK A01=||F||223|ICAO-KFCH
USW00023167|FRESNO CHANDLER DWTN AP|2022|02|15|00|35|36.7333|-119.8167|84.1|23.0||1|FM15-METAR|223|ICAO-KFCH|6.0||1|FM15-METAR|223|ICAO-KFCH|||||||||||||290|N-Normal|1|FM15-METAR|223|ICAO-KFCH|2.1|N-Normal|1|FM15-METAR|223|ICAO-KFCH|||||||||||||33|Derived||FM15-METAR|223|ICAO-KFCH|||||||||||||||||||||||||||||||||||||||||||||||||||||||||||||||||||||||||1013.9||1|FM15-METAR|223|ICAO-KFCH|||||||||||||||||||||||||||||||||||||||||||MET061METAR KFCH 150035Z AUTO 29004KT 10SM CLR 23/06 A2994 RMK A01=||F||223|ICAO-KFCH
USW00023167|FRESNO CHANDLER DWTN AP|2022|02|15|00|55|36.7333|-119.8167|84.1|23.0||1|FM15-METAR|223|ICAO-KFCH|7.0||1|FM15-METAR|223|ICAO-KFCH|||||||||||||320|N-Normal|1|FM15-METAR|223|ICAO-KFCH|3.6|N-Normal|1|FM15-METAR|223|ICAO-KFCH|||||||||||||36|Derived||FM15-METAR|223|ICAO-KFCH|||||||||||||||||||||||||||||||||||||||||||||||||||||||||||||||||||||||||1013.5||1|FM15-METAR|223|ICAO-KFCH|||||||||||||||||||||||||||||||||||||||||||MET061METAR KFCH 150055Z AUTO 32007KT 10SM CLR 23/07 A2993 RMK A01=||F||223|ICAO-KFCH
USW00023167|FRESNO CHANDLER DWTN AP|2022|02|15|01|15|36.7333|-119.8167|84.1|22.0||1|FM15-METAR|223|ICAO-KFCH|7.0||1|FM15-METAR|223|ICAO-KFCH|||||||||||||310|N-Normal|1|FM15-METAR|223|ICAO-KFCH|3.1|N-Normal|1|FM15-METAR|223|ICAO-KFCH|||||||||||||38|Derived||FM15-METAR|223|ICAO-KFCH|||||||||||||||||||||||||||||||||||||||||||||||||||||||||||||||||||||||||1013.5||1|FM15-METAR|223|ICAO-KFCH|||||||||||||||||||||||||||||||||||||||||||MET061METAR KFCH 150115Z AUTO 31006KT 10SM CLR 22/07 A2993 RMK A01=||F||223|ICAO-KFCH
USW00023167|FRESNO CHANDLER DWTN AP|2022|02|15|01|35|36.7333|-119.8167|84.1|22.0||1|FM15-METAR|223|ICAO-KFCH|7.0||1|FM15-METAR|223|ICAO-KFCH|||||||||||||320|N-Normal|1|FM15-METAR|223|ICAO-KFCH|1.5|N-Normal|1|FM15-METAR|223|ICAO-KFCH|||||||||||||38|Derived||FM15-METAR|223|ICAO-KFCH|||||||||||||||||||||||||||||||||||||||||||||||||||||||||||||||||||||||||1013.2||1|FM15-METAR|223|ICAO-KFCH|||||||||||||||||||||||||||||||||||||||||||MET061METAR KFCH 150135Z AUTO 32003KT 10SM CLR 22/07 A2992 RMK A01=||F||223|ICAO-KFCH
USW00023167|FRESNO CHANDLER DWTN AP|2022|02|15|01|55|36.7333|-119.8167|84.1|21.0||1|FM15-METAR|223|ICAO-KFCH|7.0||1|FM15-METAR|223|ICAO-KFCH|||||||||||||330|N-Normal|1|FM15-METAR|223|ICAO-KFCH|2.6|N-Normal|1|FM15-METAR|223|ICAO-KFCH|||||||||||||40|Derived||FM15-METAR|223|ICAO-KFCH|||||||||||||||||||||||||||||||||||||||||||||||||||||||||||||||||||||||||1013.2||1|FM15-METAR|223|ICAO-KFCH|||||||||||||||||||||||||||||||||||||||||||MET061METAR KFCH 150155Z AUTO 33005KT 10SM CLR 21/07 A2992 RMK A01=||F||223|ICAO-KFCH
USW00023167|FRESNO CHANDLER DWTN AP|2022|02|15|02|15|36.7333|-119.8167|84.1|21.0||1|FM15-METAR|223|ICAO-KFCH|7.0||1|FM15-METAR|223|ICAO-KFCH|||||||||||||360|N-Normal|1|FM15-METAR|223|ICAO-KFCH|2.1|N-Normal|1|FM15-METAR|223|ICAO-KFCH|||||||||||||40|Derived||FM15-METAR|223|ICAO-KFCH|||||||||||||||||||||||||||||||||||||||||||||||||||||||||||||||||||||||||1013.2||1|FM15-METAR|223|ICAO-KFCH|||||||||||||||||||||||||||||||||||||||||||MET061METAR KFCH 150215Z AUTO 36004KT 10SM CLR 21/07 A2992 RMK A01=||F||223|ICAO-KFCH
USW00023167|FRESNO CHANDLER DWTN AP|2022|02|15|02|35|36.7333|-119.8167|84.1|20.0||1|FM15-METAR|223|ICAO-KFCH|7.0||1|FM15-METAR|223|ICAO-KFCH|||||||||||||999|C-Calm|9|FM15-METAR|223|ICAO-KFCH|0.0|C-Calm|1|FM15-METAR|223|ICAO-KFCH|||||||||||||43|Derived||FM15-METAR|223|ICAO-KFCH|||||||||||||||||||||||||||||||||||||||||||||||||||||||||||||||||||||||||1012.9||1|FM15-METAR|223|ICAO-KFCH|||||||||||||||||||||||||||||||||||||||||||MET061METAR KFCH 150235Z AUTO 00000KT 10SM CLR 20/07 A2991 RMK A01=||F||223|ICAO-KFCH
USW00023167|FRESNO CHANDLER DWTN AP|2022|02|15|02|55|36.7333|-119.8167|84.1|19.0||1|FM15-METAR|223|ICAO-KFCH|8.0||1|FM15-METAR|223|ICAO-KFCH|||||||||||||999|C-Calm|9|FM15-METAR|223|ICAO-KFCH|0.0|C-Calm|1|FM15-METAR|223|ICAO-KFCH|||||||||||||49|Derived||FM15-METAR|223|ICAO-KFCH|||||||||||||||||||||||||||||||||||||||||||||||||||||||||||||||||||||||||1012.9||1|FM15-METAR|223|ICAO-KFCH|||||||||||||||||||||||||||||||||||||||||||MET061METAR KFCH 150255Z AUTO 00000KT 10SM CLR 19/08 A2991 RMK A01=||F||223|ICAO-KFCH
USW00023167|FRESNO CHANDLER DWTN AP|2022|02|15|03|15|36.7333|-119.8167|84.1|17.0||1|FM15-METAR|223|ICAO-KFCH|8.0||1|FM15-METAR|223|ICAO-KFCH|||||||||||||280|N-Normal|1|FM15-METAR|223|ICAO-KFCH|3.1|N-Normal|1|FM15-METAR|223|ICAO-KFCH|||||||||||||56|Derived||FM15-METAR|223|ICAO-KFCH|||||||||||||||||||||||||||||||||||||||||||||||||||||||||||||||||||||||||1013.2||1|FM15-METAR|223|ICAO-KFCH|||||||||||||||||||||||||||||||||||||||||||MET061METAR KFCH 150315Z AUTO 28006KT 10SM CLR 17/08 A2992 RMK A01=||F||223|ICAO-KFCH
USW00023167|FRESNO CHANDLER DWTN AP|2022|02|15|03|35|36.7333|-119.8167|84.1|17.0||1|FM15-METAR|223|ICAO-KFCH|7.0||1|FM15-METAR|223|ICAO-KFCH|||||||||||||310|N-Normal|1|FM15-METAR|223|ICAO-KFCH|4.1|N-Normal|1|FM15-METAR|223|ICAO-KFCH|||||||||||||52|Derived||FM15-METAR|223|ICAO-KFCH|||||||||||||||||||||||||||||||||||||||||||||||||||||||||||||||||||||||||1013.2||1|FM15-METAR|223|ICAO-KFCH|||||||||||||||||||||||||||||||||||||||||||MET061METAR KFCH 150335Z AUTO 31008KT 10SM CLR 17/07 A2992 RMK A01=||F||223|ICAO-KFCH
USW00023167|FRESNO CHANDLER DWTN AP|2022|02|15|03|50|36.7333|-119.8167|84.1|17.0||1|FM15-METAR|223|ICAO-KFCH|8.0||1|FM15-METAR|223|ICAO-KFCH|||||||||||||310|N-Normal|1|FM15-METAR|223|ICAO-KFCH|5.1|N-Normal|1|FM15-METAR|223|ICAO-KFCH|8.2||1|FM15-METAR|223|ICAO-KFCH|||||||56|Derived||FM15-METAR|223|ICAO-KFCH|||||||||||||||||||||||||||||||||||||||||||||||||||||||||||||||||||||||||1013.2||1|FM15-METAR|223|ICAO-KFCH|||||||||||||||||||||||||||||||||||||||||||MET067METAR KFCH 150350Z AUTO 31010G16KT 10SM FEW003 17/08 A2992 RMK A01=||F||223|ICAO-KFCH
USW00023167|FRESNO CHANDLER DWTN AP|2022|02|15|04|15|36.7333|-119.8167|84.1|15.0||1|FM15-METAR|223|ICAO-KFCH|8.0||1|FM15-METAR|223|ICAO-KFCH|||||||||||||310|N-Normal|1|FM15-METAR|223|ICAO-KFCH|4.6|N-Normal|1|FM15-METAR|223|ICAO-KFCH|||||||||||||63|Derived||FM15-METAR|223|ICAO-KFCH|||||||||||||||||||||||||||||||||||||||||||||||||||||||||||||||||||||||||1013.2||1|FM15-METAR|223|ICAO-KFCH|||||||||||||||||||||||||||||||||||||||||||MET061METAR KFCH 150415Z AUTO 31009KT 10SM CLR 15/08 A2992 RMK A01=||F||223|ICAO-KFCH
USW00023167|FRESNO CHANDLER DWTN AP|2022|02|15|04|35|36.7333|-119.8167|84.1|15.0||1|FM15-METAR|223|ICAO-KFCH|7.0||1|FM15-METAR|223|ICAO-KFCH|||||||||||||300|N-Normal|1|FM15-METAR|223|ICAO-KFCH|5.7|N-Normal|1|FM15-METAR|223|ICAO-KFCH|||||||||||||59|Derived||FM15-METAR|223|ICAO-KFCH|||||||||||||||||||||||||||||||||||||||||||||||||||||||||||||||||||||||||1013.2||1|FM15-METAR|223|ICAO-KFCH|||||||||||||||||||||||||||||||||||||||||||MET061METAR KFCH 150435Z AUTO 30011KT 10SM CLR 15/07 A2992 RMK A01=||F||223|ICAO-KFCH
USW00023167|FRESNO CHANDLER DWTN AP|2022|02|15|04|55|36.7333|-119.8167|84.1|14.0||1|FM15-METAR|223|ICAO-KFCH|8.0||1|FM15-METAR|223|ICAO-KFCH|||||||||||||300|N-Normal|1|FM15-METAR|223|ICAO-KFCH|4.6|N-Normal|1|FM15-METAR|223|ICAO-KFCH|||||||||||||67|Derived||FM15-METAR|223|ICAO-KFCH|||||||||||||||||||||||||||||||||||||||||||||||||||||||||||||||||||||||||1013.5||1|FM15-METAR|223|ICAO-KFCH|||||||||||||||||||||||||||||||||||||||||||MET061METAR KFCH 150455Z AUTO 30009KT 10SM CLR 14/08 A2993 RMK A01=||F||223|ICAO-KFCH
USW00023167|FRESNO CHANDLER DWTN AP|2022|02|15|05|15|36.7333|-119.8167|84.1|||||||||||||||||||||||||||||||||||||||||||||||||||||||||||||||||||||||||||||||||||||||||||||||||||||||||||||||||||||||||||||||||||||||||||||||||||||||||||||||||||||||||||||||MET032METAR KFCH 150515Z AUTO RMK A01=||F||223|ICAO-KFCH
USW00023167|FRESNO CHANDLER DWTN AP|2022|02|15|05|35|36.7333|-119.8167|84.1|13.0||1|FM15-METAR|223|ICAO-KFCH|8.0||1|FM15-METAR|223|ICAO-KFCH|||||||||||||310|N-Normal|1|FM15-METAR|223|ICAO-KFCH|5.1|N-Normal|1|FM15-METAR|223|ICAO-KFCH|||||||||||||72|Derived||FM15-METAR|223|ICAO-KFCH|||||||||||||||||||||||||||||||||||||||||||||||||||||||||||||||||||||||||1013.9||1|FM15-METAR|223|ICAO-KFCH|||||||||||||||||||||||||||||||||||||||||||MET057METAR KFCH 150535Z AUTO 31010KT 10SM 13/08 A2994 RMK A01=||F||223|ICAO-KFCH
USW00023167|FRESNO CHANDLER DWTN AP|2022|02|15|05|50|36.7333|-119.8167|84.1|13.0||1|FM15-METAR|223|ICAO-KFCH|8.0||1|FM15-METAR|223|ICAO-KFCH|||||||||||||320|N-Normal|1|FM15-METAR|223|ICAO-KFCH|5.7|N-Normal|1|FM15-METAR|223|ICAO-KFCH|||||||||||||72|Derived||FM15-METAR|223|ICAO-KFCH|||||||||||||||||||||||||||||||||||||||||||||||||||||||||||||||||||||||||1013.9||1|FM15-METAR|223|ICAO-KFCH|||||||||||||||||||||||||||||||||||||||||||MET057METAR KFCH 150550Z AUTO 32011KT 10SM 13/08 A2994 RMK A01=||F||223|ICAO-KFCH
USW00023167|FRESNO CHANDLER DWTN AP|2022|02|15|06|10|36.7333|-119.8167|84.1|13.0||1|FM15-METAR|223|ICAO-KFCH|7.0||1|FM15-METAR|223|ICAO-KFCH|||||||||||||320|N-Normal|1|FM15-METAR|223|ICAO-KFCH|6.7|N-Normal|1|FM15-METAR|223|ICAO-KFCH|9.8||1|FM15-METAR|223|ICAO-KFCH|||||||67|Derived||FM15-METAR|223|ICAO-KFCH|||||||||||||||||||||||||||||||||||||||||||||||||||||||||||||||||||||||||1013.9||1|FM15-METAR|223|ICAO-KFCH|||||||||||||||||||||||||||||||||||||||||||MET067METAR KFCH 150610Z AUTO 32013G19KT 10SM BKN043 13/07 A2994 RMK A01=||F||223|ICAO-KFCH
USW00023167|FRESNO CHANDLER DWTN AP|2022|02|15|06|35|36.7333|-119.8167|84.1|13.0||1|FM15-METAR|223|ICAO-KFCH|7.0||1|FM15-METAR|223|ICAO-KFCH|||||||||||||320|N-Normal|1|FM15-METAR|223|ICAO-KFCH|6.7|N-Normal|1|FM15-METAR|223|ICAO-KFCH|||||||||||||67|Derived||FM15-METAR|223|ICAO-KFCH|||||||||||||||||||||||||||||||||||||||||||||||||||||||||||||||||||||||||1013.9||1|FM15-METAR|223|ICAO-KFCH|||||||||||||||||||||||||||||||||||||||||||MET064METAR KFCH 150635Z AUTO 32013KT 10SM BKN041 13/07 A2994 RMK A01=||F||223|ICAO-KFCH
USW00023167|FRESNO CHANDLER DWTN AP|2022|02|15|06|50|36.7333|-119.8167|84.1|13.0||1|FM15-METAR|223|ICAO-KFCH|7.0||1|FM15-METAR|223|ICAO-KFCH|||||||||||||310|N-Normal|1|FM15-METAR|223|ICAO-KFCH|6.2|N-Normal|1|FM15-METAR|223|ICAO-KFCH|10.3||1|FM15-METAR|223|ICAO-KFCH|||||||67|Derived||FM15-METAR|223|ICAO-KFCH|||||||||||||||||||||||||||||||||||||||||||||||||||||||||||||||||||||||||1013.9||1|FM15-METAR|223|ICAO-KFCH|||||||||||||||||||||||||||||||||||||||||||MET067METAR KFCH 150650Z AUTO 31012G20KT 10SM BKN043 13/07 A2994 RMK A01=||F||223|ICAO-KFCH
USW00023167|FRESNO CHANDLER DWTN AP|2022|02|15|07|15|36.7333|-119.8167|84.1|12.0||1|FM15-METAR|223|ICAO-KFCH|7.0||1|FM15-METAR|223|ICAO-KFCH|||||||||||||310|N-Normal|1|FM15-METAR|223|ICAO-KFCH|6.2|N-Normal|1|FM15-METAR|223|ICAO-KFCH|8.8||1|FM15-METAR|223|ICAO-KFCH|||||||72|Derived||FM15-METAR|223|ICAO-KFCH|||||||||||||||||||||||||||||||||||||||||||||||||||||||||||||||||||||||||1013.9||1|FM15-METAR|223|ICAO-KFCH|||||||||||||||||||||||||||||||||||||||||||MET067METAR KFCH 150715Z AUTO 31012G17KT 10SM SCT045 12/07 A2994 RMK A01=||F||223|ICAO-KFCH
USW00023167|FRESNO CHANDLER DWTN AP|2022|02|15|07|35|36.7333|-119.8167|84.1|12.0||1|FM15-METAR|223|ICAO-KFCH|7.0||1|FM15-METAR|223|ICAO-KFCH|||||||||||||310|N-Normal|1|FM15-METAR|223|ICAO-KFCH|6.7|N-Normal|1|FM15-METAR|223|ICAO-KFCH|||||||||||||72|Derived||FM15-METAR|223|ICAO-KFCH|||||||||||||||||||||||||||||||||||||||||||||||||||||||||||||||||||||||||1013.9||1|FM15-METAR|223|ICAO-KFCH|||||||||||||||||||||||||||||||||||||||||||MET078METAR KFCH 150735Z AUTO 31013KT 10SM FEW034 SCT046 SCT055 12/07 A2994 RMK A01=||F||223|ICAO-KFCH
USW00023167|FRESNO CHANDLER DWTN AP|2022|02|15|07|55|36.7333|-119.8167|84.1|12.0||1|FM15-METAR|223|ICAO-KFCH|7.0||1|FM15-METAR|223|ICAO-KFCH|||||||||||||310|N-Normal|1|FM15-METAR|223|ICAO-KFCH|4.6|N-Normal|1|FM15-METAR|223|ICAO-KFCH|||||||||||||72|Derived||FM15-METAR|223|ICAO-KFCH|||||||||||||||||||||||||||||||||||||||||||||||||||||||||||||||||||||||||1013.5||1|FM15-METAR|223|ICAO-KFCH|||||||||||||||||||||||||||||||||||||||||||MET078METAR KFCH 150755Z AUTO 31009KT 10SM BKN034 BKN048 BKN055 12/07 A2993 RMK A01=||F||223|ICAO-KFCH
USW00023167|FRESNO CHANDLER DWTN AP|2022|02|15|08|15|36.7333|-119.8167|84.1|12.0||1|FM15-METAR|223|ICAO-KFCH|7.0||1|FM15-METAR|223|ICAO-KFCH|||||||||||||310|N-Normal|1|FM15-METAR|223|ICAO-KFCH|6.7|N-Normal|1|FM15-METAR|223|ICAO-KFCH|||||||||||||72|Derived||FM15-METAR|223|ICAO-KFCH|||||||||||||||||||||||||||||||||||||||||||||||||||||||||||||||||||||||||1013.5||1|FM15-METAR|223|ICAO-KFCH|||||||||||||||||||||||||||||||||||||||||||MET078METAR KFCH 150815Z AUTO 31013KT 10SM FEW034 FEW043 BKN050 12/07 A2993 RMK A01=||F||223|ICAO-KFCH
USW00023167|FRESNO CHANDLER DWTN AP|2022|02|15|08|35|36.7333|-119.8167|84.1|11.0||1|FM15-METAR|223|ICAO-KFCH|8.0||1|FM15-METAR|223|ICAO-KFCH|||||||||||||310|N-Normal|1|FM15-METAR|223|ICAO-KFCH|5.1|N-Normal|1|FM15-METAR|223|ICAO-KFCH|8.2||1|FM15-METAR|223|ICAO-KFCH|||||||82|Derived||FM15-METAR|223|ICAO-KFCH|||||||||||||||||||||||||||||||||||||||||||||||||||||||||||||||||||||||||1013.5||1|FM15-METAR|223|ICAO-KFCH|||||||||||||||||||||||||||||||||||||||||||MET074METAR KFCH 150835Z AUTO 31010G16KT 10SM FEW022 BKN049 11/08 A2993 RMK A01=||F||223|ICAO-KFCH
USW00023167|FRESNO CHANDLER DWTN AP|2022|02|15|08|50|36.7333|-119.8167|84.1|11.0||1|FM15-METAR|223|ICAO-KFCH|7.0||1|FM15-METAR|223|ICAO-KFCH|||||||||||||310|N-Normal|1|FM15-METAR|223|ICAO-KFCH|6.7|N-Normal|1|FM15-METAR|223|ICAO-KFCH|||||||||||||77|Derived||FM15-METAR|223|ICAO-KFCH|||||||||||||||||||||||||||||||||||||||||||||||||||||||||||||||||||||||||1013.5||1|FM15-METAR|223|ICAO-KFCH|||||||||||||||||||||||||||||||||||||||||||MET071METAR KFCH 150850Z AUTO 31013KT 10SM SCT025 BKN046 11/07 A2993 RMK A01=||F||223|ICAO-KFCH
USW00023167|FRESNO CHANDLER DWTN AP|2022|02|15|09|15|36.7333|-119.8167|84.1|10.0||1|FM15-METAR|223|ICAO-KFCH|7.0||1|FM15-METAR|223|ICAO-KFCH|||||||||||||330|N-Normal|1|FM15-METAR|223|ICAO-KFCH|7.2|N-Normal|1|FM15-METAR|223|ICAO-KFCH|10.3||1|FM15-METAR|223|ICAO-KFCH|||||||82|Derived||FM15-METAR|223|ICAO-KFCH|||||||||||||||||||||||||||||||||||||||||||||||||||||||||||||||||||||||||1013.5||1|FM15-METAR|223|ICAO-KFCH|||||||||||||||||||||||||||||||||||||||||||MET060METAR KFCH 150915Z AUTO 33014G20KT 10SM 10/07 A2993 RMK A01=||F||223|ICAO-KFCH
USW00023167|FRESNO CHANDLER DWTN AP|2022|02|15|09|35|36.7333|-119.8167|84.1|10.0||1|FM15-METAR|223|ICAO-KFCH|6.0||1|FM15-METAR|223|ICAO-KFCH|||||||||||||330|N-Normal|1|FM15-METAR|223|ICAO-KFCH|6.2|N-Normal|1|FM15-METAR|223|ICAO-KFCH|9.3||1|FM15-METAR|223|ICAO-KFCH|||||||76|Derived||FM15-METAR|223|ICAO-KFCH|||||||||||||||||||||||||||||||||||||||||||||||||||||||||||||||||||||||||1013.5||1|FM15-METAR|223|ICAO-KFCH|||||||||||||||||||||||||||||||||||||||||||MET081METAR KFCH 150935Z AUTO 33012G18KT 10SM FEW027 SCT043 SCT049 10/06 A2993 RMK A01=||F||223|ICAO-KFCH
USW00023167|FRESNO CHANDLER DWTN AP|2022|02|15|09|55|36.7333|-119.8167|84.1|10.0||1|FM15-METAR|223|ICAO-KFCH|6.0||1|FM15-METAR|223|ICAO-KFCH|||||||||||||320|N-Normal|1|FM15-METAR|223|ICAO-KFCH|6.7|N-Normal|1|FM15-METAR|223|ICAO-KFCH|11.8||1|FM15-METAR|223|ICAO-KFCH|||||||76|Derived||FM15-METAR|223|ICAO-KFCH|||||||||||||||||||||||||||||||||||||||||||||||||||||||||||||||||||||||||1013.5||1|FM15-METAR|223|ICAO-KFCH|||||||||||||||||||||||||||||||||||||||||||MET074METAR KFCH 150955Z AUTO 32013G23KT 10SM FEW025 FEW030 10/06 A2993 RMK A01=||F||223|ICAO-KFCH
USW00023167|FRESNO CHANDLER DWTN AP|2022|02|15|10|10|36.7333|-119.8167|84.1|10.0||1|FM15-METAR|223|ICAO-KFCH|6.0||1|FM15-METAR|223|ICAO-KFCH|||||||||||||320|N-Normal|1|FM15-METAR|223|ICAO-KFCH|5.7|N-Normal|1|FM15-METAR|223|ICAO-KFCH|9.3||1|FM15-METAR|223|ICAO-KFCH|||||||76|Derived||FM15-METAR|223|ICAO-KFCH|||||||||||||||||||||||||||||||||||||||||||||||||||||||||||||||||||||||||1013.5||1|FM15-METAR|223|ICAO-KFCH|||||||||||||||||||||||||||||||||||||||||||MET064METAR KFCH 151010Z AUTO 32011G18KT 10SM CLR 10/06 A2993 RMK A01=||F||223|ICAO-KFCH
USW00023167|FRESNO CHANDLER DWTN AP|2022|02|15|10|35|36.7333|-119.8167|84.1|9.0||1|FM15-METAR|223|ICAO-KFCH|6.0||1|FM15-METAR|223|ICAO-KFCH|||||||||||||320|N-Normal|1|FM15-METAR|223|ICAO-KFCH|6.2|N-Normal|1|FM15-METAR|223|ICAO-KFCH|||||||||||||82|Derived||FM15-METAR|223|ICAO-KFCH|||||||||||||||||||||||||||||||||||||||||||||||||||||||||||||||||||||||||1013.2||1|FM15-METAR|223|ICAO-KFCH|||||||||||||||||||||||||||||||||||||||||||MET061METAR KFCH 151035Z AUTO 32012KT 10SM CLR 09/06 A2992 RMK A01=||F||223|ICAO-KFCH
USW00023167|FRESNO CHANDLER DWTN AP|2022|02|15|10|55|36.7333|-119.8167|84.1|9.0||1|FM15-METAR|223|ICAO-KFCH|6.0||1|FM15-METAR|223|ICAO-KFCH|||||||||||||320|N-Normal|1|FM15-METAR|223|ICAO-KFCH|5.7|N-Normal|1|FM15-METAR|223|ICAO-KFCH|8.2||1|FM15-METAR|223|ICAO-KFCH|||||||82|Derived||FM15-METAR|223|ICAO-KFCH|||||||||||||||||||||||||||||||||||||||||||||||||||||||||||||||||||||||||1013.2||1|FM15-METAR|223|ICAO-KFCH|||||||||||||||||||||||||||||||||||||||||||MET064METAR KFCH 151055Z AUTO 32011G16KT 10SM CLR 09/06 A2992 RMK A01=||F||223|ICAO-KFCH
USW00023167|FRESNO CHANDLER DWTN AP|2022|02|15|11|15|36.7333|-119.8167|84.1|9.0||1|FM15-METAR|223|ICAO-KFCH|6.0||1|FM15-METAR|223|ICAO-KFCH|||||||||||||320|N-Normal|1|FM15-METAR|223|ICAO-KFCH|4.1|N-Normal|1|FM15-METAR|223|ICAO-KFCH|7.7||1|FM15-METAR|223|ICAO-KFCH|||||||82|Derived||FM15-METAR|223|ICAO-KFCH|||||||||||||||||||||||||||||||||||||||||||||||||||||||||||||||||||||||||1013.2||1|FM15-METAR|223|ICAO-KFCH|||||||||||||||||||||||||||||||||||||||||||MET074METAR KFCH 151115Z AUTO 32008G15KT 10SM FEW026 FEW035 09/06 A2992 RMK A01=||F||223|ICAO-KFCH
USW00023167|FRESNO CHANDLER DWTN AP|2022|02|15|11|30|36.7333|-119.8167|84.1|9.0||1|FM15-METAR|223|ICAO-KFCH|6.0||1|FM15-METAR|223|ICAO-KFCH|||||||||||||320|N-Normal|1|FM15-METAR|223|ICAO-KFCH|4.6|N-Normal|1|FM15-METAR|223|ICAO-KFCH|7.2||1|FM15-METAR|223|ICAO-KFCH|||||||82|Derived||FM15-METAR|223|ICAO-KFCH|||||||||||||||||||||||||||||||||||||||||||||||||||||||||||||||||||||||||1013.2||1|FM15-METAR|223|ICAO-KFCH|||||||||||||||||||||||||||||||||||||||||||MET081METAR KFCH 151130Z AUTO 32009G14KT 10SM SCT027 SCT033 SCT040 09/06 A2992 RMK A01=||F||223|ICAO-KFCH
USW00023167|FRESNO CHANDLER DWTN AP|2022|02|15|11|55|36.7333|-119.8167|84.1|8.0||1|FM15-METAR|223|ICAO-KFCH|6.0||1|FM15-METAR|223|ICAO-KFCH|||||||||||||310|N-Normal|1|FM15-METAR|223|ICAO-KFCH|3.6|N-Normal|1|FM15-METAR|223|ICAO-KFCH|||||||||||||87|Derived||FM15-METAR|223|ICAO-KFCH|||||||||||||||||||||||||||||||||||||||||||||||||||||||||||||||||||||||||1013.2||1|FM15-METAR|223|ICAO-KFCH|||||||||||||||||||||||||||||||||||||||||||MET078METAR KFCH 151155Z AUTO 31007KT 10SM FEW025 FEW029 SCT037 08/06 A2992 RMK A01=||F||223|ICAO-KFCH
USW00023167|FRESNO CHANDLER DWTN AP|2022|02|15|12|15|36.7333|-119.8167|84.1|8.0||1|FM15-METAR|223|ICAO-KFCH|6.0||1|FM15-METAR|223|ICAO-KFCH|||||||||||||320|N-Normal|1|FM15-METAR|223|ICAO-KFCH|4.1|N-Normal|1|FM15-METAR|223|ICAO-KFCH|||||||||||||87|Derived||FM15-METAR|223|ICAO-KFCH|||||||||||||||||||||||||||||||||||||||||||||||||||||||||||||||||||||||||1013.2||1|FM15-METAR|223|ICAO-KFCH|||||||||||||||||||||||||||||||||||||||||||MET057METAR KFCH 151215Z AUTO 32008KT 10SM 08/06 A2992 RMK A01=||F||223|ICAO-KFCH
USW00023167|FRESNO CHANDLER DWTN AP|2022|02|15|12|35|36.7333|-119.8167|84.1|8.0||1|FM15-METAR|223|ICAO-KFCH|6.0||1|FM15-METAR|223|ICAO-KFCH|||||||||||||300|N-Normal|1|FM15-METAR|223|ICAO-KFCH|4.6|N-Normal|1|FM15-METAR|223|ICAO-KFCH|8.8||1|FM15-METAR|223|ICAO-KFCH|||||||87|Derived||FM15-METAR|223|ICAO-KFCH|||||||||||||||||||||||||||||||||||||||||||||||||||||||||||||||||||||||||1013.2||1|FM15-METAR|223|ICAO-KFCH|||||||||||||||||||||||||||||||||||||||||||MET060METAR KFCH 151235Z AUTO 30009G17KT 10SM 08/06 A2992 RMK A01=||F||223|ICAO-KFCH
USW00023167|FRESNO CHANDLER DWTN AP|2022|02|15|12|55|36.7333|-119.8167|84.1|8.0||1|FM15-METAR|223|ICAO-KFCH|6.0||1|FM15-METAR|223|ICAO-KFCH|||||||||||||310|N-Normal|1|FM15-METAR|223|ICAO-KFCH|3.6|N-Normal|1|FM15-METAR|223|ICAO-KFCH|||||||||||||87|Derived||FM15-METAR|223|ICAO-KFCH|||||||||||||||||||||||||||||||||||||||||||||||||||||||||||||||||||||||||1013.5||1|FM15-METAR|223|ICAO-KFCH|||||||||||||||||||||||||||||||||||||||||||MET057METAR KFCH 151255Z AUTO 31007KT 10SM 08/06 A2993 RMK A01=||F||223|ICAO-KFCH
USW00023167|FRESNO CHANDLER DWTN AP|2022|02|15|13|15|36.7333|-119.8167|84.1|8.0||1|FM15-METAR|223|ICAO-KFCH|6.0||1|FM15-METAR|223|ICAO-KFCH|||||||||||||320|N-Normal|1|FM15-METAR|223|ICAO-KFCH|3.1|N-Normal|1|FM15-METAR|223|ICAO-KFCH|5.7||1|FM15-METAR|223|ICAO-KFCH|||||||87|Derived||FM15-METAR|223|ICAO-KFCH|||||||||||||||||||||||||||||||||||||||||||||||||||||||||||||||||||||||||1013.5||1|FM15-METAR|223|ICAO-KFCH|||||||||||||||||||||||||||||||||||||||||||MET064METAR KFCH 151315Z AUTO 32006G11KT 10SM CLR 08/06 A2993 RMK A01=||F||223|ICAO-KFCH
USW00023167|FRESNO CHANDLER DWTN AP|2022|02|15|13|35|36.7333|-119.8167|84.1|7.0||1|FM15-METAR|223|ICAO-KFCH|6.0||1|FM15-METAR|223|ICAO-KFCH|||||||||||||300|N-Normal|1|FM15-METAR|223|ICAO-KFCH|4.1|N-Normal|1|FM15-METAR|223|ICAO-KFCH|||||||||||||93|Derived||FM15-METAR|223|ICAO-KFCH|||||||||||||||||||||||||||||||||||||||||||||||||||||||||||||||||||||||||1013.5||1|FM15-METAR|223|ICAO-KFCH|||||||||||||||||||||||||||||||||||||||||||MET061METAR KFCH 151335Z AUTO 30008KT 10SM CLR 07/06 A2993 RMK A01=||F||223|ICAO-KFCH
USW00023167|FRESNO CHANDLER DWTN AP|2022|02|15|13|55|36.7333|-119.8167|84.1|7.0||1|FM15-METAR|223|ICAO-KFCH|6.0||1|FM15-METAR|223|ICAO-KFCH|||||||||||||300|N-Normal|1|FM15-METAR|223|ICAO-KFCH|3.1|N-Normal|1|FM15-METAR|223|ICAO-KFCH|||||||||||||93|Derived||FM15-METAR|223|ICAO-KFCH|||||||||||||||||||||||||||||||||||||||||||||||||||||||||||||||||||||||||1013.5||1|FM15-METAR|223|ICAO-KFCH|||||||||||||||||||||||||||||||||||||||||||MET061METAR KFCH 151355Z AUTO 30006KT 10SM CLR 07/06 A2993 RMK A01=||F||223|ICAO-KFCH
USW00023167|FRESNO CHANDLER DWTN AP|2022|02|15|14|15|36.7333|-119.8167|84.1|6.0||1|FM15-METAR|223|ICAO-KFCH|5.0||1|FM15-METAR|223|ICAO-KFCH|||||||||||||270|N-Normal|1|FM15-METAR|223|ICAO-KFCH|1.5|N-Normal|1|FM15-METAR|223|ICAO-KFCH|||||||||||||93|Derived||FM15-METAR|223|ICAO-KFCH|||||||||||||||||||||||||||||||||||||||||||||||||||||||||||||||||||||||||1013.5||1|FM15-METAR|223|ICAO-KFCH|||||||||||||||||||||||||||||||||||||||||||MET061METAR KFCH 151415Z AUTO 27003KT 10SM CLR 06/05 A2993 RMK A01=||F||223|ICAO-KFCH
USW00023167|FRESNO CHANDLER DWTN AP|2022|02|15|14|35|36.7333|-119.8167|84.1|6.0||1|FM15-METAR|223|ICAO-KFCH|5.0||1|FM15-METAR|223|ICAO-KFCH|||||||||||||290|N-Normal|1|FM15-METAR|223|ICAO-KFCH|1.5|N-Normal|1|FM15-METAR|223|ICAO-KFCH|||||||||||||93|Derived||FM15-METAR|223|ICAO-KFCH|||||||||||||||||||||||||||||||||||||||||||||||||||||||||||||||||||||||||1013.5||1|FM15-METAR|223|ICAO-KFCH|||||||||||||||||||||||||||||||||||||||||||MET061METAR KFCH 151435Z AUTO 29003KT 10SM CLR 06/05 A2993 RMK A01=||F||223|ICAO-KFCH
USW00023167|FRESNO CHANDLER DWTN AP|2022|02|15|14|55|36.7333|-119.8167|84.1|6.0||1|FM15-METAR|223|ICAO-KFCH|5.0||1|FM15-METAR|223|ICAO-KFCH|||||||||||||300|N-Normal|1|FM15-METAR|223|ICAO-KFCH|1.5|N-Normal|1|FM15-METAR|223|ICAO-KFCH|||||||||||||93|Derived||FM15-METAR|223|ICAO-KFCH|||||||||||||||||||||||||||||||||||||||||||||||||||||||||||||||||||||||||1013.5||1|FM15-METAR|223|ICAO-KFCH|||||||||||||||||||||||||||||||||||||||||||MET061METAR KFCH 151455Z AUTO 30003KT 10SM CLR 06/05 A2993 RMK A01=||F||223|ICAO-KFCH
USW00023167|FRESNO CHANDLER DWTN AP|2022|02|15|15|15|36.7333|-119.8167|84.1|6.0||1|FM15-METAR|223|ICAO-KFCH|5.0||1|FM15-METAR|223|ICAO-KFCH|||||||||||||300|N-Normal|1|FM15-METAR|223|ICAO-KFCH|3.1|N-Normal|1|FM15-METAR|223|ICAO-KFCH|||||||||||||93|Derived||FM15-METAR|223|ICAO-KFCH|||||||||||||||||||||||||||||||||||||||||||||||||||||||||||||||||||||||||1013.5||1|FM15-METAR|223|ICAO-KFCH|||||||||||||||||||||||||||||||||||||||||||MET061METAR KFCH 151515Z AUTO 30006KT 10SM CLR 06/05 A2993 RMK A01=||F||223|ICAO-KFCH
USW00023167|FRESNO CHANDLER DWTN AP|2022|02|15|15|30|36.7333|-119.8167|84.1|7.0||1|FM15-METAR|223|ICAO-KFCH|5.0||1|FM15-METAR|223|ICAO-KFCH|||||||||||||290|N-Normal|1|FM15-METAR|223|ICAO-KFCH|3.6|N-Normal|1|FM15-METAR|223|ICAO-KFCH|||||||||||||87|Derived||FM15-METAR|223|ICAO-KFCH|||||||||||||||||||||||||||||||||||||||||||||||||||||||||||||||||||||||||1013.5||1|FM15-METAR|223|ICAO-KFCH|||||||||||||||||||||||||||||||||||||||||||MET061METAR KFCH 151530Z AUTO 29007KT 10SM CLR 07/05 A2993 RMK A01=||F||223|ICAO-KFCH
USW00023167|FRESNO CHANDLER DWTN AP|2022|02|15|15|50|36.7333|-119.8167|84.1|7.0||1|FM15-METAR|223|ICAO-KFCH|5.0||1|FM15-METAR|223|ICAO-KFCH|||||||||||||310|N-Normal|1|FM15-METAR|223|ICAO-KFCH|3.1|N-Normal|1|FM15-METAR|223|ICAO-KFCH|||||||||||||87|Derived||FM15-METAR|223|ICAO-KFCH|||||||||||||||||||||||||||||||||||||||||||||||||||||||||||||||||||||||||1013.5||1|FM15-METAR|223|ICAO-KFCH|||||||||||||||||||||||||||||||||||||||||||MET061METAR KFCH 151550Z AUTO 31006KT 10SM CLR 07/05 A2993 RMK A01=||F||223|ICAO-KFCH
USW00023167|FRESNO CHANDLER DWTN AP|2022|02|15|16|15|36.7333|-119.8167|84.1|8.0||1|FM15-METAR|223|ICAO-KFCH|4.0||1|FM15-METAR|223|ICAO-KFCH|||||||||||||300|N-Normal|1|FM15-METAR|223|ICAO-KFCH|3.6|N-Normal|1|FM15-METAR|223|ICAO-KFCH|||||||||||||76|Derived||FM15-METAR|223|ICAO-KFCH|||||||||||||||||||||||||||||||||||||||||||||||||||||||||||||||||||||||||1013.9||1|FM15-METAR|223|ICAO-KFCH|||||||||||||||||||||||||||||||||||||||||||MET061METAR KFCH 151615Z AUTO 30007KT 10SM CLR 08/04 A2994 RMK A01=||F||223|ICAO-KFCH
USW00023167|FRESNO CHANDLER DWTN AP|2022|02|15|16|35|36.7333|-119.8167|84.1|8.0||1|FM15-METAR|223|ICAO-KFCH|4.0||1|FM15-METAR|223|ICAO-KFCH|||||||||||||330|N-Normal|1|FM15-METAR|223|ICAO-KFCH|3.6|N-Normal|1|FM15-METAR|223|ICAO-KFCH|||||||||||||76|Derived||FM15-METAR|223|ICAO-KFCH|||||||||||||||||||||||||||||||||||||||||||||||||||||||||||||||||||||||||1014.2||1|FM15-METAR|223|ICAO-KFCH|||||||||||||||||||||||||||||||||||||||||||MET061METAR KFCH 151635Z AUTO 33007KT 10SM CLR 08/04 A2995 RMK A01=||F||223|ICAO-KFCH
USW00023167|FRESNO CHANDLER DWTN AP|2022|02|15|16|55|36.7333|-119.8167|84.1|9.0||1|FM15-METAR|223|ICAO-KFCH|4.0||1|FM15-METAR|223|ICAO-KFCH|||||||||||||300|N-Normal|1|FM15-METAR|223|ICAO-KFCH|4.6|N-Normal|1|FM15-METAR|223|ICAO-KFCH|||||||||||||71|Derived||FM15-METAR|223|ICAO-KFCH|||||||||||||||||||||||||||||||||||||||||||||||||||||||||||||||||||||||||1014.2||1|FM15-METAR|223|ICAO-KFCH|||||||||||||||||||||||||||||||||||||||||||MET061METAR KFCH 151655Z AUTO 30009KT 10SM CLR 09/04 A2995 RMK A01=||F||223|ICAO-KFCH
USW00023167|FRESNO CHANDLER DWTN AP|2022|02|15|17|15|36.7333|-119.8167|84.1|10.0||1|FM15-METAR|223|ICAO-KFCH|3.0||1|FM15-METAR|223|ICAO-KFCH|||||||||||||300|N-Normal|1|FM15-METAR|223|ICAO-KFCH|7.2|N-Normal|1|FM15-METAR|223|ICAO-KFCH|||||||||||||62|Derived||FM15-METAR|223|ICAO-KFCH|||||||||||||||||||||||||||||||||||||||||||||||||||||||||||||||||||||||||1013.9||1|FM15-METAR|223|ICAO-KFCH|||||||||||||||||||||||||||||||||||||||||||MET061METAR KFCH 151715Z AUTO 30014KT 10SM CLR 10/03 A2994 RMK A01=||F||223|ICAO-KFCH
USW00023167|FRESNO CHANDLER DWTN AP|2022|02|15|17|35|36.7333|-119.8167|84.1|11.0||1|FM15-METAR|223|ICAO-KFCH|2.0||1|FM15-METAR|223|ICAO-KFCH|||||||||||||300|N-Normal|1|FM15-METAR|223|ICAO-KFCH|7.2|N-Normal|1|FM15-METAR|223|ICAO-KFCH|9.8||1|FM15-METAR|223|ICAO-KFCH|||||||54|Derived||FM15-METAR|223|ICAO-KFCH|||||||||||||||||||||||||||||||||||||||||||||||||||||||||||||||||||||||||1013.9||1|FM15-METAR|223|ICAO-KFCH|||||||||||||||||||||||||||||||||||||||||||MET060METAR KFCH 151735Z AUTO 30014G19KT 10SM 11/02 A2994 RMK A01=||F||223|ICAO-KFCH
USW00023167|FRESNO CHANDLER DWTN AP|2022|02|15|17|55|36.7333|-119.8167|84.1|10.0||1|FM15-METAR|223|ICAO-KFCH|1.0||1|FM15-METAR|223|ICAO-KFCH|||||||||||||300|N-Normal|1|FM15-METAR|223|ICAO-KFCH|8.2|N-Normal|1|FM15-METAR|223|ICAO-KFCH|10.8||1|FM15-METAR|223|ICAO-KFCH|||||||54|Derived||FM15-METAR|223|ICAO-KFCH|||||||||||||||||||||||||||||||||||||||||||||||||||||||||||||||||||||||||1014.2||1|FM15-METAR|223|ICAO-KFCH|||||||||||||||||||||||||||||||||||||||||||MET067METAR KFCH 151755Z AUTO 30016G21KT 10SM BKN065 10/01 A2995 RMK A01=||F||223|ICAO-KFCH
USW00023167|FRESNO CHANDLER DWTN AP|2022|02|15|18|15|36.7333|-119.8167|84.1|10.0||1|FM15-METAR|223|ICAO-KFCH|1.0||1|FM15-METAR|223|ICAO-KFCH|||||||||||||300|N-Normal|1|FM15-METAR|223|ICAO-KFCH|7.7|N-Normal|1|FM15-METAR|223|ICAO-KFCH|||||||||||||54|Derived||FM15-METAR|223|ICAO-KFCH|||||||||||||||||||||||||||||||||||||||||||||||||||||||||||||||||||||||||1014.2||1|FM15-METAR|223|ICAO-KFCH|||||||||||||||||||||||||||||||||||||||||||MET064METAR KFCH 151815Z AUTO 30015KT 10SM OVC065 10/01 A2995 RMK A01=||F||223|ICAO-KFCH
USW00023167|FRESNO CHANDLER DWTN AP|2022|02|15|18|30|36.7333|-119.8167|84.1|10.0||1|FM15-METAR|223|ICAO-KFCH|0.0||1|FM15-METAR|223|ICAO-KFCH|||||||||||||310|N-Normal|1|FM15-METAR|223|ICAO-KFCH|6.2|N-Normal|1|FM15-METAR|223|ICAO-KFCH|9.3||1|FM15-METAR|223|ICAO-KFCH|||||||50|Derived||FM15-METAR|223|ICAO-KFCH|||||||||||||||||||||||||||||||||||||||||||||||||||||||||||||||||||||||||1014.2||1|FM15-METAR|223|ICAO-KFCH|||||||||||||||||||||||||||||||||||||||||||MET055METAR KFCH 151830Z AUTO 31012G18KT 10/00 A2995 RMK A01=||F||223|ICAO-KFCH
USW00023167|FRESNO CHANDLER DWTN AP|2022|02|15|18|55|36.7333|-119.8167|84.1|10.0||1|FM15-METAR|223|ICAO-KFCH|0.0||1|FM15-METAR|223|ICAO-KFCH|||||||||||||280|N-Normal|1|FM15-METAR|223|ICAO-KFCH|5.7|N-Normal|1|FM15-METAR|223|ICAO-KFCH|8.8||1|FM15-METAR|223|ICAO-KFCH|||||||50|Derived||FM15-METAR|223|ICAO-KFCH|||||||||||||||||||||||||||||||||||||||||||||||||||||||||||||||||||||||||1013.9||1|FM15-METAR|223|ICAO-KFCH|||||||||||||||||||||||||||||||||||||||||||MET074METAR KFCH 151855Z AUTO 28011G17KT 10SM FEW060 OVC070 10/00 A2994 RMK A01=||F||223|ICAO-KFCH
USW00023167|FRESNO CHANDLER DWTN AP|2022|02|15|19|15|36.7333|-119.8167|84.1|10.0||1|FM15-METAR|223|ICAO-KFCH|0.0||1|FM15-METAR|223|ICAO-KFCH|||||||||||||||||||||||||||||||||||||50|Derived||FM15-METAR|223|ICAO-KFCH|||||||||||||||||||||||||||||||||||||||||||||||||||||||||||||||||||||||||||||||||||||||||||||||||||||||||||||||||||||||||MET043METAR KFCH 151915Z AUTO 10SM 10/00 RMK A01=||F||223|ICAO-KFCH
USW00023167|FRESNO CHANDLER DWTN AP|2022|02|15|19|35|36.7333|-119.8167|84.1|11.0||1|FM15-METAR|223|ICAO-KFCH|0.0||1|FM15-METAR|223|ICAO-KFCH|||||||||||||300|N-Normal|1|FM15-METAR|223|ICAO-KFCH|5.7|N-Normal|1|FM15-METAR|223|ICAO-KFCH|8.2||1|FM15-METAR|223|ICAO-KFCH|||||||47|Derived||FM15-METAR|223|ICAO-KFCH|||||||||||||||||||||||||||||||||||||||||||||||||||||||||||||||||||||||||1013.5||1|FM15-METAR|223|ICAO-KFCH|||||||||||||||||||||||||||||||||||||||||||MET060METAR KFCH 151935Z AUTO 30011G16KT 10SM 11/00 A2993 RMK A01=||F||223|ICAO-KFCH
USW00023167|FRESNO CHANDLER DWTN AP|2022|02|15|19|55|36.7333|-119.8167|84.1|12.0||1|FM15-METAR|223|ICAO-KFCH|0.0||1|FM15-METAR|223|ICAO-KFCH|||||||||||||320|N-Normal|1|FM15-METAR|223|ICAO-KFCH|4.6|N-Normal|1|FM15-METAR|223|ICAO-KFCH|||||||||||||44|Derived||FM15-METAR|223|ICAO-KFCH|||||||||||||||||||||||||||||||||||||||||||||||||||||||||||||||||||||||||1013.5||1|FM15-METAR|223|ICAO-KFCH|||||||||||||||||||||||||||||||||||||||||||MET064METAR KFCH 151955Z AUTO 32009KT 10SM FEW080 12/00 A2993 RMK A01=||F||223|ICAO-KFCH
USW00023167|FRESNO CHANDLER DWTN AP|2022|02|15|20|15|36.7333|-119.8167|84.1|12.0||1|FM15-METAR|223|ICAO-KFCH|0.0||1|FM15-METAR|223|ICAO-KFCH|||||||||||||320|N-Normal|1|FM15-METAR|223|ICAO-KFCH|2.6|N-Normal|1|FM15-METAR|223|ICAO-KFCH|6.2||1|FM15-METAR|223|ICAO-KFCH|||||||44|Derived||FM15-METAR|223|ICAO-KFCH|||||||||||||||||||||||||||||||||||||||||||||||||||||||||||||||||||||||||1012.9||1|FM15-METAR|223|ICAO-KFCH|||||||||||||||||||||||||||||||||||||||||||MET064METAR KFCH 152015Z AUTO 32005G12KT 10SM CLR 12/00 A2991 RMK A01=||F||223|ICAO-KFCH
USW00023167|FRESNO CHANDLER DWTN AP|2022|02|15|20|35|36.7333|-119.8167|84.1|12.0||1|FM15-METAR|223|ICAO-KFCH|0.0||1|FM15-METAR|223|ICAO-KFCH|||||||||||||300|N-Normal|1|FM15-METAR|223|ICAO-KFCH|3.1|N-Normal|1|FM15-METAR|223|ICAO-KFCH|7.2||1|FM15-METAR|223|ICAO-KFCH|||||||44|Derived||FM15-METAR|223|ICAO-KFCH|||||||||||||||||||||||||||||||||||||||||||||||||||||||||||||||||||||||||1012.5||1|FM15-METAR|223|ICAO-KFCH|||||||||||||||||||||||||||||||||||||||||||MET065METAR KFCH 152035Z AUTO 30006G14KT 10SM CLR 12/M00 A2990 RMK A01=||F||223|ICAO-KFCH
USW00023167|FRESNO CHANDLER DWTN AP|2022|02|15|20|55|36.7333|-119.8167|84.1|13.0||1|FM15-METAR|223|ICAO-KFCH|0.0||1|FM15-METAR|223|ICAO-KFCH|||||||||||||310|N-Normal|1|FM15-METAR|223|ICAO-KFCH|3.6|N-Normal|1|FM15-METAR|223|ICAO-KFCH|7.2||1|FM15-METAR|223|ICAO-KFCH|||||||41|Derived||FM15-METAR|223|ICAO-KFCH|||||||||||||||||||||||||||||||||||||||||||||||||||||||||||||||||||||||||1012.2||1|FM15-METAR|223|ICAO-KFCH|||||||||||||||||||||||||||||||||||||||||||MET064METAR KFCH 152055Z AUTO 31007G14KT 10SM CLR 13/00 A2989 RMK A01=||F||223|ICAO-KFCH
USW00023167|FRESNO CHANDLER DWTN AP|2022|02|15|21|15|36.7333|-119.8167|84.1|13.0||1|FM15-METAR|223|ICAO-KFCH|1.0||1|FM15-METAR|223|ICAO-KFCH|||||||||||||290|V-Variable|1|FM15-METAR|223|ICAO-KFCH|4.1|V-Variable|1|FM15-METAR|223|ICAO-KFCH|6.7||1|FM15-METAR|223|ICAO-KFCH|||||||44|Derived||FM15-METAR|223|ICAO-KFCH|||||||||||||||||||||||||||||||||||||||||||||||||||||||||||||||||||||||||1012.2||1|FM15-METAR|223|ICAO-KFCH|||||||||||||||||||||||||||||||||||||||||||MET072METAR KFCH 152115Z AUTO 29008G13KT 270V330 10SM CLR 13/01 A2989 RMK A01=||F||223|ICAO-KFCH
USW00023167|FRESNO CHANDLER DWTN AP|2022|02|15|21|35|36.7333|-119.8167|84.1|13.0||1|FM15-METAR|223|ICAO-KFCH|1.0||1|FM15-METAR|223|ICAO-KFCH|||||||||||||290|N-Normal|1|FM15-METAR|223|ICAO-KFCH|4.1|N-Normal|1|FM15-METAR|223|ICAO-KFCH|6.7||1|FM15-METAR|223|ICAO-KFCH|||||||44|Derived||FM15-METAR|223|ICAO-KFCH|||||||||||||||||||||||||||||||||||||||||||||||||||||||||||||||||||||||||1011.8||1|FM15-METAR|223|ICAO-KFCH|||||||||||||||||||||||||||||||||||||||||||MET064METAR KFCH 152135Z AUTO 29008G13KT 10SM CLR 13/01 A2988 RMK A01=||F||223|ICAO-KFCH
USW00023167|FRESNO CHANDLER DWTN AP|2022|02|15|21|55|36.7333|-119.8167|84.1|13.0||1|FM15-METAR|223|ICAO-KFCH|0.0||1|FM15-METAR|223|ICAO-KFCH|||||||||||||350|N-Normal|1|FM15-METAR|223|ICAO-KFCH|5.7|N-Normal|1|FM15-METAR|223|ICAO-KFCH|||||||||||||41|Derived||FM15-METAR|223|ICAO-KFCH|||||||||||||||||||||||||||||||||||||||||||||||||||||||||||||||||||||||||1011.8||1|FM15-METAR|223|ICAO-KFCH|||||||||||||||||||||||||||||||||||||||||||MET064METAR KFCH 152155Z AUTO 35011KT 10SM FEW050 13/00 A2988 RMK A01=||F||223|ICAO-KFCH
USW00023167|FRESNO CHANDLER DWTN AP|2022|02|15|22|15|36.7333|-119.8167|84.1|14.0||1|FM15-METAR|223|ICAO-KFCH|0.0||1|FM15-METAR|223|ICAO-KFCH|||||||||||||320|N-Normal|1|FM15-METAR|223|ICAO-KFCH|4.1|N-Normal|1|FM15-METAR|223|ICAO-KFCH|||||||||||||39|Derived||FM15-METAR|223|ICAO-KFCH|||||||||||||||||||||||||||||||||||||||||||||||||||||||||||||||||||||||||1011.5||1|FM15-METAR|223|ICAO-KFCH|||||||||||||||||||||||||||||||||||||||||||MET061METAR KFCH 152215Z AUTO 32008KT 10SM CLR 14/00 A2987 RMK A01=||F||223|ICAO-KFCH
USW00023167|FRESNO CHANDLER DWTN AP|2022|02|15|22|35|36.7333|-119.8167|84.1|14.0||1|FM15-METAR|223|ICAO-KFCH|0.0||1|FM15-METAR|223|ICAO-KFCH|||||||||||||320|V-Variable|1|FM15-METAR|223|ICAO-KFCH|3.6|V-Variable|1|FM15-METAR|223|ICAO-KFCH|7.2||1|FM15-METAR|223|ICAO-KFCH|||||||39|Derived||FM15-METAR|223|ICAO-KFCH|||||||||||||||||||||||||||||||||||||||||||||||||||||||||||||||||||||||||1011.2||1|FM15-METAR|223|ICAO-KFCH|||||||||||||||||||||||||||||||||||||||||||MET075METAR KFCH 152235Z AUTO 32007G14KT 290V010 10SM FEW050 14/00 A2986 RMK A01=||F||223|ICAO-KFCH
USW00023167|FRESNO CHANDLER DWTN AP|2022|02|15|22|55|36.7333|-119.8167|84.1|14.0||1|FM15-METAR|223|ICAO-KFCH|1.0||1|FM15-METAR|223|ICAO-KFCH|||||||||||||320|N-Normal|1|FM15-METAR|223|ICAO-KFCH|4.6|N-Normal|1|FM15-METAR|223|ICAO-KFCH|8.2||1|FM15-METAR|223|ICAO-KFCH|||||||41|Derived||FM15-METAR|223|ICAO-KFCH|||||||||||||||||||||||||||||||||||||||||||||||||||||||||||||||||||||||||1011.2||1|FM15-METAR|223|ICAO-KFCH|||||||||||||||||||||||||||||||||||||||||||MET067METAR KFCH 152255Z AUTO 32009G16KT 10SM FEW050 14/01 A2986 RMK A01=||F||223|ICAO-KFCH
USW00023167|FRESNO CHANDLER DWTN AP|2022|02|15|23|10|36.7333|-119.8167|84.1|14.0||1|FM15-METAR|223|ICAO-KFCH|1.0||1|FM15-METAR|223|ICAO-KFCH|||||||||||||330|V-Variable|1|FM15-METAR|223|ICAO-KFCH|5.7|V-Variable|1|FM15-METAR|223|ICAO-KFCH|||||||||||||41|Derived||FM15-METAR|223|ICAO-KFCH|||||||||||||||||||||||||||||||||||||||||||||||||||||||||||||||||||||||||1010.8||1|FM15-METAR|223|ICAO-KFCH|||||||||||||||||||||||||||||||||||||||||||MET072METAR KFCH 152310Z AUTO 33011KT 290V360 10SM FEW050 14/01 A2985 RMK A01=||F||223|ICAO-KFCH
USW00023167|FRESNO CHANDLER DWTN AP|2022|02|15|23|35|36.7333|-119.8167|84.1|15.0||1|FM15-METAR|223|ICAO-KFCH|-1.0||1|FM15-METAR|223|ICAO-KFCH|||||||||||||320|N-Normal|1|FM15-METAR|223|ICAO-KFCH|6.7|N-Normal|1|FM15-METAR|223|ICAO-KFCH|9.3||1|FM15-METAR|223|ICAO-KFCH|||||||34|Derived||FM15-METAR|223|ICAO-KFCH|||||||||||||||||||||||||||||||||||||||||||||||||||||||||||||||||||||||||1011.2||1|FM15-METAR|223|ICAO-KFCH|||||||||||||||||||||||||||||||||||||||||||MET065METAR KFCH 152335Z AUTO 32013G18KT 10SM CLR 15/M01 A2986 RMK A01=||F||223|ICAO-KFCH
USW00023167|FRESNO CHANDLER DWTN AP|2022|02|15|23|55|36.7333|-119.8167|84.1|15.0||1|FM15-METAR|223|ICAO-KFCH|-1.0||1|FM15-METAR|223|ICAO-KFCH|||||||||||||310|N-Normal|1|FM15-METAR|223|ICAO-KFCH|6.7|N-Normal|1|FM15-METAR|223|ICAO-KFCH|||||||||||||34|Derived||FM15-METAR|223|ICAO-KFCH|||||||||||||||||||||||||||||||||||||||||||||||||||||||||||||||||||||||||1010.8||1|FM15-METAR|223|ICAO-KFCH|||||||||||||||||||||||||||||||||||||||||||MET062METAR KFCH 152355Z AUTO 31013KT 10SM CLR 15/M01 A2985 RMK A01=||F||223|ICAO-KFCH
USW00023167|FRESNO CHANDLER DWTN AP|2022|02|16|00|15|36.7333|-119.8167|84.1|15.0||1|FM15-METAR|223|ICAO-KFCH|-1.0||1|FM15-METAR|223|ICAO-KFCH|||||||||||||310|N-Normal|1|FM15-METAR|223|ICAO-KFCH|6.2|N-Normal|1|FM15-METAR|223|ICAO-KFCH|||||||||||||34|Derived||FM15-METAR|223|ICAO-KFCH|||||||||||||||||||||||||||||||||||||||||||||||||||||||||||||||||||||||||1010.8||1|FM15-METAR|223|ICAO-KFCH|||||||||||||||||||||||||||||||||||||||||||MET062METAR KFCH 160015Z AUTO 31012KT 10SM CLR 15/M01 A2985 RMK A01=||F||223|ICAO-KFCH
USW00023167|FRESNO CHANDLER DWTN AP|2022|02|16|00|30|36.7333|-119.8167|84.1|14.0||1|FM15-METAR|223|ICAO-KFCH|-2.0||1|FM15-METAR|223|ICAO-KFCH|||||||||||||320|N-Normal|1|FM15-METAR|223|ICAO-KFCH|6.2|N-Normal|1|FM15-METAR|223|ICAO-KFCH|9.3||1|FM15-METAR|223|ICAO-KFCH|||||||33|Derived||FM15-METAR|223|ICAO-KFCH|||||||||||||||||||||||||||||||||||||||||||||||||||||||||||||||||||||||||1010.5||1|FM15-METAR|223|ICAO-KFCH|||||||||||||||||||||||||||||||||||||||||||MET065METAR KFCH 160030Z AUTO 32012G18KT 10SM CLR 14/M02 A2984 RMK A01=||F||223|ICAO-KFCH
USW00023167|FRESNO CHANDLER DWTN AP|2022|02|16|00|55|36.7333|-119.8167|84.1|14.0||1|FM15-METAR|223|ICAO-KFCH|-1.0||1|FM15-METAR|223|ICAO-KFCH|||||||||||||340|V-Variable|1|FM15-METAR|223|ICAO-KFCH|4.1|V-Variable|1|FM15-METAR|223|ICAO-KFCH|||||||||||||36|Derived||FM15-METAR|223|ICAO-KFCH|||||||||||||||||||||||||||||||||||||||||||||||||||||||||||||||||||||||||1010.5||1|FM15-METAR|223|ICAO-KFCH|||||||||||||||||||||||||||||||||||||||||||MET070METAR KFCH 160055Z AUTO 34008KT 310V010 10SM CLR 14/M01 A2984 RMK A01=||F||223|ICAO-KFCH
USW00023167|FRESNO CHANDLER DWTN AP|2022|02|16|01|15|36.7333|-119.8167|84.1|14.0||1|FM15-METAR|223|ICAO-KFCH|-2.0||1|FM15-METAR|223|ICAO-KFCH|||||||||||||330|N-Normal|1|FM15-METAR|223|ICAO-KFCH|5.7|N-Normal|1|FM15-METAR|223|ICAO-KFCH|||||||||||||33|Derived||FM15-METAR|223|ICAO-KFCH|||||||||||||||||||||||||||||||||||||||||||||||||||||||||||||||||||||||||1010.5||1|FM15-METAR|223|ICAO-KFCH|||||||||||||||||||||||||||||||||||||||||||MET062METAR KFCH 160115Z AUTO 33011KT 10SM CLR 14/M02 A2984 RMK A01=||F||223|ICAO-KFCH
USW00023167|FRESNO CHANDLER DWTN AP|2022|02|16|01|35|36.7333|-119.8167|84.1|14.0||1|FM15-METAR|223|ICAO-KFCH|-2.0||1|FM15-METAR|223|ICAO-KFCH|||||||||||||320|N-Normal|1|FM15-METAR|223|ICAO-KFCH|2.6|N-Normal|1|FM15-METAR|223|ICAO-KFCH|6.2||1|FM15-METAR|223|ICAO-KFCH|||||||33|Derived||FM15-METAR|223|ICAO-KFCH|||||||||||||||||||||||||||||||||||||||||||||||||||||||||||||||||||||||||1010.8||1|FM15-METAR|223|ICAO-KFCH|||||||||||||||||||||||||||||||||||||||||||MET065METAR KFCH 160135Z AUTO 32005G12KT 10SM CLR 14/M02 A2985 RMK A01=||F||223|ICAO-KFCH
USW00023167|FRESNO CHANDLER DWTN AP|2022|02|16|01|55|36.7333|-119.8167|84.1|13.0||1|FM15-METAR|223|ICAO-KFCH|-2.0||1|FM15-METAR|223|ICAO-KFCH|||||||||||||310|N-Normal|1|FM15-METAR|223|ICAO-KFCH|3.1|N-Normal|1|FM15-METAR|223|ICAO-KFCH|||||||||||||36|Derived||FM15-METAR|223|ICAO-KFCH|||||||||||||||||||||||||||||||||||||||||||||||||||||||||||||||||||||||||1011.2||1|FM15-METAR|223|ICAO-KFCH|||||||||||||||||||||||||||||||||||||||||||MET062METAR KFCH 160155Z AUTO 31006KT 10SM CLR 13/M02 A2986 RMK A01=||F||223|ICAO-KFCH
USW00023167|FRESNO CHANDLER DWTN AP|2022|02|16|02|15|36.7333|-119.8167|84.1|13.0||1|FM15-METAR|223|ICAO-KFCH|-1.0||1|FM15-METAR|223|ICAO-KFCH|||||||||||||280|N-Normal|1|FM15-METAR|223|ICAO-KFCH|3.6|N-Normal|1|FM15-METAR|223|ICAO-KFCH|||||||||||||38|Derived||FM15-METAR|223|ICAO-KFCH|||||||||||||||||||||||||||||||||||||||||||||||||||||||||||||||||||||||||1011.2||1|FM15-METAR|223|ICAO-KFCH|||||||||||||||||||||||||||||||||||||||||||MET062METAR KFCH 160215Z AUTO 28007KT 10SM CLR 13/M01 A2986 RMK A01=||F||223|ICAO-KFCH
USW00023167|FRESNO CHANDLER DWTN AP|2022|02|16|02|35|36.7333|-119.8167|84.1|||||||||||||||||||||||||300|N-Normal|1|FM15-METAR|223|ICAO-KFCH|3.6|N-Normal|1|FM15-METAR|223|ICAO-KFCH|||||||||||||||||||||||||||||||||||||||||||||||||||||||||||||||||||||||||||||||||||||||||||1011.5||1|FM15-METAR|223|ICAO-KFCH|||||||||||||||||||||||||||||||||||||||||||MET046METAR KFCH 160235Z AUTO 30007KT A2987 RMK A01=||F||223|ICAO-KFCH
USW00023167|FRESNO CHANDLER DWTN AP|2022|02|16|02|55|36.7333|-119.8167|84.1|12.0||1|FM15-METAR|223|ICAO-KFCH|-1.0||1|FM15-METAR|223|ICAO-KFCH|||||||||||||300|N-Normal|1|FM15-METAR|223|ICAO-KFCH|5.7|N-Normal|1|FM15-METAR|223|ICAO-KFCH|||||||||||||41|Derived||FM15-METAR|223|ICAO-KFCH|||||||||||||||||||||||||||||||||||||||||||||||||||||||||||||||||||||||||1011.2||1|FM15-METAR|223|ICAO-KFCH|||||||||||||||||||||||||||||||||||||||||||MET058METAR KFCH 160255Z AUTO 30011KT 10SM 12/M01 A2986 RMK A01=||F||223|ICAO-KFCH
USW00023167|FRESNO CHANDLER DWTN AP|2022|02|16|03|15|36.7333|-119.8167|84.1|12.0||1|FM15-METAR|223|ICAO-KFCH|-1.0||1|FM15-METAR|223|ICAO-KFCH|||||||||||||300|N-Normal|1|FM15-METAR|223|ICAO-KFCH|6.2|N-Normal|1|FM15-METAR|223|ICAO-KFCH|||||||||||||41|Derived||FM15-METAR|223|ICAO-KFCH|||||||||||||||||||||||||||||||||||||||||||||||||||||||||||||||||||||||||1011.2||1|FM15-METAR|223|ICAO-KFCH|||||||||||||||||||||||||||||||||||||||||||MET062METAR KFCH 160315Z AUTO 30012KT 10SM CLR 12/M01 A2986 RMK A01=||F||223|ICAO-KFCH
USW00023167|FRESNO CHANDLER DWTN AP|2022|02|16|03|35|36.7333|-119.8167|84.1|12.0||1|FM15-METAR|223|ICAO-KFCH|-1.0||1|FM15-METAR|223|ICAO-KFCH|||||||||||||280|N-Normal|1|FM15-METAR|223|ICAO-KFCH|5.1|N-Normal|1|FM15-METAR|223|ICAO-KFCH|||||||||||||41|Derived||FM15-METAR|223|ICAO-KFCH|||||||||||||||||||||||||||||||||||||||||||||||||||||||||||||||||||||||||1011.2||1|FM15-METAR|223|ICAO-KFCH|||||||||||||||||||||||||||||||||||||||||||MET062METAR KFCH 160335Z AUTO 28010KT 10SM CLR 12/M01 A2986 RMK A01=||F||223|ICAO-KFCH
USW00023167|FRESNO CHANDLER DWTN AP|2022|02|16|03|55|36.7333|-119.8167|84.1|11.0||1|FM15-METAR|223|ICAO-KFCH|-1.0||1|FM15-METAR|223|ICAO-KFCH|||||||||||||260|N-Normal|1|FM15-METAR|223|ICAO-KFCH|3.1|N-Normal|1|FM15-METAR|223|ICAO-KFCH|||||||||||||44|Derived||FM15-METAR|223|ICAO-KFCH|||||||||||||||||||||||||||||||||||||||||||||||||||||||||||||||||||||||||1011.5||1|FM15-METAR|223|ICAO-KFCH|||||||||||||||||||||||||||||||||||||||||||MET062METAR KFCH 160355Z AUTO 26006KT 10SM CLR 11/M01 A2987 RMK A01=||F||223|ICAO-KFCH
USW00023167|FRESNO CHANDLER DWTN AP|2022|02|16|04|10|36.7333|-119.8167|84.1|11.0||1|FM15-METAR|223|ICAO-KFCH|-2.0||1|FM15-METAR|223|ICAO-KFCH|||||||||||||999|C-Calm|9|FM15-METAR|223|ICAO-KFCH|0.0|C-Calm|1|FM15-METAR|223|ICAO-KFCH|||||||||||||41|Derived||FM15-METAR|223|ICAO-KFCH|||||||||||||||||||||||||||||||||||||||||||||||||||||||||||||||||||||||||1011.5||1|FM15-METAR|223|ICAO-KFCH|||||||||||||||||||||||||||||||||||||||||||MET062METAR KFCH 160410Z AUTO 00000KT 10SM CLR 11/M02 A2987 RMK A01=||F||223|ICAO-KFCH
USW00023167|FRESNO CHANDLER DWTN AP|2022|02|16|04|35|36.7333|-119.8167|84.1|11.0||1|FM15-METAR|223|ICAO-KFCH|-2.0||1|FM15-METAR|223|ICAO-KFCH|||||||||||||999|C-Calm|9|FM15-METAR|223|ICAO-KFCH|0.0|C-Calm|1|FM15-METAR|223|ICAO-KFCH|||||||||||||41|Derived||FM15-METAR|223|ICAO-KFCH|||||||||||||||||||||||||||||||||||||||||||||||||||||||||||||||||||||||||1011.8||1|FM15-METAR|223|ICAO-KFCH|||||||||||||||||||||||||||||||||||||||||||MET058METAR KFCH 160435Z AUTO 00000KT 10SM 11/M02 A2988 RMK A01=||F||223|ICAO-KFCH
USW00023167|FRESNO CHANDLER DWTN AP|2022|02|16|04|55|36.7333|-119.8167|84.1|11.0||1|FM15-METAR|223|ICAO-KFCH|-1.0||1|FM15-METAR|223|ICAO-KFCH|||||||||||||999|V-Variable|9|FM15-METAR|223|ICAO-KFCH|1.5|V-Variable|1|FM15-METAR|223|ICAO-KFCH|||||||||||||44|Derived||FM15-METAR|223|ICAO-KFCH|||||||||||||||||||||||||||||||||||||||||||||||||||||||||||||||||||||||||1012.2||1|FM15-METAR|223|ICAO-KFCH|||||||||||||||||||||||||||||||||||||||||||MET062METAR KFCH 160455Z AUTO VRB03KT 10SM CLR 11/M01 A2989 RMK A01=||F||223|ICAO-KFCH
USW00023167|FRESNO CHANDLER DWTN AP|2022|02|16|05|10|36.7333|-119.8167|84.1|10.0||1|FM15-METAR|223|ICAO-KFCH|-1.0||1|FM15-METAR|223|ICAO-KFCH|||||||||||||350|N-Normal|1|FM15-METAR|223|ICAO-KFCH|2.1|N-Normal|1|FM15-METAR|223|ICAO-KFCH|||||||||||||47|Derived||FM15-METAR|223|ICAO-KFCH|||||||||||||||||||||||||||||||||||||||||||||||||||||||||||||||||||||||||1012.2||1|FM15-METAR|223|ICAO-KFCH|||||||||||||||||||||||||||||||||||||||||||MET062METAR KFCH 160510Z AUTO 35004KT 10SM CLR 10/M01 A2989 RMK A01=||F||223|ICAO-KFCH
USW00023167|FRESNO CHANDLER DWTN AP|2022|02|16|05|35|36.7333|-119.8167|84.1|10.0||1|FM15-METAR|223|ICAO-KFCH|-1.0||1|FM15-METAR|223|ICAO-KFCH|||||||||||||330|N-Normal|1|FM15-METAR|223|ICAO-KFCH|2.6|N-Normal|1|FM15-METAR|223|ICAO-KFCH|||||||||||||47|Derived||FM15-METAR|223|ICAO-KFCH|||||||||||||||||||||||||||||||||||||||||||||||||||||||||||||||||||||||||1012.5||1|FM15-METAR|223|ICAO-KFCH|||||||||||||||||||||||||||||||||||||||||||MET062METAR KFCH 160535Z AUTO 33005KT 10SM CLR 10/M01 A2990 RMK A01=||F||223|ICAO-KFCH
USW00023167|FRESNO CHANDLER DWTN AP|2022|02|16|05|50|36.7333|-119.8167|84.1|9.0||1|FM15-METAR|223|ICAO-KFCH|-1.0||1|FM15-METAR|223|ICAO-KFCH|||||||||||||320|N-Normal|1|FM15-METAR|223|ICAO-KFCH|3.1|N-Normal|1|FM15-METAR|223|ICAO-KFCH|||||||||||||50|Derived||FM15-METAR|223|ICAO-KFCH|||||||||||||||||||||||||||||||||||||||||||||||||||||||||||||||||||||||||1012.5||1|FM15-METAR|223|ICAO-KFCH|||||||||||||||||||||||||||||||||||||||||||MET062METAR KFCH 160550Z AUTO 32006KT 10SM CLR 09/M01 A2990 RMK A01=||F||223|ICAO-KFCH
USW00023167|FRESNO CHANDLER DWTN AP|2022|02|16|06|15|36.7333|-119.8167|84.1|9.0||1|FM15-METAR|223|ICAO-KFCH|1.0||1|FM15-METAR|223|ICAO-KFCH|||||||||||||999|C-Calm|9|FM15-METAR|223|ICAO-KFCH|0.0|C-Calm|1|FM15-METAR|223|ICAO-KFCH|||||||||||||58|Derived||FM15-METAR|223|ICAO-KFCH|||||||||||||||||||||||||||||||||||||||||||||||||||||||||||||||||||||||||1012.5||1|FM15-METAR|223|ICAO-KFCH|||||||||||||||||||||||||||||||||||||||||||MET061METAR KFCH 160615Z AUTO 00000KT 10SM CLR 09/01 A2990 RMK A01=||F||223|ICAO-KFCH
USW00023167|FRESNO CHANDLER DWTN AP|2022|02|16|06|35|36.7333|-119.8167|84.1|8.0||1|FM15-METAR|223|ICAO-KFCH|2.0||1|FM15-METAR|223|ICAO-KFCH|||||||||||||050|N-Normal|1|FM15-METAR|223|ICAO-KFCH|1.5|N-Normal|1|FM15-METAR|223|ICAO-KFCH|||||||||||||66|Derived||FM15-METAR|223|ICAO-KFCH|||||||||||||||||||||||||||||||||||||||||||||||||||||||||||||||||||||||||1012.9||1|FM15-METAR|223|ICAO-KFCH|||||||||||||||||||||||||||||||||||||||||||MET061METAR KFCH 160635Z AUTO 05003KT 10SM CLR 08/02 A2991 RMK A01=||F||223|ICAO-KFCH
USW00023167|FRESNO CHANDLER DWTN AP|2022|02|16|06|55|36.7333|-119.8167|84.1|8.0||1|FM15-METAR|223|ICAO-KFCH|2.0||1|FM15-METAR|223|ICAO-KFCH|||||||||||||999|C-Calm|9|FM15-METAR|223|ICAO-KFCH|0.0|C-Calm|1|FM15-METAR|223|ICAO-KFCH|||||||||||||66|Derived||FM15-METAR|223|ICAO-KFCH|||||||||||||||||||||||||||||||||||||||||||||||||||||||||||||||||||||||||1013.2||1|FM15-METAR|223|ICAO-KFCH|||||||||||||||||||||||||||||||||||||||||||MET061METAR KFCH 160655Z AUTO 00000KT 10SM CLR 08/02 A2992 RMK A01=||F||223|ICAO-KFCH
USW00023167|FRESNO CHANDLER DWTN AP|2022|02|16|07|15|36.7333|-119.8167|84.1|7.0||1|FM15-METAR|223|ICAO-KFCH|2.0||1|FM15-METAR|223|ICAO-KFCH|||||||||||||070|N-Normal|1|FM15-METAR|223|ICAO-KFCH|3.6|N-Normal|1|FM15-METAR|223|ICAO-KFCH|||||||||||||71|Derived||FM15-METAR|223|ICAO-KFCH|||||||||||||||||||||||||||||||||||||||||||||||||||||||||||||||||||||||||1013.2||1|FM15-METAR|223|ICAO-KFCH|||||||||||||||||||||||||||||||||||||||||||MET061METAR KFCH 160715Z AUTO 07007KT 10SM CLR 07/02 A2992 RMK A01=||F||223|ICAO-KFCH
USW00023167|FRESNO CHANDLER DWTN AP|2022|02|16|07|35|36.7333|-119.8167|84.1|6.0||1|FM15-METAR|223|ICAO-KFCH|2.0||1|FM15-METAR|223|ICAO-KFCH|||||||||||||100|N-Normal|1|FM15-METAR|223|ICAO-KFCH|3.1|N-Normal|1|FM15-METAR|223|ICAO-KFCH|||||||||||||76|Derived||FM15-METAR|223|ICAO-KFCH|||||||||||||||||||||||||||||||||||||||||||||||||||||||||||||||||||||||||1013.5||1|FM15-METAR|223|ICAO-KFCH|||||||||||||||||||||||||||||||||||||||||||MET061METAR KFCH 160735Z AUTO 10006KT 10SM CLR 06/02 A2993 RMK A01=||F||223|ICAO-KFCH
USW00023167|FRESNO CHANDLER DWTN AP|2022|02|16|07|55|36.7333|-119.8167|84.1|6.0||1|FM15-METAR|223|ICAO-KFCH|2.0||1|FM15-METAR|223|ICAO-KFCH|||||||||||||110|N-Normal|1|FM15-METAR|223|ICAO-KFCH|2.6|N-Normal|1|FM15-METAR|223|ICAO-KFCH|||||||||||||76|Derived||FM15-METAR|223|ICAO-KFCH|||||||||||||||||||||||||||||||||||||||||||||||||||||||||||||||||||||||||1013.9||1|FM15-METAR|223|ICAO-KFCH|||||||||||||||||||||||||||||||||||||||||||MET061METAR KFCH 160755Z AUTO 11005KT 10SM CLR 06/02 A2994 RMK A01=||F||223|ICAO-KFCH
USW00023167|FRESNO CHANDLER DWTN AP|2022|02|16|08|15|36.7333|-119.8167|84.1|6.0||1|FM15-METAR|223|ICAO-KFCH|2.0||1|FM15-METAR|223|ICAO-KFCH|||||||||||||999|C-Calm|9|FM15-METAR|223|ICAO-KFCH|0.0|C-Calm|1|FM15-METAR|223|ICAO-KFCH|||||||||||||76|Derived||FM15-METAR|223|ICAO-KFCH|||||||||||||||||||||||||||||||||||||||||||||||||||||||||||||||||||||||||1014.2||1|FM15-METAR|223|ICAO-KFCH|||||||||||||||||||||||||||||||||||||||||||MET061METAR KFCH 160815Z AUTO 00000KT 10SM CLR 06/02 A2995 RMK A01=||F||223|ICAO-KFCH
USW00023167|FRESNO CHANDLER DWTN AP|2022|02|16|08|35|36.7333|-119.8167|84.1|6.0||1|FM15-METAR|223|ICAO-KFCH|2.0||1|FM15-METAR|223|ICAO-KFCH|||||||||||||999|C-Calm|9|FM15-METAR|223|ICAO-KFCH|0.0|C-Calm|1|FM15-METAR|223|ICAO-KFCH|||||||||||||76|Derived||FM15-METAR|223|ICAO-KFCH|||||||||||||||||||||||||||||||||||||||||||||||||||||||||||||||||||||||||1013.9||1|FM15-METAR|223|ICAO-KFCH|||||||||||||||||||||||||||||||||||||||||||MET061METAR KFCH 160835Z AUTO 00000KT 10SM CLR 06/02 A2994 RMK A01=||F||223|ICAO-KFCH
USW00023167|FRESNO CHANDLER DWTN AP|2022|02|16|08|55|36.7333|-119.8167|84.1|6.0||1|FM15-METAR|223|ICAO-KFCH|2.0||1|FM15-METAR|223|ICAO-KFCH|||||||||||||130|N-Normal|1|FM15-METAR|223|ICAO-KFCH|2.1|N-Normal|1|FM15-METAR|223|ICAO-KFCH|||||||||||||76|Derived||FM15-METAR|223|ICAO-KFCH|||||||||||||||||||||||||||||||||||||||||||||||||||||||||||||||||||||||||1013.9||1|FM15-METAR|223|ICAO-KFCH|||||||||||||||||||||||||||||||||||||||||||MET061METAR KFCH 160855Z AUTO 13004KT 10SM CLR 06/02 A2994 RMK A01=||F||223|ICAO-KFCH
USW00023167|FRESNO CHANDLER DWTN AP|2022|02|16|09|15|36.7333|-119.8167|84.1|5.0||1|FM15-METAR|223|ICAO-KFCH|2.0||1|FM15-METAR|223|ICAO-KFCH|||||||||||||110|N-Normal|1|FM15-METAR|223|ICAO-KFCH|2.1|N-Normal|1|FM15-METAR|223|ICAO-KFCH|||||||||||||81|Derived||FM15-METAR|223|ICAO-KFCH|||||||||||||||||||||||||||||||||||||||||||||||||||||||||||||||||||||||||1014.2||1|FM15-METAR|223|ICAO-KFCH|||||||||||||||||||||||||||||||||||||||||||MET061METAR KFCH 160915Z AUTO 11004KT 10SM CLR 05/02 A2995 RMK A01=||F||223|ICAO-KFCH
USW00023167|FRESNO CHANDLER DWTN AP|2022|02|16|09|35|36.7333|-119.8167|84.1|5.0||1|FM15-METAR|223|ICAO-KFCH|2.0||1|FM15-METAR|223|ICAO-KFCH|||||||||||||110|N-Normal|1|FM15-METAR|223|ICAO-KFCH|2.6|N-Normal|1|FM15-METAR|223|ICAO-KFCH|||||||||||||81|Derived||FM15-METAR|223|ICAO-KFCH|||||||||||||||||||||||||||||||||||||||||||||||||||||||||||||||||||||||||1014.2||1|FM15-METAR|223|ICAO-KFCH|||||||||||||||||||||||||||||||||||||||||||MET061METAR KFCH 160935Z AUTO 11005KT 10SM CLR 05/02 A2995 RMK A01=||F||223|ICAO-KFCH
USW00023167|FRESNO CHANDLER DWTN AP|2022|02|16|09|55|36.7333|-119.8167|84.1|6.0||1|FM15-METAR|223|ICAO-KFCH|2.0||1|FM15-METAR|223|ICAO-KFCH|||||||||||||120|N-Normal|1|FM15-METAR|223|ICAO-KFCH|2.6|N-Normal|1|FM15-METAR|223|ICAO-KFCH|||||||||||||76|Derived||FM15-METAR|223|ICAO-KFCH|||||||||||||||||||||||||||||||||||||||||||||||||||||||||||||||||||||||||1014.2||1|FM15-METAR|223|ICAO-KFCH|||||||||||||||||||||||||||||||||||||||||||MET061METAR KFCH 160955Z AUTO 12005KT 10SM CLR 06/02 A2995 RMK A01=||F||223|ICAO-KFCH
USW00023167|FRESNO CHANDLER DWTN AP|2022|02|16|10|15|36.7333|-119.8167|84.1|5.0||1|FM15-METAR|223|ICAO-KFCH|2.0||1|FM15-METAR|223|ICAO-KFCH|||||||||||||120|N-Normal|1|FM15-METAR|223|ICAO-KFCH|3.1|N-Normal|1|FM15-METAR|223|ICAO-KFCH|||||||||||||81|Derived||FM15-METAR|223|ICAO-KFCH|||||||||||||||||||||||||||||||||||||||||||||||||||||||||||||||||||||||||1014.6||1|FM15-METAR|223|ICAO-KFCH|||||||||||||||||||||||||||||||||||||||||||MET061METAR KFCH 161015Z AUTO 12006KT 10SM CLR 05/02 A2996 RMK A01=||F||223|ICAO-KFCH
USW00023167|FRESNO CHANDLER DWTN AP|2022|02|16|10|35|36.7333|-119.8167|84.1|6.0||1|FM15-METAR|223|ICAO-KFCH|2.0||1|FM15-METAR|223|ICAO-KFCH|||||||||||||110|N-Normal|1|FM15-METAR|223|ICAO-KFCH|2.1|N-Normal|1|FM15-METAR|223|ICAO-KFCH|||||||||||||76|Derived||FM15-METAR|223|ICAO-KFCH|||||||||||||||||||||||||||||||||||||||||||||||||||||||||||||||||||||||||1014.6||1|FM15-METAR|223|ICAO-KFCH|||||||||||||||||||||||||||||||||||||||||||MET061METAR KFCH 161035Z AUTO 11004KT 10SM CLR 06/02 A2996 RMK A01=||F||223|ICAO-KFCH
USW00023167|FRESNO CHANDLER DWTN AP|2022|02|16|10|55|36.7333|-119.8167|84.1|6.0||1|FM15-METAR|223|ICAO-KFCH|2.0||1|FM15-METAR|223|ICAO-KFCH|||||||||||||999|C-Calm|9|FM15-METAR|223|ICAO-KFCH|0.0|C-Calm|1|FM15-METAR|223|ICAO-KFCH|||||||||||||76|Derived||FM15-METAR|223|ICAO-KFCH|||||||||||||||||||||||||||||||||||||||||||||||||||||||||||||||||||||||||1014.9||1|FM15-METAR|223|ICAO-KFCH|||||||||||||||||||||||||||||||||||||||||||MET061METAR KFCH 161055Z AUTO 00000KT 10SM CLR 06/02 A2997 RMK A01=||F||223|ICAO-KFCH
USW00023167|FRESNO CHANDLER DWTN AP|2022|02|16|11|15|36.7333|-119.8167|84.1|5.0||1|FM15-METAR|223|ICAO-KFCH|2.0||1|FM15-METAR|223|ICAO-KFCH|||||||||||||120|N-Normal|1|FM15-METAR|223|ICAO-KFCH|3.1|N-Normal|1|FM15-METAR|223|ICAO-KFCH|||||||||||||81|Derived||FM15-METAR|223|ICAO-KFCH|||||||||||||||||||||||||||||||||||||||||||||||||||||||||||||||||||||||||1014.6||1|FM15-METAR|223|ICAO-KFCH|||||||||||||||||||||||||||||||||||||||||||MET061METAR KFCH 161115Z AUTO 12006KT 10SM CLR 05/02 A2996 RMK A01=||F||223|ICAO-KFCH
USW00023167|FRESNO CHANDLER DWTN AP|2022|02|16|11|35|36.7333|-119.8167|84.1|6.0||1|FM15-METAR|223|ICAO-KFCH|2.0||1|FM15-METAR|223|ICAO-KFCH|||||||||||||230|N-Normal|1|FM15-METAR|223|ICAO-KFCH|2.1|N-Normal|1|FM15-METAR|223|ICAO-KFCH|||||||||||||76|Derived||FM15-METAR|223|ICAO-KFCH|||||||||||||||||||||||||||||||||||||||||||||||||||||||||||||||||||||||||1015.2||1|FM15-METAR|223|ICAO-KFCH|||||||||||||||||||||||||||||||||||||||||||MET061METAR KFCH 161135Z AUTO 23004KT 10SM CLR 06/02 A2998 RMK A01=||F||223|ICAO-KFCH
USW00023167|FRESNO CHANDLER DWTN AP|2022|02|16|11|55|36.7333|-119.8167|84.1|5.0||1|FM15-METAR|223|ICAO-KFCH|2.0||1|FM15-METAR|223|ICAO-KFCH|||||||||||||999|V-Variable|9|FM15-METAR|223|ICAO-KFCH|1.5|V-Variable|1|FM15-METAR|223|ICAO-KFCH|||||||||||||81|Derived||FM15-METAR|223|ICAO-KFCH|||||||||||||||||||||||||||||||||||||||||||||||||||||||||||||||||||||||||1015.2||1|FM15-METAR|223|ICAO-KFCH|||||||||||||||||||||||||||||||||||||||||||MET061METAR KFCH 161155Z AUTO VRB03KT 10SM CLR 05/02 A2998 RMK A01=||F||223|ICAO-KFCH
USW00023167|FRESNO CHANDLER DWTN AP|2022|02|16|12|15|36.7333|-119.8167|84.1|4.0||1|FM15-METAR|223|ICAO-KFCH|1.0||1|FM15-METAR|223|ICAO-KFCH|||||||||||||999|C-Calm|9|FM15-METAR|223|ICAO-KFCH|0.0|C-Calm|1|FM15-METAR|223|ICAO-KFCH|||||||||||||81|Derived||FM15-METAR|223|ICAO-KFCH|||||||||||||||||||||||||||||||||||||||||||||||||||||||||||||||||||||||||1015.6||1|FM15-METAR|223|ICAO-KFCH|||||||||||||||||||||||||||||||||||||||||||MET061METAR KFCH 161215Z AUTO 00000KT 10SM CLR 04/01 A2999 RMK A01=||F||223|ICAO-KFCH
USW00023167|FRESNO CHANDLER DWTN AP|2022|02|16|12|35|36.7333|-119.8167|84.1|4.0||1|FM15-METAR|223|ICAO-KFCH|1.0||1|FM15-METAR|223|ICAO-KFCH|||||||||||||110|N-Normal|1|FM15-METAR|223|ICAO-KFCH|2.1|N-Normal|1|FM15-METAR|223|ICAO-KFCH|||||||||||||81|Derived||FM15-METAR|223|ICAO-KFCH|||||||||||||||||||||||||||||||||||||||||||||||||||||||||||||||||||||||||1015.9||1|FM15-METAR|223|ICAO-KFCH|||||||||||||||||||||||||||||||||||||||||||MET061METAR KFCH 161235Z AUTO 11004KT 10SM CLR 04/01 A3000 RMK A01=||F||223|ICAO-KFCH
USW00023167|FRESNO CHANDLER DWTN AP|2022|02|16|12|55|36.7333|-119.8167|84.1|5.0||1|FM15-METAR|223|ICAO-KFCH|1.0||1|FM15-METAR|223|ICAO-KFCH|||||||||||||150|N-Normal|1|FM15-METAR|223|ICAO-KFCH|2.1|N-Normal|1|FM15-METAR|223|ICAO-KFCH|||||||||||||76|Derived||FM15-METAR|223|ICAO-KFCH|||||||||||||||||||||||||||||||||||||||||||||||||||||||||||||||||||||||||1016.3||1|FM15-METAR|223|ICAO-KFCH|||||||||||||||||||||||||||||||||||||||||||MET061METAR KFCH 161255Z AUTO 15004KT 10SM CLR 05/01 A3001 RMK A01=||F||223|ICAO-KFCH
USW00023167|FRESNO CHANDLER DWTN AP|2022|02|16|13|15|36.7333|-119.8167|84.1|3.0||1|FM15-METAR|223|ICAO-KFCH|1.0||1|FM15-METAR|223|ICAO-KFCH|||||||||||||999|C-Calm|9|FM15-METAR|223|ICAO-KFCH|0.0|C-Calm|1|FM15-METAR|223|ICAO-KFCH|||||||||||||87|Derived||FM15-METAR|223|ICAO-KFCH|||||||||||||||||||||||||||||||||||||||||||||||||||||||||||||||||||||||||1016.3||1|FM15-METAR|223|ICAO-KFCH|||||||||||||||||||||||||||||||||||||||||||MET061METAR KFCH 161315Z AUTO 00000KT 10SM CLR 03/01 A3001 RMK A01=||F||223|ICAO-KFCH
USW00023167|FRESNO CHANDLER DWTN AP|2022|02|16|13|35|36.7333|-119.8167|84.1|3.0||1|FM15-METAR|223|ICAO-KFCH|1.0||1|FM15-METAR|223|ICAO-KFCH|||||||||||||999|C-Calm|9|FM15-METAR|223|ICAO-KFCH|0.0|C-Calm|1|FM15-METAR|223|ICAO-KFCH|||||||||||||87|Derived||FM15-METAR|223|ICAO-KFCH|||||||||||||||||||||||||||||||||||||||||||||||||||||||||||||||||||||||||1016.3||1|FM15-METAR|223|ICAO-KFCH|||||||||||||||||||||||||||||||||||||||||||MET061METAR KFCH 161335Z AUTO 00000KT 10SM CLR 03/01 A3001 RMK A01=||F||223|ICAO-KFCH
USW00023167|FRESNO CHANDLER DWTN AP|2022|02|16|13|50|36.7333|-119.8167|84.1|3.0||1|FM15-METAR|223|ICAO-KFCH|1.0||1|FM15-METAR|223|ICAO-KFCH|||||||||||||999|C-Calm|9|FM15-METAR|223|ICAO-KFCH|0.0|C-Calm|1|FM15-METAR|223|ICAO-KFCH|||||||||||||87|Derived||FM15-METAR|223|ICAO-KFCH|||||||||||||||||||||||||||||||||||||||||||||||||||||||||||||||||||||||||1016.6||1|FM15-METAR|223|ICAO-KFCH|||||||||||||||||||||||||||||||||||||||||||MET061METAR KFCH 161350Z AUTO 00000KT 10SM CLR 03/01 A3002 RMK A01=||F||223|ICAO-KFCH
USW00023167|FRESNO CHANDLER DWTN AP|2022|02|16|14|15|36.7333|-119.8167|84.1|3.0||1|FM15-METAR|223|ICAO-KFCH|1.0||1|FM15-METAR|223|ICAO-KFCH|||||||||||||100|N-Normal|1|FM15-METAR|223|ICAO-KFCH|2.1|N-Normal|1|FM15-METAR|223|ICAO-KFCH|||||||||||||87|Derived||FM15-METAR|223|ICAO-KFCH|||||||||||||||||||||||||||||||||||||||||||||||||||||||||||||||||||||||||1016.3||1|FM15-METAR|223|ICAO-KFCH|||||||||||||||||||||||||||||||||||||||||||MET061METAR KFCH 161415Z AUTO 10004KT 10SM CLR 03/01 A3001 RMK A01=||F||223|ICAO-KFCH
USW00023167|FRESNO CHANDLER DWTN AP|2022|02|16|14|35|36.7333|-119.8167|84.1|4.0||1|FM15-METAR|223|ICAO-KFCH|1.0||1|FM15-METAR|223|ICAO-KFCH|||||||||||||999|C-Calm|9|FM15-METAR|223|ICAO-KFCH|0.0|C-Calm|1|FM15-METAR|223|ICAO-KFCH|||||||||||||81|Derived||FM15-METAR|223|ICAO-KFCH|||||||||||||||||||||||||||||||||||||||||||||||||||||||||||||||||||||||||1016.9||1|FM15-METAR|223|ICAO-KFCH|||||||||||||||||||||||||||||||||||||||||||MET061METAR KFCH 161435Z AUTO 00000KT 10SM CLR 04/01 A3003 RMK A01=||F||223|ICAO-KFCH
USW00023167|FRESNO CHANDLER DWTN AP|2022|02|16|14|55|36.7333|-119.8167|84.1|3.0||1|FM15-METAR|223|ICAO-KFCH|1.0||1|FM15-METAR|223|ICAO-KFCH|||||||||||||999|C-Calm|9|FM15-METAR|223|ICAO-KFCH|0.0|C-Calm|1|FM15-METAR|223|ICAO-KFCH|||||||||||||87|Derived||FM15-METAR|223|ICAO-KFCH|||||||||||||||||||||||||||||||||||||||||||||||||||||||||||||||||||||||||1016.9||1|FM15-METAR|223|ICAO-KFCH|||||||||||||||||||||||||||||||||||||||||||MET061METAR KFCH 161455Z AUTO 00000KT 10SM CLR 03/01 A3003 RMK A01=||F||223|ICAO-KFCH
USW00023167|FRESNO CHANDLER DWTN AP|2022|02|16|15|15|36.7333|-119.8167|84.1|3.0||1|FM15-METAR|223|ICAO-KFCH|1.0||1|FM15-METAR|223|ICAO-KFCH|||||||||||||999|C-Calm|9|FM15-METAR|223|ICAO-KFCH|0.0|C-Calm|1|FM15-METAR|223|ICAO-KFCH|||||||||||||87|Derived||FM15-METAR|223|ICAO-KFCH|||||||||||||||||||||||||||||||||||||||||||||||||||||||||||||||||||||||||1016.9||1|FM15-METAR|223|ICAO-KFCH|||||||||||||||||||||||||||||||||||||||||||MET061METAR KFCH 161515Z AUTO 00000KT 10SM CLR 03/01 A3003 RMK A01=||F||223|ICAO-KFCH
USW00023167|FRESNO CHANDLER DWTN AP|2022|02|16|15|35|36.7333|-119.8167|84.1|4.0||1|FM15-METAR|223|ICAO-KFCH|2.0||1|FM15-METAR|223|ICAO-KFCH|||||||||||||999|C-Calm|9|FM15-METAR|223|ICAO-KFCH|0.0|C-Calm|1|FM15-METAR|223|ICAO-KFCH|||||||||||||87|Derived||FM15-METAR|223|ICAO-KFCH|||||||||||||||||||||||||||||||||||||||||||||||||||||||||||||||||||||||||1017.3||1|FM15-METAR|223|ICAO-KFCH|||||||||||||||||||||||||||||||||||||||||||MET061METAR KFCH 161535Z AUTO 00000KT 10SM CLR 04/02 A3004 RMK A01=||F||223|ICAO-KFCH
USW00023167|FRESNO CHANDLER DWTN AP|2022|02|16|15|55|36.7333|-119.8167|84.1|6.0||1|FM15-METAR|223|ICAO-KFCH|2.0||1|FM15-METAR|223|ICAO-KFCH|||||||||||||120|N-Normal|1|FM15-METAR|223|ICAO-KFCH|1.5|N-Normal|1|FM15-METAR|223|ICAO-KFCH|||||||||||||76|Derived||FM15-METAR|223|ICAO-KFCH|||||||||||||||||||||||||||||||||||||||||||||||||||||||||||||||||||||||||1017.6||1|FM15-METAR|223|ICAO-KFCH|||||||||||||||||||||||||||||||||||||||||||MET061METAR KFCH 161555Z AUTO 12003KT 10SM CLR 06/02 A3005 RMK A01=||F||223|ICAO-KFCH
USW00023167|FRESNO CHANDLER DWTN AP|2022|02|16|16|15|36.7333|-119.8167|84.1|8.0||1|FM15-METAR|223|ICAO-KFCH|2.0||1|FM15-METAR|223|ICAO-KFCH|||||||||||||999|C-Calm|9|FM15-METAR|223|ICAO-KFCH|0.0|C-Calm|1|FM15-METAR|223|ICAO-KFCH|||||||||||||66|Derived||FM15-METAR|223|ICAO-KFCH|||||||||||||||||||||||||||||||||||||||||||||||||||||||||||||||||||||||||1017.9||1|FM15-METAR|223|ICAO-KFCH|||||||||||||||||||||||||||||||||||||||||||MET061METAR KFCH 161615Z AUTO 00000KT 10SM CLR 08/02 A3006 RMK A01=||F||223|ICAO-KFCH
USW00023167|FRESNO CHANDLER DWTN AP|2022|02|16|16|35|36.7333|-119.8167|84.1|8.0||1|FM15-METAR|223|ICAO-KFCH|1.0||1|FM15-METAR|223|ICAO-KFCH|||||||||||||130|N-Normal|1|FM15-METAR|223|ICAO-KFCH|3.6|N-Normal|1|FM15-METAR|223|ICAO-KFCH|||||||||||||62|Derived||FM15-METAR|223|ICAO-KFCH|||||||||||||||||||||||||||||||||||||||||||||||||||||||||||||||||||||||||1017.9||1|FM15-METAR|223|ICAO-KFCH|||||||||||||||||||||||||||||||||||||||||||MET061METAR KFCH 161635Z AUTO 13007KT 10SM CLR 08/01 A3006 RMK A01=||F||223|ICAO-KFCH
USW00023167|FRESNO CHANDLER DWTN AP|2022|02|16|16|55|36.7333|-119.8167|84.1|10.0||1|FM15-METAR|223|ICAO-KFCH|1.0||1|FM15-METAR|223|ICAO-KFCH|||||||||||||120|N-Normal|1|FM15-METAR|223|ICAO-KFCH|3.1|N-Normal|1|FM15-METAR|223|ICAO-KFCH|||||||||||||54|Derived||FM15-METAR|223|ICAO-KFCH|||||||||||||||||||||||||||||||||||||||||||||||||||||||||||||||||||||||||1017.9||1|FM15-METAR|223|ICAO-KFCH|||||||||||||||||||||||||||||||||||||||||||MET061METAR KFCH 161655Z AUTO 12006KT 10SM CLR 10/01 A3006 RMK A01=||F||223|ICAO-KFCH
USW00023167|FRESNO CHANDLER DWTN AP|2022|02|16|17|15|36.7333|-119.8167|84.1|10.0||1|FM15-METAR|223|ICAO-KFCH|1.0||1|FM15-METAR|223|ICAO-KFCH|||||||||||||130|N-Normal|1|FM15-METAR|223|ICAO-KFCH|2.6|N-Normal|1|FM15-METAR|223|ICAO-KFCH|||||||||||||54|Derived||FM15-METAR|223|ICAO-KFCH|||||||||||||||||||||||||||||||||||||||||||||||||||||||||||||||||||||||||1017.9||1|FM15-METAR|223|ICAO-KFCH|||||||||||||||||||||||||||||||||||||||||||MET061METAR KFCH 161715Z AUTO 13005KT 10SM CLR 10/01 A3006 RMK A01=||F||223|ICAO-KFCH
USW00023167|FRESNO CHANDLER DWTN AP|2022|02|16|17|35|36.7333|-119.8167|84.1|11.0||1|FM15-METAR|223|ICAO-KFCH|1.0||1|FM15-METAR|223|ICAO-KFCH|||||||||||||130|N-Normal|1|FM15-METAR|223|ICAO-KFCH|3.6|N-Normal|1|FM15-METAR|223|ICAO-KFCH|||||||||||||50|Derived||FM15-METAR|223|ICAO-KFCH|||||||||||||||||||||||||||||||||||||||||||||||||||||||||||||||||||||||||1017.9||1|FM15-METAR|223|ICAO-KFCH|||||||||||||||||||||||||||||||||||||||||||MET061METAR KFCH 161735Z AUTO 13007KT 10SM CLR 11/01 A3006 RMK A01=||F||223|ICAO-KFCH
USW00023167|FRESNO CHANDLER DWTN AP|2022|02|16|17|55|36.7333|-119.8167|84.1|12.0||1|FM15-METAR|223|ICAO-KFCH|1.0||1|FM15-METAR|223|ICAO-KFCH|||||||||||||130|N-Normal|1|FM15-METAR|223|ICAO-KFCH|3.6|N-Normal|1|FM15-METAR|223|ICAO-KFCH|||||||||||||47|Derived||FM15-METAR|223|ICAO-KFCH|||||||||||||||||||||||||||||||||||||||||||||||||||||||||||||||||||||||||1018.3||1|FM15-METAR|223|ICAO-KFCH|||||||||||||||||||||||||||||||||||||||||||MET061METAR KFCH 161755Z AUTO 13007KT 10SM CLR 12/01 A3007 RMK A01=||F||223|ICAO-KFCH
USW00023167|FRESNO CHANDLER DWTN AP|2022|02|16|18|10|36.7333|-119.8167|84.1|12.0||1|FM15-METAR|223|ICAO-KFCH|1.0||1|FM15-METAR|223|ICAO-KFCH|||||||||||||150|N-Normal|1|FM15-METAR|223|ICAO-KFCH|3.6|N-Normal|1|FM15-METAR|223|ICAO-KFCH|||||||||||||47|Derived||FM15-METAR|223|ICAO-KFCH|||||||||||||||||||||||||||||||||||||||||||||||||||||||||||||||||||||||||1018.3||1|FM15-METAR|223|ICAO-KFCH|||||||||||||||||||||||||||||||||||||||||||MET061METAR KFCH 161810Z AUTO 15007KT 10SM CLR 12/01 A3007 RMK A01=||F||223|ICAO-KFCH
USW00023167|FRESNO CHANDLER DWTN AP|2022|02|16|18|35|36.7333|-119.8167|84.1|13.0||1|FM15-METAR|223|ICAO-KFCH|0.0||1|FM15-METAR|223|ICAO-KFCH|||||||||||||999|V-Variable|9|FM15-METAR|223|ICAO-KFCH|2.1|V-Variable|1|FM15-METAR|223|ICAO-KFCH|5.1||1|FM15-METAR|223|ICAO-KFCH|||||||41|Derived||FM15-METAR|223|ICAO-KFCH|||||||||||||||||||||||||||||||||||||||||||||||||||||||||||||||||||||||||1018.3||1|FM15-METAR|223|ICAO-KFCH|||||||||||||||||||||||||||||||||||||||||||MET064METAR KFCH 161835Z AUTO VRB04G10KT 10SM CLR 13/00 A3007 RMK A01=||F||223|ICAO-KFCH
USW00023167|FRESNO CHANDLER DWTN AP|2022|02|16|18|55|36.7333|-119.8167|84.1|13.0||1|FM15-METAR|223|ICAO-KFCH|0.0||1|FM15-METAR|223|ICAO-KFCH|||||||||||||170|N-Normal|1|FM15-METAR|223|ICAO-KFCH|1.5|N-Normal|1|FM15-METAR|223|ICAO-KFCH|||||||||||||41|Derived||FM15-METAR|223|ICAO-KFCH|||||||||||||||||||||||||||||||||||||||||||||||||||||||||||||||||||||||||1018.3||1|FM15-METAR|223|ICAO-KFCH|||||||||||||||||||||||||||||||||||||||||||MET062METAR KFCH 161855Z AUTO 17003KT 10SM CLR 13/M00 A3007 RMK A01=||F||223|ICAO-KFCH
USW00023167|FRESNO CHANDLER DWTN AP|2022|02|16|19|10|36.7333|-119.8167|84.1|14.0||1|FM15-METAR|223|ICAO-KFCH|0.0||1|FM15-METAR|223|ICAO-KFCH|||||||||||||999|V-Variable|9|FM15-METAR|223|ICAO-KFCH|2.6|V-Variable|1|FM15-METAR|223|ICAO-KFCH|||||||||||||39|Derived||FM15-METAR|223|ICAO-KFCH|||||||||||||||||||||||||||||||||||||||||||||||||||||||||||||||||||||||||1017.9||1|FM15-METAR|223|ICAO-KFCH|||||||||||||||||||||||||||||||||||||||||||MET061METAR KFCH 161910Z AUTO VRB05KT 10SM CLR 14/00 A3006 RMK A01=||F||223|ICAO-KFCH
USW00023167|FRESNO CHANDLER DWTN AP|2022|02|16|19|35|36.7333|-119.8167|84.1|14.0||1|FM15-METAR|223|ICAO-KFCH|0.0||1|FM15-METAR|223|ICAO-KFCH|||||||||||||999|V-Variable|9|FM15-METAR|223|ICAO-KFCH|2.1|V-Variable|1|FM15-METAR|223|ICAO-KFCH|5.1||1|FM15-METAR|223|ICAO-KFCH|||||||39|Derived||FM15-METAR|223|ICAO-KFCH|||||||||||||||||||||||||||||||||||||||||||||||||||||||||||||||||||||||||1017.9||1|FM15-METAR|223|ICAO-KFCH|||||||||||||||||||||||||||||||||||||||||||MET065METAR KFCH 161935Z AUTO VRB04G10KT 10SM CLR 14/M00 A3006 RMK A01=||F||223|ICAO-KFCH
USW00023167|FRESNO CHANDLER DWTN AP|2022|02|16|19|50|36.7333|-119.8167|84.1|14.0||1|FM15-METAR|223|ICAO-KFCH|-1.0||1|FM15-METAR|223|ICAO-KFCH|||||||||||||999|V-Variable|9|FM15-METAR|223|ICAO-KFCH|2.1|V-Variable|1|FM15-METAR|223|ICAO-KFCH|||||||||||||36|Derived||FM15-METAR|223|ICAO-KFCH|||||||||||||||||||||||||||||||||||||||||||||||||||||||||||||||||||||||||1017.6||1|FM15-METAR|223|ICAO-KFCH|||||||||||||||||||||||||||||||||||||||||||MET062METAR KFCH 161950Z AUTO VRB04KT 10SM CLR 14/M01 A3005 RMK A01=||F||223|ICAO-KFCH
USW00023167|FRESNO CHANDLER DWTN AP|2022|02|16|20|15|36.7333|-119.8167|84.1|15.0||1|FM15-METAR|223|ICAO-KFCH|0.0||1|FM15-METAR|223|ICAO-KFCH|||||||||||||999|V-Variable|9|FM15-METAR|223|ICAO-KFCH|2.6|V-Variable|1|FM15-METAR|223|ICAO-KFCH|||||||||||||36|Derived||FM15-METAR|223|ICAO-KFCH|||||||||||||||||||||||||||||||||||||||||||||||||||||||||||||||||||||||||1017.3||1|FM15-METAR|223|ICAO-KFCH|||||||||||||||||||||||||||||||||||||||||||MET062METAR KFCH 162015Z AUTO VRB05KT 10SM CLR 15/M00 A3004 RMK A01=||F||223|ICAO-KFCH
USW00023167|FRESNO CHANDLER DWTN AP|2022|02|16|20|35|36.7333|-119.8167|84.1|15.0||1|FM15-METAR|223|ICAO-KFCH|0.0||1|FM15-METAR|223|ICAO-KFCH|||||||||||||100|N-Normal|1|FM15-METAR|223|ICAO-KFCH|4.1|N-Normal|1|FM15-METAR|223|ICAO-KFCH|||||||||||||36|Derived||FM15-METAR|223|ICAO-KFCH|||||||||||||||||||||||||||||||||||||||||||||||||||||||||||||||||||||||||1016.9||1|FM15-METAR|223|ICAO-KFCH|||||||||||||||||||||||||||||||||||||||||||MET061METAR KFCH 162035Z AUTO 10008KT 10SM CLR 15/00 A3003 RMK A01=||F||223|ICAO-KFCH
USW00023167|FRESNO CHANDLER DWTN AP|2022|02|16|20|55|36.7333|-119.8167|84.1|15.0||1|FM15-METAR|223|ICAO-KFCH|-1.0||1|FM15-METAR|223|ICAO-KFCH|||||||||||||999|V-Variable|9|FM15-METAR|223|ICAO-KFCH|2.6|V-Variable|1|FM15-METAR|223|ICAO-KFCH|||||||||||||34|Derived||FM15-METAR|223|ICAO-KFCH|||||||||||||||||||||||||||||||||||||||||||||||||||||||||||||||||||||||||1016.9||1|FM15-METAR|223|ICAO-KFCH|||||||||||||||||||||||||||||||||||||||||||MET062METAR KFCH 162055Z AUTO VRB05KT 10SM CLR 15/M01 A3003 RMK A01=||F||223|ICAO-KFCH
USW00023167|FRESNO CHANDLER DWTN AP|2022|02|16|21|15|36.7333|-119.8167|84.1|16.0||1|FM15-METAR|223|ICAO-KFCH|0.0||1|FM15-METAR|223|ICAO-KFCH|||||||||||||100|N-Normal|1|FM15-METAR|223|ICAO-KFCH|3.1|N-Normal|1|FM15-METAR|223|ICAO-KFCH|||||||||||||34|Derived||FM15-METAR|223|ICAO-KFCH|||||||||||||||||||||||||||||||||||||||||||||||||||||||||||||||||||||||||1016.6||1|FM15-METAR|223|ICAO-KFCH|||||||||||||||||||||||||||||||||||||||||||MET061METAR KFCH 162115Z AUTO 10006KT 10SM CLR 16/00 A3002 RMK A01=||F||223|ICAO-KFCH
USW00023167|FRESNO CHANDLER DWTN AP|2022|02|16|21|30|36.7333|-119.8167|84.1|16.0||1|FM15-METAR|223|ICAO-KFCH|0.0||1|FM15-METAR|223|ICAO-KFCH|||||||||||||999|C-Calm|9|FM15-METAR|223|ICAO-KFCH|0.0|C-Calm|1|FM15-METAR|223|ICAO-KFCH|||||||||||||34|Derived||FM15-METAR|223|ICAO-KFCH|||||||||||||||||||||||||||||||||||||||||||||||||||||||||||||||||||||||||1016.6||1|FM15-METAR|223|ICAO-KFCH|||||||||||||||||||||||||||||||||||||||||||MET062METAR KFCH 162130Z AUTO 00000KT 10SM CLR 16/M00 A3002 RMK A01=||F||223|ICAO-KFCH
USW00023167|FRESNO CHANDLER DWTN AP|2022|02|16|21|55|36.7333|-119.8167|84.1|17.0||1|FM15-METAR|223|ICAO-KFCH|0.0||1|FM15-METAR|223|ICAO-KFCH|||||||||||||999|C-Calm|9|FM15-METAR|223|ICAO-KFCH|0.0|C-Calm|1|FM15-METAR|223|ICAO-KFCH|||||||||||||32|Derived||FM15-METAR|223|ICAO-KFCH|||||||||||||||||||||||||||||||||||||||||||||||||||||||||||||||||||||||||1016.3||1|FM15-METAR|223|ICAO-KFCH|||||||||||||||||||||||||||||||||||||||||||MET062METAR KFCH 162155Z AUTO 00000KT 10SM CLR 17/M00 A3001 RMK A01=||F||223|ICAO-KFCH
USW00023167|FRESNO CHANDLER DWTN AP|2022|02|16|22|15|36.7333|-119.8167|84.1|16.0||1|FM15-METAR|223|ICAO-KFCH|-1.0||1|FM15-METAR|223|ICAO-KFCH|||||||||||||160|N-Normal|1|FM15-METAR|223|ICAO-KFCH|1.5|N-Normal|1|FM15-METAR|223|ICAO-KFCH|||||||||||||31|Derived||FM15-METAR|223|ICAO-KFCH|||||||||||||||||||||||||||||||||||||||||||||||||||||||||||||||||||||||||1016.3||1|FM15-METAR|223|ICAO-KFCH|||||||||||||||||||||||||||||||||||||||||||MET062METAR KFCH 162215Z AUTO 16003KT 10SM CLR 16/M01 A3001 RMK A01=||F||223|ICAO-KFCH
USW00023167|FRESNO CHANDLER DWTN AP|2022|02|16|22|35|36.7333|-119.8167|84.1|17.0||1|FM15-METAR|223|ICAO-KFCH|-1.0||1|FM15-METAR|223|ICAO-KFCH|||||||||||||999|C-Calm|9|FM15-METAR|223|ICAO-KFCH|0.0|C-Calm|1|FM15-METAR|223|ICAO-KFCH|||||||||||||30|Derived||FM15-METAR|223|ICAO-KFCH|||||||||||||||||||||||||||||||||||||||||||||||||||||||||||||||||||||||||1015.9||1|FM15-METAR|223|ICAO-KFCH|||||||||||||||||||||||||||||||||||||||||||MET062METAR KFCH 162235Z AUTO 00000KT 10SM CLR 17/M01 A3000 RMK A01=||F||223|ICAO-KFCH
USW00023167|FRESNO CHANDLER DWTN AP|2022|02|16|22|55|36.7333|-119.8167|84.1|17.0||1|FM15-METAR|223|ICAO-KFCH|-1.0||1|FM15-METAR|223|ICAO-KFCH|||||||||||||270|N-Normal|1|FM15-METAR|223|ICAO-KFCH|2.1|N-Normal|1|FM15-METAR|223|ICAO-KFCH|||||||||||||30|Derived||FM15-METAR|223|ICAO-KFCH|||||||||||||||||||||||||||||||||||||||||||||||||||||||||||||||||||||||||1015.9||1|FM15-METAR|223|ICAO-KFCH|||||||||||||||||||||||||||||||||||||||||||MET062METAR KFCH 162255Z AUTO 27004KT 10SM CLR 17/M01 A3000 RMK A01=||F||223|ICAO-KFCH
USW00023167|FRESNO CHANDLER DWTN AP|2022|02|16|23|15|36.7333|-119.8167|84.1|17.0||1|FM15-METAR|223|ICAO-KFCH|0.0||1|FM15-METAR|223|ICAO-KFCH|||||||||||||270|N-Normal|1|FM15-METAR|223|ICAO-KFCH|1.5|N-Normal|1|FM15-METAR|223|ICAO-KFCH|||||||||||||32|Derived||FM15-METAR|223|ICAO-KFCH|||||||||||||||||||||||||||||||||||||||||||||||||||||||||||||||||||||||||1015.9||1|FM15-METAR|223|ICAO-KFCH|||||||||||||||||||||||||||||||||||||||||||MET062METAR KFCH 162315Z AUTO 27003KT 10SM CLR 17/M00 A3000 RMK A01=||F||223|ICAO-KFCH
USW00023167|FRESNO CHANDLER DWTN AP|2022|02|16|23|35|36.7333|-119.8167|84.1|17.0||1|FM15-METAR|223|ICAO-KFCH|-1.0||1|FM15-METAR|223|ICAO-KFCH|||||||||||||999|V-Variable|9|FM15-METAR|223|ICAO-KFCH|2.1|V-Variable|1|FM15-METAR|223|ICAO-KFCH|||||||||||||30|Derived||FM15-METAR|223|ICAO-KFCH|||||||||||||||||||||||||||||||||||||||||||||||||||||||||||||||||||||||||1016.3||1|FM15-METAR|223|ICAO-KFCH|||||||||||||||||||||||||||||||||||||||||||MET062METAR KFCH 162335Z AUTO VRB04KT 10SM CLR 17/M01 A3001 RMK A01=||F||223|ICAO-KFCH
USW00023167|FRESNO CHANDLER DWTN AP|2022|02|16|23|55|36.7333|-119.8167|84.1|17.0||1|FM15-METAR|223|ICAO-KFCH|-1.0||1|FM15-METAR|223|ICAO-KFCH|||||||||||||999|C-Calm|9|FM15-METAR|223|ICAO-KFCH|0.0|C-Calm|1|FM15-METAR|223|ICAO-KFCH|||||||||||||30|Derived||FM15-METAR|223|ICAO-KFCH|||||||||||||||||||||||||||||||||||||||||||||||||||||||||||||||||||||||||1016.3||1|FM15-METAR|223|ICAO-KFCH|||||||||||||||||||||||||||||||||||||||||||MET062METAR KFCH 162355Z AUTO 00000KT 10SM CLR 17/M01 A3001 RMK A01=||F||223|ICAO-KFCH
USW00023167|FRESNO CHANDLER DWTN AP|2022|02|17|00|15|36.7333|-119.8167|84.1|17.0||1|FM15-METAR|223|ICAO-KFCH|-1.0||1|FM15-METAR|223|ICAO-KFCH|||||||||||||999|C-Calm|9|FM15-METAR|223|ICAO-KFCH|0.0|C-Calm|1|FM15-METAR|223|ICAO-KFCH|||||||||||||30|Derived||FM15-METAR|223|ICAO-KFCH|||||||||||||||||||||||||||||||||||||||||||||||||||||||||||||||||||||||||1016.3||1|FM15-METAR|223|ICAO-KFCH|||||||||||||||||||||||||||||||||||||||||||MET062METAR KFCH 170015Z AUTO 00000KT 10SM CLR 17/M01 A3001 RMK A01=||F||223|ICAO-KFCH
USW00023167|FRESNO CHANDLER DWTN AP|2022|02|17|00|35|36.7333|-119.8167|84.1|17.0||1|FM15-METAR|223|ICAO-KFCH|-1.0||1|FM15-METAR|223|ICAO-KFCH|||||||||||||999|V-Variable|9|FM15-METAR|223|ICAO-KFCH|1.5|V-Variable|1|FM15-METAR|223|ICAO-KFCH|||||||||||||30|Derived||FM15-METAR|223|ICAO-KFCH|||||||||||||||||||||||||||||||||||||||||||||||||||||||||||||||||||||||||1016.3||1|FM15-METAR|223|ICAO-KFCH|||||||||||||||||||||||||||||||||||||||||||MET062METAR KFCH 170035Z AUTO VRB03KT 10SM CLR 17/M01 A3001 RMK A01=||F||223|ICAO-KFCH
USW00023167|FRESNO CHANDLER DWTN AP|2022|02|17|00|55|36.7333|-119.8167|84.1|16.0||1|FM15-METAR|223|ICAO-KFCH|0.0||1|FM15-METAR|223|ICAO-KFCH|||||||||||||999|V-Variable|9|FM15-METAR|223|ICAO-KFCH|1.5|V-Variable|1|FM15-METAR|223|ICAO-KFCH|||||||||||||34|Derived||FM15-METAR|223|ICAO-KFCH|||||||||||||||||||||||||||||||||||||||||||||||||||||||||||||||||||||||||1016.3||1|FM15-METAR|223|ICAO-KFCH|||||||||||||||||||||||||||||||||||||||||||MET062METAR KFCH 170055Z AUTO VRB03KT 10SM CLR 16/M00 A3001 RMK A01=||F||223|ICAO-KFCH
USW00023167|FRESNO CHANDLER DWTN AP|2022|02|17|01|15|36.7333|-119.8167|84.1|16.0||1|FM15-METAR|223|ICAO-KFCH|-1.0||1|FM15-METAR|223|ICAO-KFCH|||||||||||||280|N-Normal|1|FM15-METAR|223|ICAO-KFCH|2.1|N-Normal|1|FM15-METAR|223|ICAO-KFCH|||||||||||||31|Derived||FM15-METAR|223|ICAO-KFCH|||||||||||||||||||||||||||||||||||||||||||||||||||||||||||||||||||||||||1016.6||1|FM15-METAR|223|ICAO-KFCH|||||||||||||||||||||||||||||||||||||||||||MET062METAR KFCH 170115Z AUTO 28004KT 10SM CLR 16/M01 A3002 RMK A01=||F||223|ICAO-KFCH
USW00023167|FRESNO CHANDLER DWTN AP|2022|02|17|01|35|36.7333|-119.8167|84.1|15.0||1|FM15-METAR|223|ICAO-KFCH|0.0||1|FM15-METAR|223|ICAO-KFCH|||||||||||||300|N-Normal|1|FM15-METAR|223|ICAO-KFCH|2.1|N-Normal|1|FM15-METAR|223|ICAO-KFCH|||||||||||||36|Derived||FM15-METAR|223|ICAO-KFCH|||||||||||||||||||||||||||||||||||||||||||||||||||||||||||||||||||||||||1016.9||1|FM15-METAR|223|ICAO-KFCH|||||||||||||||||||||||||||||||||||||||||||MET062METAR KFCH 170135Z AUTO 30004KT 10SM CLR 15/M00 A3003 RMK A01=||F||223|ICAO-KFCH
USW00023167|FRESNO CHANDLER DWTN AP|2022|02|17|01|55|36.7333|-119.8167|84.1|15.0||1|FM15-METAR|223|ICAO-KFCH|0.0||1|FM15-METAR|223|ICAO-KFCH|||||||||||||330|N-Normal|1|FM15-METAR|223|ICAO-KFCH|2.1|N-Normal|1|FM15-METAR|223|ICAO-KFCH|||||||||||||36|Derived||FM15-METAR|223|ICAO-KFCH|||||||||||||||||||||||||||||||||||||||||||||||||||||||||||||||||||||||||1017.3||1|FM15-METAR|223|ICAO-KFCH|||||||||||||||||||||||||||||||||||||||||||MET062METAR KFCH 170155Z AUTO 33004KT 10SM CLR 15/M00 A3004 RMK A01=||F||223|ICAO-KFCH
USW00023167|FRESNO CHANDLER DWTN AP|2022|02|17|02|15|36.7333|-119.8167|84.1|15.0||1|FM15-METAR|223|ICAO-KFCH|0.0||1|FM15-METAR|223|ICAO-KFCH|||||||||||||350|N-Normal|1|FM15-METAR|223|ICAO-KFCH|2.1|N-Normal|1|FM15-METAR|223|ICAO-KFCH|||||||||||||36|Derived||FM15-METAR|223|ICAO-KFCH|||||||||||||||||||||||||||||||||||||||||||||||||||||||||||||||||||||||||1017.6||1|FM15-METAR|223|ICAO-KFCH|||||||||||||||||||||||||||||||||||||||||||MET065METAR KFCH 170215Z AUTO 35004KT 10SM FEW055 15/M00 A3005 RMK A01=||F||223|ICAO-KFCH
USW00023167|FRESNO CHANDLER DWTN AP|2022|02|17|02|35|36.7333|-119.8167|84.1|15.0||1|FM15-METAR|223|ICAO-KFCH|0.0||1|FM15-METAR|223|ICAO-KFCH|||||||||||||360|N-Normal|1|FM15-METAR|223|ICAO-KFCH|2.1|N-Normal|1|FM15-METAR|223|ICAO-KFCH|||||||||||||36|Derived||FM15-METAR|223|ICAO-KFCH|||||||||||||||||||||||||||||||||||||||||||||||||||||||||||||||||||||||||1017.6||1|FM15-METAR|223|ICAO-KFCH|||||||||||||||||||||||||||||||||||||||||||MET064METAR KFCH 170235Z AUTO 36004KT 10SM BKN055 15/00 A3005 RMK A01=||F||223|ICAO-KFCH
USW00023167|FRESNO CHANDLER DWTN AP|2022|02|17|02|55|36.7333|-119.8167|84.1|14.0||1|FM15-METAR|223|ICAO-KFCH|0.0||1|FM15-METAR|223|ICAO-KFCH|||||||||||||999|C-Calm|9|FM15-METAR|223|ICAO-KFCH|0.0|C-Calm|1|FM15-METAR|223|ICAO-KFCH|||||||||||||39|Derived||FM15-METAR|223|ICAO-KFCH|||||||||||||||||||||||||||||||||||||||||||||||||||||||||||||||||||||||||1017.9||1|FM15-METAR|223|ICAO-KFCH|||||||||||||||||||||||||||||||||||||||||||MET071METAR KFCH 170255Z AUTO 00000KT 10SM BKN050 OVC055 14/00 A3006 RMK A01=||F||223|ICAO-KFCH
USW00023167|FRESNO CHANDLER DWTN AP|2022|02|17|03|15|36.7333|-119.8167|84.1|13.0||1|FM15-METAR|223|ICAO-KFCH|1.0||1|FM15-METAR|223|ICAO-KFCH|||||||||||||999|C-Calm|9|FM15-METAR|223|ICAO-KFCH|0.0|C-Calm|1|FM15-METAR|223|ICAO-KFCH|||||||||||||44|Derived||FM15-METAR|223|ICAO-KFCH|||||||||||||||||||||||||||||||||||||||||||||||||||||||||||||||||||||||||1017.9||1|FM15-METAR|223|ICAO-KFCH|||||||||||||||||||||||||||||||||||||||||||MET064METAR KFCH 170315Z AUTO 00000KT 10SM OVC050 13/01 A3006 RMK A01=||F||223|ICAO-KFCH
USW00023167|FRESNO CHANDLER DWTN AP|2022|02|17|03|35|36.7333|-119.8167|84.1|13.0||1|FM15-METAR|223|ICAO-KFCH|1.0||1|FM15-METAR|223|ICAO-KFCH|||||||||||||999|C-Calm|9|FM15-METAR|223|ICAO-KFCH|0.0|C-Calm|1|FM15-METAR|223|ICAO-KFCH|||||||||||||44|Derived||FM15-METAR|223|ICAO-KFCH|||||||||||||||||||||||||||||||||||||||||||||||||||||||||||||||||||||||||1018.3||1|FM15-METAR|223|ICAO-KFCH|||||||||||||||||||||||||||||||||||||||||||MET057METAR KFCH 170335Z AUTO 00000KT 10SM 13/01 A3007 RMK A01=||F||223|ICAO-KFCH
USW00023167|FRESNO CHANDLER DWTN AP|2022|02|17|03|50|36.7333|-119.8167|84.1|12.0||1|FM15-METAR|223|ICAO-KFCH|2.0||1|FM15-METAR|223|ICAO-KFCH|||||||||||||999|C-Calm|9|FM15-METAR|223|ICAO-KFCH|0.0|C-Calm|1|FM15-METAR|223|ICAO-KFCH|||||||||||||51|Derived||FM15-METAR|223|ICAO-KFCH|||||||||||||||||||||||||||||||||||||||||||||||||||||||||||||||||||||||||1018.3||1|FM15-METAR|223|ICAO-KFCH|||||||||||||||||||||||||||||||||||||||||||MET057METAR KFCH 170350Z AUTO 00000KT 10SM 12/02 A3007 RMK A01=||F||223|ICAO-KFCH
USW00023167|FRESNO CHANDLER DWTN AP|2022|02|17|04|10|36.7333|-119.8167|84.1|11.0||1|FM15-METAR|223|ICAO-KFCH|1.0||1|FM15-METAR|223|ICAO-KFCH|||||||||||||999|C-Calm|9|FM15-METAR|223|ICAO-KFCH|0.0|C-Calm|1|FM15-METAR|223|ICAO-KFCH|||||||||||||50|Derived||FM15-METAR|223|ICAO-KFCH|||||||||||||||||||||||||||||||||||||||||||||||||||||||||||||||||||||||||1018.6||1|FM15-METAR|223|ICAO-KFCH|||||||||||||||||||||||||||||||||||||||||||MET061METAR KFCH 170410Z AUTO 00000KT 10SM CLR 11/01 A3008 RMK A01=||F||223|ICAO-KFCH
USW00023167|FRESNO CHANDLER DWTN AP|2022|02|17|04|35|36.7333|-119.8167|84.1|11.0||1|FM15-METAR|223|ICAO-KFCH|1.0||1|FM15-METAR|223|ICAO-KFCH|||||||||||||999|C-Calm|9|FM15-METAR|223|ICAO-KFCH|0.0|C-Calm|1|FM15-METAR|223|ICAO-KFCH|||||||||||||50|Derived||FM15-METAR|223|ICAO-KFCH|||||||||||||||||||||||||||||||||||||||||||||||||||||||||||||||||||||||||1018.6||1|FM15-METAR|223|ICAO-KFCH|||||||||||||||||||||||||||||||||||||||||||MET064METAR KFCH 170435Z AUTO 00000KT 10SM BKN055 11/01 A3008 RMK A01=||F||223|ICAO-KFCH
USW00023167|FRESNO CHANDLER DWTN AP|2022|02|17|04|50|36.7333|-119.8167|84.1|11.0||1|FM15-METAR|223|ICAO-KFCH|1.0||1|FM15-METAR|223|ICAO-KFCH|||||||||||||999|C-Calm|9|FM15-METAR|223|ICAO-KFCH|0.0|C-Calm|1|FM15-METAR|223|ICAO-KFCH|||||||||||||50|Derived||FM15-METAR|223|ICAO-KFCH|||||||||||||||||||||||||||||||||||||||||||||||||||||||||||||||||||||||||1019.0||1|FM15-METAR|223|ICAO-KFCH|||||||||||||||||||||||||||||||||||||||||||MET064METAR KFCH 170450Z AUTO 00000KT 10SM OVC050 11/01 A3009 RMK A01=||F||223|ICAO-KFCH
USW00023167|FRESNO CHANDLER DWTN AP|2022|02|17|05|15|36.7333|-119.8167|84.1|10.0||1|FM15-METAR|223|ICAO-KFCH|2.0||1|FM15-METAR|223|ICAO-KFCH|||||||||||||999|C-Calm|9|FM15-METAR|223|ICAO-KFCH|0.0|C-Calm|1|FM15-METAR|223|ICAO-KFCH|||||||||||||58|Derived||FM15-METAR|223|ICAO-KFCH|||||||||||||||||||||||||||||||||||||||||||||||||||||||||||||||||||||||||1019.0||1|FM15-METAR|223|ICAO-KFCH|||||||||||||||||||||||||||||||||||||||||||MET071METAR KFCH 170515Z AUTO 00000KT 10SM BKN048 OVC055 10/02 A3009 RMK A01=||F||223|ICAO-KFCH
USW00023167|FRESNO CHANDLER DWTN AP|2022|02|17|05|35|36.7333|-119.8167|84.1|10.0||1|FM15-METAR|223|ICAO-KFCH|2.0||1|FM15-METAR|223|ICAO-KFCH|||||||||||||999|C-Calm|9|FM15-METAR|223|ICAO-KFCH|0.0|C-Calm|1|FM15-METAR|223|ICAO-KFCH|||||||||||||58|Derived||FM15-METAR|223|ICAO-KFCH|||||||||||||||||||||||||||||||||||||||||||||||||||||||||||||||||||||||||1019.3||1|FM15-METAR|223|ICAO-KFCH|||||||||||||||||||||||||||||||||||||||||||MET057METAR KFCH 170535Z AUTO 00000KT 10SM 10/02 A3010 RMK A01=||F||223|ICAO-KFCH
USW00023167|FRESNO CHANDLER DWTN AP|2022|02|17|05|55|36.7333|-119.8167|84.1|9.0||1|FM15-METAR|223|ICAO-KFCH|2.0||1|FM15-METAR|223|ICAO-KFCH|||||||||||||999|C-Calm|9|FM15-METAR|223|ICAO-KFCH|0.0|C-Calm|1|FM15-METAR|223|ICAO-KFCH|||||||||||||62|Derived||FM15-METAR|223|ICAO-KFCH|||||||||||||||||||||||||||||||||||||||||||||||||||||||||||||||||||||||||1019.6||1|FM15-METAR|223|ICAO-KFCH|||||||||||||||||||||||||||||||||||||||||||MET057METAR KFCH 170555Z AUTO 00000KT 10SM 09/02 A3011 RMK A01=||F||223|ICAO-KFCH
USW00023167|FRESNO CHANDLER DWTN AP|2022|02|17|06|15|36.7333|-119.8167|84.1|10.0||1|FM15-METAR|223|ICAO-KFCH|1.0||1|FM15-METAR|223|ICAO-KFCH|||||||||||||070|N-Normal|1|FM15-METAR|223|ICAO-KFCH|2.1|N-Normal|1|FM15-METAR|223|ICAO-KFCH|||||||||||||54|Derived||FM15-METAR|223|ICAO-KFCH|||||||||||||||||||||||||||||||||||||||||||||||||||||||||||||||||||||||||1020.0||1|FM15-METAR|223|ICAO-KFCH|||||||||||||||||||||||||||||||||||||||||||MET061METAR KFCH 170615Z AUTO 07004KT 10SM CLR 10/01 A3012 RMK A01=||F||223|ICAO-KFCH
USW00023167|FRESNO CHANDLER DWTN AP|2022|02|17|06|35|36.7333|-119.8167|84.1|10.0||1|FM15-METAR|223|ICAO-KFCH|1.0||1|FM15-METAR|223|ICAO-KFCH|||||||||||||999|C-Calm|9|FM15-METAR|223|ICAO-KFCH|0.0|C-Calm|1|FM15-METAR|223|ICAO-KFCH|||||||||||||54|Derived||FM15-METAR|223|ICAO-KFCH|||||||||||||||||||||||||||||||||||||||||||||||||||||||||||||||||||||||||1020.3||1|FM15-METAR|223|ICAO-KFCH|||||||||||||||||||||||||||||||||||||||||||MET061METAR KFCH 170635Z AUTO 00000KT 10SM CLR 10/01 A3013 RMK A01=||F||223|ICAO-KFCH
USW00023167|FRESNO CHANDLER DWTN AP|2022|02|17|06|55|36.7333|-119.8167|84.1|9.0||1|FM15-METAR|223|ICAO-KFCH|2.0||1|FM15-METAR|223|ICAO-KFCH|||||||||||||999|C-Calm|9|FM15-METAR|223|ICAO-KFCH|0.0|C-Calm|1|FM15-METAR|223|ICAO-KFCH|||||||||||||62|Derived||FM15-METAR|223|ICAO-KFCH|||||||||||||||||||||||||||||||||||||||||||||||||||||||||||||||||||||||||1020.3||1|FM15-METAR|223|ICAO-KFCH|||||||||||||||||||||||||||||||||||||||||||MET071METAR KFCH 170655Z AUTO 00000KT 10SM FEW050 SCT055 09/02 A3013 RMK A01=||F||223|ICAO-KFCH
USW00023167|FRESNO CHANDLER DWTN AP|2022|02|17|07|15|36.7333|-119.8167|84.1|8.0||1|FM15-METAR|223|ICAO-KFCH|1.0||1|FM15-METAR|223|ICAO-KFCH|||||||||||||999|C-Calm|9|FM15-METAR|223|ICAO-KFCH|0.0|C-Calm|1|FM15-METAR|223|ICAO-KFCH|||||||||||||62|Derived||FM15-METAR|223|ICAO-KFCH|||||||||||||||||||||||||||||||||||||||||||||||||||||||||||||||||||||||||1020.7||1|FM15-METAR|223|ICAO-KFCH|||||||||||||||||||||||||||||||||||||||||||MET071METAR KFCH 170715Z AUTO 00000KT 10SM BKN048 OVC055 08/01 A3014 RMK A01=||F||223|ICAO-KFCH
USW00023167|FRESNO CHANDLER DWTN AP|2022|02|17|07|35|36.7333|-119.8167|84.1|9.0||4|FM15-METAR|223|ICAO-KFCH|2.0||4|FM15-METAR|223|ICAO-KFCH|||||||||||||||||||||||||||||||||||||62|Derived||FM15-METAR|223|ICAO-KFCH|||||||||||||||||||||||||||||||||||||||||||||||||||||||||||||||||||||||||1021.0||4|FM15-METAR|223|ICAO-KFCH|||||||||||||||||||||||||||||||||||||||||||MET062METAR KFCH 170735Z AUTO 000KT 10SM BKN048 09/02 A3015 RMK A01=||F||223|ICAO-KFCH
USW00023167|FRESNO CHANDLER DWTN AP|2022|02|17|07|55|36.7333|-119.8167|84.1|9.0||1|FM15-METAR|223|ICAO-KFCH|2.0||1|FM15-METAR|223|ICAO-KFCH|||||||||||||140|N-Normal|1|FM15-METAR|223|ICAO-KFCH|2.1|N-Normal|1|FM15-METAR|223|ICAO-KFCH|||||||||||||62|Derived||FM15-METAR|223|ICAO-KFCH|||||||||||||||||||||||||||||||||||||||||||||||||||||||||||||||||||||||||1021.3||1|FM15-METAR|223|ICAO-KFCH|||||||||||||||||||||||||||||||||||||||||||MET057METAR KFCH 170755Z AUTO 14004KT 10SM 09/02 A3016 RMK A01=||F||223|ICAO-KFCH
USW00023167|FRESNO CHANDLER DWTN AP|2022|02|17|08|10|36.7333|-119.8167|84.1|8.0||1|FM15-METAR|223|ICAO-KFCH|2.0||1|FM15-METAR|223|ICAO-KFCH|||||||||||||130|N-Normal|1|FM15-METAR|223|ICAO-KFCH|2.1|N-Normal|1|FM15-METAR|223|ICAO-KFCH|||||||||||||66|Derived||FM15-METAR|223|ICAO-KFCH|||||||||||||||||||||||||||||||||||||||||||||||||||||||||||||||||||||||||1021.3||1|FM15-METAR|223|ICAO-KFCH|||||||||||||||||||||||||||||||||||||||||||MET057METAR KFCH 170810Z AUTO 13004KT 10SM 08/02 A3016 RMK A01=||F||223|ICAO-KFCH
USW00023167|FRESNO CHANDLER DWTN AP|2022|02|17|08|35|36.7333|-119.8167|84.1|8.0||1|FM15-METAR|223|ICAO-KFCH|2.0||1|FM15-METAR|223|ICAO-KFCH|||||||||||||999|C-Calm|9|FM15-METAR|223|ICAO-KFCH|0.0|C-Calm|1|FM15-METAR|223|ICAO-KFCH|||||||||||||66|Derived||FM15-METAR|223|ICAO-KFCH|||||||||||||||||||||||||||||||||||||||||||||||||||||||||||||||||||||||||1021.3||1|FM15-METAR|223|ICAO-KFCH|||||||||||||||||||||||||||||||||||||||||||MET061METAR KFCH 170835Z AUTO 00000KT 10SM CLR 08/02 A3016 RMK A01=||F||223|ICAO-KFCH
USW00023167|FRESNO CHANDLER DWTN AP|2022|02|17|08|55|36.7333|-119.8167|84.1|7.0||1|FM15-METAR|223|ICAO-KFCH|2.0||1|FM15-METAR|223|ICAO-KFCH|||||||||||||999|C-Calm|9|FM15-METAR|223|ICAO-KFCH|0.0|C-Calm|1|FM15-METAR|223|ICAO-KFCH|||||||||||||71|Derived||FM15-METAR|223|ICAO-KFCH|||||||||||||||||||||||||||||||||||||||||||||||||||||||||||||||||||||||||1021.7||1|FM15-METAR|223|ICAO-KFCH|||||||||||||||||||||||||||||||||||||||||||MET061METAR KFCH 170855Z AUTO 00000KT 10SM CLR 07/02 A3017 RMK A01=||F||223|ICAO-KFCH
USW00023167|FRESNO CHANDLER DWTN AP|2022|02|17|09|15|36.7333|-119.8167|84.1|7.0||1|FM15-METAR|223|ICAO-KFCH|2.0||1|FM15-METAR|223|ICAO-KFCH|||||||||||||070|N-Normal|1|FM15-METAR|223|ICAO-KFCH|2.1|N-Normal|1|FM15-METAR|223|ICAO-KFCH|||||||||||||71|Derived||FM15-METAR|223|ICAO-KFCH|||||||||||||||||||||||||||||||||||||||||||||||||||||||||||||||||||||||||1021.7||1|FM15-METAR|223|ICAO-KFCH|||||||||||||||||||||||||||||||||||||||||||MET061METAR KFCH 170915Z AUTO 07004KT 10SM CLR 07/02 A3017 RMK A01=||F||223|ICAO-KFCH
USW00023167|FRESNO CHANDLER DWTN AP|2022|02|17|09|35|36.7333|-119.8167|84.1|7.0||1|FM15-METAR|223|ICAO-KFCH|2.0||1|FM15-METAR|223|ICAO-KFCH|||||||||||||999|C-Calm|9|FM15-METAR|223|ICAO-KFCH|0.0|C-Calm|1|FM15-METAR|223|ICAO-KFCH|||||||||||||71|Derived||FM15-METAR|223|ICAO-KFCH|||||||||||||||||||||||||||||||||||||||||||||||||||||||||||||||||||||||||1022.3||1|FM15-METAR|223|ICAO-KFCH|||||||||||||||||||||||||||||||||||||||||||MET061METAR KFCH 170935Z AUTO 00000KT 10SM CLR 07/02 A3019 RMK A01=||F||223|ICAO-KFCH
USW00023167|FRESNO CHANDLER DWTN AP|2022|02|17|09|55|36.7333|-119.8167|84.1|7.0||1|FM15-METAR|223|ICAO-KFCH|2.0||1|FM15-METAR|223|ICAO-KFCH|||||||||||||999|C-Calm|9|FM15-METAR|223|ICAO-KFCH|0.0|C-Calm|1|FM15-METAR|223|ICAO-KFCH|||||||||||||71|Derived||FM15-METAR|223|ICAO-KFCH|||||||||||||||||||||||||||||||||||||||||||||||||||||||||||||||||||||||||1022.3||1|FM15-METAR|223|ICAO-KFCH|||||||||||||||||||||||||||||||||||||||||||MET061METAR KFCH 170955Z AUTO 00000KT 10SM CLR 07/02 A3019 RMK A01=||F||223|ICAO-KFCH
USW00023167|FRESNO CHANDLER DWTN AP|2022|02|17|10|15|36.7333|-119.8167|84.1|7.0||1|FM15-METAR|223|ICAO-KFCH|2.0||1|FM15-METAR|223|ICAO-KFCH|||||||||||||999|C-Calm|9|FM15-METAR|223|ICAO-KFCH|0.0|C-Calm|1|FM15-METAR|223|ICAO-KFCH|||||||||||||71|Derived||FM15-METAR|223|ICAO-KFCH|||||||||||||||||||||||||||||||||||||||||||||||||||||||||||||||||||||||||1022.3||1|FM15-METAR|223|ICAO-KFCH|||||||||||||||||||||||||||||||||||||||||||MET061METAR KFCH 171015Z AUTO 00000KT 10SM CLR 07/02 A3019 RMK A01=||F||223|ICAO-KFCH
USW00023167|FRESNO CHANDLER DWTN AP|2022|02|17|10|35|36.7333|-119.8167|84.1|6.0||1|FM15-METAR|223|ICAO-KFCH|1.0||1|FM15-METAR|223|ICAO-KFCH|||||||||||||080|N-Normal|1|FM15-METAR|223|ICAO-KFCH|1.5|N-Normal|1|FM15-METAR|223|ICAO-KFCH|||||||||||||71|Derived||FM15-METAR|223|ICAO-KFCH|||||||||||||||||||||||||||||||||||||||||||||||||||||||||||||||||||||||||1022.7||1|FM15-METAR|223|ICAO-KFCH|||||||||||||||||||||||||||||||||||||||||||MET061METAR KFCH 171035Z AUTO 08003KT 10SM CLR 06/01 A3020 RMK A01=||F||223|ICAO-KFCH
USW00023167|FRESNO CHANDLER DWTN AP|2022|02|17|10|55|36.7333|-119.8167|84.1|6.0||1|FM15-METAR|223|ICAO-KFCH|1.0||1|FM15-METAR|223|ICAO-KFCH|||||||||||||999|C-Calm|9|FM15-METAR|223|ICAO-KFCH|0.0|C-Calm|1|FM15-METAR|223|ICAO-KFCH|||||||||||||71|Derived||FM15-METAR|223|ICAO-KFCH|||||||||||||||||||||||||||||||||||||||||||||||||||||||||||||||||||||||||1022.7||1|FM15-METAR|223|ICAO-KFCH|||||||||||||||||||||||||||||||||||||||||||MET061METAR KFCH 171055Z AUTO 00000KT 10SM CLR 06/01 A3020 RMK A01=||F||223|ICAO-KFCH
USW00023167|FRESNO CHANDLER DWTN AP|2022|02|17|11|15|36.7333|-119.8167|84.1|7.0||1|FM15-METAR|223|ICAO-KFCH|2.0||1|FM15-METAR|223|ICAO-KFCH|||||||||||||040|N-Normal|1|FM15-METAR|223|ICAO-KFCH|3.1|N-Normal|1|FM15-METAR|223|ICAO-KFCH|||||||||||||71|Derived||FM15-METAR|223|ICAO-KFCH|||||||||||||||||||||||||||||||||||||||||||||||||||||||||||||||||||||||||1023.0||1|FM15-METAR|223|ICAO-KFCH|||||||||||||||||||||||||||||||||||||||||||MET061METAR KFCH 171115Z AUTO 04006KT 10SM CLR 07/02 A3021 RMK A01=||F||223|ICAO-KFCH
USW00023167|FRESNO CHANDLER DWTN AP|2022|02|17|11|35|36.7333|-119.8167|84.1|6.0||1|FM15-METAR|223|ICAO-KFCH|2.0||1|FM15-METAR|223|ICAO-KFCH|||||||||||||040|N-Normal|1|FM15-METAR|223|ICAO-KFCH|2.6|N-Normal|1|FM15-METAR|223|ICAO-KFCH|||||||||||||76|Derived||FM15-METAR|223|ICAO-KFCH|||||||||||||||||||||||||||||||||||||||||||||||||||||||||||||||||||||||||1023.0||1|FM15-METAR|223|ICAO-KFCH|||||||||||||||||||||||||||||||||||||||||||MET061METAR KFCH 171135Z AUTO 04005KT 10SM CLR 06/02 A3021 RMK A01=||F||223|ICAO-KFCH
USW00023167|FRESNO CHANDLER DWTN AP|2022|02|17|11|55|36.7333|-119.8167|84.1|6.0||1|FM15-METAR|223|ICAO-KFCH|2.0||1|FM15-METAR|223|ICAO-KFCH|||||||||||||070|N-Normal|1|FM15-METAR|223|ICAO-KFCH|1.5|N-Normal|1|FM15-METAR|223|ICAO-KFCH|||||||||||||76|Derived||FM15-METAR|223|ICAO-KFCH|||||||||||||||||||||||||||||||||||||||||||||||||||||||||||||||||||||||||1023.0||1|FM15-METAR|223|ICAO-KFCH|||||||||||||||||||||||||||||||||||||||||||MET061METAR KFCH 171155Z AUTO 07003KT 10SM CLR 06/02 A3021 RMK A01=||F||223|ICAO-KFCH
USW00023167|FRESNO CHANDLER DWTN AP|2022|02|17|12|15|36.7333|-119.8167|84.1|6.0||1|FM15-METAR|223|ICAO-KFCH|2.0||1|FM15-METAR|223|ICAO-KFCH|||||||||||||999|C-Calm|9|FM15-METAR|223|ICAO-KFCH|0.0|C-Calm|1|FM15-METAR|223|ICAO-KFCH|||||||||||||76|Derived||FM15-METAR|223|ICAO-KFCH|||||||||||||||||||||||||||||||||||||||||||||||||||||||||||||||||||||||||1023.4||1|FM15-METAR|223|ICAO-KFCH|||||||||||||||||||||||||||||||||||||||||||MET061METAR KFCH 171215Z AUTO 00000KT 10SM CLR 06/02 A3022 RMK A01=||F||223|ICAO-KFCH
USW00023167|FRESNO CHANDLER DWTN AP|2022|02|17|12|35|36.7333|-119.8167|84.1|6.0||1|FM15-METAR|223|ICAO-KFCH|2.0||1|FM15-METAR|223|ICAO-KFCH|||||||||||||999|C-Calm|9|FM15-METAR|223|ICAO-KFCH|0.0|C-Calm|1|FM15-METAR|223|ICAO-KFCH|||||||||||||76|Derived||FM15-METAR|223|ICAO-KFCH|||||||||||||||||||||||||||||||||||||||||||||||||||||||||||||||||||||||||1023.4||1|FM15-METAR|223|ICAO-KFCH|||||||||||||||||||||||||||||||||||||||||||MET061METAR KFCH 171235Z AUTO 00000KT 10SM CLR 06/02 A3022 RMK A01=||F||223|ICAO-KFCH
USW00023167|FRESNO CHANDLER DWTN AP|2022|02|17|12|55|36.7333|-119.8167|84.1|5.0||1|FM15-METAR|223|ICAO-KFCH|2.0||1|FM15-METAR|223|ICAO-KFCH|||||||||||||350|N-Normal|1|FM15-METAR|223|ICAO-KFCH|2.1|N-Normal|1|FM15-METAR|223|ICAO-KFCH|||||||||||||81|Derived||FM15-METAR|223|ICAO-KFCH|||||||||||||||||||||||||||||||||||||||||||||||||||||||||||||||||||||||||1023.7||1|FM15-METAR|223|ICAO-KFCH|||||||||||||||||||||||||||||||||||||||||||MET061METAR KFCH 171255Z AUTO 35004KT 10SM CLR 05/02 A3023 RMK A01=||F||223|ICAO-KFCH
USW00023167|FRESNO CHANDLER DWTN AP|2022|02|17|13|15|36.7333|-119.8167|84.1|5.0||1|FM15-METAR|223|ICAO-KFCH|2.0||1|FM15-METAR|223|ICAO-KFCH|||||||||||||999|C-Calm|9|FM15-METAR|223|ICAO-KFCH|0.0|C-Calm|1|FM15-METAR|223|ICAO-KFCH|||||||||||||81|Derived||FM15-METAR|223|ICAO-KFCH|||||||||||||||||||||||||||||||||||||||||||||||||||||||||||||||||||||||||1024.0||1|FM15-METAR|223|ICAO-KFCH|||||||||||||||||||||||||||||||||||||||||||MET061METAR KFCH 171315Z AUTO 00000KT 10SM CLR 05/02 A3024 RMK A01=||F||223|ICAO-KFCH
USW00023167|FRESNO CHANDLER DWTN AP|2022|02|17|13|35|36.7333|-119.8167|84.1|5.0||1|FM15-METAR|223|ICAO-KFCH|2.0||1|FM15-METAR|223|ICAO-KFCH|||||||||||||999|C-Calm|9|FM15-METAR|223|ICAO-KFCH|0.0|C-Calm|1|FM15-METAR|223|ICAO-KFCH|||||||||||||81|Derived||FM15-METAR|223|ICAO-KFCH|||||||||||||||||||||||||||||||||||||||||||||||||||||||||||||||||||||||||1024.4||1|FM15-METAR|223|ICAO-KFCH|||||||||||||||||||||||||||||||||||||||||||MET064METAR KFCH 171335Z AUTO 00000KT 10SM FEW050 05/02 A3025 RMK A01=||F||223|ICAO-KFCH
USW00023167|FRESNO CHANDLER DWTN AP|2022|02|17|13|55|36.7333|-119.8167|84.1|3.0||1|FM15-METAR|223|ICAO-KFCH|2.0||1|FM15-METAR|223|ICAO-KFCH|||||||||||||999|C-Calm|9|FM15-METAR|223|ICAO-KFCH|0.0|C-Calm|1|FM15-METAR|223|ICAO-KFCH|||||||||||||93|Derived||FM15-METAR|223|ICAO-KFCH|||||||||||||||||||||||||||||||||||||||||||||||||||||||||||||||||||||||||1024.7||1|FM15-METAR|223|ICAO-KFCH|||||||||||||||||||||||||||||||||||||||||||MET064METAR KFCH 171355Z AUTO 00000KT 10SM FEW055 03/02 A3026 RMK A01=||F||223|ICAO-KFCH
USW00023167|FRESNO CHANDLER DWTN AP|2022|02|17|14|15|36.7333|-119.8167|84.1|4.0||1|FM15-METAR|223|ICAO-KFCH|2.0||1|FM15-METAR|223|ICAO-KFCH|||||||||||||999|C-Calm|9|FM15-METAR|223|ICAO-KFCH|0.0|C-Calm|1|FM15-METAR|223|ICAO-KFCH|||||||||||||87|Derived||FM15-METAR|223|ICAO-KFCH|||||||||||||||||||||||||||||||||||||||||||||||||||||||||||||||||||||||||1024.7||1|FM15-METAR|223|ICAO-KFCH|||||||||||||||||||||||||||||||||||||||||||MET061METAR KFCH 171415Z AUTO 00000KT 10SM CLR 04/02 A3026 RMK A01=||F||223|ICAO-KFCH
USW00023167|FRESNO CHANDLER DWTN AP|2022|02|17|14|35|36.7333|-119.8167|84.1|3.0||1|FM15-METAR|223|ICAO-KFCH|2.0||1|FM15-METAR|223|ICAO-KFCH|||||||||||||999|C-Calm|9|FM15-METAR|223|ICAO-KFCH|0.0|C-Calm|1|FM15-METAR|223|ICAO-KFCH|||||||||||||93|Derived||FM15-METAR|223|ICAO-KFCH|||||||||||||||||||||||||||||||||||||||||||||||||||||||||||||||||||||||||1025.1||1|FM15-METAR|223|ICAO-KFCH|||||||||||||||||||||||||||||||||||||||||||MET061METAR KFCH 171435Z AUTO 00000KT 10SM CLR 03/02 A3027 RMK A01=||F||223|ICAO-KFCH
USW00023167|FRESNO CHANDLER DWTN AP|2022|02|17|14|55|36.7333|-119.8167|84.1|4.0||1|FM15-METAR|223|ICAO-KFCH|2.0||1|FM15-METAR|223|ICAO-KFCH|||||||||||||999|C-Calm|9|FM15-METAR|223|ICAO-KFCH|0.0|C-Calm|1|FM15-METAR|223|ICAO-KFCH|||||||||||||87|Derived||FM15-METAR|223|ICAO-KFCH|||||||||||||||||||||||||||||||||||||||||||||||||||||||||||||||||||||||||1025.4||1|FM15-METAR|223|ICAO-KFCH|||||||||||||||||||||||||||||||||||||||||||MET061METAR KFCH 171455Z AUTO 00000KT 10SM CLR 04/02 A3028 RMK A01=||F||223|ICAO-KFCH
USW00023167|FRESNO CHANDLER DWTN AP|2022|02|17|15|15|36.7333|-119.8167|84.1|4.0||1|FM15-METAR|223|ICAO-KFCH|1.0||1|FM15-METAR|223|ICAO-KFCH|||||||||||||999|C-Calm|9|FM15-METAR|223|ICAO-KFCH|0.0|C-Calm|1|FM15-METAR|223|ICAO-KFCH|||||||||||||81|Derived||FM15-METAR|223|ICAO-KFCH|||||||||||||||||||||||||||||||||||||||||||||||||||||||||||||||||||||||||1025.7||1|FM15-METAR|223|ICAO-KFCH|||||||||||||||||||||||||||||||||||||||||||MET061METAR KFCH 171515Z AUTO 00000KT 10SM CLR 04/01 A3029 RMK A01=||F||223|ICAO-KFCH
USW00023167|FRESNO CHANDLER DWTN AP|2022|02|17|15|35|36.7333|-119.8167|84.1|5.0||1|FM15-METAR|223|ICAO-KFCH|2.0||1|FM15-METAR|223|ICAO-KFCH|||||||||||||999|C-Calm|9|FM15-METAR|223|ICAO-KFCH|0.0|C-Calm|1|FM15-METAR|223|ICAO-KFCH|||||||||||||81|Derived||FM15-METAR|223|ICAO-KFCH|||||||||||||||||||||||||||||||||||||||||||||||||||||||||||||||||||||||||1026.1||1|FM15-METAR|223|ICAO-KFCH|||||||||||||||||||||||||||||||||||||||||||MET061METAR KFCH 171535Z AUTO 00000KT 10SM CLR 05/02 A3030 RMK A01=||F||223|ICAO-KFCH
USW00023167|FRESNO CHANDLER DWTN AP|2022|02|17|15|55|36.7333|-119.8167|84.1|7.0||1|FM15-METAR|223|ICAO-KFCH|3.0||1|FM15-METAR|223|ICAO-KFCH|||||||||||||999|C-Calm|9|FM15-METAR|223|ICAO-KFCH|0.0|C-Calm|1|FM15-METAR|223|ICAO-KFCH|||||||||||||76|Derived||FM15-METAR|223|ICAO-KFCH|||||||||||||||||||||||||||||||||||||||||||||||||||||||||||||||||||||||||1026.4||1|FM15-METAR|223|ICAO-KFCH|||||||||||||||||||||||||||||||||||||||||||MET061METAR KFCH 171555Z AUTO 00000KT 10SM CLR 07/03 A3031 RMK A01=||F||223|ICAO-KFCH
USW00023167|FRESNO CHANDLER DWTN AP|2022|02|17|16|15|36.7333|-119.8167|84.1|8.0||1|FM15-METAR|223|ICAO-KFCH|3.0||1|FM15-METAR|223|ICAO-KFCH|||||||||||||999|C-Calm|9|FM15-METAR|223|ICAO-KFCH|0.0|C-Calm|1|FM15-METAR|223|ICAO-KFCH|||||||||||||71|Derived||FM15-METAR|223|ICAO-KFCH|||||||||||||||||||||||||||||||||||||||||||||||||||||||||||||||||||||||||1026.7||1|FM15-METAR|223|ICAO-KFCH|||||||||||||||||||||||||||||||||||||||||||MET061METAR KFCH 171615Z AUTO 00000KT 10SM CLR 08/03 A3032 RMK A01=||F||223|ICAO-KFCH
USW00023167|FRESNO CHANDLER DWTN AP|2022|02|17|16|35|36.7333|-119.8167|84.1|9.0||1|FM15-METAR|223|ICAO-KFCH|2.0||1|FM15-METAR|223|ICAO-KFCH|||||||||||||999|C-Calm|9|FM15-METAR|223|ICAO-KFCH|0.0|C-Calm|1|FM15-METAR|223|ICAO-KFCH|||||||||||||62|Derived||FM15-METAR|223|ICAO-KFCH|||||||||||||||||||||||||||||||||||||||||||||||||||||||||||||||||||||||||1027.1||1|FM15-METAR|223|ICAO-KFCH|||||||||||||||||||||||||||||||||||||||||||MET061METAR KFCH 171635Z AUTO 00000KT 10SM CLR 09/02 A3033 RMK A01=||F||223|ICAO-KFCH
USW00023167|FRESNO CHANDLER DWTN AP|2022|02|17|16|55|36.7333|-119.8167|84.1|10.0||1|FM15-METAR|223|ICAO-KFCH|1.0||1|FM15-METAR|223|ICAO-KFCH|||||||||||||160|N-Normal|1|FM15-METAR|223|ICAO-KFCH|1.5|N-Normal|1|FM15-METAR|223|ICAO-KFCH|||||||||||||54|Derived||FM15-METAR|223|ICAO-KFCH|||||||||||||||||||||||||||||||||||||||||||||||||||||||||||||||||||||||||1027.4||1|FM15-METAR|223|ICAO-KFCH|||||||||||||||||||||||||||||||||||||||||||MET061METAR KFCH 171655Z AUTO 16003KT 10SM CLR 10/01 A3034 RMK A01=||F||223|ICAO-KFCH
USW00023167|FRESNO CHANDLER DWTN AP|2022|02|17|17|15|36.7333|-119.8167|84.1|11.0||1|FM15-METAR|223|ICAO-KFCH|1.0||1|FM15-METAR|223|ICAO-KFCH|||||||||||||999|C-Calm|9|FM15-METAR|223|ICAO-KFCH|0.0|C-Calm|1|FM15-METAR|223|ICAO-KFCH|||||||||||||50|Derived||FM15-METAR|223|ICAO-KFCH|||||||||||||||||||||||||||||||||||||||||||||||||||||||||||||||||||||||||1027.4||1|FM15-METAR|223|ICAO-KFCH|||||||||||||||||||||||||||||||||||||||||||MET061METAR KFCH 171715Z AUTO 00000KT 10SM CLR 11/01 A3034 RMK A01=||F||223|ICAO-KFCH
USW00023167|FRESNO CHANDLER DWTN AP|2022|02|17|17|35|36.7333|-119.8167|84.1|12.0||1|FM15-METAR|223|ICAO-KFCH|1.0||1|FM15-METAR|223|ICAO-KFCH|||||||||||||140|N-Normal|1|FM15-METAR|223|ICAO-KFCH|2.1|N-Normal|1|FM15-METAR|223|ICAO-KFCH|||||||||||||47|Derived||FM15-METAR|223|ICAO-KFCH|||||||||||||||||||||||||||||||||||||||||||||||||||||||||||||||||||||||||1027.4||1|FM15-METAR|223|ICAO-KFCH|||||||||||||||||||||||||||||||||||||||||||MET061METAR KFCH 171735Z AUTO 14004KT 10SM CLR 12/01 A3034 RMK A01=||F||223|ICAO-KFCH
USW00023167|FRESNO CHANDLER DWTN AP|2022|02|17|17|55|36.7333|-119.8167|84.1|12.0||1|FM15-METAR|223|ICAO-KFCH|1.0||1|FM15-METAR|223|ICAO-KFCH|||||||||||||999|C-Calm|9|FM15-METAR|223|ICAO-KFCH|0.0|C-Calm|1|FM15-METAR|223|ICAO-KFCH|||||||||||||47|Derived||FM15-METAR|223|ICAO-KFCH|||||||||||||||||||||||||||||||||||||||||||||||||||||||||||||||||||||||||1027.4||1|FM15-METAR|223|ICAO-KFCH|||||||||||||||||||||||||||||||||||||||||||MET061METAR KFCH 171755Z AUTO 00000KT 10SM CLR 12/01 A3034 RMK A01=||F||223|ICAO-KFCH
USW00023167|FRESNO CHANDLER DWTN AP|2022|02|17|18|15|36.7333|-119.8167|84.1|13.0||1|FM15-METAR|223|ICAO-KFCH|1.0||1|FM15-METAR|223|ICAO-KFCH|||||||||||||999|C-Calm|9|FM15-METAR|223|ICAO-KFCH|0.0|C-Calm|1|FM15-METAR|223|ICAO-KFCH|||||||||||||44|Derived||FM15-METAR|223|ICAO-KFCH|||||||||||||||||||||||||||||||||||||||||||||||||||||||||||||||||||||||||1027.8||1|FM15-METAR|223|ICAO-KFCH|||||||||||||||||||||||||||||||||||||||||||MET061METAR KFCH 171815Z AUTO 00000KT 10SM CLR 13/01 A3035 RMK A01=||F||223|ICAO-KFCH
USW00023167|FRESNO CHANDLER DWTN AP|2022|02|17|18|35|36.7333|-119.8167|84.1|14.0||1|FM15-METAR|223|ICAO-KFCH|1.0||1|FM15-METAR|223|ICAO-KFCH|||||||||||||999|C-Calm|9|FM15-METAR|223|ICAO-KFCH|0.0|C-Calm|1|FM15-METAR|223|ICAO-KFCH|||||||||||||41|Derived||FM15-METAR|223|ICAO-KFCH|||||||||||||||||||||||||||||||||||||||||||||||||||||||||||||||||||||||||1027.8||1|FM15-METAR|223|ICAO-KFCH|||||||||||||||||||||||||||||||||||||||||||MET061METAR KFCH 171835Z AUTO 00000KT 10SM CLR 14/01 A3035 RMK A01=||F||223|ICAO-KFCH
USW00023167|FRESNO CHANDLER DWTN AP|2022|02|17|18|55|36.7333|-119.8167|84.1|15.0||1|FM15-METAR|223|ICAO-KFCH|2.0||1|FM15-METAR|223|ICAO-KFCH|||||||||||||999|C-Calm|9|FM15-METAR|223|ICAO-KFCH|0.0|C-Calm|1|FM15-METAR|223|ICAO-KFCH|||||||||||||42|Derived||FM15-METAR|223|ICAO-KFCH|||||||||||||||||||||||||||||||||||||||||||||||||||||||||||||||||||||||||1027.8||1|FM15-METAR|223|ICAO-KFCH|||||||||||||||||||||||||||||||||||||||||||MET061METAR KFCH 171855Z AUTO 00000KT 10SM CLR 15/02 A3035 RMK A01=||F||223|ICAO-KFCH
USW00023167|FRESNO CHANDLER DWTN AP|2022|02|17|19|15|36.7333|-119.8167|84.1|16.0||1|FM15-METAR|223|ICAO-KFCH|1.0||1|FM15-METAR|223|ICAO-KFCH|||||||||||||999|V-Variable|9|FM15-METAR|223|ICAO-KFCH|1.5|V-Variable|1|FM15-METAR|223|ICAO-KFCH|||||||||||||36|Derived||FM15-METAR|223|ICAO-KFCH|||||||||||||||||||||||||||||||||||||||||||||||||||||||||||||||||||||||||1027.4||1|FM15-METAR|223|ICAO-KFCH|||||||||||||||||||||||||||||||||||||||||||MET061METAR KFCH 171915Z AUTO VRB03KT 10SM CLR 16/01 A3034 RMK A01=||F||223|ICAO-KFCH
USW00023167|FRESNO CHANDLER DWTN AP|2022|02|17|19|35|36.7333|-119.8167|84.1|17.0||1|FM15-METAR|223|ICAO-KFCH|1.0||1|FM15-METAR|223|ICAO-KFCH|||||||||||||140|N-Normal|1|FM15-METAR|223|ICAO-KFCH|1.5|N-Normal|1|FM15-METAR|223|ICAO-KFCH|||||||||||||34|Derived||FM15-METAR|223|ICAO-KFCH|||||||||||||||||||||||||||||||||||||||||||||||||||||||||||||||||||||||||1027.4||1|FM15-METAR|223|ICAO-KFCH|||||||||||||||||||||||||||||||||||||||||||MET061METAR KFCH 171935Z AUTO 14003KT 10SM CLR 17/01 A3034 RMK A01=||F||223|ICAO-KFCH
USW00023167|FRESNO CHANDLER DWTN AP|2022|02|17|19|55|36.7333|-119.8167|84.1|17.0||1|FM15-METAR|223|ICAO-KFCH|0.0||1|FM15-METAR|223|ICAO-KFCH|||||||||||||150|N-Normal|1|FM15-METAR|223|ICAO-KFCH|2.6|N-Normal|1|FM15-METAR|223|ICAO-KFCH|||||||||||||32|Derived||FM15-METAR|223|ICAO-KFCH|||||||||||||||||||||||||||||||||||||||||||||||||||||||||||||||||||||||||1027.1||1|FM15-METAR|223|ICAO-KFCH|||||||||||||||||||||||||||||||||||||||||||MET061METAR KFCH 171955Z AUTO 15005KT 10SM CLR 17/00 A3033 RMK A01=||F||223|ICAO-KFCH
USW00023167|FRESNO CHANDLER DWTN AP|2022|02|17|20|15|36.7333|-119.8167|84.1|18.0||1|FM15-METAR|223|ICAO-KFCH|0.0||1|FM15-METAR|223|ICAO-KFCH|||||||||||||140|N-Normal|1|FM15-METAR|223|ICAO-KFCH|2.6|N-Normal|1|FM15-METAR|223|ICAO-KFCH|||||||||||||30|Derived||FM15-METAR|223|ICAO-KFCH|||||||||||||||||||||||||||||||||||||||||||||||||||||||||||||||||||||||||1027.1||1|FM15-METAR|223|ICAO-KFCH|||||||||||||||||||||||||||||||||||||||||||MET061METAR KFCH 172015Z AUTO 14005KT 10SM CLR 18/00 A3033 RMK A01=||F||223|ICAO-KFCH
USW00023167|FRESNO CHANDLER DWTN AP|2022|02|17|20|35|36.7333|-119.8167|84.1|18.0||1|FM15-METAR|223|ICAO-KFCH|0.0||1|FM15-METAR|223|ICAO-KFCH|||||||||||||140|N-Normal|1|FM15-METAR|223|ICAO-KFCH|3.6|N-Normal|1|FM15-METAR|223|ICAO-KFCH|||||||||||||30|Derived||FM15-METAR|223|ICAO-KFCH|||||||||||||||||||||||||||||||||||||||||||||||||||||||||||||||||||||||||1026.7||1|FM15-METAR|223|ICAO-KFCH|||||||||||||||||||||||||||||||||||||||||||MET062METAR KFCH 172035Z AUTO 14007KT 10SM CLR 18/M00 A3032 RMK A01=||F||223|ICAO-KFCH
USW00023167|FRESNO CHANDLER DWTN AP|2022|02|17|20|55|36.7333|-119.8167|84.1|19.0||1|FM15-METAR|223|ICAO-KFCH|-2.0||1|FM15-METAR|223|ICAO-KFCH|||||||||||||999|V-Variable|9|FM15-METAR|223|ICAO-KFCH|1.5|V-Variable|1|FM15-METAR|223|ICAO-KFCH|||||||||||||24|Derived||FM15-METAR|223|ICAO-KFCH|||||||||||||||||||||||||||||||||||||||||||||||||||||||||||||||||||||||||1026.4||1|FM15-METAR|223|ICAO-KFCH|||||||||||||||||||||||||||||||||||||||||||MET062METAR KFCH 172055Z AUTO VRB03KT 10SM CLR 19/M02 A3031 RMK A01=||F||223|ICAO-KFCH
USW00023167|FRESNO CHANDLER DWTN AP|2022|02|17|21|15|36.7333|-119.8167|84.1|19.0||1|FM15-METAR|223|ICAO-KFCH|-3.0||1|FM15-METAR|223|ICAO-KFCH|||||||||||||180|N-Normal|1|FM15-METAR|223|ICAO-KFCH|1.5|N-Normal|1|FM15-METAR|223|ICAO-KFCH|5.1||1|FM15-METAR|223|ICAO-KFCH|||||||22|Derived||FM15-METAR|223|ICAO-KFCH|||||||||||||||||||||||||||||||||||||||||||||||||||||||||||||||||||||||||1026.1||1|FM15-METAR|223|ICAO-KFCH|||||||||||||||||||||||||||||||||||||||||||MET065METAR KFCH 172115Z AUTO 18003G10KT 10SM CLR 19/M03 A3030 RMK A01=||F||223|ICAO-KFCH
USW00023167|FRESNO CHANDLER DWTN AP|2022|02|17|21|35|36.7333|-119.8167|84.1|19.0||1|FM15-METAR|223|ICAO-KFCH|-3.0||1|FM15-METAR|223|ICAO-KFCH|||||||||||||999|C-Calm|9|FM15-METAR|223|ICAO-KFCH|0.0|C-Calm|1|FM15-METAR|223|ICAO-KFCH|||||||||||||22|Derived||FM15-METAR|223|ICAO-KFCH|||||||||||||||||||||||||||||||||||||||||||||||||||||||||||||||||||||||||1026.1||1|FM15-METAR|223|ICAO-KFCH|||||||||||||||||||||||||||||||||||||||||||MET062METAR KFCH 172135Z AUTO 00000KT 10SM CLR 19/M03 A3030 RMK A01=||F||223|ICAO-KFCH
USW00023167|FRESNO CHANDLER DWTN AP|2022|02|17|21|55|36.7333|-119.8167|84.1|19.0||1|FM15-METAR|223|ICAO-KFCH|-3.0||1|FM15-METAR|223|ICAO-KFCH|||||||||||||140|N-Normal|1|FM15-METAR|223|ICAO-KFCH|2.1|N-Normal|1|FM15-METAR|223|ICAO-KFCH|6.2||1|FM15-METAR|223|ICAO-KFCH|||||||22|Derived||FM15-METAR|223|ICAO-KFCH|||||||||||||||||||||||||||||||||||||||||||||||||||||||||||||||||||||||||1025.7||1|FM15-METAR|223|ICAO-KFCH|||||||||||||||||||||||||||||||||||||||||||MET065METAR KFCH 172155Z AUTO 14004G12KT 10SM CLR 19/M03 A3029 RMK A01=||F||223|ICAO-KFCH
USW00023167|FRESNO CHANDLER DWTN AP|2022|02|17|22|15|36.7333|-119.8167|84.1|20.0||1|FM15-METAR|223|ICAO-KFCH|-4.0||1|FM15-METAR|223|ICAO-KFCH|||||||||||||999|V-Variable|9|FM15-METAR|223|ICAO-KFCH|3.1|V-Variable|1|FM15-METAR|223|ICAO-KFCH|||||||||||||20|Derived||FM15-METAR|223|ICAO-KFCH|||||||||||||||||||||||||||||||||||||||||||||||||||||||||||||||||||||||||1025.7||1|FM15-METAR|223|ICAO-KFCH|||||||||||||||||||||||||||||||||||||||||||MET062METAR KFCH 172215Z AUTO VRB06KT 10SM CLR 20/M04 A3029 RMK A01=||F||223|ICAO-KFCH
USW00023167|FRESNO CHANDLER DWTN AP|2022|02|17|22|35|36.7333|-119.8167|84.1|20.0||1|FM15-METAR|223|ICAO-KFCH|-4.0||1|FM15-METAR|223|ICAO-KFCH|||||||||||||999|C-Calm|9|FM15-METAR|223|ICAO-KFCH|0.0|C-Calm|1|FM15-METAR|223|ICAO-KFCH|||||||||||||20|Derived||FM15-METAR|223|ICAO-KFCH|||||||||||||||||||||||||||||||||||||||||||||||||||||||||||||||||||||||||1025.4||1|FM15-METAR|223|ICAO-KFCH|||||||||||||||||||||||||||||||||||||||||||MET062METAR KFCH 172235Z AUTO 00000KT 10SM CLR 20/M04 A3028 RMK A01=||F||223|ICAO-KFCH
USW00023167|FRESNO CHANDLER DWTN AP|2022|02|17|22|55|36.7333|-119.8167|84.1|20.0||1|FM15-METAR|223|ICAO-KFCH|-3.0||1|FM15-METAR|223|ICAO-KFCH|||||||||||||999|C-Calm|9|FM15-METAR|223|ICAO-KFCH|0.0|C-Calm|1|FM15-METAR|223|ICAO-KFCH|||||||||||||21|Derived||FM15-METAR|223|ICAO-KFCH|||||||||||||||||||||||||||||||||||||||||||||||||||||||||||||||||||||||||1025.4||1|FM15-METAR|223|ICAO-KFCH|||||||||||||||||||||||||||||||||||||||||||MET062METAR KFCH 172255Z AUTO 00000KT 10SM CLR 20/M03 A3028 RMK A01=||F||223|ICAO-KFCH
USW00023167|FRESNO CHANDLER DWTN AP|2022|02|17|23|15|36.7333|-119.8167|84.1|20.0||1|FM15-METAR|223|ICAO-KFCH|-3.0||1|FM15-METAR|223|ICAO-KFCH|||||||||||||999|V-Variable|9|FM15-METAR|223|ICAO-KFCH|2.1|V-Variable|1|FM15-METAR|223|ICAO-KFCH|||||||||||||21|Derived||FM15-METAR|223|ICAO-KFCH|||||||||||||||||||||||||||||||||||||||||||||||||||||||||||||||||||||||||1025.4||1|FM15-METAR|223|ICAO-KFCH|||||||||||||||||||||||||||||||||||||||||||MET062METAR KFCH 172315Z AUTO VRB04KT 10SM CLR 20/M03 A3028 RMK A01=||F||223|ICAO-KFCH
USW00023167|FRESNO CHANDLER DWTN AP|2022|02|17|23|35|36.7333|-119.8167|84.1|20.0||1|FM15-METAR|223|ICAO-KFCH|-3.0||1|FM15-METAR|223|ICAO-KFCH|||||||||||||999|C-Calm|9|FM15-METAR|223|ICAO-KFCH|0.0|C-Calm|1|FM15-METAR|223|ICAO-KFCH|||||||||||||21|Derived||FM15-METAR|223|ICAO-KFCH|||||||||||||||||||||||||||||||||||||||||||||||||||||||||||||||||||||||||1025.1||1|FM15-METAR|223|ICAO-KFCH|||||||||||||||||||||||||||||||||||||||||||MET062METAR KFCH 172335Z AUTO 00000KT 10SM CLR 20/M03 A3027 RMK A01=||F||223|ICAO-KFCH
USW00023167|FRESNO CHANDLER DWTN AP|2022|02|17|23|55|36.7333|-119.8167|84.1|20.0||1|FM15-METAR|223|ICAO-KFCH|-3.0||1|FM15-METAR|223|ICAO-KFCH|||||||||||||230|N-Normal|1|FM15-METAR|223|ICAO-KFCH|2.1|N-Normal|1|FM15-METAR|223|ICAO-KFCH|||||||||||||21|Derived||FM15-METAR|223|ICAO-KFCH|||||||||||||||||||||||||||||||||||||||||||||||||||||||||||||||||||||||||1025.1||1|FM15-METAR|223|ICAO-KFCH|||||||||||||||||||||||||||||||||||||||||||MET062METAR KFCH 172355Z AUTO 23004KT 10SM CLR 20/M03 A3027 RMK A01=||F||223|ICAO-KFCH
USW00023167|FRESNO CHANDLER DWTN AP|2022|02|18|00|15|36.7333|-119.8167|84.1|20.0||1|FM15-METAR|223|ICAO-KFCH|-2.0||1|FM15-METAR|223|ICAO-KFCH|||||||||||||999|C-Calm|9|FM15-METAR|223|ICAO-KFCH|0.0|C-Calm|1|FM15-METAR|223|ICAO-KFCH|||||||||||||23|Derived||FM15-METAR|223|ICAO-KFCH|||||||||||||||||||||||||||||||||||||||||||||||||||||||||||||||||||||||||1025.1||1|FM15-METAR|223|ICAO-KFCH|||||||||||||||||||||||||||||||||||||||||||MET062METAR KFCH 180015Z AUTO 00000KT 10SM CLR 20/M02 A3027 RMK A01=||F||223|ICAO-KFCH
USW00023167|FRESNO CHANDLER DWTN AP|2022|02|18|00|35|36.7333|-119.8167|84.1|20.0||1|FM15-METAR|223|ICAO-KFCH|-2.0||1|FM15-METAR|223|ICAO-KFCH|||||||||||||999|C-Calm|9|FM15-METAR|223|ICAO-KFCH|0.0|C-Calm|1|FM15-METAR|223|ICAO-KFCH|||||||||||||23|Derived||FM15-METAR|223|ICAO-KFCH|||||||||||||||||||||||||||||||||||||||||||||||||||||||||||||||||||||||||1025.1||1|FM15-METAR|223|ICAO-KFCH|||||||||||||||||||||||||||||||||||||||||||MET062METAR KFCH 180035Z AUTO 00000KT 10SM CLR 20/M02 A3027 RMK A01=||F||223|ICAO-KFCH
USW00023167|FRESNO CHANDLER DWTN AP|2022|02|18|00|55|36.7333|-119.8167|84.1|20.0||1|FM15-METAR|223|ICAO-KFCH|-2.0||1|FM15-METAR|223|ICAO-KFCH|||||||||||||260|N-Normal|1|FM15-METAR|223|ICAO-KFCH|1.5|N-Normal|1|FM15-METAR|223|ICAO-KFCH|||||||||||||23|Derived||FM15-METAR|223|ICAO-KFCH|||||||||||||||||||||||||||||||||||||||||||||||||||||||||||||||||||||||||1025.1||1|FM15-METAR|223|ICAO-KFCH|||||||||||||||||||||||||||||||||||||||||||MET062METAR KFCH 180055Z AUTO 26003KT 10SM CLR 20/M02 A3027 RMK A01=||F||223|ICAO-KFCH
USW00023167|FRESNO CHANDLER DWTN AP|2022|02|18|01|15|36.7333|-119.8167|84.1|19.0||1|FM15-METAR|223|ICAO-KFCH|-1.0||1|FM15-METAR|223|ICAO-KFCH|||||||||||||270|N-Normal|1|FM15-METAR|223|ICAO-KFCH|1.5|N-Normal|1|FM15-METAR|223|ICAO-KFCH|||||||||||||26|Derived||FM15-METAR|223|ICAO-KFCH|||||||||||||||||||||||||||||||||||||||||||||||||||||||||||||||||||||||||1025.1||1|FM15-METAR|223|ICAO-KFCH|||||||||||||||||||||||||||||||||||||||||||MET062METAR KFCH 180115Z AUTO 27003KT 10SM CLR 19/M01 A3027 RMK A01=||F||223|ICAO-KFCH
USW00023167|FRESNO CHANDLER DWTN AP|2022|02|18|01|35|36.7333|-119.8167|84.1|18.0||1|FM15-METAR|223|ICAO-KFCH|-1.0||1|FM15-METAR|223|ICAO-KFCH|||||||||||||999|C-Calm|9|FM15-METAR|223|ICAO-KFCH|0.0|C-Calm|1|FM15-METAR|223|ICAO-KFCH|||||||||||||28|Derived||FM15-METAR|223|ICAO-KFCH|||||||||||||||||||||||||||||||||||||||||||||||||||||||||||||||||||||||||1025.1||1|FM15-METAR|223|ICAO-KFCH|||||||||||||||||||||||||||||||||||||||||||MET062METAR KFCH 180135Z AUTO 00000KT 10SM CLR 18/M01 A3027 RMK A01=||F||223|ICAO-KFCH
USW00023167|FRESNO CHANDLER DWTN AP|2022|02|18|01|55|36.7333|-119.8167|84.1|18.0||1|FM15-METAR|223|ICAO-KFCH|-1.0||1|FM15-METAR|223|ICAO-KFCH|||||||||||||999|C-Calm|9|FM15-METAR|223|ICAO-KFCH|0.0|C-Calm|1|FM15-METAR|223|ICAO-KFCH|||||||||||||28|Derived||FM15-METAR|223|ICAO-KFCH|||||||||||||||||||||||||||||||||||||||||||||||||||||||||||||||||||||||||1025.1||1|FM15-METAR|223|ICAO-KFCH|||||||||||||||||||||||||||||||||||||||||||MET062METAR KFCH 180155Z AUTO 00000KT 10SM CLR 18/M01 A3027 RMK A01=||F||223|ICAO-KFCH
USW00023167|FRESNO CHANDLER DWTN AP|2022|02|18|02|10|36.7333|-119.8167|84.1|17.0||1|FM15-METAR|223|ICAO-KFCH|0.0||1|FM15-METAR|223|ICAO-KFCH|||||||||||||999|C-Calm|9|FM15-METAR|223|ICAO-KFCH|0.0|C-Calm|1|FM15-METAR|223|ICAO-KFCH|||||||||||||32|Derived||FM15-METAR|223|ICAO-KFCH|||||||||||||||||||||||||||||||||||||||||||||||||||||||||||||||||||||||||1025.4||1|FM15-METAR|223|ICAO-KFCH|||||||||||||||||||||||||||||||||||||||||||MET062METAR KFCH 180210Z AUTO 00000KT 10SM CLR 17/M00 A3028 RMK A01=||F||223|ICAO-KFCH
USW00023167|FRESNO CHANDLER DWTN AP|2022|02|18|02|35|36.7333|-119.8167|84.1|16.0||1|FM15-METAR|223|ICAO-KFCH|0.0||1|FM15-METAR|223|ICAO-KFCH|||||||||||||999|C-Calm|9|FM15-METAR|223|ICAO-KFCH|0.0|C-Calm|1|FM15-METAR|223|ICAO-KFCH|||||||||||||34|Derived||FM15-METAR|223|ICAO-KFCH|||||||||||||||||||||||||||||||||||||||||||||||||||||||||||||||||||||||||1025.4||1|FM15-METAR|223|ICAO-KFCH|||||||||||||||||||||||||||||||||||||||||||MET061METAR KFCH 180235Z AUTO 00000KT 10SM CLR 16/00 A3028 RMK A01=||F||223|ICAO-KFCH
USW00023167|FRESNO CHANDLER DWTN AP|2022|02|18|02|55|36.7333|-119.8167|84.1|15.0||1|FM15-METAR|223|ICAO-KFCH|0.0||1|FM15-METAR|223|ICAO-KFCH|||||||||||||999|C-Calm|9|FM15-METAR|223|ICAO-KFCH|0.0|C-Calm|1|FM15-METAR|223|ICAO-KFCH|||||||||||||36|Derived||FM15-METAR|223|ICAO-KFCH|||||||||||||||||||||||||||||||||||||||||||||||||||||||||||||||||||||||||1025.4||1|FM15-METAR|223|ICAO-KFCH|||||||||||||||||||||||||||||||||||||||||||MET061METAR KFCH 180255Z AUTO 00000KT 10SM CLR 15/00 A3028 RMK A01=||F||223|ICAO-KFCH
USW00023167|FRESNO CHANDLER DWTN AP|2022|02|18|03|15|36.7333|-119.8167|84.1|14.0||1|FM15-METAR|223|ICAO-KFCH|1.0||1|FM15-METAR|223|ICAO-KFCH|||||||||||||999|C-Calm|9|FM15-METAR|223|ICAO-KFCH|0.0|C-Calm|1|FM15-METAR|223|ICAO-KFCH|||||||||||||41|Derived||FM15-METAR|223|ICAO-KFCH|||||||||||||||||||||||||||||||||||||||||||||||||||||||||||||||||||||||||1025.7||1|FM15-METAR|223|ICAO-KFCH|||||||||||||||||||||||||||||||||||||||||||MET061METAR KFCH 180315Z AUTO 00000KT 10SM CLR 14/01 A3029 RMK A01=||F||223|ICAO-KFCH
USW00023167|FRESNO CHANDLER DWTN AP|2022|02|18|03|35|36.7333|-119.8167|84.1|13.0||1|FM15-METAR|223|ICAO-KFCH|1.0||1|FM15-METAR|223|ICAO-KFCH|||||||||||||999|C-Calm|9|FM15-METAR|223|ICAO-KFCH|0.0|C-Calm|1|FM15-METAR|223|ICAO-KFCH|||||||||||||44|Derived||FM15-METAR|223|ICAO-KFCH|||||||||||||||||||||||||||||||||||||||||||||||||||||||||||||||||||||||||1025.7||1|FM15-METAR|223|ICAO-KFCH|||||||||||||||||||||||||||||||||||||||||||MET061METAR KFCH 180335Z AUTO 00000KT 10SM CLR 13/01 A3029 RMK A01=||F||223|ICAO-KFCH
USW00023167|FRESNO CHANDLER DWTN AP|2022|02|18|03|55|36.7333|-119.8167|84.1|15.0||1|FM15-METAR|223|ICAO-KFCH|0.0||1|FM15-METAR|223|ICAO-KFCH|||||||||||||999|C-Calm|9|FM15-METAR|223|ICAO-KFCH|0.0|C-Calm|1|FM15-METAR|223|ICAO-KFCH|||||||||||||36|Derived||FM15-METAR|223|ICAO-KFCH|||||||||||||||||||||||||||||||||||||||||||||||||||||||||||||||||||||||||1025.7||1|FM15-METAR|223|ICAO-KFCH|||||||||||||||||||||||||||||||||||||||||||MET058METAR KFCH 180355Z AUTO 00000KT 10SM 15/M00 A3029 RMK A01=||F||223|ICAO-KFCH
USW00023167|FRESNO CHANDLER DWTN AP|2022|02|18|04|15|36.7333|-119.8167|84.1|||||||||||||||||||||||||340|N-Normal|1|FM15-METAR|223|ICAO-KFCH|1.5|N-Normal|1|FM15-METAR|223|ICAO-KFCH|||||||||||||||||||||||||||||||||||||||||||||||||||||||||||||||||||||||||||||||||||||||||||1026.1||1|FM15-METAR|223|ICAO-KFCH|||||||||||||||||||||||||||||||||||||||||||MET046METAR KFCH 180415Z AUTO 34003KT A3030 RMK A01=||F||223|ICAO-KFCH
USW00023167|FRESNO CHANDLER DWTN AP|2022|02|18|04|35|36.7333|-119.8167|84.1|13.0||1|FM15-METAR|223|ICAO-KFCH|1.0||1|FM15-METAR|223|ICAO-KFCH|||||||||||||320|N-Normal|1|FM15-METAR|223|ICAO-KFCH|1.5|N-Normal|1|FM15-METAR|223|ICAO-KFCH|||||||||||||44|Derived||FM15-METAR|223|ICAO-KFCH|||||||||||||||||||||||||||||||||||||||||||||||||||||||||||||||||||||||||1026.1||1|FM15-METAR|223|ICAO-KFCH|||||||||||||||||||||||||||||||||||||||||||MET057METAR KFCH 180435Z AUTO 32003KT 10SM 13/01 A3030 RMK A01=||F||223|ICAO-KFCH
USW00023167|FRESNO CHANDLER DWTN AP|2022|02|18|04|55|36.7333|-119.8167|84.1|14.0||1|FM15-METAR|223|ICAO-KFCH|1.0||1|FM15-METAR|223|ICAO-KFCH|||||||||||||340|N-Normal|1|FM15-METAR|223|ICAO-KFCH|2.6|N-Normal|1|FM15-METAR|223|ICAO-KFCH|||||||||||||41|Derived||FM15-METAR|223|ICAO-KFCH|||||||||||||||||||||||||||||||||||||||||||||||||||||||||||||||||||||||||1026.1||1|FM15-METAR|223|ICAO-KFCH|||||||||||||||||||||||||||||||||||||||||||MET064METAR KFCH 180455Z AUTO 34005KT 10SM FEW090 14/01 A3030 RMK A01=||F||223|ICAO-KFCH
USW00023167|FRESNO CHANDLER DWTN AP|2022|02|18|05|15|36.7333|-119.8167|84.1|14.0||1|FM15-METAR|223|ICAO-KFCH|1.0||1|FM15-METAR|223|ICAO-KFCH|||||||||||||350|N-Normal|1|FM15-METAR|223|ICAO-KFCH|2.6|N-Normal|1|FM15-METAR|223|ICAO-KFCH|||||||||||||41|Derived||FM15-METAR|223|ICAO-KFCH|||||||||||||||||||||||||||||||||||||||||||||||||||||||||||||||||||||||||1026.1||1|FM15-METAR|223|ICAO-KFCH|||||||||||||||||||||||||||||||||||||||||||MET064METAR KFCH 180515Z AUTO 35005KT 10SM SCT090 14/01 A3030 RMK A01=||F||223|ICAO-KFCH
USW00023167|FRESNO CHANDLER DWTN AP|2022|02|18|05|30|36.7333|-119.8167|84.1|14.0||1|FM15-METAR|223|ICAO-KFCH|1.0||1|FM15-METAR|223|ICAO-KFCH|||||||||||||360|N-Normal|1|FM15-METAR|223|ICAO-KFCH|2.1|N-Normal|1|FM15-METAR|223|ICAO-KFCH|||||||||||||41|Derived||FM15-METAR|223|ICAO-KFCH|||||||||||||||||||||||||||||||||||||||||||||||||||||||||||||||||||||||||1026.4||1|FM15-METAR|223|ICAO-KFCH|||||||||||||||||||||||||||||||||||||||||||MET064METAR KFCH 180530Z AUTO 36004KT 10SM FEW090 14/01 A3031 RMK A01=||F||223|ICAO-KFCH
USW00023167|FRESNO CHANDLER DWTN AP|2022|02|18|05|55|36.7333|-119.8167|84.1|13.0||1|FM15-METAR|223|ICAO-KFCH|0.0||1|FM15-METAR|223|ICAO-KFCH|||||||||||||340|N-Normal|1|FM15-METAR|223|ICAO-KFCH|1.5|N-Normal|1|FM15-METAR|223|ICAO-KFCH|||||||||||||41|Derived||FM15-METAR|223|ICAO-KFCH|||||||||||||||||||||||||||||||||||||||||||||||||||||||||||||||||||||||||1026.4||1|FM15-METAR|223|ICAO-KFCH|||||||||||||||||||||||||||||||||||||||||||MET061METAR KFCH 180555Z AUTO 34003KT 10SM CLR 13/00 A3031 RMK A01=||F||223|ICAO-KFCH
USW00023167|FRESNO CHANDLER DWTN AP|2022|02|18|06|15|36.7333|-119.8167|84.1|12.0||1|FM15-METAR|223|ICAO-KFCH|1.0||1|FM15-METAR|223|ICAO-KFCH|||||||||||||999|C-Calm|9|FM15-METAR|223|ICAO-KFCH|0.0|C-Calm|1|FM15-METAR|223|ICAO-KFCH|||||||||||||47|Derived||FM15-METAR|223|ICAO-KFCH|||||||||||||||||||||||||||||||||||||||||||||||||||||||||||||||||||||||||1026.7||1|FM15-METAR|223|ICAO-KFCH|||||||||||||||||||||||||||||||||||||||||||MET061METAR KFCH 180615Z AUTO 00000KT 10SM CLR 12/01 A3032 RMK A01=||F||223|ICAO-KFCH
USW00023167|FRESNO CHANDLER DWTN AP|2022|02|18|06|35|36.7333|-119.8167|84.1|11.0||1|FM15-METAR|223|ICAO-KFCH|1.0||1|FM15-METAR|223|ICAO-KFCH|||||||||||||999|C-Calm|9|FM15-METAR|223|ICAO-KFCH|0.0|C-Calm|1|FM15-METAR|223|ICAO-KFCH|||||||||||||50|Derived||FM15-METAR|223|ICAO-KFCH|||||||||||||||||||||||||||||||||||||||||||||||||||||||||||||||||||||||||1026.4||1|FM15-METAR|223|ICAO-KFCH|||||||||||||||||||||||||||||||||||||||||||MET061METAR KFCH 180635Z AUTO 00000KT 10SM CLR 11/01 A3031 RMK A01=||F||223|ICAO-KFCH
USW00023167|FRESNO CHANDLER DWTN AP|2022|02|18|06|55|36.7333|-119.8167|84.1|10.0||1|FM15-METAR|223|ICAO-KFCH|1.0||1|FM15-METAR|223|ICAO-KFCH|||||||||||||999|C-Calm|9|FM15-METAR|223|ICAO-KFCH|0.0|C-Calm|1|FM15-METAR|223|ICAO-KFCH|||||||||||||54|Derived||FM15-METAR|223|ICAO-KFCH|||||||||||||||||||||||||||||||||||||||||||||||||||||||||||||||||||||||||1026.4||1|FM15-METAR|223|ICAO-KFCH|||||||||||||||||||||||||||||||||||||||||||MET057METAR KFCH 180655Z AUTO 00000KT 10SM 10/01 A3031 RMK A01=||F||223|ICAO-KFCH
USW00023167|FRESNO CHANDLER DWTN AP|2022|02|18|07|15|36.7333|-119.8167|84.1|9.0||1|FM15-METAR|223|ICAO-KFCH|2.0||1|FM15-METAR|223|ICAO-KFCH|||||||||||||999|C-Calm|9|FM15-METAR|223|ICAO-KFCH|0.0|C-Calm|1|FM15-METAR|223|ICAO-KFCH|||||||||||||62|Derived||FM15-METAR|223|ICAO-KFCH|||||||||||||||||||||||||||||||||||||||||||||||||||||||||||||||||||||||||1026.4||1|FM15-METAR|223|ICAO-KFCH|||||||||||||||||||||||||||||||||||||||||||MET057METAR KFCH 180715Z AUTO 00000KT 10SM 09/02 A3031 RMK A01=||F||223|ICAO-KFCH
USW00023167|FRESNO CHANDLER DWTN AP|2022|02|18|07|30|36.7333|-119.8167|84.1|9.0||1|FM15-METAR|223|ICAO-KFCH|2.0||1|FM15-METAR|223|ICAO-KFCH|||||||||||||999|C-Calm|9|FM15-METAR|223|ICAO-KFCH|0.0|C-Calm|1|FM15-METAR|223|ICAO-KFCH|||||||||||||62|Derived||FM15-METAR|223|ICAO-KFCH|||||||||||||||||||||||||||||||||||||||||||||||||||||||||||||||||||||||||1026.4||1|FM15-METAR|223|ICAO-KFCH|||||||||||||||||||||||||||||||||||||||||||MET061METAR KFCH 180730Z AUTO 00000KT 10SM CLR 09/02 A3031 RMK A01=||F||223|ICAO-KFCH
USW00023167|FRESNO CHANDLER DWTN AP|2022|02|18|07|50|36.7333|-119.8167|84.1|9.0||1|FM15-METAR|223|ICAO-KFCH|2.0||1|FM15-METAR|223|ICAO-KFCH|||||||||||||999|C-Calm|9|FM15-METAR|223|ICAO-KFCH|0.0|C-Calm|1|FM15-METAR|223|ICAO-KFCH|||||||||||||62|Derived||FM15-METAR|223|ICAO-KFCH|||||||||||||||||||||||||||||||||||||||||||||||||||||||||||||||||||||||||1026.7||1|FM15-METAR|223|ICAO-KFCH|||||||||||||||||||||||||||||||||||||||||||MET061METAR KFCH 180750Z AUTO 00000KT 10SM CLR 09/02 A3032 RMK A01=||F||223|ICAO-KFCH
USW00023167|FRESNO CHANDLER DWTN AP|2022|02|18|08|10|36.7333|-119.8167|84.1|8.0||1|FM15-METAR|223|ICAO-KFCH|2.0||1|FM15-METAR|223|ICAO-KFCH|||||||||||||310|N-Normal|1|FM15-METAR|223|ICAO-KFCH|2.6|N-Normal|1|FM15-METAR|223|ICAO-KFCH|||||||||||||66|Derived||FM15-METAR|223|ICAO-KFCH|||||||||||||||||||||||||||||||||||||||||||||||||||||||||||||||||||||||||1026.4||1|FM15-METAR|223|ICAO-KFCH|||||||||||||||||||||||||||||||||||||||||||MET061METAR KFCH 180810Z AUTO 31005KT 10SM CLR 08/02 A3031 RMK A01=||F||223|ICAO-KFCH
USW00023167|FRESNO CHANDLER DWTN AP|2022|02|18|08|30|36.7333|-119.8167|84.1|8.0||1|FM15-METAR|223|ICAO-KFCH|2.0||1|FM15-METAR|223|ICAO-KFCH|||||||||||||320|N-Normal|1|FM15-METAR|223|ICAO-KFCH|1.5|N-Normal|1|FM15-METAR|223|ICAO-KFCH|||||||||||||66|Derived||FM15-METAR|223|ICAO-KFCH|||||||||||||||||||||||||||||||||||||||||||||||||||||||||||||||||||||||||1026.4||1|FM15-METAR|223|ICAO-KFCH|||||||||||||||||||||||||||||||||||||||||||MET061METAR KFCH 180830Z AUTO 32003KT 10SM CLR 08/02 A3031 RMK A01=||F||223|ICAO-KFCH
USW00023167|FRESNO CHANDLER DWTN AP|2022|02|18|08|50|36.7333|-119.8167|84.1|8.0||1|FM15-METAR|223|ICAO-KFCH|2.0||1|FM15-METAR|223|ICAO-KFCH|||||||||||||999|C-Calm|9|FM15-METAR|223|ICAO-KFCH|0.0|C-Calm|1|FM15-METAR|223|ICAO-KFCH|||||||||||||66|Derived||FM15-METAR|223|ICAO-KFCH|||||||||||||||||||||||||||||||||||||||||||||||||||||||||||||||||||||||||1026.4||1|FM15-METAR|223|ICAO-KFCH|||||||||||||||||||||||||||||||||||||||||||MET057METAR KFCH 180850Z AUTO 00000KT 10SM 08/02 A3031 RMK A01=||F||223|ICAO-KFCH
USW00023167|FRESNO CHANDLER DWTN AP|2022|02|18|09|10|36.7333|-119.8167|84.1|7.0||1|FM15-METAR|223|ICAO-KFCH|2.0||1|FM15-METAR|223|ICAO-KFCH|||||||||||||999|C-Calm|9|FM15-METAR|223|ICAO-KFCH|0.0|C-Calm|1|FM15-METAR|223|ICAO-KFCH|||||||||||||71|Derived||FM15-METAR|223|ICAO-KFCH|||||||||||||||||||||||||||||||||||||||||||||||||||||||||||||||||||||||||1026.7||1|FM15-METAR|223|ICAO-KFCH|||||||||||||||||||||||||||||||||||||||||||MET061METAR KFCH 180910Z AUTO 00000KT 10SM CLR 07/02 A3032 RMK A01=||F||223|ICAO-KFCH
USW00023167|FRESNO CHANDLER DWTN AP|2022|02|18|09|35|36.7333|-119.8167|84.1|7.0||1|FM15-METAR|223|ICAO-KFCH|2.0||1|FM15-METAR|223|ICAO-KFCH|||||||||||||999|C-Calm|9|FM15-METAR|223|ICAO-KFCH|0.0|C-Calm|1|FM15-METAR|223|ICAO-KFCH|||||||||||||71|Derived||FM15-METAR|223|ICAO-KFCH|||||||||||||||||||||||||||||||||||||||||||||||||||||||||||||||||||||||||1026.4||1|FM15-METAR|223|ICAO-KFCH|||||||||||||||||||||||||||||||||||||||||||MET061METAR KFCH 180935Z AUTO 00000KT 10SM CLR 07/02 A3031 RMK A01=||F||223|ICAO-KFCH
USW00023167|FRESNO CHANDLER DWTN AP|2022|02|18|09|50|36.7333|-119.8167|84.1|7.0||1|FM15-METAR|223|ICAO-KFCH|2.0||1|FM15-METAR|223|ICAO-KFCH|||||||||||||360|N-Normal|1|FM15-METAR|223|ICAO-KFCH|1.5|N-Normal|1|FM15-METAR|223|ICAO-KFCH|||||||||||||71|Derived||FM15-METAR|223|ICAO-KFCH|||||||||||||||||||||||||||||||||||||||||||||||||||||||||||||||||||||||||1026.4||1|FM15-METAR|223|ICAO-KFCH|||||||||||||||||||||||||||||||||||||||||||MET061METAR KFCH 180950Z AUTO 36003KT 10SM CLR 07/02 A3031 RMK A01=||F||223|ICAO-KFCH
USW00023167|FRESNO CHANDLER DWTN AP|2022|02|18|10|10|36.7333|-119.8167|84.1|7.0||1|FM15-METAR|223|ICAO-KFCH|2.0||1|FM15-METAR|223|ICAO-KFCH|||||||||||||999|C-Calm|9|FM15-METAR|223|ICAO-KFCH|0.0|C-Calm|1|FM15-METAR|223|ICAO-KFCH|||||||||||||71|Derived||FM15-METAR|223|ICAO-KFCH|||||||||||||||||||||||||||||||||||||||||||||||||||||||||||||||||||||||||1026.4||1|FM15-METAR|223|ICAO-KFCH|||||||||||||||||||||||||||||||||||||||||||MET061METAR KFCH 181010Z AUTO 00000KT 10SM CLR 07/02 A3031 RMK A01=||F||223|ICAO-KFCH
USW00023167|FRESNO CHANDLER DWTN AP|2022|02|18|10|35|36.7333|-119.8167|84.1|7.0||1|FM15-METAR|223|ICAO-KFCH|2.0||1|FM15-METAR|223|ICAO-KFCH|||||||||||||020|N-Normal|1|FM15-METAR|223|ICAO-KFCH|1.5|N-Normal|1|FM15-METAR|223|ICAO-KFCH|||||||||||||71|Derived||FM15-METAR|223|ICAO-KFCH|||||||||||||||||||||||||||||||||||||||||||||||||||||||||||||||||||||||||1026.1||1|FM15-METAR|223|ICAO-KFCH|||||||||||||||||||||||||||||||||||||||||||MET061METAR KFCH 181035Z AUTO 02003KT 10SM CLR 07/02 A3030 RMK A01=||F||223|ICAO-KFCH
USW00023167|FRESNO CHANDLER DWTN AP|2022|02|18|10|55|36.7333|-119.8167|84.1|6.0||1|FM15-METAR|223|ICAO-KFCH|2.0||1|FM15-METAR|223|ICAO-KFCH|||||||||||||999|C-Calm|9|FM15-METAR|223|ICAO-KFCH|0.0|C-Calm|1|FM15-METAR|223|ICAO-KFCH|||||||||||||76|Derived||FM15-METAR|223|ICAO-KFCH|||||||||||||||||||||||||||||||||||||||||||||||||||||||||||||||||||||||||1025.7||1|FM15-METAR|223|ICAO-KFCH|||||||||||||||||||||||||||||||||||||||||||MET061METAR KFCH 181055Z AUTO 00000KT 10SM CLR 06/02 A3029 RMK A01=||F||223|ICAO-KFCH
USW00023167|FRESNO CHANDLER DWTN AP|2022|02|18|11|15|36.7333|-119.8167|84.1|6.0||1|FM15-METAR|223|ICAO-KFCH|1.0||1|FM15-METAR|223|ICAO-KFCH|||||||||||||999|C-Calm|9|FM15-METAR|223|ICAO-KFCH|0.0|C-Calm|1|FM15-METAR|223|ICAO-KFCH|||||||||||||71|Derived||FM15-METAR|223|ICAO-KFCH|||||||||||||||||||||||||||||||||||||||||||||||||||||||||||||||||||||||||1026.1||1|FM15-METAR|223|ICAO-KFCH|||||||||||||||||||||||||||||||||||||||||||MET064METAR KFCH 181115Z AUTO 00000KT 10SM BKN080 06/01 A3030 RMK A01=||F||223|ICAO-KFCH
USW00023167|FRESNO CHANDLER DWTN AP|2022|02|18|11|30|36.7333|-119.8167|84.1|5.0||1|FM15-METAR|223|ICAO-KFCH|2.0||1|FM15-METAR|223|ICAO-KFCH|||||||||||||999|C-Calm|9|FM15-METAR|223|ICAO-KFCH|0.0|C-Calm|1|FM15-METAR|223|ICAO-KFCH|||||||||||||81|Derived||FM15-METAR|223|ICAO-KFCH|||||||||||||||||||||||||||||||||||||||||||||||||||||||||||||||||||||||||1025.7||1|FM15-METAR|223|ICAO-KFCH|||||||||||||||||||||||||||||||||||||||||||MET064METAR KFCH 181130Z AUTO 00000KT 10SM OVC075 05/02 A3029 RMK A01=||F||223|ICAO-KFCH
USW00023167|FRESNO CHANDLER DWTN AP|2022|02|18|11|55|36.7333|-119.8167|84.1|6.0||1|FM15-METAR|223|ICAO-KFCH|2.0||1|FM15-METAR|223|ICAO-KFCH|||||||||||||999|C-Calm|9|FM15-METAR|223|ICAO-KFCH|0.0|C-Calm|1|FM15-METAR|223|ICAO-KFCH|||||||||||||76|Derived||FM15-METAR|223|ICAO-KFCH|||||||||||||||||||||||||||||||||||||||||||||||||||||||||||||||||||||||||1025.7||1|FM15-METAR|223|ICAO-KFCH|||||||||||||||||||||||||||||||||||||||||||MET064METAR KFCH 181155Z AUTO 00000KT 10SM BKN075 06/02 A3029 RMK A01=||F||223|ICAO-KFCH
USW00023167|FRESNO CHANDLER DWTN AP|2022|02|18|12|15|36.7333|-119.8167|84.1|5.0||1|FM15-METAR|223|ICAO-KFCH|1.0||1|FM15-METAR|223|ICAO-KFCH|||||||||||||999|C-Calm|9|FM15-METAR|223|ICAO-KFCH|0.0|C-Calm|1|FM15-METAR|223|ICAO-KFCH|||||||||||||76|Derived||FM15-METAR|223|ICAO-KFCH|||||||||||||||||||||||||||||||||||||||||||||||||||||||||||||||||||||||||1025.7||1|FM15-METAR|223|ICAO-KFCH|||||||||||||||||||||||||||||||||||||||||||MET064METAR KFCH 181215Z AUTO 00000KT 10SM SCT075 05/01 A3029 RMK A01=||F||223|ICAO-KFCH
USW00023167|FRESNO CHANDLER DWTN AP|2022|02|18|12|30|36.7333|-119.8167|84.1|5.0||1|FM15-METAR|223|ICAO-KFCH|1.0||1|FM15-METAR|223|ICAO-KFCH|||||||||||||999|C-Calm|9|FM15-METAR|223|ICAO-KFCH|0.0|C-Calm|1|FM15-METAR|223|ICAO-KFCH|||||||||||||76|Derived||FM15-METAR|223|ICAO-KFCH|||||||||||||||||||||||||||||||||||||||||||||||||||||||||||||||||||||||||1025.7||1|FM15-METAR|223|ICAO-KFCH|||||||||||||||||||||||||||||||||||||||||||MET064METAR KFCH 181230Z AUTO 00000KT 10SM FEW075 05/01 A3029 RMK A01=||F||223|ICAO-KFCH
USW00023167|FRESNO CHANDLER DWTN AP|2022|02|18|12|55|36.7333|-119.8167|84.1|5.0||1|FM15-METAR|223|ICAO-KFCH|2.0||1|FM15-METAR|223|ICAO-KFCH|||||||||||||999|C-Calm|9|FM15-METAR|223|ICAO-KFCH|0.0|C-Calm|1|FM15-METAR|223|ICAO-KFCH|||||||||||||81|Derived||FM15-METAR|223|ICAO-KFCH|||||||||||||||||||||||||||||||||||||||||||||||||||||||||||||||||||||||||1026.1||1|FM15-METAR|223|ICAO-KFCH|||||||||||||||||||||||||||||||||||||||||||MET071METAR KFCH 181255Z AUTO 00000KT 10SM FEW037 FEW075 05/02 A3030 RMK A01=||F||223|ICAO-KFCH
USW00023167|FRESNO CHANDLER DWTN AP|2022|02|18|13|15|36.7333|-119.8167|84.1|5.0||1|FM15-METAR|223|ICAO-KFCH|2.0||1|FM15-METAR|223|ICAO-KFCH|||||||||||||999|C-Calm|9|FM15-METAR|223|ICAO-KFCH|0.0|C-Calm|1|FM15-METAR|223|ICAO-KFCH|||||||||||||81|Derived||FM15-METAR|223|ICAO-KFCH|||||||||||||||||||||||||||||||||||||||||||||||||||||||||||||||||||||||||1025.7||1|FM15-METAR|223|ICAO-KFCH|||||||||||||||||||||||||||||||||||||||||||MET061METAR KFCH 181315Z AUTO 00000KT 10SM CLR 05/02 A3029 RMK A01=||F||223|ICAO-KFCH
USW00023167|FRESNO CHANDLER DWTN AP|2022|02|18|13|35|36.7333|-119.8167|84.1|4.0||1|FM15-METAR|223|ICAO-KFCH|2.0||1|FM15-METAR|223|ICAO-KFCH|||||||||||||999|C-Calm|9|FM15-METAR|223|ICAO-KFCH|0.0|C-Calm|1|FM15-METAR|223|ICAO-KFCH|||||||||||||87|Derived||FM15-METAR|223|ICAO-KFCH|||||||||||||||||||||||||||||||||||||||||||||||||||||||||||||||||||||||||1026.1||1|FM15-METAR|223|ICAO-KFCH|||||||||||||||||||||||||||||||||||||||||||MET061METAR KFCH 181335Z AUTO 00000KT 10SM CLR 04/02 A3030 RMK A01=||F||223|ICAO-KFCH
USW00023167|FRESNO CHANDLER DWTN AP|2022|02|18|13|55|36.7333|-119.8167|84.1|4.0||1|FM15-METAR|223|ICAO-KFCH|2.0||1|FM15-METAR|223|ICAO-KFCH|||||||||||||999|C-Calm|9|FM15-METAR|223|ICAO-KFCH|0.0|C-Calm|1|FM15-METAR|223|ICAO-KFCH|||||||||||||87|Derived||FM15-METAR|223|ICAO-KFCH|||||||||||||||||||||||||||||||||||||||||||||||||||||||||||||||||||||||||1026.1||1|FM15-METAR|223|ICAO-KFCH|||||||||||||||||||||||||||||||||||||||||||MET061METAR KFCH 181355Z AUTO 00000KT 10SM CLR 04/02 A3030 RMK A01=||F||223|ICAO-KFCH
USW00023167|FRESNO CHANDLER DWTN AP|2022|02|18|14|10|36.7333|-119.8167|84.1|4.0||1|FM15-METAR|223|ICAO-KFCH|2.0||1|FM15-METAR|223|ICAO-KFCH|||||||||||||999|C-Calm|9|FM15-METAR|223|ICAO-KFCH|0.0|C-Calm|1|FM15-METAR|223|ICAO-KFCH|||||||||||||87|Derived||FM15-METAR|223|ICAO-KFCH|||||||||||||||||||||||||||||||||||||||||||||||||||||||||||||||||||||||||1026.1||1|FM15-METAR|223|ICAO-KFCH|||||||||||||||||||||||||||||||||||||||||||MET061METAR KFCH 181410Z AUTO 00000KT 10SM CLR 04/02 A3030 RMK A01=||F||223|ICAO-KFCH
USW00023167|FRESNO CHANDLER DWTN AP|2022|02|18|14|35|36.7333|-119.8167|84.1|4.0||1|FM15-METAR|223|ICAO-KFCH|2.0||1|FM15-METAR|223|ICAO-KFCH|||||||||||||999|C-Calm|9|FM15-METAR|223|ICAO-KFCH|0.0|C-Calm|1|FM15-METAR|223|ICAO-KFCH|||||||||||||87|Derived||FM15-METAR|223|ICAO-KFCH|||||||||||||||||||||||||||||||||||||||||||||||||||||||||||||||||||||||||1026.1||1|FM15-METAR|223|ICAO-KFCH|||||||||||||||||||||||||||||||||||||||||||MET061METAR KFCH 181435Z AUTO 00000KT 10SM CLR 04/02 A3030 RMK A01=||F||223|ICAO-KFCH
USW00023167|FRESNO CHANDLER DWTN AP|2022|02|18|14|55|36.7333|-119.8167|84.1|6.0||1|FM15-METAR|223|ICAO-KFCH|1.0||1|FM15-METAR|223|ICAO-KFCH|||||||||||||100|N-Normal|1|FM15-METAR|223|ICAO-KFCH|2.1|N-Normal|1|FM15-METAR|223|ICAO-KFCH|||||||||||||71|Derived||FM15-METAR|223|ICAO-KFCH|||||||||||||||||||||||||||||||||||||||||||||||||||||||||||||||||||||||||1026.4||1|FM15-METAR|223|ICAO-KFCH|||||||||||||||||||||||||||||||||||||||||||MET061METAR KFCH 181455Z AUTO 10004KT 10SM CLR 06/01 A3031 RMK A01=||F||223|ICAO-KFCH
USW00023167|FRESNO CHANDLER DWTN AP|2022|02|18|15|15|36.7333|-119.8167|84.1|6.0||1|FM15-METAR|223|ICAO-KFCH|1.0||1|FM15-METAR|223|ICAO-KFCH|||||||||||||090|N-Normal|1|FM15-METAR|223|ICAO-KFCH|2.1|N-Normal|1|FM15-METAR|223|ICAO-KFCH|||||||||||||71|Derived||FM15-METAR|223|ICAO-KFCH|||||||||||||||||||||||||||||||||||||||||||||||||||||||||||||||||||||||||1026.4||1|FM15-METAR|223|ICAO-KFCH|||||||||||||||||||||||||||||||||||||||||||MET061METAR KFCH 181515Z AUTO 09004KT 10SM CLR 06/01 A3031 RMK A01=||F||223|ICAO-KFCH
USW00023167|FRESNO CHANDLER DWTN AP|2022|02|18|15|35|36.7333|-119.8167|84.1|6.0||1|FM15-METAR|223|ICAO-KFCH|2.0||1|FM15-METAR|223|ICAO-KFCH|||||||||||||999|C-Calm|9|FM15-METAR|223|ICAO-KFCH|0.0|C-Calm|1|FM15-METAR|223|ICAO-KFCH|||||||||||||76|Derived||FM15-METAR|223|ICAO-KFCH|||||||||||||||||||||||||||||||||||||||||||||||||||||||||||||||||||||||||1026.4||1|FM15-METAR|223|ICAO-KFCH|||||||||||||||||||||||||||||||||||||||||||MET061METAR KFCH 181535Z AUTO 00000KT 10SM CLR 06/02 A3031 RMK A01=||F||223|ICAO-KFCH
USW00023167|FRESNO CHANDLER DWTN AP|2022|02|18|15|55|36.7333|-119.8167|84.1|7.0||1|FM15-METAR|223|ICAO-KFCH|2.0||1|FM15-METAR|223|ICAO-KFCH|||||||||||||999|C-Calm|9|FM15-METAR|223|ICAO-KFCH|0.0|C-Calm|1|FM15-METAR|223|ICAO-KFCH|||||||||||||71|Derived||FM15-METAR|223|ICAO-KFCH|||||||||||||||||||||||||||||||||||||||||||||||||||||||||||||||||||||||||1026.7||1|FM15-METAR|223|ICAO-KFCH|||||||||||||||||||||||||||||||||||||||||||MET061METAR KFCH 181555Z AUTO 00000KT 10SM CLR 07/02 A3032 RMK A01=||F||223|ICAO-KFCH
USW00023167|FRESNO CHANDLER DWTN AP|2022|02|18|16|15|36.7333|-119.8167|84.1|8.0||1|FM15-METAR|223|ICAO-KFCH|2.0||1|FM15-METAR|223|ICAO-KFCH|||||||||||||999|C-Calm|9|FM15-METAR|223|ICAO-KFCH|0.0|C-Calm|1|FM15-METAR|223|ICAO-KFCH|||||||||||||66|Derived||FM15-METAR|223|ICAO-KFCH|||||||||||||||||||||||||||||||||||||||||||||||||||||||||||||||||||||||||1026.7||1|FM15-METAR|223|ICAO-KFCH|||||||||||||||||||||||||||||||||||||||||||MET061METAR KFCH 181615Z AUTO 00000KT 10SM CLR 08/02 A3032 RMK A01=||F||223|ICAO-KFCH
USW00023167|FRESNO CHANDLER DWTN AP|2022|02|18|16|30|36.7333|-119.8167|84.1|9.0||1|FM15-METAR|223|ICAO-KFCH|2.0||1|FM15-METAR|223|ICAO-KFCH|||||||||||||130|N-Normal|1|FM15-METAR|223|ICAO-KFCH|2.1|N-Normal|1|FM15-METAR|223|ICAO-KFCH|||||||||||||62|Derived||FM15-METAR|223|ICAO-KFCH|||||||||||||||||||||||||||||||||||||||||||||||||||||||||||||||||||||||||1027.1||1|FM15-METAR|223|ICAO-KFCH|||||||||||||||||||||||||||||||||||||||||||MET061METAR KFCH 181630Z AUTO 13004KT 10SM CLR 09/02 A3033 RMK A01=||F||223|ICAO-KFCH
USW00023167|FRESNO CHANDLER DWTN AP|2022|02|18|16|55|36.7333|-119.8167|84.1|||||||||||||||||||||||||140|N-Normal|1|FM15-METAR|223|ICAO-KFCH|2.6|N-Normal|1|FM15-METAR|223|ICAO-KFCH|||||||||||||||||||||||||||||||||||||||||||||||||||||||||||||||||||||||||||||||||||||||||||1027.4||1|FM15-METAR|223|ICAO-KFCH|||||||||||||||||||||||||||||||||||||||||||MET051METAR KFCH 181655Z AUTO 14005KT 10SM A3034 RMK A01=||F||223|ICAO-KFCH
USW00023167|FRESNO CHANDLER DWTN AP|2022|02|18|17|15|36.7333|-119.8167|84.1|12.0||1|FM15-METAR|223|ICAO-KFCH|2.0||1|FM15-METAR|223|ICAO-KFCH|||||||||||||130|N-Normal|1|FM15-METAR|223|ICAO-KFCH|2.1|N-Normal|1|FM15-METAR|223|ICAO-KFCH|||||||||||||51|Derived||FM15-METAR|223|ICAO-KFCH|||||||||||||||||||||||||||||||||||||||||||||||||||||||||||||||||||||||||1027.1||1|FM15-METAR|223|ICAO-KFCH|||||||||||||||||||||||||||||||||||||||||||MET057METAR KFCH 181715Z AUTO 13004KT 10SM 12/02 A3033 RMK A01=||F||223|ICAO-KFCH
USW00023167|FRESNO CHANDLER DWTN AP|2022|02|18|17|35|36.7333|-119.8167|84.1|12.0||1|FM15-METAR|223|ICAO-KFCH|2.0||1|FM15-METAR|223|ICAO-KFCH|||||||||||||200|N-Normal|1|FM15-METAR|223|ICAO-KFCH|2.1|N-Normal|1|FM15-METAR|223|ICAO-KFCH|||||||||||||51|Derived||FM15-METAR|223|ICAO-KFCH|||||||||||||||||||||||||||||||||||||||||||||||||||||||||||||||||||||||||1027.1||1|FM15-METAR|223|ICAO-KFCH|||||||||||||||||||||||||||||||||||||||||||MET061METAR KFCH 181735Z AUTO 20004KT 10SM CLR 12/02 A3033 RMK A01=||F||223|ICAO-KFCH
USW00023167|FRESNO CHANDLER DWTN AP|2022|02|18|17|55|36.7333|-119.8167|84.1|12.0||1|FM15-METAR|223|ICAO-KFCH|2.0||1|FM15-METAR|223|ICAO-KFCH|||||||||||||999|C-Calm|9|FM15-METAR|223|ICAO-KFCH|0.0|C-Calm|1|FM15-METAR|223|ICAO-KFCH|||||||||||||51|Derived||FM15-METAR|223|ICAO-KFCH|||||||||||||||||||||||||||||||||||||||||||||||||||||||||||||||||||||||||1026.7||1|FM15-METAR|223|ICAO-KFCH|||||||||||||||||||||||||||||||||||||||||||MET061METAR KFCH 181755Z AUTO 00000KT 10SM CLR 12/02 A3032 RMK A01=||F||223|ICAO-KFCH
USW00023167|FRESNO CHANDLER DWTN AP|2022|02|18|18|15|36.7333|-119.8167|84.1|13.0||1|FM15-METAR|223|ICAO-KFCH|2.0||1|FM15-METAR|223|ICAO-KFCH|||||||||||||999|C-Calm|9|FM15-METAR|223|ICAO-KFCH|0.0|C-Calm|1|FM15-METAR|223|ICAO-KFCH|||||||||||||47|Derived||FM15-METAR|223|ICAO-KFCH|||||||||||||||||||||||||||||||||||||||||||||||||||||||||||||||||||||||||1026.7||1|FM15-METAR|223|ICAO-KFCH|||||||||||||||||||||||||||||||||||||||||||MET061METAR KFCH 181815Z AUTO 00000KT 10SM CLR 13/02 A3032 RMK A01=||F||223|ICAO-KFCH
USW00023167|FRESNO CHANDLER DWTN AP|2022|02|18|18|35|36.7333|-119.8167|84.1|14.0||1|FM15-METAR|223|ICAO-KFCH|2.0||1|FM15-METAR|223|ICAO-KFCH|||||||||||||999|C-Calm|9|FM15-METAR|223|ICAO-KFCH|0.0|C-Calm|1|FM15-METAR|223|ICAO-KFCH|||||||||||||44|Derived||FM15-METAR|223|ICAO-KFCH|||||||||||||||||||||||||||||||||||||||||||||||||||||||||||||||||||||||||1026.4||1|FM15-METAR|223|ICAO-KFCH|||||||||||||||||||||||||||||||||||||||||||MET061METAR KFCH 181835Z AUTO 00000KT 10SM CLR 14/02 A3031 RMK A01=||F||223|ICAO-KFCH
USW00023167|FRESNO CHANDLER DWTN AP|2022|02|18|18|55|36.7333|-119.8167|84.1|15.0||1|FM15-METAR|223|ICAO-KFCH|2.0||1|FM15-METAR|223|ICAO-KFCH|||||||||||||999|C-Calm|9|FM15-METAR|223|ICAO-KFCH|0.0|C-Calm|1|FM15-METAR|223|ICAO-KFCH|||||||||||||42|Derived||FM15-METAR|223|ICAO-KFCH|||||||||||||||||||||||||||||||||||||||||||||||||||||||||||||||||||||||||1026.4||1|FM15-METAR|223|ICAO-KFCH|||||||||||||||||||||||||||||||||||||||||||MET061METAR KFCH 181855Z AUTO 00000KT 10SM CLR 15/02 A3031 RMK A01=||F||223|ICAO-KFCH
USW00023167|FRESNO CHANDLER DWTN AP|2022|02|18|19|15|36.7333|-119.8167|84.1|16.0||1|FM15-METAR|223|ICAO-KFCH|1.0||1|FM15-METAR|223|ICAO-KFCH|||||||||||||999|C-Calm|9|FM15-METAR|223|ICAO-KFCH|0.0|C-Calm|1|FM15-METAR|223|ICAO-KFCH|||||||||||||36|Derived||FM15-METAR|223|ICAO-KFCH|||||||||||||||||||||||||||||||||||||||||||||||||||||||||||||||||||||||||1026.4||1|FM15-METAR|223|ICAO-KFCH|||||||||||||||||||||||||||||||||||||||||||MET061METAR KFCH 181915Z AUTO 00000KT 10SM CLR 16/01 A3031 RMK A01=||F||223|ICAO-KFCH
USW00023167|FRESNO CHANDLER DWTN AP|2022|02|18|19|35|36.7333|-119.8167|84.1|17.0||1|FM15-METAR|223|ICAO-KFCH|2.0||1|FM15-METAR|223|ICAO-KFCH|||||||||||||999|V-Variable|9|FM15-METAR|223|ICAO-KFCH|1.5|V-Variable|1|FM15-METAR|223|ICAO-KFCH|||||||||||||37|Derived||FM15-METAR|223|ICAO-KFCH|||||||||||||||||||||||||||||||||||||||||||||||||||||||||||||||||||||||||1026.1||1|FM15-METAR|223|ICAO-KFCH|||||||||||||||||||||||||||||||||||||||||||MET061METAR KFCH 181935Z AUTO VRB03KT 10SM CLR 17/02 A3030 RMK A01=||F||223|ICAO-KFCH
USW00023167|FRESNO CHANDLER DWTN AP|2022|02|18|19|55|36.7333|-119.8167|84.1|17.0||1|FM15-METAR|223|ICAO-KFCH|1.0||1|FM15-METAR|223|ICAO-KFCH|||||||||||||999|V-Variable|9|FM15-METAR|223|ICAO-KFCH|2.1|V-Variable|1|FM15-METAR|223|ICAO-KFCH|||||||||||||34|Derived||FM15-METAR|223|ICAO-KFCH|||||||||||||||||||||||||||||||||||||||||||||||||||||||||||||||||||||||||1025.7||1|FM15-METAR|223|ICAO-KFCH|||||||||||||||||||||||||||||||||||||||||||MET061METAR KFCH 181955Z AUTO VRB04KT 10SM CLR 17/01 A3029 RMK A01=||F||223|ICAO-KFCH
USW00023167|FRESNO CHANDLER DWTN AP|2022|02|18|20|15|36.7333|-119.8167|84.1|18.0||1|FM15-METAR|223|ICAO-KFCH|1.0||1|FM15-METAR|223|ICAO-KFCH|||||||||||||999|C-Calm|9|FM15-METAR|223|ICAO-KFCH|0.0|C-Calm|1|FM15-METAR|223|ICAO-KFCH|||||||||||||32|Derived||FM15-METAR|223|ICAO-KFCH|||||||||||||||||||||||||||||||||||||||||||||||||||||||||||||||||||||||||1025.4||1|FM15-METAR|223|ICAO-KFCH|||||||||||||||||||||||||||||||||||||||||||MET061METAR KFCH 182015Z AUTO 00000KT 10SM CLR 18/01 A3028 RMK A01=||F||223|ICAO-KFCH
USW00023167|FRESNO CHANDLER DWTN AP|2022|02|18|20|35|36.7333|-119.8167|84.1|18.0||1|FM15-METAR|223|ICAO-KFCH|1.0||1|FM15-METAR|223|ICAO-KFCH|||||||||||||999|C-Calm|9|FM15-METAR|223|ICAO-KFCH|0.0|C-Calm|1|FM15-METAR|223|ICAO-KFCH|||||||||||||32|Derived||FM15-METAR|223|ICAO-KFCH|||||||||||||||||||||||||||||||||||||||||||||||||||||||||||||||||||||||||1025.1||1|FM15-METAR|223|ICAO-KFCH|||||||||||||||||||||||||||||||||||||||||||MET061METAR KFCH 182035Z AUTO 00000KT 10SM CLR 18/01 A3027 RMK A01=||F||223|ICAO-KFCH
USW00023167|FRESNO CHANDLER DWTN AP|2022|02|18|20|55|36.7333|-119.8167|84.1|19.0||1|FM15-METAR|223|ICAO-KFCH|1.0||1|FM15-METAR|223|ICAO-KFCH|||||||||||||999|C-Calm|9|FM15-METAR|223|ICAO-KFCH|0.0|C-Calm|1|FM15-METAR|223|ICAO-KFCH|||||||||||||30|Derived||FM15-METAR|223|ICAO-KFCH|||||||||||||||||||||||||||||||||||||||||||||||||||||||||||||||||||||||||1024.7||1|FM15-METAR|223|ICAO-KFCH|||||||||||||||||||||||||||||||||||||||||||MET061METAR KFCH 182055Z AUTO 00000KT 10SM CLR 19/01 A3026 RMK A01=||F||223|ICAO-KFCH
USW00023167|FRESNO CHANDLER DWTN AP|2022|02|18|21|15|36.7333|-119.8167|84.1|19.0||1|FM15-METAR|223|ICAO-KFCH|1.0||1|FM15-METAR|223|ICAO-KFCH|||||||||||||999|C-Calm|9|FM15-METAR|223|ICAO-KFCH|0.0|C-Calm|1|FM15-METAR|223|ICAO-KFCH|||||||||||||30|Derived||FM15-METAR|223|ICAO-KFCH|||||||||||||||||||||||||||||||||||||||||||||||||||||||||||||||||||||||||1024.4||1|FM15-METAR|223|ICAO-KFCH|||||||||||||||||||||||||||||||||||||||||||MET061METAR KFCH 182115Z AUTO 00000KT 10SM CLR 19/01 A3025 RMK A01=||F||223|ICAO-KFCH
USW00023167|FRESNO CHANDLER DWTN AP|2022|02|18|21|35|36.7333|-119.8167|84.1|19.0||1|FM15-METAR|223|ICAO-KFCH|1.0||1|FM15-METAR|223|ICAO-KFCH|||||||||||||999|C-Calm|9|FM15-METAR|223|ICAO-KFCH|0.0|C-Calm|1|FM15-METAR|223|ICAO-KFCH|||||||||||||30|Derived||FM15-METAR|223|ICAO-KFCH|||||||||||||||||||||||||||||||||||||||||||||||||||||||||||||||||||||||||1024.4||1|FM15-METAR|223|ICAO-KFCH|||||||||||||||||||||||||||||||||||||||||||MET061METAR KFCH 182135Z AUTO 00000KT 10SM CLR 19/01 A3025 RMK A01=||F||223|ICAO-KFCH
USW00023167|FRESNO CHANDLER DWTN AP|2022|02|18|21|55|36.7333|-119.8167|84.1|19.0||1|FM15-METAR|223|ICAO-KFCH|2.0||1|FM15-METAR|223|ICAO-KFCH|||||||||||||340|N-Normal|1|FM15-METAR|223|ICAO-KFCH|2.6|N-Normal|1|FM15-METAR|223|ICAO-KFCH|||||||||||||32|Derived||FM15-METAR|223|ICAO-KFCH|||||||||||||||||||||||||||||||||||||||||||||||||||||||||||||||||||||||||1024.0||1|FM15-METAR|223|ICAO-KFCH|||||||||||||||||||||||||||||||||||||||||||MET061METAR KFCH 182155Z AUTO 34005KT 10SM CLR 19/02 A3024 RMK A01=||F||223|ICAO-KFCH
USW00023167|FRESNO CHANDLER DWTN AP|2022|02|18|22|15|36.7333|-119.8167|84.1|20.0||1|FM15-METAR|223|ICAO-KFCH|1.0||1|FM15-METAR|223|ICAO-KFCH|||||||||||||999|V-Variable|9|FM15-METAR|223|ICAO-KFCH|2.1|V-Variable|1|FM15-METAR|223|ICAO-KFCH|||||||||||||28|Derived||FM15-METAR|223|ICAO-KFCH|||||||||||||||||||||||||||||||||||||||||||||||||||||||||||||||||||||||||1023.7||1|FM15-METAR|223|ICAO-KFCH|||||||||||||||||||||||||||||||||||||||||||MET061METAR KFCH 182215Z AUTO VRB04KT 10SM CLR 20/01 A3023 RMK A01=||F||223|ICAO-KFCH
USW00023167|FRESNO CHANDLER DWTN AP|2022|02|18|22|35|36.7333|-119.8167|84.1|20.0||1|FM15-METAR|223|ICAO-KFCH|1.0||1|FM15-METAR|223|ICAO-KFCH|||||||||||||999|V-Variable|9|FM15-METAR|223|ICAO-KFCH|2.1|V-Variable|1|FM15-METAR|223|ICAO-KFCH|||||||||||||28|Derived||FM15-METAR|223|ICAO-KFCH|||||||||||||||||||||||||||||||||||||||||||||||||||||||||||||||||||||||||1023.4||1|FM15-METAR|223|ICAO-KFCH|||||||||||||||||||||||||||||||||||||||||||MET061METAR KFCH 182235Z AUTO VRB04KT 10SM CLR 20/01 A3022 RMK A01=||F||223|ICAO-KFCH
USW00023167|FRESNO CHANDLER DWTN AP|2022|02|18|22|55|36.7333|-119.8167|84.1|20.0||1|FM15-METAR|223|ICAO-KFCH|1.0||1|FM15-METAR|223|ICAO-KFCH|||||||||||||310|N-Normal|1|FM15-METAR|223|ICAO-KFCH|3.1|N-Normal|1|FM15-METAR|223|ICAO-KFCH|||||||||||||28|Derived||FM15-METAR|223|ICAO-KFCH|||||||||||||||||||||||||||||||||||||||||||||||||||||||||||||||||||||||||1023.4||1|FM15-METAR|223|ICAO-KFCH|||||||||||||||||||||||||||||||||||||||||||MET061METAR KFCH 182255Z AUTO 31006KT 10SM CLR 20/01 A3022 RMK A01=||F||223|ICAO-KFCH
USW00023167|FRESNO CHANDLER DWTN AP|2022|02|18|23|15|36.7333|-119.8167|84.1|20.0||1|FM15-METAR|223|ICAO-KFCH|1.0||1|FM15-METAR|223|ICAO-KFCH|||||||||||||999|C-Calm|9|FM15-METAR|223|ICAO-KFCH|0.0|C-Calm|1|FM15-METAR|223|ICAO-KFCH|||||||||||||28|Derived||FM15-METAR|223|ICAO-KFCH|||||||||||||||||||||||||||||||||||||||||||||||||||||||||||||||||||||||||1023.0||1|FM15-METAR|223|ICAO-KFCH|||||||||||||||||||||||||||||||||||||||||||MET061METAR KFCH 182315Z AUTO 00000KT 10SM CLR 20/01 A3021 RMK A01=||F||223|ICAO-KFCH
USW00023167|FRESNO CHANDLER DWTN AP|2022|02|18|23|30|36.7333|-119.8167|84.1|20.0||1|FM15-METAR|223|ICAO-KFCH|2.0||1|FM15-METAR|223|ICAO-KFCH|||||||||||||330|N-Normal|1|FM15-METAR|223|ICAO-KFCH|1.5|N-Normal|1|FM15-METAR|223|ICAO-KFCH|||||||||||||30|Derived||FM15-METAR|223|ICAO-KFCH|||||||||||||||||||||||||||||||||||||||||||||||||||||||||||||||||||||||||1023.0||1|FM15-METAR|223|ICAO-KFCH|||||||||||||||||||||||||||||||||||||||||||MET061METAR KFCH 182330Z AUTO 33003KT 10SM CLR 20/02 A3021 RMK A01=||F||223|ICAO-KFCH
USW00023167|FRESNO CHANDLER DWTN AP|2022|02|18|23|55|36.7333|-119.8167|84.1|19.0||1|FM15-METAR|223|ICAO-KFCH|2.0||1|FM15-METAR|223|ICAO-KFCH|||||||||||||300|N-Normal|1|FM15-METAR|223|ICAO-KFCH|3.1|N-Normal|1|FM15-METAR|223|ICAO-KFCH|||||||||||||32|Derived||FM15-METAR|223|ICAO-KFCH|||||||||||||||||||||||||||||||||||||||||||||||||||||||||||||||||||||||||1022.7||1|FM15-METAR|223|ICAO-KFCH|||||||||||||||||||||||||||||||||||||||||||MET061METAR KFCH 182355Z AUTO 30006KT 10SM CLR 19/02 A3020 RMK A01=||F||223|ICAO-KFCH
USW00023167|FRESNO CHANDLER DWTN AP|2022|02|19|00|15|36.7333|-119.8167|84.1|19.0||1|FM15-METAR|223|ICAO-KFCH|3.0||1|FM15-METAR|223|ICAO-KFCH|||||||||||||320|N-Normal|1|FM15-METAR|223|ICAO-KFCH|2.6|N-Normal|1|FM15-METAR|223|ICAO-KFCH|||||||||||||35|Derived||FM15-METAR|223|ICAO-KFCH|||||||||||||||||||||||||||||||||||||||||||||||||||||||||||||||||||||||||1022.7||1|FM15-METAR|223|ICAO-KFCH|||||||||||||||||||||||||||||||||||||||||||MET061METAR KFCH 190015Z AUTO 32005KT 10SM CLR 19/03 A3020 RMK A01=||F||223|ICAO-KFCH
USW00023167|FRESNO CHANDLER DWTN AP|2022|02|19|00|35|36.7333|-119.8167|84.1|18.0||1|FM15-METAR|223|ICAO-KFCH|3.0||1|FM15-METAR|223|ICAO-KFCH|||||||||||||330|N-Normal|1|FM15-METAR|223|ICAO-KFCH|2.1|N-Normal|1|FM15-METAR|223|ICAO-KFCH|||||||||||||37|Derived||FM15-METAR|223|ICAO-KFCH|||||||||||||||||||||||||||||||||||||||||||||||||||||||||||||||||||||||||1022.7||1|FM15-METAR|223|ICAO-KFCH|||||||||||||||||||||||||||||||||||||||||||MET061METAR KFCH 190035Z AUTO 33004KT 10SM CLR 18/03 A3020 RMK A01=||F||223|ICAO-KFCH
USW00023167|FRESNO CHANDLER DWTN AP|2022|02|19|00|55|36.7333|-119.8167|84.1|18.0||1|FM15-METAR|223|ICAO-KFCH|3.0||1|FM15-METAR|223|ICAO-KFCH|||||||||||||330|N-Normal|1|FM15-METAR|223|ICAO-KFCH|2.1|N-Normal|1|FM15-METAR|223|ICAO-KFCH|||||||||||||37|Derived||FM15-METAR|223|ICAO-KFCH|||||||||||||||||||||||||||||||||||||||||||||||||||||||||||||||||||||||||1022.7||1|FM15-METAR|223|ICAO-KFCH|||||||||||||||||||||||||||||||||||||||||||MET061METAR KFCH 190055Z AUTO 33004KT 10SM CLR 18/03 A3020 RMK A01=||F||223|ICAO-KFCH
USW00023167|FRESNO CHANDLER DWTN AP|2022|02|19|01|15|36.7333|-119.8167|84.1|18.0||1|FM15-METAR|223|ICAO-KFCH|3.0||1|FM15-METAR|223|ICAO-KFCH|||||||||||||300|N-Normal|1|FM15-METAR|223|ICAO-KFCH|2.1|N-Normal|1|FM15-METAR|223|ICAO-KFCH|||||||||||||37|Derived||FM15-METAR|223|ICAO-KFCH|||||||||||||||||||||||||||||||||||||||||||||||||||||||||||||||||||||||||1022.3||1|FM15-METAR|223|ICAO-KFCH|||||||||||||||||||||||||||||||||||||||||||MET061METAR KFCH 190115Z AUTO 30004KT 10SM CLR 18/03 A3019 RMK A01=||F||223|ICAO-KFCH
USW00023167|FRESNO CHANDLER DWTN AP|2022|02|19|01|35|36.7333|-119.8167|84.1|17.0||1|FM15-METAR|223|ICAO-KFCH|3.0||1|FM15-METAR|223|ICAO-KFCH|||||||||||||300|N-Normal|1|FM15-METAR|223|ICAO-KFCH|2.6|N-Normal|1|FM15-METAR|223|ICAO-KFCH|||||||||||||39|Derived||FM15-METAR|223|ICAO-KFCH|||||||||||||||||||||||||||||||||||||||||||||||||||||||||||||||||||||||||1022.3||1|FM15-METAR|223|ICAO-KFCH|||||||||||||||||||||||||||||||||||||||||||MET061METAR KFCH 190135Z AUTO 30005KT 10SM CLR 17/03 A3019 RMK A01=||F||223|ICAO-KFCH
USW00023167|FRESNO CHANDLER DWTN AP|2022|02|19|01|55|36.7333|-119.8167|84.1|16.0||1|FM15-METAR|223|ICAO-KFCH|3.0||1|FM15-METAR|223|ICAO-KFCH|||||||||||||999|C-Calm|9|FM15-METAR|223|ICAO-KFCH|0.0|C-Calm|1|FM15-METAR|223|ICAO-KFCH|||||||||||||42|Derived||FM15-METAR|223|ICAO-KFCH|||||||||||||||||||||||||||||||||||||||||||||||||||||||||||||||||||||||||1022.3||1|FM15-METAR|223|ICAO-KFCH|||||||||||||||||||||||||||||||||||||||||||MET061METAR KFCH 190155Z AUTO 00000KT 10SM CLR 16/03 A3019 RMK A01=||F||223|ICAO-KFCH
USW00023167|FRESNO CHANDLER DWTN AP|2022|02|19|02|15|36.7333|-119.8167|84.1|16.0||1|FM15-METAR|223|ICAO-KFCH|3.0||1|FM15-METAR|223|ICAO-KFCH|||||||||||||999|C-Calm|9|FM15-METAR|223|ICAO-KFCH|0.0|C-Calm|1|FM15-METAR|223|ICAO-KFCH|||||||||||||42|Derived||FM15-METAR|223|ICAO-KFCH|||||||||||||||||||||||||||||||||||||||||||||||||||||||||||||||||||||||||1022.3||1|FM15-METAR|223|ICAO-KFCH|||||||||||||||||||||||||||||||||||||||||||MET061METAR KFCH 190215Z AUTO 00000KT 10SM CLR 16/03 A3019 RMK A01=||F||223|ICAO-KFCH
USW00023167|FRESNO CHANDLER DWTN AP|2022|02|19|02|35|36.7333|-119.8167|84.1|15.0||1|FM15-METAR|223|ICAO-KFCH|3.0||1|FM15-METAR|223|ICAO-KFCH|||||||||||||999|C-Calm|9|FM15-METAR|223|ICAO-KFCH|0.0|C-Calm|1|FM15-METAR|223|ICAO-KFCH|||||||||||||45|Derived||FM15-METAR|223|ICAO-KFCH|||||||||||||||||||||||||||||||||||||||||||||||||||||||||||||||||||||||||1022.7||1|FM15-METAR|223|ICAO-KFCH|||||||||||||||||||||||||||||||||||||||||||MET061METAR KFCH 190235Z AUTO 00000KT 10SM CLR 15/03 A3020 RMK A01=||F||223|ICAO-KFCH
USW00023167|FRESNO CHANDLER DWTN AP|2022|02|19|02|55|36.7333|-119.8167|84.1|14.0||1|FM15-METAR|223|ICAO-KFCH|3.0||1|FM15-METAR|223|ICAO-KFCH|||||||||||||999|C-Calm|9|FM15-METAR|223|ICAO-KFCH|0.0|C-Calm|1|FM15-METAR|223|ICAO-KFCH|||||||||||||48|Derived||FM15-METAR|223|ICAO-KFCH|||||||||||||||||||||||||||||||||||||||||||||||||||||||||||||||||||||||||1022.7||1|FM15-METAR|223|ICAO-KFCH|||||||||||||||||||||||||||||||||||||||||||MET061METAR KFCH 190255Z AUTO 00000KT 10SM CLR 14/03 A3020 RMK A01=||F||223|ICAO-KFCH
USW00023167|FRESNO CHANDLER DWTN AP|2022|02|19|03|15|36.7333|-119.8167|84.1|13.0||1|FM15-METAR|223|ICAO-KFCH|3.0||1|FM15-METAR|223|ICAO-KFCH|||||||||||||999|C-Calm|9|FM15-METAR|223|ICAO-KFCH|0.0|C-Calm|1|FM15-METAR|223|ICAO-KFCH|||||||||||||51|Derived||FM15-METAR|223|ICAO-KFCH|||||||||||||||||||||||||||||||||||||||||||||||||||||||||||||||||||||||||1022.7||1|FM15-METAR|223|ICAO-KFCH|||||||||||||||||||||||||||||||||||||||||||MET061METAR KFCH 190315Z AUTO 00000KT 10SM CLR 13/03 A3020 RMK A01=||F||223|ICAO-KFCH
USW00023167|FRESNO CHANDLER DWTN AP|2022|02|19|03|35|36.7333|-119.8167|84.1|13.0||1|FM15-METAR|223|ICAO-KFCH|3.0||1|FM15-METAR|223|ICAO-KFCH|||||||||||||999|C-Calm|9|FM15-METAR|223|ICAO-KFCH|0.0|C-Calm|1|FM15-METAR|223|ICAO-KFCH|||||||||||||51|Derived||FM15-METAR|223|ICAO-KFCH|||||||||||||||||||||||||||||||||||||||||||||||||||||||||||||||||||||||||1022.7||1|FM15-METAR|223|ICAO-KFCH|||||||||||||||||||||||||||||||||||||||||||MET057METAR KFCH 190335Z AUTO 00000KT 10SM 13/03 A3020 RMK A01=||F||223|ICAO-KFCH
USW00023167|FRESNO CHANDLER DWTN AP|2022|02|19|03|50|36.7333|-119.8167|84.1|13.0||1|FM15-METAR|223|ICAO-KFCH|3.0||1|FM15-METAR|223|ICAO-KFCH|||||||||||||999|C-Calm|9|FM15-METAR|223|ICAO-KFCH|0.0|C-Calm|1|FM15-METAR|223|ICAO-KFCH|||||||||||||51|Derived||FM15-METAR|223|ICAO-KFCH|||||||||||||||||||||||||||||||||||||||||||||||||||||||||||||||||||||||||1022.7||1|FM15-METAR|223|ICAO-KFCH|||||||||||||||||||||||||||||||||||||||||||MET057METAR KFCH 190350Z AUTO 00000KT 10SM 13/03 A3020 RMK A01=||F||223|ICAO-KFCH
USW00023167|FRESNO CHANDLER DWTN AP|2022|02|19|04|10|36.7333|-119.8167|84.1|12.0||1|FM15-METAR|223|ICAO-KFCH|4.0||1|FM15-METAR|223|ICAO-KFCH|||||||||||||999|C-Calm|9|FM15-METAR|223|ICAO-KFCH|0.0|C-Calm|1|FM15-METAR|223|ICAO-KFCH|||||||||||||58|Derived||FM15-METAR|223|ICAO-KFCH|||||||||||||||||||||||||||||||||||||||||||||||||||||||||||||||||||||||||1022.7||1|FM15-METAR|223|ICAO-KFCH|||||||||||||||||||||||||||||||||||||||||||MET061METAR KFCH 190410Z AUTO 00000KT 10SM CLR 12/04 A3020 RMK A01=||F||223|ICAO-KFCH
USW00023167|FRESNO CHANDLER DWTN AP|2022|02|19|04|35|36.7333|-119.8167|84.1|12.0||1|FM15-METAR|223|ICAO-KFCH|4.0||1|FM15-METAR|223|ICAO-KFCH|||||||||||||999|C-Calm|9|FM15-METAR|223|ICAO-KFCH|0.0|C-Calm|1|FM15-METAR|223|ICAO-KFCH|||||||||||||58|Derived||FM15-METAR|223|ICAO-KFCH|||||||||||||||||||||||||||||||||||||||||||||||||||||||||||||||||||||||||1022.7||1|FM15-METAR|223|ICAO-KFCH|||||||||||||||||||||||||||||||||||||||||||MET061METAR KFCH 190435Z AUTO 00000KT 10SM CLR 12/04 A3020 RMK A01=||F||223|ICAO-KFCH
USW00023167|FRESNO CHANDLER DWTN AP|2022|02|19|04|55|36.7333|-119.8167|84.1|11.0||1|FM15-METAR|223|ICAO-KFCH|4.0||1|FM15-METAR|223|ICAO-KFCH|||||||||||||999|C-Calm|9|FM15-METAR|223|ICAO-KFCH|0.0|C-Calm|1|FM15-METAR|223|ICAO-KFCH|||||||||||||62|Derived||FM15-METAR|223|ICAO-KFCH|||||||||||||||||||||||||||||||||||||||||||||||||||||||||||||||||||||||||1022.7||1|FM15-METAR|223|ICAO-KFCH|||||||||||||||||||||||||||||||||||||||||||MET061METAR KFCH 190455Z AUTO 00000KT 10SM CLR 11/04 A3020 RMK A01=||F||223|ICAO-KFCH
USW00023167|FRESNO CHANDLER DWTN AP|2022|02|19|05|10|36.7333|-119.8167|84.1|11.0||1|FM15-METAR|223|ICAO-KFCH|4.0||1|FM15-METAR|223|ICAO-KFCH|||||||||||||999|C-Calm|9|FM15-METAR|223|ICAO-KFCH|0.0|C-Calm|1|FM15-METAR|223|ICAO-KFCH|||||||||||||62|Derived||FM15-METAR|223|ICAO-KFCH|||||||||||||||||||||||||||||||||||||||||||||||||||||||||||||||||||||||||1022.7||1|FM15-METAR|223|ICAO-KFCH|||||||||||||||||||||||||||||||||||||||||||MET057METAR KFCH 190510Z AUTO 00000KT 10SM 11/04 A3020 RMK A01=||F||223|ICAO-KFCH
USW00023167|FRESNO CHANDLER DWTN AP|2022|02|19|05|35|36.7333|-119.8167|84.1|11.0||1|FM15-METAR|223|ICAO-KFCH|3.0||1|FM15-METAR|223|ICAO-KFCH|||||||||||||999|C-Calm|9|FM15-METAR|223|ICAO-KFCH|0.0|C-Calm|1|FM15-METAR|223|ICAO-KFCH|||||||||||||58|Derived||FM15-METAR|223|ICAO-KFCH|||||||||||||||||||||||||||||||||||||||||||||||||||||||||||||||||||||||||1022.7||1|FM15-METAR|223|ICAO-KFCH|||||||||||||||||||||||||||||||||||||||||||MET061METAR KFCH 190535Z AUTO 00000KT 10SM CLR 11/03 A3020 RMK A01=||F||223|ICAO-KFCH
USW00023167|FRESNO CHANDLER DWTN AP|2022|02|19|05|55|36.7333|-119.8167|84.1|10.0||1|FM15-METAR|223|ICAO-KFCH|3.0||1|FM15-METAR|223|ICAO-KFCH|||||||||||||999|C-Calm|9|FM15-METAR|223|ICAO-KFCH|0.0|C-Calm|1|FM15-METAR|223|ICAO-KFCH|||||||||||||62|Derived||FM15-METAR|223|ICAO-KFCH|||||||||||||||||||||||||||||||||||||||||||||||||||||||||||||||||||||||||1023.0||1|FM15-METAR|223|ICAO-KFCH|||||||||||||||||||||||||||||||||||||||||||MET061METAR KFCH 190555Z AUTO 00000KT 10SM CLR 10/03 A3021 RMK A01=||F||223|ICAO-KFCH
USW00023167|FRESNO CHANDLER DWTN AP|2022|02|19|06|15|36.7333|-119.8167|84.1|10.0||1|FM15-METAR|223|ICAO-KFCH|3.0||1|FM15-METAR|223|ICAO-KFCH|||||||||||||999|C-Calm|9|FM15-METAR|223|ICAO-KFCH|0.0|C-Calm|1|FM15-METAR|223|ICAO-KFCH|||||||||||||62|Derived||FM15-METAR|223|ICAO-KFCH|||||||||||||||||||||||||||||||||||||||||||||||||||||||||||||||||||||||||1023.0||1|FM15-METAR|223|ICAO-KFCH|||||||||||||||||||||||||||||||||||||||||||MET061METAR KFCH 190615Z AUTO 00000KT 10SM CLR 10/03 A3021 RMK A01=||F||223|ICAO-KFCH
USW00023167|FRESNO CHANDLER DWTN AP|2022|02|19|06|35|36.7333|-119.8167|84.1|10.0||1|FM15-METAR|223|ICAO-KFCH|4.0||1|FM15-METAR|223|ICAO-KFCH|||||||||||||999|C-Calm|9|FM15-METAR|223|ICAO-KFCH|0.0|C-Calm|1|FM15-METAR|223|ICAO-KFCH|||||||||||||67|Derived||FM15-METAR|223|ICAO-KFCH|||||||||||||||||||||||||||||||||||||||||||||||||||||||||||||||||||||||||1023.0||1|FM15-METAR|223|ICAO-KFCH|||||||||||||||||||||||||||||||||||||||||||MET061METAR KFCH 190635Z AUTO 00000KT 10SM CLR 10/04 A3021 RMK A01=||F||223|ICAO-KFCH
USW00023167|FRESNO CHANDLER DWTN AP|2022|02|19|06|55|36.7333|-119.8167|84.1|8.0||1|FM15-METAR|223|ICAO-KFCH|4.0||1|FM15-METAR|223|ICAO-KFCH|||||||||||||999|C-Calm|9|FM15-METAR|223|ICAO-KFCH|0.0|C-Calm|1|FM15-METAR|223|ICAO-KFCH|||||||||||||76|Derived||FM15-METAR|223|ICAO-KFCH|||||||||||||||||||||||||||||||||||||||||||||||||||||||||||||||||||||||||1023.0||1|FM15-METAR|223|ICAO-KFCH|||||||||||||||||||||||||||||||||||||||||||MET061METAR KFCH 190655Z AUTO 00000KT 10SM CLR 08/04 A3021 RMK A01=||F||223|ICAO-KFCH
USW00023167|FRESNO CHANDLER DWTN AP|2022|02|19|07|15|36.7333|-119.8167|84.1|8.0||1|FM15-METAR|223|ICAO-KFCH|4.0||1|FM15-METAR|223|ICAO-KFCH|||||||||||||999|C-Calm|9|FM15-METAR|223|ICAO-KFCH|0.0|C-Calm|1|FM15-METAR|223|ICAO-KFCH|||||||||||||76|Derived||FM15-METAR|223|ICAO-KFCH|||||||||||||||||||||||||||||||||||||||||||||||||||||||||||||||||||||||||1023.0||1|FM15-METAR|223|ICAO-KFCH|||||||||||||||||||||||||||||||||||||||||||MET061METAR KFCH 190715Z AUTO 00000KT 10SM CLR 08/04 A3021 RMK A01=||F||223|ICAO-KFCH
USW00023167|FRESNO CHANDLER DWTN AP|2022|02|19|07|35|36.7333|-119.8167|84.1|8.0||1|FM15-METAR|223|ICAO-KFCH|4.0||1|FM15-METAR|223|ICAO-KFCH|||||||||||||110|N-Normal|1|FM15-METAR|223|ICAO-KFCH|1.5|N-Normal|1|FM15-METAR|223|ICAO-KFCH|||||||||||||76|Derived||FM15-METAR|223|ICAO-KFCH|||||||||||||||||||||||||||||||||||||||||||||||||||||||||||||||||||||||||1022.7||1|FM15-METAR|223|ICAO-KFCH|||||||||||||||||||||||||||||||||||||||||||MET057METAR KFCH 190735Z AUTO 11003KT 10SM 08/04 A3020 RMK A01=||F||223|ICAO-KFCH
USW00023167|FRESNO CHANDLER DWTN AP|2022|02|19|07|50|36.7333|-119.8167|84.1|9.0||1|FM15-METAR|223|ICAO-KFCH|3.0||1|FM15-METAR|223|ICAO-KFCH|||||||||||||999|C-Calm|9|FM15-METAR|223|ICAO-KFCH|0.0|C-Calm|1|FM15-METAR|223|ICAO-KFCH|||||||||||||66|Derived||FM15-METAR|223|ICAO-KFCH|||||||||||||||||||||||||||||||||||||||||||||||||||||||||||||||||||||||||1022.7||1|FM15-METAR|223|ICAO-KFCH|||||||||||||||||||||||||||||||||||||||||||MET057METAR KFCH 190750Z AUTO 00000KT 10SM 09/03 A3020 RMK A01=||F||223|ICAO-KFCH
USW00023167|FRESNO CHANDLER DWTN AP|2022|02|19|08|15|36.7333|-119.8167|84.1|8.0||1|FM15-METAR|223|ICAO-KFCH|3.0||1|FM15-METAR|223|ICAO-KFCH|||||||||||||999|C-Calm|9|FM15-METAR|223|ICAO-KFCH|0.0|C-Calm|1|FM15-METAR|223|ICAO-KFCH|||||||||||||71|Derived||FM15-METAR|223|ICAO-KFCH|||||||||||||||||||||||||||||||||||||||||||||||||||||||||||||||||||||||||1022.7||1|FM15-METAR|223|ICAO-KFCH|||||||||||||||||||||||||||||||||||||||||||MET061METAR KFCH 190815Z AUTO 00000KT 10SM CLR 08/03 A3020 RMK A01=||F||223|ICAO-KFCH
USW00023167|FRESNO CHANDLER DWTN AP|2022|02|19|08|35|36.7333|-119.8167|84.1|8.0||1|FM15-METAR|223|ICAO-KFCH|3.0||1|FM15-METAR|223|ICAO-KFCH|||||||||||||999|C-Calm|9|FM15-METAR|223|ICAO-KFCH|0.0|C-Calm|1|FM15-METAR|223|ICAO-KFCH|||||||||||||71|Derived||FM15-METAR|223|ICAO-KFCH|||||||||||||||||||||||||||||||||||||||||||||||||||||||||||||||||||||||||1022.7||1|FM15-METAR|223|ICAO-KFCH|||||||||||||||||||||||||||||||||||||||||||MET061METAR KFCH 190835Z AUTO 00000KT 10SM CLR 08/03 A3020 RMK A01=||F||223|ICAO-KFCH
USW00023167|FRESNO CHANDLER DWTN AP|2022|02|19|08|55|36.7333|-119.8167|84.1|8.0||1|FM15-METAR|223|ICAO-KFCH|3.0||1|FM15-METAR|223|ICAO-KFCH|||||||||||||999|C-Calm|9|FM15-METAR|223|ICAO-KFCH|0.0|C-Calm|1|FM15-METAR|223|ICAO-KFCH|||||||||||||71|Derived||FM15-METAR|223|ICAO-KFCH|||||||||||||||||||||||||||||||||||||||||||||||||||||||||||||||||||||||||1022.7||1|FM15-METAR|223|ICAO-KFCH|||||||||||||||||||||||||||||||||||||||||||MET064METAR KFCH 190855Z AUTO 00000KT 10SM FEW070 08/03 A3020 RMK A01=||F||223|ICAO-KFCH
USW00023167|FRESNO CHANDLER DWTN AP|2022|02|19|09|15|36.7333|-119.8167|84.1|7.0||1|FM15-METAR|223|ICAO-KFCH|3.0||1|FM15-METAR|223|ICAO-KFCH|||||||||||||999|C-Calm|9|FM15-METAR|223|ICAO-KFCH|0.0|C-Calm|1|FM15-METAR|223|ICAO-KFCH|||||||||||||76|Derived||FM15-METAR|223|ICAO-KFCH|||||||||||||||||||||||||||||||||||||||||||||||||||||||||||||||||||||||||1022.7||1|FM15-METAR|223|ICAO-KFCH|||||||||||||||||||||||||||||||||||||||||||MET064METAR KFCH 190915Z AUTO 00000KT 10SM SCT070 07/03 A3020 RMK A01=||F||223|ICAO-KFCH
USW00023167|FRESNO CHANDLER DWTN AP|2022|02|19|09|35|36.7333|-119.8167|84.1|7.0||1|FM15-METAR|223|ICAO-KFCH|3.0||1|FM15-METAR|223|ICAO-KFCH|||||||||||||999|C-Calm|9|FM15-METAR|223|ICAO-KFCH|0.0|C-Calm|1|FM15-METAR|223|ICAO-KFCH|||||||||||||76|Derived||FM15-METAR|223|ICAO-KFCH|||||||||||||||||||||||||||||||||||||||||||||||||||||||||||||||||||||||||1022.3||1|FM15-METAR|223|ICAO-KFCH|||||||||||||||||||||||||||||||||||||||||||MET064METAR KFCH 190935Z AUTO 00000KT 10SM BKN070 07/03 A3019 RMK A01=||F||223|ICAO-KFCH
USW00023167|FRESNO CHANDLER DWTN AP|2022|02|19|09|55|36.7333|-119.8167|84.1|7.0||1|FM15-METAR|223|ICAO-KFCH|3.0||1|FM15-METAR|223|ICAO-KFCH|||||||||||||999|C-Calm|9|FM15-METAR|223|ICAO-KFCH|0.0|C-Calm|1|FM15-METAR|223|ICAO-KFCH|||||||||||||76|Derived||FM15-METAR|223|ICAO-KFCH|||||||||||||||||||||||||||||||||||||||||||||||||||||||||||||||||||||||||1022.3||1|FM15-METAR|223|ICAO-KFCH|||||||||||||||||||||||||||||||||||||||||||MET064METAR KFCH 190955Z AUTO 00000KT 10SM BKN070 07/03 A3019 RMK A01=||F||223|ICAO-KFCH
USW00023167|FRESNO CHANDLER DWTN AP|2022|02|19|10|15|36.7333|-119.8167|84.1|7.0||1|FM15-METAR|223|ICAO-KFCH|4.0||1|FM15-METAR|223|ICAO-KFCH|||||||||||||999|C-Calm|9|FM15-METAR|223|ICAO-KFCH|0.0|C-Calm|1|FM15-METAR|223|ICAO-KFCH|||||||||||||81|Derived||FM15-METAR|223|ICAO-KFCH|||||||||||||||||||||||||||||||||||||||||||||||||||||||||||||||||||||||||1022.3||1|FM15-METAR|223|ICAO-KFCH|||||||||||||||||||||||||||||||||||||||||||MET064METAR KFCH 191015Z AUTO 00000KT 10SM BKN070 07/04 A3019 RMK A01=||F||223|ICAO-KFCH
USW00023167|FRESNO CHANDLER DWTN AP|2022|02|19|10|30|36.7333|-119.8167|84.1|6.0||1|FM15-METAR|223|ICAO-KFCH|3.0||1|FM15-METAR|223|ICAO-KFCH|||||||||||||999|C-Calm|9|FM15-METAR|223|ICAO-KFCH|0.0|C-Calm|1|FM15-METAR|223|ICAO-KFCH|||||||||||||81|Derived||FM15-METAR|223|ICAO-KFCH|||||||||||||||||||||||||||||||||||||||||||||||||||||||||||||||||||||||||1022.3||1|FM15-METAR|223|ICAO-KFCH|||||||||||||||||||||||||||||||||||||||||||MET064METAR KFCH 191030Z AUTO 00000KT 10SM BKN070 06/03 A3019 RMK A01=||F||223|ICAO-KFCH
USW00023167|FRESNO CHANDLER DWTN AP|2022|02|19|10|55|36.7333|-119.8167|84.1|6.0||1|FM15-METAR|223|ICAO-KFCH|3.0||1|FM15-METAR|223|ICAO-KFCH|||||||||||||999|C-Calm|9|FM15-METAR|223|ICAO-KFCH|0.0|C-Calm|1|FM15-METAR|223|ICAO-KFCH|||||||||||||81|Derived||FM15-METAR|223|ICAO-KFCH|||||||||||||||||||||||||||||||||||||||||||||||||||||||||||||||||||||||||1022.3||1|FM15-METAR|223|ICAO-KFCH|||||||||||||||||||||||||||||||||||||||||||MET064METAR KFCH 191055Z AUTO 00000KT 10SM FEW070 06/03 A3019 RMK A01=||F||223|ICAO-KFCH
USW00023167|FRESNO CHANDLER DWTN AP|2022|02|19|11|15|36.7333|-119.8167|84.1|5.0||1|FM15-METAR|223|ICAO-KFCH|4.0||1|FM15-METAR|223|ICAO-KFCH|||||||||||||999|C-Calm|9|FM15-METAR|223|ICAO-KFCH|0.0|C-Calm|1|FM15-METAR|223|ICAO-KFCH|||||||||||||93|Derived||FM15-METAR|223|ICAO-KFCH|||||||||||||||||||||||||||||||||||||||||||||||||||||||||||||||||||||||||1022.0||1|FM15-METAR|223|ICAO-KFCH|||||||||||||||||||||||||||||||||||||||||||MET061METAR KFCH 191115Z AUTO 00000KT 10SM CLR 05/04 A3018 RMK A01=||F||223|ICAO-KFCH
USW00023167|FRESNO CHANDLER DWTN AP|2022|02|19|11|35|36.7333|-119.8167|84.1|5.0||1|FM15-METAR|223|ICAO-KFCH|3.0||1|FM15-METAR|223|ICAO-KFCH|||||||||||||999|C-Calm|9|FM15-METAR|223|ICAO-KFCH|0.0|C-Calm|1|FM15-METAR|223|ICAO-KFCH|||||||||||||87|Derived||FM15-METAR|223|ICAO-KFCH|||||||||||||||||||||||||||||||||||||||||||||||||||||||||||||||||||||||||1022.0||1|FM15-METAR|223|ICAO-KFCH|||||||||||||||||||||||||||||||||||||||||||MET061METAR KFCH 191135Z AUTO 00000KT 10SM CLR 05/03 A3018 RMK A01=||F||223|ICAO-KFCH
USW00023167|FRESNO CHANDLER DWTN AP|2022|02|19|11|50|36.7333|-119.8167|84.1|5.0||1|FM15-METAR|223|ICAO-KFCH|3.0||1|FM15-METAR|223|ICAO-KFCH|||||||||||||999|C-Calm|9|FM15-METAR|223|ICAO-KFCH|0.0|C-Calm|1|FM15-METAR|223|ICAO-KFCH|||||||||||||87|Derived||FM15-METAR|223|ICAO-KFCH|||||||||||||||||||||||||||||||||||||||||||||||||||||||||||||||||||||||||1022.0||1|FM15-METAR|223|ICAO-KFCH|||||||||||||||||||||||||||||||||||||||||||MET064METAR KFCH 191150Z AUTO 00000KT 10SM FEW055 05/03 A3018 RMK A01=||F||223|ICAO-KFCH
USW00023167|FRESNO CHANDLER DWTN AP|2022|02|19|12|15|36.7333|-119.8167|84.1|5.0||1|FM15-METAR|223|ICAO-KFCH|4.0||1|FM15-METAR|223|ICAO-KFCH|||||||||||||999|C-Calm|9|FM15-METAR|223|ICAO-KFCH|0.0|C-Calm|1|FM15-METAR|223|ICAO-KFCH|||||||||||||93|Derived||FM15-METAR|223|ICAO-KFCH|||||||||||||||||||||||||||||||||||||||||||||||||||||||||||||||||||||||||1021.7||1|FM15-METAR|223|ICAO-KFCH|||||||||||||||||||||||||||||||||||||||||||MET061METAR KFCH 191215Z AUTO 00000KT 10SM CLR 05/04 A3017 RMK A01=||F||223|ICAO-KFCH
USW00023167|FRESNO CHANDLER DWTN AP|2022|02|19|12|35|36.7333|-119.8167|84.1|5.0||1|FM15-METAR|223|ICAO-KFCH|3.0||1|FM15-METAR|223|ICAO-KFCH|||||||||||||999|C-Calm|9|FM15-METAR|223|ICAO-KFCH|0.0|C-Calm|1|FM15-METAR|223|ICAO-KFCH|||||||||||||87|Derived||FM15-METAR|223|ICAO-KFCH|||||||||||||||||||||||||||||||||||||||||||||||||||||||||||||||||||||||||1021.7||1|FM15-METAR|223|ICAO-KFCH|||||||||||||||||||||||||||||||||||||||||||MET061METAR KFCH 191235Z AUTO 00000KT 10SM CLR 05/03 A3017 RMK A01=||F||223|ICAO-KFCH
USW00023167|FRESNO CHANDLER DWTN AP|2022|02|19|12|50|36.7333|-119.8167|84.1|4.0||1|FM15-METAR|223|ICAO-KFCH|3.0||1|FM15-METAR|223|ICAO-KFCH|||||||||||||030|N-Normal|1|FM15-METAR|223|ICAO-KFCH|1.5|N-Normal|1|FM15-METAR|223|ICAO-KFCH|||||||||||||93|Derived||FM15-METAR|223|ICAO-KFCH|||||||||||||||||||||||||||||||||||||||||||||||||||||||||||||||||||||||||1021.7||1|FM15-METAR|223|ICAO-KFCH|||||||||||||||||||||||||||||||||||||||||||MET061METAR KFCH 191250Z AUTO 03003KT 10SM CLR 04/03 A3017 RMK A01=||F||223|ICAO-KFCH
USW00023167|FRESNO CHANDLER DWTN AP|2022|02|19|13|15|36.7333|-119.8167|84.1|5.0||1|FM15-METAR|223|ICAO-KFCH|3.0||1|FM15-METAR|223|ICAO-KFCH|||||||||||||999|C-Calm|9|FM15-METAR|223|ICAO-KFCH|0.0|C-Calm|1|FM15-METAR|223|ICAO-KFCH|||||||||||||87|Derived||FM15-METAR|223|ICAO-KFCH|||||||||||||||||||||||||||||||||||||||||||||||||||||||||||||||||||||||||1021.3||1|FM15-METAR|223|ICAO-KFCH|||||||||||||||||||||||||||||||||||||||||||MET061METAR KFCH 191315Z AUTO 00000KT 10SM CLR 05/03 A3016 RMK A01=||F||223|ICAO-KFCH
USW00023167|FRESNO CHANDLER DWTN AP|2022|02|19|13|35|36.7333|-119.8167|84.1|5.0||1|FM15-METAR|223|ICAO-KFCH|3.0||1|FM15-METAR|223|ICAO-KFCH|||||||||||||999|C-Calm|9|FM15-METAR|223|ICAO-KFCH|0.0|C-Calm|1|FM15-METAR|223|ICAO-KFCH|||||||||||||87|Derived||FM15-METAR|223|ICAO-KFCH|||||||||||||||||||||||||||||||||||||||||||||||||||||||||||||||||||||||||1021.3||1|FM15-METAR|223|ICAO-KFCH|||||||||||||||||||||||||||||||||||||||||||MET061METAR KFCH 191335Z AUTO 00000KT 10SM CLR 05/03 A3016 RMK A01=||F||223|ICAO-KFCH
USW00023167|FRESNO CHANDLER DWTN AP|2022|02|19|13|55|36.7333|-119.8167|84.1|5.0||1|FM15-METAR|223|ICAO-KFCH|2.0||1|FM15-METAR|223|ICAO-KFCH|||||||||||||999|C-Calm|9|FM15-METAR|223|ICAO-KFCH|0.0|C-Calm|1|FM15-METAR|223|ICAO-KFCH|||||||||||||81|Derived||FM15-METAR|223|ICAO-KFCH|||||||||||||||||||||||||||||||||||||||||||||||||||||||||||||||||||||||||1021.7||1|FM15-METAR|223|ICAO-KFCH|||||||||||||||||||||||||||||||||||||||||||MET061METAR KFCH 191355Z AUTO 00000KT 10SM CLR 05/02 A3017 RMK A01=||F||223|ICAO-KFCH
USW00023167|FRESNO CHANDLER DWTN AP|2022|02|19|14|15|36.7333|-119.8167|84.1|5.0||1|FM15-METAR|223|ICAO-KFCH|3.0||1|FM15-METAR|223|ICAO-KFCH|||||||||||||999|C-Calm|9|FM15-METAR|223|ICAO-KFCH|0.0|C-Calm|1|FM15-METAR|223|ICAO-KFCH|||||||||||||87|Derived||FM15-METAR|223|ICAO-KFCH|||||||||||||||||||||||||||||||||||||||||||||||||||||||||||||||||||||||||1021.7||1|FM15-METAR|223|ICAO-KFCH|||||||||||||||||||||||||||||||||||||||||||MET061METAR KFCH 191415Z AUTO 00000KT 10SM CLR 05/03 A3017 RMK A01=||F||223|ICAO-KFCH
USW00023167|FRESNO CHANDLER DWTN AP|2022|02|19|14|30|36.7333|-119.8167|84.1|4.0||1|FM15-METAR|223|ICAO-KFCH|3.0||1|FM15-METAR|223|ICAO-KFCH|||||||||||||999|C-Calm|9|FM15-METAR|223|ICAO-KFCH|0.0|C-Calm|1|FM15-METAR|223|ICAO-KFCH|||||||||||||93|Derived||FM15-METAR|223|ICAO-KFCH|||||||||||||||||||||||||||||||||||||||||||||||||||||||||||||||||||||||||1021.7||1|FM15-METAR|223|ICAO-KFCH|||||||||||||||||||||||||||||||||||||||||||MET061METAR KFCH 191430Z AUTO 00000KT 10SM CLR 04/03 A3017 RMK A01=||F||223|ICAO-KFCH
USW00023167|FRESNO CHANDLER DWTN AP|2022|02|19|14|55|36.7333|-119.8167|84.1|4.0||1|FM15-METAR|223|ICAO-KFCH|3.0||1|FM15-METAR|223|ICAO-KFCH|||||||||||||999|C-Calm|9|FM15-METAR|223|ICAO-KFCH|0.0|C-Calm|1|FM15-METAR|223|ICAO-KFCH|||||||||||||93|Derived||FM15-METAR|223|ICAO-KFCH|||||||||||||||||||||||||||||||||||||||||||||||||||||||||||||||||||||||||1021.7||1|FM15-METAR|223|ICAO-KFCH|||||||||||||||||||||||||||||||||||||||||||MET061METAR KFCH 191455Z AUTO 00000KT 10SM CLR 04/03 A3017 RMK A01=||F||223|ICAO-KFCH
USW00023167|FRESNO CHANDLER DWTN AP|2022|02|19|15|10|36.7333|-119.8167|84.1|4.0||1|FM15-METAR|223|ICAO-KFCH|3.0||1|FM15-METAR|223|ICAO-KFCH|||||||||||||999|C-Calm|9|FM15-METAR|223|ICAO-KFCH|0.0|C-Calm|1|FM15-METAR|223|ICAO-KFCH|||||||||||||93|Derived||FM15-METAR|223|ICAO-KFCH|||||||||||||||||||||||||||||||||||||||||||||||||||||||||||||||||||||||||1021.7||1|FM15-METAR|223|ICAO-KFCH|||||||||||||||||||||||||||||||||||||||||||MET061METAR KFCH 191510Z AUTO 00000KT 10SM CLR 04/03 A3017 RMK A01=||F||223|ICAO-KFCH
USW00023167|FRESNO CHANDLER DWTN AP|2022|02|19|15|30|36.7333|-119.8167|84.1|5.0||1|FM15-METAR|223|ICAO-KFCH|3.0||1|FM15-METAR|223|ICAO-KFCH|||||||||||||999|C-Calm|9|FM15-METAR|223|ICAO-KFCH|0.0|C-Calm|1|FM15-METAR|223|ICAO-KFCH|||||||||||||87|Derived||FM15-METAR|223|ICAO-KFCH|||||||||||||||||||||||||||||||||||||||||||||||||||||||||||||||||||||||||1021.7||1|FM15-METAR|223|ICAO-KFCH|||||||||||||||||||||||||||||||||||||||||||MET061METAR KFCH 191530Z AUTO 00000KT 10SM CLR 05/03 A3017 RMK A01=||F||223|ICAO-KFCH
USW00023167|FRESNO CHANDLER DWTN AP|2022|02|19|15|55|36.7333|-119.8167|84.1|6.0||1|FM15-METAR|223|ICAO-KFCH|4.0||1|FM15-METAR|223|ICAO-KFCH|||||||||||||999|C-Calm|9|FM15-METAR|223|ICAO-KFCH|0.0|C-Calm|1|FM15-METAR|223|ICAO-KFCH|||||||||||||87|Derived||FM15-METAR|223|ICAO-KFCH|||||||||||||||||||||||||||||||||||||||||||||||||||||||||||||||||||||||||1022.0||1|FM15-METAR|223|ICAO-KFCH|||||||||||||||||||||||||||||||||||||||||||MET061METAR KFCH 191555Z AUTO 00000KT 10SM CLR 06/04 A3018 RMK A01=||F||223|ICAO-KFCH
USW00023167|FRESNO CHANDLER DWTN AP|2022|02|19|16|10|36.7333|-119.8167|84.1|7.0||1|FM15-METAR|223|ICAO-KFCH|4.0||1|FM15-METAR|223|ICAO-KFCH|||||||||||||999|C-Calm|9|FM15-METAR|223|ICAO-KFCH|0.0|C-Calm|1|FM15-METAR|223|ICAO-KFCH|||||||||||||81|Derived||FM15-METAR|223|ICAO-KFCH|||||||||||||||||||||||||||||||||||||||||||||||||||||||||||||||||||||||||1022.3||1|FM15-METAR|223|ICAO-KFCH|||||||||||||||||||||||||||||||||||||||||||MET061METAR KFCH 191610Z AUTO 00000KT 10SM CLR 07/04 A3019 RMK A01=||F||223|ICAO-KFCH
USW00023167|FRESNO CHANDLER DWTN AP|2022|02|19|16|30|36.7333|-119.8167|84.1|9.0||1|FM15-METAR|223|ICAO-KFCH|4.0||1|FM15-METAR|223|ICAO-KFCH|||||||||||||999|C-Calm|9|FM15-METAR|223|ICAO-KFCH|0.0|C-Calm|1|FM15-METAR|223|ICAO-KFCH|||||||||||||71|Derived||FM15-METAR|223|ICAO-KFCH|||||||||||||||||||||||||||||||||||||||||||||||||||||||||||||||||||||||||1022.7||1|FM15-METAR|223|ICAO-KFCH|||||||||||||||||||||||||||||||||||||||||||MET061METAR KFCH 191630Z AUTO 00000KT 10SM CLR 09/04 A3020 RMK A01=||F||223|ICAO-KFCH
USW00023167|FRESNO CHANDLER DWTN AP|2022|02|19|16|55|36.7333|-119.8167|84.1|11.0||1|FM15-METAR|223|ICAO-KFCH|4.0||1|FM15-METAR|223|ICAO-KFCH|||||||||||||999|C-Calm|9|FM15-METAR|223|ICAO-KFCH|0.0|C-Calm|1|FM15-METAR|223|ICAO-KFCH|||||||||||||62|Derived||FM15-METAR|223|ICAO-KFCH|||||||||||||||||||||||||||||||||||||||||||||||||||||||||||||||||||||||||1022.7||1|FM15-METAR|223|ICAO-KFCH|||||||||||||||||||||||||||||||||||||||||||MET061METAR KFCH 191655Z AUTO 00000KT 10SM CLR 11/04 A3020 RMK A01=||F||223|ICAO-KFCH
USW00023167|FRESNO CHANDLER DWTN AP|2022|02|19|17|10|36.7333|-119.8167|84.1|12.0||1|FM15-METAR|223|ICAO-KFCH|3.0||1|FM15-METAR|223|ICAO-KFCH|||||||||||||999|C-Calm|9|FM15-METAR|223|ICAO-KFCH|0.0|C-Calm|1|FM15-METAR|223|ICAO-KFCH|||||||||||||54|Derived||FM15-METAR|223|ICAO-KFCH|||||||||||||||||||||||||||||||||||||||||||||||||||||||||||||||||||||||||1022.7||1|FM15-METAR|223|ICAO-KFCH|||||||||||||||||||||||||||||||||||||||||||MET061METAR KFCH 191710Z AUTO 00000KT 10SM CLR 12/03 A3020 RMK A01=||F||223|ICAO-KFCH
USW00023167|FRESNO CHANDLER DWTN AP|2022|02|19|17|35|36.7333|-119.8167|84.1|13.0||1|FM15-METAR|223|ICAO-KFCH|3.0||1|FM15-METAR|223|ICAO-KFCH|||||||||||||340|N-Normal|1|FM15-METAR|223|ICAO-KFCH|2.6|N-Normal|1|FM15-METAR|223|ICAO-KFCH|||||||||||||51|Derived||FM15-METAR|223|ICAO-KFCH|||||||||||||||||||||||||||||||||||||||||||||||||||||||||||||||||||||||||1022.3||1|FM15-METAR|223|ICAO-KFCH|||||||||||||||||||||||||||||||||||||||||||MET061METAR KFCH 191735Z AUTO 34005KT 10SM CLR 13/03 A3019 RMK A01=||F||223|ICAO-KFCH
USW00023167|FRESNO CHANDLER DWTN AP|2022|02|19|17|50|36.7333|-119.8167|84.1|14.0||1|FM15-METAR|223|ICAO-KFCH|3.0||1|FM15-METAR|223|ICAO-KFCH|||||||||||||320|N-Normal|1|FM15-METAR|223|ICAO-KFCH|2.1|N-Normal|1|FM15-METAR|223|ICAO-KFCH|||||||||||||48|Derived||FM15-METAR|223|ICAO-KFCH|||||||||||||||||||||||||||||||||||||||||||||||||||||||||||||||||||||||||1022.3||1|FM15-METAR|223|ICAO-KFCH|||||||||||||||||||||||||||||||||||||||||||MET061METAR KFCH 191750Z AUTO 32004KT 10SM CLR 14/03 A3019 RMK A01=||F||223|ICAO-KFCH
USW00023167|FRESNO CHANDLER DWTN AP|2022|02|19|18|10|36.7333|-119.8167|84.1|15.0||1|FM15-METAR|223|ICAO-KFCH|3.0||1|FM15-METAR|223|ICAO-KFCH|||||||||||||310|N-Normal|1|FM15-METAR|223|ICAO-KFCH|1.5|N-Normal|1|FM15-METAR|223|ICAO-KFCH|||||||||||||45|Derived||FM15-METAR|223|ICAO-KFCH|||||||||||||||||||||||||||||||||||||||||||||||||||||||||||||||||||||||||1022.3||1|FM15-METAR|223|ICAO-KFCH|||||||||||||||||||||||||||||||||||||||||||MET061METAR KFCH 191810Z AUTO 31003KT 10SM CLR 15/03 A3019 RMK A01=||F||223|ICAO-KFCH
USW00023167|FRESNO CHANDLER DWTN AP|2022|02|19|18|30|36.7333|-119.8167|84.1|15.0||1|FM15-METAR|223|ICAO-KFCH|2.0||1|FM15-METAR|223|ICAO-KFCH|||||||||||||300|N-Normal|1|FM15-METAR|223|ICAO-KFCH|2.6|N-Normal|1|FM15-METAR|223|ICAO-KFCH|||||||||||||42|Derived||FM15-METAR|223|ICAO-KFCH|||||||||||||||||||||||||||||||||||||||||||||||||||||||||||||||||||||||||1022.3||1|FM15-METAR|223|ICAO-KFCH|||||||||||||||||||||||||||||||||||||||||||MET061METAR KFCH 191830Z AUTO 30005KT 10SM CLR 15/02 A3019 RMK A01=||F||223|ICAO-KFCH
USW00023167|FRESNO CHANDLER DWTN AP|2022|02|19|18|50|36.7333|-119.8167|84.1|16.0||1|FM15-METAR|223|ICAO-KFCH|3.0||1|FM15-METAR|223|ICAO-KFCH|||||||||||||999|C-Calm|9|FM15-METAR|223|ICAO-KFCH|0.0|C-Calm|1|FM15-METAR|223|ICAO-KFCH|||||||||||||42|Derived||FM15-METAR|223|ICAO-KFCH|||||||||||||||||||||||||||||||||||||||||||||||||||||||||||||||||||||||||1022.0||1|FM15-METAR|223|ICAO-KFCH|||||||||||||||||||||||||||||||||||||||||||MET061METAR KFCH 191850Z AUTO 00000KT 10SM CLR 16/03 A3018 RMK A01=||F||223|ICAO-KFCH
USW00023167|FRESNO CHANDLER DWTN AP|2022|02|19|19|10|36.7333|-119.8167|84.1|17.0||1|FM15-METAR|223|ICAO-KFCH|2.0||1|FM15-METAR|223|ICAO-KFCH|||||||||||||999|V-Variable|9|FM15-METAR|223|ICAO-KFCH|2.1|V-Variable|1|FM15-METAR|223|ICAO-KFCH|||||||||||||37|Derived||FM15-METAR|223|ICAO-KFCH|||||||||||||||||||||||||||||||||||||||||||||||||||||||||||||||||||||||||1022.0||1|FM15-METAR|223|ICAO-KFCH|||||||||||||||||||||||||||||||||||||||||||MET061METAR KFCH 191910Z AUTO VRB04KT 10SM CLR 17/02 A3018 RMK A01=||F||223|ICAO-KFCH
USW00023167|FRESNO CHANDLER DWTN AP|2022|02|19|19|35|36.7333|-119.8167|84.1|18.0||1|FM15-METAR|223|ICAO-KFCH|3.0||1|FM15-METAR|223|ICAO-KFCH|||||||||||||999|C-Calm|9|FM15-METAR|223|ICAO-KFCH|0.0|C-Calm|1|FM15-METAR|223|ICAO-KFCH|||||||||||||37|Derived||FM15-METAR|223|ICAO-KFCH|||||||||||||||||||||||||||||||||||||||||||||||||||||||||||||||||||||||||1021.7||1|FM15-METAR|223|ICAO-KFCH|||||||||||||||||||||||||||||||||||||||||||MET061METAR KFCH 191935Z AUTO 00000KT 10SM CLR 18/03 A3017 RMK A01=||F||223|ICAO-KFCH
USW00023167|FRESNO CHANDLER DWTN AP|2022|02|19|19|55|36.7333|-119.8167|84.1|18.0||1|FM15-METAR|223|ICAO-KFCH|3.0||1|FM15-METAR|223|ICAO-KFCH|||||||||||||280|N-Normal|1|FM15-METAR|223|ICAO-KFCH|3.1|N-Normal|1|FM15-METAR|223|ICAO-KFCH|||||||||||||37|Derived||FM15-METAR|223|ICAO-KFCH|||||||||||||||||||||||||||||||||||||||||||||||||||||||||||||||||||||||||1021.3||1|FM15-METAR|223|ICAO-KFCH|||||||||||||||||||||||||||||||||||||||||||MET061METAR KFCH 191955Z AUTO 28006KT 10SM CLR 18/03 A3016 RMK A01=||F||223|ICAO-KFCH
USW00023167|FRESNO CHANDLER DWTN AP|2022|02|19|20|15|36.7333|-119.8167|84.1|18.0||1|FM15-METAR|223|ICAO-KFCH|2.0||1|FM15-METAR|223|ICAO-KFCH|||||||||||||999|C-Calm|9|FM15-METAR|223|ICAO-KFCH|0.0|C-Calm|1|FM15-METAR|223|ICAO-KFCH|||||||||||||34|Derived||FM15-METAR|223|ICAO-KFCH|||||||||||||||||||||||||||||||||||||||||||||||||||||||||||||||||||||||||1021.0||1|FM15-METAR|223|ICAO-KFCH|||||||||||||||||||||||||||||||||||||||||||MET061METAR KFCH 192015Z AUTO 00000KT 10SM CLR 18/02 A3015 RMK A01=||F||223|ICAO-KFCH
USW00023167|FRESNO CHANDLER DWTN AP|2022|02|19|20|35|36.7333|-119.8167|84.1|19.0||1|FM15-METAR|223|ICAO-KFCH|3.0||1|FM15-METAR|223|ICAO-KFCH|||||||||||||290|N-Normal|1|FM15-METAR|223|ICAO-KFCH|3.6|N-Normal|1|FM15-METAR|223|ICAO-KFCH|||||||||||||35|Derived||FM15-METAR|223|ICAO-KFCH|||||||||||||||||||||||||||||||||||||||||||||||||||||||||||||||||||||||||1020.3||1|FM15-METAR|223|ICAO-KFCH|||||||||||||||||||||||||||||||||||||||||||MET061METAR KFCH 192035Z AUTO 29007KT 10SM CLR 19/03 A3013 RMK A01=||F||223|ICAO-KFCH
USW00023167|FRESNO CHANDLER DWTN AP|2022|02|19|20|55|36.7333|-119.8167|84.1|20.0||1|FM15-METAR|223|ICAO-KFCH|3.0||1|FM15-METAR|223|ICAO-KFCH|||||||||||||300|N-Normal|1|FM15-METAR|223|ICAO-KFCH|4.1|N-Normal|1|FM15-METAR|223|ICAO-KFCH|||||||||||||33|Derived||FM15-METAR|223|ICAO-KFCH|||||||||||||||||||||||||||||||||||||||||||||||||||||||||||||||||||||||||1020.0||1|FM15-METAR|223|ICAO-KFCH|||||||||||||||||||||||||||||||||||||||||||MET061METAR KFCH 192055Z AUTO 30008KT 10SM CLR 20/03 A3012 RMK A01=||F||223|ICAO-KFCH
USW00023167|FRESNO CHANDLER DWTN AP|2022|02|19|21|15|36.7333|-119.8167|84.1|20.0||1|FM15-METAR|223|ICAO-KFCH|2.0||1|FM15-METAR|223|ICAO-KFCH|||||||||||||310|N-Normal|1|FM15-METAR|223|ICAO-KFCH|3.6|N-Normal|1|FM15-METAR|223|ICAO-KFCH|||||||||||||30|Derived||FM15-METAR|223|ICAO-KFCH|||||||||||||||||||||||||||||||||||||||||||||||||||||||||||||||||||||||||1019.6||1|FM15-METAR|223|ICAO-KFCH|||||||||||||||||||||||||||||||||||||||||||MET061METAR KFCH 192115Z AUTO 31007KT 10SM CLR 20/02 A3011 RMK A01=||F||223|ICAO-KFCH
USW00023167|FRESNO CHANDLER DWTN AP|2022|02|19|21|35|36.7333|-119.8167|84.1|20.0||1|FM15-METAR|223|ICAO-KFCH|2.0||1|FM15-METAR|223|ICAO-KFCH|||||||||||||280|N-Normal|1|FM15-METAR|223|ICAO-KFCH|2.6|N-Normal|1|FM15-METAR|223|ICAO-KFCH|||||||||||||30|Derived||FM15-METAR|223|ICAO-KFCH|||||||||||||||||||||||||||||||||||||||||||||||||||||||||||||||||||||||||1019.3||1|FM15-METAR|223|ICAO-KFCH|||||||||||||||||||||||||||||||||||||||||||MET061METAR KFCH 192135Z AUTO 28005KT 10SM CLR 20/02 A3010 RMK A01=||F||223|ICAO-KFCH
USW00023167|FRESNO CHANDLER DWTN AP|2022|02|19|21|55|36.7333|-119.8167|84.1|21.0||1|FM15-METAR|223|ICAO-KFCH|2.0||1|FM15-METAR|223|ICAO-KFCH|||||||||||||310|N-Normal|1|FM15-METAR|223|ICAO-KFCH|2.6|N-Normal|1|FM15-METAR|223|ICAO-KFCH|||||||||||||29|Derived||FM15-METAR|223|ICAO-KFCH|||||||||||||||||||||||||||||||||||||||||||||||||||||||||||||||||||||||||1019.0||1|FM15-METAR|223|ICAO-KFCH|||||||||||||||||||||||||||||||||||||||||||MET061METAR KFCH 192155Z AUTO 31005KT 10SM CLR 21/02 A3009 RMK A01=||F||223|ICAO-KFCH
USW00023167|FRESNO CHANDLER DWTN AP|2022|02|19|22|15|36.7333|-119.8167|84.1|22.0||1|FM15-METAR|223|ICAO-KFCH|2.0||1|FM15-METAR|223|ICAO-KFCH|||||||||||||300|N-Normal|1|FM15-METAR|223|ICAO-KFCH|2.6|N-Normal|1|FM15-METAR|223|ICAO-KFCH|||||||||||||27|Derived||FM15-METAR|223|ICAO-KFCH|||||||||||||||||||||||||||||||||||||||||||||||||||||||||||||||||||||||||1018.6||1|FM15-METAR|223|ICAO-KFCH|||||||||||||||||||||||||||||||||||||||||||MET061METAR KFCH 192215Z AUTO 30005KT 10SM CLR 22/02 A3008 RMK A01=||F||223|ICAO-KFCH
USW00023167|FRESNO CHANDLER DWTN AP|2022|02|19|22|30|36.7333|-119.8167|84.1|22.0||1|FM15-METAR|223|ICAO-KFCH|2.0||1|FM15-METAR|223|ICAO-KFCH|||||||||||||350|N-Normal|1|FM15-METAR|223|ICAO-KFCH|3.1|N-Normal|1|FM15-METAR|223|ICAO-KFCH|||||||||||||27|Derived||FM15-METAR|223|ICAO-KFCH|||||||||||||||||||||||||||||||||||||||||||||||||||||||||||||||||||||||||1018.6||1|FM15-METAR|223|ICAO-KFCH|||||||||||||||||||||||||||||||||||||||||||MET061METAR KFCH 192230Z AUTO 35006KT 10SM CLR 22/02 A3008 RMK A01=||F||223|ICAO-KFCH
USW00023167|FRESNO CHANDLER DWTN AP|2022|02|19|22|55|36.7333|-119.8167|84.1|22.0||1|FM15-METAR|223|ICAO-KFCH|1.0||1|FM15-METAR|223|ICAO-KFCH|||||||||||||310|N-Normal|1|FM15-METAR|223|ICAO-KFCH|4.1|N-Normal|1|FM15-METAR|223|ICAO-KFCH|||||||||||||25|Derived||FM15-METAR|223|ICAO-KFCH|||||||||||||||||||||||||||||||||||||||||||||||||||||||||||||||||||||||||1018.3||1|FM15-METAR|223|ICAO-KFCH|||||||||||||||||||||||||||||||||||||||||||MET061METAR KFCH 192255Z AUTO 31008KT 10SM CLR 22/01 A3007 RMK A01=||F||223|ICAO-KFCH
USW00023167|FRESNO CHANDLER DWTN AP|2022|02|19|23|15|36.7333|-119.8167|84.1|22.0||1|FM15-METAR|223|ICAO-KFCH|1.0||1|FM15-METAR|223|ICAO-KFCH|||||||||||||330|N-Normal|1|FM15-METAR|223|ICAO-KFCH|3.1|N-Normal|1|FM15-METAR|223|ICAO-KFCH|||||||||||||25|Derived||FM15-METAR|223|ICAO-KFCH|||||||||||||||||||||||||||||||||||||||||||||||||||||||||||||||||||||||||1018.3||1|FM15-METAR|223|ICAO-KFCH|||||||||||||||||||||||||||||||||||||||||||MET061METAR KFCH 192315Z AUTO 33006KT 10SM CLR 22/01 A3007 RMK A01=||F||223|ICAO-KFCH
USW00023167|FRESNO CHANDLER DWTN AP|2022|02|19|23|35|36.7333|-119.8167|84.1|22.0||1|FM15-METAR|223|ICAO-KFCH|1.0||1|FM15-METAR|223|ICAO-KFCH|||||||||||||320|N-Normal|1|FM15-METAR|223|ICAO-KFCH|3.6|N-Normal|1|FM15-METAR|223|ICAO-KFCH|||||||||||||25|Derived||FM15-METAR|223|ICAO-KFCH|||||||||||||||||||||||||||||||||||||||||||||||||||||||||||||||||||||||||1017.9||1|FM15-METAR|223|ICAO-KFCH|||||||||||||||||||||||||||||||||||||||||||MET061METAR KFCH 192335Z AUTO 32007KT 10SM CLR 22/01 A3006 RMK A01=||F||223|ICAO-KFCH
USW00023167|FRESNO CHANDLER DWTN AP|2022|02|19|23|55|36.7333|-119.8167|84.1|22.0||1|FM15-METAR|223|ICAO-KFCH|2.0||1|FM15-METAR|223|ICAO-KFCH|||||||||||||310|N-Normal|1|FM15-METAR|223|ICAO-KFCH|3.6|N-Normal|1|FM15-METAR|223|ICAO-KFCH|||||||||||||27|Derived||FM15-METAR|223|ICAO-KFCH|||||||||||||||||||||||||||||||||||||||||||||||||||||||||||||||||||||||||1017.9||1|FM15-METAR|223|ICAO-KFCH|||||||||||||||||||||||||||||||||||||||||||MET061METAR KFCH 192355Z AUTO 31007KT 10SM CLR 22/02 A3006 RMK A01=||F||223|ICAO-KFCH
USW00023167|FRESNO CHANDLER DWTN AP|2022|02|20|00|15|36.7333|-119.8167|84.1|22.0||1|FM15-METAR|223|ICAO-KFCH|1.0||1|FM15-METAR|223|ICAO-KFCH|||||||||||||320|N-Normal|1|FM15-METAR|223|ICAO-KFCH|3.6|N-Normal|1|FM15-METAR|223|ICAO-KFCH|||||||||||||25|Derived||FM15-METAR|223|ICAO-KFCH|||||||||||||||||||||||||||||||||||||||||||||||||||||||||||||||||||||||||1017.6||1|FM15-METAR|223|ICAO-KFCH|||||||||||||||||||||||||||||||||||||||||||MET061METAR KFCH 200015Z AUTO 32007KT 10SM CLR 22/01 A3005 RMK A01=||F||223|ICAO-KFCH
USW00023167|FRESNO CHANDLER DWTN AP|2022|02|20|00|30|36.7333|-119.8167|84.1|22.0||1|FM15-METAR|223|ICAO-KFCH|1.0||1|FM15-METAR|223|ICAO-KFCH|||||||||||||330|N-Normal|1|FM15-METAR|223|ICAO-KFCH|3.1|N-Normal|1|FM15-METAR|223|ICAO-KFCH|||||||||||||25|Derived||FM15-METAR|223|ICAO-KFCH|||||||||||||||||||||||||||||||||||||||||||||||||||||||||||||||||||||||||1017.6||1|FM15-METAR|223|ICAO-KFCH|||||||||||||||||||||||||||||||||||||||||||MET061METAR KFCH 200030Z AUTO 33006KT 10SM CLR 22/01 A3005 RMK A01=||F||223|ICAO-KFCH
USW00023167|FRESNO CHANDLER DWTN AP|2022|02|20|00|55|36.7333|-119.8167|84.1|21.0||1|FM15-METAR|223|ICAO-KFCH|1.0||1|FM15-METAR|223|ICAO-KFCH|||||||||||||310|N-Normal|1|FM15-METAR|223|ICAO-KFCH|2.6|N-Normal|1|FM15-METAR|223|ICAO-KFCH|||||||||||||27|Derived||FM15-METAR|223|ICAO-KFCH|||||||||||||||||||||||||||||||||||||||||||||||||||||||||||||||||||||||||1017.3||1|FM15-METAR|223|ICAO-KFCH|||||||||||||||||||||||||||||||||||||||||||MET061METAR KFCH 200055Z AUTO 31005KT 10SM CLR 21/01 A3004 RMK A01=||F||223|ICAO-KFCH
USW00023167|FRESNO CHANDLER DWTN AP|2022|02|20|01|15|36.7333|-119.8167|84.1|21.0||1|FM15-METAR|223|ICAO-KFCH|1.0||1|FM15-METAR|223|ICAO-KFCH|||||||||||||330|N-Normal|1|FM15-METAR|223|ICAO-KFCH|2.6|N-Normal|1|FM15-METAR|223|ICAO-KFCH|||||||||||||27|Derived||FM15-METAR|223|ICAO-KFCH|||||||||||||||||||||||||||||||||||||||||||||||||||||||||||||||||||||||||1017.3||1|FM15-METAR|223|ICAO-KFCH|||||||||||||||||||||||||||||||||||||||||||MET061METAR KFCH 200115Z AUTO 33005KT 10SM CLR 21/01 A3004 RMK A01=||F||223|ICAO-KFCH
USW00023167|FRESNO CHANDLER DWTN AP|2022|02|20|01|35|36.7333|-119.8167|84.1|20.0||1|FM15-METAR|223|ICAO-KFCH|1.0||1|FM15-METAR|223|ICAO-KFCH|||||||||||||330|N-Normal|1|FM15-METAR|223|ICAO-KFCH|2.6|N-Normal|1|FM15-METAR|223|ICAO-KFCH|||||||||||||28|Derived||FM15-METAR|223|ICAO-KFCH|||||||||||||||||||||||||||||||||||||||||||||||||||||||||||||||||||||||||1017.3||1|FM15-METAR|223|ICAO-KFCH|||||||||||||||||||||||||||||||||||||||||||MET061METAR KFCH 200135Z AUTO 33005KT 10SM CLR 20/01 A3004 RMK A01=||F||223|ICAO-KFCH
USW00023167|FRESNO CHANDLER DWTN AP|2022|02|20|01|55|36.7333|-119.8167|84.1|20.0||1|FM15-METAR|223|ICAO-KFCH|1.0||1|FM15-METAR|223|ICAO-KFCH|||||||||||||330|N-Normal|1|FM15-METAR|223|ICAO-KFCH|1.5|N-Normal|1|FM15-METAR|223|ICAO-KFCH|||||||||||||28|Derived||FM15-METAR|223|ICAO-KFCH|||||||||||||||||||||||||||||||||||||||||||||||||||||||||||||||||||||||||1017.3||1|FM15-METAR|223|ICAO-KFCH|||||||||||||||||||||||||||||||||||||||||||MET061METAR KFCH 200155Z AUTO 33003KT 10SM CLR 20/01 A3004 RMK A01=||F||223|ICAO-KFCH
USW00023167|FRESNO CHANDLER DWTN AP|2022|02|20|02|15|36.7333|-119.8167|84.1|19.0||1|FM15-METAR|223|ICAO-KFCH|1.0||1|FM15-METAR|223|ICAO-KFCH|||||||||||||010|N-Normal|1|FM15-METAR|223|ICAO-KFCH|2.1|N-Normal|1|FM15-METAR|223|ICAO-KFCH|||||||||||||30|Derived||FM15-METAR|223|ICAO-KFCH|||||||||||||||||||||||||||||||||||||||||||||||||||||||||||||||||||||||||1017.3||1|FM15-METAR|223|ICAO-KFCH|||||||||||||||||||||||||||||||||||||||||||MET061METAR KFCH 200215Z AUTO 01004KT 10SM CLR 19/01 A3004 RMK A01=||F||223|ICAO-KFCH
USW00023167|FRESNO CHANDLER DWTN AP|2022|02|20|02|35|36.7333|-119.8167|84.1|18.0||1|FM15-METAR|223|ICAO-KFCH|2.0||1|FM15-METAR|223|ICAO-KFCH|||||||||||||999|C-Calm|9|FM15-METAR|223|ICAO-KFCH|0.0|C-Calm|1|FM15-METAR|223|ICAO-KFCH|||||||||||||34|Derived||FM15-METAR|223|ICAO-KFCH|||||||||||||||||||||||||||||||||||||||||||||||||||||||||||||||||||||||||1017.3||1|FM15-METAR|223|ICAO-KFCH|||||||||||||||||||||||||||||||||||||||||||MET061METAR KFCH 200235Z AUTO 00000KT 10SM CLR 18/02 A3004 RMK A01=||F||223|ICAO-KFCH
USW00023167|FRESNO CHANDLER DWTN AP|2022|02|20|02|55|36.7333|-119.8167|84.1|17.0||1|FM15-METAR|223|ICAO-KFCH|2.0||1|FM15-METAR|223|ICAO-KFCH|||||||||||||999|C-Calm|9|FM15-METAR|223|ICAO-KFCH|0.0|C-Calm|1|FM15-METAR|223|ICAO-KFCH|||||||||||||37|Derived||FM15-METAR|223|ICAO-KFCH|||||||||||||||||||||||||||||||||||||||||||||||||||||||||||||||||||||||||1017.3||1|FM15-METAR|223|ICAO-KFCH|||||||||||||||||||||||||||||||||||||||||||MET061METAR KFCH 200255Z AUTO 00000KT 10SM CLR 17/02 A3004 RMK A01=||F||223|ICAO-KFCH
USW00023167|FRESNO CHANDLER DWTN AP|2022|02|20|03|15|36.7333|-119.8167|84.1|16.0||1|FM15-METAR|223|ICAO-KFCH|3.0||1|FM15-METAR|223|ICAO-KFCH|||||||||||||270|N-Normal|1|FM15-METAR|223|ICAO-KFCH|2.1|N-Normal|1|FM15-METAR|223|ICAO-KFCH|||||||||||||42|Derived||FM15-METAR|223|ICAO-KFCH|||||||||||||||||||||||||||||||||||||||||||||||||||||||||||||||||||||||||1017.3||1|FM15-METAR|223|ICAO-KFCH|||||||||||||||||||||||||||||||||||||||||||MET061METAR KFCH 200315Z AUTO 27004KT 10SM CLR 16/03 A3004 RMK A01=||F||223|ICAO-KFCH
USW00023167|FRESNO CHANDLER DWTN AP|2022|02|20|03|35|36.7333|-119.8167|84.1|14.0||1|FM15-METAR|223|ICAO-KFCH|3.0||1|FM15-METAR|223|ICAO-KFCH|||||||||||||280|N-Normal|1|FM15-METAR|223|ICAO-KFCH|1.5|N-Normal|1|FM15-METAR|223|ICAO-KFCH|||||||||||||48|Derived||FM15-METAR|223|ICAO-KFCH|||||||||||||||||||||||||||||||||||||||||||||||||||||||||||||||||||||||||1017.3||1|FM15-METAR|223|ICAO-KFCH|||||||||||||||||||||||||||||||||||||||||||MET061METAR KFCH 200335Z AUTO 28003KT 10SM CLR 14/03 A3004 RMK A01=||F||223|ICAO-KFCH
USW00023167|FRESNO CHANDLER DWTN AP|2022|02|20|03|55|36.7333|-119.8167|84.1|14.0||1|FM15-METAR|223|ICAO-KFCH|3.0||1|FM15-METAR|223|ICAO-KFCH|||||||||||||999|C-Calm|9|FM15-METAR|223|ICAO-KFCH|0.0|C-Calm|1|FM15-METAR|223|ICAO-KFCH|||||||||||||48|Derived||FM15-METAR|223|ICAO-KFCH|||||||||||||||||||||||||||||||||||||||||||||||||||||||||||||||||||||||||1017.3||1|FM15-METAR|223|ICAO-KFCH|||||||||||||||||||||||||||||||||||||||||||MET061METAR KFCH 200355Z AUTO 00000KT 10SM CLR 14/03 A3004 RMK A01=||F||223|ICAO-KFCH
USW00023167|FRESNO CHANDLER DWTN AP|2022|02|20|04|15|36.7333|-119.8167|84.1|13.0||1|FM15-METAR|223|ICAO-KFCH|3.0||1|FM15-METAR|223|ICAO-KFCH|||||||||||||999|C-Calm|9|FM15-METAR|223|ICAO-KFCH|0.0|C-Calm|1|FM15-METAR|223|ICAO-KFCH|||||||||||||51|Derived||FM15-METAR|223|ICAO-KFCH|||||||||||||||||||||||||||||||||||||||||||||||||||||||||||||||||||||||||1017.3||1|FM15-METAR|223|ICAO-KFCH|||||||||||||||||||||||||||||||||||||||||||MET061METAR KFCH 200415Z AUTO 00000KT 10SM CLR 13/03 A3004 RMK A01=||F||223|ICAO-KFCH
USW00023167|FRESNO CHANDLER DWTN AP|2022|02|20|04|35|36.7333|-119.8167|84.1|13.0||1|FM15-METAR|223|ICAO-KFCH|3.0||1|FM15-METAR|223|ICAO-KFCH|||||||||||||999|C-Calm|9|FM15-METAR|223|ICAO-KFCH|0.0|C-Calm|1|FM15-METAR|223|ICAO-KFCH|||||||||||||51|Derived||FM15-METAR|223|ICAO-KFCH|||||||||||||||||||||||||||||||||||||||||||||||||||||||||||||||||||||||||1017.6||1|FM15-METAR|223|ICAO-KFCH|||||||||||||||||||||||||||||||||||||||||||MET057METAR KFCH 200435Z AUTO 00000KT 10SM 13/03 A3005 RMK A01=||F||223|ICAO-KFCH
USW00023167|FRESNO CHANDLER DWTN AP|2022|02|20|04|55|36.7333|-119.8167|84.1|12.0||1|FM15-METAR|223|ICAO-KFCH|3.0||1|FM15-METAR|223|ICAO-KFCH|||||||||||||999|C-Calm|9|FM15-METAR|223|ICAO-KFCH|0.0|C-Calm|1|FM15-METAR|223|ICAO-KFCH|||||||||||||54|Derived||FM15-METAR|223|ICAO-KFCH|||||||||||||||||||||||||||||||||||||||||||||||||||||||||||||||||||||||||1017.6||1|FM15-METAR|223|ICAO-KFCH|||||||||||||||||||||||||||||||||||||||||||MET061METAR KFCH 200455Z AUTO 00000KT 10SM CLR 12/03 A3005 RMK A01=||F||223|ICAO-KFCH
USW00023167|FRESNO CHANDLER DWTN AP|2022|02|20|05|15|36.7333|-119.8167|84.1|12.0||1|FM15-METAR|223|ICAO-KFCH|3.0||1|FM15-METAR|223|ICAO-KFCH|||||||||||||999|C-Calm|9|FM15-METAR|223|ICAO-KFCH|0.0|C-Calm|1|FM15-METAR|223|ICAO-KFCH|||||||||||||54|Derived||FM15-METAR|223|ICAO-KFCH|||||||||||||||||||||||||||||||||||||||||||||||||||||||||||||||||||||||||1017.6||1|FM15-METAR|223|ICAO-KFCH|||||||||||||||||||||||||||||||||||||||||||MET061METAR KFCH 200515Z AUTO 00000KT 10SM CLR 12/03 A3005 RMK A01=||F||223|ICAO-KFCH
USW00023167|FRESNO CHANDLER DWTN AP|2022|02|20|05|35|36.7333|-119.8167|84.1|12.0||1|FM15-METAR|223|ICAO-KFCH|3.0||1|FM15-METAR|223|ICAO-KFCH|||||||||||||999|C-Calm|9|FM15-METAR|223|ICAO-KFCH|0.0|C-Calm|1|FM15-METAR|223|ICAO-KFCH|||||||||||||54|Derived||FM15-METAR|223|ICAO-KFCH|||||||||||||||||||||||||||||||||||||||||||||||||||||||||||||||||||||||||1017.6||1|FM15-METAR|223|ICAO-KFCH|||||||||||||||||||||||||||||||||||||||||||MET061METAR KFCH 200535Z AUTO 00000KT 10SM CLR 12/03 A3005 RMK A01=||F||223|ICAO-KFCH
USW00023167|FRESNO CHANDLER DWTN AP|2022|02|20|05|55|36.7333|-119.8167|84.1|11.0||1|FM15-METAR|223|ICAO-KFCH|4.0||1|FM15-METAR|223|ICAO-KFCH|||||||||||||999|C-Calm|9|FM15-METAR|223|ICAO-KFCH|0.0|C-Calm|1|FM15-METAR|223|ICAO-KFCH|||||||||||||62|Derived||FM15-METAR|223|ICAO-KFCH|||||||||||||||||||||||||||||||||||||||||||||||||||||||||||||||||||||||||1017.6||1|FM15-METAR|223|ICAO-KFCH|||||||||||||||||||||||||||||||||||||||||||MET061METAR KFCH 200555Z AUTO 00000KT 10SM CLR 11/04 A3005 RMK A01=||F||223|ICAO-KFCH
USW00023167|FRESNO CHANDLER DWTN AP|2022|02|20|06|15|36.7333|-119.8167|84.1|11.0||1|FM15-METAR|223|ICAO-KFCH|3.0||1|FM15-METAR|223|ICAO-KFCH|||||||||||||999|C-Calm|9|FM15-METAR|223|ICAO-KFCH|0.0|C-Calm|1|FM15-METAR|223|ICAO-KFCH|||||||||||||58|Derived||FM15-METAR|223|ICAO-KFCH|||||||||||||||||||||||||||||||||||||||||||||||||||||||||||||||||||||||||1017.6||1|FM15-METAR|223|ICAO-KFCH|||||||||||||||||||||||||||||||||||||||||||MET061METAR KFCH 200615Z AUTO 00000KT 10SM CLR 11/03 A3005 RMK A01=||F||223|ICAO-KFCH
USW00023167|FRESNO CHANDLER DWTN AP|2022|02|20|06|35|36.7333|-119.8167|84.1|11.0||1|FM15-METAR|223|ICAO-KFCH|4.0||1|FM15-METAR|223|ICAO-KFCH|||||||||||||999|C-Calm|9|FM15-METAR|223|ICAO-KFCH|0.0|C-Calm|1|FM15-METAR|223|ICAO-KFCH|||||||||||||62|Derived||FM15-METAR|223|ICAO-KFCH|||||||||||||||||||||||||||||||||||||||||||||||||||||||||||||||||||||||||1017.6||1|FM15-METAR|223|ICAO-KFCH|||||||||||||||||||||||||||||||||||||||||||MET061METAR KFCH 200635Z AUTO 00000KT 10SM CLR 11/04 A3005 RMK A01=||F||223|ICAO-KFCH
USW00023167|FRESNO CHANDLER DWTN AP|2022|02|20|06|55|36.7333|-119.8167|84.1|10.0||1|FM15-METAR|223|ICAO-KFCH|4.0||1|FM15-METAR|223|ICAO-KFCH|||||||||||||999|C-Calm|9|FM15-METAR|223|ICAO-KFCH|0.0|C-Calm|1|FM15-METAR|223|ICAO-KFCH|||||||||||||67|Derived||FM15-METAR|223|ICAO-KFCH|||||||||||||||||||||||||||||||||||||||||||||||||||||||||||||||||||||||||1017.6||1|FM15-METAR|223|ICAO-KFCH|||||||||||||||||||||||||||||||||||||||||||MET057METAR KFCH 200655Z AUTO 00000KT 10SM 10/04 A3005 RMK A01=||F||223|ICAO-KFCH
USW00023167|FRESNO CHANDLER DWTN AP|2022|02|20|07|15|36.7333|-119.8167|84.1|10.0||1|FM15-METAR|223|ICAO-KFCH|4.0||1|FM15-METAR|223|ICAO-KFCH|||||||||||||999|C-Calm|9|FM15-METAR|223|ICAO-KFCH|0.0|C-Calm|1|FM15-METAR|223|ICAO-KFCH|||||||||||||67|Derived||FM15-METAR|223|ICAO-KFCH|||||||||||||||||||||||||||||||||||||||||||||||||||||||||||||||||||||||||1017.6||1|FM15-METAR|223|ICAO-KFCH|||||||||||||||||||||||||||||||||||||||||||MET061METAR KFCH 200715Z AUTO 00000KT 10SM CLR 10/04 A3005 RMK A01=||F||223|ICAO-KFCH
USW00023167|FRESNO CHANDLER DWTN AP|2022|02|20|07|35|36.7333|-119.8167|84.1|10.0||1|FM15-METAR|223|ICAO-KFCH|4.0||1|FM15-METAR|223|ICAO-KFCH|||||||||||||999|C-Calm|9|FM15-METAR|223|ICAO-KFCH|0.0|C-Calm|1|FM15-METAR|223|ICAO-KFCH|||||||||||||67|Derived||FM15-METAR|223|ICAO-KFCH|||||||||||||||||||||||||||||||||||||||||||||||||||||||||||||||||||||||||1017.3||1|FM15-METAR|223|ICAO-KFCH|||||||||||||||||||||||||||||||||||||||||||MET061METAR KFCH 200735Z AUTO 00000KT 10SM CLR 10/04 A3004 RMK A01=||F||223|ICAO-KFCH
USW00023167|FRESNO CHANDLER DWTN AP|2022|02|20|07|55|36.7333|-119.8167|84.1|9.0||1|FM15-METAR|223|ICAO-KFCH|3.0||1|FM15-METAR|223|ICAO-KFCH|||||||||||||999|C-Calm|9|FM15-METAR|223|ICAO-KFCH|0.0|C-Calm|1|FM15-METAR|223|ICAO-KFCH|||||||||||||66|Derived||FM15-METAR|223|ICAO-KFCH|||||||||||||||||||||||||||||||||||||||||||||||||||||||||||||||||||||||||1017.3||1|FM15-METAR|223|ICAO-KFCH|||||||||||||||||||||||||||||||||||||||||||MET061METAR KFCH 200755Z AUTO 00000KT 10SM CLR 09/03 A3004 RMK A01=||F||223|ICAO-KFCH
USW00023167|FRESNO CHANDLER DWTN AP|2022|02|20|08|15|36.7333|-119.8167|84.1|9.0||1|FM15-METAR|223|ICAO-KFCH|3.0||1|FM15-METAR|223|ICAO-KFCH|||||||||||||999|C-Calm|9|FM15-METAR|223|ICAO-KFCH|0.0|C-Calm|1|FM15-METAR|223|ICAO-KFCH|||||||||||||66|Derived||FM15-METAR|223|ICAO-KFCH|||||||||||||||||||||||||||||||||||||||||||||||||||||||||||||||||||||||||1017.3||1|FM15-METAR|223|ICAO-KFCH|||||||||||||||||||||||||||||||||||||||||||MET061METAR KFCH 200815Z AUTO 00000KT 10SM CLR 09/03 A3004 RMK A01=||F||223|ICAO-KFCH
USW00023167|FRESNO CHANDLER DWTN AP|2022|02|20|08|35|36.7333|-119.8167|84.1|9.0||1|FM15-METAR|223|ICAO-KFCH|4.0||1|FM15-METAR|223|ICAO-KFCH|||||||||||||110|N-Normal|1|FM15-METAR|223|ICAO-KFCH|1.5|N-Normal|1|FM15-METAR|223|ICAO-KFCH|||||||||||||71|Derived||FM15-METAR|223|ICAO-KFCH|||||||||||||||||||||||||||||||||||||||||||||||||||||||||||||||||||||||||1017.3||1|FM15-METAR|223|ICAO-KFCH|||||||||||||||||||||||||||||||||||||||||||MET061METAR KFCH 200835Z AUTO 11003KT 10SM CLR 09/04 A3004 RMK A01=||F||223|ICAO-KFCH
USW00023167|FRESNO CHANDLER DWTN AP|2022|02|20|08|55|36.7333|-119.8167|84.1|9.0||1|FM15-METAR|223|ICAO-KFCH|4.0||1|FM15-METAR|223|ICAO-KFCH|||||||||||||999|C-Calm|9|FM15-METAR|223|ICAO-KFCH|0.0|C-Calm|1|FM15-METAR|223|ICAO-KFCH|||||||||||||71|Derived||FM15-METAR|223|ICAO-KFCH|||||||||||||||||||||||||||||||||||||||||||||||||||||||||||||||||||||||||1017.3||1|FM15-METAR|223|ICAO-KFCH|||||||||||||||||||||||||||||||||||||||||||MET061METAR KFCH 200855Z AUTO 00000KT 10SM CLR 09/04 A3004 RMK A01=||F||223|ICAO-KFCH
USW00023167|FRESNO CHANDLER DWTN AP|2022|02|20|09|15|36.7333|-119.8167|84.1|9.0||1|FM15-METAR|223|ICAO-KFCH|4.0||1|FM15-METAR|223|ICAO-KFCH|||||||||||||999|C-Calm|9|FM15-METAR|223|ICAO-KFCH|0.0|C-Calm|1|FM15-METAR|223|ICAO-KFCH|||||||||||||71|Derived||FM15-METAR|223|ICAO-KFCH|||||||||||||||||||||||||||||||||||||||||||||||||||||||||||||||||||||||||1017.3||1|FM15-METAR|223|ICAO-KFCH|||||||||||||||||||||||||||||||||||||||||||MET061METAR KFCH 200915Z AUTO 00000KT 10SM CLR 09/04 A3004 RMK A01=||F||223|ICAO-KFCH
USW00023167|FRESNO CHANDLER DWTN AP|2022|02|20|09|35|36.7333|-119.8167|84.1|9.0||1|FM15-METAR|223|ICAO-KFCH|4.0||1|FM15-METAR|223|ICAO-KFCH|||||||||||||999|C-Calm|9|FM15-METAR|223|ICAO-KFCH|0.0|C-Calm|1|FM15-METAR|223|ICAO-KFCH|||||||||||||71|Derived||FM15-METAR|223|ICAO-KFCH|||||||||||||||||||||||||||||||||||||||||||||||||||||||||||||||||||||||||1017.3||1|FM15-METAR|223|ICAO-KFCH|||||||||||||||||||||||||||||||||||||||||||MET057METAR KFCH 200935Z AUTO 00000KT 10SM 09/04 A3004 RMK A01=||F||223|ICAO-KFCH
USW00023167|FRESNO CHANDLER DWTN AP|2022|02|20|09|55|36.7333|-119.8167|84.1|8.0||1|FM15-METAR|223|ICAO-KFCH|4.0||1|FM15-METAR|223|ICAO-KFCH|||||||||||||999|C-Calm|9|FM15-METAR|223|ICAO-KFCH|0.0|C-Calm|1|FM15-METAR|223|ICAO-KFCH|||||||||||||76|Derived||FM15-METAR|223|ICAO-KFCH|||||||||||||||||||||||||||||||||||||||||||||||||||||||||||||||||||||||||1017.3||1|FM15-METAR|223|ICAO-KFCH|||||||||||||||||||||||||||||||||||||||||||MET057METAR KFCH 200955Z AUTO 00000KT 10SM 08/04 A3004 RMK A01=||F||223|ICAO-KFCH
USW00023167|FRESNO CHANDLER DWTN AP|2022|02|20|10|15|36.7333|-119.8167|84.1|8.0||1|FM15-METAR|223|ICAO-KFCH|4.0||1|FM15-METAR|223|ICAO-KFCH|||||||||||||100|N-Normal|1|FM15-METAR|223|ICAO-KFCH|1.5|N-Normal|1|FM15-METAR|223|ICAO-KFCH|||||||||||||76|Derived||FM15-METAR|223|ICAO-KFCH|||||||||||||||||||||||||||||||||||||||||||||||||||||||||||||||||||||||||1016.9||1|FM15-METAR|223|ICAO-KFCH|||||||||||||||||||||||||||||||||||||||||||MET061METAR KFCH 201015Z AUTO 10003KT 10SM CLR 08/04 A3003 RMK A01=||F||223|ICAO-KFCH
USW00023167|FRESNO CHANDLER DWTN AP|2022|02|20|10|35|36.7333|-119.8167|84.1|7.0||1|FM15-METAR|223|ICAO-KFCH|4.0||1|FM15-METAR|223|ICAO-KFCH|||||||||||||999|C-Calm|9|FM15-METAR|223|ICAO-KFCH|0.0|C-Calm|1|FM15-METAR|223|ICAO-KFCH|||||||||||||81|Derived||FM15-METAR|223|ICAO-KFCH|||||||||||||||||||||||||||||||||||||||||||||||||||||||||||||||||||||||||1016.9||1|FM15-METAR|223|ICAO-KFCH|||||||||||||||||||||||||||||||||||||||||||MET061METAR KFCH 201035Z AUTO 00000KT 10SM CLR 07/04 A3003 RMK A01=||F||223|ICAO-KFCH
USW00023167|FRESNO CHANDLER DWTN AP|2022|02|20|10|55|36.7333|-119.8167|84.1|7.0||1|FM15-METAR|223|ICAO-KFCH|4.0||1|FM15-METAR|223|ICAO-KFCH|||||||||||||999|C-Calm|9|FM15-METAR|223|ICAO-KFCH|0.0|C-Calm|1|FM15-METAR|223|ICAO-KFCH|||||||||||||81|Derived||FM15-METAR|223|ICAO-KFCH|||||||||||||||||||||||||||||||||||||||||||||||||||||||||||||||||||||||||1016.6||1|FM15-METAR|223|ICAO-KFCH|||||||||||||||||||||||||||||||||||||||||||MET061METAR KFCH 201055Z AUTO 00000KT 10SM CLR 07/04 A3002 RMK A01=||F||223|ICAO-KFCH
USW00023167|FRESNO CHANDLER DWTN AP|2022|02|20|11|15|36.7333|-119.8167|84.1|7.0||1|FM15-METAR|223|ICAO-KFCH|4.0||1|FM15-METAR|223|ICAO-KFCH|||||||||||||999|C-Calm|9|FM15-METAR|223|ICAO-KFCH|0.0|C-Calm|1|FM15-METAR|223|ICAO-KFCH|||||||||||||81|Derived||FM15-METAR|223|ICAO-KFCH|||||||||||||||||||||||||||||||||||||||||||||||||||||||||||||||||||||||||1016.6||1|FM15-METAR|223|ICAO-KFCH|||||||||||||||||||||||||||||||||||||||||||MET061METAR KFCH 201115Z AUTO 00000KT 10SM CLR 07/04 A3002 RMK A01=||F||223|ICAO-KFCH
USW00023167|FRESNO CHANDLER DWTN AP|2022|02|20|11|35|36.7333|-119.8167|84.1|7.0||1|FM15-METAR|223|ICAO-KFCH|4.0||1|FM15-METAR|223|ICAO-KFCH|||||||||||||999|C-Calm|9|FM15-METAR|223|ICAO-KFCH|0.0|C-Calm|1|FM15-METAR|223|ICAO-KFCH|||||||||||||81|Derived||FM15-METAR|223|ICAO-KFCH|||||||||||||||||||||||||||||||||||||||||||||||||||||||||||||||||||||||||1016.3||1|FM15-METAR|223|ICAO-KFCH|||||||||||||||||||||||||||||||||||||||||||MET061METAR KFCH 201135Z AUTO 00000KT 10SM CLR 07/04 A3001 RMK A01=||F||223|ICAO-KFCH
USW00023167|FRESNO CHANDLER DWTN AP|2022|02|20|11|55|36.7333|-119.8167|84.1|7.0||1|FM15-METAR|223|ICAO-KFCH|4.0||1|FM15-METAR|223|ICAO-KFCH|||||||||||||999|C-Calm|9|FM15-METAR|223|ICAO-KFCH|0.0|C-Calm|1|FM15-METAR|223|ICAO-KFCH|||||||||||||81|Derived||FM15-METAR|223|ICAO-KFCH|||||||||||||||||||||||||||||||||||||||||||||||||||||||||||||||||||||||||1016.3||1|FM15-METAR|223|ICAO-KFCH|||||||||||||||||||||||||||||||||||||||||||MET061METAR KFCH 201155Z AUTO 00000KT 10SM CLR 07/04 A3001 RMK A01=||F||223|ICAO-KFCH
USW00023167|FRESNO CHANDLER DWTN AP|2022|02|20|12|15|36.7333|-119.8167|84.1|7.0||1|FM15-METAR|223|ICAO-KFCH|4.0||1|FM15-METAR|223|ICAO-KFCH|||||||||||||999|C-Calm|9|FM15-METAR|223|ICAO-KFCH|0.0|C-Calm|1|FM15-METAR|223|ICAO-KFCH|||||||||||||81|Derived||FM15-METAR|223|ICAO-KFCH|||||||||||||||||||||||||||||||||||||||||||||||||||||||||||||||||||||||||1015.9||1|FM15-METAR|223|ICAO-KFCH|||||||||||||||||||||||||||||||||||||||||||MET061METAR KFCH 201215Z AUTO 00000KT 10SM CLR 07/04 A3000 RMK A01=||F||223|ICAO-KFCH
USW00023167|FRESNO CHANDLER DWTN AP|2022|02|20|12|35|36.7333|-119.8167|84.1|6.0||1|FM15-METAR|223|ICAO-KFCH|4.0||1|FM15-METAR|223|ICAO-KFCH|||||||||||||090|N-Normal|1|FM15-METAR|223|ICAO-KFCH|2.1|N-Normal|1|FM15-METAR|223|ICAO-KFCH|||||||||||||87|Derived||FM15-METAR|223|ICAO-KFCH|||||||||||||||||||||||||||||||||||||||||||||||||||||||||||||||||||||||||1015.9||1|FM15-METAR|223|ICAO-KFCH|||||||||||||||||||||||||||||||||||||||||||MET061METAR KFCH 201235Z AUTO 09004KT 10SM CLR 06/04 A3000 RMK A01=||F||223|ICAO-KFCH
USW00023167|FRESNO CHANDLER DWTN AP|2022|02|20|12|50|36.7333|-119.8167|84.1|7.0||1|FM15-METAR|223|ICAO-KFCH|4.0||1|FM15-METAR|223|ICAO-KFCH|||||||||||||999|C-Calm|9|FM15-METAR|223|ICAO-KFCH|0.0|C-Calm|1|FM15-METAR|223|ICAO-KFCH|||||||||||||81|Derived||FM15-METAR|223|ICAO-KFCH|||||||||||||||||||||||||||||||||||||||||||||||||||||||||||||||||||||||||1015.9||1|FM15-METAR|223|ICAO-KFCH|||||||||||||||||||||||||||||||||||||||||||MET061METAR KFCH 201250Z AUTO 00000KT 10SM CLR 07/04 A3000 RMK A01=||F||223|ICAO-KFCH
USW00023167|FRESNO CHANDLER DWTN AP|2022|02|20|13|10|36.7333|-119.8167|84.1|7.0||1|FM15-METAR|223|ICAO-KFCH|4.0||1|FM15-METAR|223|ICAO-KFCH|||||||||||||999|C-Calm|9|FM15-METAR|223|ICAO-KFCH|0.0|C-Calm|1|FM15-METAR|223|ICAO-KFCH|||||||||||||81|Derived||FM15-METAR|223|ICAO-KFCH|||||||||||||||||||||||||||||||||||||||||||||||||||||||||||||||||||||||||1015.9||1|FM15-METAR|223|ICAO-KFCH|||||||||||||||||||||||||||||||||||||||||||MET061METAR KFCH 201310Z AUTO 00000KT 10SM CLR 07/04 A3000 RMK A01=||F||223|ICAO-KFCH
USW00023167|FRESNO CHANDLER DWTN AP|2022|02|20|13|35|36.7333|-119.8167|84.1|7.0||1|FM15-METAR|223|ICAO-KFCH|4.0||1|FM15-METAR|223|ICAO-KFCH|||||||||||||110|N-Normal|1|FM15-METAR|223|ICAO-KFCH|1.5|N-Normal|1|FM15-METAR|223|ICAO-KFCH|||||||||||||81|Derived||FM15-METAR|223|ICAO-KFCH|||||||||||||||||||||||||||||||||||||||||||||||||||||||||||||||||||||||||1015.9||1|FM15-METAR|223|ICAO-KFCH|||||||||||||||||||||||||||||||||||||||||||MET061METAR KFCH 201335Z AUTO 11003KT 10SM CLR 07/04 A3000 RMK A01=||F||223|ICAO-KFCH
USW00023167|FRESNO CHANDLER DWTN AP|2022|02|20|13|55|36.7333|-119.8167|84.1|6.0||1|FM15-METAR|223|ICAO-KFCH|3.0||1|FM15-METAR|223|ICAO-KFCH|||||||||||||110|N-Normal|1|FM15-METAR|223|ICAO-KFCH|1.5|N-Normal|1|FM15-METAR|223|ICAO-KFCH|||||||||||||81|Derived||FM15-METAR|223|ICAO-KFCH|||||||||||||||||||||||||||||||||||||||||||||||||||||||||||||||||||||||||1015.9||1|FM15-METAR|223|ICAO-KFCH|||||||||||||||||||||||||||||||||||||||||||MET061METAR KFCH 201355Z AUTO 11003KT 10SM CLR 06/03 A3000 RMK A01=||F||223|ICAO-KFCH
USW00023167|FRESNO CHANDLER DWTN AP|2022|02|20|14|15|36.7333|-119.8167|84.1|6.0||1|FM15-METAR|223|ICAO-KFCH|3.0||1|FM15-METAR|223|ICAO-KFCH|||||||||||||999|C-Calm|9|FM15-METAR|223|ICAO-KFCH|0.0|C-Calm|1|FM15-METAR|223|ICAO-KFCH|||||||||||||81|Derived||FM15-METAR|223|ICAO-KFCH|||||||||||||||||||||||||||||||||||||||||||||||||||||||||||||||||||||||||1015.9||1|FM15-METAR|223|ICAO-KFCH|||||||||||||||||||||||||||||||||||||||||||MET061METAR KFCH 201415Z AUTO 00000KT 10SM CLR 06/03 A3000 RMK A01=||F||223|ICAO-KFCH
USW00023167|FRESNO CHANDLER DWTN AP|2022|02|20|14|35|36.7333|-119.8167|84.1|6.0||1|FM15-METAR|223|ICAO-KFCH|3.0||1|FM15-METAR|223|ICAO-KFCH|||||||||||||999|C-Calm|9|FM15-METAR|223|ICAO-KFCH|0.0|C-Calm|1|FM15-METAR|223|ICAO-KFCH|||||||||||||81|Derived||FM15-METAR|223|ICAO-KFCH|||||||||||||||||||||||||||||||||||||||||||||||||||||||||||||||||||||||||1015.9||1|FM15-METAR|223|ICAO-KFCH|||||||||||||||||||||||||||||||||||||||||||MET061METAR KFCH 201435Z AUTO 00000KT 10SM CLR 06/03 A3000 RMK A01=||F||223|ICAO-KFCH
USW00023167|FRESNO CHANDLER DWTN AP|2022|02|20|14|50|36.7333|-119.8167|84.1|7.0||1|FM15-METAR|223|ICAO-KFCH|3.0||1|FM15-METAR|223|ICAO-KFCH|||||||||||||999|C-Calm|9|FM15-METAR|223|ICAO-KFCH|0.0|C-Calm|1|FM15-METAR|223|ICAO-KFCH|||||||||||||76|Derived||FM15-METAR|223|ICAO-KFCH|||||||||||||||||||||||||||||||||||||||||||||||||||||||||||||||||||||||||1015.9||1|FM15-METAR|223|ICAO-KFCH|||||||||||||||||||||||||||||||||||||||||||MET061METAR KFCH 201450Z AUTO 00000KT 10SM CLR 07/03 A3000 RMK A01=||F||223|ICAO-KFCH
USW00023167|FRESNO CHANDLER DWTN AP|2022|02|20|15|15|36.7333|-119.8167|84.1|7.0||1|FM15-METAR|223|ICAO-KFCH|3.0||1|FM15-METAR|223|ICAO-KFCH|||||||||||||999|C-Calm|9|FM15-METAR|223|ICAO-KFCH|0.0|C-Calm|1|FM15-METAR|223|ICAO-KFCH|||||||||||||76|Derived||FM15-METAR|223|ICAO-KFCH|||||||||||||||||||||||||||||||||||||||||||||||||||||||||||||||||||||||||1016.3||1|FM15-METAR|223|ICAO-KFCH|||||||||||||||||||||||||||||||||||||||||||MET061METAR KFCH 201515Z AUTO 00000KT 10SM CLR 07/03 A3001 RMK A01=||F||223|ICAO-KFCH
USW00023167|FRESNO CHANDLER DWTN AP|2022|02|20|15|30|36.7333|-119.8167|84.1|7.0||1|FM15-METAR|223|ICAO-KFCH|3.0||1|FM15-METAR|223|ICAO-KFCH|||||||||||||999|C-Calm|9|FM15-METAR|223|ICAO-KFCH|0.0|C-Calm|1|FM15-METAR|223|ICAO-KFCH|||||||||||||76|Derived||FM15-METAR|223|ICAO-KFCH|||||||||||||||||||||||||||||||||||||||||||||||||||||||||||||||||||||||||1016.3||1|FM15-METAR|223|ICAO-KFCH|||||||||||||||||||||||||||||||||||||||||||MET061METAR KFCH 201530Z AUTO 00000KT 10SM CLR 07/03 A3001 RMK A01=||F||223|ICAO-KFCH
USW00023167|FRESNO CHANDLER DWTN AP|2022|02|20|15|55|36.7333|-119.8167|84.1|9.0||1|FM15-METAR|223|ICAO-KFCH|4.0||1|FM15-METAR|223|ICAO-KFCH|||||||||||||120|N-Normal|1|FM15-METAR|223|ICAO-KFCH|2.1|N-Normal|1|FM15-METAR|223|ICAO-KFCH|||||||||||||71|Derived||FM15-METAR|223|ICAO-KFCH|||||||||||||||||||||||||||||||||||||||||||||||||||||||||||||||||||||||||1016.6||1|FM15-METAR|223|ICAO-KFCH|||||||||||||||||||||||||||||||||||||||||||MET061METAR KFCH 201555Z AUTO 12004KT 10SM CLR 09/04 A3002 RMK A01=||F||223|ICAO-KFCH
USW00023167|FRESNO CHANDLER DWTN AP|2022|02|20|16|10|36.7333|-119.8167|84.1|10.0||1|FM15-METAR|223|ICAO-KFCH|4.0||1|FM15-METAR|223|ICAO-KFCH|||||||||||||120|N-Normal|1|FM15-METAR|223|ICAO-KFCH|2.1|N-Normal|1|FM15-METAR|223|ICAO-KFCH|||||||||||||67|Derived||FM15-METAR|223|ICAO-KFCH|||||||||||||||||||||||||||||||||||||||||||||||||||||||||||||||||||||||||1016.6||1|FM15-METAR|223|ICAO-KFCH|||||||||||||||||||||||||||||||||||||||||||MET061METAR KFCH 201610Z AUTO 12004KT 10SM CLR 10/04 A3002 RMK A01=||F||223|ICAO-KFCH
USW00023167|FRESNO CHANDLER DWTN AP|2022|02|20|16|30|36.7333|-119.8167|84.1|11.0||1|FM15-METAR|223|ICAO-KFCH|4.0||1|FM15-METAR|223|ICAO-KFCH|||||||||||||130|N-Normal|1|FM15-METAR|223|ICAO-KFCH|2.6|N-Normal|1|FM15-METAR|223|ICAO-KFCH|||||||||||||62|Derived||FM15-METAR|223|ICAO-KFCH|||||||||||||||||||||||||||||||||||||||||||||||||||||||||||||||||||||||||1016.6||1|FM15-METAR|223|ICAO-KFCH|||||||||||||||||||||||||||||||||||||||||||MET061METAR KFCH 201630Z AUTO 13005KT 10SM CLR 11/04 A3002 RMK A01=||F||223|ICAO-KFCH
USW00023167|FRESNO CHANDLER DWTN AP|2022|02|20|16|55|36.7333|-119.8167|84.1|12.0||1|FM15-METAR|223|ICAO-KFCH|3.0||1|FM15-METAR|223|ICAO-KFCH|||||||||||||130|N-Normal|1|FM15-METAR|223|ICAO-KFCH|2.6|N-Normal|1|FM15-METAR|223|ICAO-KFCH|||||||||||||54|Derived||FM15-METAR|223|ICAO-KFCH|||||||||||||||||||||||||||||||||||||||||||||||||||||||||||||||||||||||||1016.6||1|FM15-METAR|223|ICAO-KFCH|||||||||||||||||||||||||||||||||||||||||||MET061METAR KFCH 201655Z AUTO 13005KT 10SM CLR 12/03 A3002 RMK A01=||F||223|ICAO-KFCH
USW00023167|FRESNO CHANDLER DWTN AP|2022|02|20|17|15|36.7333|-119.8167|84.1|13.0||1|FM15-METAR|223|ICAO-KFCH|3.0||1|FM15-METAR|223|ICAO-KFCH|||||||||||||160|N-Normal|1|FM15-METAR|223|ICAO-KFCH|2.6|N-Normal|1|FM15-METAR|223|ICAO-KFCH|||||||||||||51|Derived||FM15-METAR|223|ICAO-KFCH|||||||||||||||||||||||||||||||||||||||||||||||||||||||||||||||||||||||||1016.6||1|FM15-METAR|223|ICAO-KFCH|||||||||||||||||||||||||||||||||||||||||||MET061METAR KFCH 201715Z AUTO 16005KT 10SM CLR 13/03 A3002 RMK A01=||F||223|ICAO-KFCH
USW00023167|FRESNO CHANDLER DWTN AP|2022|02|20|17|35|36.7333|-119.8167|84.1|13.0||1|FM15-METAR|223|ICAO-KFCH|3.0||1|FM15-METAR|223|ICAO-KFCH|||||||||||||150|N-Normal|1|FM15-METAR|223|ICAO-KFCH|3.1|N-Normal|1|FM15-METAR|223|ICAO-KFCH|||||||||||||51|Derived||FM15-METAR|223|ICAO-KFCH|||||||||||||||||||||||||||||||||||||||||||||||||||||||||||||||||||||||||1016.3||1|FM15-METAR|223|ICAO-KFCH|||||||||||||||||||||||||||||||||||||||||||MET061METAR KFCH 201735Z AUTO 15006KT 10SM CLR 13/03 A3001 RMK A01=||F||223|ICAO-KFCH
USW00023167|FRESNO CHANDLER DWTN AP|2022|02|20|17|55|36.7333|-119.8167|84.1|14.0||1|FM15-METAR|223|ICAO-KFCH|4.0||1|FM15-METAR|223|ICAO-KFCH|||||||||||||150|N-Normal|1|FM15-METAR|223|ICAO-KFCH|2.6|N-Normal|1|FM15-METAR|223|ICAO-KFCH|||||||||||||51|Derived||FM15-METAR|223|ICAO-KFCH|||||||||||||||||||||||||||||||||||||||||||||||||||||||||||||||||||||||||1016.3||1|FM15-METAR|223|ICAO-KFCH|||||||||||||||||||||||||||||||||||||||||||MET061METAR KFCH 201755Z AUTO 15005KT 10SM CLR 14/04 A3001 RMK A01=||F||223|ICAO-KFCH
USW00023167|FRESNO CHANDLER DWTN AP|2022|02|20|18|15|36.7333|-119.8167|84.1|14.0||1|FM15-METAR|223|ICAO-KFCH|4.0||1|FM15-METAR|223|ICAO-KFCH|||||||||||||130|N-Normal|1|FM15-METAR|223|ICAO-KFCH|2.6|N-Normal|1|FM15-METAR|223|ICAO-KFCH|||||||||||||51|Derived||FM15-METAR|223|ICAO-KFCH|||||||||||||||||||||||||||||||||||||||||||||||||||||||||||||||||||||||||1015.9||1|FM15-METAR|223|ICAO-KFCH|||||||||||||||||||||||||||||||||||||||||||MET061METAR KFCH 201815Z AUTO 13005KT 10SM CLR 14/04 A3000 RMK A01=||F||223|ICAO-KFCH
USW00023167|FRESNO CHANDLER DWTN AP|2022|02|20|18|35|36.7333|-119.8167|84.1|16.0||1|FM15-METAR|223|ICAO-KFCH|4.0||1|FM15-METAR|223|ICAO-KFCH|||||||||||||120|N-Normal|1|FM15-METAR|223|ICAO-KFCH|2.6|N-Normal|1|FM15-METAR|223|ICAO-KFCH|||||||||||||45|Derived||FM15-METAR|223|ICAO-KFCH|||||||||||||||||||||||||||||||||||||||||||||||||||||||||||||||||||||||||1015.9||1|FM15-METAR|223|ICAO-KFCH|||||||||||||||||||||||||||||||||||||||||||MET061METAR KFCH 201835Z AUTO 12005KT 10SM CLR 16/04 A3000 RMK A01=||F||223|ICAO-KFCH
USW00023167|FRESNO CHANDLER DWTN AP|2022|02|20|18|55|36.7333|-119.8167|84.1|17.0||1|FM15-METAR|223|ICAO-KFCH|4.0||1|FM15-METAR|223|ICAO-KFCH|||||||||||||130|N-Normal|1|FM15-METAR|223|ICAO-KFCH|2.6|N-Normal|1|FM15-METAR|223|ICAO-KFCH|||||||||||||42|Derived||FM15-METAR|223|ICAO-KFCH|||||||||||||||||||||||||||||||||||||||||||||||||||||||||||||||||||||||||1015.9||1|FM15-METAR|223|ICAO-KFCH|||||||||||||||||||||||||||||||||||||||||||MET061METAR KFCH 201855Z AUTO 13005KT 10SM CLR 17/04 A3000 RMK A01=||F||223|ICAO-KFCH
USW00023167|FRESNO CHANDLER DWTN AP|2022|02|20|19|10|36.7333|-119.8167|84.1|17.0||1|FM15-METAR|223|ICAO-KFCH|4.0||1|FM15-METAR|223|ICAO-KFCH|||||||||||||160|N-Normal|1|FM15-METAR|223|ICAO-KFCH|1.5|N-Normal|1|FM15-METAR|223|ICAO-KFCH|||||||||||||42|Derived||FM15-METAR|223|ICAO-KFCH|||||||||||||||||||||||||||||||||||||||||||||||||||||||||||||||||||||||||1015.9||1|FM15-METAR|223|ICAO-KFCH|||||||||||||||||||||||||||||||||||||||||||MET061METAR KFCH 201910Z AUTO 16003KT 10SM CLR 17/04 A3000 RMK A01=||F||223|ICAO-KFCH
USW00023167|FRESNO CHANDLER DWTN AP|2022|02|20|19|35|36.7333|-119.8167|84.1|18.0||1|FM15-METAR|223|ICAO-KFCH|4.0||1|FM15-METAR|223|ICAO-KFCH|||||||||||||999|C-Calm|9|FM15-METAR|223|ICAO-KFCH|0.0|C-Calm|1|FM15-METAR|223|ICAO-KFCH|||||||||||||40|Derived||FM15-METAR|223|ICAO-KFCH|||||||||||||||||||||||||||||||||||||||||||||||||||||||||||||||||||||||||1015.6||1|FM15-METAR|223|ICAO-KFCH|||||||||||||||||||||||||||||||||||||||||||MET061METAR KFCH 201935Z AUTO 00000KT 10SM CLR 18/04 A2999 RMK A01=||F||223|ICAO-KFCH
USW00023167|FRESNO CHANDLER DWTN AP|2022|02|20|19|55|36.7333|-119.8167|84.1|18.0||1|FM15-METAR|223|ICAO-KFCH|4.0||1|FM15-METAR|223|ICAO-KFCH|||||||||||||140|N-Normal|1|FM15-METAR|223|ICAO-KFCH|1.5|N-Normal|1|FM15-METAR|223|ICAO-KFCH|||||||||||||40|Derived||FM15-METAR|223|ICAO-KFCH|||||||||||||||||||||||||||||||||||||||||||||||||||||||||||||||||||||||||1015.2||1|FM15-METAR|223|ICAO-KFCH|||||||||||||||||||||||||||||||||||||||||||MET061METAR KFCH 201955Z AUTO 14003KT 10SM CLR 18/04 A2998 RMK A01=||F||223|ICAO-KFCH
USW00023167|FRESNO CHANDLER DWTN AP|2022|02|20|20|15|36.7333|-119.8167|84.1|19.0||1|FM15-METAR|223|ICAO-KFCH|5.0||1|FM15-METAR|223|ICAO-KFCH|||||||||||||100|N-Normal|1|FM15-METAR|223|ICAO-KFCH|2.1|N-Normal|1|FM15-METAR|223|ICAO-KFCH|||||||||||||40|Derived||FM15-METAR|223|ICAO-KFCH|||||||||||||||||||||||||||||||||||||||||||||||||||||||||||||||||||||||||1014.6||1|FM15-METAR|223|ICAO-KFCH|||||||||||||||||||||||||||||||||||||||||||MET061METAR KFCH 202015Z AUTO 10004KT 10SM CLR 19/05 A2996 RMK A01=||F||223|ICAO-KFCH
USW00023167|FRESNO CHANDLER DWTN AP|2022|02|20|20|35|36.7333|-119.8167|84.1|19.0||1|FM15-METAR|223|ICAO-KFCH|4.0||1|FM15-METAR|223|ICAO-KFCH|||||||||||||999|V-Variable|9|FM15-METAR|223|ICAO-KFCH|2.6|V-Variable|1|FM15-METAR|223|ICAO-KFCH|||||||||||||37|Derived||FM15-METAR|223|ICAO-KFCH|||||||||||||||||||||||||||||||||||||||||||||||||||||||||||||||||||||||||1014.2||1|FM15-METAR|223|ICAO-KFCH|||||||||||||||||||||||||||||||||||||||||||MET061METAR KFCH 202035Z AUTO VRB05KT 10SM CLR 19/04 A2995 RMK A01=||F||223|ICAO-KFCH
USW00023167|FRESNO CHANDLER DWTN AP|2022|02|20|20|55|36.7333|-119.8167|84.1|20.0||1|FM15-METAR|223|ICAO-KFCH|4.0||1|FM15-METAR|223|ICAO-KFCH|||||||||||||110|N-Normal|1|FM15-METAR|223|ICAO-KFCH|3.6|N-Normal|1|FM15-METAR|223|ICAO-KFCH|||||||||||||35|Derived||FM15-METAR|223|ICAO-KFCH|||||||||||||||||||||||||||||||||||||||||||||||||||||||||||||||||||||||||1013.9||1|FM15-METAR|223|ICAO-KFCH|||||||||||||||||||||||||||||||||||||||||||MET061METAR KFCH 202055Z AUTO 11007KT 10SM CLR 20/04 A2994 RMK A01=||F||223|ICAO-KFCH
USW00023167|FRESNO CHANDLER DWTN AP|2022|02|20|21|15|36.7333|-119.8167|84.1|21.0||1|FM15-METAR|223|ICAO-KFCH|4.0||1|FM15-METAR|223|ICAO-KFCH|||||||||||||190|N-Normal|1|FM15-METAR|223|ICAO-KFCH|1.5|N-Normal|1|FM15-METAR|223|ICAO-KFCH|||||||||||||33|Derived||FM15-METAR|223|ICAO-KFCH|||||||||||||||||||||||||||||||||||||||||||||||||||||||||||||||||||||||||1013.2||1|FM15-METAR|223|ICAO-KFCH|||||||||||||||||||||||||||||||||||||||||||MET061METAR KFCH 202115Z AUTO 19003KT 10SM CLR 21/04 A2992 RMK A01=||F||223|ICAO-KFCH
USW00023167|FRESNO CHANDLER DWTN AP|2022|02|20|21|35|36.7333|-119.8167|84.1|21.0||1|FM15-METAR|223|ICAO-KFCH|3.0||1|FM15-METAR|223|ICAO-KFCH|||||||||||||180|N-Normal|1|FM15-METAR|223|ICAO-KFCH|2.1|N-Normal|1|FM15-METAR|223|ICAO-KFCH|||||||||||||31|Derived||FM15-METAR|223|ICAO-KFCH|||||||||||||||||||||||||||||||||||||||||||||||||||||||||||||||||||||||||1012.9||1|FM15-METAR|223|ICAO-KFCH|||||||||||||||||||||||||||||||||||||||||||MET061METAR KFCH 202135Z AUTO 18004KT 10SM CLR 21/03 A2991 RMK A01=||F||223|ICAO-KFCH
USW00023167|FRESNO CHANDLER DWTN AP|2022|02|20|21|50|36.7333|-119.8167|84.1|21.0||1|FM15-METAR|223|ICAO-KFCH|4.0||1|FM15-METAR|223|ICAO-KFCH|||||||||||||160|N-Normal|1|FM15-METAR|223|ICAO-KFCH|3.1|N-Normal|1|FM15-METAR|223|ICAO-KFCH|||||||||||||33|Derived||FM15-METAR|223|ICAO-KFCH|||||||||||||||||||||||||||||||||||||||||||||||||||||||||||||||||||||||||1012.9||1|FM15-METAR|223|ICAO-KFCH|||||||||||||||||||||||||||||||||||||||||||MET061METAR KFCH 202150Z AUTO 16006KT 10SM CLR 21/04 A2991 RMK A01=||F||223|ICAO-KFCH
USW00023167|FRESNO CHANDLER DWTN AP|2022|02|20|22|10|36.7333|-119.8167|84.1|21.0||1|FM15-METAR|223|ICAO-KFCH|3.0||1|FM15-METAR|223|ICAO-KFCH|||||||||||||170|N-Normal|1|FM15-METAR|223|ICAO-KFCH|2.6|N-Normal|1|FM15-METAR|223|ICAO-KFCH|||||||||||||31|Derived||FM15-METAR|223|ICAO-KFCH|||||||||||||||||||||||||||||||||||||||||||||||||||||||||||||||||||||||||1012.5||1|FM15-METAR|223|ICAO-KFCH|||||||||||||||||||||||||||||||||||||||||||MET061METAR KFCH 202210Z AUTO 17005KT 10SM CLR 21/03 A2990 RMK A01=||F||223|ICAO-KFCH
USW00023167|FRESNO CHANDLER DWTN AP|2022|02|20|22|35|36.7333|-119.8167|84.1|21.0||1|FM15-METAR|223|ICAO-KFCH|3.0||1|FM15-METAR|223|ICAO-KFCH|||||||||||||140|N-Normal|1|FM15-METAR|223|ICAO-KFCH|3.6|N-Normal|1|FM15-METAR|223|ICAO-KFCH|||||||||||||31|Derived||FM15-METAR|223|ICAO-KFCH|||||||||||||||||||||||||||||||||||||||||||||||||||||||||||||||||||||||||1012.2||1|FM15-METAR|223|ICAO-KFCH|||||||||||||||||||||||||||||||||||||||||||MET061METAR KFCH 202235Z AUTO 14007KT 10SM CLR 21/03 A2989 RMK A01=||F||223|ICAO-KFCH
USW00023167|FRESNO CHANDLER DWTN AP|2022|02|20|22|50|36.7333|-119.8167|84.1|21.0||1|FM15-METAR|223|ICAO-KFCH|3.0||1|FM15-METAR|223|ICAO-KFCH|||||||||||||120|N-Normal|1|FM15-METAR|223|ICAO-KFCH|2.1|N-Normal|1|FM15-METAR|223|ICAO-KFCH|||||||||||||31|Derived||FM15-METAR|223|ICAO-KFCH|||||||||||||||||||||||||||||||||||||||||||||||||||||||||||||||||||||||||1012.2||1|FM15-METAR|223|ICAO-KFCH|||||||||||||||||||||||||||||||||||||||||||MET061METAR KFCH 202250Z AUTO 12004KT 10SM CLR 21/03 A2989 RMK A01=||F||223|ICAO-KFCH
USW00023167|FRESNO CHANDLER DWTN AP|2022|02|20|23|10|36.7333|-119.8167|84.1|21.0||1|FM15-METAR|223|ICAO-KFCH|3.0||1|FM15-METAR|223|ICAO-KFCH|||||||||||||999|C-Calm|9|FM15-METAR|223|ICAO-KFCH|0.0|C-Calm|1|FM15-METAR|223|ICAO-KFCH|||||||||||||31|Derived||FM15-METAR|223|ICAO-KFCH|||||||||||||||||||||||||||||||||||||||||||||||||||||||||||||||||||||||||1012.2||1|FM15-METAR|223|ICAO-KFCH|||||||||||||||||||||||||||||||||||||||||||MET061METAR KFCH 202310Z AUTO 00000KT 10SM CLR 21/03 A2989 RMK A01=||F||223|ICAO-KFCH
USW00023167|FRESNO CHANDLER DWTN AP|2022|02|20|23|35|36.7333|-119.8167|84.1|21.0||1|FM15-METAR|223|ICAO-KFCH|3.0||1|FM15-METAR|223|ICAO-KFCH|||||||||||||999|C-Calm|9|FM15-METAR|223|ICAO-KFCH|0.0|C-Calm|1|FM15-METAR|223|ICAO-KFCH|||||||||||||31|Derived||FM15-METAR|223|ICAO-KFCH|||||||||||||||||||||||||||||||||||||||||||||||||||||||||||||||||||||||||1011.8||1|FM15-METAR|223|ICAO-KFCH|||||||||||||||||||||||||||||||||||||||||||MET061METAR KFCH 202335Z AUTO 00000KT 10SM CLR 21/03 A2988 RMK A01=||F||223|ICAO-KFCH
USW00023167|FRESNO CHANDLER DWTN AP|2022|02|20|23|50|36.7333|-119.8167|84.1|21.0||1|FM15-METAR|223|ICAO-KFCH|3.0||1|FM15-METAR|223|ICAO-KFCH|||||||||||||050|N-Normal|1|FM15-METAR|223|ICAO-KFCH|1.5|N-Normal|1|FM15-METAR|223|ICAO-KFCH|||||||||||||31|Derived||FM15-METAR|223|ICAO-KFCH|||||||||||||||||||||||||||||||||||||||||||||||||||||||||||||||||||||||||1011.8||1|FM15-METAR|223|ICAO-KFCH|||||||||||||||||||||||||||||||||||||||||||MET061METAR KFCH 202350Z AUTO 05003KT 10SM CLR 21/03 A2988 RMK A01=||F||223|ICAO-KFCH
USW00023167|FRESNO CHANDLER DWTN AP|2022|02|21|00|15|36.7333|-119.8167|84.1|20.0||1|FM15-METAR|223|ICAO-KFCH|3.0||1|FM15-METAR|223|ICAO-KFCH|||||||||||||100|N-Normal|1|FM15-METAR|223|ICAO-KFCH|2.1|N-Normal|1|FM15-METAR|223|ICAO-KFCH|||||||||||||33|Derived||FM15-METAR|223|ICAO-KFCH|||||||||||||||||||||||||||||||||||||||||||||||||||||||||||||||||||||||||1011.8||1|FM15-METAR|223|ICAO-KFCH|||||||||||||||||||||||||||||||||||||||||||MET061METAR KFCH 210015Z AUTO 10004KT 10SM CLR 20/03 A2988 RMK A01=||F||223|ICAO-KFCH
USW00023167|FRESNO CHANDLER DWTN AP|2022|02|21|00|30|36.7333|-119.8167|84.1|20.0||1|FM15-METAR|223|ICAO-KFCH|4.0||1|FM15-METAR|223|ICAO-KFCH|||||||||||||120|N-Normal|1|FM15-METAR|223|ICAO-KFCH|2.1|N-Normal|1|FM15-METAR|223|ICAO-KFCH|||||||||||||35|Derived||FM15-METAR|223|ICAO-KFCH|||||||||||||||||||||||||||||||||||||||||||||||||||||||||||||||||||||||||1011.8||1|FM15-METAR|223|ICAO-KFCH|||||||||||||||||||||||||||||||||||||||||||MET061METAR KFCH 210030Z AUTO 12004KT 10SM CLR 20/04 A2988 RMK A01=||F||223|ICAO-KFCH
USW00023167|FRESNO CHANDLER DWTN AP|2022|02|21|00|55|36.7333|-119.8167|84.1|20.0||1|FM15-METAR|223|ICAO-KFCH|4.0||1|FM15-METAR|223|ICAO-KFCH|||||||||||||120|N-Normal|1|FM15-METAR|223|ICAO-KFCH|2.1|N-Normal|1|FM15-METAR|223|ICAO-KFCH|||||||||||||35|Derived||FM15-METAR|223|ICAO-KFCH|||||||||||||||||||||||||||||||||||||||||||||||||||||||||||||||||||||||||1011.5||1|FM15-METAR|223|ICAO-KFCH|||||||||||||||||||||||||||||||||||||||||||MET061METAR KFCH 210055Z AUTO 12004KT 10SM CLR 20/04 A2987 RMK A01=||F||223|ICAO-KFCH
USW00023167|FRESNO CHANDLER DWTN AP|2022|02|21|01|10|36.7333|-119.8167|84.1|20.0||4|FM15-METAR|223|ICAO-KFCH|3.0||4|FM15-METAR|223|ICAO-KFCH|||||||||||||||||||||||||||||||||||||33|Derived||FM15-METAR|223|ICAO-KFCH|||||||||||||||||||||||||||||||||||||||||||||||||||||||||||||||||||||||||1011.5||4|FM15-METAR|223|ICAO-KFCH|||||||||||||||||||||||||||||||||||||||||||MET059METAR KFCH 210110Z AUTO 120KT 10SM CLR 20/03 A2987 RMK A01=||F||223|ICAO-KFCH
USW00023167|FRESNO CHANDLER DWTN AP|2022|02|21|01|35|36.7333|-119.8167|84.1|19.0||1|FM15-METAR|223|ICAO-KFCH|3.0||1|FM15-METAR|223|ICAO-KFCH|||||||||||||100|N-Normal|1|FM15-METAR|223|ICAO-KFCH|1.5|N-Normal|1|FM15-METAR|223|ICAO-KFCH|||||||||||||35|Derived||FM15-METAR|223|ICAO-KFCH|||||||||||||||||||||||||||||||||||||||||||||||||||||||||||||||||||||||||1011.2||1|FM15-METAR|223|ICAO-KFCH|||||||||||||||||||||||||||||||||||||||||||MET061METAR KFCH 210135Z AUTO 10003KT 10SM CLR 19/03 A2986 RMK A01=||F||223|ICAO-KFCH
USW00023167|FRESNO CHANDLER DWTN AP|2022|02|21|01|55|36.7333|-119.8167|84.1|19.0||1|FM15-METAR|223|ICAO-KFCH|3.0||1|FM15-METAR|223|ICAO-KFCH|||||||||||||999|C-Calm|9|FM15-METAR|223|ICAO-KFCH|0.0|C-Calm|1|FM15-METAR|223|ICAO-KFCH|||||||||||||35|Derived||FM15-METAR|223|ICAO-KFCH|||||||||||||||||||||||||||||||||||||||||||||||||||||||||||||||||||||||||1011.2||1|FM15-METAR|223|ICAO-KFCH|||||||||||||||||||||||||||||||||||||||||||MET061METAR KFCH 210155Z AUTO 00000KT 10SM CLR 19/03 A2986 RMK A01=||F||223|ICAO-KFCH
USW00023167|FRESNO CHANDLER DWTN AP|2022|02|21|02|15|36.7333|-119.8167|84.1|18.0||1|FM15-METAR|223|ICAO-KFCH|4.0||1|FM15-METAR|223|ICAO-KFCH|||||||||||||999|C-Calm|9|FM15-METAR|223|ICAO-KFCH|0.0|C-Calm|1|FM15-METAR|223|ICAO-KFCH|||||||||||||40|Derived||FM15-METAR|223|ICAO-KFCH|||||||||||||||||||||||||||||||||||||||||||||||||||||||||||||||||||||||||1011.2||1|FM15-METAR|223|ICAO-KFCH|||||||||||||||||||||||||||||||||||||||||||MET061METAR KFCH 210215Z AUTO 00000KT 10SM CLR 18/04 A2986 RMK A01=||F||223|ICAO-KFCH
USW00023167|FRESNO CHANDLER DWTN AP|2022|02|21|02|35|36.7333|-119.8167|84.1|18.0||1|FM15-METAR|223|ICAO-KFCH|4.0||1|FM15-METAR|223|ICAO-KFCH|||||||||||||999|C-Calm|9|FM15-METAR|223|ICAO-KFCH|0.0|C-Calm|1|FM15-METAR|223|ICAO-KFCH|||||||||||||40|Derived||FM15-METAR|223|ICAO-KFCH|||||||||||||||||||||||||||||||||||||||||||||||||||||||||||||||||||||||||1011.2||1|FM15-METAR|223|ICAO-KFCH|||||||||||||||||||||||||||||||||||||||||||MET061METAR KFCH 210235Z AUTO 00000KT 10SM CLR 18/04 A2986 RMK A01=||F||223|ICAO-KFCH
USW00023167|FRESNO CHANDLER DWTN AP|2022|02|21|02|55|36.7333|-119.8167|84.1|17.0||1|FM15-METAR|223|ICAO-KFCH|4.0||1|FM15-METAR|223|ICAO-KFCH|||||||||||||999|C-Calm|9|FM15-METAR|223|ICAO-KFCH|0.0|C-Calm|1|FM15-METAR|223|ICAO-KFCH|||||||||||||42|Derived||FM15-METAR|223|ICAO-KFCH|||||||||||||||||||||||||||||||||||||||||||||||||||||||||||||||||||||||||1011.2||1|FM15-METAR|223|ICAO-KFCH|||||||||||||||||||||||||||||||||||||||||||MET061METAR KFCH 210255Z AUTO 00000KT 10SM CLR 17/04 A2986 RMK A01=||F||223|ICAO-KFCH
USW00023167|FRESNO CHANDLER DWTN AP|2022|02|21|03|15|36.7333|-119.8167|84.1|17.0||1|FM15-METAR|223|ICAO-KFCH|5.0||1|FM15-METAR|223|ICAO-KFCH|||||||||||||999|C-Calm|9|FM15-METAR|223|ICAO-KFCH|0.0|C-Calm|1|FM15-METAR|223|ICAO-KFCH|||||||||||||45|Derived||FM15-METAR|223|ICAO-KFCH|||||||||||||||||||||||||||||||||||||||||||||||||||||||||||||||||||||||||1011.2||1|FM15-METAR|223|ICAO-KFCH|||||||||||||||||||||||||||||||||||||||||||MET061METAR KFCH 210315Z AUTO 00000KT 10SM CLR 17/05 A2986 RMK A01=||F||223|ICAO-KFCH
USW00023167|FRESNO CHANDLER DWTN AP|2022|02|21|03|35|36.7333|-119.8167|84.1|16.0||1|FM15-METAR|223|ICAO-KFCH|5.0||1|FM15-METAR|223|ICAO-KFCH|||||||||||||999|C-Calm|9|FM15-METAR|223|ICAO-KFCH|0.0|C-Calm|1|FM15-METAR|223|ICAO-KFCH|||||||||||||48|Derived||FM15-METAR|223|ICAO-KFCH|||||||||||||||||||||||||||||||||||||||||||||||||||||||||||||||||||||||||1011.2||1|FM15-METAR|223|ICAO-KFCH|||||||||||||||||||||||||||||||||||||||||||MET071METAR KFCH 210335Z AUTO 00000KT 10SM FEW090 BKN110 16/05 A2986 RMK A01=||F||223|ICAO-KFCH
USW00023167|FRESNO CHANDLER DWTN AP|2022|02|21|03|55|36.7333|-119.8167|84.1|16.0||1|FM15-METAR|223|ICAO-KFCH|5.0||1|FM15-METAR|223|ICAO-KFCH|||||||||||||999|C-Calm|9|FM15-METAR|223|ICAO-KFCH|0.0|C-Calm|1|FM15-METAR|223|ICAO-KFCH|||||||||||||48|Derived||FM15-METAR|223|ICAO-KFCH|||||||||||||||||||||||||||||||||||||||||||||||||||||||||||||||||||||||||1011.2||1|FM15-METAR|223|ICAO-KFCH|||||||||||||||||||||||||||||||||||||||||||MET071METAR KFCH 210355Z AUTO 00000KT 10SM FEW100 FEW120 16/05 A2986 RMK A01=||F||223|ICAO-KFCH
USW00023167|FRESNO CHANDLER DWTN AP|2022|02|21|04|15|36.7333|-119.8167|84.1|16.0||1|FM15-METAR|223|ICAO-KFCH|5.0||1|FM15-METAR|223|ICAO-KFCH|||||||||||||999|C-Calm|9|FM15-METAR|223|ICAO-KFCH|0.0|C-Calm|1|FM15-METAR|223|ICAO-KFCH|||||||||||||48|Derived||FM15-METAR|223|ICAO-KFCH|||||||||||||||||||||||||||||||||||||||||||||||||||||||||||||||||||||||||1011.2||1|FM15-METAR|223|ICAO-KFCH|||||||||||||||||||||||||||||||||||||||||||MET061METAR KFCH 210415Z AUTO 00000KT 10SM CLR 16/05 A2986 RMK A01=||F||223|ICAO-KFCH
USW00023167|FRESNO CHANDLER DWTN AP|2022|02|21|04|35|36.7333|-119.8167|84.1|15.0||1|FM15-METAR|223|ICAO-KFCH|5.0||1|FM15-METAR|223|ICAO-KFCH|||||||||||||999|C-Calm|9|FM15-METAR|223|ICAO-KFCH|0.0|C-Calm|1|FM15-METAR|223|ICAO-KFCH|||||||||||||51|Derived||FM15-METAR|223|ICAO-KFCH|||||||||||||||||||||||||||||||||||||||||||||||||||||||||||||||||||||||||1010.8||1|FM15-METAR|223|ICAO-KFCH|||||||||||||||||||||||||||||||||||||||||||MET061METAR KFCH 210435Z AUTO 00000KT 10SM CLR 15/05 A2985 RMK A01=||F||223|ICAO-KFCH
USW00023167|FRESNO CHANDLER DWTN AP|2022|02|21|04|55|36.7333|-119.8167|84.1|15.0||1|FM15-METAR|223|ICAO-KFCH|5.0||1|FM15-METAR|223|ICAO-KFCH|||||||||||||999|C-Calm|9|FM15-METAR|223|ICAO-KFCH|0.0|C-Calm|1|FM15-METAR|223|ICAO-KFCH|||||||||||||51|Derived||FM15-METAR|223|ICAO-KFCH|||||||||||||||||||||||||||||||||||||||||||||||||||||||||||||||||||||||||1010.8||1|FM15-METAR|223|ICAO-KFCH|||||||||||||||||||||||||||||||||||||||||||MET061METAR KFCH 210455Z AUTO 00000KT 10SM CLR 15/05 A2985 RMK A01=||F||223|ICAO-KFCH
USW00023167|FRESNO CHANDLER DWTN AP|2022|02|21|05|15|36.7333|-119.8167|84.1|14.0||1|FM15-METAR|223|ICAO-KFCH|5.0||1|FM15-METAR|223|ICAO-KFCH|||||||||||||320|N-Normal|1|FM15-METAR|223|ICAO-KFCH|2.6|N-Normal|1|FM15-METAR|223|ICAO-KFCH|5.1||1|FM15-METAR|223|ICAO-KFCH|||||||55|Derived||FM15-METAR|223|ICAO-KFCH|||||||||||||||||||||||||||||||||||||||||||||||||||||||||||||||||||||||||1011.2||1|FM15-METAR|223|ICAO-KFCH|||||||||||||||||||||||||||||||||||||||||||MET064METAR KFCH 210515Z AUTO 32005G10KT 10SM CLR 14/05 A2986 RMK A01=||F||223|ICAO-KFCH
USW00023167|FRESNO CHANDLER DWTN AP|2022|02|21|05|35|36.7333|-119.8167|84.1|15.0||1|FM15-METAR|223|ICAO-KFCH|5.0||1|FM15-METAR|223|ICAO-KFCH|||||||||||||330|N-Normal|1|FM15-METAR|223|ICAO-KFCH|4.1|N-Normal|1|FM15-METAR|223|ICAO-KFCH|||||||||||||51|Derived||FM15-METAR|223|ICAO-KFCH|||||||||||||||||||||||||||||||||||||||||||||||||||||||||||||||||||||||||1011.5||1|FM15-METAR|223|ICAO-KFCH|||||||||||||||||||||||||||||||||||||||||||MET061METAR KFCH 210535Z AUTO 33008KT 10SM CLR 15/05 A2987 RMK A01=||F||223|ICAO-KFCH
USW00023167|FRESNO CHANDLER DWTN AP|2022|02|21|05|55|36.7333|-119.8167|84.1|15.0||1|FM15-METAR|223|ICAO-KFCH|5.0||1|FM15-METAR|223|ICAO-KFCH|||||||||||||330|N-Normal|1|FM15-METAR|223|ICAO-KFCH|5.1|N-Normal|1|FM15-METAR|223|ICAO-KFCH|7.7||1|FM15-METAR|223|ICAO-KFCH|||||||51|Derived||FM15-METAR|223|ICAO-KFCH|||||||||||||||||||||||||||||||||||||||||||||||||||||||||||||||||||||||||1011.5||1|FM15-METAR|223|ICAO-KFCH|||||||||||||||||||||||||||||||||||||||||||MET067METAR KFCH 210555Z AUTO 33010G15KT 10SM FEW048 15/05 A2987 RMK A01=||F||223|ICAO-KFCH
USW00023167|FRESNO CHANDLER DWTN AP|2022|02|21|06|15|36.7333|-119.8167|84.1|14.0||1|FM15-METAR|223|ICAO-KFCH|6.0||1|FM15-METAR|223|ICAO-KFCH|||||||||||||330|N-Normal|1|FM15-METAR|223|ICAO-KFCH|4.6|N-Normal|1|FM15-METAR|223|ICAO-KFCH|||||||||||||59|Derived||FM15-METAR|223|ICAO-KFCH|||||||||||||||||||||||||||||||||||||||||||||||||||||||||||||||||||||||||1011.8||1|FM15-METAR|223|ICAO-KFCH|||||||||||||||||||||||||||||||||||||||||||MET064METAR KFCH 210615Z AUTO 33009KT 10SM FEW047 14/06 A2988 RMK A01=||F||223|ICAO-KFCH
USW00023167|FRESNO CHANDLER DWTN AP|2022|02|21|06|35|36.7333|-119.8167|84.1|||||||||||||||||||||||||||||||||||||||||||||||||||||||||||||||||||||||||||||||||||||||||||||||||||||||||||||||||||||||||||||||1011.9||4|FM15-METAR|223|ICAO-KFCH|||||||||||||||||||||||||||||||||||||||||||MET044METAR KFCH 210635Z AUTO 330KT A2988 RMK A01=||F||223|ICAO-KFCH
USW00023167|FRESNO CHANDLER DWTN AP|2022|02|21|06|55|36.7333|-119.8167|84.1|13.0||1|FM15-METAR|223|ICAO-KFCH|6.0||1|FM15-METAR|223|ICAO-KFCH|||||||||||||330|N-Normal|1|FM15-METAR|223|ICAO-KFCH|4.1|N-Normal|1|FM15-METAR|223|ICAO-KFCH|6.7||1|FM15-METAR|223|ICAO-KFCH|||||||63|Derived||FM15-METAR|223|ICAO-KFCH|||||||||||||||||||||||||||||||||||||||||||||||||||||||||||||||||||||||||1011.8||1|FM15-METAR|223|ICAO-KFCH|||||||||||||||||||||||||||||||||||||||||||MET060METAR KFCH 210655Z AUTO 33008G13KT 10SM 13/06 A2988 RMK A01=||F||223|ICAO-KFCH
USW00023167|FRESNO CHANDLER DWTN AP|2022|02|21|07|15|36.7333|-119.8167|84.1|12.0||1|FM15-METAR|223|ICAO-KFCH|6.0||1|FM15-METAR|223|ICAO-KFCH|||||||||||||330|N-Normal|1|FM15-METAR|223|ICAO-KFCH|3.6|N-Normal|1|FM15-METAR|223|ICAO-KFCH|6.2||1|FM15-METAR|223|ICAO-KFCH|||||||67|Derived||FM15-METAR|223|ICAO-KFCH|||||||||||||||||||||||||||||||||||||||||||||||||||||||||||||||||||||||||1011.8||1|FM15-METAR|223|ICAO-KFCH|||||||||||||||||||||||||||||||||||||||||||MET067METAR KFCH 210715Z AUTO 33007G12KT 10SM SCT048 12/06 A2988 RMK A01=||F||223|ICAO-KFCH
USW00023167|FRESNO CHANDLER DWTN AP|2022|02|21|07|35|36.7333|-119.8167|84.1|12.0||1|FM15-METAR|223|ICAO-KFCH|6.0||1|FM15-METAR|223|ICAO-KFCH|||||||||||||320|N-Normal|1|FM15-METAR|223|ICAO-KFCH|3.6|N-Normal|1|FM15-METAR|223|ICAO-KFCH|||||||||||||67|Derived||FM15-METAR|223|ICAO-KFCH|||||||||||||||||||||||||||||||||||||||||||||||||||||||||||||||||||||||||1011.5||1|FM15-METAR|223|ICAO-KFCH|||||||||||||||||||||||||||||||||||||||||||MET071METAR KFCH 210735Z AUTO 32007KT 10SM SCT044 BKN050 12/06 A2987 RMK A01=||F||223|ICAO-KFCH
USW00023167|FRESNO CHANDLER DWTN AP|2022|02|21|07|55|36.7333|-119.8167|84.1|11.0||1|FM15-METAR|223|ICAO-KFCH|6.0||1|FM15-METAR|223|ICAO-KFCH|||||||||||||330|N-Normal|1|FM15-METAR|223|ICAO-KFCH|4.6|N-Normal|1|FM15-METAR|223|ICAO-KFCH|||||||||||||72|Derived||FM15-METAR|223|ICAO-KFCH|||||||||||||||||||||||||||||||||||||||||||||||||||||||||||||||||||||||||1011.8||1|FM15-METAR|223|ICAO-KFCH|||||||||||||||||||||||||||||||||||||||||||MET071METAR KFCH 210755Z AUTO 33009KT 10SM FEW044 SCT050 11/06 A2988 RMK A01=||F||223|ICAO-KFCH
USW00023167|FRESNO CHANDLER DWTN AP|2022|02|21|08|10|36.7333|-119.8167|84.1|11.0||1|FM15-METAR|223|ICAO-KFCH|6.0||1|FM15-METAR|223|ICAO-KFCH|||||||||||||330|N-Normal|1|FM15-METAR|223|ICAO-KFCH|4.1|N-Normal|1|FM15-METAR|223|ICAO-KFCH|||||||||||||72|Derived||FM15-METAR|223|ICAO-KFCH|||||||||||||||||||||||||||||||||||||||||||||||||||||||||||||||||||||||||1011.8||1|FM15-METAR|223|ICAO-KFCH|||||||||||||||||||||||||||||||||||||||||||MET061METAR KFCH 210810Z AUTO 33008KT 10SM CLR 11/06 A2988 RMK A01=||F||223|ICAO-KFCH
USW00023167|FRESNO CHANDLER DWTN AP|2022|02|21|08|35|36.7333|-119.8167|84.1|11.0||1|FM15-METAR|223|ICAO-KFCH|6.0||1|FM15-METAR|223|ICAO-KFCH|||||||||||||320|N-Normal|1|FM15-METAR|223|ICAO-KFCH|4.1|N-Normal|1|FM15-METAR|223|ICAO-KFCH|7.2||1|FM15-METAR|223|ICAO-KFCH|||||||72|Derived||FM15-METAR|223|ICAO-KFCH|||||||||||||||||||||||||||||||||||||||||||||||||||||||||||||||||||||||||1012.2||1|FM15-METAR|223|ICAO-KFCH|||||||||||||||||||||||||||||||||||||||||||MET067METAR KFCH 210835Z AUTO 32008G14KT 10SM FEW041 11/06 A2989 RMK A01=||F||223|ICAO-KFCH
USW00023167|FRESNO CHANDLER DWTN AP|2022|02|21|08|55|36.7333|-119.8167|84.1|10.0||1|FM15-METAR|223|ICAO-KFCH|6.0||1|FM15-METAR|223|ICAO-KFCH|||||||||||||320|N-Normal|1|FM15-METAR|223|ICAO-KFCH|6.2|N-Normal|1|FM15-METAR|223|ICAO-KFCH|||||||||||||76|Derived||FM15-METAR|223|ICAO-KFCH|||||||||||||||||||||||||||||||||||||||||||||||||||||||||||||||||||||||||1011.8||1|FM15-METAR|223|ICAO-KFCH|||||||||||||||||||||||||||||||||||||||||||MET071METAR KFCH 210855Z AUTO 32012KT 10SM SCT044 SCT050 10/06 A2988 RMK A01=||F||223|ICAO-KFCH
USW00023167|FRESNO CHANDLER DWTN AP|2022|02|21|09|15|36.7333|-119.8167|84.1|10.0||1|FM15-METAR|223|ICAO-KFCH|5.0||1|FM15-METAR|223|ICAO-KFCH|||||||||||||330|N-Normal|1|FM15-METAR|223|ICAO-KFCH|5.7|N-Normal|1|FM15-METAR|223|ICAO-KFCH|||||||||||||71|Derived||FM15-METAR|223|ICAO-KFCH|||||||||||||||||||||||||||||||||||||||||||||||||||||||||||||||||||||||||1011.8||1|FM15-METAR|223|ICAO-KFCH|||||||||||||||||||||||||||||||||||||||||||MET064METAR KFCH 210915Z AUTO 33011KT 10SM FEW044 10/05 A2988 RMK A01=||F||223|ICAO-KFCH
USW00023167|FRESNO CHANDLER DWTN AP|2022|02|21|09|35|36.7333|-119.8167|84.1|10.0||1|FM15-METAR|223|ICAO-KFCH|5.0||1|FM15-METAR|223|ICAO-KFCH|||||||||||||330|N-Normal|1|FM15-METAR|223|ICAO-KFCH|5.1|N-Normal|1|FM15-METAR|223|ICAO-KFCH|||||||||||||71|Derived||FM15-METAR|223|ICAO-KFCH|||||||||||||||||||||||||||||||||||||||||||||||||||||||||||||||||||||||||1011.8||1|FM15-METAR|223|ICAO-KFCH|||||||||||||||||||||||||||||||||||||||||||MET061METAR KFCH 210935Z AUTO 33010KT 10SM CLR 10/05 A2988 RMK A01=||F||223|ICAO-KFCH
USW00023167|FRESNO CHANDLER DWTN AP|2022|02|21|09|55|36.7333|-119.8167|84.1|9.0||1|FM15-METAR|223|ICAO-KFCH|5.0||1|FM15-METAR|223|ICAO-KFCH|||||||||||||320|N-Normal|1|FM15-METAR|223|ICAO-KFCH|5.7|N-Normal|1|FM15-METAR|223|ICAO-KFCH|9.3||1|FM15-METAR|223|ICAO-KFCH|||||||76|Derived||FM15-METAR|223|ICAO-KFCH|||||||||||||||||||||||||||||||||||||||||||||||||||||||||||||||||||||||||1011.8||1|FM15-METAR|223|ICAO-KFCH|||||||||||||||||||||||||||||||||||||||||||MET064METAR KFCH 210955Z AUTO 32011G18KT 10SM CLR 09/05 A2988 RMK A01=||F||223|ICAO-KFCH
USW00023167|FRESNO CHANDLER DWTN AP|2022|02|21|10|15|36.7333|-119.8167|84.1|9.0||1|FM15-METAR|223|ICAO-KFCH|5.0||1|FM15-METAR|223|ICAO-KFCH|||||||||||||320|N-Normal|1|FM15-METAR|223|ICAO-KFCH|5.7|N-Normal|1|FM15-METAR|223|ICAO-KFCH|8.2||1|FM15-METAR|223|ICAO-KFCH|||||||76|Derived||FM15-METAR|223|ICAO-KFCH|||||||||||||||||||||||||||||||||||||||||||||||||||||||||||||||||||||||||1011.8||1|FM15-METAR|223|ICAO-KFCH|||||||||||||||||||||||||||||||||||||||||||MET064METAR KFCH 211015Z AUTO 32011G16KT 10SM CLR 09/05 A2988 RMK A01=||F||223|ICAO-KFCH
USW00023167|FRESNO CHANDLER DWTN AP|2022|02|21|10|35|36.7333|-119.8167|84.1|9.0||1|FM15-METAR|223|ICAO-KFCH|5.0||1|FM15-METAR|223|ICAO-KFCH|||||||||||||330|N-Normal|1|FM15-METAR|223|ICAO-KFCH|4.1|N-Normal|1|FM15-METAR|223|ICAO-KFCH|6.7||1|FM15-METAR|223|ICAO-KFCH|||||||76|Derived||FM15-METAR|223|ICAO-KFCH|||||||||||||||||||||||||||||||||||||||||||||||||||||||||||||||||||||||||1012.2||1|FM15-METAR|223|ICAO-KFCH|||||||||||||||||||||||||||||||||||||||||||MET064METAR KFCH 211035Z AUTO 33008G13KT 10SM CLR 09/05 A2989 RMK A01=||F||223|ICAO-KFCH
USW00023167|FRESNO CHANDLER DWTN AP|2022|02|21|10|55|36.7333|-119.8167|84.1|8.0||1|FM15-METAR|223|ICAO-KFCH|5.0||1|FM15-METAR|223|ICAO-KFCH|||||||||||||330|N-Normal|1|FM15-METAR|223|ICAO-KFCH|4.6|N-Normal|1|FM15-METAR|223|ICAO-KFCH|||||||||||||82|Derived||FM15-METAR|223|ICAO-KFCH|||||||||||||||||||||||||||||||||||||||||||||||||||||||||||||||||||||||||1011.8||1|FM15-METAR|223|ICAO-KFCH|||||||||||||||||||||||||||||||||||||||||||MET061METAR KFCH 211055Z AUTO 33009KT 10SM CLR 08/05 A2988 RMK A01=||F||223|ICAO-KFCH
USW00023167|FRESNO CHANDLER DWTN AP|2022|02|21|11|15|36.7333|-119.8167|84.1|8.0||1|FM15-METAR|223|ICAO-KFCH|5.0||1|FM15-METAR|223|ICAO-KFCH|||||||||||||||||||||||||||||||||||||82|Derived||FM15-METAR|223|ICAO-KFCH|||||||||||||||||||||||||||||||||||||||||||||||||||||||||||||||||||||||||||||||||||||||||||||||||||||||||||||||||||||||||MET043METAR KFCH 211115Z AUTO 10SM 08/05 RMK A01=||F||223|ICAO-KFCH
USW00023167|FRESNO CHANDLER DWTN AP|2022|02|21|11|35|36.7333|-119.8167|84.1|8.0||1|FM15-METAR|223|ICAO-KFCH|4.0||1|FM15-METAR|223|ICAO-KFCH|||||||||||||330|N-Normal|1|FM15-METAR|223|ICAO-KFCH|3.1|N-Normal|1|FM15-METAR|223|ICAO-KFCH|||||||||||||76|Derived||FM15-METAR|223|ICAO-KFCH|||||||||||||||||||||||||||||||||||||||||||||||||||||||||||||||||||||||||1012.2||1|FM15-METAR|223|ICAO-KFCH|||||||||||||||||||||||||||||||||||||||||||MET057METAR KFCH 211135Z AUTO 33006KT 10SM 08/04 A2989 RMK A01=||F||223|ICAO-KFCH
USW00023167|FRESNO CHANDLER DWTN AP|2022|02|21|11|55|36.7333|-119.8167|84.1|8.0||1|FM15-METAR|223|ICAO-KFCH|3.0||1|FM15-METAR|223|ICAO-KFCH|||||||||||||320|N-Normal|1|FM15-METAR|223|ICAO-KFCH|4.6|N-Normal|1|FM15-METAR|223|ICAO-KFCH|7.2||1|FM15-METAR|223|ICAO-KFCH|||||||71|Derived||FM15-METAR|223|ICAO-KFCH|||||||||||||||||||||||||||||||||||||||||||||||||||||||||||||||||||||||||1012.2||1|FM15-METAR|223|ICAO-KFCH|||||||||||||||||||||||||||||||||||||||||||MET064METAR KFCH 211155Z AUTO 32009G14KT 10SM CLR 08/03 A2989 RMK A01=||F||223|ICAO-KFCH
USW00023167|FRESNO CHANDLER DWTN AP|2022|02|21|12|15|36.7333|-119.8167|84.1|7.0||1|FM15-METAR|223|ICAO-KFCH|3.0||1|FM15-METAR|223|ICAO-KFCH|||||||||||||310|N-Normal|1|FM15-METAR|223|ICAO-KFCH|4.6|N-Normal|1|FM15-METAR|223|ICAO-KFCH|||||||||||||76|Derived||FM15-METAR|223|ICAO-KFCH|||||||||||||||||||||||||||||||||||||||||||||||||||||||||||||||||||||||||1012.2||1|FM15-METAR|223|ICAO-KFCH|||||||||||||||||||||||||||||||||||||||||||MET061METAR KFCH 211215Z AUTO 31009KT 10SM CLR 07/03 A2989 RMK A01=||F||223|ICAO-KFCH
USW00023167|FRESNO CHANDLER DWTN AP|2022|02|21|12|35|36.7333|-119.8167|84.1|7.0||1|FM15-METAR|223|ICAO-KFCH|3.0||1|FM15-METAR|223|ICAO-KFCH|||||||||||||310|N-Normal|1|FM15-METAR|223|ICAO-KFCH|5.7|N-Normal|1|FM15-METAR|223|ICAO-KFCH|9.3||1|FM15-METAR|223|ICAO-KFCH|||||||76|Derived||FM15-METAR|223|ICAO-KFCH|||||||||||||||||||||||||||||||||||||||||||||||||||||||||||||||||||||||||1012.2||1|FM15-METAR|223|ICAO-KFCH|||||||||||||||||||||||||||||||||||||||||||MET064METAR KFCH 211235Z AUTO 31011G18KT 10SM CLR 07/03 A2989 RMK A01=||F||223|ICAO-KFCH
USW00023167|FRESNO CHANDLER DWTN AP|2022|02|21|12|55|36.7333|-119.8167|84.1|7.0||1|FM15-METAR|223|ICAO-KFCH|3.0||1|FM15-METAR|223|ICAO-KFCH|||||||||||||300|N-Normal|1|FM15-METAR|223|ICAO-KFCH|5.1|N-Normal|1|FM15-METAR|223|ICAO-KFCH|||||||||||||76|Derived||FM15-METAR|223|ICAO-KFCH|||||||||||||||||||||||||||||||||||||||||||||||||||||||||||||||||||||||||1012.2||1|FM15-METAR|223|ICAO-KFCH|||||||||||||||||||||||||||||||||||||||||||MET061METAR KFCH 211255Z AUTO 30010KT 10SM CLR 07/03 A2989 RMK A01=||F||223|ICAO-KFCH
USW00023167|FRESNO CHANDLER DWTN AP|2022|02|21|13|15|36.7333|-119.8167|84.1|7.0||1|FM15-METAR|223|ICAO-KFCH|3.0||1|FM15-METAR|223|ICAO-KFCH|||||||||||||290|N-Normal|1|FM15-METAR|223|ICAO-KFCH|4.1|N-Normal|1|FM15-METAR|223|ICAO-KFCH|||||||||||||76|Derived||FM15-METAR|223|ICAO-KFCH|||||||||||||||||||||||||||||||||||||||||||||||||||||||||||||||||||||||||1012.5||1|FM15-METAR|223|ICAO-KFCH|||||||||||||||||||||||||||||||||||||||||||MET061METAR KFCH 211315Z AUTO 29008KT 10SM CLR 07/03 A2990 RMK A01=||F||223|ICAO-KFCH
USW00023167|FRESNO CHANDLER DWTN AP|2022|02|21|13|35|36.7333|-119.8167|84.1|6.0||1|FM15-METAR|223|ICAO-KFCH|3.0||1|FM15-METAR|223|ICAO-KFCH|||||||||||||300|N-Normal|1|FM15-METAR|223|ICAO-KFCH|4.6|N-Normal|1|FM15-METAR|223|ICAO-KFCH|||||||||||||81|Derived||FM15-METAR|223|ICAO-KFCH|||||||||||||||||||||||||||||||||||||||||||||||||||||||||||||||||||||||||1012.5||1|FM15-METAR|223|ICAO-KFCH|||||||||||||||||||||||||||||||||||||||||||MET061METAR KFCH 211335Z AUTO 30009KT 10SM CLR 06/03 A2990 RMK A01=||F||223|ICAO-KFCH
USW00023167|FRESNO CHANDLER DWTN AP|2022|02|21|13|55|36.7333|-119.8167|84.1|6.0||1|FM15-METAR|223|ICAO-KFCH|3.0||1|FM15-METAR|223|ICAO-KFCH|||||||||||||300|N-Normal|1|FM15-METAR|223|ICAO-KFCH|4.6|N-Normal|1|FM15-METAR|223|ICAO-KFCH|||||||||||||81|Derived||FM15-METAR|223|ICAO-KFCH|||||||||||||||||||||||||||||||||||||||||||||||||||||||||||||||||||||||||1012.9||1|FM15-METAR|223|ICAO-KFCH|||||||||||||||||||||||||||||||||||||||||||MET061METAR KFCH 211355Z AUTO 30009KT 10SM CLR 06/03 A2991 RMK A01=||F||223|ICAO-KFCH
USW00023167|FRESNO CHANDLER DWTN AP|2022|02|21|14|15|36.7333|-119.8167|84.1|6.0||1|FM15-METAR|223|ICAO-KFCH|3.0||1|FM15-METAR|223|ICAO-KFCH|||||||||||||310|N-Normal|1|FM15-METAR|223|ICAO-KFCH|3.1|N-Normal|1|FM15-METAR|223|ICAO-KFCH|||||||||||||81|Derived||FM15-METAR|223|ICAO-KFCH|||||||||||||||||||||||||||||||||||||||||||||||||||||||||||||||||||||||||1013.2||1|FM15-METAR|223|ICAO-KFCH|||||||||||||||||||||||||||||||||||||||||||MET061METAR KFCH 211415Z AUTO 31006KT 10SM CLR 06/03 A2992 RMK A01=||F||223|ICAO-KFCH
USW00023167|FRESNO CHANDLER DWTN AP|2022|02|21|14|35|36.7333|-119.8167|84.1|6.0||1|FM15-METAR|223|ICAO-KFCH|3.0||1|FM15-METAR|223|ICAO-KFCH|||||||||||||300|N-Normal|1|FM15-METAR|223|ICAO-KFCH|2.1|N-Normal|1|FM15-METAR|223|ICAO-KFCH|||||||||||||81|Derived||FM15-METAR|223|ICAO-KFCH|||||||||||||||||||||||||||||||||||||||||||||||||||||||||||||||||||||||||1013.5||1|FM15-METAR|223|ICAO-KFCH|||||||||||||||||||||||||||||||||||||||||||MET061METAR KFCH 211435Z AUTO 30004KT 10SM CLR 06/03 A2993 RMK A01=||F||223|ICAO-KFCH
USW00023167|FRESNO CHANDLER DWTN AP|2022|02|21|14|55|36.7333|-119.8167|84.1|6.0||1|FM15-METAR|223|ICAO-KFCH|3.0||1|FM15-METAR|223|ICAO-KFCH|||||||||||||320|N-Normal|1|FM15-METAR|223|ICAO-KFCH|2.1|N-Normal|1|FM15-METAR|223|ICAO-KFCH|||||||||||||81|Derived||FM15-METAR|223|ICAO-KFCH|||||||||||||||||||||||||||||||||||||||||||||||||||||||||||||||||||||||||1013.9||1|FM15-METAR|223|ICAO-KFCH|||||||||||||||||||||||||||||||||||||||||||MET061METAR KFCH 211455Z AUTO 32004KT 10SM CLR 06/03 A2994 RMK A01=||F||223|ICAO-KFCH
USW00023167|FRESNO CHANDLER DWTN AP|2022|02|21|15|15|36.7333|-119.8167|84.1|6.0||1|FM15-METAR|223|ICAO-KFCH|3.0||1|FM15-METAR|223|ICAO-KFCH|||||||||||||999|C-Calm|9|FM15-METAR|223|ICAO-KFCH|0.0|C-Calm|1|FM15-METAR|223|ICAO-KFCH|||||||||||||81|Derived||FM15-METAR|223|ICAO-KFCH|||||||||||||||||||||||||||||||||||||||||||||||||||||||||||||||||||||||||1014.2||1|FM15-METAR|223|ICAO-KFCH|||||||||||||||||||||||||||||||||||||||||||MET064METAR KFCH 211515Z AUTO 00000KT 10SM BKN036 06/03 A2995 RMK A01=||F||223|ICAO-KFCH
USW00023167|FRESNO CHANDLER DWTN AP|2022|02|21|15|35|36.7333|-119.8167|84.1|7.0||1|FM15-METAR|223|ICAO-KFCH|3.0||1|FM15-METAR|223|ICAO-KFCH|||||||||||||999|C-Calm|9|FM15-METAR|223|ICAO-KFCH|0.0|C-Calm|1|FM15-METAR|223|ICAO-KFCH|||||||||||||76|Derived||FM15-METAR|223|ICAO-KFCH|||||||||||||||||||||||||||||||||||||||||||||||||||||||||||||||||||||||||1014.6||1|FM15-METAR|223|ICAO-KFCH|||||||||||||||||||||||||||||||||||||||||||MET064METAR KFCH 211535Z AUTO 00000KT 10SM OVC035 07/03 A2996 RMK A01=||F||223|ICAO-KFCH
USW00023167|FRESNO CHANDLER DWTN AP|2022|02|21|15|55|36.7333|-119.8167|84.1|7.0||1|FM15-METAR|223|ICAO-KFCH|3.0||1|FM15-METAR|223|ICAO-KFCH|||||||||||||999|C-Calm|9|FM15-METAR|223|ICAO-KFCH|0.0|C-Calm|1|FM15-METAR|223|ICAO-KFCH|||||||||||||76|Derived||FM15-METAR|223|ICAO-KFCH|||||||||||||||||||||||||||||||||||||||||||||||||||||||||||||||||||||||||1014.9||1|FM15-METAR|223|ICAO-KFCH|||||||||||||||||||||||||||||||||||||||||||MET064METAR KFCH 211555Z AUTO 00000KT 10SM OVC034 07/03 A2997 RMK A01=||F||223|ICAO-KFCH
USW00023167|FRESNO CHANDLER DWTN AP|2022|02|21|16|15|36.7333|-119.8167|84.1|8.0||1|FM15-METAR|223|ICAO-KFCH|3.0||1|FM15-METAR|223|ICAO-KFCH|||||||||||||999|C-Calm|9|FM15-METAR|223|ICAO-KFCH|0.0|C-Calm|1|FM15-METAR|223|ICAO-KFCH|||||||||||||71|Derived||FM15-METAR|223|ICAO-KFCH|||||||||||||||||||||||||||||||||||||||||||||||||||||||||||||||||||||||||1015.2||1|FM15-METAR|223|ICAO-KFCH|||||||||||||||||||||||||||||||||||||||||||MET064METAR KFCH 211615Z AUTO 00000KT 10SM OVC036 08/03 A2998 RMK A01=||F||223|ICAO-KFCH
USW00023167|FRESNO CHANDLER DWTN AP|2022|02|21|16|35|36.7333|-119.8167|84.1|8.0||1|FM15-METAR|223|ICAO-KFCH|3.0||1|FM15-METAR|223|ICAO-KFCH|||||||||||||999|C-Calm|9|FM15-METAR|223|ICAO-KFCH|0.0|C-Calm|1|FM15-METAR|223|ICAO-KFCH|||||||||||||71|Derived||FM15-METAR|223|ICAO-KFCH|||||||||||||||||||||||||||||||||||||||||||||||||||||||||||||||||||||||||1015.6||1|FM15-METAR|223|ICAO-KFCH|||||||||||||||||||||||||||||||||||||||||||MET064METAR KFCH 211635Z AUTO 00000KT 10SM OVC037 08/03 A2999 RMK A01=||F||223|ICAO-KFCH
USW00023167|FRESNO CHANDLER DWTN AP|2022|02|21|16|55|36.7333|-119.8167|84.1|9.0||1|FM15-METAR|223|ICAO-KFCH|3.0||1|FM15-METAR|223|ICAO-KFCH|||||||||||||999|C-Calm|9|FM15-METAR|223|ICAO-KFCH|0.0|C-Calm|1|FM15-METAR|223|ICAO-KFCH|||||||||||||66|Derived||FM15-METAR|223|ICAO-KFCH|||||||||||||||||||||||||||||||||||||||||||||||||||||||||||||||||||||||||1015.6||1|FM15-METAR|223|ICAO-KFCH|||||||||||||||||||||||||||||||||||||||||||MET057METAR KFCH 211655Z AUTO 00000KT 10SM 09/03 A2999 RMK A01=||F||223|ICAO-KFCH
USW00023167|FRESNO CHANDLER DWTN AP|2022|02|21|17|15|36.7333|-119.8167|84.1|9.0||1|FM15-METAR|223|ICAO-KFCH|4.0||1|FM15-METAR|223|ICAO-KFCH|||||||||||||999|C-Calm|9|FM15-METAR|223|ICAO-KFCH|0.0|C-Calm|1|FM15-METAR|223|ICAO-KFCH|||||||||||||71|Derived||FM15-METAR|223|ICAO-KFCH|||||||||||||||||||||||||||||||||||||||||||||||||||||||||||||||||||||||||1015.9||1|FM15-METAR|223|ICAO-KFCH|||||||||||||||||||||||||||||||||||||||||||MET064METAR KFCH 211715Z AUTO 00000KT 10SM OVC037 09/04 A3000 RMK A01=||F||223|ICAO-KFCH
USW00023167|FRESNO CHANDLER DWTN AP|2022|02|21|17|35|36.7333|-119.8167|84.1|10.0||1|FM15-METAR|223|ICAO-KFCH|3.0||1|FM15-METAR|223|ICAO-KFCH|||||||||||||999|V-Variable|9|FM15-METAR|223|ICAO-KFCH|2.6|V-Variable|1|FM15-METAR|223|ICAO-KFCH|||||||||||||62|Derived||FM15-METAR|223|ICAO-KFCH|||||||||||||||||||||||||||||||||||||||||||||||||||||||||||||||||||||||||1016.3||1|FM15-METAR|223|ICAO-KFCH|||||||||||||||||||||||||||||||||||||||||||MET057METAR KFCH 211735Z AUTO VRB05KT 10SM 10/03 A3001 RMK A01=||F||223|ICAO-KFCH
USW00023167|FRESNO CHANDLER DWTN AP|2022|02|21|17|55|36.7333|-119.8167|84.1|11.0||1|FM15-METAR|223|ICAO-KFCH|2.0||1|FM15-METAR|223|ICAO-KFCH|||||||||||||310|N-Normal|1|FM15-METAR|223|ICAO-KFCH|4.1|N-Normal|1|FM15-METAR|223|ICAO-KFCH|||||||||||||54|Derived||FM15-METAR|223|ICAO-KFCH|||||||||||||||||||||||||||||||||||||||||||||||||||||||||||||||||||||||||1016.3||1|FM15-METAR|223|ICAO-KFCH|||||||||||||||||||||||||||||||||||||||||||MET057METAR KFCH 211755Z AUTO 31008KT 10SM 11/02 A3001 RMK A01=||F||223|ICAO-KFCH
USW00023167|FRESNO CHANDLER DWTN AP|2022|02|21|18|15|36.7333|-119.8167|84.1|11.0||1|FM15-METAR|223|ICAO-KFCH|2.0||1|FM15-METAR|223|ICAO-KFCH|||||||||||||320|N-Normal|1|FM15-METAR|223|ICAO-KFCH|4.1|N-Normal|1|FM15-METAR|223|ICAO-KFCH|7.7||1|FM15-METAR|223|ICAO-KFCH|||||||54|Derived||FM15-METAR|223|ICAO-KFCH|||||||||||||||||||||||||||||||||||||||||||||||||||||||||||||||||||||||||1016.6||1|FM15-METAR|223|ICAO-KFCH|||||||||||||||||||||||||||||||||||||||||||MET067METAR KFCH 211815Z AUTO 32008G15KT 10SM FEW034 11/02 A3002 RMK A01=||F||223|ICAO-KFCH
USW00023167|FRESNO CHANDLER DWTN AP|2022|02|21|18|35|36.7333|-119.8167|84.1|12.0||1|FM15-METAR|223|ICAO-KFCH|2.0||1|FM15-METAR|223|ICAO-KFCH|||||||||||||340|N-Normal|1|FM15-METAR|223|ICAO-KFCH|3.6|N-Normal|1|FM15-METAR|223|ICAO-KFCH|7.2||1|FM15-METAR|223|ICAO-KFCH|||||||51|Derived||FM15-METAR|223|ICAO-KFCH|||||||||||||||||||||||||||||||||||||||||||||||||||||||||||||||||||||||||1016.6||1|FM15-METAR|223|ICAO-KFCH|||||||||||||||||||||||||||||||||||||||||||MET067METAR KFCH 211835Z AUTO 34007G14KT 10SM FEW035 12/02 A3002 RMK A01=||F||223|ICAO-KFCH
USW00023167|FRESNO CHANDLER DWTN AP|2022|02|21|18|55|36.7333|-119.8167|84.1|12.0||1|FM15-METAR|223|ICAO-KFCH|2.0||1|FM15-METAR|223|ICAO-KFCH|||||||||||||999|V-Variable|9|FM15-METAR|223|ICAO-KFCH|2.6|V-Variable|1|FM15-METAR|223|ICAO-KFCH|6.2||1|FM15-METAR|223|ICAO-KFCH|||||||51|Derived||FM15-METAR|223|ICAO-KFCH|||||||||||||||||||||||||||||||||||||||||||||||||||||||||||||||||||||||||1016.6||1|FM15-METAR|223|ICAO-KFCH|||||||||||||||||||||||||||||||||||||||||||MET067METAR KFCH 211855Z AUTO VRB05G12KT 10SM BKN036 12/02 A3002 RMK A01=||F||223|ICAO-KFCH
USW00023167|FRESNO CHANDLER DWTN AP|2022|02|21|19|15|36.7333|-119.8167|84.1|12.0||1|FM15-METAR|223|ICAO-KFCH|3.0||1|FM15-METAR|223|ICAO-KFCH|||||||||||||300|N-Normal|1|FM15-METAR|223|ICAO-KFCH|3.1|N-Normal|1|FM15-METAR|223|ICAO-KFCH|6.7||1|FM15-METAR|223|ICAO-KFCH|||||||54|Derived||FM15-METAR|223|ICAO-KFCH|||||||||||||||||||||||||||||||||||||||||||||||||||||||||||||||||||||||||1016.9||1|FM15-METAR|223|ICAO-KFCH|||||||||||||||||||||||||||||||||||||||||||MET067METAR KFCH 211915Z AUTO 30006G13KT 10SM BKN035 12/03 A3003 RMK A01=||F||223|ICAO-KFCH
USW00023167|FRESNO CHANDLER DWTN AP|2022|02|21|19|35|36.7333|-119.8167|84.1|12.0||1|FM15-METAR|223|ICAO-KFCH|3.0||1|FM15-METAR|223|ICAO-KFCH|||||||||||||999|V-Variable|9|FM15-METAR|223|ICAO-KFCH|2.1|V-Variable|1|FM15-METAR|223|ICAO-KFCH|5.7||1|FM15-METAR|223|ICAO-KFCH|||||||54|Derived||FM15-METAR|223|ICAO-KFCH|||||||||||||||||||||||||||||||||||||||||||||||||||||||||||||||||||||||||1016.9||1|FM15-METAR|223|ICAO-KFCH|||||||||||||||||||||||||||||||||||||||||||MET074METAR KFCH 211935Z AUTO VRB04G11KT 10SM SCT033 SCT039 12/03 A3003 RMK A01=||F||223|ICAO-KFCH
USW00023167|FRESNO CHANDLER DWTN AP|2022|02|21|19|50|36.7333|-119.8167|84.1|12.0||1|FM15-METAR|223|ICAO-KFCH|3.0||1|FM15-METAR|223|ICAO-KFCH|||||||||||||999|V-Variable|9|FM15-METAR|223|ICAO-KFCH|1.5|V-Variable|1|FM15-METAR|223|ICAO-KFCH|6.7||1|FM15-METAR|223|ICAO-KFCH|||||||54|Derived||FM15-METAR|223|ICAO-KFCH|||||||||||||||||||||||||||||||||||||||||||||||||||||||||||||||||||||||||1016.9||1|FM15-METAR|223|ICAO-KFCH|||||||||||||||||||||||||||||||||||||||||||MET074METAR KFCH 211950Z AUTO VRB03G13KT 10SM FEW034 FEW040 12/03 A3003 RMK A01=||F||223|ICAO-KFCH
USW00023167|FRESNO CHANDLER DWTN AP|2022|02|21|20|15|36.7333|-119.8167|84.1|12.0||1|FM15-METAR|223|ICAO-KFCH|3.0||1|FM15-METAR|223|ICAO-KFCH|||||||||||||010|V-Variable|1|FM15-METAR|223|ICAO-KFCH|3.6|V-Variable|1|FM15-METAR|223|ICAO-KFCH|6.7||1|FM15-METAR|223|ICAO-KFCH|||||||54|Derived||FM15-METAR|223|ICAO-KFCH|||||||||||||||||||||||||||||||||||||||||||||||||||||||||||||||||||||||||1016.6||1|FM15-METAR|223|ICAO-KFCH|||||||||||||||||||||||||||||||||||||||||||MET075METAR KFCH 212015Z AUTO 01007G13KT 340V040 10SM FEW034 12/03 A3002 RMK A01=||F||223|ICAO-KFCH
USW00023167|FRESNO CHANDLER DWTN AP|2022|02|21|20|35|36.7333|-119.8167|84.1|13.0||1|FM15-METAR|223|ICAO-KFCH|3.0||1|FM15-METAR|223|ICAO-KFCH|||||||||||||330|N-Normal|1|FM15-METAR|223|ICAO-KFCH|4.6|N-Normal|1|FM15-METAR|223|ICAO-KFCH|||||||||||||51|Derived||FM15-METAR|223|ICAO-KFCH|||||||||||||||||||||||||||||||||||||||||||||||||||||||||||||||||||||||||1016.3||1|FM15-METAR|223|ICAO-KFCH|||||||||||||||||||||||||||||||||||||||||||MET061METAR KFCH 212035Z AUTO 33009KT 10SM CLR 13/03 A3001 RMK A01=||F||223|ICAO-KFCH
USW00023167|FRESNO CHANDLER DWTN AP|2022|02|21|20|55|36.7333|-119.8167|84.1|13.0||1|FM15-METAR|223|ICAO-KFCH|2.0||1|FM15-METAR|223|ICAO-KFCH|||||||||||||999|V-Variable|9|FM15-METAR|223|ICAO-KFCH|3.1|V-Variable|1|FM15-METAR|223|ICAO-KFCH|7.2||1|FM15-METAR|223|ICAO-KFCH|||||||47|Derived||FM15-METAR|223|ICAO-KFCH|||||||||||||||||||||||||||||||||||||||||||||||||||||||||||||||||||||||||1016.3||1|FM15-METAR|223|ICAO-KFCH|||||||||||||||||||||||||||||||||||||||||||MET064METAR KFCH 212055Z AUTO VRB06G14KT 10SM CLR 13/02 A3001 RMK A01=||F||223|ICAO-KFCH
USW00023167|FRESNO CHANDLER DWTN AP|2022|02|21|21|15|36.7333|-119.8167|84.1|13.0||1|FM15-METAR|223|ICAO-KFCH|2.0||1|FM15-METAR|223|ICAO-KFCH|||||||||||||999|V-Variable|9|FM15-METAR|223|ICAO-KFCH|2.1|V-Variable|1|FM15-METAR|223|ICAO-KFCH|7.7||1|FM15-METAR|223|ICAO-KFCH|||||||47|Derived||FM15-METAR|223|ICAO-KFCH|||||||||||||||||||||||||||||||||||||||||||||||||||||||||||||||||||||||||1015.9||1|FM15-METAR|223|ICAO-KFCH|||||||||||||||||||||||||||||||||||||||||||MET064METAR KFCH 212115Z AUTO VRB04G15KT 10SM CLR 13/02 A3000 RMK A01=||F||223|ICAO-KFCH
USW00023167|FRESNO CHANDLER DWTN AP|2022|02|21|21|35|36.7333|-119.8167|84.1|13.0||1|FM15-METAR|223|ICAO-KFCH|2.0||1|FM15-METAR|223|ICAO-KFCH|||||||||||||340|N-Normal|1|FM15-METAR|223|ICAO-KFCH|5.1|N-Normal|1|FM15-METAR|223|ICAO-KFCH|||||||||||||47|Derived||FM15-METAR|223|ICAO-KFCH|||||||||||||||||||||||||||||||||||||||||||||||||||||||||||||||||||||||||1015.9||1|FM15-METAR|223|ICAO-KFCH|||||||||||||||||||||||||||||||||||||||||||MET061METAR KFCH 212135Z AUTO 34010KT 10SM CLR 13/02 A3000 RMK A01=||F||223|ICAO-KFCH
USW00023167|FRESNO CHANDLER DWTN AP|2022|02|21|21|55|36.7333|-119.8167|84.1|14.0||1|FM15-METAR|223|ICAO-KFCH|1.0||1|FM15-METAR|223|ICAO-KFCH|||||||||||||300|V-Variable|1|FM15-METAR|223|ICAO-KFCH|4.6|V-Variable|1|FM15-METAR|223|ICAO-KFCH|||||||||||||41|Derived||FM15-METAR|223|ICAO-KFCH|||||||||||||||||||||||||||||||||||||||||||||||||||||||||||||||||||||||||1015.9||1|FM15-METAR|223|ICAO-KFCH|||||||||||||||||||||||||||||||||||||||||||MET069METAR KFCH 212155Z AUTO 30009KT 280V360 10SM CLR 14/01 A3000 RMK A01=||F||223|ICAO-KFCH
USW00023167|FRESNO CHANDLER DWTN AP|2022|02|21|22|15|36.7333|-119.8167|84.1|14.0||1|FM15-METAR|223|ICAO-KFCH|2.0||1|FM15-METAR|223|ICAO-KFCH|||||||||||||350|N-Normal|1|FM15-METAR|223|ICAO-KFCH|4.1|N-Normal|1|FM15-METAR|223|ICAO-KFCH|7.2||1|FM15-METAR|223|ICAO-KFCH|||||||44|Derived||FM15-METAR|223|ICAO-KFCH|||||||||||||||||||||||||||||||||||||||||||||||||||||||||||||||||||||||||1015.9||1|FM15-METAR|223|ICAO-KFCH|||||||||||||||||||||||||||||||||||||||||||MET064METAR KFCH 212215Z AUTO 35008G14KT 10SM CLR 14/02 A3000 RMK A01=||F||223|ICAO-KFCH
USW00023167|FRESNO CHANDLER DWTN AP|2022|02|21|22|35|36.7333|-119.8167|84.1|14.0||1|FM15-METAR|223|ICAO-KFCH|1.0||1|FM15-METAR|223|ICAO-KFCH|||||||||||||300|N-Normal|1|FM15-METAR|223|ICAO-KFCH|3.1|N-Normal|1|FM15-METAR|223|ICAO-KFCH|||||||||||||41|Derived||FM15-METAR|223|ICAO-KFCH|||||||||||||||||||||||||||||||||||||||||||||||||||||||||||||||||||||||||1015.9||1|FM15-METAR|223|ICAO-KFCH|||||||||||||||||||||||||||||||||||||||||||MET061METAR KFCH 212235Z AUTO 30006KT 10SM CLR 14/01 A3000 RMK A01=||F||223|ICAO-KFCH
USW00023167|FRESNO CHANDLER DWTN AP|2022|02|21|22|55|36.7333|-119.8167|84.1|15.0||1|FM15-METAR|223|ICAO-KFCH|2.0||1|FM15-METAR|223|ICAO-KFCH|||||||||||||340|N-Normal|1|FM15-METAR|223|ICAO-KFCH|3.1|N-Normal|1|FM15-METAR|223|ICAO-KFCH|||||||||||||42|Derived||FM15-METAR|223|ICAO-KFCH|||||||||||||||||||||||||||||||||||||||||||||||||||||||||||||||||||||||||1015.9||1|FM15-METAR|223|ICAO-KFCH|||||||||||||||||||||||||||||||||||||||||||MET061METAR KFCH 212255Z AUTO 34006KT 10SM CLR 15/02 A3000 RMK A01=||F||223|ICAO-KFCH
USW00023167|FRESNO CHANDLER DWTN AP|2022|02|21|23|15|36.7333|-119.8167|84.1|14.0||1|FM15-METAR|223|ICAO-KFCH|2.0||1|FM15-METAR|223|ICAO-KFCH|||||||||||||300|V-Variable|1|FM15-METAR|223|ICAO-KFCH|4.1|V-Variable|1|FM15-METAR|223|ICAO-KFCH|||||||||||||44|Derived||FM15-METAR|223|ICAO-KFCH|||||||||||||||||||||||||||||||||||||||||||||||||||||||||||||||||||||||||1015.6||1|FM15-METAR|223|ICAO-KFCH|||||||||||||||||||||||||||||||||||||||||||MET072METAR KFCH 212315Z AUTO 30008KT 290V360 10SM FEW050 14/02 A2999 RMK A01=||F||223|ICAO-KFCH
USW00023167|FRESNO CHANDLER DWTN AP|2022|02|21|23|35|36.7333|-119.8167|84.1|14.0||1|FM15-METAR|223|ICAO-KFCH|1.0||1|FM15-METAR|223|ICAO-KFCH|||||||||||||350|N-Normal|1|FM15-METAR|223|ICAO-KFCH|4.1|N-Normal|1|FM15-METAR|223|ICAO-KFCH|||||||||||||41|Derived||FM15-METAR|223|ICAO-KFCH|||||||||||||||||||||||||||||||||||||||||||||||||||||||||||||||||||||||||1015.6||1|FM15-METAR|223|ICAO-KFCH|||||||||||||||||||||||||||||||||||||||||||MET071METAR KFCH 212335Z AUTO 35008KT 10SM FEW050 FEW060 14/01 A2999 RMK A01=||F||223|ICAO-KFCH
USW00023167|FRESNO CHANDLER DWTN AP|2022|02|21|23|55|36.7333|-119.8167|84.1|14.0||1|FM15-METAR|223|ICAO-KFCH|0.0||1|FM15-METAR|223|ICAO-KFCH|||||||||||||010|N-Normal|1|FM15-METAR|223|ICAO-KFCH|3.1|N-Normal|1|FM15-METAR|223|ICAO-KFCH|||||||||||||39|Derived||FM15-METAR|223|ICAO-KFCH|||||||||||||||||||||||||||||||||||||||||||||||||||||||||||||||||||||||||1015.2||1|FM15-METAR|223|ICAO-KFCH|||||||||||||||||||||||||||||||||||||||||||MET061METAR KFCH 212355Z AUTO 01006KT 10SM CLR 14/00 A2998 RMK A01=||F||223|ICAO-KFCH
USW00023167|FRESNO CHANDLER DWTN AP|2022|02|22|00|15|36.7333|-119.8167|84.1|14.0||1|FM15-METAR|223|ICAO-KFCH|-2.0||1|FM15-METAR|223|ICAO-KFCH|||||||||||||340|N-Normal|1|FM15-METAR|223|ICAO-KFCH|4.1|N-Normal|1|FM15-METAR|223|ICAO-KFCH|7.2||1|FM15-METAR|223|ICAO-KFCH|||||||33|Derived||FM15-METAR|223|ICAO-KFCH|||||||||||||||||||||||||||||||||||||||||||||||||||||||||||||||||||||||||1014.9||1|FM15-METAR|223|ICAO-KFCH|||||||||||||||||||||||||||||||||||||||||||MET065METAR KFCH 220015Z AUTO 34008G14KT 10SM CLR 14/M02 A2997 RMK A01=||F||223|ICAO-KFCH
USW00023167|FRESNO CHANDLER DWTN AP|2022|02|22|00|30|36.7333|-119.8167|84.1|14.0||1|FM15-METAR|223|ICAO-KFCH|0.0||1|FM15-METAR|223|ICAO-KFCH|||||||||||||360|N-Normal|1|FM15-METAR|223|ICAO-KFCH|3.6|N-Normal|1|FM15-METAR|223|ICAO-KFCH|6.7||1|FM15-METAR|223|ICAO-KFCH|||||||39|Derived||FM15-METAR|223|ICAO-KFCH|||||||||||||||||||||||||||||||||||||||||||||||||||||||||||||||||||||||||1014.9||1|FM15-METAR|223|ICAO-KFCH|||||||||||||||||||||||||||||||||||||||||||MET065METAR KFCH 220030Z AUTO 36007G13KT 10SM CLR 14/M00 A2997 RMK A01=||F||223|ICAO-KFCH
USW00023167|FRESNO CHANDLER DWTN AP|2022|02|22|00|55|36.7333|-119.8167|84.1|14.0||1|FM15-METAR|223|ICAO-KFCH|-1.0||1|FM15-METAR|223|ICAO-KFCH|||||||||||||010|V-Variable|1|FM15-METAR|223|ICAO-KFCH|3.6|V-Variable|1|FM15-METAR|223|ICAO-KFCH|6.2||1|FM15-METAR|223|ICAO-KFCH|||||||36|Derived||FM15-METAR|223|ICAO-KFCH|||||||||||||||||||||||||||||||||||||||||||||||||||||||||||||||||||||||||1014.9||1|FM15-METAR|223|ICAO-KFCH|||||||||||||||||||||||||||||||||||||||||||MET073METAR KFCH 220055Z AUTO 01007G12KT 340V040 10SM CLR 14/M01 A2997 RMK A01=||F||223|ICAO-KFCH
USW00023167|FRESNO CHANDLER DWTN AP|2022|02|22|01|10|36.7333|-119.8167|84.1|13.0||1|FM15-METAR|223|ICAO-KFCH|-3.0||1|FM15-METAR|223|ICAO-KFCH|||||||||||||020|N-Normal|1|FM15-METAR|223|ICAO-KFCH|4.6|N-Normal|1|FM15-METAR|223|ICAO-KFCH|||||||||||||33|Derived||FM15-METAR|223|ICAO-KFCH|||||||||||||||||||||||||||||||||||||||||||||||||||||||||||||||||||||||||1014.9||1|FM15-METAR|223|ICAO-KFCH|||||||||||||||||||||||||||||||||||||||||||MET062METAR KFCH 220110Z AUTO 02009KT 10SM CLR 13/M03 A2997 RMK A01=||F||223|ICAO-KFCH
USW00023167|FRESNO CHANDLER DWTN AP|2022|02|22|01|30|36.7333|-119.8167|84.1|13.0||1|FM15-METAR|223|ICAO-KFCH|-4.0||1|FM15-METAR|223|ICAO-KFCH|||||||||||||360|N-Normal|1|FM15-METAR|223|ICAO-KFCH|2.6|N-Normal|1|FM15-METAR|223|ICAO-KFCH|||||||||||||31|Derived||FM15-METAR|223|ICAO-KFCH|||||||||||||||||||||||||||||||||||||||||||||||||||||||||||||||||||||||||1015.2||1|FM15-METAR|223|ICAO-KFCH|||||||||||||||||||||||||||||||||||||||||||MET062METAR KFCH 220130Z AUTO 36005KT 10SM CLR 13/M04 A2998 RMK A01=||F||223|ICAO-KFCH
USW00023167|FRESNO CHANDLER DWTN AP|2022|02|22|01|55|36.7333|-119.8167|84.1|12.0||1|FM15-METAR|223|ICAO-KFCH|-5.0||1|FM15-METAR|223|ICAO-KFCH|||||||||||||360|N-Normal|1|FM15-METAR|223|ICAO-KFCH|2.6|N-Normal|1|FM15-METAR|223|ICAO-KFCH|||||||||||||30|Derived||FM15-METAR|223|ICAO-KFCH|||||||||||||||||||||||||||||||||||||||||||||||||||||||||||||||||||||||||1014.9||1|FM15-METAR|223|ICAO-KFCH|||||||||||||||||||||||||||||||||||||||||||MET062METAR KFCH 220155Z AUTO 36005KT 10SM CLR 12/M05 A2997 RMK A01=||F||223|ICAO-KFCH
USW00023167|FRESNO CHANDLER DWTN AP|2022|02|22|02|15|36.7333|-119.8167|84.1|12.0||4|FM15-METAR|223|ICAO-KFCH|-4.0||4|FM15-METAR|223|ICAO-KFCH|||||||||||||||||||||||||||||||||||||33|Derived||FM15-METAR|223|ICAO-KFCH|||||||||||||||||||||||||||||||||||||||||||||||||||||||||||||||||||||||||1015.2||4|FM15-METAR|223|ICAO-KFCH|||||||||||||||||||||||||||||||||||||||||||MET060METAR KFCH 220215Z AUTO 350KT 10SM CLR 12/M04 A2998 RMK A01=||F||223|ICAO-KFCH
USW00023167|FRESNO CHANDLER DWTN AP|2022|02|22|02|35|36.7333|-119.8167|84.1|12.0||1|FM15-METAR|223|ICAO-KFCH|-4.0||1|FM15-METAR|223|ICAO-KFCH|||||||||||||350|N-Normal|1|FM15-METAR|223|ICAO-KFCH|2.1|N-Normal|1|FM15-METAR|223|ICAO-KFCH|||||||||||||33|Derived||FM15-METAR|223|ICAO-KFCH|||||||||||||||||||||||||||||||||||||||||||||||||||||||||||||||||||||||||1015.2||1|FM15-METAR|223|ICAO-KFCH|||||||||||||||||||||||||||||||||||||||||||MET058METAR KFCH 220235Z AUTO 35004KT 10SM 12/M04 A2998 RMK A01=||F||223|ICAO-KFCH
USW00023167|FRESNO CHANDLER DWTN AP|2022|02|22|02|55|36.7333|-119.8167|84.1|11.0||1|FM15-METAR|223|ICAO-KFCH|-4.0||1|FM15-METAR|223|ICAO-KFCH|||||||||||||360|N-Normal|1|FM15-METAR|223|ICAO-KFCH|1.5|N-Normal|1|FM15-METAR|223|ICAO-KFCH|||||||||||||35|Derived||FM15-METAR|223|ICAO-KFCH|||||||||||||||||||||||||||||||||||||||||||||||||||||||||||||||||||||||||1015.2||1|FM15-METAR|223|ICAO-KFCH|||||||||||||||||||||||||||||||||||||||||||MET062METAR KFCH 220255Z AUTO 36003KT 10SM CLR 11/M04 A2998 RMK A01=||F||223|ICAO-KFCH
USW00023167|FRESNO CHANDLER DWTN AP|2022|02|22|03|10|36.7333|-119.8167|84.1|11.0||1|FM15-METAR|223|ICAO-KFCH|-4.0||1|FM15-METAR|223|ICAO-KFCH|||||||||||||360|N-Normal|1|FM15-METAR|223|ICAO-KFCH|1.5|N-Normal|1|FM15-METAR|223|ICAO-KFCH|||||||||||||35|Derived||FM15-METAR|223|ICAO-KFCH|||||||||||||||||||||||||||||||||||||||||||||||||||||||||||||||||||||||||1015.6||1|FM15-METAR|223|ICAO-KFCH|||||||||||||||||||||||||||||||||||||||||||MET062METAR KFCH 220310Z AUTO 36003KT 10SM CLR 11/M04 A2999 RMK A01=||F||223|ICAO-KFCH
USW00023167|FRESNO CHANDLER DWTN AP|2022|02|22|03|30|36.7333|-119.8167|84.1|11.0||1|FM15-METAR|223|ICAO-KFCH|-3.0||1|FM15-METAR|223|ICAO-KFCH|||||||||||||010|N-Normal|1|FM15-METAR|223|ICAO-KFCH|2.6|N-Normal|1|FM15-METAR|223|ICAO-KFCH|||||||||||||38|Derived||FM15-METAR|223|ICAO-KFCH|||||||||||||||||||||||||||||||||||||||||||||||||||||||||||||||||||||||||1015.6||1|FM15-METAR|223|ICAO-KFCH|||||||||||||||||||||||||||||||||||||||||||MET062METAR KFCH 220330Z AUTO 01005KT 10SM CLR 11/M03 A2999 RMK A01=||F||223|ICAO-KFCH
USW00023167|FRESNO CHANDLER DWTN AP|2022|02|22|03|55|36.7333|-119.8167|84.1|11.0||1|FM15-METAR|223|ICAO-KFCH|-3.0||1|FM15-METAR|223|ICAO-KFCH|||||||||||||010|N-Normal|1|FM15-METAR|223|ICAO-KFCH|1.5|N-Normal|1|FM15-METAR|223|ICAO-KFCH|||||||||||||38|Derived||FM15-METAR|223|ICAO-KFCH|||||||||||||||||||||||||||||||||||||||||||||||||||||||||||||||||||||||||1015.6||1|FM15-METAR|223|ICAO-KFCH|||||||||||||||||||||||||||||||||||||||||||MET065METAR KFCH 220355Z AUTO 01003KT 10SM FEW060 11/M03 A2999 RMK A01=||F||223|ICAO-KFCH
USW00023167|FRESNO CHANDLER DWTN AP|2022|02|22|04|15|36.7333|-119.8167|84.1|10.0||1|FM15-METAR|223|ICAO-KFCH|-3.0||1|FM15-METAR|223|ICAO-KFCH|||||||||||||999|C-Calm|9|FM15-METAR|223|ICAO-KFCH|0.0|C-Calm|1|FM15-METAR|223|ICAO-KFCH|||||||||||||40|Derived||FM15-METAR|223|ICAO-KFCH|||||||||||||||||||||||||||||||||||||||||||||||||||||||||||||||||||||||||1015.6||1|FM15-METAR|223|ICAO-KFCH|||||||||||||||||||||||||||||||||||||||||||MET065METAR KFCH 220415Z AUTO 00000KT 10SM SCT060 10/M03 A2999 RMK A01=||F||223|ICAO-KFCH
USW00023167|FRESNO CHANDLER DWTN AP|2022|02|22|04|30|36.7333|-119.8167|84.1|10.0||1|FM15-METAR|223|ICAO-KFCH|-3.0||1|FM15-METAR|223|ICAO-KFCH|||||||||||||999|C-Calm|9|FM15-METAR|223|ICAO-KFCH|0.0|C-Calm|1|FM15-METAR|223|ICAO-KFCH|||||||||||||40|Derived||FM15-METAR|223|ICAO-KFCH|||||||||||||||||||||||||||||||||||||||||||||||||||||||||||||||||||||||||1015.9||1|FM15-METAR|223|ICAO-KFCH|||||||||||||||||||||||||||||||||||||||||||MET065METAR KFCH 220430Z AUTO 00000KT 10SM OVC065 10/M03 A3000 RMK A01=||F||223|ICAO-KFCH
USW00023167|FRESNO CHANDLER DWTN AP|2022|02|22|04|55|36.7333|-119.8167|84.1|10.0||1|FM15-METAR|223|ICAO-KFCH|-3.0||1|FM15-METAR|223|ICAO-KFCH|||||||||||||999|C-Calm|9|FM15-METAR|223|ICAO-KFCH|0.0|C-Calm|1|FM15-METAR|223|ICAO-KFCH|||||||||||||40|Derived||FM15-METAR|223|ICAO-KFCH|||||||||||||||||||||||||||||||||||||||||||||||||||||||||||||||||||||||||1015.9||1|FM15-METAR|223|ICAO-KFCH|||||||||||||||||||||||||||||||||||||||||||MET065METAR KFCH 220455Z AUTO 00000KT 10SM OVC070 10/M03 A3000 RMK A01=||F||223|ICAO-KFCH
USW00023167|FRESNO CHANDLER DWTN AP|2022|02|22|05|15|36.7333|-119.8167|84.1|9.0||1|FM15-METAR|223|ICAO-KFCH|-1.0||1|FM15-METAR|223|ICAO-KFCH|||||||||||||300|N-Normal|1|FM15-METAR|223|ICAO-KFCH|3.6|N-Normal|1|FM15-METAR|223|ICAO-KFCH|||||||||||||50|Derived||FM15-METAR|223|ICAO-KFCH|||||||||||||||||||||||||||||||||||||||||||||||||||||||||||||||||||||||||1016.3||1|FM15-METAR|223|ICAO-KFCH|||||||||||||||||||||||||||||||||||||||||||MET065METAR KFCH 220515Z AUTO 30007KT 10SM OVC070 09/M01 A3001 RMK A01=||F||223|ICAO-KFCH
USW00023167|FRESNO CHANDLER DWTN AP|2022|02|22|05|35|36.7333|-119.8167|84.1|9.0||1|FM15-METAR|223|ICAO-KFCH|-3.0||1|FM15-METAR|223|ICAO-KFCH|||||||||||||320|N-Normal|1|FM15-METAR|223|ICAO-KFCH|2.1|N-Normal|1|FM15-METAR|223|ICAO-KFCH|||||||||||||43|Derived||FM15-METAR|223|ICAO-KFCH|||||||||||||||||||||||||||||||||||||||||||||||||||||||||||||||||||||||||1016.6||1|FM15-METAR|223|ICAO-KFCH|||||||||||||||||||||||||||||||||||||||||||MET065METAR KFCH 220535Z AUTO 32004KT 10SM OVC065 09/M03 A3002 RMK A01=||F||223|ICAO-KFCH
USW00023167|FRESNO CHANDLER DWTN AP|2022|02|22|05|50|36.7333|-119.8167|84.1|9.0||1|FM15-METAR|223|ICAO-KFCH|-2.0||1|FM15-METAR|223|ICAO-KFCH|||||||||||||310|N-Normal|1|FM15-METAR|223|ICAO-KFCH|1.5|N-Normal|1|FM15-METAR|223|ICAO-KFCH|||||||||||||46|Derived||FM15-METAR|223|ICAO-KFCH|||||||||||||||||||||||||||||||||||||||||||||||||||||||||||||||||||||||||1016.6||1|FM15-METAR|223|ICAO-KFCH|||||||||||||||||||||||||||||||||||||||||||MET065METAR KFCH 220550Z AUTO 31003KT 10SM OVC065 09/M02 A3002 RMK A01=||F||223|ICAO-KFCH
USW00023167|FRESNO CHANDLER DWTN AP|2022|02|22|06|15|36.7333|-119.8167|84.1|10.0||1|FM15-METAR|223|ICAO-KFCH|-1.0||1|FM15-METAR|223|ICAO-KFCH|||||||||||||310|N-Normal|1|FM15-METAR|223|ICAO-KFCH|3.1|N-Normal|1|FM15-METAR|223|ICAO-KFCH|||||||||||||47|Derived||FM15-METAR|223|ICAO-KFCH|||||||||||||||||||||||||||||||||||||||||||||||||||||||||||||||||||||||||1016.6||1|FM15-METAR|223|ICAO-KFCH|||||||||||||||||||||||||||||||||||||||||||MET072METAR KFCH 220615Z AUTO 31006KT 10SM BKN065 OVC080 10/M01 A3002 RMK A01=||F||223|ICAO-KFCH
USW00023167|FRESNO CHANDLER DWTN AP|2022|02|22|06|35|36.7333|-119.8167|84.1|10.0||1|FM15-METAR|223|ICAO-KFCH|0.0||1|FM15-METAR|223|ICAO-KFCH|||||||||||||300|N-Normal|1|FM15-METAR|223|ICAO-KFCH|3.1|N-Normal|1|FM15-METAR|223|ICAO-KFCH|||||||||||||50|Derived||FM15-METAR|223|ICAO-KFCH|||||||||||||||||||||||||||||||||||||||||||||||||||||||||||||||||||||||||1016.9||1|FM15-METAR|223|ICAO-KFCH|||||||||||||||||||||||||||||||||||||||||||MET072METAR KFCH 220635Z AUTO 30006KT 10SM BKN065 OVC075 10/M00 A3003 RMK A01=||F||223|ICAO-KFCH
USW00023167|FRESNO CHANDLER DWTN AP|2022|02|22|06|55|36.7333|-119.8167|84.1|10.0||1|FM15-METAR|223|ICAO-KFCH|1.0||1|FM15-METAR|223|ICAO-KFCH|||||||||||||310|N-Normal|1|FM15-METAR|223|ICAO-KFCH|4.1|N-Normal|1|FM15-METAR|223|ICAO-KFCH|||||||||||||54|Derived||FM15-METAR|223|ICAO-KFCH|||||||||||||||||||||||||||||||||||||||||||||||||||||||||||||||||||||||||1016.9||1|FM15-METAR|223|ICAO-KFCH|||||||||||||||||||||||||||||||||||||||||||MET071METAR KFCH 220655Z AUTO 31008KT 10SM BKN065 OVC075 10/01 A3003 RMK A01=||F||223|ICAO-KFCH
USW00023167|FRESNO CHANDLER DWTN AP|2022|02|22|07|15|36.7333|-119.8167|84.1|10.0||1|FM15-METAR|223|ICAO-KFCH|1.0||1|FM15-METAR|223|ICAO-KFCH|||||||||||||300|N-Normal|1|FM15-METAR|223|ICAO-KFCH|4.6|N-Normal|1|FM15-METAR|223|ICAO-KFCH|||||||||||||54|Derived||FM15-METAR|223|ICAO-KFCH|||||||||||||||||||||||||||||||||||||||||||||||||||||||||||||||||||||||||1016.6||1|FM15-METAR|223|ICAO-KFCH|||||||||||||||||||||||||||||||||||||||||||MET071METAR KFCH 220715Z AUTO 30009KT 10SM BKN065 OVC075 10/01 A3002 RMK A01=||F||223|ICAO-KFCH
USW00023167|FRESNO CHANDLER DWTN AP|2022|02|22|07|35|36.7333|-119.8167|84.1|9.0||1|FM15-METAR|223|ICAO-KFCH|2.0||1|FM15-METAR|223|ICAO-KFCH|||||||||||||300|N-Normal|1|FM15-METAR|223|ICAO-KFCH|4.1|N-Normal|1|FM15-METAR|223|ICAO-KFCH|||||||||||||62|Derived||FM15-METAR|223|ICAO-KFCH|||||||||||||||||||||||||||||||||||||||||||||||||||||||||||||||||||||||||1016.9||1|FM15-METAR|223|ICAO-KFCH|||||||||||||||||||||||||||||||||||||||||||MET071METAR KFCH 220735Z AUTO 30008KT 10SM BKN065 OVC075 09/02 A3003 RMK A01=||F||223|ICAO-KFCH
USW00023167|FRESNO CHANDLER DWTN AP|2022|02|22|07|55|36.7333|-119.8167|84.1|9.0||1|FM15-METAR|223|ICAO-KFCH|2.0||1|FM15-METAR|223|ICAO-KFCH|||||||||||||310|N-Normal|1|FM15-METAR|223|ICAO-KFCH|3.6|N-Normal|1|FM15-METAR|223|ICAO-KFCH|||||||||||||62|Derived||FM15-METAR|223|ICAO-KFCH|||||||||||||||||||||||||||||||||||||||||||||||||||||||||||||||||||||||||1016.9||1|FM15-METAR|223|ICAO-KFCH|||||||||||||||||||||||||||||||||||||||||||MET071METAR KFCH 220755Z AUTO 31007KT 10SM BKN060 OVC075 09/02 A3003 RMK A01=||F||223|ICAO-KFCH
USW00023167|FRESNO CHANDLER DWTN AP|2022|02|22|08|15|36.7333|-119.8167|84.1|9.0||1|FM15-METAR|223|ICAO-KFCH|2.0||1|FM15-METAR|223|ICAO-KFCH|||||||||||||320|N-Normal|1|FM15-METAR|223|ICAO-KFCH|2.6|N-Normal|1|FM15-METAR|223|ICAO-KFCH|||||||||||||62|Derived||FM15-METAR|223|ICAO-KFCH|||||||||||||||||||||||||||||||||||||||||||||||||||||||||||||||||||||||||1016.9||1|FM15-METAR|223|ICAO-KFCH|||||||||||||||||||||||||||||||||||||||||||MET071METAR KFCH 220815Z AUTO 32005KT 10SM BKN060 OVC070 09/02 A3003 RMK A01=||F||223|ICAO-KFCH
USW00023167|FRESNO CHANDLER DWTN AP|2022|02|22|08|35|36.7333|-119.8167|84.1|8.0||1|FM15-METAR|223|ICAO-KFCH|2.0||1|FM15-METAR|223|ICAO-KFCH|||||||||||||320|N-Normal|1|FM15-METAR|223|ICAO-KFCH|1.5|N-Normal|1|FM15-METAR|223|ICAO-KFCH|||||||||||||66|Derived||FM15-METAR|223|ICAO-KFCH|||||||||||||||||||||||||||||||||||||||||||||||||||||||||||||||||||||||||1016.9||1|FM15-METAR|223|ICAO-KFCH|||||||||||||||||||||||||||||||||||||||||||MET078METAR KFCH 220835Z AUTO 32003KT 10SM BKN060 BKN070 OVC085 08/02 A3003 RMK A01=||F||223|ICAO-KFCH
USW00023167|FRESNO CHANDLER DWTN AP|2022|02|22|08|55|36.7333|-119.8167|84.1|8.0||1|FM15-METAR|223|ICAO-KFCH|2.0||1|FM15-METAR|223|ICAO-KFCH|||||||||||||999|C-Calm|9|FM15-METAR|223|ICAO-KFCH|0.0|C-Calm|1|FM15-METAR|223|ICAO-KFCH|||||||||||||66|Derived||FM15-METAR|223|ICAO-KFCH|||||||||||||||||||||||||||||||||||||||||||||||||||||||||||||||||||||||||1016.9||1|FM15-METAR|223|ICAO-KFCH|||||||||||||||||||||||||||||||||||||||||||MET071METAR KFCH 220855Z AUTO 00000KT 10SM FEW060 OVC080 08/02 A3003 RMK A01=||F||223|ICAO-KFCH
USW00023167|FRESNO CHANDLER DWTN AP|2022|02|22|09|15|36.7333|-119.8167|84.1|8.0||1|FM15-METAR|223|ICAO-KFCH|2.0||1|FM15-METAR|223|ICAO-KFCH|||||||||||||320|N-Normal|1|FM15-METAR|223|ICAO-KFCH|1.5|N-Normal|1|FM15-METAR|223|ICAO-KFCH|||||||||||||66|Derived||FM15-METAR|223|ICAO-KFCH|||||||||||||||||||||||||||||||||||||||||||||||||||||||||||||||||||||||||1016.6||1|FM15-METAR|223|ICAO-KFCH|||||||||||||||||||||||||||||||||||||||||||MET064METAR KFCH 220915Z AUTO 32003KT 10SM OVC080 08/02 A3002 RMK A01=||F||223|ICAO-KFCH
USW00023167|FRESNO CHANDLER DWTN AP|2022|02|22|09|35|36.7333|-119.8167|84.1|8.0||1|FM15-METAR|223|ICAO-KFCH|2.0||1|FM15-METAR|223|ICAO-KFCH|||||||||||||310|N-Normal|1|FM15-METAR|223|ICAO-KFCH|2.1|N-Normal|1|FM15-METAR|223|ICAO-KFCH|||||||||||||66|Derived||FM15-METAR|223|ICAO-KFCH|||||||||||||||||||||||||||||||||||||||||||||||||||||||||||||||||||||||||1016.6||1|FM15-METAR|223|ICAO-KFCH|||||||||||||||||||||||||||||||||||||||||||MET078METAR KFCH 220935Z AUTO 31004KT 10SM FEW049 FEW065 OVC085 08/02 A3002 RMK A01=||F||223|ICAO-KFCH
USW00023167|FRESNO CHANDLER DWTN AP|2022|02|22|09|55|36.7333|-119.8167|84.1|8.0||1|FM15-METAR|223|ICAO-KFCH|2.0||1|FM15-METAR|223|ICAO-KFCH|||||||||||||300|N-Normal|1|FM15-METAR|223|ICAO-KFCH|2.1|N-Normal|1|FM15-METAR|223|ICAO-KFCH|||||||||||||66|Derived||FM15-METAR|223|ICAO-KFCH|||||||||||||||||||||||||||||||||||||||||||||||||||||||||||||||||||||||||1016.3||1|FM15-METAR|223|ICAO-KFCH|||||||||||||||||||||||||||||||||||||||||||MET071METAR KFCH 220955Z AUTO 30004KT 10SM FEW080 OVC090 08/02 A3001 RMK A01=||F||223|ICAO-KFCH
USW00023167|FRESNO CHANDLER DWTN AP|2022|02|22|10|15|36.7333|-119.8167|84.1|8.0||1|FM15-METAR|223|ICAO-KFCH|2.0||1|FM15-METAR|223|ICAO-KFCH|||||||||||||300|N-Normal|1|FM15-METAR|223|ICAO-KFCH|1.5|N-Normal|1|FM15-METAR|223|ICAO-KFCH|||||||||||||66|Derived||FM15-METAR|223|ICAO-KFCH|||||||||||||||||||||||||||||||||||||||||||||||||||||||||||||||||||||||||1016.3||1|FM15-METAR|223|ICAO-KFCH|||||||||||||||||||||||||||||||||||||||||||MET071METAR KFCH 221015Z AUTO 30003KT 10SM BKN075 OVC090 08/02 A3001 RMK A01=||F||223|ICAO-KFCH
USW00023167|FRESNO CHANDLER DWTN AP|2022|02|22|10|35|36.7333|-119.8167|84.1|8.0||1|FM15-METAR|223|ICAO-KFCH|2.0||1|FM15-METAR|223|ICAO-KFCH|||||||||||||999|C-Calm|9|FM15-METAR|223|ICAO-KFCH|0.0|C-Calm|1|FM15-METAR|223|ICAO-KFCH|||||||||||||66|Derived||FM15-METAR|223|ICAO-KFCH|||||||||||||||||||||||||||||||||||||||||||||||||||||||||||||||||||||||||1015.9||1|FM15-METAR|223|ICAO-KFCH|||||||||||||||||||||||||||||||||||||||||||MET064METAR KFCH 221035Z AUTO 00000KT 10SM OVC075 08/02 A3000 RMK A01=||F||223|ICAO-KFCH
USW00023167|FRESNO CHANDLER DWTN AP|2022|02|22|10|55|36.7333|-119.8167|84.1|8.0||1|FM15-METAR|223|ICAO-KFCH|2.0||1|FM15-METAR|223|ICAO-KFCH|||||||||||||999|C-Calm|9|FM15-METAR|223|ICAO-KFCH|0.0|C-Calm|1|FM15-METAR|223|ICAO-KFCH|||||||||||||66|Derived||FM15-METAR|223|ICAO-KFCH|||||||||||||||||||||||||||||||||||||||||||||||||||||||||||||||||||||||||1015.6||1|FM15-METAR|223|ICAO-KFCH|||||||||||||||||||||||||||||||||||||||||||MET064METAR KFCH 221055Z AUTO 00000KT 10SM OVC075 08/02 A2999 RMK A01=||F||223|ICAO-KFCH
USW00023167|FRESNO CHANDLER DWTN AP|2022|02|22|11|15|36.7333|-119.8167|84.1|8.0||1|FM15-METAR|223|ICAO-KFCH|2.0||1|FM15-METAR|223|ICAO-KFCH|||||||||||||999|C-Calm|9|FM15-METAR|223|ICAO-KFCH|0.0|C-Calm|1|FM15-METAR|223|ICAO-KFCH|||||||||||||66|Derived||FM15-METAR|223|ICAO-KFCH|||||||||||||||||||||||||||||||||||||||||||||||||||||||||||||||||||||||||1015.6||1|FM15-METAR|223|ICAO-KFCH|||||||||||||||||||||||||||||||||||||||||||MET078METAR KFCH 221115Z AUTO 00000KT 10SM FEW055 SCT075 OVC090 08/02 A2999 RMK A01=||F||223|ICAO-KFCH
USW00023167|FRESNO CHANDLER DWTN AP|2022|02|22|11|35|36.7333|-119.8167|84.1|8.0||1|FM15-METAR|223|ICAO-KFCH|2.0||1|FM15-METAR|223|ICAO-KFCH|||||||||||||999|C-Calm|9|FM15-METAR|223|ICAO-KFCH|0.0|C-Calm|1|FM15-METAR|223|ICAO-KFCH|||||||||||||66|Derived||FM15-METAR|223|ICAO-KFCH|||||||||||||||||||||||||||||||||||||||||||||||||||||||||||||||||||||||||1015.6||1|FM15-METAR|223|ICAO-KFCH|||||||||||||||||||||||||||||||||||||||||||MET071METAR KFCH 221135Z AUTO 00000KT 10SM BKN075 OVC090 08/02 A2999 RMK A01=||F||223|ICAO-KFCH
USW00023167|FRESNO CHANDLER DWTN AP|2022|02|22|11|55|36.7333|-119.8167|84.1|||||||||||||||||||||||||||||||||||||||||||||||||||||||||||||||||||||||||||||||||||||||||||||||||||||||||||||||||||||||||||||||||||||||||||||||||||||||||||||||||||||||||||||||MET037METAR KFCH 221155Z AUTO 10SM RMK A01=||F||223|ICAO-KFCH
USW00023167|FRESNO CHANDLER DWTN AP|2022|02|22|12|15|36.7333|-119.8167|84.1|||||||||||||||||||||||||||||||||||||||||||||||||||||||||||||||||||||||||||||||||||||||||||||||||||||||||||||||||||||||||||||||1015.6||1|FM15-METAR|223|ICAO-KFCH|||||||||||||||||||||||||||||||||||||||||||MET038METAR KFCH 221215Z AUTO A2999 RMK A01=||F||223|ICAO-KFCH
USW00023167|FRESNO CHANDLER DWTN AP|2022|02|22|12|35|36.7333|-119.8167|84.1|||||||||||||||||||||||||||||||||||||||||||||||||||||||||||||||||||||||||||||||||||||||||||||||||||||||||||||||||||||||||||||||||||||||||||||||||||||||||||||||||||||||||||||||MET037METAR KFCH 221235Z AUTO 10SM RMK A01=||F||223|ICAO-KFCH
USW00023167|FRESNO CHANDLER DWTN AP|2022|02|22|12|55|36.7333|-119.8167|84.1|7.0||1|FM15-METAR|223|ICAO-KFCH|3.0||1|FM15-METAR|223|ICAO-KFCH|||||||||||||999|C-Calm|9|FM15-METAR|223|ICAO-KFCH|0.0|C-Calm|1|FM15-METAR|223|ICAO-KFCH|||||||||||||76|Derived||FM15-METAR|223|ICAO-KFCH|||||||||||||||||||||||||||||||||||||||||||||||||||||||||||||||||||||||||1015.2||1|FM15-METAR|223|ICAO-KFCH|||||||||||||||||||||||||||||||||||||||||||MET057METAR KFCH 221255Z AUTO 00000KT 10SM 07/03 A2998 RMK A01=||F||223|ICAO-KFCH
USW00023167|FRESNO CHANDLER DWTN AP|2022|02|22|13|15|36.7333|-119.8167|84.1|7.0||1|FM15-METAR|223|ICAO-KFCH|3.0||1|FM15-METAR|223|ICAO-KFCH|||||||||||||||||||||||||||||||||||||76|Derived||FM15-METAR|223|ICAO-KFCH|||||||||||||||||||||||||||||||||||||||||||||||||||||||||||||||||||||||||1015.6||1|FM15-METAR|223|ICAO-KFCH|||||||||||||||||||||||||||||||||||||||||||MET044METAR KFCH 221315Z AUTO 07/03 A2999 RMK A01=||F||223|ICAO-KFCH
USW00023167|FRESNO CHANDLER DWTN AP|2022|02|22|13|35|36.7333|-119.8167|84.1|7.0||1|FM15-METAR|223|ICAO-KFCH|3.0||1|FM15-METAR|223|ICAO-KFCH|||||||||||||300|N-Normal|1|FM15-METAR|223|ICAO-KFCH|1.5|N-Normal|1|FM15-METAR|223|ICAO-KFCH|||||||||||||76|Derived||FM15-METAR|223|ICAO-KFCH|||||||||||||||||||||||||||||||||||||||||||||||||||||||||||||||||||||||||1015.6||1|FM15-METAR|223|ICAO-KFCH|||||||||||||||||||||||||||||||||||||||||||MET057METAR KFCH 221335Z AUTO 30003KT 10SM 07/03 A2999 RMK A01=||F||223|ICAO-KFCH
USW00023167|FRESNO CHANDLER DWTN AP|2022|02|22|13|55|36.7333|-119.8167|84.1|7.0||1|FM15-METAR|223|ICAO-KFCH|3.0||1|FM15-METAR|223|ICAO-KFCH|||||||||||||999|C-Calm|9|FM15-METAR|223|ICAO-KFCH|0.0|C-Calm|1|FM15-METAR|223|ICAO-KFCH|||||||||||||76|Derived||FM15-METAR|223|ICAO-KFCH|||||||||||||||||||||||||||||||||||||||||||||||||||||||||||||||||||||||||1015.2||1|FM15-METAR|223|ICAO-KFCH|||||||||||||||||||||||||||||||||||||||||||MET057METAR KFCH 221355Z AUTO 00000KT 10SM 07/03 A2998 RMK A01=||F||223|ICAO-KFCH
USW00023167|FRESNO CHANDLER DWTN AP|2022|02|22|14|15|36.7333|-119.8167|84.1|7.0||1|FM15-METAR|223|ICAO-KFCH|3.0||1|FM15-METAR|223|ICAO-KFCH|||||||||||||260|N-Normal|1|FM15-METAR|223|ICAO-KFCH|2.1|N-Normal|1|FM15-METAR|223|ICAO-KFCH|||||||||||||76|Derived||FM15-METAR|223|ICAO-KFCH|||||||||||||||||||||||||||||||||||||||||||||||||||||||||||||||||||||||||1015.6||1|FM15-METAR|223|ICAO-KFCH|||||||||||||||||||||||||||||||||||||||||||MET064METAR KFCH 221415Z AUTO 26004KT 10SM OVC060 07/03 A2999 RMK A01=||F||223|ICAO-KFCH
USW00023167|FRESNO CHANDLER DWTN AP|2022|02|22|14|35|36.7333|-119.8167|84.1|7.0||1|FM15-METAR|223|ICAO-KFCH|4.0||1|FM15-METAR|223|ICAO-KFCH|||||||||||||280|N-Normal|1|FM15-METAR|223|ICAO-KFCH|1.5|N-Normal|1|FM15-METAR|223|ICAO-KFCH|||||||||||||81|Derived||FM15-METAR|223|ICAO-KFCH|||||||||||||||||||||||||||||||||||||||||||||||||||||||||||||||||||||||||1015.6||1|FM15-METAR|223|ICAO-KFCH|||||||||||||||||||||||||||||||||||||||||||MET057METAR KFCH 221435Z AUTO 28003KT 10SM 07/04 A2999 RMK A01=||F||223|ICAO-KFCH
USW00023167|FRESNO CHANDLER DWTN AP|2022|02|22|14|55|36.7333|-119.8167|84.1|7.0||1|FM15-METAR|223|ICAO-KFCH|4.0||1|FM15-METAR|223|ICAO-KFCH|||||||||||||300|N-Normal|1|FM15-METAR|223|ICAO-KFCH|1.5|N-Normal|1|FM15-METAR|223|ICAO-KFCH|||||||||||||81|Derived||FM15-METAR|223|ICAO-KFCH|||||||||||||||||||||||||||||||||||||||||||||||||||||||||||||||||||||||||1015.6||1|FM15-METAR|223|ICAO-KFCH|||||||||||||||||||||||||||||||||||||||||||MET057METAR KFCH 221455Z AUTO 30003KT 10SM 07/04 A2999 RMK A01=||F||223|ICAO-KFCH
USW00023167|FRESNO CHANDLER DWTN AP|2022|02|22|15|10|36.7333|-119.8167|84.1|7.0||1|FM15-METAR|223|ICAO-KFCH|4.0||1|FM15-METAR|223|ICAO-KFCH|||||||||||||999|C-Calm|9|FM15-METAR|223|ICAO-KFCH|0.0|C-Calm|1|FM15-METAR|223|ICAO-KFCH|||||||||||||81|Derived||FM15-METAR|223|ICAO-KFCH|||||||||||||||||||||||||||||||||||||||||||||||||||||||||||||||||||||||||1015.2||1|FM15-METAR|223|ICAO-KFCH|||||||||||||||||||||||||||||||||||||||||||MET057METAR KFCH 221510Z AUTO 00000KT 10SM 07/04 A2998 RMK A01=||F||223|ICAO-KFCH
USW00023167|FRESNO CHANDLER DWTN AP|2022|02|22|15|35|36.7333|-119.8167|84.1|7.0||1|FM15-METAR|223|ICAO-KFCH|4.0||1|FM15-METAR|223|ICAO-KFCH|||||||||||||270|N-Normal|1|FM15-METAR|223|ICAO-KFCH|2.1|N-Normal|1|FM15-METAR|223|ICAO-KFCH|||||||||||||81|Derived||FM15-METAR|223|ICAO-KFCH|||||||||||||||||||||||||||||||||||||||||||||||||||||||||||||||||||||||||1015.2||1|FM15-METAR|223|ICAO-KFCH|||||||||||||||||||||||||||||||||||||||||||MET071METAR KFCH 221535Z AUTO 27004KT 10SM FEW070 FEW080 07/04 A2998 RMK A01=||F||223|ICAO-KFCH
USW00023167|FRESNO CHANDLER DWTN AP|2022|02|22|15|55|36.7333|-119.8167|84.1|8.0||1|FM15-METAR|223|ICAO-KFCH|4.0||1|FM15-METAR|223|ICAO-KFCH|||||||||||||310|N-Normal|1|FM15-METAR|223|ICAO-KFCH|3.1|N-Normal|1|FM15-METAR|223|ICAO-KFCH|||||||||||||76|Derived||FM15-METAR|223|ICAO-KFCH|||||||||||||||||||||||||||||||||||||||||||||||||||||||||||||||||||||||||1015.6||1|FM15-METAR|223|ICAO-KFCH|||||||||||||||||||||||||||||||||||||||||||MET061METAR KFCH 221555Z AUTO 31006KT 10SM CLR 08/04 A2999 RMK A01=||F||223|ICAO-KFCH
USW00023167|FRESNO CHANDLER DWTN AP|2022|02|22|16|15|36.7333|-119.8167|84.1|9.0||1|FM15-METAR|223|ICAO-KFCH|4.0||1|FM15-METAR|223|ICAO-KFCH|||||||||||||300|N-Normal|1|FM15-METAR|223|ICAO-KFCH|3.1|N-Normal|1|FM15-METAR|223|ICAO-KFCH|||||||||||||71|Derived||FM15-METAR|223|ICAO-KFCH|||||||||||||||||||||||||||||||||||||||||||||||||||||||||||||||||||||||||1015.6||1|FM15-METAR|223|ICAO-KFCH|||||||||||||||||||||||||||||||||||||||||||MET061METAR KFCH 221615Z AUTO 30006KT 10SM CLR 09/04 A2999 RMK A01=||F||223|ICAO-KFCH
USW00023167|FRESNO CHANDLER DWTN AP|2022|02|22|16|30|36.7333|-119.8167|84.1|9.0||1|FM15-METAR|223|ICAO-KFCH|3.0||1|FM15-METAR|223|ICAO-KFCH|||||||||||||330|N-Normal|1|FM15-METAR|223|ICAO-KFCH|4.6|N-Normal|1|FM15-METAR|223|ICAO-KFCH|||||||||||||66|Derived||FM15-METAR|223|ICAO-KFCH|||||||||||||||||||||||||||||||||||||||||||||||||||||||||||||||||||||||||1015.6||1|FM15-METAR|223|ICAO-KFCH|||||||||||||||||||||||||||||||||||||||||||MET061METAR KFCH 221630Z AUTO 33009KT 10SM CLR 09/03 A2999 RMK A01=||F||223|ICAO-KFCH
USW00023167|FRESNO CHANDLER DWTN AP|2022|02|22|16|55|36.7333|-119.8167|84.1|9.0||1|FM15-METAR|223|ICAO-KFCH|2.0||1|FM15-METAR|223|ICAO-KFCH|||||||||||||||||||||||||||||||||||||62|Derived||FM15-METAR|223|ICAO-KFCH|||||||||||||||||||||||||||||||||||||||||||||||||||||||||||||||||||||||||1015.6||1|FM15-METAR|223|ICAO-KFCH|||||||||||||||||||||||||||||||||||||||||||MET053METAR KFCH 221655Z AUTO 10SM CLR 09/02 A2999 RMK A01=||F||223|ICAO-KFCH
USW00023167|FRESNO CHANDLER DWTN AP|2022|02|22|17|15|36.7333|-119.8167|84.1|10.0||1|FM15-METAR|223|ICAO-KFCH|3.0||1|FM15-METAR|223|ICAO-KFCH|||||||||||||300|N-Normal|1|FM15-METAR|223|ICAO-KFCH|4.1|N-Normal|1|FM15-METAR|223|ICAO-KFCH|||||||||||||62|Derived||FM15-METAR|223|ICAO-KFCH|||||||||||||||||||||||||||||||||||||||||||||||||||||||||||||||||||||||||1015.6||1|FM15-METAR|223|ICAO-KFCH|||||||||||||||||||||||||||||||||||||||||||MET057METAR KFCH 221715Z AUTO 30008KT 10SM 10/03 A2999 RMK A01=||F||223|ICAO-KFCH
USW00023167|FRESNO CHANDLER DWTN AP|2022|02|22|17|35|36.7333|-119.8167|84.1|10.0||1|FM15-METAR|223|ICAO-KFCH|2.0||1|FM15-METAR|223|ICAO-KFCH|||||||||||||320|N-Normal|1|FM15-METAR|223|ICAO-KFCH|4.6|N-Normal|1|FM15-METAR|223|ICAO-KFCH|||||||||||||58|Derived||FM15-METAR|223|ICAO-KFCH|||||||||||||||||||||||||||||||||||||||||||||||||||||||||||||||||||||||||1015.6||1|FM15-METAR|223|ICAO-KFCH|||||||||||||||||||||||||||||||||||||||||||MET071METAR KFCH 221735Z AUTO 32009KT 10SM BKN029 OVC085 10/02 A2999 RMK A01=||F||223|ICAO-KFCH
USW00023167|FRESNO CHANDLER DWTN AP|2022|02|22|17|55|36.7333|-119.8167|84.1|10.0||1|FM15-METAR|223|ICAO-KFCH|3.0||1|FM15-METAR|223|ICAO-KFCH|||||||||||||330|V-Variable|1|FM15-METAR|223|ICAO-KFCH|3.6|V-Variable|1|FM15-METAR|223|ICAO-KFCH|||||||||||||62|Derived||FM15-METAR|223|ICAO-KFCH|||||||||||||||||||||||||||||||||||||||||||||||||||||||||||||||||||||||||1015.6||1|FM15-METAR|223|ICAO-KFCH|||||||||||||||||||||||||||||||||||||||||||MET086METAR KFCH 221755Z AUTO 33007KT 310V010 10SM FEW029 SCT034 BKN085 10/03 A2999 RMK A01=||F||223|ICAO-KFCH
USW00023167|FRESNO CHANDLER DWTN AP|2022|02|22|18|15|36.7333|-119.8167|84.1|10.0||1|FM15-METAR|223|ICAO-KFCH|2.0||1|FM15-METAR|223|ICAO-KFCH|||||||||||||290|N-Normal|1|FM15-METAR|223|ICAO-KFCH|4.6|N-Normal|1|FM15-METAR|223|ICAO-KFCH|||||||||||||58|Derived||FM15-METAR|223|ICAO-KFCH|||||||||||||||||||||||||||||||||||||||||||||||||||||||||||||||||||||||||1015.9||1|FM15-METAR|223|ICAO-KFCH|||||||||||||||||||||||||||||||||||||||||||MET078METAR KFCH 221815Z AUTO 29009KT 10SM SCT029 SCT065 BKN090 10/02 A3000 RMK A01=||F||223|ICAO-KFCH
USW00023167|FRESNO CHANDLER DWTN AP|2022|02|22|18|35|36.7333|-119.8167|84.1|9.0||1|FM15-METAR|223|ICAO-KFCH|3.0||1|FM15-METAR|223|ICAO-KFCH|||||||||||||260|N-Normal|1|FM15-METAR|223|ICAO-KFCH|3.1|N-Normal|1|FM15-METAR|223|ICAO-KFCH|6.2||1|FM15-METAR|223|ICAO-KFCH|||||||66|Derived||FM15-METAR|223|ICAO-KFCH|||||||||||||||||||||||||||||||||||||||||||||||||||||||||||||||||||||||||1015.9||1|FM15-METAR|223|ICAO-KFCH|||||||||||||||||||||||||||||||||||||||||||MET081METAR KFCH 221835Z AUTO 26006G12KT 10SM BKN030 BKN038 BKN044 09/03 A3000 RMK A01=||F||223|ICAO-KFCH
USW00023167|FRESNO CHANDLER DWTN AP|2022|02|22|18|55|36.7333|-119.8167|84.1|||||||||||||||||||||||||290|N-Normal|1|FM15-METAR|223|ICAO-KFCH|2.6|N-Normal|1|FM15-METAR|223|ICAO-KFCH|||||||||||||||||||||||||||||||||||||||||||||||||||||||||||||||||||||||||||||||||||||||||||1015.6||1|FM15-METAR|223|ICAO-KFCH|||||||||||||||||||||||||||||||||||||||||||MET051METAR KFCH 221855Z AUTO 29005KT 10SM A2999 RMK A01=||F||223|ICAO-KFCH
USW00023167|FRESNO CHANDLER DWTN AP|2022|02|22|19|15|36.7333|-119.8167|84.1|10.0||1|FM15-METAR|223|ICAO-KFCH|1.0||1|FM15-METAR|223|ICAO-KFCH|||||||||||||260|N-Normal|1|FM15-METAR|223|ICAO-KFCH|3.1|N-Normal|1|FM15-METAR|223|ICAO-KFCH|||||||||||||54|Derived||FM15-METAR|223|ICAO-KFCH|||||||||||||||||||||||||||||||||||||||||||||||||||||||||||||||||||||||||1015.2||1|FM15-METAR|223|ICAO-KFCH|||||||||||||||||||||||||||||||||||||||||||MET057METAR KFCH 221915Z AUTO 26006KT 10SM 10/01 A2998 RMK A01=||F||223|ICAO-KFCH
USW00023167|FRESNO CHANDLER DWTN AP|2022|02|22|19|35|36.7333|-119.8167|84.1|10.0||1|FM15-METAR|223|ICAO-KFCH|0.0||1|FM15-METAR|223|ICAO-KFCH|||||||||||||999|V-Variable|9|FM15-METAR|223|ICAO-KFCH|1.5|V-Variable|1|FM15-METAR|223|ICAO-KFCH|||||||||||||50|Derived||FM15-METAR|223|ICAO-KFCH|||||||||||||||||||||||||||||||||||||||||||||||||||||||||||||||||||||||||1014.9||1|FM15-METAR|223|ICAO-KFCH|||||||||||||||||||||||||||||||||||||||||||MET071METAR KFCH 221935Z AUTO VRB03KT 10SM FEW044 FEW110 10/00 A2997 RMK A01=||F||223|ICAO-KFCH
USW00023167|FRESNO CHANDLER DWTN AP|2022|02|22|19|55|36.7333|-119.8167|84.1|11.0||1|FM15-METAR|223|ICAO-KFCH|-1.0||1|FM15-METAR|223|ICAO-KFCH|||||||||||||300|N-Normal|1|FM15-METAR|223|ICAO-KFCH|2.6|N-Normal|1|FM15-METAR|223|ICAO-KFCH|||||||||||||44|Derived||FM15-METAR|223|ICAO-KFCH|||||||||||||||||||||||||||||||||||||||||||||||||||||||||||||||||||||||||1014.2||1|FM15-METAR|223|ICAO-KFCH|||||||||||||||||||||||||||||||||||||||||||MET072METAR KFCH 221955Z AUTO 30005KT 10SM FEW044 SCT060 11/M01 A2995 RMK A01=||F||223|ICAO-KFCH
USW00023167|FRESNO CHANDLER DWTN AP|2022|02|22|20|10|36.7333|-119.8167|84.1|11.0||1|FM15-METAR|223|ICAO-KFCH|1.0||1|FM15-METAR|223|ICAO-KFCH|||||||||||||310|N-Normal|1|FM15-METAR|223|ICAO-KFCH|6.2|N-Normal|1|FM15-METAR|223|ICAO-KFCH|9.3||1|FM15-METAR|223|ICAO-KFCH|||||||50|Derived||FM15-METAR|223|ICAO-KFCH|||||||||||||||||||||||||||||||||||||||||||||||||||||||||||||||||||||||||1014.2||1|FM15-METAR|223|ICAO-KFCH|||||||||||||||||||||||||||||||||||||||||||MET081METAR KFCH 222010Z AUTO 31012G18KT 10SM BKN048 BKN055 BKN065 11/01 A2995 RMK A01=||F||223|ICAO-KFCH
USW00023167|FRESNO CHANDLER DWTN AP|2022|02|22|20|35|36.7333|-119.8167|84.1|11.0||1|FM15-METAR|223|ICAO-KFCH|-1.0||1|FM15-METAR|223|ICAO-KFCH|||||||||||||320|N-Normal|1|FM15-METAR|223|ICAO-KFCH|3.6|N-Normal|1|FM15-METAR|223|ICAO-KFCH|||||||||||||44|Derived||FM15-METAR|223|ICAO-KFCH|||||||||||||||||||||||||||||||||||||||||||||||||||||||||||||||||||||||||1013.5||1|FM15-METAR|223|ICAO-KFCH|||||||||||||||||||||||||||||||||||||||||||MET079METAR KFCH 222035Z AUTO 32007KT 10SM FEW047 SCT075 BKN110 11/M01 A2993 RMK A01=||F||223|ICAO-KFCH
USW00023167|FRESNO CHANDLER DWTN AP|2022|02|22|20|55|36.7333|-119.8167|84.1|11.0||1|FM15-METAR|223|ICAO-KFCH|-1.0||1|FM15-METAR|223|ICAO-KFCH|||||||||||||350|N-Normal|1|FM15-METAR|223|ICAO-KFCH|1.5|N-Normal|1|FM15-METAR|223|ICAO-KFCH|6.2||1|FM15-METAR|223|ICAO-KFCH|||||||44|Derived||FM15-METAR|223|ICAO-KFCH|||||||||||||||||||||||||||||||||||||||||||||||||||||||||||||||||||||||||1013.2||1|FM15-METAR|223|ICAO-KFCH|||||||||||||||||||||||||||||||||||||||||||MET068METAR KFCH 222055Z AUTO 35003G12KT 10SM FEW110 11/M01 A2992 RMK A01=||F||223|ICAO-KFCH
USW00023167|FRESNO CHANDLER DWTN AP|2022|02|22|21|15|36.7333|-119.8167|84.1|12.0||1|FM15-METAR|223|ICAO-KFCH|-2.0||1|FM15-METAR|223|ICAO-KFCH|||||||||||||250|N-Normal|1|FM15-METAR|223|ICAO-KFCH|3.1|N-Normal|1|FM15-METAR|223|ICAO-KFCH|6.7||1|FM15-METAR|223|ICAO-KFCH|||||||38|Derived||FM15-METAR|223|ICAO-KFCH|||||||||||||||||||||||||||||||||||||||||||||||||||||||||||||||||||||||||1012.9||1|FM15-METAR|223|ICAO-KFCH|||||||||||||||||||||||||||||||||||||||||||MET065METAR KFCH 222115Z AUTO 25006G13KT 10SM CLR 12/M02 A2991 RMK A01=||F||223|ICAO-KFCH
USW00023167|FRESNO CHANDLER DWTN AP|2022|02|22|21|35|36.7333|-119.8167|84.1|12.0||1|FM15-METAR|223|ICAO-KFCH|-3.0||1|FM15-METAR|223|ICAO-KFCH|||||||||||||270|N-Normal|1|FM15-METAR|223|ICAO-KFCH|5.1|N-Normal|1|FM15-METAR|223|ICAO-KFCH|||||||||||||35|Derived||FM15-METAR|223|ICAO-KFCH|||||||||||||||||||||||||||||||||||||||||||||||||||||||||||||||||||||||||1012.5||1|FM15-METAR|223|ICAO-KFCH|||||||||||||||||||||||||||||||||||||||||||MET065METAR KFCH 222135Z AUTO 27010KT 10SM FEW120 12/M03 A2990 RMK A01=||F||223|ICAO-KFCH
USW00023167|FRESNO CHANDLER DWTN AP|2022|02|22|21|55|36.7333|-119.8167|84.1|12.0||1|FM15-METAR|223|ICAO-KFCH|0.0||1|FM15-METAR|223|ICAO-KFCH|||||||||||||290|N-Normal|1|FM15-METAR|223|ICAO-KFCH|9.8|N-Normal|1|FM15-METAR|223|ICAO-KFCH|||||||||||||44|Derived||FM15-METAR|223|ICAO-KFCH|||||||||||||||||||||||||||||||||||||||||||||||||||||||||||||||||||||||||1012.5||1|FM15-METAR|223|ICAO-KFCH|||||||||||||||||||||||||||||||||||||||||||MET079METAR KFCH 222155Z AUTO 29019KT 10SM FEW049 SCT070 BKN120 12/M00 A2990 RMK A01=||F||223|ICAO-KFCH
USW00023167|FRESNO CHANDLER DWTN AP|2022|02|22|22|15|36.7333|-119.8167|84.1|10.0||1|FM15-METAR|223|ICAO-KFCH|1.0||1|FM15-METAR|223|ICAO-KFCH|||||||||||||350|N-Normal|1|FM15-METAR|223|ICAO-KFCH|4.6|N-Normal|1|FM15-METAR|223|ICAO-KFCH|7.2||1|FM15-METAR|223|ICAO-KFCH|||||||54|Derived||FM15-METAR|223|ICAO-KFCH|||||||||||||||||||||||||||||||||||||||||||||||||||||||||||||||||||||||||1012.5||1|FM15-METAR|223|ICAO-KFCH|||||||||||||||||||||||||||||||||||||||||||MET074METAR KFCH 222215Z AUTO 35009G14KT 10SM FEW070 SCT110 10/01 A2990 RMK A01=||F||223|ICAO-KFCH
USW00023167|FRESNO CHANDLER DWTN AP|2022|02|22|22|35|36.7333|-119.8167|84.1|11.0||1|FM15-METAR|223|ICAO-KFCH|-1.0||1|FM15-METAR|223|ICAO-KFCH|||||||||||||330|N-Normal|1|FM15-METAR|223|ICAO-KFCH|3.1|N-Normal|1|FM15-METAR|223|ICAO-KFCH|||||||||||||44|Derived||FM15-METAR|223|ICAO-KFCH|||||||||||||||||||||||||||||||||||||||||||||||||||||||||||||||||||||||||1012.2||1|FM15-METAR|223|ICAO-KFCH|||||||||||||||||||||||||||||||||||||||||||MET065METAR KFCH 222235Z AUTO 33006KT 10SM FEW120 11/M01 A2989 RMK A01=||F||223|ICAO-KFCH
USW00023167|FRESNO CHANDLER DWTN AP|2022|02|22|22|55|36.7333|-119.8167|84.1|10.0||1|FM15-METAR|223|ICAO-KFCH|-1.0||1|FM15-METAR|223|ICAO-KFCH|||||||||||||340|N-Normal|1|FM15-METAR|223|ICAO-KFCH|3.1|N-Normal|1|FM15-METAR|223|ICAO-KFCH|7.7||1|FM15-METAR|223|ICAO-KFCH|||||||47|Derived||FM15-METAR|223|ICAO-KFCH|||||||||||||||||||||||||||||||||||||||||||||||||||||||||||||||||||||||||1012.2||1|FM15-METAR|223|ICAO-KFCH|||||||||||||||||||||||||||||||||||||||||||MET082METAR KFCH 222255Z AUTO 34006G15KT 10SM FEW022 FEW043 SCT120 10/M01 A2989 RMK A01=||F||223|ICAO-KFCH
USW00023167|FRESNO CHANDLER DWTN AP|2022|02|22|23|15|36.7333|-119.8167|84.1|9.0||1|FM15-METAR|223|ICAO-KFCH|1.0||1|FM15-METAR|223|ICAO-KFCH|||||||||||||030|N-Normal|1|FM15-METAR|223|ICAO-KFCH|1.5|N-Normal|1|FM15-METAR|223|ICAO-KFCH|||||||||||||58|Derived||FM15-METAR|223|ICAO-KFCH|||||||||||||||||||||||||||||||||||||||||||||||||||||||||||||||||||||||||1012.2||1|FM15-METAR|223|ICAO-KFCH|||||||||||||||||||||||||||||||||||||||||||MET078METAR KFCH 222315Z AUTO 03003KT 10SM FEW021 SCT045 BKN055 09/01 A2989 RMK A01=||F||223|ICAO-KFCH
USW00023167|FRESNO CHANDLER DWTN AP|2022|02|22|23|35|36.7333|-119.8167|84.1|9.0||1|FM15-METAR|223|ICAO-KFCH|2.0||1|FM15-METAR|223|ICAO-KFCH|||||||||||||350|N-Normal|1|FM15-METAR|223|ICAO-KFCH|3.1|N-Normal|1|FM15-METAR|223|ICAO-KFCH|||||||||||||62|Derived||FM15-METAR|223|ICAO-KFCH|||||||||||||||||||||||||||||||||||||||||||||||||||||||||||||||||||||||||1012.2||1|FM15-METAR|223|ICAO-KFCH|||||||||||||||||||||||||||||||||||||||||||MET057METAR KFCH 222335Z AUTO 35006KT 10SM 09/02 A2989 RMK A01=||F||223|ICAO-KFCH
USW00023167|FRESNO CHANDLER DWTN AP|2022|02|22|23|55|36.7333|-119.8167|84.1|9.0||1|FM15-METAR|223|ICAO-KFCH|2.0||1|FM15-METAR|223|ICAO-KFCH|||||||||||||040|N-Normal|1|FM15-METAR|223|ICAO-KFCH|5.1|N-Normal|1|FM15-METAR|223|ICAO-KFCH|7.7||1|FM15-METAR|223|ICAO-KFCH|||||||62|Derived||FM15-METAR|223|ICAO-KFCH|||||||||||||||||||||||||||||||||||||||||||||||||||||||||||||||||||||||||1012.2||1|FM15-METAR|223|ICAO-KFCH|||||||||||||||||||||||||||||||||||||||||||MET081METAR KFCH 222355Z AUTO 04010G15KT 10SM FEW041 SCT048 BKN055 09/02 A2989 RMK A01=||F||223|ICAO-KFCH
USW00023167|FRESNO CHANDLER DWTN AP|2022|02|23|00|15|36.7333|-119.8167|84.1|8.0||1|FM15-METAR|223|ICAO-KFCH|2.0||1|FM15-METAR|223|ICAO-KFCH|||||||||||||040|N-Normal|1|FM15-METAR|223|ICAO-KFCH|2.1|N-Normal|1|FM15-METAR|223|ICAO-KFCH|||||||||||||66|Derived||FM15-METAR|223|ICAO-KFCH|||||||||||||||||||||||||||||||||||||||||||||||||||||||||||||||||||||||||1012.5||1|FM15-METAR|223|ICAO-KFCH|||||||||||||||||||||||||||||||||||||||||||MET057METAR KFCH 230015Z AUTO 04004KT 10SM 08/02 A2990 RMK A01=||F||223|ICAO-KFCH
USW00023167|FRESNO CHANDLER DWTN AP|2022|02|23|00|35|36.7333|-119.8167|84.1|8.0||1|FM15-METAR|223|ICAO-KFCH|3.0||1|FM15-METAR|223|ICAO-KFCH|||||||||||||350|V-Variable|1|FM15-METAR|223|ICAO-KFCH|4.6|V-Variable|1|FM15-METAR|223|ICAO-KFCH|7.7||1|FM15-METAR|223|ICAO-KFCH|||||||71|Derived||FM15-METAR|223|ICAO-KFCH|||||||||||||||||||||||||||||||||||||||||||||||||||||||||||||||||||||||||1012.5||1|FM15-METAR|223|ICAO-KFCH|||||||||||||||||||||||||||||||||||||||||||MET089METAR KFCH 230035Z AUTO 35009G15KT 320V020 10SM FEW026 BKN032 OVC055 08/03 A2990 RMK A01=||F||223|ICAO-KFCH
USW00023167|FRESNO CHANDLER DWTN AP|2022|02|23|00|55|36.7333|-119.8167|84.1|7.0||1|FM15-METAR|223|ICAO-KFCH|2.0||1|FM15-METAR|223|ICAO-KFCH|||||||||||||350|N-Normal|1|FM15-METAR|223|ICAO-KFCH|6.2|N-Normal|1|FM15-METAR|223|ICAO-KFCH|||||||||||||71|Derived||FM15-METAR|223|ICAO-KFCH|||||||||||||||||||||||||||||||||||||||||||||||||||||||||||||||||||||||||1012.5||1|FM15-METAR|223|ICAO-KFCH|||||||||||||||||||||||||||||||||||||||||||MET071METAR KFCH 230055Z AUTO 35012KT 10SM SCT032 SCT050 07/02 A2990 RMK A01=||F||223|ICAO-KFCH
USW00023167|FRESNO CHANDLER DWTN AP|2022|02|23|01|15|36.7333|-119.8167|84.1|7.0||1|FM15-METAR|223|ICAO-KFCH|1.0||1|FM15-METAR|223|ICAO-KFCH|||||||||||||360|N-Normal|1|FM15-METAR|223|ICAO-KFCH|3.1|N-Normal|1|FM15-METAR|223|ICAO-KFCH|6.7||1|FM15-METAR|223|ICAO-KFCH|||||||66|Derived||FM15-METAR|223|ICAO-KFCH|||||||||||||||||||||||||||||||||||||||||||||||||||||||||||||||||||||||||1012.5||1|FM15-METAR|223|ICAO-KFCH|||||||||||||||||||||||||||||||||||||||||||MET081METAR KFCH 230115Z AUTO 36006G13KT 10SM FEW055 FEW065 FEW085 07/01 A2990 RMK A01=||F||223|ICAO-KFCH
USW00023167|FRESNO CHANDLER DWTN AP|2022|02|23|01|30|36.7333|-119.8167|84.1|7.0||1|FM15-METAR|223|ICAO-KFCH|1.0||1|FM15-METAR|223|ICAO-KFCH|||||||||||||350|N-Normal|1|FM15-METAR|223|ICAO-KFCH|3.1|N-Normal|1|FM15-METAR|223|ICAO-KFCH|||||||||||||66|Derived||FM15-METAR|223|ICAO-KFCH|||||||||||||||||||||||||||||||||||||||||||||||||||||||||||||||||||||||||1012.5||1|FM15-METAR|223|ICAO-KFCH|||||||||||||||||||||||||||||||||||||||||||MET078METAR KFCH 230130Z AUTO 35006KT 10SM SCT055 SCT065 SCT085 07/01 A2990 RMK A01=||F||223|ICAO-KFCH
USW00023167|FRESNO CHANDLER DWTN AP|2022|02|23|01|50|36.7333|-119.8167|84.1|7.0||1|FM15-METAR|223|ICAO-KFCH|1.0||1|FM15-METAR|223|ICAO-KFCH|||||||||||||350|N-Normal|1|FM15-METAR|223|ICAO-KFCH|2.6|N-Normal|1|FM15-METAR|223|ICAO-KFCH|||||||||||||66|Derived||FM15-METAR|223|ICAO-KFCH|||||||||||||||||||||||||||||||||||||||||||||||||||||||||||||||||||||||||1012.5||1|FM15-METAR|223|ICAO-KFCH|||||||||||||||||||||||||||||||||||||||||||MET071METAR KFCH 230150Z AUTO 35005KT 10SM FEW050 SCT055 07/01 A2990 RMK A01=||F||223|ICAO-KFCH
USW00023167|FRESNO CHANDLER DWTN AP|2022|02|23|02|15|36.7333|-119.8167|84.1|6.0||1|FM15-METAR|223|ICAO-KFCH|1.0||1|FM15-METAR|223|ICAO-KFCH|||||||||||||999|C-Calm|9|FM15-METAR|223|ICAO-KFCH|0.0|C-Calm|1|FM15-METAR|223|ICAO-KFCH|||||||||||||71|Derived||FM15-METAR|223|ICAO-KFCH|||||||||||||||||||||||||||||||||||||||||||||||||||||||||||||||||||||||||1012.5||1|FM15-METAR|223|ICAO-KFCH|||||||||||||||||||||||||||||||||||||||||||MET057METAR KFCH 230215Z AUTO 00000KT 10SM 06/01 A2990 RMK A01=||F||223|ICAO-KFCH
USW00023167|FRESNO CHANDLER DWTN AP|2022|02|23|02|35|36.7333|-119.8167|84.1|7.0||1|FM15-METAR|223|ICAO-KFCH|1.0||1|FM15-METAR|223|ICAO-KFCH|||||||||||||310|N-Normal|1|FM15-METAR|223|ICAO-KFCH|3.1|N-Normal|1|FM15-METAR|223|ICAO-KFCH|8.2||1|FM15-METAR|223|ICAO-KFCH|||||||66|Derived||FM15-METAR|223|ICAO-KFCH|||||||||||||||||||||||||||||||||||||||||||||||||||||||||||||||||||||||||1012.9||1|FM15-METAR|223|ICAO-KFCH|||||||||||||||||||||||||||||||||||||||||||MET081METAR KFCH 230235Z AUTO 31006G16KT 10SM BKN049 BKN065 OVC085 07/01 A2991 RMK A01=||F||223|ICAO-KFCH
USW00023167|FRESNO CHANDLER DWTN AP|2022|02|23|02|55|36.7333|-119.8167|84.1|6.0||1|FM15-METAR|223|ICAO-KFCH|1.0||1|FM15-METAR|223|ICAO-KFCH|||||||||||||330|N-Normal|1|FM15-METAR|223|ICAO-KFCH|5.1|N-Normal|1|FM15-METAR|223|ICAO-KFCH|9.3||1|FM15-METAR|223|ICAO-KFCH|||||||71|Derived||FM15-METAR|223|ICAO-KFCH|||||||||||||||||||||||||||||||||||||||||||||||||||||||||||||||||||||||||1012.9||1|FM15-METAR|223|ICAO-KFCH|||||||||||||||||||||||||||||||||||||||||||MET081METAR KFCH 230255Z AUTO 33010G18KT 10SM BKN050 BKN060 OVC075 06/01 A2991 RMK A01=||F||223|ICAO-KFCH
USW00023167|FRESNO CHANDLER DWTN AP|2022|02|23|03|15|36.7333|-119.8167|84.1|6.0||1|FM15-METAR|223|ICAO-KFCH|1.0||1|FM15-METAR|223|ICAO-KFCH|||||||||||||330|N-Normal|1|FM15-METAR|223|ICAO-KFCH|4.6|N-Normal|1|FM15-METAR|223|ICAO-KFCH|8.2||1|FM15-METAR|223|ICAO-KFCH|||||||71|Derived||FM15-METAR|223|ICAO-KFCH|||||||||||||||||||||||||||||||||||||||||||||||||||||||||||||||||||||||||1013.2||1|FM15-METAR|223|ICAO-KFCH|||||||||||||||||||||||||||||||||||||||||||MET081METAR KFCH 230315Z AUTO 33009G16KT 10SM FEW045 BKN055 OVC075 06/01 A2992 RMK A01=||F||223|ICAO-KFCH
USW00023167|FRESNO CHANDLER DWTN AP|2022|02|23|03|35|36.7333|-119.8167|84.1|6.0||1|FM15-METAR|223|ICAO-KFCH|1.0||1|FM15-METAR|223|ICAO-KFCH|||||||||||||330|N-Normal|1|FM15-METAR|223|ICAO-KFCH|4.1|N-Normal|1|FM15-METAR|223|ICAO-KFCH|8.2||1|FM15-METAR|223|ICAO-KFCH|||||||71|Derived||FM15-METAR|223|ICAO-KFCH|||||||||||||||||||||||||||||||||||||||||||||||||||||||||||||||||||||||||1012.9||1|FM15-METAR|223|ICAO-KFCH|||||||||||||||||||||||||||||||||||||||||||MET081METAR KFCH 230335Z AUTO 33008G16KT 10SM BKN055 BKN070 OVC075 06/01 A2991 RMK A01=||F||223|ICAO-KFCH
USW00023167|FRESNO CHANDLER DWTN AP|2022|02|23|03|50|36.7333|-119.8167|84.1|7.0||1|FM15-METAR|223|ICAO-KFCH|-1.0||1|FM15-METAR|223|ICAO-KFCH|||||||||||||330|N-Normal|1|FM15-METAR|223|ICAO-KFCH|4.6|N-Normal|1|FM15-METAR|223|ICAO-KFCH|7.7||1|FM15-METAR|223|ICAO-KFCH|||||||57|Derived||FM15-METAR|223|ICAO-KFCH|||||||||||||||||||||||||||||||||||||||||||||||||||||||||||||||||||||||||1013.2||1|FM15-METAR|223|ICAO-KFCH|||||||||||||||||||||||||||||||||||||||||||MET082METAR KFCH 230350Z AUTO 33009G15KT 10SM SCT055 BKN070 OVC080 07/M01 A2992 RMK A01=||F||223|ICAO-KFCH
USW00023167|FRESNO CHANDLER DWTN AP|2022|02|23|04|15|36.7333|-119.8167|84.1|6.0||1|FM15-METAR|223|ICAO-KFCH|1.0||1|FM15-METAR|223|ICAO-KFCH|||||||||||||330|N-Normal|1|FM15-METAR|223|ICAO-KFCH|4.6|N-Normal|1|FM15-METAR|223|ICAO-KFCH|||||||||||||71|Derived||FM15-METAR|223|ICAO-KFCH|||||||||||||||||||||||||||||||||||||||||||||||||||||||||||||||||||||||||1013.5||1|FM15-METAR|223|ICAO-KFCH|||||||||||||||||||||||||||||||||||||||||||MET078METAR KFCH 230415Z AUTO 33009KT 10SM FEW055 BKN065 OVC090 06/01 A2993 RMK A01=||F||223|ICAO-KFCH
USW00023167|FRESNO CHANDLER DWTN AP|2022|02|23|04|35|36.7333|-119.8167|84.1|6.0||1|FM15-METAR|223|ICAO-KFCH|1.0||1|FM15-METAR|223|ICAO-KFCH|||||||||||||360|N-Normal|1|FM15-METAR|223|ICAO-KFCH|3.6|N-Normal|1|FM15-METAR|223|ICAO-KFCH|||||||||||||71|Derived||FM15-METAR|223|ICAO-KFCH|||||||||||||||||||||||||||||||||||||||||||||||||||||||||||||||||||||||||1013.9||1|FM15-METAR|223|ICAO-KFCH|||||||||||||||||||||||||||||||||||||||||||MET078METAR KFCH 230435Z AUTO 36007KT 10SM SCT030 SCT048 OVC065 06/01 A2994 RMK A01=||F||223|ICAO-KFCH
USW00023167|FRESNO CHANDLER DWTN AP|2022|02|23|04|55|36.7333|-119.8167|84.1|6.0||1|FM15-METAR|223|ICAO-KFCH|1.0||1|FM15-METAR|223|ICAO-KFCH|||||||||||||330|N-Normal|1|FM15-METAR|223|ICAO-KFCH|1.5|N-Normal|1|FM15-METAR|223|ICAO-KFCH|||||||||||||71|Derived||FM15-METAR|223|ICAO-KFCH|||||||||||||||||||||||||||||||||||||||||||||||||||||||||||||||||||||||||1014.2||1|FM15-METAR|223|ICAO-KFCH|||||||||||||||||||||||||||||||||||||||||||MET078METAR KFCH 230455Z AUTO 33003KT 10SM FEW030 BKN045 OVC075 06/01 A2995 RMK A01=||F||223|ICAO-KFCH
USW00023167|FRESNO CHANDLER DWTN AP|2022|02|23|05|15|36.7333|-119.8167|84.1|6.0||1|FM15-METAR|223|ICAO-KFCH|2.0||1|FM15-METAR|223|ICAO-KFCH|||||||||||||320|N-Normal|1|FM15-METAR|223|ICAO-KFCH|2.1|N-Normal|1|FM15-METAR|223|ICAO-KFCH|||||||||||||76|Derived||FM15-METAR|223|ICAO-KFCH|||||||||||||||||||||||||||||||||||||||||||||||||||||||||||||||||||||||||1014.2||1|FM15-METAR|223|ICAO-KFCH|||||||||||||||||||||||||||||||||||||||||||MET078METAR KFCH 230515Z AUTO 32004KT 10SM SCT032 BKN043 OVC065 06/02 A2995 RMK A01=||F||223|ICAO-KFCH
USW00023167|FRESNO CHANDLER DWTN AP|2022|02|23|05|35|36.7333|-119.8167|84.1|6.0||1|FM15-METAR|223|ICAO-KFCH|1.0||1|FM15-METAR|223|ICAO-KFCH|||||||||||||030|N-Normal|1|FM15-METAR|223|ICAO-KFCH|2.6|N-Normal|1|FM15-METAR|223|ICAO-KFCH|||||||||||||71|Derived||FM15-METAR|223|ICAO-KFCH|||||||||||||||||||||||||||||||||||||||||||||||||||||||||||||||||||||||||1014.2||1|FM15-METAR|223|ICAO-KFCH|||||||||||||||||||||||||||||||||||||||||||MET078METAR KFCH 230535Z AUTO 03005KT 10SM FEW033 SCT039 OVC070 06/01 A2995 RMK A01=||F||223|ICAO-KFCH
USW00023167|FRESNO CHANDLER DWTN AP|2022|02|23|05|55|36.7333|-119.8167|84.1|6.0||1|FM15-METAR|223|ICAO-KFCH|1.0||1|FM15-METAR|223|ICAO-KFCH|||||||||||||050|N-Normal|1|FM15-METAR|223|ICAO-KFCH|2.1|N-Normal|1|FM15-METAR|223|ICAO-KFCH|||||||||||||71|Derived||FM15-METAR|223|ICAO-KFCH|||||||||||||||||||||||||||||||||||||||||||||||||||||||||||||||||||||||||1014.6||1|FM15-METAR|223|ICAO-KFCH|||||||||||||||||||||||||||||||||||||||||||MET078METAR KFCH 230555Z AUTO 05004KT 10SM FEW039 BKN048 OVC070 06/01 A2996 RMK A01=||F||223|ICAO-KFCH
USW00023167|FRESNO CHANDLER DWTN AP|2022|02|23|06|15|36.7333|-119.8167|84.1|6.0||1|FM15-METAR|223|ICAO-KFCH|2.0||1|FM15-METAR|223|ICAO-KFCH|||||||||||||090|N-Normal|1|FM15-METAR|223|ICAO-KFCH|2.1|N-Normal|1|FM15-METAR|223|ICAO-KFCH|||||||||||||76|Derived||FM15-METAR|223|ICAO-KFCH|||||||||||||||||||||||||||||||||||||||||||||||||||||||||||||||||||||||||1014.6||1|FM15-METAR|223|ICAO-KFCH|||||||||||||||||||||||||||||||||||||||||||MET071METAR KFCH 230615Z AUTO 09004KT 10SM BKN044 OVC050 06/02 A2996 RMK A01=||F||223|ICAO-KFCH
USW00023167|FRESNO CHANDLER DWTN AP|2022|02|23|06|30|36.7333|-119.8167|84.1|5.0||1|FM15-METAR|223|ICAO-KFCH|2.0||1|FM15-METAR|223|ICAO-KFCH|||||||||||||999|C-Calm|9|FM15-METAR|223|ICAO-KFCH|0.0|C-Calm|1|FM15-METAR|223|ICAO-KFCH|||||||||||||81|Derived||FM15-METAR|223|ICAO-KFCH|||||||||||||||||||||||||||||||||||||||||||||||||||||||||||||||||||||||||1014.6||1|FM15-METAR|223|ICAO-KFCH|||||||||||||||||||||||||||||||||||||||||||MET071METAR KFCH 230630Z AUTO 00000KT 10SM BKN044 OVC050 05/02 A2996 RMK A01=||F||223|ICAO-KFCH
USW00023167|FRESNO CHANDLER DWTN AP|2022|02|23|06|55|36.7333|-119.8167|84.1|5.0||1|FM15-METAR|223|ICAO-KFCH|2.0||1|FM15-METAR|223|ICAO-KFCH|||||||||||||110|N-Normal|1|FM15-METAR|223|ICAO-KFCH|3.1|N-Normal|1|FM15-METAR|223|ICAO-KFCH|||||||||||||81|Derived||FM15-METAR|223|ICAO-KFCH|||||||||||||||||||||||||||||||||||||||||||||||||||||||||||||||||||||||||1014.2||1|FM15-METAR|223|ICAO-KFCH|||||||||||||||||||||||||||||||||||||||||||MET078METAR KFCH 230655Z AUTO 11006KT 10SM FEW045 SCT050 OVC075 05/02 A2995 RMK A01=||F||223|ICAO-KFCH
USW00023167|FRESNO CHANDLER DWTN AP|2022|02|23|07|15|36.7333|-119.8167|84.1|5.0||1|FM15-METAR|223|ICAO-KFCH|2.0||1|FM15-METAR|223|ICAO-KFCH|||||||||||||120|N-Normal|1|FM15-METAR|223|ICAO-KFCH|2.1|N-Normal|1|FM15-METAR|223|ICAO-KFCH|||||||||||||81|Derived||FM15-METAR|223|ICAO-KFCH|||||||||||||||||||||||||||||||||||||||||||||||||||||||||||||||||||||||||1014.6||1|FM15-METAR|223|ICAO-KFCH|||||||||||||||||||||||||||||||||||||||||||MET078METAR KFCH 230715Z AUTO 12004KT 10SM FEW043 BKN055 OVC075 05/02 A2996 RMK A01=||F||223|ICAO-KFCH
USW00023167|FRESNO CHANDLER DWTN AP|2022|02|23|07|35|36.7333|-119.8167|84.1|5.0||1|FM15-METAR|223|ICAO-KFCH|2.0||1|FM15-METAR|223|ICAO-KFCH|||||||||||||130|N-Normal|1|FM15-METAR|223|ICAO-KFCH|2.1|N-Normal|1|FM15-METAR|223|ICAO-KFCH|||||||||||||81|Derived||FM15-METAR|223|ICAO-KFCH|||||||||||||||||||||||||||||||||||||||||||||||||||||||||||||||||||||||||1014.2||1|FM15-METAR|223|ICAO-KFCH|||||||||||||||||||||||||||||||||||||||||||MET071METAR KFCH 230735Z AUTO 13004KT 10SM BKN055 OVC110 05/02 A2995 RMK A01=||F||223|ICAO-KFCH
USW00023167|FRESNO CHANDLER DWTN AP|2022|02|23|07|50|36.7333|-119.8167|84.1|5.0||1|FM15-METAR|223|ICAO-KFCH|3.0||1|FM15-METAR|223|ICAO-KFCH|||||||||||||999|C-Calm|9|FM15-METAR|223|ICAO-KFCH|0.0|C-Calm|1|FM15-METAR|223|ICAO-KFCH|||||||||||||87|Derived||FM15-METAR|223|ICAO-KFCH|||||||||||||||||||||||||||||||||||||||||||||||||||||||||||||||||||||||||1014.2||1|FM15-METAR|223|ICAO-KFCH|||||||||||||||||||||||||||||||||||||||||||MET071METAR KFCH 230750Z AUTO 00000KT 10SM SCT050 OVC120 05/03 A2995 RMK A01=||F||223|ICAO-KFCH
USW00023167|FRESNO CHANDLER DWTN AP|2022|02|23|08|15|36.7333|-119.8167|84.1|4.0||1|FM15-METAR|223|ICAO-KFCH|3.0||1|FM15-METAR|223|ICAO-KFCH|||||||||||||160|N-Normal|1|FM15-METAR|223|ICAO-KFCH|2.1|N-Normal|1|FM15-METAR|223|ICAO-KFCH|||||||||||||93|Derived||FM15-METAR|223|ICAO-KFCH|||||||||||||||||||||||||||||||||||||||||||||||||||||||||||||||||||||||||1014.6||1|FM15-METAR|223|ICAO-KFCH|||||||||||||||||||||||||||||||||||||||||||MET071METAR KFCH 230815Z AUTO 16004KT 10SM BKN047 OVC120 04/03 A2996 RMK A01=||F||223|ICAO-KFCH
USW00023167|FRESNO CHANDLER DWTN AP|2022|02|23|08|35|36.7333|-119.8167|84.1|4.0||1|FM15-METAR|223|ICAO-KFCH|3.0||1|FM15-METAR|223|ICAO-KFCH|||||||||||||170|N-Normal|1|FM15-METAR|223|ICAO-KFCH|2.1|N-Normal|1|FM15-METAR|223|ICAO-KFCH|||||||||||||93|Derived||FM15-METAR|223|ICAO-KFCH|||||||||||||||||||||||||||||||||||||||||||||||||||||||||||||||||||||||||1014.6||1|FM15-METAR|223|ICAO-KFCH|||||||||||||||||||||||||||||||||||||||||||MET064METAR KFCH 230835Z AUTO 17004KT 10SM OVC048 04/03 A2996 RMK A01=||F||223|ICAO-KFCH
USW00023167|FRESNO CHANDLER DWTN AP|2022|02|23|08|55|36.7333|-119.8167|84.1|4.0||1|FM15-METAR|223|ICAO-KFCH|3.0||1|FM15-METAR|223|ICAO-KFCH|||||||||||||170|N-Normal|1|FM15-METAR|223|ICAO-KFCH|2.1|N-Normal|1|FM15-METAR|223|ICAO-KFCH|||||||||||||93|Derived||FM15-METAR|223|ICAO-KFCH|||||||||||||||||||||||||||||||||||||||||||||||||||||||||||||||||||||||||1014.2||1|FM15-METAR|223|ICAO-KFCH|||||||||||||||||||||||||||||||||||||||||||MET071METAR KFCH 230855Z AUTO 17004KT 10SM BKN047 OVC080 04/03 A2995 RMK A01=||F||223|ICAO-KFCH
USW00023167|FRESNO CHANDLER DWTN AP|2022|02|23|09|15|36.7333|-119.8167|84.1|4.0||1|FM15-METAR|223|ICAO-KFCH|3.0||1|FM15-METAR|223|ICAO-KFCH|||||||||||||999|C-Calm|9|FM15-METAR|223|ICAO-KFCH|0.0|C-Calm|1|FM15-METAR|223|ICAO-KFCH|||||||||||||93|Derived||FM15-METAR|223|ICAO-KFCH|||||||||||||||||||||||||||||||||||||||||||||||||||||||||||||||||||||||||1014.6||1|FM15-METAR|223|ICAO-KFCH|||||||||||||||||||||||||||||||||||||||||||MET071METAR KFCH 230915Z AUTO 00000KT 10SM BKN045 OVC085 04/03 A2996 RMK A01=||F||223|ICAO-KFCH
USW00023167|FRESNO CHANDLER DWTN AP|2022|02|23|09|35|36.7333|-119.8167|84.1|4.0||1|FM15-METAR|223|ICAO-KFCH|3.0||1|FM15-METAR|223|ICAO-KFCH|||||||||||||230|N-Normal|1|FM15-METAR|223|ICAO-KFCH|2.1|N-Normal|1|FM15-METAR|223|ICAO-KFCH|||||||||||||93|Derived||FM15-METAR|223|ICAO-KFCH|||||||||||||||||||||||||||||||||||||||||||||||||||||||||||||||||||||||||1014.6||1|FM15-METAR|223|ICAO-KFCH|||||||||||||||||||||||||||||||||||||||||||MET064METAR KFCH 230935Z AUTO 23004KT 10SM OVC045 04/03 A2996 RMK A01=||F||223|ICAO-KFCH
USW00023167|FRESNO CHANDLER DWTN AP|2022|02|23|09|50|36.7333|-119.8167|84.1|4.0||1|FM15-METAR|223|ICAO-KFCH|3.0||1|FM15-METAR|223|ICAO-KFCH|||||||||||||240|N-Normal|1|FM15-METAR|223|ICAO-KFCH|2.1|N-Normal|1|FM15-METAR|223|ICAO-KFCH|||||||||||||93|Derived||FM15-METAR|223|ICAO-KFCH|||||||||||||||||||||||||||||||||||||||||||||||||||||||||||||||||||||||||1014.6||1|FM15-METAR|223|ICAO-KFCH|||||||||||||||||||||||||||||||||||||||||||MET064METAR KFCH 230950Z AUTO 24004KT 10SM OVC046 04/03 A2996 RMK A01=||F||223|ICAO-KFCH
USW00023167|FRESNO CHANDLER DWTN AP|2022|02|23|10|15|36.7333|-119.8167|84.1|4.0||1|FM15-METAR|223|ICAO-KFCH|3.0||1|FM15-METAR|223|ICAO-KFCH|||||||||||||999|C-Calm|9|FM15-METAR|223|ICAO-KFCH|0.0|C-Calm|1|FM15-METAR|223|ICAO-KFCH|||||||||||||93|Derived||FM15-METAR|223|ICAO-KFCH|||||||||||||||||||||||||||||||||||||||||||||||||||||||||||||||||||||||||1014.9||1|FM15-METAR|223|ICAO-KFCH|||||||||||||||||||||||||||||||||||||||||||MET078METAR KFCH 231015Z AUTO 00000KT 10SM FEW043 BKN050 OVC055 04/03 A2997 RMK A01=||F||223|ICAO-KFCH
USW00023167|FRESNO CHANDLER DWTN AP|2022|02|23|10|35|36.7333|-119.8167|84.1|4.0||1|FM15-METAR|223|ICAO-KFCH|3.0||1|FM15-METAR|223|ICAO-KFCH|||||||||||||999|C-Calm|9|FM15-METAR|223|ICAO-KFCH|0.0|C-Calm|1|FM15-METAR|223|ICAO-KFCH|||||||||||||93|Derived||FM15-METAR|223|ICAO-KFCH|||||||||||||||||||||||||||||||||||||||||||||||||||||||||||||||||||||||||1014.9||1|FM15-METAR|223|ICAO-KFCH|||||||||||||||||||||||||||||||||||||||||||MET078METAR KFCH 231035Z AUTO 00000KT 10SM FEW043 BKN050 OVC060 04/03 A2997 RMK A01=||F||223|ICAO-KFCH
USW00023167|FRESNO CHANDLER DWTN AP|2022|02|23|10|50|36.7333|-119.8167|84.1|4.0||1|FM15-METAR|223|ICAO-KFCH|3.0||1|FM15-METAR|223|ICAO-KFCH|||||||||||||999|C-Calm|9|FM15-METAR|223|ICAO-KFCH|0.0|C-Calm|1|FM15-METAR|223|ICAO-KFCH|||||||||||||93|Derived||FM15-METAR|223|ICAO-KFCH|||||||||||||||||||||||||||||||||||||||||||||||||||||||||||||||||||||||||1014.9||1|FM15-METAR|223|ICAO-KFCH|||||||||||||||||||||||||||||||||||||||||||MET078METAR KFCH 231050Z AUTO 00000KT 10SM BKN029 BKN050 OVC060 04/03 A2997 RMK A01=||F||223|ICAO-KFCH
USW00023167|FRESNO CHANDLER DWTN AP|2022|02|23|11|15|36.7333|-119.8167|84.1|4.0||1|FM15-METAR|223|ICAO-KFCH|3.0||1|FM15-METAR|223|ICAO-KFCH|||||||||||||999|C-Calm|9|FM15-METAR|223|ICAO-KFCH|0.0|C-Calm|1|FM15-METAR|223|ICAO-KFCH|||||||||||||93|Derived||FM15-METAR|223|ICAO-KFCH|||||||||||||||||||||||||||||||||||||||||||||||||||||||||||||||||||||||||1014.9||1|FM15-METAR|223|ICAO-KFCH|||||||||||||||||||||||||||||||||||||||||||MET071METAR KFCH 231115Z AUTO 00000KT 10SM FEW029 OVC060 04/03 A2997 RMK A01=||F||223|ICAO-KFCH
USW00023167|FRESNO CHANDLER DWTN AP|2022|02|23|11|35|36.7333|-119.8167|84.1|4.0||1|FM15-METAR|223|ICAO-KFCH|3.0||1|FM15-METAR|223|ICAO-KFCH|||||||||||||999|C-Calm|9|FM15-METAR|223|ICAO-KFCH|0.0|C-Calm|1|FM15-METAR|223|ICAO-KFCH|||||||||||||93|Derived||FM15-METAR|223|ICAO-KFCH|||||||||||||||||||||||||||||||||||||||||||||||||||||||||||||||||||||||||1014.9||1|FM15-METAR|223|ICAO-KFCH|||||||||||||||||||||||||||||||||||||||||||MET064METAR KFCH 231135Z AUTO 00000KT 10SM OVC060 04/03 A2997 RMK A01=||F||223|ICAO-KFCH
USW00023167|FRESNO CHANDLER DWTN AP|2022|02|23|11|55|36.7333|-119.8167|84.1|4.0||1|FM15-METAR|223|ICAO-KFCH|3.0||1|FM15-METAR|223|ICAO-KFCH|||||||||||||999|C-Calm|9|FM15-METAR|223|ICAO-KFCH|0.0|C-Calm|1|FM15-METAR|223|ICAO-KFCH|||||||||||||93|Derived||FM15-METAR|223|ICAO-KFCH|||||||||||||||||||||||||||||||||||||||||||||||||||||||||||||||||||||||||1014.9||1|FM15-METAR|223|ICAO-KFCH|||||||||||||||||||||||||||||||||||||||||||MET078METAR KFCH 231155Z AUTO 00000KT 10SM FEW040 FEW047 OVC060 04/03 A2997 RMK A01=||F||223|ICAO-KFCH
USW00023167|FRESNO CHANDLER DWTN AP|2022|02|23|12|10|36.7333|-119.8167|84.1|4.0||1|FM15-METAR|223|ICAO-KFCH|3.0||1|FM15-METAR|223|ICAO-KFCH|||||||||||||999|C-Calm|9|FM15-METAR|223|ICAO-KFCH|0.0|C-Calm|1|FM15-METAR|223|ICAO-KFCH|||||||||||||93|Derived||FM15-METAR|223|ICAO-KFCH|||||||||||||||||||||||||||||||||||||||||||||||||||||||||||||||||||||||||1015.2||1|FM15-METAR|223|ICAO-KFCH|||||||||||||||||||||||||||||||||||||||||||MET071METAR KFCH 231210Z AUTO 00000KT 10SM BKN044 OVC060 04/03 A2998 RMK A01=||F||223|ICAO-KFCH
USW00023167|FRESNO CHANDLER DWTN AP|2022|02|23|12|35|36.7333|-119.8167|84.1|4.0||1|FM15-METAR|223|ICAO-KFCH|3.0||1|FM15-METAR|223|ICAO-KFCH|||||||||||||999|C-Calm|9|FM15-METAR|223|ICAO-KFCH|0.0|C-Calm|1|FM15-METAR|223|ICAO-KFCH|||||||||||||93|Derived||FM15-METAR|223|ICAO-KFCH|||||||||||||||||||||||||||||||||||||||||||||||||||||||||||||||||||||||||1015.6||1|FM15-METAR|223|ICAO-KFCH|||||||||||||||||||||||||||||||||||||||||||MET071METAR KFCH 231235Z AUTO 00000KT 10SM SCT048 OVC065 04/03 A2999 RMK A01=||F||223|ICAO-KFCH
USW00023167|FRESNO CHANDLER DWTN AP|2022|02|23|12|55|36.7333|-119.8167|84.1|4.0||1|FM15-METAR|223|ICAO-KFCH|3.0||1|FM15-METAR|223|ICAO-KFCH|||||||||||||999|C-Calm|9|FM15-METAR|223|ICAO-KFCH|0.0|C-Calm|1|FM15-METAR|223|ICAO-KFCH|||||||||||||93|Derived||FM15-METAR|223|ICAO-KFCH|||||||||||||||||||||||||||||||||||||||||||||||||||||||||||||||||||||||||1015.6||1|FM15-METAR|223|ICAO-KFCH|||||||||||||||||||||||||||||||||||||||||||MET064METAR KFCH 231255Z AUTO 00000KT 10SM OVC070 04/03 A2999 RMK A01=||F||223|ICAO-KFCH
USW00023167|FRESNO CHANDLER DWTN AP|2022|02|23|13|10|36.7333|-119.8167|84.1|4.0||1|FM15-METAR|223|ICAO-KFCH|3.0||1|FM15-METAR|223|ICAO-KFCH|||||||||||||999|C-Calm|9|FM15-METAR|223|ICAO-KFCH|0.0|C-Calm|1|FM15-METAR|223|ICAO-KFCH|||||||||||||93|Derived||FM15-METAR|223|ICAO-KFCH|||||||||||||||||||||||||||||||||||||||||||||||||||||||||||||||||||||||||1015.9||1|FM15-METAR|223|ICAO-KFCH|||||||||||||||||||||||||||||||||||||||||||MET071METAR KFCH 231310Z AUTO 00000KT 10SM BKN060 OVC070 04/03 A3000 RMK A01=||F||223|ICAO-KFCH
USW00023167|FRESNO CHANDLER DWTN AP|2022|02|23|13|35|36.7333|-119.8167|84.1|4.0||1|FM15-METAR|223|ICAO-KFCH|3.0||1|FM15-METAR|223|ICAO-KFCH|||||||||||||290|N-Normal|1|FM15-METAR|223|ICAO-KFCH|2.6|N-Normal|1|FM15-METAR|223|ICAO-KFCH|||||||||||||93|Derived||FM15-METAR|223|ICAO-KFCH|||||||||||||||||||||||||||||||||||||||||||||||||||||||||||||||||||||||||1016.3||1|FM15-METAR|223|ICAO-KFCH|||||||||||||||||||||||||||||||||||||||||||MET071METAR KFCH 231335Z AUTO 29005KT 10SM SCT060 OVC070 04/03 A3001 RMK A01=||F||223|ICAO-KFCH
USW00023167|FRESNO CHANDLER DWTN AP|2022|02|23|13|55|36.7333|-119.8167|84.1|3.0||1|FM15-METAR|223|ICAO-KFCH|2.0||1|FM15-METAR|223|ICAO-KFCH|||||||||||||300|N-Normal|1|FM15-METAR|223|ICAO-KFCH|3.6|N-Normal|1|FM15-METAR|223|ICAO-KFCH|||||||||||||93|Derived||FM15-METAR|223|ICAO-KFCH|||||||||||||||||||||||||||||||||||||||||||||||||||||||||||||||||||||||||1016.6||1|FM15-METAR|223|ICAO-KFCH|||||||||||||||||||||||||||||||||||||||||||MET071METAR KFCH 231355Z AUTO 30007KT 10SM FEW055 OVC070 03/02 A3002 RMK A01=||F||223|ICAO-KFCH
USW00023167|FRESNO CHANDLER DWTN AP|2022|02|23|14|15|36.7333|-119.8167|84.1|3.0||1|FM15-METAR|223|ICAO-KFCH|2.0||1|FM15-METAR|223|ICAO-KFCH|||||||||||||310|N-Normal|1|FM15-METAR|223|ICAO-KFCH|2.1|N-Normal|1|FM15-METAR|223|ICAO-KFCH|||||||||||||93|Derived||FM15-METAR|223|ICAO-KFCH|||||||||||||||||||||||||||||||||||||||||||||||||||||||||||||||||||||||||1016.6||1|FM15-METAR|223|ICAO-KFCH|||||||||||||||||||||||||||||||||||||||||||MET078METAR KFCH 231415Z AUTO 31004KT 10SM BKN065 BKN100 BKN120 03/02 A3002 RMK A01=||F||223|ICAO-KFCH
USW00023167|FRESNO CHANDLER DWTN AP|2022|02|23|14|35|36.7333|-119.8167|84.1|2.0||1|FM15-METAR|223|ICAO-KFCH|2.0||1|FM15-METAR|223|ICAO-KFCH|||||||||||||300|N-Normal|1|FM15-METAR|223|ICAO-KFCH|2.6|N-Normal|1|FM15-METAR|223|ICAO-KFCH|||||||||||||100|Derived||FM15-METAR|223|ICAO-KFCH|||||||||||||||||||||||||||||||||||||||||||||||||||||||||||||||||||||||||1016.6||1|FM15-METAR|223|ICAO-KFCH|||||||||||||||||||||||||||||||||||||||||||MET071METAR KFCH 231435Z AUTO 30005KT 10SM FEW060 SCT110 02/02 A3002 RMK A01=||F||223|ICAO-KFCH
USW00023167|FRESNO CHANDLER DWTN AP|2022|02|23|14|55|36.7333|-119.8167|84.1|2.0||1|FM15-METAR|223|ICAO-KFCH|2.0||1|FM15-METAR|223|ICAO-KFCH|||||||||||||330|N-Normal|1|FM15-METAR|223|ICAO-KFCH|2.1|N-Normal|1|FM15-METAR|223|ICAO-KFCH|||||||||||||100|Derived||FM15-METAR|223|ICAO-KFCH|||||||||||||||||||||||||||||||||||||||||||||||||||||||||||||||||||||||||1016.9||1|FM15-METAR|223|ICAO-KFCH|||||||||||||||||||||||||||||||||||||||||||MET061METAR KFCH 231455Z AUTO 33004KT 10SM CLR 02/02 A3003 RMK A01=||F||223|ICAO-KFCH
USW00023167|FRESNO CHANDLER DWTN AP|2022|02|23|15|15|36.7333|-119.8167|84.1|3.0||1|FM15-METAR|223|ICAO-KFCH|2.0||1|FM15-METAR|223|ICAO-KFCH|||||||||||||310|N-Normal|1|FM15-METAR|223|ICAO-KFCH|2.1|N-Normal|1|FM15-METAR|223|ICAO-KFCH|||||||||||||93|Derived||FM15-METAR|223|ICAO-KFCH|||||||||||||||||||||||||||||||||||||||||||||||||||||||||||||||||||||||||1017.3||1|FM15-METAR|223|ICAO-KFCH|||||||||||||||||||||||||||||||||||||||||||MET061METAR KFCH 231515Z AUTO 31004KT 10SM CLR 03/02 A3004 RMK A01=||F||223|ICAO-KFCH
USW00023167|FRESNO CHANDLER DWTN AP|2022|02|23|15|35|36.7333|-119.8167|84.1|4.0||1|FM15-METAR|223|ICAO-KFCH|2.0||1|FM15-METAR|223|ICAO-KFCH|||||||||||||330|N-Normal|1|FM15-METAR|223|ICAO-KFCH|2.6|N-Normal|1|FM15-METAR|223|ICAO-KFCH|||||||||||||87|Derived||FM15-METAR|223|ICAO-KFCH|||||||||||||||||||||||||||||||||||||||||||||||||||||||||||||||||||||||||1017.6||1|FM15-METAR|223|ICAO-KFCH|||||||||||||||||||||||||||||||||||||||||||MET061METAR KFCH 231535Z AUTO 33005KT 10SM CLR 04/02 A3005 RMK A01=||F||223|ICAO-KFCH
USW00023167|FRESNO CHANDLER DWTN AP|2022|02|23|15|55|36.7333|-119.8167|84.1|4.0||1|FM15-METAR|223|ICAO-KFCH|2.0||1|FM15-METAR|223|ICAO-KFCH|||||||||||||300|N-Normal|1|FM15-METAR|223|ICAO-KFCH|2.6|N-Normal|1|FM15-METAR|223|ICAO-KFCH|||||||||||||87|Derived||FM15-METAR|223|ICAO-KFCH|||||||||||||||||||||||||||||||||||||||||||||||||||||||||||||||||||||||||1017.9||1|FM15-METAR|223|ICAO-KFCH|||||||||||||||||||||||||||||||||||||||||||MET061METAR KFCH 231555Z AUTO 30005KT 10SM CLR 04/02 A3006 RMK A01=||F||223|ICAO-KFCH
USW00023167|FRESNO CHANDLER DWTN AP|2022|02|23|16|15|36.7333|-119.8167|84.1|5.0||1|FM15-METAR|223|ICAO-KFCH|2.0||1|FM15-METAR|223|ICAO-KFCH|||||||||||||310|N-Normal|1|FM15-METAR|223|ICAO-KFCH|3.6|N-Normal|1|FM15-METAR|223|ICAO-KFCH|||||||||||||81|Derived||FM15-METAR|223|ICAO-KFCH|||||||||||||||||||||||||||||||||||||||||||||||||||||||||||||||||||||||||1018.3||1|FM15-METAR|223|ICAO-KFCH|||||||||||||||||||||||||||||||||||||||||||MET061METAR KFCH 231615Z AUTO 31007KT 10SM CLR 05/02 A3007 RMK A01=||F||223|ICAO-KFCH
USW00023167|FRESNO CHANDLER DWTN AP|2022|02|23|16|35|36.7333|-119.8167|84.1|5.0||1|FM15-METAR|223|ICAO-KFCH|3.0||1|FM15-METAR|223|ICAO-KFCH|||||||||||||310|N-Normal|1|FM15-METAR|223|ICAO-KFCH|4.6|N-Normal|1|FM15-METAR|223|ICAO-KFCH|||||||||||||87|Derived||FM15-METAR|223|ICAO-KFCH|||||||||||||||||||||||||||||||||||||||||||||||||||||||||||||||||||||||||1018.3||1|FM15-METAR|223|ICAO-KFCH|||||||||||||||||||||||||||||||||||||||||||MET061METAR KFCH 231635Z AUTO 31009KT 10SM CLR 05/03 A3007 RMK A01=||F||223|ICAO-KFCH
USW00023167|FRESNO CHANDLER DWTN AP|2022|02|23|16|55|36.7333|-119.8167|84.1|5.0||1|FM15-METAR|223|ICAO-KFCH|2.0||1|FM15-METAR|223|ICAO-KFCH|||||||||||||320|N-Normal|1|FM15-METAR|223|ICAO-KFCH|4.1|N-Normal|1|FM15-METAR|223|ICAO-KFCH|||||||||||||81|Derived||FM15-METAR|223|ICAO-KFCH|||||||||||||||||||||||||||||||||||||||||||||||||||||||||||||||||||||||||1018.6||1|FM15-METAR|223|ICAO-KFCH|||||||||||||||||||||||||||||||||||||||||||MET061METAR KFCH 231655Z AUTO 32008KT 10SM CLR 05/02 A3008 RMK A01=||F||223|ICAO-KFCH
USW00023167|FRESNO CHANDLER DWTN AP|2022|02|23|17|15|36.7333|-119.8167|84.1|5.0||1|FM15-METAR|223|ICAO-KFCH|2.0||1|FM15-METAR|223|ICAO-KFCH|||||||||||||310|N-Normal|1|FM15-METAR|223|ICAO-KFCH|4.1|N-Normal|1|FM15-METAR|223|ICAO-KFCH|||||||||||||81|Derived||FM15-METAR|223|ICAO-KFCH|||||||||||||||||||||||||||||||||||||||||||||||||||||||||||||||||||||||||1019.0||1|FM15-METAR|223|ICAO-KFCH|||||||||||||||||||||||||||||||||||||||||||MET064METAR KFCH 231715Z AUTO 31008KT 10SM SCT015 05/02 A3009 RMK A01=||F||223|ICAO-KFCH
USW00023167|FRESNO CHANDLER DWTN AP|2022|02|23|17|35|36.7333|-119.8167|84.1|6.0||1|FM15-METAR|223|ICAO-KFCH|2.0||1|FM15-METAR|223|ICAO-KFCH|||||||||||||310|N-Normal|1|FM15-METAR|223|ICAO-KFCH|3.6|N-Normal|1|FM15-METAR|223|ICAO-KFCH|||||||||||||76|Derived||FM15-METAR|223|ICAO-KFCH|||||||||||||||||||||||||||||||||||||||||||||||||||||||||||||||||||||||||1019.0||1|FM15-METAR|223|ICAO-KFCH|||||||||||||||||||||||||||||||||||||||||||MET071METAR KFCH 231735Z AUTO 31007KT 10SM FEW016 FEW040 06/02 A3009 RMK A01=||F||223|ICAO-KFCH
USW00023167|FRESNO CHANDLER DWTN AP|2022|02|23|17|55|36.7333|-119.8167|84.1|6.0||1|FM15-METAR|223|ICAO-KFCH|2.0||1|FM15-METAR|223|ICAO-KFCH|||||||||||||999|V-Variable|9|FM15-METAR|223|ICAO-KFCH|2.1|V-Variable|1|FM15-METAR|223|ICAO-KFCH|5.1||1|FM15-METAR|223|ICAO-KFCH|||||||76|Derived||FM15-METAR|223|ICAO-KFCH|||||||||||||||||||||||||||||||||||||||||||||||||||||||||||||||||||||||||1019.0||1|FM15-METAR|223|ICAO-KFCH|||||||||||||||||||||||||||||||||||||||||||MET074METAR KFCH 231755Z AUTO VRB04G10KT 10SM SCT018 BKN040 06/02 A3009 RMK A01=||F||223|ICAO-KFCH
USW00023167|FRESNO CHANDLER DWTN AP|2022|02|23|18|15|36.7333|-119.8167|84.1|7.0||1|FM15-METAR|223|ICAO-KFCH|2.0||1|FM15-METAR|223|ICAO-KFCH|||||||||||||300|N-Normal|1|FM15-METAR|223|ICAO-KFCH|3.6|N-Normal|1|FM15-METAR|223|ICAO-KFCH|6.2||1|FM15-METAR|223|ICAO-KFCH|||||||71|Derived||FM15-METAR|223|ICAO-KFCH|||||||||||||||||||||||||||||||||||||||||||||||||||||||||||||||||||||||||1019.3||1|FM15-METAR|223|ICAO-KFCH|||||||||||||||||||||||||||||||||||||||||||MET067METAR KFCH 231815Z AUTO 30007G12KT 10SM BKN018 07/02 A3010 RMK A01=||F||223|ICAO-KFCH
USW00023167|FRESNO CHANDLER DWTN AP|2022|02|23|18|35|36.7333|-119.8167|84.1|7.0||1|FM15-METAR|223|ICAO-KFCH|2.0||1|FM15-METAR|223|ICAO-KFCH|||||||||||||999|V-Variable|9|FM15-METAR|223|ICAO-KFCH|2.6|V-Variable|1|FM15-METAR|223|ICAO-KFCH|5.7||1|FM15-METAR|223|ICAO-KFCH|||||||71|Derived||FM15-METAR|223|ICAO-KFCH|||||||||||||||||||||||||||||||||||||||||||||||||||||||||||||||||||||||||1019.3||1|FM15-METAR|223|ICAO-KFCH|||||||||||||||||||||||||||||||||||||||||||MET060METAR KFCH 231835Z AUTO VRB05G11KT 10SM 07/02 A3010 RMK A01=||F||223|ICAO-KFCH
USW00023167|FRESNO CHANDLER DWTN AP|2022|02|23|18|55|36.7333|-119.8167|84.1|7.0||1|FM15-METAR|223|ICAO-KFCH|2.0||1|FM15-METAR|223|ICAO-KFCH|||||||||||||290|N-Normal|1|FM15-METAR|223|ICAO-KFCH|5.1|N-Normal|1|FM15-METAR|223|ICAO-KFCH|||||||||||||71|Derived||FM15-METAR|223|ICAO-KFCH|||||||||||||||||||||||||||||||||||||||||||||||||||||||||||||||||||||||||1019.3||1|FM15-METAR|223|ICAO-KFCH|||||||||||||||||||||||||||||||||||||||||||MET057METAR KFCH 231855Z AUTO 29010KT 10SM 07/02 A3010 RMK A01=||F||223|ICAO-KFCH
USW00023167|FRESNO CHANDLER DWTN AP|2022|02|23|19|10|36.7333|-119.8167|84.1|7.0||1|FM15-METAR|223|ICAO-KFCH|2.0||1|FM15-METAR|223|ICAO-KFCH|||||||||||||300|N-Normal|1|FM15-METAR|223|ICAO-KFCH|6.7|N-Normal|1|FM15-METAR|223|ICAO-KFCH|||||||||||||71|Derived||FM15-METAR|223|ICAO-KFCH|||||||||||||||||||||||||||||||||||||||||||||||||||||||||||||||||||||||||1019.6||1|FM15-METAR|223|ICAO-KFCH|||||||||||||||||||||||||||||||||||||||||||MET071METAR KFCH 231910Z AUTO 30013KT 10SM BKN022 OVC026 07/02 A3011 RMK A01=||F||223|ICAO-KFCH
USW00023167|FRESNO CHANDLER DWTN AP|2022|02|23|19|35|36.7333|-119.8167|84.1|7.0||1|FM15-METAR|223|ICAO-KFCH|2.0||1|FM15-METAR|223|ICAO-KFCH|||||||||||||310|N-Normal|1|FM15-METAR|223|ICAO-KFCH|5.1|N-Normal|1|FM15-METAR|223|ICAO-KFCH|||||||||||||71|Derived||FM15-METAR|223|ICAO-KFCH|||||||||||||||||||||||||||||||||||||||||||||||||||||||||||||||||||||||||1019.3||1|FM15-METAR|223|ICAO-KFCH|||||||||||||||||||||||||||||||||||||||||||MET071METAR KFCH 231935Z AUTO 31010KT 10SM BKN022 BKN030 07/02 A3010 RMK A01=||F||223|ICAO-KFCH
USW00023167|FRESNO CHANDLER DWTN AP|2022|02|23|19|50|36.7333|-119.8167|84.1|8.0||1|FM15-METAR|223|ICAO-KFCH|2.0||1|FM15-METAR|223|ICAO-KFCH|||||||||||||300|N-Normal|1|FM15-METAR|223|ICAO-KFCH|5.7|N-Normal|1|FM15-METAR|223|ICAO-KFCH|||||||||||||66|Derived||FM15-METAR|223|ICAO-KFCH|||||||||||||||||||||||||||||||||||||||||||||||||||||||||||||||||||||||||1019.3||1|FM15-METAR|223|ICAO-KFCH|||||||||||||||||||||||||||||||||||||||||||MET057METAR KFCH 231950Z AUTO 30011KT 10SM 08/02 A3010 RMK A01=||F||223|ICAO-KFCH
USW00023167|FRESNO CHANDLER DWTN AP|2022|02|23|20|15|36.7333|-119.8167|84.1|9.0||1|FM15-METAR|223|ICAO-KFCH|2.0||1|FM15-METAR|223|ICAO-KFCH|||||||||||||290|N-Normal|1|FM15-METAR|223|ICAO-KFCH|6.2|N-Normal|1|FM15-METAR|223|ICAO-KFCH|||||||||||||62|Derived||FM15-METAR|223|ICAO-KFCH|||||||||||||||||||||||||||||||||||||||||||||||||||||||||||||||||||||||||1019.0||1|FM15-METAR|223|ICAO-KFCH|||||||||||||||||||||||||||||||||||||||||||MET064METAR KFCH 232015Z AUTO 29012KT 10SM OVC027 09/02 A3009 RMK A01=||F||223|ICAO-KFCH
USW00023167|FRESNO CHANDLER DWTN AP|2022|02|23|20|35|36.7333|-119.8167|84.1|9.0||1|FM15-METAR|223|ICAO-KFCH|1.0||1|FM15-METAR|223|ICAO-KFCH|||||||||||||330|V-Variable|1|FM15-METAR|223|ICAO-KFCH|4.6|V-Variable|1|FM15-METAR|223|ICAO-KFCH|||||||||||||58|Derived||FM15-METAR|223|ICAO-KFCH|||||||||||||||||||||||||||||||||||||||||||||||||||||||||||||||||||||||||1019.0||1|FM15-METAR|223|ICAO-KFCH|||||||||||||||||||||||||||||||||||||||||||MET072METAR KFCH 232035Z AUTO 33009KT 300V360 10SM BKN027 09/01 A3009 RMK A01=||F||223|ICAO-KFCH
USW00023167|FRESNO CHANDLER DWTN AP|2022|02|23|20|55|36.7333|-119.8167|84.1|9.0||1|FM15-METAR|223|ICAO-KFCH|1.0||1|FM15-METAR|223|ICAO-KFCH|||||||||||||320|N-Normal|1|FM15-METAR|223|ICAO-KFCH|4.1|N-Normal|1|FM15-METAR|223|ICAO-KFCH|7.7||1|FM15-METAR|223|ICAO-KFCH|||||||58|Derived||FM15-METAR|223|ICAO-KFCH|||||||||||||||||||||||||||||||||||||||||||||||||||||||||||||||||||||||||1018.6||1|FM15-METAR|223|ICAO-KFCH|||||||||||||||||||||||||||||||||||||||||||MET067METAR KFCH 232055Z AUTO 32008G15KT 10SM BKN029 09/01 A3008 RMK A01=||F||223|ICAO-KFCH
USW00023167|FRESNO CHANDLER DWTN AP|2022|02|23|21|15|36.7333|-119.8167|84.1|10.0||1|FM15-METAR|223|ICAO-KFCH|1.0||1|FM15-METAR|223|ICAO-KFCH|||||||||||||320|N-Normal|1|FM15-METAR|223|ICAO-KFCH|5.1|N-Normal|1|FM15-METAR|223|ICAO-KFCH|8.2||1|FM15-METAR|223|ICAO-KFCH|||||||54|Derived||FM15-METAR|223|ICAO-KFCH|||||||||||||||||||||||||||||||||||||||||||||||||||||||||||||||||||||||||1018.6||1|FM15-METAR|223|ICAO-KFCH|||||||||||||||||||||||||||||||||||||||||||MET067METAR KFCH 232115Z AUTO 32010G16KT 10SM SCT031 10/01 A3008 RMK A01=||F||223|ICAO-KFCH
USW00023167|FRESNO CHANDLER DWTN AP|2022|02|23|21|35|36.7333|-119.8167|84.1|10.0||1|FM15-METAR|223|ICAO-KFCH|0.0||1|FM15-METAR|223|ICAO-KFCH|||||||||||||280|N-Normal|1|FM15-METAR|223|ICAO-KFCH|4.6|N-Normal|1|FM15-METAR|223|ICAO-KFCH|7.7||1|FM15-METAR|223|ICAO-KFCH|||||||50|Derived||FM15-METAR|223|ICAO-KFCH|||||||||||||||||||||||||||||||||||||||||||||||||||||||||||||||||||||||||1018.6||1|FM15-METAR|223|ICAO-KFCH|||||||||||||||||||||||||||||||||||||||||||MET068METAR KFCH 232135Z AUTO 28009G15KT 10SM FEW034 10/M00 A3008 RMK A01=||F||223|ICAO-KFCH
USW00023167|FRESNO CHANDLER DWTN AP|2022|02|23|21|55|36.7333|-119.8167|84.1|10.0||1|FM15-METAR|223|ICAO-KFCH|0.0||1|FM15-METAR|223|ICAO-KFCH|||||||||||||330|V-Variable|1|FM15-METAR|223|ICAO-KFCH|5.1|V-Variable|1|FM15-METAR|223|ICAO-KFCH|8.2||1|FM15-METAR|223|ICAO-KFCH|||||||50|Derived||FM15-METAR|223|ICAO-KFCH|||||||||||||||||||||||||||||||||||||||||||||||||||||||||||||||||||||||||1018.6||1|FM15-METAR|223|ICAO-KFCH|||||||||||||||||||||||||||||||||||||||||||MET076METAR KFCH 232155Z AUTO 33010G16KT 300V360 10SM SCT039 10/M00 A3008 RMK A01=||F||223|ICAO-KFCH
USW00023167|FRESNO CHANDLER DWTN AP|2022|02|23|22|10|36.7333|-119.8167|84.1|10.0||1|FM15-METAR|223|ICAO-KFCH|-2.0||1|FM15-METAR|223|ICAO-KFCH|||||||||||||300|N-Normal|1|FM15-METAR|223|ICAO-KFCH|7.2|N-Normal|1|FM15-METAR|223|ICAO-KFCH|||||||||||||43|Derived||FM15-METAR|223|ICAO-KFCH|||||||||||||||||||||||||||||||||||||||||||||||||||||||||||||||||||||||||1019.0||1|FM15-METAR|223|ICAO-KFCH|||||||||||||||||||||||||||||||||||||||||||MET065METAR KFCH 232210Z AUTO 30014KT 10SM FEW041 10/M02 A3009 RMK A01=||F||223|ICAO-KFCH
USW00023167|FRESNO CHANDLER DWTN AP|2022|02|23|22|35|36.7333|-119.8167|84.1|10.0||1|FM15-METAR|223|ICAO-KFCH|-2.0||1|FM15-METAR|223|ICAO-KFCH|||||||||||||320|N-Normal|1|FM15-METAR|223|ICAO-KFCH|5.1|N-Normal|1|FM15-METAR|223|ICAO-KFCH|8.8||1|FM15-METAR|223|ICAO-KFCH|||||||43|Derived||FM15-METAR|223|ICAO-KFCH|||||||||||||||||||||||||||||||||||||||||||||||||||||||||||||||||||||||||1019.0||1|FM15-METAR|223|ICAO-KFCH|||||||||||||||||||||||||||||||||||||||||||MET065METAR KFCH 232235Z AUTO 32010G17KT 10SM CLR 10/M02 A3009 RMK A01=||F||223|ICAO-KFCH
USW00023167|FRESNO CHANDLER DWTN AP|2022|02|23|22|55|36.7333|-119.8167|84.1|11.0||1|FM15-METAR|223|ICAO-KFCH|-2.0||1|FM15-METAR|223|ICAO-KFCH|||||||||||||320|N-Normal|1|FM15-METAR|223|ICAO-KFCH|5.7|N-Normal|1|FM15-METAR|223|ICAO-KFCH|||||||||||||41|Derived||FM15-METAR|223|ICAO-KFCH|||||||||||||||||||||||||||||||||||||||||||||||||||||||||||||||||||||||||1019.0||1|FM15-METAR|223|ICAO-KFCH|||||||||||||||||||||||||||||||||||||||||||MET062METAR KFCH 232255Z AUTO 32011KT 10SM CLR 11/M02 A3009 RMK A01=||F||223|ICAO-KFCH
USW00023167|FRESNO CHANDLER DWTN AP|2022|02|23|23|15|36.7333|-119.8167|84.1|11.0||1|FM15-METAR|223|ICAO-KFCH|-2.0||1|FM15-METAR|223|ICAO-KFCH|||||||||||||320|N-Normal|1|FM15-METAR|223|ICAO-KFCH|4.1|N-Normal|1|FM15-METAR|223|ICAO-KFCH|7.7||1|FM15-METAR|223|ICAO-KFCH|||||||41|Derived||FM15-METAR|223|ICAO-KFCH|||||||||||||||||||||||||||||||||||||||||||||||||||||||||||||||||||||||||1019.0||1|FM15-METAR|223|ICAO-KFCH|||||||||||||||||||||||||||||||||||||||||||MET065METAR KFCH 232315Z AUTO 32008G15KT 10SM CLR 11/M02 A3009 RMK A01=||F||223|ICAO-KFCH
USW00023167|FRESNO CHANDLER DWTN AP|2022|02|23|23|35|36.7333|-119.8167|84.1|11.0||1|FM15-METAR|223|ICAO-KFCH|-3.0||1|FM15-METAR|223|ICAO-KFCH|||||||||||||310|N-Normal|1|FM15-METAR|223|ICAO-KFCH|4.6|N-Normal|1|FM15-METAR|223|ICAO-KFCH|7.2||1|FM15-METAR|223|ICAO-KFCH|||||||38|Derived||FM15-METAR|223|ICAO-KFCH|||||||||||||||||||||||||||||||||||||||||||||||||||||||||||||||||||||||||1019.0||1|FM15-METAR|223|ICAO-KFCH|||||||||||||||||||||||||||||||||||||||||||MET065METAR KFCH 232335Z AUTO 31009G14KT 10SM CLR 11/M03 A3009 RMK A01=||F||223|ICAO-KFCH
USW00023167|FRESNO CHANDLER DWTN AP|2022|02|23|23|55|36.7333|-119.8167|84.1|11.0||1|FM15-METAR|223|ICAO-KFCH|-3.0||1|FM15-METAR|223|ICAO-KFCH|||||||||||||320|N-Normal|1|FM15-METAR|223|ICAO-KFCH|5.7|N-Normal|1|FM15-METAR|223|ICAO-KFCH|8.8||1|FM15-METAR|223|ICAO-KFCH|||||||38|Derived||FM15-METAR|223|ICAO-KFCH|||||||||||||||||||||||||||||||||||||||||||||||||||||||||||||||||||||||||1019.0||1|FM15-METAR|223|ICAO-KFCH|||||||||||||||||||||||||||||||||||||||||||MET068METAR KFCH 232355Z AUTO 32011G17KT 10SM FEW120 11/M03 A3009 RMK A01=||F||223|ICAO-KFCH
USW00023167|FRESNO CHANDLER DWTN AP|2022|02|24|00|15|36.7333|-119.8167|84.1|11.0||1|FM15-METAR|223|ICAO-KFCH|-5.0||1|FM15-METAR|223|ICAO-KFCH|||||||||||||300|N-Normal|1|FM15-METAR|223|ICAO-KFCH|6.7|N-Normal|1|FM15-METAR|223|ICAO-KFCH|||||||||||||32|Derived||FM15-METAR|223|ICAO-KFCH|||||||||||||||||||||||||||||||||||||||||||||||||||||||||||||||||||||||||1019.0||1|FM15-METAR|223|ICAO-KFCH|||||||||||||||||||||||||||||||||||||||||||MET065METAR KFCH 240015Z AUTO 30013KT 10SM FEW110 11/M05 A3009 RMK A01=||F||223|ICAO-KFCH
USW00023167|FRESNO CHANDLER DWTN AP|2022|02|24|00|35|36.7333|-119.8167|84.1|11.0||1|FM15-METAR|223|ICAO-KFCH|-5.0||1|FM15-METAR|223|ICAO-KFCH|||||||||||||320|N-Normal|1|FM15-METAR|223|ICAO-KFCH|3.6|N-Normal|1|FM15-METAR|223|ICAO-KFCH|6.7||1|FM15-METAR|223|ICAO-KFCH|||||||32|Derived||FM15-METAR|223|ICAO-KFCH|||||||||||||||||||||||||||||||||||||||||||||||||||||||||||||||||||||||||1019.0||1|FM15-METAR|223|ICAO-KFCH|||||||||||||||||||||||||||||||||||||||||||MET068METAR KFCH 240035Z AUTO 32007G13KT 10SM FEW110 11/M05 A3009 RMK A01=||F||223|ICAO-KFCH
USW00023167|FRESNO CHANDLER DWTN AP|2022|02|24|00|50|36.7333|-119.8167|84.1|11.0||1|FM15-METAR|223|ICAO-KFCH|-5.0||1|FM15-METAR|223|ICAO-KFCH|||||||||||||310|N-Normal|1|FM15-METAR|223|ICAO-KFCH|5.7|N-Normal|1|FM15-METAR|223|ICAO-KFCH|||||||||||||32|Derived||FM15-METAR|223|ICAO-KFCH|||||||||||||||||||||||||||||||||||||||||||||||||||||||||||||||||||||||||1019.3||1|FM15-METAR|223|ICAO-KFCH|||||||||||||||||||||||||||||||||||||||||||MET062METAR KFCH 240050Z AUTO 31011KT 10SM CLR 11/M05 A3010 RMK A01=||F||223|ICAO-KFCH
USW00023167|FRESNO CHANDLER DWTN AP|2022|02|24|01|15|36.7333|-119.8167|84.1|11.0||1|FM15-METAR|223|ICAO-KFCH|-5.0||1|FM15-METAR|223|ICAO-KFCH|||||||||||||340|N-Normal|1|FM15-METAR|223|ICAO-KFCH|4.1|N-Normal|1|FM15-METAR|223|ICAO-KFCH|||||||||||||32|Derived||FM15-METAR|223|ICAO-KFCH|||||||||||||||||||||||||||||||||||||||||||||||||||||||||||||||||||||||||1019.6||1|FM15-METAR|223|ICAO-KFCH|||||||||||||||||||||||||||||||||||||||||||MET062METAR KFCH 240115Z AUTO 34008KT 10SM CLR 11/M05 A3011 RMK A01=||F||223|ICAO-KFCH
USW00023167|FRESNO CHANDLER DWTN AP|2022|02|24|01|35|36.7333|-119.8167|84.1|10.0||1|FM15-METAR|223|ICAO-KFCH|-5.0||1|FM15-METAR|223|ICAO-KFCH|||||||||||||330|N-Normal|1|FM15-METAR|223|ICAO-KFCH|4.1|N-Normal|1|FM15-METAR|223|ICAO-KFCH|||||||||||||35|Derived||FM15-METAR|223|ICAO-KFCH|||||||||||||||||||||||||||||||||||||||||||||||||||||||||||||||||||||||||1019.6||1|FM15-METAR|223|ICAO-KFCH|||||||||||||||||||||||||||||||||||||||||||MET062METAR KFCH 240135Z AUTO 33008KT 10SM CLR 10/M05 A3011 RMK A01=||F||223|ICAO-KFCH
USW00023167|FRESNO CHANDLER DWTN AP|2022|02|24|01|55|36.7333|-119.8167|84.1|10.0||1|FM15-METAR|223|ICAO-KFCH|-5.0||1|FM15-METAR|223|ICAO-KFCH|||||||||||||330|N-Normal|1|FM15-METAR|223|ICAO-KFCH|2.6|N-Normal|1|FM15-METAR|223|ICAO-KFCH|5.7||1|FM15-METAR|223|ICAO-KFCH|||||||35|Derived||FM15-METAR|223|ICAO-KFCH|||||||||||||||||||||||||||||||||||||||||||||||||||||||||||||||||||||||||1020.0||1|FM15-METAR|223|ICAO-KFCH|||||||||||||||||||||||||||||||||||||||||||MET065METAR KFCH 240155Z AUTO 33005G11KT 10SM CLR 10/M05 A3012 RMK A01=||F||223|ICAO-KFCH
USW00023167|FRESNO CHANDLER DWTN AP|2022|02|24|02|15|36.7333|-119.8167|84.1|9.0||1|FM15-METAR|223|ICAO-KFCH|-5.0||1|FM15-METAR|223|ICAO-KFCH|||||||||||||330|N-Normal|1|FM15-METAR|223|ICAO-KFCH|2.1|N-Normal|1|FM15-METAR|223|ICAO-KFCH|||||||||||||37|Derived||FM15-METAR|223|ICAO-KFCH|||||||||||||||||||||||||||||||||||||||||||||||||||||||||||||||||||||||||1020.3||1|FM15-METAR|223|ICAO-KFCH|||||||||||||||||||||||||||||||||||||||||||MET062METAR KFCH 240215Z AUTO 33004KT 10SM CLR 09/M05 A3013 RMK A01=||F||223|ICAO-KFCH
USW00023167|FRESNO CHANDLER DWTN AP|2022|02|24|02|35|36.7333|-119.8167|84.1|9.0||1|FM15-METAR|223|ICAO-KFCH|-5.0||1|FM15-METAR|223|ICAO-KFCH|||||||||||||999|C-Calm|9|FM15-METAR|223|ICAO-KFCH|0.0|C-Calm|1|FM15-METAR|223|ICAO-KFCH|||||||||||||37|Derived||FM15-METAR|223|ICAO-KFCH|||||||||||||||||||||||||||||||||||||||||||||||||||||||||||||||||||||||||1020.7||1|FM15-METAR|223|ICAO-KFCH|||||||||||||||||||||||||||||||||||||||||||MET062METAR KFCH 240235Z AUTO 00000KT 10SM CLR 09/M05 A3014 RMK A01=||F||223|ICAO-KFCH
USW00023167|FRESNO CHANDLER DWTN AP|2022|02|24|02|50|36.7333|-119.8167|84.1|9.0||1|FM15-METAR|223|ICAO-KFCH|-5.0||1|FM15-METAR|223|ICAO-KFCH|||||||||||||999|C-Calm|9|FM15-METAR|223|ICAO-KFCH|0.0|C-Calm|1|FM15-METAR|223|ICAO-KFCH|||||||||||||37|Derived||FM15-METAR|223|ICAO-KFCH|||||||||||||||||||||||||||||||||||||||||||||||||||||||||||||||||||||||||1021.0||1|FM15-METAR|223|ICAO-KFCH|||||||||||||||||||||||||||||||||||||||||||MET062METAR KFCH 240250Z AUTO 00000KT 10SM CLR 09/M05 A3015 RMK A01=||F||223|ICAO-KFCH
USW00023167|FRESNO CHANDLER DWTN AP|2022|02|24|03|15|36.7333|-119.8167|84.1|8.0||1|FM15-METAR|223|ICAO-KFCH|-4.0||1|FM15-METAR|223|ICAO-KFCH|||||||||||||270|N-Normal|1|FM15-METAR|223|ICAO-KFCH|2.1|N-Normal|1|FM15-METAR|223|ICAO-KFCH|||||||||||||43|Derived||FM15-METAR|223|ICAO-KFCH|||||||||||||||||||||||||||||||||||||||||||||||||||||||||||||||||||||||||1021.3||1|FM15-METAR|223|ICAO-KFCH|||||||||||||||||||||||||||||||||||||||||||MET062METAR KFCH 240315Z AUTO 27004KT 10SM CLR 08/M04 A3016 RMK A01=||F||223|ICAO-KFCH
USW00023167|FRESNO CHANDLER DWTN AP|2022|02|24|03|35|36.7333|-119.8167|84.1|8.0||1|FM15-METAR|223|ICAO-KFCH|-5.0||1|FM15-METAR|223|ICAO-KFCH|||||||||||||999|C-Calm|9|FM15-METAR|223|ICAO-KFCH|0.0|C-Calm|1|FM15-METAR|223|ICAO-KFCH|||||||||||||40|Derived||FM15-METAR|223|ICAO-KFCH|||||||||||||||||||||||||||||||||||||||||||||||||||||||||||||||||||||||||1021.3||1|FM15-METAR|223|ICAO-KFCH|||||||||||||||||||||||||||||||||||||||||||MET062METAR KFCH 240335Z AUTO 00000KT 10SM CLR 08/M05 A3016 RMK A01=||F||223|ICAO-KFCH
USW00023167|FRESNO CHANDLER DWTN AP|2022|02|24|03|55|36.7333|-119.8167|84.1|7.0||1|FM15-METAR|223|ICAO-KFCH|-4.0||1|FM15-METAR|223|ICAO-KFCH|||||||||||||999|C-Calm|9|FM15-METAR|223|ICAO-KFCH|0.0|C-Calm|1|FM15-METAR|223|ICAO-KFCH|||||||||||||46|Derived||FM15-METAR|223|ICAO-KFCH|||||||||||||||||||||||||||||||||||||||||||||||||||||||||||||||||||||||||1021.7||1|FM15-METAR|223|ICAO-KFCH|||||||||||||||||||||||||||||||||||||||||||MET058METAR KFCH 240355Z AUTO 00000KT 10SM 07/M04 A3017 RMK A01=||F||223|ICAO-KFCH
USW00023167|FRESNO CHANDLER DWTN AP|2022|02|24|04|15|36.7333|-119.8167|84.1|7.0||1|FM15-METAR|223|ICAO-KFCH|-4.0||1|FM15-METAR|223|ICAO-KFCH|||||||||||||999|C-Calm|9|FM15-METAR|223|ICAO-KFCH|0.0|C-Calm|1|FM15-METAR|223|ICAO-KFCH|||||||||||||46|Derived||FM15-METAR|223|ICAO-KFCH|||||||||||||||||||||||||||||||||||||||||||||||||||||||||||||||||||||||||1021.7||1|FM15-METAR|223|ICAO-KFCH|||||||||||||||||||||||||||||||||||||||||||MET062METAR KFCH 240415Z AUTO 00000KT 10SM CLR 07/M04 A3017 RMK A01=||F||223|ICAO-KFCH
USW00023167|FRESNO CHANDLER DWTN AP|2022|02|24|04|35|36.7333|-119.8167|84.1|6.0||1|FM15-METAR|223|ICAO-KFCH|-4.0||1|FM15-METAR|223|ICAO-KFCH|||||||||||||999|C-Calm|9|FM15-METAR|223|ICAO-KFCH|0.0|C-Calm|1|FM15-METAR|223|ICAO-KFCH|||||||||||||49|Derived||FM15-METAR|223|ICAO-KFCH|||||||||||||||||||||||||||||||||||||||||||||||||||||||||||||||||||||||||1022.0||1|FM15-METAR|223|ICAO-KFCH|||||||||||||||||||||||||||||||||||||||||||MET062METAR KFCH 240435Z AUTO 00000KT 10SM CLR 06/M04 A3018 RMK A01=||F||223|ICAO-KFCH
USW00023167|FRESNO CHANDLER DWTN AP|2022|02|24|04|55|36.7333|-119.8167|84.1|6.0||1|FM15-METAR|223|ICAO-KFCH|-5.0||1|FM15-METAR|223|ICAO-KFCH|||||||||||||999|C-Calm|9|FM15-METAR|223|ICAO-KFCH|0.0|C-Calm|1|FM15-METAR|223|ICAO-KFCH|||||||||||||46|Derived||FM15-METAR|223|ICAO-KFCH|||||||||||||||||||||||||||||||||||||||||||||||||||||||||||||||||||||||||1022.3||1|FM15-METAR|223|ICAO-KFCH|||||||||||||||||||||||||||||||||||||||||||MET062METAR KFCH 240455Z AUTO 00000KT 10SM CLR 06/M05 A3019 RMK A01=||F||223|ICAO-KFCH
USW00023167|FRESNO CHANDLER DWTN AP|2022|02|24|05|15|36.7333|-119.8167|84.1|6.0||1|FM15-METAR|223|ICAO-KFCH|-5.0||1|FM15-METAR|223|ICAO-KFCH|||||||||||||999|C-Calm|9|FM15-METAR|223|ICAO-KFCH|0.0|C-Calm|1|FM15-METAR|223|ICAO-KFCH|||||||||||||46|Derived||FM15-METAR|223|ICAO-KFCH|||||||||||||||||||||||||||||||||||||||||||||||||||||||||||||||||||||||||1022.3||1|FM15-METAR|223|ICAO-KFCH|||||||||||||||||||||||||||||||||||||||||||MET062METAR KFCH 240515Z AUTO 00000KT 10SM CLR 06/M05 A3019 RMK A01=||F||223|ICAO-KFCH
USW00023167|FRESNO CHANDLER DWTN AP|2022|02|24|05|35|36.7333|-119.8167|84.1|6.0||1|FM15-METAR|223|ICAO-KFCH|-5.0||1|FM15-METAR|223|ICAO-KFCH|||||||||||||999|C-Calm|9|FM15-METAR|223|ICAO-KFCH|0.0|C-Calm|1|FM15-METAR|223|ICAO-KFCH|||||||||||||46|Derived||FM15-METAR|223|ICAO-KFCH|||||||||||||||||||||||||||||||||||||||||||||||||||||||||||||||||||||||||1022.7||1|FM15-METAR|223|ICAO-KFCH|||||||||||||||||||||||||||||||||||||||||||MET062METAR KFCH 240535Z AUTO 00000KT 10SM CLR 06/M05 A3020 RMK A01=||F||223|ICAO-KFCH
USW00023167|FRESNO CHANDLER DWTN AP|2022|02|24|05|55|36.7333|-119.8167|84.1|6.0||1|FM15-METAR|223|ICAO-KFCH|-6.0||1|FM15-METAR|223|ICAO-KFCH|||||||||||||290|N-Normal|1|FM15-METAR|223|ICAO-KFCH|2.6|N-Normal|1|FM15-METAR|223|ICAO-KFCH|||||||||||||42|Derived||FM15-METAR|223|ICAO-KFCH|||||||||||||||||||||||||||||||||||||||||||||||||||||||||||||||||||||||||1023.0||1|FM15-METAR|223|ICAO-KFCH|||||||||||||||||||||||||||||||||||||||||||MET065METAR KFCH 240555Z AUTO 29005KT 10SM BKN065 06/M06 A3021 RMK A01=||F||223|ICAO-KFCH
USW00023167|FRESNO CHANDLER DWTN AP|2022|02|24|06|15|36.7333|-119.8167|84.1|5.0||1|FM15-METAR|223|ICAO-KFCH|-6.0||1|FM15-METAR|223|ICAO-KFCH|||||||||||||999|C-Calm|9|FM15-METAR|223|ICAO-KFCH|0.0|C-Calm|1|FM15-METAR|223|ICAO-KFCH|||||||||||||45|Derived||FM15-METAR|223|ICAO-KFCH|||||||||||||||||||||||||||||||||||||||||||||||||||||||||||||||||||||||||1023.0||1|FM15-METAR|223|ICAO-KFCH|||||||||||||||||||||||||||||||||||||||||||MET065METAR KFCH 240615Z AUTO 00000KT 10SM FEW065 05/M06 A3021 RMK A01=||F||223|ICAO-KFCH
USW00023167|FRESNO CHANDLER DWTN AP|2022|02|24|06|35|36.7333|-119.8167|84.1|5.0||1|FM15-METAR|223|ICAO-KFCH|-5.0||1|FM15-METAR|223|ICAO-KFCH|||||||||||||999|C-Calm|9|FM15-METAR|223|ICAO-KFCH|0.0|C-Calm|1|FM15-METAR|223|ICAO-KFCH|||||||||||||49|Derived||FM15-METAR|223|ICAO-KFCH|||||||||||||||||||||||||||||||||||||||||||||||||||||||||||||||||||||||||1023.0||1|FM15-METAR|223|ICAO-KFCH|||||||||||||||||||||||||||||||||||||||||||MET062METAR KFCH 240635Z AUTO 00000KT 10SM CLR 05/M05 A3021 RMK A01=||F||223|ICAO-KFCH
USW00023167|FRESNO CHANDLER DWTN AP|2022|02|24|06|55|36.7333|-119.8167|84.1|4.0||1|FM15-METAR|223|ICAO-KFCH|-6.0||1|FM15-METAR|223|ICAO-KFCH|||||||||||||999|C-Calm|9|FM15-METAR|223|ICAO-KFCH|0.0|C-Calm|1|FM15-METAR|223|ICAO-KFCH|||||||||||||48|Derived||FM15-METAR|223|ICAO-KFCH|||||||||||||||||||||||||||||||||||||||||||||||||||||||||||||||||||||||||1023.4||1|FM15-METAR|223|ICAO-KFCH|||||||||||||||||||||||||||||||||||||||||||MET062METAR KFCH 240655Z AUTO 00000KT 10SM CLR 04/M06 A3022 RMK A01=||F||223|ICAO-KFCH
USW00023167|FRESNO CHANDLER DWTN AP|2022|02|24|07|15|36.7333|-119.8167|84.1|4.0||1|FM15-METAR|223|ICAO-KFCH|-6.0||1|FM15-METAR|223|ICAO-KFCH|||||||||||||999|C-Calm|9|FM15-METAR|223|ICAO-KFCH|0.0|C-Calm|1|FM15-METAR|223|ICAO-KFCH|||||||||||||48|Derived||FM15-METAR|223|ICAO-KFCH|||||||||||||||||||||||||||||||||||||||||||||||||||||||||||||||||||||||||1023.7||1|FM15-METAR|223|ICAO-KFCH|||||||||||||||||||||||||||||||||||||||||||MET062METAR KFCH 240715Z AUTO 00000KT 10SM CLR 04/M06 A3023 RMK A01=||F||223|ICAO-KFCH
USW00023167|FRESNO CHANDLER DWTN AP|2022|02|24|07|35|36.7333|-119.8167|84.1|4.0||1|FM15-METAR|223|ICAO-KFCH|-5.0||1|FM15-METAR|223|ICAO-KFCH|||||||||||||999|C-Calm|9|FM15-METAR|223|ICAO-KFCH|0.0|C-Calm|1|FM15-METAR|223|ICAO-KFCH|||||||||||||52|Derived||FM15-METAR|223|ICAO-KFCH|||||||||||||||||||||||||||||||||||||||||||||||||||||||||||||||||||||||||1023.7||1|FM15-METAR|223|ICAO-KFCH|||||||||||||||||||||||||||||||||||||||||||MET062METAR KFCH 240735Z AUTO 00000KT 10SM CLR 04/M05 A3023 RMK A01=||F||223|ICAO-KFCH
USW00023167|FRESNO CHANDLER DWTN AP|2022|02|24|07|55|36.7333|-119.8167|84.1|3.0||1|FM15-METAR|223|ICAO-KFCH|-5.0||1|FM15-METAR|223|ICAO-KFCH|||||||||||||999|C-Calm|9|FM15-METAR|223|ICAO-KFCH|0.0|C-Calm|1|FM15-METAR|223|ICAO-KFCH|||||||||||||56|Derived||FM15-METAR|223|ICAO-KFCH|||||||||||||||||||||||||||||||||||||||||||||||||||||||||||||||||||||||||1024.0||1|FM15-METAR|223|ICAO-KFCH|||||||||||||||||||||||||||||||||||||||||||MET062METAR KFCH 240755Z AUTO 00000KT 10SM CLR 03/M05 A3024 RMK A01=||F||223|ICAO-KFCH
USW00023167|FRESNO CHANDLER DWTN AP|2022|02|24|08|15|36.7333|-119.8167|84.1|2.0||1|FM15-METAR|223|ICAO-KFCH|-5.0||1|FM15-METAR|223|ICAO-KFCH|||||||||||||999|C-Calm|9|FM15-METAR|223|ICAO-KFCH|0.0|C-Calm|1|FM15-METAR|223|ICAO-KFCH|||||||||||||60|Derived||FM15-METAR|223|ICAO-KFCH|||||||||||||||||||||||||||||||||||||||||||||||||||||||||||||||||||||||||1024.0||1|FM15-METAR|223|ICAO-KFCH|||||||||||||||||||||||||||||||||||||||||||MET062METAR KFCH 240815Z AUTO 00000KT 10SM CLR 02/M05 A3024 RMK A01=||F||223|ICAO-KFCH
USW00023167|FRESNO CHANDLER DWTN AP|2022|02|24|08|35|36.7333|-119.8167|84.1|2.0||1|FM15-METAR|223|ICAO-KFCH|-5.0||1|FM15-METAR|223|ICAO-KFCH|||||||||||||999|C-Calm|9|FM15-METAR|223|ICAO-KFCH|0.0|C-Calm|1|FM15-METAR|223|ICAO-KFCH|||||||||||||60|Derived||FM15-METAR|223|ICAO-KFCH|||||||||||||||||||||||||||||||||||||||||||||||||||||||||||||||||||||||||1024.4||1|FM15-METAR|223|ICAO-KFCH|||||||||||||||||||||||||||||||||||||||||||MET062METAR KFCH 240835Z AUTO 00000KT 10SM CLR 02/M05 A3025 RMK A01=||F||223|ICAO-KFCH
USW00023167|FRESNO CHANDLER DWTN AP|2022|02|24|08|55|36.7333|-119.8167|84.1|2.0||1|FM15-METAR|223|ICAO-KFCH|-5.0||1|FM15-METAR|223|ICAO-KFCH|||||||||||||060|N-Normal|1|FM15-METAR|223|ICAO-KFCH|2.1|N-Normal|1|FM15-METAR|223|ICAO-KFCH|||||||||||||60|Derived||FM15-METAR|223|ICAO-KFCH|||||||||||||||||||||||||||||||||||||||||||||||||||||||||||||||||||||||||1024.4||1|FM15-METAR|223|ICAO-KFCH|||||||||||||||||||||||||||||||||||||||||||MET062METAR KFCH 240855Z AUTO 06004KT 10SM CLR 02/M05 A3025 RMK A01=||F||223|ICAO-KFCH
USW00023167|FRESNO CHANDLER DWTN AP|2022|02|24|09|15|36.7333|-119.8167|84.1|2.0||1|FM15-METAR|223|ICAO-KFCH|-3.0||1|FM15-METAR|223|ICAO-KFCH|||||||||||||110|N-Normal|1|FM15-METAR|223|ICAO-KFCH|1.5|N-Normal|1|FM15-METAR|223|ICAO-KFCH|||||||||||||70|Derived||FM15-METAR|223|ICAO-KFCH|||||||||||||||||||||||||||||||||||||||||||||||||||||||||||||||||||||||||1024.7||1|FM15-METAR|223|ICAO-KFCH|||||||||||||||||||||||||||||||||||||||||||MET062METAR KFCH 240915Z AUTO 11003KT 10SM CLR 02/M03 A3026 RMK A01=||F||223|ICAO-KFCH
USW00023167|FRESNO CHANDLER DWTN AP|2022|02|24|09|35|36.7333|-119.8167|84.1|2.0||1|FM15-METAR|223|ICAO-KFCH|-2.0||1|FM15-METAR|223|ICAO-KFCH|||||||||||||999|C-Calm|9|FM15-METAR|223|ICAO-KFCH|0.0|C-Calm|1|FM15-METAR|223|ICAO-KFCH|||||||||||||75|Derived||FM15-METAR|223|ICAO-KFCH|||||||||||||||||||||||||||||||||||||||||||||||||||||||||||||||||||||||||1024.7||1|FM15-METAR|223|ICAO-KFCH|||||||||||||||||||||||||||||||||||||||||||MET062METAR KFCH 240935Z AUTO 00000KT 10SM CLR 02/M02 A3026 RMK A01=||F||223|ICAO-KFCH
USW00023167|FRESNO CHANDLER DWTN AP|2022|02|24|09|50|36.7333|-119.8167|84.1|2.0||1|FM15-METAR|223|ICAO-KFCH|-1.0||1|FM15-METAR|223|ICAO-KFCH|||||||||||||100|N-Normal|1|FM15-METAR|223|ICAO-KFCH|1.5|N-Normal|1|FM15-METAR|223|ICAO-KFCH|||||||||||||81|Derived||FM15-METAR|223|ICAO-KFCH|||||||||||||||||||||||||||||||||||||||||||||||||||||||||||||||||||||||||1024.7||1|FM15-METAR|223|ICAO-KFCH|||||||||||||||||||||||||||||||||||||||||||MET062METAR KFCH 240950Z AUTO 10003KT 10SM CLR 02/M01 A3026 RMK A01=||F||223|ICAO-KFCH
USW00023167|FRESNO CHANDLER DWTN AP|2022|02|24|10|15|36.7333|-119.8167|84.1|1.0||1|FM15-METAR|223|ICAO-KFCH|0.0||1|FM15-METAR|223|ICAO-KFCH|||||||||||||999|C-Calm|9|FM15-METAR|223|ICAO-KFCH|0.0|C-Calm|1|FM15-METAR|223|ICAO-KFCH|||||||||||||93|Derived||FM15-METAR|223|ICAO-KFCH|||||||||||||||||||||||||||||||||||||||||||||||||||||||||||||||||||||||||1024.7||1|FM15-METAR|223|ICAO-KFCH|||||||||||||||||||||||||||||||||||||||||||MET062METAR KFCH 241015Z AUTO 00000KT 10SM CLR 01/M00 A3026 RMK A01=||F||223|ICAO-KFCH
USW00023167|FRESNO CHANDLER DWTN AP|2022|02|24|10|35|36.7333|-119.8167|84.1|1.0||1|FM15-METAR|223|ICAO-KFCH|0.0||1|FM15-METAR|223|ICAO-KFCH|||||||||||||080|N-Normal|1|FM15-METAR|223|ICAO-KFCH|2.6|N-Normal|1|FM15-METAR|223|ICAO-KFCH|||||||||||||93|Derived||FM15-METAR|223|ICAO-KFCH|||||||||||||||||||||||||||||||||||||||||||||||||||||||||||||||||||||||||1025.1||1|FM15-METAR|223|ICAO-KFCH|||||||||||||||||||||||||||||||||||||||||||MET062METAR KFCH 241035Z AUTO 08005KT 10SM CLR 01/M00 A3027 RMK A01=||F||223|ICAO-KFCH
USW00023167|FRESNO CHANDLER DWTN AP|2022|02|24|10|55|36.7333|-119.8167|84.1|1.0||1|FM15-METAR|223|ICAO-KFCH|0.0||1|FM15-METAR|223|ICAO-KFCH|||||||||||||100|N-Normal|1|FM15-METAR|223|ICAO-KFCH|3.1|N-Normal|1|FM15-METAR|223|ICAO-KFCH|||||||||||||93|Derived||FM15-METAR|223|ICAO-KFCH|||||||||||||||||||||||||||||||||||||||||||||||||||||||||||||||||||||||||1025.1||1|FM15-METAR|223|ICAO-KFCH|||||||||||||||||||||||||||||||||||||||||||MET061METAR KFCH 241055Z AUTO 10006KT 10SM CLR 01/00 A3027 RMK A01=||F||223|ICAO-KFCH
USW00023167|FRESNO CHANDLER DWTN AP|2022|02|24|11|15|36.7333|-119.8167|84.1|2.0||1|FM15-METAR|223|ICAO-KFCH|0.0||1|FM15-METAR|223|ICAO-KFCH|||||||||||||100|N-Normal|1|FM15-METAR|223|ICAO-KFCH|3.1|N-Normal|1|FM15-METAR|223|ICAO-KFCH|||||||||||||87|Derived||FM15-METAR|223|ICAO-KFCH|||||||||||||||||||||||||||||||||||||||||||||||||||||||||||||||||||||||||1025.1||1|FM15-METAR|223|ICAO-KFCH|||||||||||||||||||||||||||||||||||||||||||MET061METAR KFCH 241115Z AUTO 10006KT 10SM CLR 02/00 A3027 RMK A01=||F||223|ICAO-KFCH
USW00023167|FRESNO CHANDLER DWTN AP|2022|02|24|11|35|36.7333|-119.8167|84.1|2.0||1|FM15-METAR|223|ICAO-KFCH|0.0||1|FM15-METAR|223|ICAO-KFCH|||||||||||||110|N-Normal|1|FM15-METAR|223|ICAO-KFCH|3.6|N-Normal|1|FM15-METAR|223|ICAO-KFCH|||||||||||||87|Derived||FM15-METAR|223|ICAO-KFCH|||||||||||||||||||||||||||||||||||||||||||||||||||||||||||||||||||||||||1025.1||1|FM15-METAR|223|ICAO-KFCH|||||||||||||||||||||||||||||||||||||||||||MET061METAR KFCH 241135Z AUTO 11007KT 10SM CLR 02/00 A3027 RMK A01=||F||223|ICAO-KFCH
USW00023167|FRESNO CHANDLER DWTN AP|2022|02|24|11|55|36.7333|-119.8167|84.1|1.0||1|FM15-METAR|223|ICAO-KFCH|0.0||1|FM15-METAR|223|ICAO-KFCH|||||||||||||120|N-Normal|1|FM15-METAR|223|ICAO-KFCH|3.1|N-Normal|1|FM15-METAR|223|ICAO-KFCH|||||||||||||93|Derived||FM15-METAR|223|ICAO-KFCH|||||||||||||||||||||||||||||||||||||||||||||||||||||||||||||||||||||||||1025.1||1|FM15-METAR|223|ICAO-KFCH|||||||||||||||||||||||||||||||||||||||||||MET062METAR KFCH 241155Z AUTO 12006KT 10SM CLR 01/M00 A3027 RMK A01=||F||223|ICAO-KFCH
USW00023167|FRESNO CHANDLER DWTN AP|2022|02|24|12|15|36.7333|-119.8167|84.1|1.0||1|FM15-METAR|223|ICAO-KFCH|0.0||1|FM15-METAR|223|ICAO-KFCH|||||||||||||120|N-Normal|1|FM15-METAR|223|ICAO-KFCH|2.1|N-Normal|1|FM15-METAR|223|ICAO-KFCH|||||||||||||93|Derived||FM15-METAR|223|ICAO-KFCH|||||||||||||||||||||||||||||||||||||||||||||||||||||||||||||||||||||||||1025.4||1|FM15-METAR|223|ICAO-KFCH|||||||||||||||||||||||||||||||||||||||||||MET062METAR KFCH 241215Z AUTO 12004KT 10SM CLR 01/M00 A3028 RMK A01=||F||223|ICAO-KFCH
USW00023167|FRESNO CHANDLER DWTN AP|2022|02|24|12|35|36.7333|-119.8167|84.1|1.0||1|FM15-METAR|223|ICAO-KFCH|0.0||1|FM15-METAR|223|ICAO-KFCH|||||||||||||110|N-Normal|1|FM15-METAR|223|ICAO-KFCH|2.1|N-Normal|1|FM15-METAR|223|ICAO-KFCH|||||||||||||93|Derived||FM15-METAR|223|ICAO-KFCH|||||||||||||||||||||||||||||||||||||||||||||||||||||||||||||||||||||||||1025.7||1|FM15-METAR|223|ICAO-KFCH|||||||||||||||||||||||||||||||||||||||||||MET062METAR KFCH 241235Z AUTO 11004KT 10SM CLR 01/M00 A3029 RMK A01=||F||223|ICAO-KFCH
USW00023167|FRESNO CHANDLER DWTN AP|2022|02|24|12|55|36.7333|-119.8167|84.1|1.0||1|FM15-METAR|223|ICAO-KFCH|-1.0||1|FM15-METAR|223|ICAO-KFCH|||||||||||||120|N-Normal|1|FM15-METAR|223|ICAO-KFCH|2.6|N-Normal|1|FM15-METAR|223|ICAO-KFCH|||||||||||||87|Derived||FM15-METAR|223|ICAO-KFCH|||||||||||||||||||||||||||||||||||||||||||||||||||||||||||||||||||||||||1025.7||1|FM15-METAR|223|ICAO-KFCH|||||||||||||||||||||||||||||||||||||||||||MET062METAR KFCH 241255Z AUTO 12005KT 10SM CLR 01/M01 A3029 RMK A01=||F||223|ICAO-KFCH
USW00023167|FRESNO CHANDLER DWTN AP|2022|02|24|13|15|36.7333|-119.8167|84.1|1.0||1|FM15-METAR|223|ICAO-KFCH|-1.0||1|FM15-METAR|223|ICAO-KFCH|||||||||||||100|N-Normal|1|FM15-METAR|223|ICAO-KFCH|2.1|N-Normal|1|FM15-METAR|223|ICAO-KFCH|||||||||||||87|Derived||FM15-METAR|223|ICAO-KFCH|||||||||||||||||||||||||||||||||||||||||||||||||||||||||||||||||||||||||1026.1||1|FM15-METAR|223|ICAO-KFCH|||||||||||||||||||||||||||||||||||||||||||MET062METAR KFCH 241315Z AUTO 10004KT 10SM CLR 01/M01 A3030 RMK A01=||F||223|ICAO-KFCH
USW00023167|FRESNO CHANDLER DWTN AP|2022|02|24|13|35|36.7333|-119.8167|84.1|1.0||1|FM15-METAR|223|ICAO-KFCH|-1.0||1|FM15-METAR|223|ICAO-KFCH|||||||||||||100|N-Normal|1|FM15-METAR|223|ICAO-KFCH|2.1|N-Normal|1|FM15-METAR|223|ICAO-KFCH|||||||||||||87|Derived||FM15-METAR|223|ICAO-KFCH|||||||||||||||||||||||||||||||||||||||||||||||||||||||||||||||||||||||||1026.1||1|FM15-METAR|223|ICAO-KFCH|||||||||||||||||||||||||||||||||||||||||||MET062METAR KFCH 241335Z AUTO 10004KT 10SM CLR 01/M01 A3030 RMK A01=||F||223|ICAO-KFCH
USW00023167|FRESNO CHANDLER DWTN AP|2022|02|24|13|55|36.7333|-119.8167|84.1|1.0||1|FM15-METAR|223|ICAO-KFCH|-1.0||1|FM15-METAR|223|ICAO-KFCH|||||||||||||110|N-Normal|1|FM15-METAR|223|ICAO-KFCH|2.6|N-Normal|1|FM15-METAR|223|ICAO-KFCH|||||||||||||87|Derived||FM15-METAR|223|ICAO-KFCH|||||||||||||||||||||||||||||||||||||||||||||||||||||||||||||||||||||||||1026.4||1|FM15-METAR|223|ICAO-KFCH|||||||||||||||||||||||||||||||||||||||||||MET062METAR KFCH 241355Z AUTO 11005KT 10SM CLR 01/M01 A3031 RMK A01=||F||223|ICAO-KFCH
USW00023167|FRESNO CHANDLER DWTN AP|2022|02|24|14|15|36.7333|-119.8167|84.1|0.0||1|FM15-METAR|223|ICAO-KFCH|-1.0||1|FM15-METAR|223|ICAO-KFCH|||||||||||||110|N-Normal|1|FM15-METAR|223|ICAO-KFCH|2.6|N-Normal|1|FM15-METAR|223|ICAO-KFCH|||||||||||||93|Derived||FM15-METAR|223|ICAO-KFCH|||||||||||||||||||||||||||||||||||||||||||||||||||||||||||||||||||||||||1026.4||1|FM15-METAR|223|ICAO-KFCH|||||||||||||||||||||||||||||||||||||||||||MET062METAR KFCH 241415Z AUTO 11005KT 10SM CLR 00/M01 A3031 RMK A01=||F||223|ICAO-KFCH
USW00023167|FRESNO CHANDLER DWTN AP|2022|02|24|14|35|36.7333|-119.8167|84.1|1.0||1|FM15-METAR|223|ICAO-KFCH|-1.0||1|FM15-METAR|223|ICAO-KFCH|||||||||||||110|N-Normal|1|FM15-METAR|223|ICAO-KFCH|2.6|N-Normal|1|FM15-METAR|223|ICAO-KFCH|||||||||||||87|Derived||FM15-METAR|223|ICAO-KFCH|||||||||||||||||||||||||||||||||||||||||||||||||||||||||||||||||||||||||1026.4||1|FM15-METAR|223|ICAO-KFCH|||||||||||||||||||||||||||||||||||||||||||MET062METAR KFCH 241435Z AUTO 11005KT 10SM CLR 01/M01 A3031 RMK A01=||F||223|ICAO-KFCH
USW00023167|FRESNO CHANDLER DWTN AP|2022|02|24|14|55|36.7333|-119.8167|84.1|1.0||1|FM15-METAR|223|ICAO-KFCH|-1.0||1|FM15-METAR|223|ICAO-KFCH|||||||||||||110|N-Normal|1|FM15-METAR|223|ICAO-KFCH|2.6|N-Normal|1|FM15-METAR|223|ICAO-KFCH|||||||||||||87|Derived||FM15-METAR|223|ICAO-KFCH|||||||||||||||||||||||||||||||||||||||||||||||||||||||||||||||||||||||||1026.7||1|FM15-METAR|223|ICAO-KFCH|||||||||||||||||||||||||||||||||||||||||||MET062METAR KFCH 241455Z AUTO 11005KT 10SM CLR 01/M01 A3032 RMK A01=||F||223|ICAO-KFCH
USW00023167|FRESNO CHANDLER DWTN AP|2022|02|24|15|15|36.7333|-119.8167|84.1|1.0||1|FM15-METAR|223|ICAO-KFCH|-1.0||1|FM15-METAR|223|ICAO-KFCH|||||||||||||120|N-Normal|1|FM15-METAR|223|ICAO-KFCH|2.6|N-Normal|1|FM15-METAR|223|ICAO-KFCH|||||||||||||87|Derived||FM15-METAR|223|ICAO-KFCH|||||||||||||||||||||||||||||||||||||||||||||||||||||||||||||||||||||||||1027.1||1|FM15-METAR|223|ICAO-KFCH|||||||||||||||||||||||||||||||||||||||||||MET062METAR KFCH 241515Z AUTO 12005KT 10SM CLR 01/M01 A3033 RMK A01=||F||223|ICAO-KFCH
USW00023167|FRESNO CHANDLER DWTN AP|2022|02|24|15|35|36.7333|-119.8167|84.1|3.0||1|FM15-METAR|223|ICAO-KFCH|-1.0||1|FM15-METAR|223|ICAO-KFCH|||||||||||||130|N-Normal|1|FM15-METAR|223|ICAO-KFCH|3.6|N-Normal|1|FM15-METAR|223|ICAO-KFCH|||||||||||||75|Derived||FM15-METAR|223|ICAO-KFCH|||||||||||||||||||||||||||||||||||||||||||||||||||||||||||||||||||||||||1027.4||1|FM15-METAR|223|ICAO-KFCH|||||||||||||||||||||||||||||||||||||||||||MET062METAR KFCH 241535Z AUTO 13007KT 10SM CLR 03/M01 A3034 RMK A01=||F||223|ICAO-KFCH
USW00023167|FRESNO CHANDLER DWTN AP|2022|02|24|15|55|36.7333|-119.8167|84.1|3.0||1|FM15-METAR|223|ICAO-KFCH|-1.0||1|FM15-METAR|223|ICAO-KFCH|||||||||||||140|N-Normal|1|FM15-METAR|223|ICAO-KFCH|3.6|N-Normal|1|FM15-METAR|223|ICAO-KFCH|||||||||||||75|Derived||FM15-METAR|223|ICAO-KFCH|||||||||||||||||||||||||||||||||||||||||||||||||||||||||||||||||||||||||1027.8||1|FM15-METAR|223|ICAO-KFCH|||||||||||||||||||||||||||||||||||||||||||MET062METAR KFCH 241555Z AUTO 14007KT 10SM CLR 03/M01 A3035 RMK A01=||F||223|ICAO-KFCH
USW00023167|FRESNO CHANDLER DWTN AP|2022|02|24|16|10|36.7333|-119.8167|84.1|4.0||1|FM15-METAR|223|ICAO-KFCH|-1.0||1|FM15-METAR|223|ICAO-KFCH|||||||||||||140|N-Normal|1|FM15-METAR|223|ICAO-KFCH|3.1|N-Normal|1|FM15-METAR|223|ICAO-KFCH|||||||||||||70|Derived||FM15-METAR|223|ICAO-KFCH|||||||||||||||||||||||||||||||||||||||||||||||||||||||||||||||||||||||||1028.1||1|FM15-METAR|223|ICAO-KFCH|||||||||||||||||||||||||||||||||||||||||||MET062METAR KFCH 241610Z AUTO 14006KT 10SM CLR 04/M01 A3036 RMK A01=||F||223|ICAO-KFCH
USW00023167|FRESNO CHANDLER DWTN AP|2022|02|24|16|35|36.7333|-119.8167|84.1|5.0||1|FM15-METAR|223|ICAO-KFCH|-2.0||1|FM15-METAR|223|ICAO-KFCH|||||||||||||140|N-Normal|1|FM15-METAR|223|ICAO-KFCH|4.1|N-Normal|1|FM15-METAR|223|ICAO-KFCH|||||||||||||61|Derived||FM15-METAR|223|ICAO-KFCH|||||||||||||||||||||||||||||||||||||||||||||||||||||||||||||||||||||||||1028.4||1|FM15-METAR|223|ICAO-KFCH|||||||||||||||||||||||||||||||||||||||||||MET062METAR KFCH 241635Z AUTO 14008KT 10SM CLR 05/M02 A3037 RMK A01=||F||223|ICAO-KFCH
USW00023167|FRESNO CHANDLER DWTN AP|2022|02|24|16|55|36.7333|-119.8167|84.1|5.0||1|FM15-METAR|223|ICAO-KFCH|-2.0||1|FM15-METAR|223|ICAO-KFCH|||||||||||||130|N-Normal|1|FM15-METAR|223|ICAO-KFCH|3.1|N-Normal|1|FM15-METAR|223|ICAO-KFCH|||||||||||||61|Derived||FM15-METAR|223|ICAO-KFCH|||||||||||||||||||||||||||||||||||||||||||||||||||||||||||||||||||||||||1028.4||1|FM15-METAR|223|ICAO-KFCH|||||||||||||||||||||||||||||||||||||||||||MET062METAR KFCH 241655Z AUTO 13006KT 10SM CLR 05/M02 A3037 RMK A01=||F||223|ICAO-KFCH
USW00023167|FRESNO CHANDLER DWTN AP|2022|02|24|17|15|36.7333|-119.8167|84.1|6.0||1|FM15-METAR|223|ICAO-KFCH|-2.0||1|FM15-METAR|223|ICAO-KFCH|||||||||||||160|N-Normal|1|FM15-METAR|223|ICAO-KFCH|3.1|N-Normal|1|FM15-METAR|223|ICAO-KFCH|||||||||||||57|Derived||FM15-METAR|223|ICAO-KFCH|||||||||||||||||||||||||||||||||||||||||||||||||||||||||||||||||||||||||1028.8||1|FM15-METAR|223|ICAO-KFCH|||||||||||||||||||||||||||||||||||||||||||MET062METAR KFCH 241715Z AUTO 16006KT 10SM CLR 06/M02 A3038 RMK A01=||F||223|ICAO-KFCH
USW00023167|FRESNO CHANDLER DWTN AP|2022|02|24|17|35|36.7333|-119.8167|84.1|7.0||1|FM15-METAR|223|ICAO-KFCH|-2.0||1|FM15-METAR|223|ICAO-KFCH|||||||||||||140|N-Normal|1|FM15-METAR|223|ICAO-KFCH|3.1|N-Normal|1|FM15-METAR|223|ICAO-KFCH|||||||||||||53|Derived||FM15-METAR|223|ICAO-KFCH|||||||||||||||||||||||||||||||||||||||||||||||||||||||||||||||||||||||||1028.8||1|FM15-METAR|223|ICAO-KFCH|||||||||||||||||||||||||||||||||||||||||||MET062METAR KFCH 241735Z AUTO 14006KT 10SM CLR 07/M02 A3038 RMK A01=||F||223|ICAO-KFCH
USW00023167|FRESNO CHANDLER DWTN AP|2022|02|24|17|55|36.7333|-119.8167|84.1|8.0||1|FM15-METAR|223|ICAO-KFCH|-2.0||1|FM15-METAR|223|ICAO-KFCH|||||||||||||120|N-Normal|1|FM15-METAR|223|ICAO-KFCH|3.6|N-Normal|1|FM15-METAR|223|ICAO-KFCH|||||||||||||50|Derived||FM15-METAR|223|ICAO-KFCH|||||||||||||||||||||||||||||||||||||||||||||||||||||||||||||||||||||||||1028.8||1|FM15-METAR|223|ICAO-KFCH|||||||||||||||||||||||||||||||||||||||||||MET062METAR KFCH 241755Z AUTO 12007KT 10SM CLR 08/M02 A3038 RMK A01=||F||223|ICAO-KFCH
USW00023167|FRESNO CHANDLER DWTN AP|2022|02|24|18|15|36.7333|-119.8167|84.1|||||||||||||||||||||||||||||||||||||||||||||||||||||||||||||||||||||||||||||||||||||||||||||||||||||||||||||||||||||||||||||||1028.8||1|FM15-METAR|223|ICAO-KFCH|||||||||||||||||||||||||||||||||||||||||||MET038METAR KFCH 241815Z AUTO A3038 RMK A01=||F||223|ICAO-KFCH
USW00023167|FRESNO CHANDLER DWTN AP|2022|02|24|18|35|36.7333|-119.8167|84.1|9.0||1|FM15-METAR|223|ICAO-KFCH|-3.0||1|FM15-METAR|223|ICAO-KFCH|||||||||||||140|N-Normal|1|FM15-METAR|223|ICAO-KFCH|4.1|N-Normal|1|FM15-METAR|223|ICAO-KFCH|||||||||||||43|Derived||FM15-METAR|223|ICAO-KFCH|||||||||||||||||||||||||||||||||||||||||||||||||||||||||||||||||||||||||1028.8||1|FM15-METAR|223|ICAO-KFCH|||||||||||||||||||||||||||||||||||||||||||MET058METAR KFCH 241835Z AUTO 14008KT 10SM 09/M03 A3038 RMK A01=||F||223|ICAO-KFCH
USW00023167|FRESNO CHANDLER DWTN AP|2022|02|24|18|55|36.7333|-119.8167|84.1|9.0||1|FM15-METAR|223|ICAO-KFCH|-3.0||1|FM15-METAR|223|ICAO-KFCH|||||||||||||150|N-Normal|1|FM15-METAR|223|ICAO-KFCH|2.6|N-Normal|1|FM15-METAR|223|ICAO-KFCH|5.1||1|FM15-METAR|223|ICAO-KFCH|||||||43|Derived||FM15-METAR|223|ICAO-KFCH|||||||||||||||||||||||||||||||||||||||||||||||||||||||||||||||||||||||||1028.4||1|FM15-METAR|223|ICAO-KFCH|||||||||||||||||||||||||||||||||||||||||||MET065METAR KFCH 241855Z AUTO 15005G10KT 10SM CLR 09/M03 A3037 RMK A01=||F||223|ICAO-KFCH
USW00023167|FRESNO CHANDLER DWTN AP|2022|02|24|19|15|36.7333|-119.8167|84.1|10.0||1|FM15-METAR|223|ICAO-KFCH|-3.0||1|FM15-METAR|223|ICAO-KFCH|||||||||||||140|N-Normal|1|FM15-METAR|223|ICAO-KFCH|3.1|N-Normal|1|FM15-METAR|223|ICAO-KFCH|||||||||||||40|Derived||FM15-METAR|223|ICAO-KFCH|||||||||||||||||||||||||||||||||||||||||||||||||||||||||||||||||||||||||1028.4||1|FM15-METAR|223|ICAO-KFCH|||||||||||||||||||||||||||||||||||||||||||MET062METAR KFCH 241915Z AUTO 14006KT 10SM CLR 10/M03 A3037 RMK A01=||F||223|ICAO-KFCH
USW00023167|FRESNO CHANDLER DWTN AP|2022|02|24|19|35|36.7333|-119.8167|84.1|10.0||1|FM15-METAR|223|ICAO-KFCH|-4.0||1|FM15-METAR|223|ICAO-KFCH|||||||||||||140|N-Normal|1|FM15-METAR|223|ICAO-KFCH|3.6|N-Normal|1|FM15-METAR|223|ICAO-KFCH|||||||||||||37|Derived||FM15-METAR|223|ICAO-KFCH|||||||||||||||||||||||||||||||||||||||||||||||||||||||||||||||||||||||||1028.1||1|FM15-METAR|223|ICAO-KFCH|||||||||||||||||||||||||||||||||||||||||||MET062METAR KFCH 241935Z AUTO 14007KT 10SM CLR 10/M04 A3036 RMK A01=||F||223|ICAO-KFCH
USW00023167|FRESNO CHANDLER DWTN AP|2022|02|24|19|55|36.7333|-119.8167|84.1|11.0||1|FM15-METAR|223|ICAO-KFCH|-5.0||1|FM15-METAR|223|ICAO-KFCH|||||||||||||120|N-Normal|1|FM15-METAR|223|ICAO-KFCH|4.1|N-Normal|1|FM15-METAR|223|ICAO-KFCH|||||||||||||32|Derived||FM15-METAR|223|ICAO-KFCH|||||||||||||||||||||||||||||||||||||||||||||||||||||||||||||||||||||||||1027.4||1|FM15-METAR|223|ICAO-KFCH|||||||||||||||||||||||||||||||||||||||||||MET062METAR KFCH 241955Z AUTO 12008KT 10SM CLR 11/M05 A3034 RMK A01=||F||223|ICAO-KFCH
USW00023167|FRESNO CHANDLER DWTN AP|2022|02|24|20|15|36.7333|-119.8167|84.1|11.0||1|FM15-METAR|223|ICAO-KFCH|-5.0||1|FM15-METAR|223|ICAO-KFCH|||||||||||||120|N-Normal|1|FM15-METAR|223|ICAO-KFCH|3.6|N-Normal|1|FM15-METAR|223|ICAO-KFCH|||||||||||||32|Derived||FM15-METAR|223|ICAO-KFCH|||||||||||||||||||||||||||||||||||||||||||||||||||||||||||||||||||||||||1027.1||1|FM15-METAR|223|ICAO-KFCH|||||||||||||||||||||||||||||||||||||||||||MET062METAR KFCH 242015Z AUTO 12007KT 10SM CLR 11/M05 A3033 RMK A01=||F||223|ICAO-KFCH
USW00023167|FRESNO CHANDLER DWTN AP|2022|02|24|20|35|36.7333|-119.8167|84.1|11.0||1|FM15-METAR|223|ICAO-KFCH|-6.0||1|FM15-METAR|223|ICAO-KFCH|||||||||||||999|V-Variable|9|FM15-METAR|223|ICAO-KFCH|1.5|V-Variable|1|FM15-METAR|223|ICAO-KFCH|6.2||1|FM15-METAR|223|ICAO-KFCH|||||||30|Derived||FM15-METAR|223|ICAO-KFCH|||||||||||||||||||||||||||||||||||||||||||||||||||||||||||||||||||||||||1026.7||1|FM15-METAR|223|ICAO-KFCH|||||||||||||||||||||||||||||||||||||||||||MET065METAR KFCH 242035Z AUTO VRB03G12KT 10SM CLR 11/M06 A3032 RMK A01=||F||223|ICAO-KFCH
USW00023167|FRESNO CHANDLER DWTN AP|2022|02|24|20|55|36.7333|-119.8167|84.1|11.0||1|FM15-METAR|223|ICAO-KFCH|-7.0||1|FM15-METAR|223|ICAO-KFCH|||||||||||||180|N-Normal|1|FM15-METAR|223|ICAO-KFCH|3.1|N-Normal|1|FM15-METAR|223|ICAO-KFCH|||||||||||||28|Derived||FM15-METAR|223|ICAO-KFCH|||||||||||||||||||||||||||||||||||||||||||||||||||||||||||||||||||||||||1026.4||1|FM15-METAR|223|ICAO-KFCH|||||||||||||||||||||||||||||||||||||||||||MET062METAR KFCH 242055Z AUTO 18006KT 10SM CLR 11/M07 A3031 RMK A01=||F||223|ICAO-KFCH
USW00023167|FRESNO CHANDLER DWTN AP|2022|02|24|21|15|36.7333|-119.8167|84.1|12.0||1|FM15-METAR|223|ICAO-KFCH|-6.0||1|FM15-METAR|223|ICAO-KFCH|||||||||||||999|C-Calm|9|FM15-METAR|223|ICAO-KFCH|0.0|C-Calm|1|FM15-METAR|223|ICAO-KFCH|||||||||||||28|Derived||FM15-METAR|223|ICAO-KFCH|||||||||||||||||||||||||||||||||||||||||||||||||||||||||||||||||||||||||1026.1||1|FM15-METAR|223|ICAO-KFCH|||||||||||||||||||||||||||||||||||||||||||MET062METAR KFCH 242115Z AUTO 00000KT 10SM CLR 12/M06 A3030 RMK A01=||F||223|ICAO-KFCH
USW00023167|FRESNO CHANDLER DWTN AP|2022|02|24|21|35|36.7333|-119.8167|84.1|12.0||1|FM15-METAR|223|ICAO-KFCH|-7.0||1|FM15-METAR|223|ICAO-KFCH|||||||||||||180|N-Normal|1|FM15-METAR|223|ICAO-KFCH|2.6|N-Normal|1|FM15-METAR|223|ICAO-KFCH|||||||||||||26|Derived||FM15-METAR|223|ICAO-KFCH|||||||||||||||||||||||||||||||||||||||||||||||||||||||||||||||||||||||||1025.7||1|FM15-METAR|223|ICAO-KFCH|||||||||||||||||||||||||||||||||||||||||||MET062METAR KFCH 242135Z AUTO 18005KT 10SM CLR 12/M07 A3029 RMK A01=||F||223|ICAO-KFCH
USW00023167|FRESNO CHANDLER DWTN AP|2022|02|24|21|55|36.7333|-119.8167|84.1|12.0||1|FM15-METAR|223|ICAO-KFCH|-7.0||1|FM15-METAR|223|ICAO-KFCH|||||||||||||240|N-Normal|1|FM15-METAR|223|ICAO-KFCH|1.5|N-Normal|1|FM15-METAR|223|ICAO-KFCH|||||||||||||26|Derived||FM15-METAR|223|ICAO-KFCH|||||||||||||||||||||||||||||||||||||||||||||||||||||||||||||||||||||||||1025.4||1|FM15-METAR|223|ICAO-KFCH|||||||||||||||||||||||||||||||||||||||||||MET062METAR KFCH 242155Z AUTO 24003KT 10SM CLR 12/M07 A3028 RMK A01=||F||223|ICAO-KFCH
USW00023167|FRESNO CHANDLER DWTN AP|2022|02|24|22|15|36.7333|-119.8167|84.1|13.0||1|FM15-METAR|223|ICAO-KFCH|-7.0||1|FM15-METAR|223|ICAO-KFCH|||||||||||||290|N-Normal|1|FM15-METAR|223|ICAO-KFCH|2.6|N-Normal|1|FM15-METAR|223|ICAO-KFCH|||||||||||||24|Derived||FM15-METAR|223|ICAO-KFCH|||||||||||||||||||||||||||||||||||||||||||||||||||||||||||||||||||||||||1025.1||1|FM15-METAR|223|ICAO-KFCH|||||||||||||||||||||||||||||||||||||||||||MET062METAR KFCH 242215Z AUTO 29005KT 10SM CLR 13/M07 A3027 RMK A01=||F||223|ICAO-KFCH
USW00023167|FRESNO CHANDLER DWTN AP|2022|02|24|22|35|36.7333|-119.8167|84.1|13.0||1|FM15-METAR|223|ICAO-KFCH|-7.0||1|FM15-METAR|223|ICAO-KFCH|||||||||||||999|V-Variable|9|FM15-METAR|223|ICAO-KFCH|1.5|V-Variable|1|FM15-METAR|223|ICAO-KFCH|||||||||||||24|Derived||FM15-METAR|223|ICAO-KFCH|||||||||||||||||||||||||||||||||||||||||||||||||||||||||||||||||||||||||1025.1||1|FM15-METAR|223|ICAO-KFCH|||||||||||||||||||||||||||||||||||||||||||MET062METAR KFCH 242235Z AUTO VRB03KT 10SM CLR 13/M07 A3027 RMK A01=||F||223|ICAO-KFCH
USW00023167|FRESNO CHANDLER DWTN AP|2022|02|24|22|55|36.7333|-119.8167|84.1|13.0||1|FM15-METAR|223|ICAO-KFCH|-8.0||1|FM15-METAR|223|ICAO-KFCH|||||||||||||300|N-Normal|1|FM15-METAR|223|ICAO-KFCH|1.5|N-Normal|1|FM15-METAR|223|ICAO-KFCH|||||||||||||23|Derived||FM15-METAR|223|ICAO-KFCH|||||||||||||||||||||||||||||||||||||||||||||||||||||||||||||||||||||||||1024.7||1|FM15-METAR|223|ICAO-KFCH|||||||||||||||||||||||||||||||||||||||||||MET062METAR KFCH 242255Z AUTO 30003KT 10SM CLR 13/M08 A3026 RMK A01=||F||223|ICAO-KFCH
USW00023167|FRESNO CHANDLER DWTN AP|2022|02|24|23|15|36.7333|-119.8167|84.1|13.0||1|FM15-METAR|223|ICAO-KFCH|-9.0||1|FM15-METAR|223|ICAO-KFCH|||||||||||||999|C-Calm|9|FM15-METAR|223|ICAO-KFCH|0.0|C-Calm|1|FM15-METAR|223|ICAO-KFCH|||||||||||||21|Derived||FM15-METAR|223|ICAO-KFCH|||||||||||||||||||||||||||||||||||||||||||||||||||||||||||||||||||||||||1024.7||1|FM15-METAR|223|ICAO-KFCH|||||||||||||||||||||||||||||||||||||||||||MET062METAR KFCH 242315Z AUTO 00000KT 10SM CLR 13/M09 A3026 RMK A01=||F||223|ICAO-KFCH
USW00023167|FRESNO CHANDLER DWTN AP|2022|02|24|23|30|36.7333|-119.8167|84.1|13.0||1|FM15-METAR|223|ICAO-KFCH|-8.0||1|FM15-METAR|223|ICAO-KFCH|||||||||||||310|N-Normal|1|FM15-METAR|223|ICAO-KFCH|2.6|N-Normal|1|FM15-METAR|223|ICAO-KFCH|||||||||||||23|Derived||FM15-METAR|223|ICAO-KFCH|||||||||||||||||||||||||||||||||||||||||||||||||||||||||||||||||||||||||1024.4||1|FM15-METAR|223|ICAO-KFCH|||||||||||||||||||||||||||||||||||||||||||MET062METAR KFCH 242330Z AUTO 31005KT 10SM CLR 13/M08 A3025 RMK A01=||F||223|ICAO-KFCH
USW00023167|FRESNO CHANDLER DWTN AP|2022|02|24|23|50|36.7333|-119.8167|84.1|13.0||1|FM15-METAR|223|ICAO-KFCH|-8.0||1|FM15-METAR|223|ICAO-KFCH|||||||||||||999|C-Calm|9|FM15-METAR|223|ICAO-KFCH|0.0|C-Calm|1|FM15-METAR|223|ICAO-KFCH|||||||||||||23|Derived||FM15-METAR|223|ICAO-KFCH|||||||||||||||||||||||||||||||||||||||||||||||||||||||||||||||||||||||||1024.4||1|FM15-METAR|223|ICAO-KFCH|||||||||||||||||||||||||||||||||||||||||||MET062METAR KFCH 242350Z AUTO 00000KT 10SM CLR 13/M08 A3025 RMK A01=||F||223|ICAO-KFCH
USW00023167|FRESNO CHANDLER DWTN AP|2022|02|25|00|15|36.7333|-119.8167|84.1|14.0||1|FM15-METAR|223|ICAO-KFCH|-8.0||1|FM15-METAR|223|ICAO-KFCH|||||||||||||320|N-Normal|1|FM15-METAR|223|ICAO-KFCH|3.6|N-Normal|1|FM15-METAR|223|ICAO-KFCH|||||||||||||21|Derived||FM15-METAR|223|ICAO-KFCH|||||||||||||||||||||||||||||||||||||||||||||||||||||||||||||||||||||||||1024.4||1|FM15-METAR|223|ICAO-KFCH|||||||||||||||||||||||||||||||||||||||||||MET062METAR KFCH 250015Z AUTO 32007KT 10SM CLR 14/M08 A3025 RMK A01=||F||223|ICAO-KFCH
USW00023167|FRESNO CHANDLER DWTN AP|2022|02|25|00|30|36.7333|-119.8167|84.1|13.0||1|FM15-METAR|223|ICAO-KFCH|-8.0||1|FM15-METAR|223|ICAO-KFCH|||||||||||||330|N-Normal|1|FM15-METAR|223|ICAO-KFCH|3.1|N-Normal|1|FM15-METAR|223|ICAO-KFCH|||||||||||||23|Derived||FM15-METAR|223|ICAO-KFCH|||||||||||||||||||||||||||||||||||||||||||||||||||||||||||||||||||||||||1024.0||1|FM15-METAR|223|ICAO-KFCH|||||||||||||||||||||||||||||||||||||||||||MET062METAR KFCH 250030Z AUTO 33006KT 10SM CLR 13/M08 A3024 RMK A01=||F||223|ICAO-KFCH
USW00023167|FRESNO CHANDLER DWTN AP|2022|02|25|00|55|36.7333|-119.8167|84.1|13.0||1|FM15-METAR|223|ICAO-KFCH|-8.0||1|FM15-METAR|223|ICAO-KFCH|||||||||||||290|N-Normal|1|FM15-METAR|223|ICAO-KFCH|3.1|N-Normal|1|FM15-METAR|223|ICAO-KFCH|5.7||1|FM15-METAR|223|ICAO-KFCH|||||||23|Derived||FM15-METAR|223|ICAO-KFCH|||||||||||||||||||||||||||||||||||||||||||||||||||||||||||||||||||||||||1024.0||1|FM15-METAR|223|ICAO-KFCH|||||||||||||||||||||||||||||||||||||||||||MET065METAR KFCH 250055Z AUTO 29006G11KT 10SM CLR 13/M08 A3024 RMK A01=||F||223|ICAO-KFCH
USW00023167|FRESNO CHANDLER DWTN AP|2022|02|25|01|15|36.7333|-119.8167|84.1|13.0||1|FM15-METAR|223|ICAO-KFCH|-8.0||1|FM15-METAR|223|ICAO-KFCH|||||||||||||320|N-Normal|1|FM15-METAR|223|ICAO-KFCH|3.1|N-Normal|1|FM15-METAR|223|ICAO-KFCH|||||||||||||23|Derived||FM15-METAR|223|ICAO-KFCH|||||||||||||||||||||||||||||||||||||||||||||||||||||||||||||||||||||||||1024.0||1|FM15-METAR|223|ICAO-KFCH|||||||||||||||||||||||||||||||||||||||||||MET062METAR KFCH 250115Z AUTO 32006KT 10SM CLR 13/M08 A3024 RMK A01=||F||223|ICAO-KFCH
USW00023167|FRESNO CHANDLER DWTN AP|2022|02|25|01|35|36.7333|-119.8167|84.1|12.0||1|FM15-METAR|223|ICAO-KFCH|-7.0||1|FM15-METAR|223|ICAO-KFCH|||||||||||||340|N-Normal|1|FM15-METAR|223|ICAO-KFCH|1.5|N-Normal|1|FM15-METAR|223|ICAO-KFCH|||||||||||||26|Derived||FM15-METAR|223|ICAO-KFCH|||||||||||||||||||||||||||||||||||||||||||||||||||||||||||||||||||||||||1024.0||1|FM15-METAR|223|ICAO-KFCH|||||||||||||||||||||||||||||||||||||||||||MET062METAR KFCH 250135Z AUTO 34003KT 10SM CLR 12/M07 A3024 RMK A01=||F||223|ICAO-KFCH
USW00023167|FRESNO CHANDLER DWTN AP|2022|02|25|01|55|36.7333|-119.8167|84.1|12.0||1|FM15-METAR|223|ICAO-KFCH|-7.0||1|FM15-METAR|223|ICAO-KFCH|||||||||||||330|N-Normal|1|FM15-METAR|223|ICAO-KFCH|1.5|N-Normal|1|FM15-METAR|223|ICAO-KFCH|||||||||||||26|Derived||FM15-METAR|223|ICAO-KFCH|||||||||||||||||||||||||||||||||||||||||||||||||||||||||||||||||||||||||1024.0||1|FM15-METAR|223|ICAO-KFCH|||||||||||||||||||||||||||||||||||||||||||MET062METAR KFCH 250155Z AUTO 33003KT 10SM CLR 12/M07 A3024 RMK A01=||F||223|ICAO-KFCH
USW00023167|FRESNO CHANDLER DWTN AP|2022|02|25|02|15|36.7333|-119.8167|84.1|11.0||1|FM15-METAR|223|ICAO-KFCH|-7.0||1|FM15-METAR|223|ICAO-KFCH|||||||||||||330|N-Normal|1|FM15-METAR|223|ICAO-KFCH|2.1|N-Normal|1|FM15-METAR|223|ICAO-KFCH|||||||||||||28|Derived||FM15-METAR|223|ICAO-KFCH|||||||||||||||||||||||||||||||||||||||||||||||||||||||||||||||||||||||||1024.0||1|FM15-METAR|223|ICAO-KFCH|||||||||||||||||||||||||||||||||||||||||||MET062METAR KFCH 250215Z AUTO 33004KT 10SM CLR 11/M07 A3024 RMK A01=||F||223|ICAO-KFCH
USW00023167|FRESNO CHANDLER DWTN AP|2022|02|25|02|35|36.7333|-119.8167|84.1|11.0||1|FM15-METAR|223|ICAO-KFCH|-6.0||1|FM15-METAR|223|ICAO-KFCH|||||||||||||999|C-Calm|9|FM15-METAR|223|ICAO-KFCH|0.0|C-Calm|1|FM15-METAR|223|ICAO-KFCH|||||||||||||30|Derived||FM15-METAR|223|ICAO-KFCH|||||||||||||||||||||||||||||||||||||||||||||||||||||||||||||||||||||||||1024.0||1|FM15-METAR|223|ICAO-KFCH|||||||||||||||||||||||||||||||||||||||||||MET058METAR KFCH 250235Z AUTO 00000KT 10SM 11/M06 A3024 RMK A01=||F||223|ICAO-KFCH
USW00023167|FRESNO CHANDLER DWTN AP|2022|02|25|02|55|36.7333|-119.8167|84.1|11.0||1|FM15-METAR|223|ICAO-KFCH|-6.0||1|FM15-METAR|223|ICAO-KFCH|||||||||||||360|N-Normal|1|FM15-METAR|223|ICAO-KFCH|2.1|N-Normal|1|FM15-METAR|223|ICAO-KFCH|||||||||||||30|Derived||FM15-METAR|223|ICAO-KFCH|||||||||||||||||||||||||||||||||||||||||||||||||||||||||||||||||||||||||1024.0||1|FM15-METAR|223|ICAO-KFCH|||||||||||||||||||||||||||||||||||||||||||MET062METAR KFCH 250255Z AUTO 36004KT 10SM CLR 11/M06 A3024 RMK A01=||F||223|ICAO-KFCH
USW00023167|FRESNO CHANDLER DWTN AP|2022|02|25|03|10|36.7333|-119.8167|84.1|11.0||1|FM15-METAR|223|ICAO-KFCH|-5.0||1|FM15-METAR|223|ICAO-KFCH|||||||||||||360|N-Normal|1|FM15-METAR|223|ICAO-KFCH|2.1|N-Normal|1|FM15-METAR|223|ICAO-KFCH|||||||||||||32|Derived||FM15-METAR|223|ICAO-KFCH|||||||||||||||||||||||||||||||||||||||||||||||||||||||||||||||||||||||||1024.0||1|FM15-METAR|223|ICAO-KFCH|||||||||||||||||||||||||||||||||||||||||||MET062METAR KFCH 250310Z AUTO 36004KT 10SM CLR 11/M05 A3024 RMK A01=||F||223|ICAO-KFCH
USW00023167|FRESNO CHANDLER DWTN AP|2022|02|25|03|30|36.7333|-119.8167|84.1|10.0||1|FM15-METAR|223|ICAO-KFCH|-5.0||1|FM15-METAR|223|ICAO-KFCH|||||||||||||010|N-Normal|1|FM15-METAR|223|ICAO-KFCH|1.5|N-Normal|1|FM15-METAR|223|ICAO-KFCH|||||||||||||35|Derived||FM15-METAR|223|ICAO-KFCH|||||||||||||||||||||||||||||||||||||||||||||||||||||||||||||||||||||||||1024.0||1|FM15-METAR|223|ICAO-KFCH|||||||||||||||||||||||||||||||||||||||||||MET062METAR KFCH 250330Z AUTO 01003KT 10SM CLR 10/M05 A3024 RMK A01=||F||223|ICAO-KFCH
USW00023167|FRESNO CHANDLER DWTN AP|2022|02|25|03|55|36.7333|-119.8167|84.1|10.0||1|FM15-METAR|223|ICAO-KFCH|-4.0||1|FM15-METAR|223|ICAO-KFCH|||||||||||||999|C-Calm|9|FM15-METAR|223|ICAO-KFCH|0.0|C-Calm|1|FM15-METAR|223|ICAO-KFCH|||||||||||||37|Derived||FM15-METAR|223|ICAO-KFCH|||||||||||||||||||||||||||||||||||||||||||||||||||||||||||||||||||||||||1024.0||1|FM15-METAR|223|ICAO-KFCH|||||||||||||||||||||||||||||||||||||||||||MET062METAR KFCH 250355Z AUTO 00000KT 10SM CLR 10/M04 A3024 RMK A01=||F||223|ICAO-KFCH
USW00023167|FRESNO CHANDLER DWTN AP|2022|02|25|04|15|36.7333|-119.8167|84.1|9.0||1|FM15-METAR|223|ICAO-KFCH|-4.0||1|FM15-METAR|223|ICAO-KFCH|||||||||||||999|C-Calm|9|FM15-METAR|223|ICAO-KFCH|0.0|C-Calm|1|FM15-METAR|223|ICAO-KFCH|||||||||||||40|Derived||FM15-METAR|223|ICAO-KFCH|||||||||||||||||||||||||||||||||||||||||||||||||||||||||||||||||||||||||1024.4||1|FM15-METAR|223|ICAO-KFCH|||||||||||||||||||||||||||||||||||||||||||MET062METAR KFCH 250415Z AUTO 00000KT 10SM CLR 09/M04 A3025 RMK A01=||F||223|ICAO-KFCH
USW00023167|FRESNO CHANDLER DWTN AP|2022|02|25|04|35|36.7333|-119.8167|84.1|8.0||1|FM15-METAR|223|ICAO-KFCH|-4.0||1|FM15-METAR|223|ICAO-KFCH|||||||||||||999|C-Calm|9|FM15-METAR|223|ICAO-KFCH|0.0|C-Calm|1|FM15-METAR|223|ICAO-KFCH|||||||||||||43|Derived||FM15-METAR|223|ICAO-KFCH|||||||||||||||||||||||||||||||||||||||||||||||||||||||||||||||||||||||||1024.4||1|FM15-METAR|223|ICAO-KFCH|||||||||||||||||||||||||||||||||||||||||||MET065METAR KFCH 250435Z AUTO 00000KT 10SM FEW050 08/M04 A3025 RMK A01=||F||223|ICAO-KFCH
USW00023167|FRESNO CHANDLER DWTN AP|2022|02|25|04|55|36.7333|-119.8167|84.1|8.0||1|FM15-METAR|223|ICAO-KFCH|-4.0||1|FM15-METAR|223|ICAO-KFCH|||||||||||||999|C-Calm|9|FM15-METAR|223|ICAO-KFCH|0.0|C-Calm|1|FM15-METAR|223|ICAO-KFCH|||||||||||||43|Derived||FM15-METAR|223|ICAO-KFCH|||||||||||||||||||||||||||||||||||||||||||||||||||||||||||||||||||||||||1024.7||1|FM15-METAR|223|ICAO-KFCH|||||||||||||||||||||||||||||||||||||||||||MET062METAR KFCH 250455Z AUTO 00000KT 10SM CLR 08/M04 A3026 RMK A01=||F||223|ICAO-KFCH
USW00023167|FRESNO CHANDLER DWTN AP|2022|02|25|05|15|36.7333|-119.8167|84.1|7.0||1|FM15-METAR|223|ICAO-KFCH|-4.0||1|FM15-METAR|223|ICAO-KFCH|||||||||||||999|C-Calm|9|FM15-METAR|223|ICAO-KFCH|0.0|C-Calm|1|FM15-METAR|223|ICAO-KFCH|||||||||||||46|Derived||FM15-METAR|223|ICAO-KFCH|||||||||||||||||||||||||||||||||||||||||||||||||||||||||||||||||||||||||1025.1||1|FM15-METAR|223|ICAO-KFCH|||||||||||||||||||||||||||||||||||||||||||MET062METAR KFCH 250515Z AUTO 00000KT 10SM CLR 07/M04 A3027 RMK A01=||F||223|ICAO-KFCH
USW00023167|FRESNO CHANDLER DWTN AP|2022|02|25|05|35|36.7333|-119.8167|84.1|7.0||1|FM15-METAR|223|ICAO-KFCH|-3.0||1|FM15-METAR|223|ICAO-KFCH|||||||||||||999|C-Calm|9|FM15-METAR|223|ICAO-KFCH|0.0|C-Calm|1|FM15-METAR|223|ICAO-KFCH|||||||||||||49|Derived||FM15-METAR|223|ICAO-KFCH|||||||||||||||||||||||||||||||||||||||||||||||||||||||||||||||||||||||||1025.1||1|FM15-METAR|223|ICAO-KFCH|||||||||||||||||||||||||||||||||||||||||||MET065METAR KFCH 250535Z AUTO 00000KT 10SM FEW049 07/M03 A3027 RMK A01=||F||223|ICAO-KFCH
USW00023167|FRESNO CHANDLER DWTN AP|2022|02|25|05|55|36.7333|-119.8167|84.1|7.0||1|FM15-METAR|223|ICAO-KFCH|-2.0||1|FM15-METAR|223|ICAO-KFCH|||||||||||||999|C-Calm|9|FM15-METAR|223|ICAO-KFCH|0.0|C-Calm|1|FM15-METAR|223|ICAO-KFCH|||||||||||||53|Derived||FM15-METAR|223|ICAO-KFCH|||||||||||||||||||||||||||||||||||||||||||||||||||||||||||||||||||||||||1025.1||1|FM15-METAR|223|ICAO-KFCH|||||||||||||||||||||||||||||||||||||||||||MET062METAR KFCH 250555Z AUTO 00000KT 10SM CLR 07/M02 A3027 RMK A01=||F||223|ICAO-KFCH
USW00023167|FRESNO CHANDLER DWTN AP|2022|02|25|06|15|36.7333|-119.8167|84.1|7.0||1|FM15-METAR|223|ICAO-KFCH|-3.0||1|FM15-METAR|223|ICAO-KFCH|||||||||||||999|C-Calm|9|FM15-METAR|223|ICAO-KFCH|0.0|C-Calm|1|FM15-METAR|223|ICAO-KFCH|||||||||||||49|Derived||FM15-METAR|223|ICAO-KFCH|||||||||||||||||||||||||||||||||||||||||||||||||||||||||||||||||||||||||1025.1||1|FM15-METAR|223|ICAO-KFCH|||||||||||||||||||||||||||||||||||||||||||MET062METAR KFCH 250615Z AUTO 00000KT 10SM CLR 07/M03 A3027 RMK A01=||F||223|ICAO-KFCH
USW00023167|FRESNO CHANDLER DWTN AP|2022|02|25|06|35|36.7333|-119.8167|84.1|6.0||1|FM15-METAR|223|ICAO-KFCH|-3.0||1|FM15-METAR|223|ICAO-KFCH|||||||||||||999|C-Calm|9|FM15-METAR|223|ICAO-KFCH|0.0|C-Calm|1|FM15-METAR|223|ICAO-KFCH|||||||||||||53|Derived||FM15-METAR|223|ICAO-KFCH|||||||||||||||||||||||||||||||||||||||||||||||||||||||||||||||||||||||||1025.1||1|FM15-METAR|223|ICAO-KFCH|||||||||||||||||||||||||||||||||||||||||||MET062METAR KFCH 250635Z AUTO 00000KT 10SM CLR 06/M03 A3027 RMK A01=||F||223|ICAO-KFCH
USW00023167|FRESNO CHANDLER DWTN AP|2022|02|25|06|55|36.7333|-119.8167|84.1|5.0||1|FM15-METAR|223|ICAO-KFCH|-3.0||1|FM15-METAR|223|ICAO-KFCH|||||||||||||999|C-Calm|9|FM15-METAR|223|ICAO-KFCH|0.0|C-Calm|1|FM15-METAR|223|ICAO-KFCH|||||||||||||57|Derived||FM15-METAR|223|ICAO-KFCH|||||||||||||||||||||||||||||||||||||||||||||||||||||||||||||||||||||||||1025.1||1|FM15-METAR|223|ICAO-KFCH|||||||||||||||||||||||||||||||||||||||||||MET062METAR KFCH 250655Z AUTO 00000KT 10SM CLR 05/M03 A3027 RMK A01=||F||223|ICAO-KFCH
USW00023167|FRESNO CHANDLER DWTN AP|2022|02|25|07|15|36.7333|-119.8167|84.1|5.0||1|FM15-METAR|223|ICAO-KFCH|-3.0||1|FM15-METAR|223|ICAO-KFCH|||||||||||||999|C-Calm|9|FM15-METAR|223|ICAO-KFCH|0.0|C-Calm|1|FM15-METAR|223|ICAO-KFCH|||||||||||||57|Derived||FM15-METAR|223|ICAO-KFCH|||||||||||||||||||||||||||||||||||||||||||||||||||||||||||||||||||||||||1025.1||1|FM15-METAR|223|ICAO-KFCH|||||||||||||||||||||||||||||||||||||||||||MET062METAR KFCH 250715Z AUTO 00000KT 10SM CLR 05/M03 A3027 RMK A01=||F||223|ICAO-KFCH
USW00023167|FRESNO CHANDLER DWTN AP|2022|02|25|07|35|36.7333|-119.8167|84.1|5.0||1|FM15-METAR|223|ICAO-KFCH|-3.0||1|FM15-METAR|223|ICAO-KFCH|||||||||||||999|C-Calm|9|FM15-METAR|223|ICAO-KFCH|0.0|C-Calm|1|FM15-METAR|223|ICAO-KFCH|||||||||||||57|Derived||FM15-METAR|223|ICAO-KFCH|||||||||||||||||||||||||||||||||||||||||||||||||||||||||||||||||||||||||1025.1||1|FM15-METAR|223|ICAO-KFCH|||||||||||||||||||||||||||||||||||||||||||MET062METAR KFCH 250735Z AUTO 00000KT 10SM CLR 05/M03 A3027 RMK A01=||F||223|ICAO-KFCH
USW00023167|FRESNO CHANDLER DWTN AP|2022|02|25|07|55|36.7333|-119.8167|84.1|4.0||1|FM15-METAR|223|ICAO-KFCH|-2.0||1|FM15-METAR|223|ICAO-KFCH|||||||||||||999|C-Calm|9|FM15-METAR|223|ICAO-KFCH|0.0|C-Calm|1|FM15-METAR|223|ICAO-KFCH|||||||||||||65|Derived||FM15-METAR|223|ICAO-KFCH|||||||||||||||||||||||||||||||||||||||||||||||||||||||||||||||||||||||||1025.4||1|FM15-METAR|223|ICAO-KFCH|||||||||||||||||||||||||||||||||||||||||||MET062METAR KFCH 250755Z AUTO 00000KT 10SM CLR 04/M02 A3028 RMK A01=||F||223|ICAO-KFCH
USW00023167|FRESNO CHANDLER DWTN AP|2022|02|25|08|15|36.7333|-119.8167|84.1|5.0||1|FM15-METAR|223|ICAO-KFCH|-2.0||1|FM15-METAR|223|ICAO-KFCH|||||||||||||999|C-Calm|9|FM15-METAR|223|ICAO-KFCH|0.0|C-Calm|1|FM15-METAR|223|ICAO-KFCH|||||||||||||61|Derived||FM15-METAR|223|ICAO-KFCH|||||||||||||||||||||||||||||||||||||||||||||||||||||||||||||||||||||||||1025.1||1|FM15-METAR|223|ICAO-KFCH|||||||||||||||||||||||||||||||||||||||||||MET062METAR KFCH 250815Z AUTO 00000KT 10SM CLR 05/M02 A3027 RMK A01=||F||223|ICAO-KFCH
USW00023167|FRESNO CHANDLER DWTN AP|2022|02|25|08|35|36.7333|-119.8167|84.1|4.0||1|FM15-METAR|223|ICAO-KFCH|-2.0||1|FM15-METAR|223|ICAO-KFCH|||||||||||||999|C-Calm|9|FM15-METAR|223|ICAO-KFCH|0.0|C-Calm|1|FM15-METAR|223|ICAO-KFCH|||||||||||||65|Derived||FM15-METAR|223|ICAO-KFCH|||||||||||||||||||||||||||||||||||||||||||||||||||||||||||||||||||||||||1025.1||1|FM15-METAR|223|ICAO-KFCH|||||||||||||||||||||||||||||||||||||||||||MET062METAR KFCH 250835Z AUTO 00000KT 10SM CLR 04/M02 A3027 RMK A01=||F||223|ICAO-KFCH
USW00023167|FRESNO CHANDLER DWTN AP|2022|02|25|08|55|36.7333|-119.8167|84.1|4.0||1|FM15-METAR|223|ICAO-KFCH|-2.0||1|FM15-METAR|223|ICAO-KFCH|||||||||||||999|C-Calm|9|FM15-METAR|223|ICAO-KFCH|0.0|C-Calm|1|FM15-METAR|223|ICAO-KFCH|||||||||||||65|Derived||FM15-METAR|223|ICAO-KFCH|||||||||||||||||||||||||||||||||||||||||||||||||||||||||||||||||||||||||1025.1||1|FM15-METAR|223|ICAO-KFCH|||||||||||||||||||||||||||||||||||||||||||MET062METAR KFCH 250855Z AUTO 00000KT 10SM CLR 04/M02 A3027 RMK A01=||F||223|ICAO-KFCH
USW00023167|FRESNO CHANDLER DWTN AP|2022|02|25|09|15|36.7333|-119.8167|84.1|3.0||1|FM15-METAR|223|ICAO-KFCH|-2.0||1|FM15-METAR|223|ICAO-KFCH|||||||||||||999|C-Calm|9|FM15-METAR|223|ICAO-KFCH|0.0|C-Calm|1|FM15-METAR|223|ICAO-KFCH|||||||||||||70|Derived||FM15-METAR|223|ICAO-KFCH|||||||||||||||||||||||||||||||||||||||||||||||||||||||||||||||||||||||||1025.1||1|FM15-METAR|223|ICAO-KFCH|||||||||||||||||||||||||||||||||||||||||||MET062METAR KFCH 250915Z AUTO 00000KT 10SM CLR 03/M02 A3027 RMK A01=||F||223|ICAO-KFCH
USW00023167|FRESNO CHANDLER DWTN AP|2022|02|25|09|35|36.7333|-119.8167|84.1|3.0||1|FM15-METAR|223|ICAO-KFCH|-2.0||1|FM15-METAR|223|ICAO-KFCH|||||||||||||999|C-Calm|9|FM15-METAR|223|ICAO-KFCH|0.0|C-Calm|1|FM15-METAR|223|ICAO-KFCH|||||||||||||70|Derived||FM15-METAR|223|ICAO-KFCH|||||||||||||||||||||||||||||||||||||||||||||||||||||||||||||||||||||||||1025.4||1|FM15-METAR|223|ICAO-KFCH|||||||||||||||||||||||||||||||||||||||||||MET062METAR KFCH 250935Z AUTO 00000KT 10SM CLR 03/M02 A3028 RMK A01=||F||223|ICAO-KFCH
USW00023167|FRESNO CHANDLER DWTN AP|2022|02|25|09|55|36.7333|-119.8167|84.1|3.0||1|FM15-METAR|223|ICAO-KFCH|-2.0||1|FM15-METAR|223|ICAO-KFCH|||||||||||||999|C-Calm|9|FM15-METAR|223|ICAO-KFCH|0.0|C-Calm|1|FM15-METAR|223|ICAO-KFCH|||||||||||||70|Derived||FM15-METAR|223|ICAO-KFCH|||||||||||||||||||||||||||||||||||||||||||||||||||||||||||||||||||||||||1025.4||1|FM15-METAR|223|ICAO-KFCH|||||||||||||||||||||||||||||||||||||||||||MET062METAR KFCH 250955Z AUTO 00000KT 10SM CLR 03/M02 A3028 RMK A01=||F||223|ICAO-KFCH
USW00023167|FRESNO CHANDLER DWTN AP|2022|02|25|10|15|36.7333|-119.8167|84.1|3.0||1|FM15-METAR|223|ICAO-KFCH|-2.0||1|FM15-METAR|223|ICAO-KFCH|||||||||||||999|C-Calm|9|FM15-METAR|223|ICAO-KFCH|0.0|C-Calm|1|FM15-METAR|223|ICAO-KFCH|||||||||||||70|Derived||FM15-METAR|223|ICAO-KFCH|||||||||||||||||||||||||||||||||||||||||||||||||||||||||||||||||||||||||1025.4||1|FM15-METAR|223|ICAO-KFCH|||||||||||||||||||||||||||||||||||||||||||MET062METAR KFCH 251015Z AUTO 00000KT 10SM CLR 03/M02 A3028 RMK A01=||F||223|ICAO-KFCH
USW00023167|FRESNO CHANDLER DWTN AP|2022|02|25|10|35|36.7333|-119.8167|84.1|2.0||1|FM15-METAR|223|ICAO-KFCH|-2.0||1|FM15-METAR|223|ICAO-KFCH|||||||||||||999|C-Calm|9|FM15-METAR|223|ICAO-KFCH|0.0|C-Calm|1|FM15-METAR|223|ICAO-KFCH|||||||||||||75|Derived||FM15-METAR|223|ICAO-KFCH|||||||||||||||||||||||||||||||||||||||||||||||||||||||||||||||||||||||||1025.4||1|FM15-METAR|223|ICAO-KFCH|||||||||||||||||||||||||||||||||||||||||||MET062METAR KFCH 251035Z AUTO 00000KT 10SM CLR 02/M02 A3028 RMK A01=||F||223|ICAO-KFCH
USW00023167|FRESNO CHANDLER DWTN AP|2022|02|25|10|55|36.7333|-119.8167|84.1|2.0||1|FM15-METAR|223|ICAO-KFCH|-2.0||1|FM15-METAR|223|ICAO-KFCH|||||||||||||999|C-Calm|9|FM15-METAR|223|ICAO-KFCH|0.0|C-Calm|1|FM15-METAR|223|ICAO-KFCH|||||||||||||75|Derived||FM15-METAR|223|ICAO-KFCH|||||||||||||||||||||||||||||||||||||||||||||||||||||||||||||||||||||||||1025.1||1|FM15-METAR|223|ICAO-KFCH|||||||||||||||||||||||||||||||||||||||||||MET062METAR KFCH 251055Z AUTO 00000KT 10SM CLR 02/M02 A3027 RMK A01=||F||223|ICAO-KFCH
USW00023167|FRESNO CHANDLER DWTN AP|2022|02|25|11|15|36.7333|-119.8167|84.1|2.0||1|FM15-METAR|223|ICAO-KFCH|-2.0||1|FM15-METAR|223|ICAO-KFCH|||||||||||||999|C-Calm|9|FM15-METAR|223|ICAO-KFCH|0.0|C-Calm|1|FM15-METAR|223|ICAO-KFCH|||||||||||||75|Derived||FM15-METAR|223|ICAO-KFCH|||||||||||||||||||||||||||||||||||||||||||||||||||||||||||||||||||||||||1025.1||1|FM15-METAR|223|ICAO-KFCH|||||||||||||||||||||||||||||||||||||||||||MET062METAR KFCH 251115Z AUTO 00000KT 10SM CLR 02/M02 A3027 RMK A01=||F||223|ICAO-KFCH
USW00023167|FRESNO CHANDLER DWTN AP|2022|02|25|11|35|36.7333|-119.8167|84.1|2.0||1|FM15-METAR|223|ICAO-KFCH|-2.0||1|FM15-METAR|223|ICAO-KFCH|||||||||||||999|C-Calm|9|FM15-METAR|223|ICAO-KFCH|0.0|C-Calm|1|FM15-METAR|223|ICAO-KFCH|||||||||||||75|Derived||FM15-METAR|223|ICAO-KFCH|||||||||||||||||||||||||||||||||||||||||||||||||||||||||||||||||||||||||1025.1||1|FM15-METAR|223|ICAO-KFCH|||||||||||||||||||||||||||||||||||||||||||MET062METAR KFCH 251135Z AUTO 00000KT 10SM CLR 02/M02 A3027 RMK A01=||F||223|ICAO-KFCH
USW00023167|FRESNO CHANDLER DWTN AP|2022|02|25|11|55|36.7333|-119.8167|84.1|1.0||1|FM15-METAR|223|ICAO-KFCH|-2.0||1|FM15-METAR|223|ICAO-KFCH|||||||||||||999|C-Calm|9|FM15-METAR|223|ICAO-KFCH|0.0|C-Calm|1|FM15-METAR|223|ICAO-KFCH|||||||||||||81|Derived||FM15-METAR|223|ICAO-KFCH|||||||||||||||||||||||||||||||||||||||||||||||||||||||||||||||||||||||||1025.1||1|FM15-METAR|223|ICAO-KFCH|||||||||||||||||||||||||||||||||||||||||||MET062METAR KFCH 251155Z AUTO 00000KT 10SM CLR 01/M02 A3027 RMK A01=||F||223|ICAO-KFCH
USW00023167|FRESNO CHANDLER DWTN AP|2022|02|25|12|15|36.7333|-119.8167|84.1|1.0||1|FM15-METAR|223|ICAO-KFCH|-2.0||1|FM15-METAR|223|ICAO-KFCH|||||||||||||999|C-Calm|9|FM15-METAR|223|ICAO-KFCH|0.0|C-Calm|1|FM15-METAR|223|ICAO-KFCH|||||||||||||81|Derived||FM15-METAR|223|ICAO-KFCH|||||||||||||||||||||||||||||||||||||||||||||||||||||||||||||||||||||||||1025.1||1|FM15-METAR|223|ICAO-KFCH|||||||||||||||||||||||||||||||||||||||||||MET062METAR KFCH 251215Z AUTO 00000KT 10SM CLR 01/M02 A3027 RMK A01=||F||223|ICAO-KFCH
USW00023167|FRESNO CHANDLER DWTN AP|2022|02|25|12|35|36.7333|-119.8167|84.1|2.0||1|FM15-METAR|223|ICAO-KFCH|-2.0||1|FM15-METAR|223|ICAO-KFCH|||||||||||||999|C-Calm|9|FM15-METAR|223|ICAO-KFCH|0.0|C-Calm|1|FM15-METAR|223|ICAO-KFCH|||||||||||||75|Derived||FM15-METAR|223|ICAO-KFCH|||||||||||||||||||||||||||||||||||||||||||||||||||||||||||||||||||||||||1025.1||1|FM15-METAR|223|ICAO-KFCH|||||||||||||||||||||||||||||||||||||||||||MET062METAR KFCH 251235Z AUTO 00000KT 10SM CLR 02/M02 A3027 RMK A01=||F||223|ICAO-KFCH
USW00023167|FRESNO CHANDLER DWTN AP|2022|02|25|12|55|36.7333|-119.8167|84.1|1.0||1|FM15-METAR|223|ICAO-KFCH|-2.0||1|FM15-METAR|223|ICAO-KFCH|||||||||||||999|C-Calm|9|FM15-METAR|223|ICAO-KFCH|0.0|C-Calm|1|FM15-METAR|223|ICAO-KFCH|||||||||||||81|Derived||FM15-METAR|223|ICAO-KFCH|||||||||||||||||||||||||||||||||||||||||||||||||||||||||||||||||||||||||1025.1||1|FM15-METAR|223|ICAO-KFCH|||||||||||||||||||||||||||||||||||||||||||MET062METAR KFCH 251255Z AUTO 00000KT 10SM CLR 01/M02 A3027 RMK A01=||F||223|ICAO-KFCH
USW00023167|FRESNO CHANDLER DWTN AP|2022|02|25|13|15|36.7333|-119.8167|84.1|2.0||1|FM15-METAR|223|ICAO-KFCH|-2.0||1|FM15-METAR|223|ICAO-KFCH|||||||||||||999|C-Calm|9|FM15-METAR|223|ICAO-KFCH|0.0|C-Calm|1|FM15-METAR|223|ICAO-KFCH|||||||||||||75|Derived||FM15-METAR|223|ICAO-KFCH|||||||||||||||||||||||||||||||||||||||||||||||||||||||||||||||||||||||||1025.4||1|FM15-METAR|223|ICAO-KFCH|||||||||||||||||||||||||||||||||||||||||||MET062METAR KFCH 251315Z AUTO 00000KT 10SM CLR 02/M02 A3028 RMK A01=||F||223|ICAO-KFCH
USW00023167|FRESNO CHANDLER DWTN AP|2022|02|25|13|30|36.7333|-119.8167|84.1|1.0||1|FM15-METAR|223|ICAO-KFCH|-2.0||1|FM15-METAR|223|ICAO-KFCH|||||||||||||999|C-Calm|9|FM15-METAR|223|ICAO-KFCH|0.0|C-Calm|1|FM15-METAR|223|ICAO-KFCH|||||||||||||81|Derived||FM15-METAR|223|ICAO-KFCH|||||||||||||||||||||||||||||||||||||||||||||||||||||||||||||||||||||||||1025.4||1|FM15-METAR|223|ICAO-KFCH|||||||||||||||||||||||||||||||||||||||||||MET062METAR KFCH 251330Z AUTO 00000KT 10SM CLR 01/M02 A3028 RMK A01=||F||223|ICAO-KFCH
USW00023167|FRESNO CHANDLER DWTN AP|2022|02|25|13|55|36.7333|-119.8167|84.1|1.0||1|FM15-METAR|223|ICAO-KFCH|-3.0||1|FM15-METAR|223|ICAO-KFCH|||||||||||||999|C-Calm|9|FM15-METAR|223|ICAO-KFCH|0.0|C-Calm|1|FM15-METAR|223|ICAO-KFCH|||||||||||||75|Derived||FM15-METAR|223|ICAO-KFCH|||||||||||||||||||||||||||||||||||||||||||||||||||||||||||||||||||||||||1025.4||1|FM15-METAR|223|ICAO-KFCH|||||||||||||||||||||||||||||||||||||||||||MET062METAR KFCH 251355Z AUTO 00000KT 10SM CLR 01/M03 A3028 RMK A01=||F||223|ICAO-KFCH
USW00023167|FRESNO CHANDLER DWTN AP|2022|02|25|14|15|36.7333|-119.8167|84.1|1.0||1|FM15-METAR|223|ICAO-KFCH|-2.0||1|FM15-METAR|223|ICAO-KFCH|||||||||||||999|C-Calm|9|FM15-METAR|223|ICAO-KFCH|0.0|C-Calm|1|FM15-METAR|223|ICAO-KFCH|||||||||||||81|Derived||FM15-METAR|223|ICAO-KFCH|||||||||||||||||||||||||||||||||||||||||||||||||||||||||||||||||||||||||1025.7||1|FM15-METAR|223|ICAO-KFCH|||||||||||||||||||||||||||||||||||||||||||MET062METAR KFCH 251415Z AUTO 00000KT 10SM CLR 01/M02 A3029 RMK A01=||F||223|ICAO-KFCH
USW00023167|FRESNO CHANDLER DWTN AP|2022|02|25|14|35|36.7333|-119.8167|84.1|1.0||1|FM15-METAR|223|ICAO-KFCH|-2.0||1|FM15-METAR|223|ICAO-KFCH|||||||||||||999|C-Calm|9|FM15-METAR|223|ICAO-KFCH|0.0|C-Calm|1|FM15-METAR|223|ICAO-KFCH|||||||||||||81|Derived||FM15-METAR|223|ICAO-KFCH|||||||||||||||||||||||||||||||||||||||||||||||||||||||||||||||||||||||||1025.7||1|FM15-METAR|223|ICAO-KFCH|||||||||||||||||||||||||||||||||||||||||||MET062METAR KFCH 251435Z AUTO 00000KT 10SM CLR 01/M02 A3029 RMK A01=||F||223|ICAO-KFCH
USW00023167|FRESNO CHANDLER DWTN AP|2022|02|25|14|55|36.7333|-119.8167|84.1|1.0||1|FM15-METAR|223|ICAO-KFCH|-2.0||1|FM15-METAR|223|ICAO-KFCH|||||||||||||999|C-Calm|9|FM15-METAR|223|ICAO-KFCH|0.0|C-Calm|1|FM15-METAR|223|ICAO-KFCH|||||||||||||81|Derived||FM15-METAR|223|ICAO-KFCH|||||||||||||||||||||||||||||||||||||||||||||||||||||||||||||||||||||||||1025.7||1|FM15-METAR|223|ICAO-KFCH|||||||||||||||||||||||||||||||||||||||||||MET062METAR KFCH 251455Z AUTO 00000KT 10SM CLR 01/M02 A3029 RMK A01=||F||223|ICAO-KFCH
USW00023167|FRESNO CHANDLER DWTN AP|2022|02|25|15|15|36.7333|-119.8167|84.1|1.0||1|FM15-METAR|223|ICAO-KFCH|-2.0||1|FM15-METAR|223|ICAO-KFCH|||||||||||||999|C-Calm|9|FM15-METAR|223|ICAO-KFCH|0.0|C-Calm|1|FM15-METAR|223|ICAO-KFCH|||||||||||||81|Derived||FM15-METAR|223|ICAO-KFCH|||||||||||||||||||||||||||||||||||||||||||||||||||||||||||||||||||||||||1026.1||1|FM15-METAR|223|ICAO-KFCH|||||||||||||||||||||||||||||||||||||||||||MET062METAR KFCH 251515Z AUTO 00000KT 10SM CLR 01/M02 A3030 RMK A01=||F||223|ICAO-KFCH
USW00023167|FRESNO CHANDLER DWTN AP|2022|02|25|15|35|36.7333|-119.8167|84.1|3.0||1|FM15-METAR|223|ICAO-KFCH|-1.0||1|FM15-METAR|223|ICAO-KFCH|||||||||||||999|C-Calm|9|FM15-METAR|223|ICAO-KFCH|0.0|C-Calm|1|FM15-METAR|223|ICAO-KFCH|||||||||||||75|Derived||FM15-METAR|223|ICAO-KFCH|||||||||||||||||||||||||||||||||||||||||||||||||||||||||||||||||||||||||1026.4||1|FM15-METAR|223|ICAO-KFCH|||||||||||||||||||||||||||||||||||||||||||MET062METAR KFCH 251535Z AUTO 00000KT 10SM CLR 03/M01 A3031 RMK A01=||F||223|ICAO-KFCH
USW00023167|FRESNO CHANDLER DWTN AP|2022|02|25|15|55|36.7333|-119.8167|84.1|4.0||1|FM15-METAR|223|ICAO-KFCH|-1.0||1|FM15-METAR|223|ICAO-KFCH|||||||||||||999|C-Calm|9|FM15-METAR|223|ICAO-KFCH|0.0|C-Calm|1|FM15-METAR|223|ICAO-KFCH|||||||||||||70|Derived||FM15-METAR|223|ICAO-KFCH|||||||||||||||||||||||||||||||||||||||||||||||||||||||||||||||||||||||||1026.4||1|FM15-METAR|223|ICAO-KFCH|||||||||||||||||||||||||||||||||||||||||||MET062METAR KFCH 251555Z AUTO 00000KT 10SM CLR 04/M01 A3031 RMK A01=||F||223|ICAO-KFCH
USW00023167|FRESNO CHANDLER DWTN AP|2022|02|25|16|15|36.7333|-119.8167|84.1|6.0||1|FM15-METAR|223|ICAO-KFCH|-1.0||1|FM15-METAR|223|ICAO-KFCH|||||||||||||130|N-Normal|1|FM15-METAR|223|ICAO-KFCH|1.5|N-Normal|1|FM15-METAR|223|ICAO-KFCH|||||||||||||61|Derived||FM15-METAR|223|ICAO-KFCH|||||||||||||||||||||||||||||||||||||||||||||||||||||||||||||||||||||||||1026.4||1|FM15-METAR|223|ICAO-KFCH|||||||||||||||||||||||||||||||||||||||||||MET062METAR KFCH 251615Z AUTO 13003KT 10SM CLR 06/M01 A3031 RMK A01=||F||223|ICAO-KFCH
USW00023167|FRESNO CHANDLER DWTN AP|2022|02|25|16|35|36.7333|-119.8167|84.1|6.0||1|FM15-METAR|223|ICAO-KFCH|-1.0||1|FM15-METAR|223|ICAO-KFCH|||||||||||||150|N-Normal|1|FM15-METAR|223|ICAO-KFCH|2.1|N-Normal|1|FM15-METAR|223|ICAO-KFCH|||||||||||||61|Derived||FM15-METAR|223|ICAO-KFCH|||||||||||||||||||||||||||||||||||||||||||||||||||||||||||||||||||||||||1026.4||1|FM15-METAR|223|ICAO-KFCH|||||||||||||||||||||||||||||||||||||||||||MET062METAR KFCH 251635Z AUTO 15004KT 10SM CLR 06/M01 A3031 RMK A01=||F||223|ICAO-KFCH
USW00023167|FRESNO CHANDLER DWTN AP|2022|02|25|16|55|36.7333|-119.8167|84.1|7.0||1|FM15-METAR|223|ICAO-KFCH|-1.0||1|FM15-METAR|223|ICAO-KFCH|||||||||||||999|C-Calm|9|FM15-METAR|223|ICAO-KFCH|0.0|C-Calm|1|FM15-METAR|223|ICAO-KFCH|||||||||||||57|Derived||FM15-METAR|223|ICAO-KFCH|||||||||||||||||||||||||||||||||||||||||||||||||||||||||||||||||||||||||1026.4||1|FM15-METAR|223|ICAO-KFCH|||||||||||||||||||||||||||||||||||||||||||MET062METAR KFCH 251655Z AUTO 00000KT 10SM CLR 07/M01 A3031 RMK A01=||F||223|ICAO-KFCH
USW00023167|FRESNO CHANDLER DWTN AP|2022|02|25|17|15|36.7333|-119.8167|84.1|8.0||1|FM15-METAR|223|ICAO-KFCH|-1.0||1|FM15-METAR|223|ICAO-KFCH|||||||||||||999|C-Calm|9|FM15-METAR|223|ICAO-KFCH|0.0|C-Calm|1|FM15-METAR|223|ICAO-KFCH|||||||||||||53|Derived||FM15-METAR|223|ICAO-KFCH|||||||||||||||||||||||||||||||||||||||||||||||||||||||||||||||||||||||||1026.7||1|FM15-METAR|223|ICAO-KFCH|||||||||||||||||||||||||||||||||||||||||||MET062METAR KFCH 251715Z AUTO 00000KT 10SM CLR 08/M01 A3032 RMK A01=||F||223|ICAO-KFCH
USW00023167|FRESNO CHANDLER DWTN AP|2022|02|25|17|35|36.7333|-119.8167|84.1|8.0||1|FM15-METAR|223|ICAO-KFCH|-1.0||1|FM15-METAR|223|ICAO-KFCH|||||||||||||190|N-Normal|1|FM15-METAR|223|ICAO-KFCH|2.6|N-Normal|1|FM15-METAR|223|ICAO-KFCH|||||||||||||53|Derived||FM15-METAR|223|ICAO-KFCH|||||||||||||||||||||||||||||||||||||||||||||||||||||||||||||||||||||||||1026.7||1|FM15-METAR|223|ICAO-KFCH|||||||||||||||||||||||||||||||||||||||||||MET058METAR KFCH 251735Z AUTO 19005KT 10SM 08/M01 A3032 RMK A01=||F||223|ICAO-KFCH
USW00023167|FRESNO CHANDLER DWTN AP|2022|02|25|17|55|36.7333|-119.8167|84.1|9.0||1|FM15-METAR|223|ICAO-KFCH|-1.0||1|FM15-METAR|223|ICAO-KFCH|||||||||||||140|N-Normal|1|FM15-METAR|223|ICAO-KFCH|2.1|N-Normal|1|FM15-METAR|223|ICAO-KFCH|||||||||||||50|Derived||FM15-METAR|223|ICAO-KFCH|||||||||||||||||||||||||||||||||||||||||||||||||||||||||||||||||||||||||1026.7||1|FM15-METAR|223|ICAO-KFCH|||||||||||||||||||||||||||||||||||||||||||MET062METAR KFCH 251755Z AUTO 14004KT 10SM CLR 09/M01 A3032 RMK A01=||F||223|ICAO-KFCH
USW00023167|FRESNO CHANDLER DWTN AP|2022|02|25|18|15|36.7333|-119.8167|84.1|10.0||1|FM15-METAR|223|ICAO-KFCH|-1.0||1|FM15-METAR|223|ICAO-KFCH|||||||||||||999|C-Calm|9|FM15-METAR|223|ICAO-KFCH|0.0|C-Calm|1|FM15-METAR|223|ICAO-KFCH|||||||||||||47|Derived||FM15-METAR|223|ICAO-KFCH|||||||||||||||||||||||||||||||||||||||||||||||||||||||||||||||||||||||||1026.7||1|FM15-METAR|223|ICAO-KFCH|||||||||||||||||||||||||||||||||||||||||||MET062METAR KFCH 251815Z AUTO 00000KT 10SM CLR 10/M01 A3032 RMK A01=||F||223|ICAO-KFCH
USW00023167|FRESNO CHANDLER DWTN AP|2022|02|25|18|35|36.7333|-119.8167|84.1|10.0||1|FM15-METAR|223|ICAO-KFCH|-2.0||1|FM15-METAR|223|ICAO-KFCH|||||||||||||999|C-Calm|9|FM15-METAR|223|ICAO-KFCH|0.0|C-Calm|1|FM15-METAR|223|ICAO-KFCH|||||||||||||43|Derived||FM15-METAR|223|ICAO-KFCH|||||||||||||||||||||||||||||||||||||||||||||||||||||||||||||||||||||||||1026.7||1|FM15-METAR|223|ICAO-KFCH|||||||||||||||||||||||||||||||||||||||||||MET062METAR KFCH 251835Z AUTO 00000KT 10SM CLR 10/M02 A3032 RMK A01=||F||223|ICAO-KFCH
USW00023167|FRESNO CHANDLER DWTN AP|2022|02|25|18|55|36.7333|-119.8167|84.1|11.0||1|FM15-METAR|223|ICAO-KFCH|-1.0||1|FM15-METAR|223|ICAO-KFCH|||||||||||||999|C-Calm|9|FM15-METAR|223|ICAO-KFCH|0.0|C-Calm|1|FM15-METAR|223|ICAO-KFCH|||||||||||||44|Derived||FM15-METAR|223|ICAO-KFCH|||||||||||||||||||||||||||||||||||||||||||||||||||||||||||||||||||||||||1026.7||1|FM15-METAR|223|ICAO-KFCH|||||||||||||||||||||||||||||||||||||||||||MET062METAR KFCH 251855Z AUTO 00000KT 10SM CLR 11/M01 A3032 RMK A01=||F||223|ICAO-KFCH
USW00023167|FRESNO CHANDLER DWTN AP|2022|02|25|19|15|36.7333|-119.8167|84.1|12.0||1|FM15-METAR|223|ICAO-KFCH|-2.0||1|FM15-METAR|223|ICAO-KFCH|||||||||||||999|V-Variable|9|FM15-METAR|223|ICAO-KFCH|1.5|V-Variable|1|FM15-METAR|223|ICAO-KFCH|||||||||||||38|Derived||FM15-METAR|223|ICAO-KFCH|||||||||||||||||||||||||||||||||||||||||||||||||||||||||||||||||||||||||1026.7||1|FM15-METAR|223|ICAO-KFCH|||||||||||||||||||||||||||||||||||||||||||MET062METAR KFCH 251915Z AUTO VRB03KT 10SM CLR 12/M02 A3032 RMK A01=||F||223|ICAO-KFCH
USW00023167|FRESNO CHANDLER DWTN AP|2022|02|25|19|35|36.7333|-119.8167|84.1|12.0||1|FM15-METAR|223|ICAO-KFCH|-3.0||1|FM15-METAR|223|ICAO-KFCH|||||||||||||999|C-Calm|9|FM15-METAR|223|ICAO-KFCH|0.0|C-Calm|1|FM15-METAR|223|ICAO-KFCH|||||||||||||35|Derived||FM15-METAR|223|ICAO-KFCH|||||||||||||||||||||||||||||||||||||||||||||||||||||||||||||||||||||||||1026.4||1|FM15-METAR|223|ICAO-KFCH|||||||||||||||||||||||||||||||||||||||||||MET062METAR KFCH 251935Z AUTO 00000KT 10SM CLR 12/M03 A3031 RMK A01=||F||223|ICAO-KFCH
USW00023167|FRESNO CHANDLER DWTN AP|2022|02|25|19|50|36.7333|-119.8167|84.1|13.0||1|FM15-METAR|223|ICAO-KFCH|-3.0||1|FM15-METAR|223|ICAO-KFCH|||||||||||||999|C-Calm|9|FM15-METAR|223|ICAO-KFCH|0.0|C-Calm|1|FM15-METAR|223|ICAO-KFCH|||||||||||||33|Derived||FM15-METAR|223|ICAO-KFCH|||||||||||||||||||||||||||||||||||||||||||||||||||||||||||||||||||||||||1026.1||1|FM15-METAR|223|ICAO-KFCH|||||||||||||||||||||||||||||||||||||||||||MET062METAR KFCH 251950Z AUTO 00000KT 10SM CLR 13/M03 A3030 RMK A01=||F||223|ICAO-KFCH
USW00023167|FRESNO CHANDLER DWTN AP|2022|02|25|20|15|36.7333|-119.8167|84.1|13.0||1|FM15-METAR|223|ICAO-KFCH|-4.0||1|FM15-METAR|223|ICAO-KFCH|||||||||||||999|V-Variable|9|FM15-METAR|223|ICAO-KFCH|2.1|V-Variable|1|FM15-METAR|223|ICAO-KFCH|||||||||||||31|Derived||FM15-METAR|223|ICAO-KFCH|||||||||||||||||||||||||||||||||||||||||||||||||||||||||||||||||||||||||1025.7||1|FM15-METAR|223|ICAO-KFCH|||||||||||||||||||||||||||||||||||||||||||MET062METAR KFCH 252015Z AUTO VRB04KT 10SM CLR 13/M04 A3029 RMK A01=||F||223|ICAO-KFCH
USW00023167|FRESNO CHANDLER DWTN AP|2022|02|25|20|35|36.7333|-119.8167|84.1|14.0||1|FM15-METAR|223|ICAO-KFCH|-6.0||1|FM15-METAR|223|ICAO-KFCH|||||||||||||999|C-Calm|9|FM15-METAR|223|ICAO-KFCH|0.0|C-Calm|1|FM15-METAR|223|ICAO-KFCH|||||||||||||25|Derived||FM15-METAR|223|ICAO-KFCH|||||||||||||||||||||||||||||||||||||||||||||||||||||||||||||||||||||||||1025.4||1|FM15-METAR|223|ICAO-KFCH|||||||||||||||||||||||||||||||||||||||||||MET062METAR KFCH 252035Z AUTO 00000KT 10SM CLR 14/M06 A3028 RMK A01=||F||223|ICAO-KFCH
USW00023167|FRESNO CHANDLER DWTN AP|2022|02|25|20|55|36.7333|-119.8167|84.1|14.0||1|FM15-METAR|223|ICAO-KFCH|-6.0||1|FM15-METAR|223|ICAO-KFCH|||||||||||||260|N-Normal|1|FM15-METAR|223|ICAO-KFCH|3.1|N-Normal|1|FM15-METAR|223|ICAO-KFCH|||||||||||||25|Derived||FM15-METAR|223|ICAO-KFCH|||||||||||||||||||||||||||||||||||||||||||||||||||||||||||||||||||||||||1025.1||1|FM15-METAR|223|ICAO-KFCH|||||||||||||||||||||||||||||||||||||||||||MET062METAR KFCH 252055Z AUTO 26006KT 10SM CLR 14/M06 A3027 RMK A01=||F||223|ICAO-KFCH
USW00023167|FRESNO CHANDLER DWTN AP|2022|02|25|21|15|36.7333|-119.8167|84.1|14.0||1|FM15-METAR|223|ICAO-KFCH|-5.0||1|FM15-METAR|223|ICAO-KFCH|||||||||||||340|N-Normal|1|FM15-METAR|223|ICAO-KFCH|2.6|N-Normal|1|FM15-METAR|223|ICAO-KFCH|8.8||1|FM15-METAR|223|ICAO-KFCH|||||||27|Derived||FM15-METAR|223|ICAO-KFCH|||||||||||||||||||||||||||||||||||||||||||||||||||||||||||||||||||||||||1025.1||1|FM15-METAR|223|ICAO-KFCH|||||||||||||||||||||||||||||||||||||||||||MET065METAR KFCH 252115Z AUTO 34005G17KT 10SM CLR 14/M05 A3027 RMK A01=||F||223|ICAO-KFCH
USW00023167|FRESNO CHANDLER DWTN AP|2022|02|25|21|30|36.7333|-119.8167|84.1|15.0||1|FM15-METAR|223|ICAO-KFCH|-7.0||1|FM15-METAR|223|ICAO-KFCH|||||||||||||270|N-Normal|1|FM15-METAR|223|ICAO-KFCH|4.1|N-Normal|1|FM15-METAR|223|ICAO-KFCH|||||||||||||21|Derived||FM15-METAR|223|ICAO-KFCH|||||||||||||||||||||||||||||||||||||||||||||||||||||||||||||||||||||||||1024.7||1|FM15-METAR|223|ICAO-KFCH|||||||||||||||||||||||||||||||||||||||||||MET062METAR KFCH 252130Z AUTO 27008KT 10SM CLR 15/M07 A3026 RMK A01=||F||223|ICAO-KFCH
USW00023167|FRESNO CHANDLER DWTN AP|2022|02|25|21|55|36.7333|-119.8167|84.1|15.0||1|FM15-METAR|223|ICAO-KFCH|-7.0||1|FM15-METAR|223|ICAO-KFCH|||||||||||||999|V-Variable|9|FM15-METAR|223|ICAO-KFCH|2.6|V-Variable|1|FM15-METAR|223|ICAO-KFCH|6.2||1|FM15-METAR|223|ICAO-KFCH|||||||21|Derived||FM15-METAR|223|ICAO-KFCH|||||||||||||||||||||||||||||||||||||||||||||||||||||||||||||||||||||||||1024.4||1|FM15-METAR|223|ICAO-KFCH|||||||||||||||||||||||||||||||||||||||||||MET065METAR KFCH 252155Z AUTO VRB05G12KT 10SM CLR 15/M07 A3025 RMK A01=||F||223|ICAO-KFCH
USW00023167|FRESNO CHANDLER DWTN AP|2022|02|25|22|15|36.7333|-119.8167|84.1|15.0||1|FM15-METAR|223|ICAO-KFCH|-6.0||1|FM15-METAR|223|ICAO-KFCH|||||||||||||999|C-Calm|9|FM15-METAR|223|ICAO-KFCH|0.0|C-Calm|1|FM15-METAR|223|ICAO-KFCH|||||||||||||23|Derived||FM15-METAR|223|ICAO-KFCH|||||||||||||||||||||||||||||||||||||||||||||||||||||||||||||||||||||||||1024.4||1|FM15-METAR|223|ICAO-KFCH|||||||||||||||||||||||||||||||||||||||||||MET062METAR KFCH 252215Z AUTO 00000KT 10SM CLR 15/M06 A3025 RMK A01=||F||223|ICAO-KFCH
USW00023167|FRESNO CHANDLER DWTN AP|2022|02|25|22|35|36.7333|-119.8167|84.1|15.0||1|FM15-METAR|223|ICAO-KFCH|-6.0||1|FM15-METAR|223|ICAO-KFCH|||||||||||||310|N-Normal|1|FM15-METAR|223|ICAO-KFCH|3.6|N-Normal|1|FM15-METAR|223|ICAO-KFCH|||||||||||||23|Derived||FM15-METAR|223|ICAO-KFCH|||||||||||||||||||||||||||||||||||||||||||||||||||||||||||||||||||||||||1024.0||1|FM15-METAR|223|ICAO-KFCH|||||||||||||||||||||||||||||||||||||||||||MET062METAR KFCH 252235Z AUTO 31007KT 10SM CLR 15/M06 A3024 RMK A01=||F||223|ICAO-KFCH
USW00023167|FRESNO CHANDLER DWTN AP|2022|02|25|22|55|36.7333|-119.8167|84.1|15.0||1|FM15-METAR|223|ICAO-KFCH|-6.0||1|FM15-METAR|223|ICAO-KFCH|||||||||||||999|C-Calm|9|FM15-METAR|223|ICAO-KFCH|0.0|C-Calm|1|FM15-METAR|223|ICAO-KFCH|||||||||||||23|Derived||FM15-METAR|223|ICAO-KFCH|||||||||||||||||||||||||||||||||||||||||||||||||||||||||||||||||||||||||1024.0||1|FM15-METAR|223|ICAO-KFCH|||||||||||||||||||||||||||||||||||||||||||MET062METAR KFCH 252255Z AUTO 00000KT 10SM CLR 15/M06 A3024 RMK A01=||F||223|ICAO-KFCH
USW00023167|FRESNO CHANDLER DWTN AP|2022|02|25|23|15|36.7333|-119.8167|84.1|16.0||1|FM15-METAR|223|ICAO-KFCH|-6.0||1|FM15-METAR|223|ICAO-KFCH|||||||||||||330|N-Normal|1|FM15-METAR|223|ICAO-KFCH|2.1|N-Normal|1|FM15-METAR|223|ICAO-KFCH|||||||||||||22|Derived||FM15-METAR|223|ICAO-KFCH|||||||||||||||||||||||||||||||||||||||||||||||||||||||||||||||||||||||||1023.7||1|FM15-METAR|223|ICAO-KFCH|||||||||||||||||||||||||||||||||||||||||||MET062METAR KFCH 252315Z AUTO 33004KT 10SM CLR 16/M06 A3023 RMK A01=||F||223|ICAO-KFCH
USW00023167|FRESNO CHANDLER DWTN AP|2022|02|25|23|35|36.7333|-119.8167|84.1|15.0||1|FM15-METAR|223|ICAO-KFCH|-7.0||1|FM15-METAR|223|ICAO-KFCH|||||||||||||280|N-Normal|1|FM15-METAR|223|ICAO-KFCH|2.1|N-Normal|1|FM15-METAR|223|ICAO-KFCH|||||||||||||21|Derived||FM15-METAR|223|ICAO-KFCH|||||||||||||||||||||||||||||||||||||||||||||||||||||||||||||||||||||||||1023.4||1|FM15-METAR|223|ICAO-KFCH|||||||||||||||||||||||||||||||||||||||||||MET062METAR KFCH 252335Z AUTO 28004KT 10SM CLR 15/M07 A3022 RMK A01=||F||223|ICAO-KFCH
USW00023167|FRESNO CHANDLER DWTN AP|2022|02|25|23|55|36.7333|-119.8167|84.1|15.0||1|FM15-METAR|223|ICAO-KFCH|-7.0||1|FM15-METAR|223|ICAO-KFCH|||||||||||||270|N-Normal|1|FM15-METAR|223|ICAO-KFCH|2.1|N-Normal|1|FM15-METAR|223|ICAO-KFCH|||||||||||||21|Derived||FM15-METAR|223|ICAO-KFCH|||||||||||||||||||||||||||||||||||||||||||||||||||||||||||||||||||||||||1023.4||1|FM15-METAR|223|ICAO-KFCH|||||||||||||||||||||||||||||||||||||||||||MET062METAR KFCH 252355Z AUTO 27004KT 10SM CLR 15/M07 A3022 RMK A01=||F||223|ICAO-KFCH
USW00023167|FRESNO CHANDLER DWTN AP|2022|02|26|00|15|36.7333|-119.8167|84.1|15.0||1|FM15-METAR|223|ICAO-KFCH|-6.0||1|FM15-METAR|223|ICAO-KFCH|||||||||||||320|N-Normal|1|FM15-METAR|223|ICAO-KFCH|3.6|N-Normal|1|FM15-METAR|223|ICAO-KFCH|||||||||||||23|Derived||FM15-METAR|223|ICAO-KFCH|||||||||||||||||||||||||||||||||||||||||||||||||||||||||||||||||||||||||1023.4||1|FM15-METAR|223|ICAO-KFCH|||||||||||||||||||||||||||||||||||||||||||MET062METAR KFCH 260015Z AUTO 32007KT 10SM CLR 15/M06 A3022 RMK A01=||F||223|ICAO-KFCH
USW00023167|FRESNO CHANDLER DWTN AP|2022|02|26|00|35|36.7333|-119.8167|84.1|15.0||1|FM15-METAR|223|ICAO-KFCH|-6.0||1|FM15-METAR|223|ICAO-KFCH|||||||||||||999|V-Variable|9|FM15-METAR|223|ICAO-KFCH|2.6|V-Variable|1|FM15-METAR|223|ICAO-KFCH|||||||||||||23|Derived||FM15-METAR|223|ICAO-KFCH|||||||||||||||||||||||||||||||||||||||||||||||||||||||||||||||||||||||||1023.4||1|FM15-METAR|223|ICAO-KFCH|||||||||||||||||||||||||||||||||||||||||||MET062METAR KFCH 260035Z AUTO VRB05KT 10SM CLR 15/M06 A3022 RMK A01=||F||223|ICAO-KFCH
USW00023167|FRESNO CHANDLER DWTN AP|2022|02|26|00|55|36.7333|-119.8167|84.1|15.0||1|FM15-METAR|223|ICAO-KFCH|-7.0||1|FM15-METAR|223|ICAO-KFCH|||||||||||||280|N-Normal|1|FM15-METAR|223|ICAO-KFCH|4.1|N-Normal|1|FM15-METAR|223|ICAO-KFCH|||||||||||||21|Derived||FM15-METAR|223|ICAO-KFCH|||||||||||||||||||||||||||||||||||||||||||||||||||||||||||||||||||||||||1023.4||1|FM15-METAR|223|ICAO-KFCH|||||||||||||||||||||||||||||||||||||||||||MET062METAR KFCH 260055Z AUTO 28008KT 10SM CLR 15/M07 A3022 RMK A01=||F||223|ICAO-KFCH
USW00023167|FRESNO CHANDLER DWTN AP|2022|02|26|01|15|36.7333|-119.8167|84.1|15.0||1|FM15-METAR|223|ICAO-KFCH|-6.0||1|FM15-METAR|223|ICAO-KFCH|||||||||||||300|N-Normal|1|FM15-METAR|223|ICAO-KFCH|4.1|N-Normal|1|FM15-METAR|223|ICAO-KFCH|||||||||||||23|Derived||FM15-METAR|223|ICAO-KFCH|||||||||||||||||||||||||||||||||||||||||||||||||||||||||||||||||||||||||1023.7||1|FM15-METAR|223|ICAO-KFCH|||||||||||||||||||||||||||||||||||||||||||MET062METAR KFCH 260115Z AUTO 30008KT 10SM CLR 15/M06 A3023 RMK A01=||F||223|ICAO-KFCH
USW00023167|FRESNO CHANDLER DWTN AP|2022|02|26|01|35|36.7333|-119.8167|84.1|14.0||1|FM15-METAR|223|ICAO-KFCH|-6.0||1|FM15-METAR|223|ICAO-KFCH|||||||||||||310|N-Normal|1|FM15-METAR|223|ICAO-KFCH|3.6|N-Normal|1|FM15-METAR|223|ICAO-KFCH|||||||||||||25|Derived||FM15-METAR|223|ICAO-KFCH|||||||||||||||||||||||||||||||||||||||||||||||||||||||||||||||||||||||||1023.7||1|FM15-METAR|223|ICAO-KFCH|||||||||||||||||||||||||||||||||||||||||||MET062METAR KFCH 260135Z AUTO 31007KT 10SM CLR 14/M06 A3023 RMK A01=||F||223|ICAO-KFCH
USW00023167|FRESNO CHANDLER DWTN AP|2022|02|26|01|55|36.7333|-119.8167|84.1|13.0||1|FM15-METAR|223|ICAO-KFCH|-6.0||1|FM15-METAR|223|ICAO-KFCH|||||||||||||310|N-Normal|1|FM15-METAR|223|ICAO-KFCH|2.6|N-Normal|1|FM15-METAR|223|ICAO-KFCH|||||||||||||26|Derived||FM15-METAR|223|ICAO-KFCH|||||||||||||||||||||||||||||||||||||||||||||||||||||||||||||||||||||||||1024.0||1|FM15-METAR|223|ICAO-KFCH|||||||||||||||||||||||||||||||||||||||||||MET062METAR KFCH 260155Z AUTO 31005KT 10SM CLR 13/M06 A3024 RMK A01=||F||223|ICAO-KFCH
USW00023167|FRESNO CHANDLER DWTN AP|2022|02|26|02|15|36.7333|-119.8167|84.1|13.0||1|FM15-METAR|223|ICAO-KFCH|-5.0||1|FM15-METAR|223|ICAO-KFCH|||||||||||||320|N-Normal|1|FM15-METAR|223|ICAO-KFCH|2.1|N-Normal|1|FM15-METAR|223|ICAO-KFCH|||||||||||||28|Derived||FM15-METAR|223|ICAO-KFCH|||||||||||||||||||||||||||||||||||||||||||||||||||||||||||||||||||||||||1024.4||1|FM15-METAR|223|ICAO-KFCH|||||||||||||||||||||||||||||||||||||||||||MET062METAR KFCH 260215Z AUTO 32004KT 10SM CLR 13/M05 A3025 RMK A01=||F||223|ICAO-KFCH
USW00023167|FRESNO CHANDLER DWTN AP|2022|02|26|02|35|36.7333|-119.8167|84.1|12.0||1|FM15-METAR|223|ICAO-KFCH|-5.0||1|FM15-METAR|223|ICAO-KFCH|||||||||||||320|N-Normal|1|FM15-METAR|223|ICAO-KFCH|1.5|N-Normal|1|FM15-METAR|223|ICAO-KFCH|||||||||||||30|Derived||FM15-METAR|223|ICAO-KFCH|||||||||||||||||||||||||||||||||||||||||||||||||||||||||||||||||||||||||1024.4||1|FM15-METAR|223|ICAO-KFCH|||||||||||||||||||||||||||||||||||||||||||MET062METAR KFCH 260235Z AUTO 32003KT 10SM CLR 12/M05 A3025 RMK A01=||F||223|ICAO-KFCH
USW00023167|FRESNO CHANDLER DWTN AP|2022|02|26|02|55|36.7333|-119.8167|84.1|11.0||1|FM15-METAR|223|ICAO-KFCH|-4.0||1|FM15-METAR|223|ICAO-KFCH|||||||||||||999|C-Calm|9|FM15-METAR|223|ICAO-KFCH|0.0|C-Calm|1|FM15-METAR|223|ICAO-KFCH|||||||||||||35|Derived||FM15-METAR|223|ICAO-KFCH|||||||||||||||||||||||||||||||||||||||||||||||||||||||||||||||||||||||||1024.7||1|FM15-METAR|223|ICAO-KFCH|||||||||||||||||||||||||||||||||||||||||||MET058METAR KFCH 260255Z AUTO 00000KT 10SM 11/M04 A3026 RMK A01=||F||223|ICAO-KFCH
USW00023167|FRESNO CHANDLER DWTN AP|2022|02|26|03|15|36.7333|-119.8167|84.1|11.0||1|FM15-METAR|223|ICAO-KFCH|-4.0||1|FM15-METAR|223|ICAO-KFCH|||||||||||||350|N-Normal|1|FM15-METAR|223|ICAO-KFCH|1.5|N-Normal|1|FM15-METAR|223|ICAO-KFCH|||||||||||||35|Derived||FM15-METAR|223|ICAO-KFCH|||||||||||||||||||||||||||||||||||||||||||||||||||||||||||||||||||||||||1024.7||1|FM15-METAR|223|ICAO-KFCH|||||||||||||||||||||||||||||||||||||||||||MET062METAR KFCH 260315Z AUTO 35003KT 10SM CLR 11/M04 A3026 RMK A01=||F||223|ICAO-KFCH
USW00023167|FRESNO CHANDLER DWTN AP|2022|02|26|03|30|36.7333|-119.8167|84.1|11.0||1|FM15-METAR|223|ICAO-KFCH|-2.0||1|FM15-METAR|223|ICAO-KFCH|||||||||||||310|N-Normal|1|FM15-METAR|223|ICAO-KFCH|1.5|N-Normal|1|FM15-METAR|223|ICAO-KFCH|||||||||||||41|Derived||FM15-METAR|223|ICAO-KFCH|||||||||||||||||||||||||||||||||||||||||||||||||||||||||||||||||||||||||1025.1||1|FM15-METAR|223|ICAO-KFCH|||||||||||||||||||||||||||||||||||||||||||MET062METAR KFCH 260330Z AUTO 31003KT 10SM CLR 11/M02 A3027 RMK A01=||F||223|ICAO-KFCH
USW00023167|FRESNO CHANDLER DWTN AP|2022|02|26|03|55|36.7333|-119.8167|84.1|10.0||1|FM15-METAR|223|ICAO-KFCH|-3.0||1|FM15-METAR|223|ICAO-KFCH|||||||||||||999|C-Calm|9|FM15-METAR|223|ICAO-KFCH|0.0|C-Calm|1|FM15-METAR|223|ICAO-KFCH|||||||||||||40|Derived||FM15-METAR|223|ICAO-KFCH|||||||||||||||||||||||||||||||||||||||||||||||||||||||||||||||||||||||||1025.1||1|FM15-METAR|223|ICAO-KFCH|||||||||||||||||||||||||||||||||||||||||||MET062METAR KFCH 260355Z AUTO 00000KT 10SM CLR 10/M03 A3027 RMK A01=||F||223|ICAO-KFCH
USW00023167|FRESNO CHANDLER DWTN AP|2022|02|26|04|10|36.7333|-119.8167|84.1|9.0||1|FM15-METAR|223|ICAO-KFCH|-3.0||1|FM15-METAR|223|ICAO-KFCH|||||||||||||999|C-Calm|9|FM15-METAR|223|ICAO-KFCH|0.0|C-Calm|1|FM15-METAR|223|ICAO-KFCH|||||||||||||43|Derived||FM15-METAR|223|ICAO-KFCH|||||||||||||||||||||||||||||||||||||||||||||||||||||||||||||||||||||||||1025.1||1|FM15-METAR|223|ICAO-KFCH|||||||||||||||||||||||||||||||||||||||||||MET062METAR KFCH 260410Z AUTO 00000KT 10SM CLR 09/M03 A3027 RMK A01=||F||223|ICAO-KFCH
USW00023167|FRESNO CHANDLER DWTN AP|2022|02|26|04|30|36.7333|-119.8167|84.1|9.0||1|FM15-METAR|223|ICAO-KFCH|-2.0||1|FM15-METAR|223|ICAO-KFCH|||||||||||||999|C-Calm|9|FM15-METAR|223|ICAO-KFCH|0.0|C-Calm|1|FM15-METAR|223|ICAO-KFCH|||||||||||||46|Derived||FM15-METAR|223|ICAO-KFCH|||||||||||||||||||||||||||||||||||||||||||||||||||||||||||||||||||||||||1025.4||1|FM15-METAR|223|ICAO-KFCH|||||||||||||||||||||||||||||||||||||||||||MET062METAR KFCH 260430Z AUTO 00000KT 10SM CLR 09/M02 A3028 RMK A01=||F||223|ICAO-KFCH
USW00023167|FRESNO CHANDLER DWTN AP|2022|02|26|04|55|36.7333|-119.8167|84.1|9.0||1|FM15-METAR|223|ICAO-KFCH|-2.0||1|FM15-METAR|223|ICAO-KFCH|||||||||||||999|C-Calm|9|FM15-METAR|223|ICAO-KFCH|0.0|C-Calm|1|FM15-METAR|223|ICAO-KFCH|||||||||||||46|Derived||FM15-METAR|223|ICAO-KFCH|||||||||||||||||||||||||||||||||||||||||||||||||||||||||||||||||||||||||1025.7||1|FM15-METAR|223|ICAO-KFCH|||||||||||||||||||||||||||||||||||||||||||MET062METAR KFCH 260455Z AUTO 00000KT 10SM CLR 09/M02 A3029 RMK A01=||F||223|ICAO-KFCH
USW00023167|FRESNO CHANDLER DWTN AP|2022|02|26|05|10|36.7333|-119.8167|84.1|8.0||1|FM15-METAR|223|ICAO-KFCH|-2.0||1|FM15-METAR|223|ICAO-KFCH|||||||||||||999|C-Calm|9|FM15-METAR|223|ICAO-KFCH|0.0|C-Calm|1|FM15-METAR|223|ICAO-KFCH|||||||||||||50|Derived||FM15-METAR|223|ICAO-KFCH|||||||||||||||||||||||||||||||||||||||||||||||||||||||||||||||||||||||||1025.7||1|FM15-METAR|223|ICAO-KFCH|||||||||||||||||||||||||||||||||||||||||||MET062METAR KFCH 260510Z AUTO 00000KT 10SM CLR 08/M02 A3029 RMK A01=||F||223|ICAO-KFCH
USW00023167|FRESNO CHANDLER DWTN AP|2022|02|26|05|35|36.7333|-119.8167|84.1|8.0||1|FM15-METAR|223|ICAO-KFCH|-2.0||1|FM15-METAR|223|ICAO-KFCH|||||||||||||999|C-Calm|9|FM15-METAR|223|ICAO-KFCH|0.0|C-Calm|1|FM15-METAR|223|ICAO-KFCH|||||||||||||50|Derived||FM15-METAR|223|ICAO-KFCH|||||||||||||||||||||||||||||||||||||||||||||||||||||||||||||||||||||||||1026.1||1|FM15-METAR|223|ICAO-KFCH|||||||||||||||||||||||||||||||||||||||||||MET058METAR KFCH 260535Z AUTO 00000KT 10SM 08/M02 A3030 RMK A01=||F||223|ICAO-KFCH
USW00023167|FRESNO CHANDLER DWTN AP|2022|02|26|05|55|36.7333|-119.8167|84.1|7.0||1|FM15-METAR|223|ICAO-KFCH|-2.0||1|FM15-METAR|223|ICAO-KFCH|||||||||||||999|C-Calm|9|FM15-METAR|223|ICAO-KFCH|0.0|C-Calm|1|FM15-METAR|223|ICAO-KFCH|||||||||||||53|Derived||FM15-METAR|223|ICAO-KFCH|||||||||||||||||||||||||||||||||||||||||||||||||||||||||||||||||||||||||1026.1||1|FM15-METAR|223|ICAO-KFCH|||||||||||||||||||||||||||||||||||||||||||MET062METAR KFCH 260555Z AUTO 00000KT 10SM CLR 07/M02 A3030 RMK A01=||F||223|ICAO-KFCH
USW00023167|FRESNO CHANDLER DWTN AP|2022|02|26|06|15|36.7333|-119.8167|84.1|7.0||1|FM15-METAR|223|ICAO-KFCH|-1.0||1|FM15-METAR|223|ICAO-KFCH|||||||||||||999|C-Calm|9|FM15-METAR|223|ICAO-KFCH|0.0|C-Calm|1|FM15-METAR|223|ICAO-KFCH|||||||||||||57|Derived||FM15-METAR|223|ICAO-KFCH|||||||||||||||||||||||||||||||||||||||||||||||||||||||||||||||||||||||||1026.1||1|FM15-METAR|223|ICAO-KFCH|||||||||||||||||||||||||||||||||||||||||||MET062METAR KFCH 260615Z AUTO 00000KT 10SM CLR 07/M01 A3030 RMK A01=||F||223|ICAO-KFCH
USW00023167|FRESNO CHANDLER DWTN AP|2022|02|26|06|35|36.7333|-119.8167|84.1|6.0||1|FM15-METAR|223|ICAO-KFCH|-1.0||1|FM15-METAR|223|ICAO-KFCH|||||||||||||999|C-Calm|9|FM15-METAR|223|ICAO-KFCH|0.0|C-Calm|1|FM15-METAR|223|ICAO-KFCH|||||||||||||61|Derived||FM15-METAR|223|ICAO-KFCH|||||||||||||||||||||||||||||||||||||||||||||||||||||||||||||||||||||||||1026.1||1|FM15-METAR|223|ICAO-KFCH|||||||||||||||||||||||||||||||||||||||||||MET062METAR KFCH 260635Z AUTO 00000KT 10SM CLR 06/M01 A3030 RMK A01=||F||223|ICAO-KFCH
USW00023167|FRESNO CHANDLER DWTN AP|2022|02|26|06|55|36.7333|-119.8167|84.1|6.0||1|FM15-METAR|223|ICAO-KFCH|-2.0||1|FM15-METAR|223|ICAO-KFCH|||||||||||||999|C-Calm|9|FM15-METAR|223|ICAO-KFCH|0.0|C-Calm|1|FM15-METAR|223|ICAO-KFCH|||||||||||||57|Derived||FM15-METAR|223|ICAO-KFCH|||||||||||||||||||||||||||||||||||||||||||||||||||||||||||||||||||||||||1026.1||1|FM15-METAR|223|ICAO-KFCH|||||||||||||||||||||||||||||||||||||||||||MET062METAR KFCH 260655Z AUTO 00000KT 10SM CLR 06/M02 A3030 RMK A01=||F||223|ICAO-KFCH
USW00023167|FRESNO CHANDLER DWTN AP|2022|02|26|07|15|36.7333|-119.8167|84.1|6.0||1|FM15-METAR|223|ICAO-KFCH|-2.0||1|FM15-METAR|223|ICAO-KFCH|||||||||||||999|C-Calm|9|FM15-METAR|223|ICAO-KFCH|0.0|C-Calm|1|FM15-METAR|223|ICAO-KFCH|||||||||||||57|Derived||FM15-METAR|223|ICAO-KFCH|||||||||||||||||||||||||||||||||||||||||||||||||||||||||||||||||||||||||1026.1||1|FM15-METAR|223|ICAO-KFCH|||||||||||||||||||||||||||||||||||||||||||MET062METAR KFCH 260715Z AUTO 00000KT 10SM CLR 06/M02 A3030 RMK A01=||F||223|ICAO-KFCH
USW00023167|FRESNO CHANDLER DWTN AP|2022|02|26|07|35|36.7333|-119.8167|84.1|5.0||1|FM15-METAR|223|ICAO-KFCH|-1.0||1|FM15-METAR|223|ICAO-KFCH|||||||||||||999|C-Calm|9|FM15-METAR|223|ICAO-KFCH|0.0|C-Calm|1|FM15-METAR|223|ICAO-KFCH|||||||||||||66|Derived||FM15-METAR|223|ICAO-KFCH|||||||||||||||||||||||||||||||||||||||||||||||||||||||||||||||||||||||||1026.1||1|FM15-METAR|223|ICAO-KFCH|||||||||||||||||||||||||||||||||||||||||||MET062METAR KFCH 260735Z AUTO 00000KT 10SM CLR 05/M01 A3030 RMK A01=||F||223|ICAO-KFCH
USW00023167|FRESNO CHANDLER DWTN AP|2022|02|26|07|55|36.7333|-119.8167|84.1|5.0||1|FM15-METAR|223|ICAO-KFCH|-2.0||1|FM15-METAR|223|ICAO-KFCH|||||||||||||999|C-Calm|9|FM15-METAR|223|ICAO-KFCH|0.0|C-Calm|1|FM15-METAR|223|ICAO-KFCH|||||||||||||61|Derived||FM15-METAR|223|ICAO-KFCH|||||||||||||||||||||||||||||||||||||||||||||||||||||||||||||||||||||||||1026.1||1|FM15-METAR|223|ICAO-KFCH|||||||||||||||||||||||||||||||||||||||||||MET062METAR KFCH 260755Z AUTO 00000KT 10SM CLR 05/M02 A3030 RMK A01=||F||223|ICAO-KFCH
USW00023167|FRESNO CHANDLER DWTN AP|2022|02|26|08|15|36.7333|-119.8167|84.1|5.0||1|FM15-METAR|223|ICAO-KFCH|-1.0||1|FM15-METAR|223|ICAO-KFCH|||||||||||||999|C-Calm|9|FM15-METAR|223|ICAO-KFCH|0.0|C-Calm|1|FM15-METAR|223|ICAO-KFCH|||||||||||||66|Derived||FM15-METAR|223|ICAO-KFCH|||||||||||||||||||||||||||||||||||||||||||||||||||||||||||||||||||||||||1026.1||1|FM15-METAR|223|ICAO-KFCH|||||||||||||||||||||||||||||||||||||||||||MET062METAR KFCH 260815Z AUTO 00000KT 10SM CLR 05/M01 A3030 RMK A01=||F||223|ICAO-KFCH
USW00023167|FRESNO CHANDLER DWTN AP|2022|02|26|08|35|36.7333|-119.8167|84.1|4.0||1|FM15-METAR|223|ICAO-KFCH|-1.0||1|FM15-METAR|223|ICAO-KFCH|||||||||||||999|C-Calm|9|FM15-METAR|223|ICAO-KFCH|0.0|C-Calm|1|FM15-METAR|223|ICAO-KFCH|||||||||||||70|Derived||FM15-METAR|223|ICAO-KFCH|||||||||||||||||||||||||||||||||||||||||||||||||||||||||||||||||||||||||1026.1||1|FM15-METAR|223|ICAO-KFCH|||||||||||||||||||||||||||||||||||||||||||MET062METAR KFCH 260835Z AUTO 00000KT 10SM CLR 04/M01 A3030 RMK A01=||F||223|ICAO-KFCH
USW00023167|FRESNO CHANDLER DWTN AP|2022|02|26|08|55|36.7333|-119.8167|84.1|4.0||1|FM15-METAR|223|ICAO-KFCH|-1.0||1|FM15-METAR|223|ICAO-KFCH|||||||||||||999|C-Calm|9|FM15-METAR|223|ICAO-KFCH|0.0|C-Calm|1|FM15-METAR|223|ICAO-KFCH|||||||||||||70|Derived||FM15-METAR|223|ICAO-KFCH|||||||||||||||||||||||||||||||||||||||||||||||||||||||||||||||||||||||||1026.1||1|FM15-METAR|223|ICAO-KFCH|||||||||||||||||||||||||||||||||||||||||||MET062METAR KFCH 260855Z AUTO 00000KT 10SM CLR 04/M01 A3030 RMK A01=||F||223|ICAO-KFCH
USW00023167|FRESNO CHANDLER DWTN AP|2022|02|26|09|15|36.7333|-119.8167|84.1|4.0||1|FM15-METAR|223|ICAO-KFCH|-1.0||1|FM15-METAR|223|ICAO-KFCH|||||||||||||999|C-Calm|9|FM15-METAR|223|ICAO-KFCH|0.0|C-Calm|1|FM15-METAR|223|ICAO-KFCH|||||||||||||70|Derived||FM15-METAR|223|ICAO-KFCH|||||||||||||||||||||||||||||||||||||||||||||||||||||||||||||||||||||||||1026.1||1|FM15-METAR|223|ICAO-KFCH|||||||||||||||||||||||||||||||||||||||||||MET062METAR KFCH 260915Z AUTO 00000KT 10SM CLR 04/M01 A3030 RMK A01=||F||223|ICAO-KFCH
USW00023167|FRESNO CHANDLER DWTN AP|2022|02|26|09|30|36.7333|-119.8167|84.1|4.0||1|FM15-METAR|223|ICAO-KFCH|-1.0||1|FM15-METAR|223|ICAO-KFCH|||||||||||||999|C-Calm|9|FM15-METAR|223|ICAO-KFCH|0.0|C-Calm|1|FM15-METAR|223|ICAO-KFCH|||||||||||||70|Derived||FM15-METAR|223|ICAO-KFCH|||||||||||||||||||||||||||||||||||||||||||||||||||||||||||||||||||||||||1025.7||1|FM15-METAR|223|ICAO-KFCH|||||||||||||||||||||||||||||||||||||||||||MET062METAR KFCH 260930Z AUTO 00000KT 10SM CLR 04/M01 A3029 RMK A01=||F||223|ICAO-KFCH
USW00023167|FRESNO CHANDLER DWTN AP|2022|02|26|09|50|36.7333|-119.8167|84.1|3.0||1|FM15-METAR|223|ICAO-KFCH|-2.0||1|FM15-METAR|223|ICAO-KFCH|||||||||||||999|C-Calm|9|FM15-METAR|223|ICAO-KFCH|0.0|C-Calm|1|FM15-METAR|223|ICAO-KFCH|||||||||||||70|Derived||FM15-METAR|223|ICAO-KFCH|||||||||||||||||||||||||||||||||||||||||||||||||||||||||||||||||||||||||1025.7||1|FM15-METAR|223|ICAO-KFCH|||||||||||||||||||||||||||||||||||||||||||MET062METAR KFCH 260950Z AUTO 00000KT 10SM CLR 03/M02 A3029 RMK A01=||F||223|ICAO-KFCH
USW00023167|FRESNO CHANDLER DWTN AP|2022|02|26|10|15|36.7333|-119.8167|84.1|3.0||1|FM15-METAR|223|ICAO-KFCH|-2.0||1|FM15-METAR|223|ICAO-KFCH|||||||||||||030|N-Normal|1|FM15-METAR|223|ICAO-KFCH|1.5|N-Normal|1|FM15-METAR|223|ICAO-KFCH|||||||||||||70|Derived||FM15-METAR|223|ICAO-KFCH|||||||||||||||||||||||||||||||||||||||||||||||||||||||||||||||||||||||||1025.7||1|FM15-METAR|223|ICAO-KFCH|||||||||||||||||||||||||||||||||||||||||||MET062METAR KFCH 261015Z AUTO 03003KT 10SM CLR 03/M02 A3029 RMK A01=||F||223|ICAO-KFCH
USW00023167|FRESNO CHANDLER DWTN AP|2022|02|26|10|35|36.7333|-119.8167|84.1|3.0||1|FM15-METAR|223|ICAO-KFCH|-2.0||1|FM15-METAR|223|ICAO-KFCH|||||||||||||070|N-Normal|1|FM15-METAR|223|ICAO-KFCH|2.1|N-Normal|1|FM15-METAR|223|ICAO-KFCH|||||||||||||70|Derived||FM15-METAR|223|ICAO-KFCH|||||||||||||||||||||||||||||||||||||||||||||||||||||||||||||||||||||||||1025.7||1|FM15-METAR|223|ICAO-KFCH|||||||||||||||||||||||||||||||||||||||||||MET062METAR KFCH 261035Z AUTO 07004KT 10SM CLR 03/M02 A3029 RMK A01=||F||223|ICAO-KFCH
USW00023167|FRESNO CHANDLER DWTN AP|2022|02|26|10|50|36.7333|-119.8167|84.1|4.0||1|FM15-METAR|223|ICAO-KFCH|-2.0||1|FM15-METAR|223|ICAO-KFCH|||||||||||||999|C-Calm|9|FM15-METAR|223|ICAO-KFCH|0.0|C-Calm|1|FM15-METAR|223|ICAO-KFCH|||||||||||||65|Derived||FM15-METAR|223|ICAO-KFCH|||||||||||||||||||||||||||||||||||||||||||||||||||||||||||||||||||||||||1025.7||1|FM15-METAR|223|ICAO-KFCH|||||||||||||||||||||||||||||||||||||||||||MET062METAR KFCH 261050Z AUTO 00000KT 10SM CLR 04/M02 A3029 RMK A01=||F||223|ICAO-KFCH
USW00023167|FRESNO CHANDLER DWTN AP|2022|02|26|11|15|36.7333|-119.8167|84.1|3.0||1|FM15-METAR|223|ICAO-KFCH|-2.0||1|FM15-METAR|223|ICAO-KFCH|||||||||||||999|C-Calm|9|FM15-METAR|223|ICAO-KFCH|0.0|C-Calm|1|FM15-METAR|223|ICAO-KFCH|||||||||||||70|Derived||FM15-METAR|223|ICAO-KFCH|||||||||||||||||||||||||||||||||||||||||||||||||||||||||||||||||||||||||1026.1||1|FM15-METAR|223|ICAO-KFCH|||||||||||||||||||||||||||||||||||||||||||MET062METAR KFCH 261115Z AUTO 00000KT 10SM CLR 03/M02 A3030 RMK A01=||F||223|ICAO-KFCH
USW00023167|FRESNO CHANDLER DWTN AP|2022|02|26|11|30|36.7333|-119.8167|84.1|3.0||1|FM15-METAR|223|ICAO-KFCH|-2.0||1|FM15-METAR|223|ICAO-KFCH|||||||||||||999|C-Calm|9|FM15-METAR|223|ICAO-KFCH|0.0|C-Calm|1|FM15-METAR|223|ICAO-KFCH|||||||||||||70|Derived||FM15-METAR|223|ICAO-KFCH|||||||||||||||||||||||||||||||||||||||||||||||||||||||||||||||||||||||||1026.1||1|FM15-METAR|223|ICAO-KFCH|||||||||||||||||||||||||||||||||||||||||||MET062METAR KFCH 261130Z AUTO 00000KT 10SM CLR 03/M02 A3030 RMK A01=||F||223|ICAO-KFCH
USW00023167|FRESNO CHANDLER DWTN AP|2022|02|26|11|55|36.7333|-119.8167|84.1|3.0||1|FM15-METAR|223|ICAO-KFCH|-2.0||1|FM15-METAR|223|ICAO-KFCH|||||||||||||999|C-Calm|9|FM15-METAR|223|ICAO-KFCH|0.0|C-Calm|1|FM15-METAR|223|ICAO-KFCH|||||||||||||70|Derived||FM15-METAR|223|ICAO-KFCH|||||||||||||||||||||||||||||||||||||||||||||||||||||||||||||||||||||||||1026.4||1|FM15-METAR|223|ICAO-KFCH|||||||||||||||||||||||||||||||||||||||||||MET062METAR KFCH 261155Z AUTO 00000KT 10SM CLR 03/M02 A3031 RMK A01=||F||223|ICAO-KFCH
USW00023167|FRESNO CHANDLER DWTN AP|2022|02|26|12|15|36.7333|-119.8167|84.1|3.0||1|FM15-METAR|223|ICAO-KFCH|-2.0||1|FM15-METAR|223|ICAO-KFCH|||||||||||||999|C-Calm|9|FM15-METAR|223|ICAO-KFCH|0.0|C-Calm|1|FM15-METAR|223|ICAO-KFCH|||||||||||||70|Derived||FM15-METAR|223|ICAO-KFCH|||||||||||||||||||||||||||||||||||||||||||||||||||||||||||||||||||||||||1026.4||1|FM15-METAR|223|ICAO-KFCH|||||||||||||||||||||||||||||||||||||||||||MET062METAR KFCH 261215Z AUTO 00000KT 10SM CLR 03/M02 A3031 RMK A01=||F||223|ICAO-KFCH
USW00023167|FRESNO CHANDLER DWTN AP|2022|02|26|12|35|36.7333|-119.8167|84.1|2.0||1|FM15-METAR|223|ICAO-KFCH|-2.0||1|FM15-METAR|223|ICAO-KFCH|||||||||||||999|C-Calm|9|FM15-METAR|223|ICAO-KFCH|0.0|C-Calm|1|FM15-METAR|223|ICAO-KFCH|||||||||||||75|Derived||FM15-METAR|223|ICAO-KFCH|||||||||||||||||||||||||||||||||||||||||||||||||||||||||||||||||||||||||1026.7||1|FM15-METAR|223|ICAO-KFCH|||||||||||||||||||||||||||||||||||||||||||MET062METAR KFCH 261235Z AUTO 00000KT 10SM CLR 02/M02 A3032 RMK A01=||F||223|ICAO-KFCH
USW00023167|FRESNO CHANDLER DWTN AP|2022|02|26|12|55|36.7333|-119.8167|84.1|2.0||1|FM15-METAR|223|ICAO-KFCH|-2.0||1|FM15-METAR|223|ICAO-KFCH|||||||||||||999|C-Calm|9|FM15-METAR|223|ICAO-KFCH|0.0|C-Calm|1|FM15-METAR|223|ICAO-KFCH|||||||||||||75|Derived||FM15-METAR|223|ICAO-KFCH|||||||||||||||||||||||||||||||||||||||||||||||||||||||||||||||||||||||||1027.1||1|FM15-METAR|223|ICAO-KFCH|||||||||||||||||||||||||||||||||||||||||||MET062METAR KFCH 261255Z AUTO 00000KT 10SM CLR 02/M02 A3033 RMK A01=||F||223|ICAO-KFCH
USW00023167|FRESNO CHANDLER DWTN AP|2022|02|26|13|15|36.7333|-119.8167|84.1|3.0||1|FM15-METAR|223|ICAO-KFCH|-2.0||1|FM15-METAR|223|ICAO-KFCH|||||||||||||999|C-Calm|9|FM15-METAR|223|ICAO-KFCH|0.0|C-Calm|1|FM15-METAR|223|ICAO-KFCH|||||||||||||70|Derived||FM15-METAR|223|ICAO-KFCH|||||||||||||||||||||||||||||||||||||||||||||||||||||||||||||||||||||||||1027.4||1|FM15-METAR|223|ICAO-KFCH|||||||||||||||||||||||||||||||||||||||||||MET062METAR KFCH 261315Z AUTO 00000KT 10SM CLR 03/M02 A3034 RMK A01=||F||223|ICAO-KFCH
USW00023167|FRESNO CHANDLER DWTN AP|2022|02|26|13|35|36.7333|-119.8167|84.1|2.0||1|FM15-METAR|223|ICAO-KFCH|-1.0||1|FM15-METAR|223|ICAO-KFCH|||||||||||||999|C-Calm|9|FM15-METAR|223|ICAO-KFCH|0.0|C-Calm|1|FM15-METAR|223|ICAO-KFCH|||||||||||||81|Derived||FM15-METAR|223|ICAO-KFCH|||||||||||||||||||||||||||||||||||||||||||||||||||||||||||||||||||||||||1027.4||1|FM15-METAR|223|ICAO-KFCH|||||||||||||||||||||||||||||||||||||||||||MET062METAR KFCH 261335Z AUTO 00000KT 10SM CLR 02/M01 A3034 RMK A01=||F||223|ICAO-KFCH
USW00023167|FRESNO CHANDLER DWTN AP|2022|02|26|13|55|36.7333|-119.8167|84.1|3.0||1|FM15-METAR|223|ICAO-KFCH|-1.0||1|FM15-METAR|223|ICAO-KFCH|||||||||||||999|C-Calm|9|FM15-METAR|223|ICAO-KFCH|0.0|C-Calm|1|FM15-METAR|223|ICAO-KFCH|||||||||||||75|Derived||FM15-METAR|223|ICAO-KFCH|||||||||||||||||||||||||||||||||||||||||||||||||||||||||||||||||||||||||1027.4||1|FM15-METAR|223|ICAO-KFCH|||||||||||||||||||||||||||||||||||||||||||MET062METAR KFCH 261355Z AUTO 00000KT 10SM CLR 03/M01 A3034 RMK A01=||F||223|ICAO-KFCH
USW00023167|FRESNO CHANDLER DWTN AP|2022|02|26|14|15|36.7333|-119.8167|84.1|3.0||1|FM15-METAR|223|ICAO-KFCH|-1.0||1|FM15-METAR|223|ICAO-KFCH|||||||||||||999|C-Calm|9|FM15-METAR|223|ICAO-KFCH|0.0|C-Calm|1|FM15-METAR|223|ICAO-KFCH|||||||||||||75|Derived||FM15-METAR|223|ICAO-KFCH|||||||||||||||||||||||||||||||||||||||||||||||||||||||||||||||||||||||||1027.8||1|FM15-METAR|223|ICAO-KFCH|||||||||||||||||||||||||||||||||||||||||||MET062METAR KFCH 261415Z AUTO 00000KT 10SM CLR 03/M01 A3035 RMK A01=||F||223|ICAO-KFCH
USW00023167|FRESNO CHANDLER DWTN AP|2022|02|26|14|30|36.7333|-119.8167|84.1|2.0||1|FM15-METAR|223|ICAO-KFCH|-1.0||1|FM15-METAR|223|ICAO-KFCH|||||||||||||999|C-Calm|9|FM15-METAR|223|ICAO-KFCH|0.0|C-Calm|1|FM15-METAR|223|ICAO-KFCH|||||||||||||81|Derived||FM15-METAR|223|ICAO-KFCH|||||||||||||||||||||||||||||||||||||||||||||||||||||||||||||||||||||||||1027.8||1|FM15-METAR|223|ICAO-KFCH|||||||||||||||||||||||||||||||||||||||||||MET062METAR KFCH 261430Z AUTO 00000KT 10SM CLR 02/M01 A3035 RMK A01=||F||223|ICAO-KFCH
USW00023167|FRESNO CHANDLER DWTN AP|2022|02|26|14|50|36.7333|-119.8167|84.1|2.0||1|FM15-METAR|223|ICAO-KFCH|-1.0||1|FM15-METAR|223|ICAO-KFCH|||||||||||||999|C-Calm|9|FM15-METAR|223|ICAO-KFCH|0.0|C-Calm|1|FM15-METAR|223|ICAO-KFCH|||||||||||||81|Derived||FM15-METAR|223|ICAO-KFCH|||||||||||||||||||||||||||||||||||||||||||||||||||||||||||||||||||||||||1028.1||1|FM15-METAR|223|ICAO-KFCH|||||||||||||||||||||||||||||||||||||||||||MET062METAR KFCH 261450Z AUTO 00000KT 10SM CLR 02/M01 A3036 RMK A01=||F||223|ICAO-KFCH
USW00023167|FRESNO CHANDLER DWTN AP|2022|02|26|15|10|36.7333|-119.8167|84.1|3.0||1|FM15-METAR|223|ICAO-KFCH|-1.0||1|FM15-METAR|223|ICAO-KFCH|||||||||||||999|C-Calm|9|FM15-METAR|223|ICAO-KFCH|0.0|C-Calm|1|FM15-METAR|223|ICAO-KFCH|||||||||||||75|Derived||FM15-METAR|223|ICAO-KFCH|||||||||||||||||||||||||||||||||||||||||||||||||||||||||||||||||||||||||1028.1||1|FM15-METAR|223|ICAO-KFCH|||||||||||||||||||||||||||||||||||||||||||MET062METAR KFCH 261510Z AUTO 00000KT 10SM CLR 03/M01 A3036 RMK A01=||F||223|ICAO-KFCH
USW00023167|FRESNO CHANDLER DWTN AP|2022|02|26|15|35|36.7333|-119.8167|84.1|5.0||1|FM15-METAR|223|ICAO-KFCH|0.0||1|FM15-METAR|223|ICAO-KFCH|||||||||||||999|C-Calm|9|FM15-METAR|223|ICAO-KFCH|0.0|C-Calm|1|FM15-METAR|223|ICAO-KFCH|||||||||||||70|Derived||FM15-METAR|223|ICAO-KFCH|||||||||||||||||||||||||||||||||||||||||||||||||||||||||||||||||||||||||1028.4||1|FM15-METAR|223|ICAO-KFCH|||||||||||||||||||||||||||||||||||||||||||MET062METAR KFCH 261535Z AUTO 00000KT 10SM CLR 05/M00 A3037 RMK A01=||F||223|ICAO-KFCH
USW00023167|FRESNO CHANDLER DWTN AP|2022|02|26|15|50|36.7333|-119.8167|84.1|6.0||1|FM15-METAR|223|ICAO-KFCH|0.0||1|FM15-METAR|223|ICAO-KFCH|||||||||||||||||||||||||||||||||||||66|Derived||FM15-METAR|223|ICAO-KFCH|||||||||||||||||||||||||||||||||||||||||||||||||||||||||||||||||||||||||1028.8||1|FM15-METAR|223|ICAO-KFCH|||||||||||||||||||||||||||||||||||||||||||MET054METAR KFCH 261550Z AUTO 10SM CLR 06/M00 A3038 RMK A01=||F||223|ICAO-KFCH
USW00023167|FRESNO CHANDLER DWTN AP|2022|02|26|16|15|36.7333|-119.8167|84.1|7.0||1|FM15-METAR|223|ICAO-KFCH|0.0||1|FM15-METAR|223|ICAO-KFCH|||||||||||||999|C-Calm|9|FM15-METAR|223|ICAO-KFCH|0.0|C-Calm|1|FM15-METAR|223|ICAO-KFCH|||||||||||||61|Derived||FM15-METAR|223|ICAO-KFCH|||||||||||||||||||||||||||||||||||||||||||||||||||||||||||||||||||||||||1029.1||1|FM15-METAR|223|ICAO-KFCH|||||||||||||||||||||||||||||||||||||||||||MET061METAR KFCH 261615Z AUTO 00000KT 10SM CLR 07/00 A3039 RMK A01=||F||223|ICAO-KFCH
USW00023167|FRESNO CHANDLER DWTN AP|2022|02|26|16|35|36.7333|-119.8167|84.1|7.0||1|FM15-METAR|223|ICAO-KFCH|0.0||1|FM15-METAR|223|ICAO-KFCH|||||||||||||140|N-Normal|1|FM15-METAR|223|ICAO-KFCH|1.5|N-Normal|1|FM15-METAR|223|ICAO-KFCH|||||||||||||61|Derived||FM15-METAR|223|ICAO-KFCH|||||||||||||||||||||||||||||||||||||||||||||||||||||||||||||||||||||||||1029.1||1|FM15-METAR|223|ICAO-KFCH|||||||||||||||||||||||||||||||||||||||||||MET061METAR KFCH 261635Z AUTO 14003KT 10SM CLR 07/00 A3039 RMK A01=||F||223|ICAO-KFCH
USW00023167|FRESNO CHANDLER DWTN AP|2022|02|26|16|50|36.7333|-119.8167|84.1|8.0||1|FM15-METAR|223|ICAO-KFCH|0.0||1|FM15-METAR|223|ICAO-KFCH|||||||||||||999|C-Calm|9|FM15-METAR|223|ICAO-KFCH|0.0|C-Calm|1|FM15-METAR|223|ICAO-KFCH|||||||||||||57|Derived||FM15-METAR|223|ICAO-KFCH|||||||||||||||||||||||||||||||||||||||||||||||||||||||||||||||||||||||||1029.1||1|FM15-METAR|223|ICAO-KFCH|||||||||||||||||||||||||||||||||||||||||||MET061METAR KFCH 261650Z AUTO 00000KT 10SM CLR 08/00 A3039 RMK A01=||F||223|ICAO-KFCH
USW00023167|FRESNO CHANDLER DWTN AP|2022|02|26|17|15|36.7333|-119.8167|84.1|9.0||1|FM15-METAR|223|ICAO-KFCH|0.0||1|FM15-METAR|223|ICAO-KFCH|||||||||||||140|N-Normal|1|FM15-METAR|223|ICAO-KFCH|2.1|N-Normal|1|FM15-METAR|223|ICAO-KFCH|||||||||||||54|Derived||FM15-METAR|223|ICAO-KFCH|||||||||||||||||||||||||||||||||||||||||||||||||||||||||||||||||||||||||1029.5||1|FM15-METAR|223|ICAO-KFCH|||||||||||||||||||||||||||||||||||||||||||MET061METAR KFCH 261715Z AUTO 14004KT 10SM CLR 09/00 A3040 RMK A01=||F||223|ICAO-KFCH
USW00023167|FRESNO CHANDLER DWTN AP|2022|02|26|17|35|36.7333|-119.8167|84.1|10.0||1|FM15-METAR|223|ICAO-KFCH|0.0||1|FM15-METAR|223|ICAO-KFCH|||||||||||||170|N-Normal|1|FM15-METAR|223|ICAO-KFCH|2.1|N-Normal|1|FM15-METAR|223|ICAO-KFCH|||||||||||||50|Derived||FM15-METAR|223|ICAO-KFCH|||||||||||||||||||||||||||||||||||||||||||||||||||||||||||||||||||||||||1029.8||1|FM15-METAR|223|ICAO-KFCH|||||||||||||||||||||||||||||||||||||||||||MET061METAR KFCH 261735Z AUTO 17004KT 10SM CLR 10/00 A3041 RMK A01=||F||223|ICAO-KFCH
USW00023167|FRESNO CHANDLER DWTN AP|2022|02|26|17|55|36.7333|-119.8167|84.1|10.0||1|FM15-METAR|223|ICAO-KFCH|1.0||1|FM15-METAR|223|ICAO-KFCH|||||||||||||230|N-Normal|1|FM15-METAR|223|ICAO-KFCH|2.6|N-Normal|1|FM15-METAR|223|ICAO-KFCH|||||||||||||54|Derived||FM15-METAR|223|ICAO-KFCH|||||||||||||||||||||||||||||||||||||||||||||||||||||||||||||||||||||||||1029.8||1|FM15-METAR|223|ICAO-KFCH|||||||||||||||||||||||||||||||||||||||||||MET061METAR KFCH 261755Z AUTO 23005KT 10SM CLR 10/01 A3041 RMK A01=||F||223|ICAO-KFCH
USW00023167|FRESNO CHANDLER DWTN AP|2022|02|26|18|15|36.7333|-119.8167|84.1|11.0||1|FM15-METAR|223|ICAO-KFCH|0.0||1|FM15-METAR|223|ICAO-KFCH|||||||||||||240|N-Normal|1|FM15-METAR|223|ICAO-KFCH|2.1|N-Normal|1|FM15-METAR|223|ICAO-KFCH|||||||||||||47|Derived||FM15-METAR|223|ICAO-KFCH|||||||||||||||||||||||||||||||||||||||||||||||||||||||||||||||||||||||||1029.8||1|FM15-METAR|223|ICAO-KFCH|||||||||||||||||||||||||||||||||||||||||||MET062METAR KFCH 261815Z AUTO 24004KT 10SM CLR 11/M00 A3041 RMK A01=||F||223|ICAO-KFCH
USW00023167|FRESNO CHANDLER DWTN AP|2022|02|26|18|35|36.7333|-119.8167|84.1|12.0||1|FM15-METAR|223|ICAO-KFCH|0.0||1|FM15-METAR|223|ICAO-KFCH|||||||||||||999|C-Calm|9|FM15-METAR|223|ICAO-KFCH|0.0|C-Calm|1|FM15-METAR|223|ICAO-KFCH|||||||||||||44|Derived||FM15-METAR|223|ICAO-KFCH|||||||||||||||||||||||||||||||||||||||||||||||||||||||||||||||||||||||||1029.8||1|FM15-METAR|223|ICAO-KFCH|||||||||||||||||||||||||||||||||||||||||||MET061METAR KFCH 261835Z AUTO 00000KT 10SM CLR 12/00 A3041 RMK A01=||F||223|ICAO-KFCH
USW00023167|FRESNO CHANDLER DWTN AP|2022|02|26|18|55|36.7333|-119.8167|84.1|13.0||1|FM15-METAR|223|ICAO-KFCH|0.0||1|FM15-METAR|223|ICAO-KFCH|||||||||||||999|C-Calm|9|FM15-METAR|223|ICAO-KFCH|0.0|C-Calm|1|FM15-METAR|223|ICAO-KFCH|||||||||||||41|Derived||FM15-METAR|223|ICAO-KFCH|||||||||||||||||||||||||||||||||||||||||||||||||||||||||||||||||||||||||1029.5||1|FM15-METAR|223|ICAO-KFCH|||||||||||||||||||||||||||||||||||||||||||MET062METAR KFCH 261855Z AUTO 00000KT 10SM CLR 13/M00 A3040 RMK A01=||F||223|ICAO-KFCH
USW00023167|FRESNO CHANDLER DWTN AP|2022|02|26|19|15|36.7333|-119.8167|84.1|14.0||1|FM15-METAR|223|ICAO-KFCH|-1.0||1|FM15-METAR|223|ICAO-KFCH|||||||||||||120|N-Normal|1|FM15-METAR|223|ICAO-KFCH|2.1|N-Normal|1|FM15-METAR|223|ICAO-KFCH|||||||||||||36|Derived||FM15-METAR|223|ICAO-KFCH|||||||||||||||||||||||||||||||||||||||||||||||||||||||||||||||||||||||||1029.1||1|FM15-METAR|223|ICAO-KFCH|||||||||||||||||||||||||||||||||||||||||||MET062METAR KFCH 261915Z AUTO 12004KT 10SM CLR 14/M01 A3039 RMK A01=||F||223|ICAO-KFCH
USW00023167|FRESNO CHANDLER DWTN AP|2022|02|26|19|35|36.7333|-119.8167|84.1|14.0||1|FM15-METAR|223|ICAO-KFCH|-2.0||1|FM15-METAR|223|ICAO-KFCH|||||||||||||999|V-Variable|9|FM15-METAR|223|ICAO-KFCH|2.1|V-Variable|1|FM15-METAR|223|ICAO-KFCH|||||||||||||33|Derived||FM15-METAR|223|ICAO-KFCH|||||||||||||||||||||||||||||||||||||||||||||||||||||||||||||||||||||||||1029.1||1|FM15-METAR|223|ICAO-KFCH|||||||||||||||||||||||||||||||||||||||||||MET062METAR KFCH 261935Z AUTO VRB04KT 10SM CLR 14/M02 A3039 RMK A01=||F||223|ICAO-KFCH
USW00023167|FRESNO CHANDLER DWTN AP|2022|02|26|19|55|36.7333|-119.8167|84.1|15.0||1|FM15-METAR|223|ICAO-KFCH|-2.0||1|FM15-METAR|223|ICAO-KFCH|||||||||||||160|N-Normal|1|FM15-METAR|223|ICAO-KFCH|1.5|N-Normal|1|FM15-METAR|223|ICAO-KFCH|||||||||||||31|Derived||FM15-METAR|223|ICAO-KFCH|||||||||||||||||||||||||||||||||||||||||||||||||||||||||||||||||||||||||1028.8||1|FM15-METAR|223|ICAO-KFCH|||||||||||||||||||||||||||||||||||||||||||MET062METAR KFCH 261955Z AUTO 16003KT 10SM CLR 15/M02 A3038 RMK A01=||F||223|ICAO-KFCH
USW00023167|FRESNO CHANDLER DWTN AP|2022|02|26|20|15|36.7333|-119.8167|84.1|15.0||1|FM15-METAR|223|ICAO-KFCH|-3.0||1|FM15-METAR|223|ICAO-KFCH|||||||||||||999|C-Calm|9|FM15-METAR|223|ICAO-KFCH|0.0|C-Calm|1|FM15-METAR|223|ICAO-KFCH|||||||||||||29|Derived||FM15-METAR|223|ICAO-KFCH|||||||||||||||||||||||||||||||||||||||||||||||||||||||||||||||||||||||||1028.4||1|FM15-METAR|223|ICAO-KFCH|||||||||||||||||||||||||||||||||||||||||||MET062METAR KFCH 262015Z AUTO 00000KT 10SM CLR 15/M03 A3037 RMK A01=||F||223|ICAO-KFCH
USW00023167|FRESNO CHANDLER DWTN AP|2022|02|26|20|35|36.7333|-119.8167|84.1|15.0||1|FM15-METAR|223|ICAO-KFCH|-3.0||1|FM15-METAR|223|ICAO-KFCH|||||||||||||999|V-Variable|9|FM15-METAR|223|ICAO-KFCH|2.6|V-Variable|1|FM15-METAR|223|ICAO-KFCH|||||||||||||29|Derived||FM15-METAR|223|ICAO-KFCH|||||||||||||||||||||||||||||||||||||||||||||||||||||||||||||||||||||||||1028.1||1|FM15-METAR|223|ICAO-KFCH|||||||||||||||||||||||||||||||||||||||||||MET062METAR KFCH 262035Z AUTO VRB05KT 10SM CLR 15/M03 A3036 RMK A01=||F||223|ICAO-KFCH
USW00023167|FRESNO CHANDLER DWTN AP|2022|02|26|20|55|36.7333|-119.8167|84.1|15.0||1|FM15-METAR|223|ICAO-KFCH|-3.0||1|FM15-METAR|223|ICAO-KFCH|||||||||||||999|V-Variable|9|FM15-METAR|223|ICAO-KFCH|2.6|V-Variable|1|FM15-METAR|223|ICAO-KFCH|||||||||||||29|Derived||FM15-METAR|223|ICAO-KFCH|||||||||||||||||||||||||||||||||||||||||||||||||||||||||||||||||||||||||1027.8||1|FM15-METAR|223|ICAO-KFCH|||||||||||||||||||||||||||||||||||||||||||MET062METAR KFCH 262055Z AUTO VRB05KT 10SM CLR 15/M03 A3035 RMK A01=||F||223|ICAO-KFCH
USW00023167|FRESNO CHANDLER DWTN AP|2022|02|26|21|15|36.7333|-119.8167|84.1|16.0||1|FM15-METAR|223|ICAO-KFCH|-3.0||1|FM15-METAR|223|ICAO-KFCH|||||||||||||999|V-Variable|9|FM15-METAR|223|ICAO-KFCH|1.5|V-Variable|1|FM15-METAR|223|ICAO-KFCH|||||||||||||27|Derived||FM15-METAR|223|ICAO-KFCH|||||||||||||||||||||||||||||||||||||||||||||||||||||||||||||||||||||||||1027.4||1|FM15-METAR|223|ICAO-KFCH|||||||||||||||||||||||||||||||||||||||||||MET062METAR KFCH 262115Z AUTO VRB03KT 10SM CLR 16/M03 A3034 RMK A01=||F||223|ICAO-KFCH
USW00023167|FRESNO CHANDLER DWTN AP|2022|02|26|21|35|36.7333|-119.8167|84.1|15.0||1|FM15-METAR|223|ICAO-KFCH|-3.0||1|FM15-METAR|223|ICAO-KFCH|||||||||||||999|V-Variable|9|FM15-METAR|223|ICAO-KFCH|1.5|V-Variable|1|FM15-METAR|223|ICAO-KFCH|||||||||||||29|Derived||FM15-METAR|223|ICAO-KFCH|||||||||||||||||||||||||||||||||||||||||||||||||||||||||||||||||||||||||1027.4||1|FM15-METAR|223|ICAO-KFCH|||||||||||||||||||||||||||||||||||||||||||MET062METAR KFCH 262135Z AUTO VRB03KT 10SM CLR 15/M03 A3034 RMK A01=||F||223|ICAO-KFCH
USW00023167|FRESNO CHANDLER DWTN AP|2022|02|26|21|55|36.7333|-119.8167|84.1|16.0||1|FM15-METAR|223|ICAO-KFCH|-3.0||1|FM15-METAR|223|ICAO-KFCH|||||||||||||230|N-Normal|1|FM15-METAR|223|ICAO-KFCH|2.1|N-Normal|1|FM15-METAR|223|ICAO-KFCH|||||||||||||27|Derived||FM15-METAR|223|ICAO-KFCH|||||||||||||||||||||||||||||||||||||||||||||||||||||||||||||||||||||||||1027.1||1|FM15-METAR|223|ICAO-KFCH|||||||||||||||||||||||||||||||||||||||||||MET062METAR KFCH 262155Z AUTO 23004KT 10SM CLR 16/M03 A3033 RMK A01=||F||223|ICAO-KFCH
USW00023167|FRESNO CHANDLER DWTN AP|2022|02|26|22|15|36.7333|-119.8167|84.1|16.0||1|FM15-METAR|223|ICAO-KFCH|-4.0||1|FM15-METAR|223|ICAO-KFCH|||||||||||||999|V-Variable|9|FM15-METAR|223|ICAO-KFCH|2.1|V-Variable|1|FM15-METAR|223|ICAO-KFCH|||||||||||||25|Derived||FM15-METAR|223|ICAO-KFCH|||||||||||||||||||||||||||||||||||||||||||||||||||||||||||||||||||||||||1027.1||1|FM15-METAR|223|ICAO-KFCH|||||||||||||||||||||||||||||||||||||||||||MET062METAR KFCH 262215Z AUTO VRB04KT 10SM CLR 16/M04 A3033 RMK A01=||F||223|ICAO-KFCH
USW00023167|FRESNO CHANDLER DWTN AP|2022|02|26|22|30|36.7333|-119.8167|84.1|17.0||1|FM15-METAR|223|ICAO-KFCH|-3.0||1|FM15-METAR|223|ICAO-KFCH|||||||||||||290|N-Normal|1|FM15-METAR|223|ICAO-KFCH|2.1|N-Normal|1|FM15-METAR|223|ICAO-KFCH|||||||||||||25|Derived||FM15-METAR|223|ICAO-KFCH|||||||||||||||||||||||||||||||||||||||||||||||||||||||||||||||||||||||||1027.1||1|FM15-METAR|223|ICAO-KFCH|||||||||||||||||||||||||||||||||||||||||||MET062METAR KFCH 262230Z AUTO 29004KT 10SM CLR 17/M03 A3033 RMK A01=||F||223|ICAO-KFCH
USW00023167|FRESNO CHANDLER DWTN AP|2022|02|26|22|55|36.7333|-119.8167|84.1|17.0||1|FM15-METAR|223|ICAO-KFCH|-4.0||1|FM15-METAR|223|ICAO-KFCH|||||||||||||300|N-Normal|1|FM15-METAR|223|ICAO-KFCH|2.1|N-Normal|1|FM15-METAR|223|ICAO-KFCH|||||||||||||24|Derived||FM15-METAR|223|ICAO-KFCH|||||||||||||||||||||||||||||||||||||||||||||||||||||||||||||||||||||||||1027.1||1|FM15-METAR|223|ICAO-KFCH|||||||||||||||||||||||||||||||||||||||||||MET062METAR KFCH 262255Z AUTO 30004KT 10SM CLR 17/M04 A3033 RMK A01=||F||223|ICAO-KFCH
USW00023167|FRESNO CHANDLER DWTN AP|2022|02|26|23|15|36.7333|-119.8167|84.1|16.0||1|FM15-METAR|223|ICAO-KFCH|-6.0||1|FM15-METAR|223|ICAO-KFCH|||||||||||||999|C-Calm|9|FM15-METAR|223|ICAO-KFCH|0.0|C-Calm|1|FM15-METAR|223|ICAO-KFCH|||||||||||||22|Derived||FM15-METAR|223|ICAO-KFCH|||||||||||||||||||||||||||||||||||||||||||||||||||||||||||||||||||||||||1027.1||1|FM15-METAR|223|ICAO-KFCH|||||||||||||||||||||||||||||||||||||||||||MET062METAR KFCH 262315Z AUTO 00000KT 10SM CLR 16/M06 A3033 RMK A01=||F||223|ICAO-KFCH
USW00023167|FRESNO CHANDLER DWTN AP|2022|02|26|23|35|36.7333|-119.8167|84.1|16.0||1|FM15-METAR|223|ICAO-KFCH|-6.0||1|FM15-METAR|223|ICAO-KFCH|||||||||||||999|C-Calm|9|FM15-METAR|223|ICAO-KFCH|0.0|C-Calm|1|FM15-METAR|223|ICAO-KFCH|||||||||||||22|Derived||FM15-METAR|223|ICAO-KFCH|||||||||||||||||||||||||||||||||||||||||||||||||||||||||||||||||||||||||1027.4||1|FM15-METAR|223|ICAO-KFCH|||||||||||||||||||||||||||||||||||||||||||MET062METAR KFCH 262335Z AUTO 00000KT 10SM CLR 16/M06 A3034 RMK A01=||F||223|ICAO-KFCH
USW00023167|FRESNO CHANDLER DWTN AP|2022|02|26|23|55|36.7333|-119.8167|84.1|16.0||1|FM15-METAR|223|ICAO-KFCH|-5.0||1|FM15-METAR|223|ICAO-KFCH|||||||||||||230|N-Normal|1|FM15-METAR|223|ICAO-KFCH|2.1|N-Normal|1|FM15-METAR|223|ICAO-KFCH|||||||||||||23|Derived||FM15-METAR|223|ICAO-KFCH|||||||||||||||||||||||||||||||||||||||||||||||||||||||||||||||||||||||||1027.4||1|FM15-METAR|223|ICAO-KFCH|||||||||||||||||||||||||||||||||||||||||||MET062METAR KFCH 262355Z AUTO 23004KT 10SM CLR 16/M05 A3034 RMK A01=||F||223|ICAO-KFCH
USW00023167|FRESNO CHANDLER DWTN AP|2022|02|27|00|15|36.7333|-119.8167|84.1|16.0||1|FM15-METAR|223|ICAO-KFCH|-6.0||1|FM15-METAR|223|ICAO-KFCH|||||||||||||999|C-Calm|9|FM15-METAR|223|ICAO-KFCH|0.0|C-Calm|1|FM15-METAR|223|ICAO-KFCH|||||||||||||22|Derived||FM15-METAR|223|ICAO-KFCH|||||||||||||||||||||||||||||||||||||||||||||||||||||||||||||||||||||||||1027.1||1|FM15-METAR|223|ICAO-KFCH|||||||||||||||||||||||||||||||||||||||||||MET062METAR KFCH 270015Z AUTO 00000KT 10SM CLR 16/M06 A3033 RMK A01=||F||223|ICAO-KFCH
USW00023167|FRESNO CHANDLER DWTN AP|2022|02|27|00|35|36.7333|-119.8167|84.1|17.0||1|FM15-METAR|223|ICAO-KFCH|-6.0||1|FM15-METAR|223|ICAO-KFCH|||||||||||||999|C-Calm|9|FM15-METAR|223|ICAO-KFCH|0.0|C-Calm|1|FM15-METAR|223|ICAO-KFCH|||||||||||||20|Derived||FM15-METAR|223|ICAO-KFCH|||||||||||||||||||||||||||||||||||||||||||||||||||||||||||||||||||||||||1027.4||1|FM15-METAR|223|ICAO-KFCH|||||||||||||||||||||||||||||||||||||||||||MET062METAR KFCH 270035Z AUTO 00000KT 10SM CLR 17/M06 A3034 RMK A01=||F||223|ICAO-KFCH
USW00023167|FRESNO CHANDLER DWTN AP|2022|02|27|00|55|36.7333|-119.8167|84.1|17.0||1|FM15-METAR|223|ICAO-KFCH|-6.0||1|FM15-METAR|223|ICAO-KFCH|||||||||||||999|C-Calm|9|FM15-METAR|223|ICAO-KFCH|0.0|C-Calm|1|FM15-METAR|223|ICAO-KFCH|||||||||||||20|Derived||FM15-METAR|223|ICAO-KFCH|||||||||||||||||||||||||||||||||||||||||||||||||||||||||||||||||||||||||1027.4||1|FM15-METAR|223|ICAO-KFCH|||||||||||||||||||||||||||||||||||||||||||MET062METAR KFCH 270055Z AUTO 00000KT 10SM CLR 17/M06 A3034 RMK A01=||F||223|ICAO-KFCH
USW00023167|FRESNO CHANDLER DWTN AP|2022|02|27|01|15|36.7333|-119.8167|84.1|17.0||1|FM15-METAR|223|ICAO-KFCH|-6.0||1|FM15-METAR|223|ICAO-KFCH|||||||||||||999|C-Calm|9|FM15-METAR|223|ICAO-KFCH|0.0|C-Calm|1|FM15-METAR|223|ICAO-KFCH|||||||||||||20|Derived||FM15-METAR|223|ICAO-KFCH|||||||||||||||||||||||||||||||||||||||||||||||||||||||||||||||||||||||||1027.4||1|FM15-METAR|223|ICAO-KFCH|||||||||||||||||||||||||||||||||||||||||||MET062METAR KFCH 270115Z AUTO 00000KT 10SM CLR 17/M06 A3034 RMK A01=||F||223|ICAO-KFCH
USW00023167|FRESNO CHANDLER DWTN AP|2022|02|27|01|30|36.7333|-119.8167|84.1|16.0||1|FM15-METAR|223|ICAO-KFCH|-7.0||1|FM15-METAR|223|ICAO-KFCH|||||||||||||999|C-Calm|9|FM15-METAR|223|ICAO-KFCH|0.0|C-Calm|1|FM15-METAR|223|ICAO-KFCH|||||||||||||20|Derived||FM15-METAR|223|ICAO-KFCH|||||||||||||||||||||||||||||||||||||||||||||||||||||||||||||||||||||||||1027.4||1|FM15-METAR|223|ICAO-KFCH|||||||||||||||||||||||||||||||||||||||||||MET062METAR KFCH 270130Z AUTO 00000KT 10SM CLR 16/M07 A3034 RMK A01=||F||223|ICAO-KFCH
USW00023167|FRESNO CHANDLER DWTN AP|2022|02|27|01|55|36.7333|-119.8167|84.1|15.0||1|FM15-METAR|223|ICAO-KFCH|-7.0||1|FM15-METAR|223|ICAO-KFCH|||||||||||||999|C-Calm|9|FM15-METAR|223|ICAO-KFCH|0.0|C-Calm|1|FM15-METAR|223|ICAO-KFCH|||||||||||||21|Derived||FM15-METAR|223|ICAO-KFCH|||||||||||||||||||||||||||||||||||||||||||||||||||||||||||||||||||||||||1027.8||1|FM15-METAR|223|ICAO-KFCH|||||||||||||||||||||||||||||||||||||||||||MET062METAR KFCH 270155Z AUTO 00000KT 10SM CLR 15/M07 A3035 RMK A01=||F||223|ICAO-KFCH
USW00023167|FRESNO CHANDLER DWTN AP|2022|02|27|02|15|36.7333|-119.8167|84.1|14.0||1|FM15-METAR|223|ICAO-KFCH|-6.0||1|FM15-METAR|223|ICAO-KFCH|||||||||||||999|C-Calm|9|FM15-METAR|223|ICAO-KFCH|0.0|C-Calm|1|FM15-METAR|223|ICAO-KFCH|||||||||||||25|Derived||FM15-METAR|223|ICAO-KFCH|||||||||||||||||||||||||||||||||||||||||||||||||||||||||||||||||||||||||1027.8||1|FM15-METAR|223|ICAO-KFCH|||||||||||||||||||||||||||||||||||||||||||MET062METAR KFCH 270215Z AUTO 00000KT 10SM CLR 14/M06 A3035 RMK A01=||F||223|ICAO-KFCH
USW00023167|FRESNO CHANDLER DWTN AP|2022|02|27|02|35|36.7333|-119.8167|84.1|13.0||1|FM15-METAR|223|ICAO-KFCH|-5.0||1|FM15-METAR|223|ICAO-KFCH|||||||||||||999|C-Calm|9|FM15-METAR|223|ICAO-KFCH|0.0|C-Calm|1|FM15-METAR|223|ICAO-KFCH|||||||||||||28|Derived||FM15-METAR|223|ICAO-KFCH|||||||||||||||||||||||||||||||||||||||||||||||||||||||||||||||||||||||||1028.1||1|FM15-METAR|223|ICAO-KFCH|||||||||||||||||||||||||||||||||||||||||||MET062METAR KFCH 270235Z AUTO 00000KT 10SM CLR 13/M05 A3036 RMK A01=||F||223|ICAO-KFCH
USW00023167|FRESNO CHANDLER DWTN AP|2022|02|27|02|55|36.7333|-119.8167|84.1|12.0||1|FM15-METAR|223|ICAO-KFCH|-2.0||1|FM15-METAR|223|ICAO-KFCH|||||||||||||999|C-Calm|9|FM15-METAR|223|ICAO-KFCH|0.0|C-Calm|1|FM15-METAR|223|ICAO-KFCH|||||||||||||38|Derived||FM15-METAR|223|ICAO-KFCH|||||||||||||||||||||||||||||||||||||||||||||||||||||||||||||||||||||||||1028.4||1|FM15-METAR|223|ICAO-KFCH|||||||||||||||||||||||||||||||||||||||||||MET062METAR KFCH 270255Z AUTO 00000KT 10SM CLR 12/M02 A3037 RMK A01=||F||223|ICAO-KFCH
USW00023167|FRESNO CHANDLER DWTN AP|2022|02|27|03|15|36.7333|-119.8167|84.1|11.0||1|FM15-METAR|223|ICAO-KFCH|-3.0||1|FM15-METAR|223|ICAO-KFCH|||||||||||||999|C-Calm|9|FM15-METAR|223|ICAO-KFCH|0.0|C-Calm|1|FM15-METAR|223|ICAO-KFCH|||||||||||||38|Derived||FM15-METAR|223|ICAO-KFCH|||||||||||||||||||||||||||||||||||||||||||||||||||||||||||||||||||||||||1028.4||1|FM15-METAR|223|ICAO-KFCH|||||||||||||||||||||||||||||||||||||||||||MET058METAR KFCH 270315Z AUTO 00000KT 10SM 11/M03 A3037 RMK A01=||F||223|ICAO-KFCH
USW00023167|FRESNO CHANDLER DWTN AP|2022|02|27|03|35|36.7333|-119.8167|84.1|10.0||1|FM15-METAR|223|ICAO-KFCH|-3.0||1|FM15-METAR|223|ICAO-KFCH|||||||||||||999|C-Calm|9|FM15-METAR|223|ICAO-KFCH|0.0|C-Calm|1|FM15-METAR|223|ICAO-KFCH|||||||||||||40|Derived||FM15-METAR|223|ICAO-KFCH|||||||||||||||||||||||||||||||||||||||||||||||||||||||||||||||||||||||||1028.4||1|FM15-METAR|223|ICAO-KFCH|||||||||||||||||||||||||||||||||||||||||||MET062METAR KFCH 270335Z AUTO 00000KT 10SM CLR 10/M03 A3037 RMK A01=||F||223|ICAO-KFCH
USW00023167|FRESNO CHANDLER DWTN AP|2022|02|27|03|50|36.7333|-119.8167|84.1|11.0||1|FM15-METAR|223|ICAO-KFCH|-2.0||1|FM15-METAR|223|ICAO-KFCH|||||||||||||999|C-Calm|9|FM15-METAR|223|ICAO-KFCH|0.0|C-Calm|1|FM15-METAR|223|ICAO-KFCH|||||||||||||41|Derived||FM15-METAR|223|ICAO-KFCH|||||||||||||||||||||||||||||||||||||||||||||||||||||||||||||||||||||||||1028.8||1|FM15-METAR|223|ICAO-KFCH|||||||||||||||||||||||||||||||||||||||||||MET062METAR KFCH 270350Z AUTO 00000KT 10SM CLR 11/M02 A3038 RMK A01=||F||223|ICAO-KFCH
USW00023167|FRESNO CHANDLER DWTN AP|2022|02|27|04|15|36.7333|-119.8167|84.1|10.0||1|FM15-METAR|223|ICAO-KFCH|-3.0||1|FM15-METAR|223|ICAO-KFCH|||||||||||||999|C-Calm|9|FM15-METAR|223|ICAO-KFCH|0.0|C-Calm|1|FM15-METAR|223|ICAO-KFCH|||||||||||||40|Derived||FM15-METAR|223|ICAO-KFCH|||||||||||||||||||||||||||||||||||||||||||||||||||||||||||||||||||||||||1028.8||1|FM15-METAR|223|ICAO-KFCH|||||||||||||||||||||||||||||||||||||||||||MET062METAR KFCH 270415Z AUTO 00000KT 10SM CLR 10/M03 A3038 RMK A01=||F||223|ICAO-KFCH
USW00023167|FRESNO CHANDLER DWTN AP|2022|02|27|04|35|36.7333|-119.8167|84.1|11.0||1|FM15-METAR|223|ICAO-KFCH|-3.0||1|FM15-METAR|223|ICAO-KFCH|||||||||||||999|C-Calm|9|FM15-METAR|223|ICAO-KFCH|0.0|C-Calm|1|FM15-METAR|223|ICAO-KFCH|||||||||||||38|Derived||FM15-METAR|223|ICAO-KFCH|||||||||||||||||||||||||||||||||||||||||||||||||||||||||||||||||||||||||1029.1||1|FM15-METAR|223|ICAO-KFCH|||||||||||||||||||||||||||||||||||||||||||MET062METAR KFCH 270435Z AUTO 00000KT 10SM CLR 11/M03 A3039 RMK A01=||F||223|ICAO-KFCH
USW00023167|FRESNO CHANDLER DWTN AP|2022|02|27|04|55|36.7333|-119.8167|84.1|10.0||1|FM15-METAR|223|ICAO-KFCH|-1.0||1|FM15-METAR|223|ICAO-KFCH|||||||||||||999|C-Calm|9|FM15-METAR|223|ICAO-KFCH|0.0|C-Calm|1|FM15-METAR|223|ICAO-KFCH|||||||||||||47|Derived||FM15-METAR|223|ICAO-KFCH|||||||||||||||||||||||||||||||||||||||||||||||||||||||||||||||||||||||||1029.1||1|FM15-METAR|223|ICAO-KFCH|||||||||||||||||||||||||||||||||||||||||||MET062METAR KFCH 270455Z AUTO 00000KT 10SM CLR 10/M01 A3039 RMK A01=||F||223|ICAO-KFCH
USW00023167|FRESNO CHANDLER DWTN AP|2022|02|27|05|15|36.7333|-119.8167|84.1|10.0||1|FM15-METAR|223|ICAO-KFCH|-2.0||1|FM15-METAR|223|ICAO-KFCH|||||||||||||999|C-Calm|9|FM15-METAR|223|ICAO-KFCH|0.0|C-Calm|1|FM15-METAR|223|ICAO-KFCH|||||||||||||43|Derived||FM15-METAR|223|ICAO-KFCH|||||||||||||||||||||||||||||||||||||||||||||||||||||||||||||||||||||||||1029.8||1|FM15-METAR|223|ICAO-KFCH|||||||||||||||||||||||||||||||||||||||||||MET062METAR KFCH 270515Z AUTO 00000KT 10SM CLR 10/M02 A3041 RMK A01=||F||223|ICAO-KFCH
USW00023167|FRESNO CHANDLER DWTN AP|2022|02|27|05|35|36.7333|-119.8167|84.1|9.0||1|FM15-METAR|223|ICAO-KFCH|-1.0||1|FM15-METAR|223|ICAO-KFCH|||||||||||||999|C-Calm|9|FM15-METAR|223|ICAO-KFCH|0.0|C-Calm|1|FM15-METAR|223|ICAO-KFCH|||||||||||||50|Derived||FM15-METAR|223|ICAO-KFCH|||||||||||||||||||||||||||||||||||||||||||||||||||||||||||||||||||||||||1029.5||1|FM15-METAR|223|ICAO-KFCH|||||||||||||||||||||||||||||||||||||||||||MET062METAR KFCH 270535Z AUTO 00000KT 10SM CLR 09/M01 A3040 RMK A01=||F||223|ICAO-KFCH
USW00023167|FRESNO CHANDLER DWTN AP|2022|02|27|05|55|36.7333|-119.8167|84.1|9.0||1|FM15-METAR|223|ICAO-KFCH|-2.0||1|FM15-METAR|223|ICAO-KFCH|||||||||||||300|N-Normal|1|FM15-METAR|223|ICAO-KFCH|1.5|N-Normal|1|FM15-METAR|223|ICAO-KFCH|||||||||||||46|Derived||FM15-METAR|223|ICAO-KFCH|||||||||||||||||||||||||||||||||||||||||||||||||||||||||||||||||||||||||1029.5||1|FM15-METAR|223|ICAO-KFCH|||||||||||||||||||||||||||||||||||||||||||MET062METAR KFCH 270555Z AUTO 30003KT 10SM CLR 09/M02 A3040 RMK A01=||F||223|ICAO-KFCH
USW00023167|FRESNO CHANDLER DWTN AP|2022|02|27|06|15|36.7333|-119.8167|84.1|8.0||1|FM15-METAR|223|ICAO-KFCH|-1.0||1|FM15-METAR|223|ICAO-KFCH|||||||||||||999|C-Calm|9|FM15-METAR|223|ICAO-KFCH|0.0|C-Calm|1|FM15-METAR|223|ICAO-KFCH|||||||||||||53|Derived||FM15-METAR|223|ICAO-KFCH|||||||||||||||||||||||||||||||||||||||||||||||||||||||||||||||||||||||||1029.5||1|FM15-METAR|223|ICAO-KFCH|||||||||||||||||||||||||||||||||||||||||||MET062METAR KFCH 270615Z AUTO 00000KT 10SM CLR 08/M01 A3040 RMK A01=||F||223|ICAO-KFCH
USW00023167|FRESNO CHANDLER DWTN AP|2022|02|27|06|35|36.7333|-119.8167|84.1|8.0||1|FM15-METAR|223|ICAO-KFCH|-1.0||1|FM15-METAR|223|ICAO-KFCH|||||||||||||999|C-Calm|9|FM15-METAR|223|ICAO-KFCH|0.0|C-Calm|1|FM15-METAR|223|ICAO-KFCH|||||||||||||53|Derived||FM15-METAR|223|ICAO-KFCH|||||||||||||||||||||||||||||||||||||||||||||||||||||||||||||||||||||||||1029.1||1|FM15-METAR|223|ICAO-KFCH|||||||||||||||||||||||||||||||||||||||||||MET062METAR KFCH 270635Z AUTO 00000KT 10SM CLR 08/M01 A3039 RMK A01=||F||223|ICAO-KFCH
USW00023167|FRESNO CHANDLER DWTN AP|2022|02|27|06|55|36.7333|-119.8167|84.1|8.0||1|FM15-METAR|223|ICAO-KFCH|-1.0||1|FM15-METAR|223|ICAO-KFCH|||||||||||||040|N-Normal|1|FM15-METAR|223|ICAO-KFCH|1.5|N-Normal|1|FM15-METAR|223|ICAO-KFCH|||||||||||||53|Derived||FM15-METAR|223|ICAO-KFCH|||||||||||||||||||||||||||||||||||||||||||||||||||||||||||||||||||||||||1029.1||1|FM15-METAR|223|ICAO-KFCH|||||||||||||||||||||||||||||||||||||||||||MET062METAR KFCH 270655Z AUTO 04003KT 10SM CLR 08/M01 A3039 RMK A01=||F||223|ICAO-KFCH
USW00023167|FRESNO CHANDLER DWTN AP|2022|02|27|07|15|36.7333|-119.8167|84.1|8.0||1|FM15-METAR|223|ICAO-KFCH|-1.0||1|FM15-METAR|223|ICAO-KFCH|||||||||||||999|C-Calm|9|FM15-METAR|223|ICAO-KFCH|0.0|C-Calm|1|FM15-METAR|223|ICAO-KFCH|||||||||||||53|Derived||FM15-METAR|223|ICAO-KFCH|||||||||||||||||||||||||||||||||||||||||||||||||||||||||||||||||||||||||1028.8||1|FM15-METAR|223|ICAO-KFCH|||||||||||||||||||||||||||||||||||||||||||MET062METAR KFCH 270715Z AUTO 00000KT 10SM CLR 08/M01 A3038 RMK A01=||F||223|ICAO-KFCH
USW00023167|FRESNO CHANDLER DWTN AP|2022|02|27|07|35|36.7333|-119.8167|84.1|8.0||1|FM15-METAR|223|ICAO-KFCH|-1.0||1|FM15-METAR|223|ICAO-KFCH|||||||||||||110|N-Normal|1|FM15-METAR|223|ICAO-KFCH|2.1|N-Normal|1|FM15-METAR|223|ICAO-KFCH|||||||||||||53|Derived||FM15-METAR|223|ICAO-KFCH|||||||||||||||||||||||||||||||||||||||||||||||||||||||||||||||||||||||||1028.8||1|FM15-METAR|223|ICAO-KFCH|||||||||||||||||||||||||||||||||||||||||||MET062METAR KFCH 270735Z AUTO 11004KT 10SM CLR 08/M01 A3038 RMK A01=||F||223|ICAO-KFCH
USW00023167|FRESNO CHANDLER DWTN AP|2022|02|27|07|55|36.7333|-119.8167|84.1|9.0||1|FM15-METAR|223|ICAO-KFCH|-1.0||1|FM15-METAR|223|ICAO-KFCH|||||||||||||999|C-Calm|9|FM15-METAR|223|ICAO-KFCH|0.0|C-Calm|1|FM15-METAR|223|ICAO-KFCH|||||||||||||50|Derived||FM15-METAR|223|ICAO-KFCH|||||||||||||||||||||||||||||||||||||||||||||||||||||||||||||||||||||||||1028.8||1|FM15-METAR|223|ICAO-KFCH|||||||||||||||||||||||||||||||||||||||||||MET062METAR KFCH 270755Z AUTO 00000KT 10SM CLR 09/M01 A3038 RMK A01=||F||223|ICAO-KFCH
USW00023167|FRESNO CHANDLER DWTN AP|2022|02|27|08|15|36.7333|-119.8167|84.1|9.0||1|FM15-METAR|223|ICAO-KFCH|-1.0||1|FM15-METAR|223|ICAO-KFCH|||||||||||||999|C-Calm|9|FM15-METAR|223|ICAO-KFCH|0.0|C-Calm|1|FM15-METAR|223|ICAO-KFCH|||||||||||||50|Derived||FM15-METAR|223|ICAO-KFCH|||||||||||||||||||||||||||||||||||||||||||||||||||||||||||||||||||||||||1029.1||1|FM15-METAR|223|ICAO-KFCH|||||||||||||||||||||||||||||||||||||||||||MET062METAR KFCH 270815Z AUTO 00000KT 10SM CLR 09/M01 A3039 RMK A01=||F||223|ICAO-KFCH
USW00023167|FRESNO CHANDLER DWTN AP|2022|02|27|08|35|36.7333|-119.8167|84.1|8.0||1|FM15-METAR|223|ICAO-KFCH|0.0||1|FM15-METAR|223|ICAO-KFCH|||||||||||||270|N-Normal|1|FM15-METAR|223|ICAO-KFCH|2.1|N-Normal|1|FM15-METAR|223|ICAO-KFCH|||||||||||||57|Derived||FM15-METAR|223|ICAO-KFCH|||||||||||||||||||||||||||||||||||||||||||||||||||||||||||||||||||||||||1029.1||1|FM15-METAR|223|ICAO-KFCH|||||||||||||||||||||||||||||||||||||||||||MET061METAR KFCH 270835Z AUTO 27004KT 10SM CLR 08/00 A3039 RMK A01=||F||223|ICAO-KFCH
USW00023167|FRESNO CHANDLER DWTN AP|2022|02|27|08|55|36.7333|-119.8167|84.1|8.0||1|FM15-METAR|223|ICAO-KFCH|0.0||1|FM15-METAR|223|ICAO-KFCH|||||||||||||250|N-Normal|1|FM15-METAR|223|ICAO-KFCH|1.5|N-Normal|1|FM15-METAR|223|ICAO-KFCH|||||||||||||57|Derived||FM15-METAR|223|ICAO-KFCH|||||||||||||||||||||||||||||||||||||||||||||||||||||||||||||||||||||||||1029.1||1|FM15-METAR|223|ICAO-KFCH|||||||||||||||||||||||||||||||||||||||||||MET062METAR KFCH 270855Z AUTO 25003KT 10SM CLR 08/M00 A3039 RMK A01=||F||223|ICAO-KFCH
USW00023167|FRESNO CHANDLER DWTN AP|2022|02|27|09|15|36.7333|-119.8167|84.1|8.0||1|FM15-METAR|223|ICAO-KFCH|1.0||1|FM15-METAR|223|ICAO-KFCH|||||||||||||290|N-Normal|1|FM15-METAR|223|ICAO-KFCH|2.1|N-Normal|1|FM15-METAR|223|ICAO-KFCH|||||||||||||62|Derived||FM15-METAR|223|ICAO-KFCH|||||||||||||||||||||||||||||||||||||||||||||||||||||||||||||||||||||||||1029.5||1|FM15-METAR|223|ICAO-KFCH|||||||||||||||||||||||||||||||||||||||||||MET061METAR KFCH 270915Z AUTO 29004KT 10SM CLR 08/01 A3040 RMK A01=||F||223|ICAO-KFCH
USW00023167|FRESNO CHANDLER DWTN AP|2022|02|27|09|35|36.7333|-119.8167|84.1|7.0||1|FM15-METAR|223|ICAO-KFCH|1.0||1|FM15-METAR|223|ICAO-KFCH|||||||||||||999|C-Calm|9|FM15-METAR|223|ICAO-KFCH|0.0|C-Calm|1|FM15-METAR|223|ICAO-KFCH|||||||||||||66|Derived||FM15-METAR|223|ICAO-KFCH|||||||||||||||||||||||||||||||||||||||||||||||||||||||||||||||||||||||||1029.5||1|FM15-METAR|223|ICAO-KFCH|||||||||||||||||||||||||||||||||||||||||||MET061METAR KFCH 270935Z AUTO 00000KT 10SM CLR 07/01 A3040 RMK A01=||F||223|ICAO-KFCH
USW00023167|FRESNO CHANDLER DWTN AP|2022|02|27|09|50|36.7333|-119.8167|84.1|8.0||1|FM15-METAR|223|ICAO-KFCH|1.0||1|FM15-METAR|223|ICAO-KFCH|||||||||||||050|N-Normal|1|FM15-METAR|223|ICAO-KFCH|2.1|N-Normal|1|FM15-METAR|223|ICAO-KFCH|||||||||||||62|Derived||FM15-METAR|223|ICAO-KFCH|||||||||||||||||||||||||||||||||||||||||||||||||||||||||||||||||||||||||1029.1||1|FM15-METAR|223|ICAO-KFCH|||||||||||||||||||||||||||||||||||||||||||MET061METAR KFCH 270950Z AUTO 05004KT 10SM CLR 08/01 A3039 RMK A01=||F||223|ICAO-KFCH
USW00023167|FRESNO CHANDLER DWTN AP|2022|02|27|10|15|36.7333|-119.8167|84.1|9.0||1|FM15-METAR|223|ICAO-KFCH|0.0||1|FM15-METAR|223|ICAO-KFCH|||||||||||||040|N-Normal|1|FM15-METAR|223|ICAO-KFCH|1.5|N-Normal|1|FM15-METAR|223|ICAO-KFCH|||||||||||||54|Derived||FM15-METAR|223|ICAO-KFCH|||||||||||||||||||||||||||||||||||||||||||||||||||||||||||||||||||||||||1029.1||1|FM15-METAR|223|ICAO-KFCH|||||||||||||||||||||||||||||||||||||||||||MET061METAR KFCH 271015Z AUTO 04003KT 10SM CLR 09/00 A3039 RMK A01=||F||223|ICAO-KFCH
USW00023167|FRESNO CHANDLER DWTN AP|2022|02|27|10|35|36.7333|-119.8167|84.1|9.0||1|FM15-METAR|223|ICAO-KFCH|0.0||1|FM15-METAR|223|ICAO-KFCH|||||||||||||999|C-Calm|9|FM15-METAR|223|ICAO-KFCH|0.0|C-Calm|1|FM15-METAR|223|ICAO-KFCH|||||||||||||54|Derived||FM15-METAR|223|ICAO-KFCH|||||||||||||||||||||||||||||||||||||||||||||||||||||||||||||||||||||||||1029.1||1|FM15-METAR|223|ICAO-KFCH|||||||||||||||||||||||||||||||||||||||||||MET061METAR KFCH 271035Z AUTO 00000KT 10SM CLR 09/00 A3039 RMK A01=||F||223|ICAO-KFCH
USW00023167|FRESNO CHANDLER DWTN AP|2022|02|27|10|55|36.7333|-119.8167|84.1|9.0||1|FM15-METAR|223|ICAO-KFCH|0.0||1|FM15-METAR|223|ICAO-KFCH|||||||||||||020|N-Normal|1|FM15-METAR|223|ICAO-KFCH|1.5|N-Normal|1|FM15-METAR|223|ICAO-KFCH|||||||||||||54|Derived||FM15-METAR|223|ICAO-KFCH|||||||||||||||||||||||||||||||||||||||||||||||||||||||||||||||||||||||||1029.1||1|FM15-METAR|223|ICAO-KFCH|||||||||||||||||||||||||||||||||||||||||||MET061METAR KFCH 271055Z AUTO 02003KT 10SM CLR 09/00 A3039 RMK A01=||F||223|ICAO-KFCH
USW00023167|FRESNO CHANDLER DWTN AP|2022|02|27|11|15|36.7333|-119.8167|84.1|9.0||1|FM15-METAR|223|ICAO-KFCH|1.0||1|FM15-METAR|223|ICAO-KFCH|||||||||||||999|C-Calm|9|FM15-METAR|223|ICAO-KFCH|0.0|C-Calm|1|FM15-METAR|223|ICAO-KFCH|||||||||||||58|Derived||FM15-METAR|223|ICAO-KFCH|||||||||||||||||||||||||||||||||||||||||||||||||||||||||||||||||||||||||1029.1||1|FM15-METAR|223|ICAO-KFCH|||||||||||||||||||||||||||||||||||||||||||MET061METAR KFCH 271115Z AUTO 00000KT 10SM CLR 09/01 A3039 RMK A01=||F||223|ICAO-KFCH
USW00023167|FRESNO CHANDLER DWTN AP|2022|02|27|11|30|36.7333|-119.8167|84.1|8.0||1|FM15-METAR|223|ICAO-KFCH|1.0||1|FM15-METAR|223|ICAO-KFCH|||||||||||||999|C-Calm|9|FM15-METAR|223|ICAO-KFCH|0.0|C-Calm|1|FM15-METAR|223|ICAO-KFCH|||||||||||||62|Derived||FM15-METAR|223|ICAO-KFCH|||||||||||||||||||||||||||||||||||||||||||||||||||||||||||||||||||||||||1029.1||1|FM15-METAR|223|ICAO-KFCH|||||||||||||||||||||||||||||||||||||||||||MET064METAR KFCH 271130Z AUTO 00000KT 10SM FEW120 08/01 A3039 RMK A01=||F||223|ICAO-KFCH
USW00023167|FRESNO CHANDLER DWTN AP|2022|02|27|11|55|36.7333|-119.8167|84.1|8.0||1|FM15-METAR|223|ICAO-KFCH|1.0||1|FM15-METAR|223|ICAO-KFCH|||||||||||||999|C-Calm|9|FM15-METAR|223|ICAO-KFCH|0.0|C-Calm|1|FM15-METAR|223|ICAO-KFCH|||||||||||||62|Derived||FM15-METAR|223|ICAO-KFCH|||||||||||||||||||||||||||||||||||||||||||||||||||||||||||||||||||||||||1029.1||1|FM15-METAR|223|ICAO-KFCH|||||||||||||||||||||||||||||||||||||||||||MET064METAR KFCH 271155Z AUTO 00000KT 10SM SCT120 08/01 A3039 RMK A01=||F||223|ICAO-KFCH
USW00023167|FRESNO CHANDLER DWTN AP|2022|02|27|12|15|36.7333|-119.8167|84.1|8.0||1|FM15-METAR|223|ICAO-KFCH|1.0||1|FM15-METAR|223|ICAO-KFCH|||||||||||||999|C-Calm|9|FM15-METAR|223|ICAO-KFCH|0.0|C-Calm|1|FM15-METAR|223|ICAO-KFCH|||||||||||||62|Derived||FM15-METAR|223|ICAO-KFCH|||||||||||||||||||||||||||||||||||||||||||||||||||||||||||||||||||||||||1029.1||1|FM15-METAR|223|ICAO-KFCH|||||||||||||||||||||||||||||||||||||||||||MET061METAR KFCH 271215Z AUTO 00000KT 10SM CLR 08/01 A3039 RMK A01=||F||223|ICAO-KFCH
USW00023167|FRESNO CHANDLER DWTN AP|2022|02|27|12|35|36.7333|-119.8167|84.1|8.0||1|FM15-METAR|223|ICAO-KFCH|1.0||1|FM15-METAR|223|ICAO-KFCH|||||||||||||999|C-Calm|9|FM15-METAR|223|ICAO-KFCH|0.0|C-Calm|1|FM15-METAR|223|ICAO-KFCH|||||||||||||62|Derived||FM15-METAR|223|ICAO-KFCH|||||||||||||||||||||||||||||||||||||||||||||||||||||||||||||||||||||||||1029.1||1|FM15-METAR|223|ICAO-KFCH|||||||||||||||||||||||||||||||||||||||||||MET061METAR KFCH 271235Z AUTO 00000KT 10SM CLR 08/01 A3039 RMK A01=||F||223|ICAO-KFCH
USW00023167|FRESNO CHANDLER DWTN AP|2022|02|27|12|55|36.7333|-119.8167|84.1|7.0||1|FM15-METAR|223|ICAO-KFCH|2.0||1|FM15-METAR|223|ICAO-KFCH|||||||||||||999|C-Calm|9|FM15-METAR|223|ICAO-KFCH|0.0|C-Calm|1|FM15-METAR|223|ICAO-KFCH|||||||||||||71|Derived||FM15-METAR|223|ICAO-KFCH|||||||||||||||||||||||||||||||||||||||||||||||||||||||||||||||||||||||||1029.1||1|FM15-METAR|223|ICAO-KFCH|||||||||||||||||||||||||||||||||||||||||||MET061METAR KFCH 271255Z AUTO 00000KT 10SM CLR 07/02 A3039 RMK A01=||F||223|ICAO-KFCH
USW00023167|FRESNO CHANDLER DWTN AP|2022|02|27|13|15|36.7333|-119.8167|84.1|7.0||1|FM15-METAR|223|ICAO-KFCH|2.0||1|FM15-METAR|223|ICAO-KFCH|||||||||||||999|C-Calm|9|FM15-METAR|223|ICAO-KFCH|0.0|C-Calm|1|FM15-METAR|223|ICAO-KFCH|||||||||||||71|Derived||FM15-METAR|223|ICAO-KFCH|||||||||||||||||||||||||||||||||||||||||||||||||||||||||||||||||||||||||1029.1||1|FM15-METAR|223|ICAO-KFCH|||||||||||||||||||||||||||||||||||||||||||MET061METAR KFCH 271315Z AUTO 00000KT 10SM CLR 07/02 A3039 RMK A01=||F||223|ICAO-KFCH
USW00023167|FRESNO CHANDLER DWTN AP|2022|02|27|13|35|36.7333|-119.8167|84.1|6.0||1|FM15-METAR|223|ICAO-KFCH|1.0||1|FM15-METAR|223|ICAO-KFCH|||||||||||||999|C-Calm|9|FM15-METAR|223|ICAO-KFCH|0.0|C-Calm|1|FM15-METAR|223|ICAO-KFCH|||||||||||||71|Derived||FM15-METAR|223|ICAO-KFCH|||||||||||||||||||||||||||||||||||||||||||||||||||||||||||||||||||||||||1029.5||1|FM15-METAR|223|ICAO-KFCH|||||||||||||||||||||||||||||||||||||||||||MET061METAR KFCH 271335Z AUTO 00000KT 10SM CLR 06/01 A3040 RMK A01=||F||223|ICAO-KFCH
USW00023167|FRESNO CHANDLER DWTN AP|2022|02|27|13|55|36.7333|-119.8167|84.1|5.0||1|FM15-METAR|223|ICAO-KFCH|1.0||1|FM15-METAR|223|ICAO-KFCH|||||||||||||999|C-Calm|9|FM15-METAR|223|ICAO-KFCH|0.0|C-Calm|1|FM15-METAR|223|ICAO-KFCH|||||||||||||76|Derived||FM15-METAR|223|ICAO-KFCH|||||||||||||||||||||||||||||||||||||||||||||||||||||||||||||||||||||||||1029.1||1|FM15-METAR|223|ICAO-KFCH|||||||||||||||||||||||||||||||||||||||||||MET061METAR KFCH 271355Z AUTO 00000KT 10SM CLR 05/01 A3039 RMK A01=||F||223|ICAO-KFCH
USW00023167|FRESNO CHANDLER DWTN AP|2022|02|27|14|15|36.7333|-119.8167|84.1|6.0||1|FM15-METAR|223|ICAO-KFCH|1.0||1|FM15-METAR|223|ICAO-KFCH|||||||||||||999|C-Calm|9|FM15-METAR|223|ICAO-KFCH|0.0|C-Calm|1|FM15-METAR|223|ICAO-KFCH|||||||||||||71|Derived||FM15-METAR|223|ICAO-KFCH|||||||||||||||||||||||||||||||||||||||||||||||||||||||||||||||||||||||||1029.5||1|FM15-METAR|223|ICAO-KFCH|||||||||||||||||||||||||||||||||||||||||||MET061METAR KFCH 271415Z AUTO 00000KT 10SM CLR 06/01 A3040 RMK A01=||F||223|ICAO-KFCH
USW00023167|FRESNO CHANDLER DWTN AP|2022|02|27|14|35|36.7333|-119.8167|84.1|5.0||1|FM15-METAR|223|ICAO-KFCH|1.0||1|FM15-METAR|223|ICAO-KFCH|||||||||||||999|C-Calm|9|FM15-METAR|223|ICAO-KFCH|0.0|C-Calm|1|FM15-METAR|223|ICAO-KFCH|||||||||||||76|Derived||FM15-METAR|223|ICAO-KFCH|||||||||||||||||||||||||||||||||||||||||||||||||||||||||||||||||||||||||1029.5||1|FM15-METAR|223|ICAO-KFCH|||||||||||||||||||||||||||||||||||||||||||MET061METAR KFCH 271435Z AUTO 00000KT 10SM CLR 05/01 A3040 RMK A01=||F||223|ICAO-KFCH
USW00023167|FRESNO CHANDLER DWTN AP|2022|02|27|14|55|36.7333|-119.8167|84.1|5.0||1|FM15-METAR|223|ICAO-KFCH|1.0||1|FM15-METAR|223|ICAO-KFCH|||||||||||||999|C-Calm|9|FM15-METAR|223|ICAO-KFCH|0.0|C-Calm|1|FM15-METAR|223|ICAO-KFCH|||||||||||||76|Derived||FM15-METAR|223|ICAO-KFCH|||||||||||||||||||||||||||||||||||||||||||||||||||||||||||||||||||||||||1029.5||1|FM15-METAR|223|ICAO-KFCH|||||||||||||||||||||||||||||||||||||||||||MET061METAR KFCH 271455Z AUTO 00000KT 10SM CLR 05/01 A3040 RMK A01=||F||223|ICAO-KFCH
USW00023167|FRESNO CHANDLER DWTN AP|2022|02|27|15|15|36.7333|-119.8167|84.1|5.0||1|FM15-METAR|223|ICAO-KFCH|1.0||1|FM15-METAR|223|ICAO-KFCH|||||||||||||999|C-Calm|9|FM15-METAR|223|ICAO-KFCH|0.0|C-Calm|1|FM15-METAR|223|ICAO-KFCH|||||||||||||76|Derived||FM15-METAR|223|ICAO-KFCH|||||||||||||||||||||||||||||||||||||||||||||||||||||||||||||||||||||||||1029.5||1|FM15-METAR|223|ICAO-KFCH|||||||||||||||||||||||||||||||||||||||||||MET061METAR KFCH 271515Z AUTO 00000KT 10SM CLR 05/01 A3040 RMK A01=||F||223|ICAO-KFCH
USW00023167|FRESNO CHANDLER DWTN AP|2022|02|27|15|35|36.7333|-119.8167|84.1|5.0||1|FM15-METAR|223|ICAO-KFCH|2.0||1|FM15-METAR|223|ICAO-KFCH|||||||||||||999|C-Calm|9|FM15-METAR|223|ICAO-KFCH|0.0|C-Calm|1|FM15-METAR|223|ICAO-KFCH|||||||||||||81|Derived||FM15-METAR|223|ICAO-KFCH|||||||||||||||||||||||||||||||||||||||||||||||||||||||||||||||||||||||||1029.8||1|FM15-METAR|223|ICAO-KFCH|||||||||||||||||||||||||||||||||||||||||||MET061METAR KFCH 271535Z AUTO 00000KT 10SM CLR 05/02 A3041 RMK A01=||F||223|ICAO-KFCH
USW00023167|FRESNO CHANDLER DWTN AP|2022|02|27|15|55|36.7333|-119.8167|84.1|6.0||1|FM15-METAR|223|ICAO-KFCH|2.0||1|FM15-METAR|223|ICAO-KFCH|||||||||||||999|C-Calm|9|FM15-METAR|223|ICAO-KFCH|0.0|C-Calm|1|FM15-METAR|223|ICAO-KFCH|||||||||||||76|Derived||FM15-METAR|223|ICAO-KFCH|||||||||||||||||||||||||||||||||||||||||||||||||||||||||||||||||||||||||1029.8||1|FM15-METAR|223|ICAO-KFCH|||||||||||||||||||||||||||||||||||||||||||MET061METAR KFCH 271555Z AUTO 00000KT 10SM CLR 06/02 A3041 RMK A01=||F||223|ICAO-KFCH
USW00023167|FRESNO CHANDLER DWTN AP|2022|02|27|16|15|36.7333|-119.8167|84.1|7.0||1|FM15-METAR|223|ICAO-KFCH|3.0||1|FM15-METAR|223|ICAO-KFCH|||||||||||||999|C-Calm|9|FM15-METAR|223|ICAO-KFCH|0.0|C-Calm|1|FM15-METAR|223|ICAO-KFCH|||||||||||||76|Derived||FM15-METAR|223|ICAO-KFCH|||||||||||||||||||||||||||||||||||||||||||||||||||||||||||||||||||||||||1030.1||1|FM15-METAR|223|ICAO-KFCH|||||||||||||||||||||||||||||||||||||||||||MET061METAR KFCH 271615Z AUTO 00000KT 10SM CLR 07/03 A3042 RMK A01=||F||223|ICAO-KFCH
USW00023167|FRESNO CHANDLER DWTN AP|2022|02|27|16|35|36.7333|-119.8167|84.1|8.0||1|FM15-METAR|223|ICAO-KFCH|3.0||1|FM15-METAR|223|ICAO-KFCH|||||||||||||999|C-Calm|9|FM15-METAR|223|ICAO-KFCH|0.0|C-Calm|1|FM15-METAR|223|ICAO-KFCH|||||||||||||71|Derived||FM15-METAR|223|ICAO-KFCH|||||||||||||||||||||||||||||||||||||||||||||||||||||||||||||||||||||||||1030.1||1|FM15-METAR|223|ICAO-KFCH|||||||||||||||||||||||||||||||||||||||||||MET061METAR KFCH 271635Z AUTO 00000KT 10SM CLR 08/03 A3042 RMK A01=||F||223|ICAO-KFCH
USW00023167|FRESNO CHANDLER DWTN AP|2022|02|27|16|55|36.7333|-119.8167|84.1|9.0||1|FM15-METAR|223|ICAO-KFCH|3.0||1|FM15-METAR|223|ICAO-KFCH|||||||||||||||||||||||||||||||||||||66|Derived||FM15-METAR|223|ICAO-KFCH|||||||||||||||||||||||||||||||||||||||||||||||||||||||||||||||||||||||||1030.1||1|FM15-METAR|223|ICAO-KFCH|||||||||||||||||||||||||||||||||||||||||||MET053METAR KFCH 271655Z AUTO 10SM CLR 09/03 A3042 RMK A01=||F||223|ICAO-KFCH
USW00023167|FRESNO CHANDLER DWTN AP|2022|02|27|17|15|36.7333|-119.8167|84.1|10.0||1|FM15-METAR|223|ICAO-KFCH|3.0||1|FM15-METAR|223|ICAO-KFCH|||||||||||||999|C-Calm|9|FM15-METAR|223|ICAO-KFCH|0.0|C-Calm|1|FM15-METAR|223|ICAO-KFCH|||||||||||||62|Derived||FM15-METAR|223|ICAO-KFCH|||||||||||||||||||||||||||||||||||||||||||||||||||||||||||||||||||||||||1030.5||1|FM15-METAR|223|ICAO-KFCH|||||||||||||||||||||||||||||||||||||||||||MET057METAR KFCH 271715Z AUTO 00000KT 10SM 10/03 A3043 RMK A01=||F||223|ICAO-KFCH
USW00023167|FRESNO CHANDLER DWTN AP|2022|02|27|17|35|36.7333|-119.8167|84.1|12.0||1|FM15-METAR|223|ICAO-KFCH|3.0||1|FM15-METAR|223|ICAO-KFCH|||||||||||||999|C-Calm|9|FM15-METAR|223|ICAO-KFCH|0.0|C-Calm|1|FM15-METAR|223|ICAO-KFCH|||||||||||||54|Derived||FM15-METAR|223|ICAO-KFCH|||||||||||||||||||||||||||||||||||||||||||||||||||||||||||||||||||||||||1030.1||1|FM15-METAR|223|ICAO-KFCH|||||||||||||||||||||||||||||||||||||||||||MET061METAR KFCH 271735Z AUTO 00000KT 10SM CLR 12/03 A3042 RMK A01=||F||223|ICAO-KFCH
USW00023167|FRESNO CHANDLER DWTN AP|2022|02|27|17|55|36.7333|-119.8167|84.1|13.0||1|FM15-METAR|223|ICAO-KFCH|3.0||1|FM15-METAR|223|ICAO-KFCH|||||||||||||999|C-Calm|9|FM15-METAR|223|ICAO-KFCH|0.0|C-Calm|1|FM15-METAR|223|ICAO-KFCH|||||||||||||51|Derived||FM15-METAR|223|ICAO-KFCH|||||||||||||||||||||||||||||||||||||||||||||||||||||||||||||||||||||||||1030.1||1|FM15-METAR|223|ICAO-KFCH|||||||||||||||||||||||||||||||||||||||||||MET061METAR KFCH 271755Z AUTO 00000KT 10SM CLR 13/03 A3042 RMK A01=||F||223|ICAO-KFCH
USW00023167|FRESNO CHANDLER DWTN AP|2022|02|27|18|15|36.7333|-119.8167|84.1|13.0||1|FM15-METAR|223|ICAO-KFCH|2.0||1|FM15-METAR|223|ICAO-KFCH|||||||||||||999|C-Calm|9|FM15-METAR|223|ICAO-KFCH|0.0|C-Calm|1|FM15-METAR|223|ICAO-KFCH|||||||||||||47|Derived||FM15-METAR|223|ICAO-KFCH|||||||||||||||||||||||||||||||||||||||||||||||||||||||||||||||||||||||||1030.1||1|FM15-METAR|223|ICAO-KFCH|||||||||||||||||||||||||||||||||||||||||||MET061METAR KFCH 271815Z AUTO 00000KT 10SM CLR 13/02 A3042 RMK A01=||F||223|ICAO-KFCH
USW00023167|FRESNO CHANDLER DWTN AP|2022|02|27|18|35|36.7333|-119.8167|84.1|14.0||1|FM15-METAR|223|ICAO-KFCH|2.0||1|FM15-METAR|223|ICAO-KFCH|||||||||||||999|C-Calm|9|FM15-METAR|223|ICAO-KFCH|0.0|C-Calm|1|FM15-METAR|223|ICAO-KFCH|||||||||||||44|Derived||FM15-METAR|223|ICAO-KFCH|||||||||||||||||||||||||||||||||||||||||||||||||||||||||||||||||||||||||1029.8||1|FM15-METAR|223|ICAO-KFCH|||||||||||||||||||||||||||||||||||||||||||MET061METAR KFCH 271835Z AUTO 00000KT 10SM CLR 14/02 A3041 RMK A01=||F||223|ICAO-KFCH
USW00023167|FRESNO CHANDLER DWTN AP|2022|02|27|18|55|36.7333|-119.8167|84.1|15.0||1|FM15-METAR|223|ICAO-KFCH|0.0||1|FM15-METAR|223|ICAO-KFCH|||||||||||||999|C-Calm|9|FM15-METAR|223|ICAO-KFCH|0.0|C-Calm|1|FM15-METAR|223|ICAO-KFCH|||||||||||||36|Derived||FM15-METAR|223|ICAO-KFCH|||||||||||||||||||||||||||||||||||||||||||||||||||||||||||||||||||||||||1029.8||1|FM15-METAR|223|ICAO-KFCH|||||||||||||||||||||||||||||||||||||||||||MET061METAR KFCH 271855Z AUTO 00000KT 10SM CLR 15/00 A3041 RMK A01=||F||223|ICAO-KFCH
USW00023167|FRESNO CHANDLER DWTN AP|2022|02|27|19|15|36.7333|-119.8167|84.1|16.0||1|FM15-METAR|223|ICAO-KFCH|0.0||1|FM15-METAR|223|ICAO-KFCH|||||||||||||999|C-Calm|9|FM15-METAR|223|ICAO-KFCH|0.0|C-Calm|1|FM15-METAR|223|ICAO-KFCH|||||||||||||34|Derived||FM15-METAR|223|ICAO-KFCH|||||||||||||||||||||||||||||||||||||||||||||||||||||||||||||||||||||||||1029.8||1|FM15-METAR|223|ICAO-KFCH|||||||||||||||||||||||||||||||||||||||||||MET061METAR KFCH 271915Z AUTO 00000KT 10SM CLR 16/00 A3041 RMK A01=||F||223|ICAO-KFCH
USW00023167|FRESNO CHANDLER DWTN AP|2022|02|27|19|35|36.7333|-119.8167|84.1|16.0||1|FM15-METAR|223|ICAO-KFCH|0.0||1|FM15-METAR|223|ICAO-KFCH|||||||||||||999|V-Variable|9|FM15-METAR|223|ICAO-KFCH|3.1|V-Variable|1|FM15-METAR|223|ICAO-KFCH|||||||||||||34|Derived||FM15-METAR|223|ICAO-KFCH|||||||||||||||||||||||||||||||||||||||||||||||||||||||||||||||||||||||||1029.8||1|FM15-METAR|223|ICAO-KFCH|||||||||||||||||||||||||||||||||||||||||||MET061METAR KFCH 271935Z AUTO VRB06KT 10SM CLR 16/00 A3041 RMK A01=||F||223|ICAO-KFCH
USW00023167|FRESNO CHANDLER DWTN AP|2022|02|27|19|55|36.7333|-119.8167|84.1|17.0||1|FM15-METAR|223|ICAO-KFCH|0.0||1|FM15-METAR|223|ICAO-KFCH|||||||||||||310|N-Normal|1|FM15-METAR|223|ICAO-KFCH|2.6|N-Normal|1|FM15-METAR|223|ICAO-KFCH|||||||||||||32|Derived||FM15-METAR|223|ICAO-KFCH|||||||||||||||||||||||||||||||||||||||||||||||||||||||||||||||||||||||||1029.5||1|FM15-METAR|223|ICAO-KFCH|||||||||||||||||||||||||||||||||||||||||||MET061METAR KFCH 271955Z AUTO 31005KT 10SM CLR 17/00 A3040 RMK A01=||F||223|ICAO-KFCH
USW00023167|FRESNO CHANDLER DWTN AP|2022|02|27|20|15|36.7333|-119.8167|84.1|17.0||1|FM15-METAR|223|ICAO-KFCH|1.0||1|FM15-METAR|223|ICAO-KFCH|||||||||||||999|C-Calm|9|FM15-METAR|223|ICAO-KFCH|0.0|C-Calm|1|FM15-METAR|223|ICAO-KFCH|||||||||||||34|Derived||FM15-METAR|223|ICAO-KFCH|||||||||||||||||||||||||||||||||||||||||||||||||||||||||||||||||||||||||1029.1||1|FM15-METAR|223|ICAO-KFCH|||||||||||||||||||||||||||||||||||||||||||MET061METAR KFCH 272015Z AUTO 00000KT 10SM CLR 17/01 A3039 RMK A01=||F||223|ICAO-KFCH
USW00023167|FRESNO CHANDLER DWTN AP|2022|02|27|20|35|36.7333|-119.8167|84.1|17.0||1|FM15-METAR|223|ICAO-KFCH|0.0||1|FM15-METAR|223|ICAO-KFCH|||||||||||||300|N-Normal|1|FM15-METAR|223|ICAO-KFCH|3.1|N-Normal|1|FM15-METAR|223|ICAO-KFCH|5.7||1|FM15-METAR|223|ICAO-KFCH|||||||32|Derived||FM15-METAR|223|ICAO-KFCH|||||||||||||||||||||||||||||||||||||||||||||||||||||||||||||||||||||||||1029.1||1|FM15-METAR|223|ICAO-KFCH|||||||||||||||||||||||||||||||||||||||||||MET064METAR KFCH 272035Z AUTO 30006G11KT 10SM CLR 17/00 A3039 RMK A01=||F||223|ICAO-KFCH
USW00023167|FRESNO CHANDLER DWTN AP|2022|02|27|20|50|36.7333|-119.8167|84.1|18.0||1|FM15-METAR|223|ICAO-KFCH|-1.0||1|FM15-METAR|223|ICAO-KFCH|||||||||||||999|V-Variable|9|FM15-METAR|223|ICAO-KFCH|2.6|V-Variable|1|FM15-METAR|223|ICAO-KFCH|||||||||||||28|Derived||FM15-METAR|223|ICAO-KFCH|||||||||||||||||||||||||||||||||||||||||||||||||||||||||||||||||||||||||1028.8||1|FM15-METAR|223|ICAO-KFCH|||||||||||||||||||||||||||||||||||||||||||MET062METAR KFCH 272050Z AUTO VRB05KT 10SM CLR 18/M01 A3038 RMK A01=||F||223|ICAO-KFCH
USW00023167|FRESNO CHANDLER DWTN AP|2022|02|27|21|15|36.7333|-119.8167|84.1|18.0||1|FM15-METAR|223|ICAO-KFCH|-1.0||1|FM15-METAR|223|ICAO-KFCH|||||||||||||999|C-Calm|9|FM15-METAR|223|ICAO-KFCH|0.0|C-Calm|1|FM15-METAR|223|ICAO-KFCH|||||||||||||28|Derived||FM15-METAR|223|ICAO-KFCH|||||||||||||||||||||||||||||||||||||||||||||||||||||||||||||||||||||||||1028.4||1|FM15-METAR|223|ICAO-KFCH|||||||||||||||||||||||||||||||||||||||||||MET062METAR KFCH 272115Z AUTO 00000KT 10SM CLR 18/M01 A3037 RMK A01=||F||223|ICAO-KFCH
USW00023167|FRESNO CHANDLER DWTN AP|2022|02|27|21|35|36.7333|-119.8167|84.1|19.0||1|FM15-METAR|223|ICAO-KFCH|-1.0||1|FM15-METAR|223|ICAO-KFCH|||||||||||||999|V-Variable|9|FM15-METAR|223|ICAO-KFCH|2.6|V-Variable|1|FM15-METAR|223|ICAO-KFCH|||||||||||||26|Derived||FM15-METAR|223|ICAO-KFCH|||||||||||||||||||||||||||||||||||||||||||||||||||||||||||||||||||||||||1028.1||1|FM15-METAR|223|ICAO-KFCH|||||||||||||||||||||||||||||||||||||||||||MET062METAR KFCH 272135Z AUTO VRB05KT 10SM CLR 19/M01 A3036 RMK A01=||F||223|ICAO-KFCH
USW00023167|FRESNO CHANDLER DWTN AP|2022|02|27|21|55|36.7333|-119.8167|84.1|19.0||1|FM15-METAR|223|ICAO-KFCH|-2.0||1|FM15-METAR|223|ICAO-KFCH|||||||||||||290|N-Normal|1|FM15-METAR|223|ICAO-KFCH|3.1|N-Normal|1|FM15-METAR|223|ICAO-KFCH|||||||||||||24|Derived||FM15-METAR|223|ICAO-KFCH|||||||||||||||||||||||||||||||||||||||||||||||||||||||||||||||||||||||||1027.8||1|FM15-METAR|223|ICAO-KFCH|||||||||||||||||||||||||||||||||||||||||||MET062METAR KFCH 272155Z AUTO 29006KT 10SM CLR 19/M02 A3035 RMK A01=||F||223|ICAO-KFCH
USW00023167|FRESNO CHANDLER DWTN AP|2022|02|27|22|15|36.7333|-119.8167|84.1|19.0||1|FM15-METAR|223|ICAO-KFCH|-2.0||1|FM15-METAR|223|ICAO-KFCH|||||||||||||290|N-Normal|1|FM15-METAR|223|ICAO-KFCH|3.1|N-Normal|1|FM15-METAR|223|ICAO-KFCH|||||||||||||24|Derived||FM15-METAR|223|ICAO-KFCH|||||||||||||||||||||||||||||||||||||||||||||||||||||||||||||||||||||||||1027.4||1|FM15-METAR|223|ICAO-KFCH|||||||||||||||||||||||||||||||||||||||||||MET062METAR KFCH 272215Z AUTO 29006KT 10SM CLR 19/M02 A3034 RMK A01=||F||223|ICAO-KFCH
USW00023167|FRESNO CHANDLER DWTN AP|2022|02|27|22|35|36.7333|-119.8167|84.1|19.0||1|FM15-METAR|223|ICAO-KFCH|-2.0||1|FM15-METAR|223|ICAO-KFCH|||||||||||||999|C-Calm|9|FM15-METAR|223|ICAO-KFCH|0.0|C-Calm|1|FM15-METAR|223|ICAO-KFCH|||||||||||||24|Derived||FM15-METAR|223|ICAO-KFCH|||||||||||||||||||||||||||||||||||||||||||||||||||||||||||||||||||||||||1027.1||1|FM15-METAR|223|ICAO-KFCH|||||||||||||||||||||||||||||||||||||||||||MET062METAR KFCH 272235Z AUTO 00000KT 10SM CLR 19/M02 A3033 RMK A01=||F||223|ICAO-KFCH
USW00023167|FRESNO CHANDLER DWTN AP|2022|02|27|22|55|36.7333|-119.8167|84.1|20.0||1|FM15-METAR|223|ICAO-KFCH|-3.0||1|FM15-METAR|223|ICAO-KFCH|||||||||||||310|N-Normal|1|FM15-METAR|223|ICAO-KFCH|2.1|N-Normal|1|FM15-METAR|223|ICAO-KFCH|||||||||||||21|Derived||FM15-METAR|223|ICAO-KFCH|||||||||||||||||||||||||||||||||||||||||||||||||||||||||||||||||||||||||1027.1||1|FM15-METAR|223|ICAO-KFCH|||||||||||||||||||||||||||||||||||||||||||MET062METAR KFCH 272255Z AUTO 31004KT 10SM CLR 20/M03 A3033 RMK A01=||F||223|ICAO-KFCH
USW00023167|FRESNO CHANDLER DWTN AP|2022|02|27|23|15|36.7333|-119.8167|84.1|20.0||1|FM15-METAR|223|ICAO-KFCH|-3.0||1|FM15-METAR|223|ICAO-KFCH|||||||||||||999|V-Variable|9|FM15-METAR|223|ICAO-KFCH|2.6|V-Variable|1|FM15-METAR|223|ICAO-KFCH|||||||||||||21|Derived||FM15-METAR|223|ICAO-KFCH|||||||||||||||||||||||||||||||||||||||||||||||||||||||||||||||||||||||||1026.7||1|FM15-METAR|223|ICAO-KFCH|||||||||||||||||||||||||||||||||||||||||||MET062METAR KFCH 272315Z AUTO VRB05KT 10SM CLR 20/M03 A3032 RMK A01=||F||223|ICAO-KFCH
USW00023167|FRESNO CHANDLER DWTN AP|2022|02|27|23|35|36.7333|-119.8167|84.1|19.0||1|FM15-METAR|223|ICAO-KFCH|-3.0||1|FM15-METAR|223|ICAO-KFCH|||||||||||||999|C-Calm|9|FM15-METAR|223|ICAO-KFCH|0.0|C-Calm|1|FM15-METAR|223|ICAO-KFCH|||||||||||||22|Derived||FM15-METAR|223|ICAO-KFCH|||||||||||||||||||||||||||||||||||||||||||||||||||||||||||||||||||||||||1026.7||1|FM15-METAR|223|ICAO-KFCH|||||||||||||||||||||||||||||||||||||||||||MET062METAR KFCH 272335Z AUTO 00000KT 10SM CLR 19/M03 A3032 RMK A01=||F||223|ICAO-KFCH
USW00023167|FRESNO CHANDLER DWTN AP|2022|02|27|23|55|36.7333|-119.8167|84.1|20.0||1|FM15-METAR|223|ICAO-KFCH|-3.0||1|FM15-METAR|223|ICAO-KFCH|||||||||||||270|N-Normal|1|FM15-METAR|223|ICAO-KFCH|1.5|N-Normal|1|FM15-METAR|223|ICAO-KFCH|||||||||||||21|Derived||FM15-METAR|223|ICAO-KFCH|||||||||||||||||||||||||||||||||||||||||||||||||||||||||||||||||||||||||1026.4||1|FM15-METAR|223|ICAO-KFCH|||||||||||||||||||||||||||||||||||||||||||MET062METAR KFCH 272355Z AUTO 27003KT 10SM CLR 20/M03 A3031 RMK A01=||F||223|ICAO-KFCH
USW00023167|FRESNO CHANDLER DWTN AP|2022|02|28|00|15|36.7333|-119.8167|84.1|20.0||1|FM15-METAR|223|ICAO-KFCH|-3.0||1|FM15-METAR|223|ICAO-KFCH|||||||||||||320|N-Normal|1|FM15-METAR|223|ICAO-KFCH|1.5|N-Normal|1|FM15-METAR|223|ICAO-KFCH|||||||||||||21|Derived||FM15-METAR|223|ICAO-KFCH|||||||||||||||||||||||||||||||||||||||||||||||||||||||||||||||||||||||||1026.4||1|FM15-METAR|223|ICAO-KFCH|||||||||||||||||||||||||||||||||||||||||||MET062METAR KFCH 280015Z AUTO 32003KT 10SM CLR 20/M03 A3031 RMK A01=||F||223|ICAO-KFCH
USW00023167|FRESNO CHANDLER DWTN AP|2022|02|28|00|35|36.7333|-119.8167|84.1|20.0||1|FM15-METAR|223|ICAO-KFCH|-3.0||1|FM15-METAR|223|ICAO-KFCH|||||||||||||290|N-Normal|1|FM15-METAR|223|ICAO-KFCH|2.1|N-Normal|1|FM15-METAR|223|ICAO-KFCH|||||||||||||21|Derived||FM15-METAR|223|ICAO-KFCH|||||||||||||||||||||||||||||||||||||||||||||||||||||||||||||||||||||||||1026.1||1|FM15-METAR|223|ICAO-KFCH|||||||||||||||||||||||||||||||||||||||||||MET062METAR KFCH 280035Z AUTO 29004KT 10SM CLR 20/M03 A3030 RMK A01=||F||223|ICAO-KFCH
USW00023167|FRESNO CHANDLER DWTN AP|2022|02|28|00|50|36.7333|-119.8167|84.1|19.0||1|FM15-METAR|223|ICAO-KFCH|-3.0||1|FM15-METAR|223|ICAO-KFCH|||||||||||||250|N-Normal|1|FM15-METAR|223|ICAO-KFCH|2.1|N-Normal|1|FM15-METAR|223|ICAO-KFCH|||||||||||||22|Derived||FM15-METAR|223|ICAO-KFCH|||||||||||||||||||||||||||||||||||||||||||||||||||||||||||||||||||||||||1026.4||1|FM15-METAR|223|ICAO-KFCH|||||||||||||||||||||||||||||||||||||||||||MET062METAR KFCH 280050Z AUTO 25004KT 10SM CLR 19/M03 A3031 RMK A01=||F||223|ICAO-KFCH
USW00023167|FRESNO CHANDLER DWTN AP|2022|02|28|01|15|36.7333|-119.8167|84.1|19.0||1|FM15-METAR|223|ICAO-KFCH|-2.0||1|FM15-METAR|223|ICAO-KFCH|||||||||||||300|N-Normal|1|FM15-METAR|223|ICAO-KFCH|1.5|N-Normal|1|FM15-METAR|223|ICAO-KFCH|||||||||||||24|Derived||FM15-METAR|223|ICAO-KFCH|||||||||||||||||||||||||||||||||||||||||||||||||||||||||||||||||||||||||1026.4||1|FM15-METAR|223|ICAO-KFCH|||||||||||||||||||||||||||||||||||||||||||MET062METAR KFCH 280115Z AUTO 30003KT 10SM CLR 19/M02 A3031 RMK A01=||F||223|ICAO-KFCH
USW00023167|FRESNO CHANDLER DWTN AP|2022|02|28|01|30|36.7333|-119.8167|84.1|19.0||1|FM15-METAR|223|ICAO-KFCH|-2.0||1|FM15-METAR|223|ICAO-KFCH|||||||||||||310|N-Normal|1|FM15-METAR|223|ICAO-KFCH|2.1|N-Normal|1|FM15-METAR|223|ICAO-KFCH|||||||||||||24|Derived||FM15-METAR|223|ICAO-KFCH|||||||||||||||||||||||||||||||||||||||||||||||||||||||||||||||||||||||||1026.4||1|FM15-METAR|223|ICAO-KFCH|||||||||||||||||||||||||||||||||||||||||||MET062METAR KFCH 280130Z AUTO 31004KT 10SM CLR 19/M02 A3031 RMK A01=||F||223|ICAO-KFCH
USW00023167|FRESNO CHANDLER DWTN AP|2022|02|28|01|55|36.7333|-119.8167|84.1|17.0||1|FM15-METAR|223|ICAO-KFCH|-2.0||1|FM15-METAR|223|ICAO-KFCH|||||||||||||999|C-Calm|9|FM15-METAR|223|ICAO-KFCH|0.0|C-Calm|1|FM15-METAR|223|ICAO-KFCH|||||||||||||27|Derived||FM15-METAR|223|ICAO-KFCH|||||||||||||||||||||||||||||||||||||||||||||||||||||||||||||||||||||||||1026.4||1|FM15-METAR|223|ICAO-KFCH|||||||||||||||||||||||||||||||||||||||||||MET062METAR KFCH 280155Z AUTO 00000KT 10SM CLR 17/M02 A3031 RMK A01=||F||223|ICAO-KFCH
USW00023167|FRESNO CHANDLER DWTN AP|2022|02|28|02|10|36.7333|-119.8167|84.1|17.0||1|FM15-METAR|223|ICAO-KFCH|-1.0||1|FM15-METAR|223|ICAO-KFCH|||||||||||||290|N-Normal|1|FM15-METAR|223|ICAO-KFCH|2.1|N-Normal|1|FM15-METAR|223|ICAO-KFCH|||||||||||||30|Derived||FM15-METAR|223|ICAO-KFCH|||||||||||||||||||||||||||||||||||||||||||||||||||||||||||||||||||||||||1026.7||1|FM15-METAR|223|ICAO-KFCH|||||||||||||||||||||||||||||||||||||||||||MET062METAR KFCH 280210Z AUTO 29004KT 10SM CLR 17/M01 A3032 RMK A01=||F||223|ICAO-KFCH
USW00023167|FRESNO CHANDLER DWTN AP|2022|02|28|02|35|36.7333|-119.8167|84.1|16.0||1|FM15-METAR|223|ICAO-KFCH|-1.0||1|FM15-METAR|223|ICAO-KFCH|||||||||||||999|C-Calm|9|FM15-METAR|223|ICAO-KFCH|0.0|C-Calm|1|FM15-METAR|223|ICAO-KFCH|||||||||||||31|Derived||FM15-METAR|223|ICAO-KFCH|||||||||||||||||||||||||||||||||||||||||||||||||||||||||||||||||||||||||1026.7||1|FM15-METAR|223|ICAO-KFCH|||||||||||||||||||||||||||||||||||||||||||MET062METAR KFCH 280235Z AUTO 00000KT 10SM CLR 16/M01 A3032 RMK A01=||F||223|ICAO-KFCH
USW00023167|FRESNO CHANDLER DWTN AP|2022|02|28|02|55|36.7333|-119.8167|84.1|16.0||1|FM15-METAR|223|ICAO-KFCH|-1.0||1|FM15-METAR|223|ICAO-KFCH|||||||||||||999|C-Calm|9|FM15-METAR|223|ICAO-KFCH|0.0|C-Calm|1|FM15-METAR|223|ICAO-KFCH|||||||||||||31|Derived||FM15-METAR|223|ICAO-KFCH|||||||||||||||||||||||||||||||||||||||||||||||||||||||||||||||||||||||||1027.1||1|FM15-METAR|223|ICAO-KFCH|||||||||||||||||||||||||||||||||||||||||||MET062METAR KFCH 280255Z AUTO 00000KT 10SM CLR 16/M01 A3033 RMK A01=||F||223|ICAO-KFCH
USW00023167|FRESNO CHANDLER DWTN AP|2022|02|28|03|15|36.7333|-119.8167|84.1|15.0||1|FM15-METAR|223|ICAO-KFCH|-1.0||1|FM15-METAR|223|ICAO-KFCH|||||||||||||999|C-Calm|9|FM15-METAR|223|ICAO-KFCH|0.0|C-Calm|1|FM15-METAR|223|ICAO-KFCH|||||||||||||34|Derived||FM15-METAR|223|ICAO-KFCH|||||||||||||||||||||||||||||||||||||||||||||||||||||||||||||||||||||||||1027.1||1|FM15-METAR|223|ICAO-KFCH|||||||||||||||||||||||||||||||||||||||||||MET062METAR KFCH 280315Z AUTO 00000KT 10SM CLR 15/M01 A3033 RMK A01=||F||223|ICAO-KFCH
USW00023167|FRESNO CHANDLER DWTN AP|2022|02|28|03|35|36.7333|-119.8167|84.1|14.0||1|FM15-METAR|223|ICAO-KFCH|0.0||1|FM15-METAR|223|ICAO-KFCH|||||||||||||999|C-Calm|9|FM15-METAR|223|ICAO-KFCH|0.0|C-Calm|1|FM15-METAR|223|ICAO-KFCH|||||||||||||39|Derived||FM15-METAR|223|ICAO-KFCH|||||||||||||||||||||||||||||||||||||||||||||||||||||||||||||||||||||||||1027.1||1|FM15-METAR|223|ICAO-KFCH|||||||||||||||||||||||||||||||||||||||||||MET062METAR KFCH 280335Z AUTO 00000KT 10SM CLR 14/M00 A3033 RMK A01=||F||223|ICAO-KFCH
USW00023167|FRESNO CHANDLER DWTN AP|2022|02|28|03|55|36.7333|-119.8167|84.1|15.0||1|FM15-METAR|223|ICAO-KFCH|0.0||1|FM15-METAR|223|ICAO-KFCH|||||||||||||999|C-Calm|9|FM15-METAR|223|ICAO-KFCH|0.0|C-Calm|1|FM15-METAR|223|ICAO-KFCH|||||||||||||36|Derived||FM15-METAR|223|ICAO-KFCH|||||||||||||||||||||||||||||||||||||||||||||||||||||||||||||||||||||||||1027.1||1|FM15-METAR|223|ICAO-KFCH|||||||||||||||||||||||||||||||||||||||||||MET062METAR KFCH 280355Z AUTO 00000KT 10SM CLR 15/M00 A3033 RMK A01=||F||223|ICAO-KFCH
USW00023167|FRESNO CHANDLER DWTN AP|2022|02|28|04|15|36.7333|-119.8167|84.1|13.0||1|FM15-METAR|223|ICAO-KFCH|0.0||1|FM15-METAR|223|ICAO-KFCH|||||||||||||999|C-Calm|9|FM15-METAR|223|ICAO-KFCH|0.0|C-Calm|1|FM15-METAR|223|ICAO-KFCH|||||||||||||41|Derived||FM15-METAR|223|ICAO-KFCH|||||||||||||||||||||||||||||||||||||||||||||||||||||||||||||||||||||||||1027.4||1|FM15-METAR|223|ICAO-KFCH|||||||||||||||||||||||||||||||||||||||||||MET061METAR KFCH 280415Z AUTO 00000KT 10SM CLR 13/00 A3034 RMK A01=||F||223|ICAO-KFCH
USW00023167|FRESNO CHANDLER DWTN AP|2022|02|28|04|35|36.7333|-119.8167|84.1|13.0||1|FM15-METAR|223|ICAO-KFCH|0.0||1|FM15-METAR|223|ICAO-KFCH|||||||||||||999|C-Calm|9|FM15-METAR|223|ICAO-KFCH|0.0|C-Calm|1|FM15-METAR|223|ICAO-KFCH|||||||||||||41|Derived||FM15-METAR|223|ICAO-KFCH|||||||||||||||||||||||||||||||||||||||||||||||||||||||||||||||||||||||||1027.8||1|FM15-METAR|223|ICAO-KFCH|||||||||||||||||||||||||||||||||||||||||||MET052METAR KFCH 280435Z AUTO 00000KT 13/00 A3035 RMK A01=||F||223|ICAO-KFCH
USW00023167|FRESNO CHANDLER DWTN AP|2022|02|28|04|50|36.7333|-119.8167|84.1|14.0||1|FM15-METAR|223|ICAO-KFCH|0.0||1|FM15-METAR|223|ICAO-KFCH|||||||||||||999|C-Calm|9|FM15-METAR|223|ICAO-KFCH|0.0|C-Calm|1|FM15-METAR|223|ICAO-KFCH|||||||||||||39|Derived||FM15-METAR|223|ICAO-KFCH|||||||||||||||||||||||||||||||||||||||||||||||||||||||||||||||||||||||||1027.8||1|FM15-METAR|223|ICAO-KFCH|||||||||||||||||||||||||||||||||||||||||||MET058METAR KFCH 280450Z AUTO 00000KT 10SM 14/M00 A3035 RMK A01=||F||223|ICAO-KFCH
USW00023167|FRESNO CHANDLER DWTN AP|2022|02|28|05|15|36.7333|-119.8167|84.1|12.0||1|FM15-METAR|223|ICAO-KFCH|1.0||1|FM15-METAR|223|ICAO-KFCH|||||||||||||999|C-Calm|9|FM15-METAR|223|ICAO-KFCH|0.0|C-Calm|1|FM15-METAR|223|ICAO-KFCH|||||||||||||47|Derived||FM15-METAR|223|ICAO-KFCH|||||||||||||||||||||||||||||||||||||||||||||||||||||||||||||||||||||||||1027.8||1|FM15-METAR|223|ICAO-KFCH|||||||||||||||||||||||||||||||||||||||||||MET061METAR KFCH 280515Z AUTO 00000KT 10SM CLR 12/01 A3035 RMK A01=||F||223|ICAO-KFCH
USW00023167|FRESNO CHANDLER DWTN AP|2022|02|28|05|35|36.7333|-119.8167|84.1|12.0||1|FM15-METAR|223|ICAO-KFCH|1.0||1|FM15-METAR|223|ICAO-KFCH|||||||||||||999|C-Calm|9|FM15-METAR|223|ICAO-KFCH|0.0|C-Calm|1|FM15-METAR|223|ICAO-KFCH|||||||||||||47|Derived||FM15-METAR|223|ICAO-KFCH|||||||||||||||||||||||||||||||||||||||||||||||||||||||||||||||||||||||||1028.1||1|FM15-METAR|223|ICAO-KFCH|||||||||||||||||||||||||||||||||||||||||||MET061METAR KFCH 280535Z AUTO 00000KT 10SM CLR 12/01 A3036 RMK A01=||F||223|ICAO-KFCH
USW00023167|FRESNO CHANDLER DWTN AP|2022|02|28|05|55|36.7333|-119.8167|84.1|12.0||1|FM15-METAR|223|ICAO-KFCH|1.0||1|FM15-METAR|223|ICAO-KFCH|||||||||||||999|C-Calm|9|FM15-METAR|223|ICAO-KFCH|0.0|C-Calm|1|FM15-METAR|223|ICAO-KFCH|||||||||||||47|Derived||FM15-METAR|223|ICAO-KFCH|||||||||||||||||||||||||||||||||||||||||||||||||||||||||||||||||||||||||1028.1||1|FM15-METAR|223|ICAO-KFCH|||||||||||||||||||||||||||||||||||||||||||MET061METAR KFCH 280555Z AUTO 00000KT 10SM CLR 12/01 A3036 RMK A01=||F||223|ICAO-KFCH
USW00023167|FRESNO CHANDLER DWTN AP|2022|02|28|06|15|36.7333|-119.8167|84.1|11.0||1|FM15-METAR|223|ICAO-KFCH|1.0||1|FM15-METAR|223|ICAO-KFCH|||||||||||||999|C-Calm|9|FM15-METAR|223|ICAO-KFCH|0.0|C-Calm|1|FM15-METAR|223|ICAO-KFCH|||||||||||||50|Derived||FM15-METAR|223|ICAO-KFCH|||||||||||||||||||||||||||||||||||||||||||||||||||||||||||||||||||||||||1028.1||1|FM15-METAR|223|ICAO-KFCH|||||||||||||||||||||||||||||||||||||||||||MET061METAR KFCH 280615Z AUTO 00000KT 10SM CLR 11/01 A3036 RMK A01=||F||223|ICAO-KFCH
USW00023167|FRESNO CHANDLER DWTN AP|2022|02|28|06|35|36.7333|-119.8167|84.1|10.0||1|FM15-METAR|223|ICAO-KFCH|1.0||1|FM15-METAR|223|ICAO-KFCH|||||||||||||999|C-Calm|9|FM15-METAR|223|ICAO-KFCH|0.0|C-Calm|1|FM15-METAR|223|ICAO-KFCH|||||||||||||54|Derived||FM15-METAR|223|ICAO-KFCH|||||||||||||||||||||||||||||||||||||||||||||||||||||||||||||||||||||||||1028.1||1|FM15-METAR|223|ICAO-KFCH|||||||||||||||||||||||||||||||||||||||||||MET061METAR KFCH 280635Z AUTO 00000KT 10SM CLR 10/01 A3036 RMK A01=||F||223|ICAO-KFCH
USW00023167|FRESNO CHANDLER DWTN AP|2022|02|28|06|55|36.7333|-119.8167|84.1|10.0||1|FM15-METAR|223|ICAO-KFCH|1.0||1|FM15-METAR|223|ICAO-KFCH|||||||||||||200|N-Normal|1|FM15-METAR|223|ICAO-KFCH|3.6|N-Normal|1|FM15-METAR|223|ICAO-KFCH|||||||||||||54|Derived||FM15-METAR|223|ICAO-KFCH|||||||||||||||||||||||||||||||||||||||||||||||||||||||||||||||||||||||||1028.1||1|FM15-METAR|223|ICAO-KFCH|||||||||||||||||||||||||||||||||||||||||||MET061METAR KFCH 280655Z AUTO 20007KT 10SM CLR 10/01 A3036 RMK A01=||F||223|ICAO-KFCH
USW00023167|FRESNO CHANDLER DWTN AP|2022|02|28|07|15|36.7333|-119.8167|84.1|10.0||1|FM15-METAR|223|ICAO-KFCH|1.0||1|FM15-METAR|223|ICAO-KFCH|||||||||||||999|C-Calm|9|FM15-METAR|223|ICAO-KFCH|0.0|C-Calm|1|FM15-METAR|223|ICAO-KFCH|||||||||||||54|Derived||FM15-METAR|223|ICAO-KFCH|||||||||||||||||||||||||||||||||||||||||||||||||||||||||||||||||||||||||1028.1||1|FM15-METAR|223|ICAO-KFCH|||||||||||||||||||||||||||||||||||||||||||MET061METAR KFCH 280715Z AUTO 00000KT 10SM CLR 10/01 A3036 RMK A01=||F||223|ICAO-KFCH
USW00023167|FRESNO CHANDLER DWTN AP|2022|02|28|07|35|36.7333|-119.8167|84.1|10.0||1|FM15-METAR|223|ICAO-KFCH|1.0||1|FM15-METAR|223|ICAO-KFCH|||||||||||||100|N-Normal|1|FM15-METAR|223|ICAO-KFCH|1.5|N-Normal|1|FM15-METAR|223|ICAO-KFCH|||||||||||||54|Derived||FM15-METAR|223|ICAO-KFCH|||||||||||||||||||||||||||||||||||||||||||||||||||||||||||||||||||||||||1028.1||1|FM15-METAR|223|ICAO-KFCH|||||||||||||||||||||||||||||||||||||||||||MET061METAR KFCH 280735Z AUTO 10003KT 10SM CLR 10/01 A3036 RMK A01=||F||223|ICAO-KFCH
USW00023167|FRESNO CHANDLER DWTN AP|2022|02|28|07|55|36.7333|-119.8167|84.1|10.0||1|FM15-METAR|223|ICAO-KFCH|1.0||1|FM15-METAR|223|ICAO-KFCH|||||||||||||080|N-Normal|1|FM15-METAR|223|ICAO-KFCH|1.5|N-Normal|1|FM15-METAR|223|ICAO-KFCH|||||||||||||54|Derived||FM15-METAR|223|ICAO-KFCH|||||||||||||||||||||||||||||||||||||||||||||||||||||||||||||||||||||||||1027.8||1|FM15-METAR|223|ICAO-KFCH|||||||||||||||||||||||||||||||||||||||||||MET061METAR KFCH 280755Z AUTO 08003KT 10SM CLR 10/01 A3035 RMK A01=||F||223|ICAO-KFCH
USW00023167|FRESNO CHANDLER DWTN AP|2022|02|28|08|15|36.7333|-119.8167|84.1|9.0||1|FM15-METAR|223|ICAO-KFCH|1.0||1|FM15-METAR|223|ICAO-KFCH|||||||||||||999|C-Calm|9|FM15-METAR|223|ICAO-KFCH|0.0|C-Calm|1|FM15-METAR|223|ICAO-KFCH|||||||||||||58|Derived||FM15-METAR|223|ICAO-KFCH|||||||||||||||||||||||||||||||||||||||||||||||||||||||||||||||||||||||||1027.8||1|FM15-METAR|223|ICAO-KFCH|||||||||||||||||||||||||||||||||||||||||||MET061METAR KFCH 280815Z AUTO 00000KT 10SM CLR 09/01 A3035 RMK A01=||F||223|ICAO-KFCH
USW00023167|FRESNO CHANDLER DWTN AP|2022|02|28|08|35|36.7333|-119.8167|84.1|8.0||1|FM15-METAR|223|ICAO-KFCH|1.0||1|FM15-METAR|223|ICAO-KFCH|||||||||||||999|C-Calm|9|FM15-METAR|223|ICAO-KFCH|0.0|C-Calm|1|FM15-METAR|223|ICAO-KFCH|||||||||||||62|Derived||FM15-METAR|223|ICAO-KFCH|||||||||||||||||||||||||||||||||||||||||||||||||||||||||||||||||||||||||1027.8||1|FM15-METAR|223|ICAO-KFCH|||||||||||||||||||||||||||||||||||||||||||MET061METAR KFCH 280835Z AUTO 00000KT 10SM CLR 08/01 A3035 RMK A01=||F||223|ICAO-KFCH
USW00023167|FRESNO CHANDLER DWTN AP|2022|02|28|08|55|36.7333|-119.8167|84.1|9.0||1|FM15-METAR|223|ICAO-KFCH|1.0||1|FM15-METAR|223|ICAO-KFCH|||||||||||||999|C-Calm|9|FM15-METAR|223|ICAO-KFCH|0.0|C-Calm|1|FM15-METAR|223|ICAO-KFCH|||||||||||||58|Derived||FM15-METAR|223|ICAO-KFCH|||||||||||||||||||||||||||||||||||||||||||||||||||||||||||||||||||||||||1027.8||1|FM15-METAR|223|ICAO-KFCH|||||||||||||||||||||||||||||||||||||||||||MET061METAR KFCH 280855Z AUTO 00000KT 10SM CLR 09/01 A3035 RMK A01=||F||223|ICAO-KFCH
USW00023167|FRESNO CHANDLER DWTN AP|2022|02|28|09|15|36.7333|-119.8167|84.1|8.0||1|FM15-METAR|223|ICAO-KFCH|2.0||1|FM15-METAR|223|ICAO-KFCH|||||||||||||999|C-Calm|9|FM15-METAR|223|ICAO-KFCH|0.0|C-Calm|1|FM15-METAR|223|ICAO-KFCH|||||||||||||66|Derived||FM15-METAR|223|ICAO-KFCH|||||||||||||||||||||||||||||||||||||||||||||||||||||||||||||||||||||||||1028.1||1|FM15-METAR|223|ICAO-KFCH|||||||||||||||||||||||||||||||||||||||||||MET061METAR KFCH 280915Z AUTO 00000KT 10SM CLR 08/02 A3036 RMK A01=||F||223|ICAO-KFCH
USW00023167|FRESNO CHANDLER DWTN AP|2022|02|28|09|35|36.7333|-119.8167|84.1|8.0||1|FM15-METAR|223|ICAO-KFCH|2.0||1|FM15-METAR|223|ICAO-KFCH|||||||||||||090|N-Normal|1|FM15-METAR|223|ICAO-KFCH|1.5|N-Normal|1|FM15-METAR|223|ICAO-KFCH|||||||||||||66|Derived||FM15-METAR|223|ICAO-KFCH|||||||||||||||||||||||||||||||||||||||||||||||||||||||||||||||||||||||||1027.8||1|FM15-METAR|223|ICAO-KFCH|||||||||||||||||||||||||||||||||||||||||||MET057METAR KFCH 280935Z AUTO 09003KT 10SM 08/02 A3035 RMK A01=||F||223|ICAO-KFCH
USW00023167|FRESNO CHANDLER DWTN AP|2022|02|28|09|55|36.7333|-119.8167|84.1|9.0||1|FM15-METAR|223|ICAO-KFCH|2.0||1|FM15-METAR|223|ICAO-KFCH|||||||||||||999|C-Calm|9|FM15-METAR|223|ICAO-KFCH|0.0|C-Calm|1|FM15-METAR|223|ICAO-KFCH|||||||||||||62|Derived||FM15-METAR|223|ICAO-KFCH|||||||||||||||||||||||||||||||||||||||||||||||||||||||||||||||||||||||||1027.4||1|FM15-METAR|223|ICAO-KFCH|||||||||||||||||||||||||||||||||||||||||||MET057METAR KFCH 280955Z AUTO 00000KT 10SM 09/02 A3034 RMK A01=||F||223|ICAO-KFCH
USW00023167|FRESNO CHANDLER DWTN AP|2022|02|28|10|15|36.7333|-119.8167|84.1|8.0||1|FM15-METAR|223|ICAO-KFCH|2.0||1|FM15-METAR|223|ICAO-KFCH|||||||||||||999|C-Calm|9|FM15-METAR|223|ICAO-KFCH|0.0|C-Calm|1|FM15-METAR|223|ICAO-KFCH|||||||||||||66|Derived||FM15-METAR|223|ICAO-KFCH|||||||||||||||||||||||||||||||||||||||||||||||||||||||||||||||||||||||||1027.4||1|FM15-METAR|223|ICAO-KFCH|||||||||||||||||||||||||||||||||||||||||||MET057METAR KFCH 281015Z AUTO 00000KT 10SM 08/02 A3034 RMK A01=||F||223|ICAO-KFCH
USW00023167|FRESNO CHANDLER DWTN AP|2022|02|28|10|35|36.7333|-119.8167|84.1|8.0||1|FM15-METAR|223|ICAO-KFCH|2.0||1|FM15-METAR|223|ICAO-KFCH|||||||||||||090|N-Normal|1|FM15-METAR|223|ICAO-KFCH|2.1|N-Normal|1|FM15-METAR|223|ICAO-KFCH|||||||||||||66|Derived||FM15-METAR|223|ICAO-KFCH|||||||||||||||||||||||||||||||||||||||||||||||||||||||||||||||||||||||||1027.4||1|FM15-METAR|223|ICAO-KFCH|||||||||||||||||||||||||||||||||||||||||||MET061METAR KFCH 281035Z AUTO 09004KT 10SM CLR 08/02 A3034 RMK A01=||F||223|ICAO-KFCH
USW00023167|FRESNO CHANDLER DWTN AP|2022|02|28|10|50|36.7333|-119.8167|84.1|8.0||1|FM15-METAR|223|ICAO-KFCH|2.0||1|FM15-METAR|223|ICAO-KFCH|||||||||||||100|N-Normal|1|FM15-METAR|223|ICAO-KFCH|1.5|N-Normal|1|FM15-METAR|223|ICAO-KFCH|||||||||||||66|Derived||FM15-METAR|223|ICAO-KFCH|||||||||||||||||||||||||||||||||||||||||||||||||||||||||||||||||||||||||1027.4||1|FM15-METAR|223|ICAO-KFCH|||||||||||||||||||||||||||||||||||||||||||MET061METAR KFCH 281050Z AUTO 10003KT 10SM CLR 08/02 A3034 RMK A01=||F||223|ICAO-KFCH
USW00023167|FRESNO CHANDLER DWTN AP|2022|02|28|11|15|36.7333|-119.8167|84.1|8.0||1|FM15-METAR|223|ICAO-KFCH|2.0||1|FM15-METAR|223|ICAO-KFCH|||||||||||||100|N-Normal|1|FM15-METAR|223|ICAO-KFCH|2.1|N-Normal|1|FM15-METAR|223|ICAO-KFCH|||||||||||||66|Derived||FM15-METAR|223|ICAO-KFCH|||||||||||||||||||||||||||||||||||||||||||||||||||||||||||||||||||||||||1027.1||1|FM15-METAR|223|ICAO-KFCH|||||||||||||||||||||||||||||||||||||||||||MET061METAR KFCH 281115Z AUTO 10004KT 10SM CLR 08/02 A3033 RMK A01=||F||223|ICAO-KFCH
USW00023167|FRESNO CHANDLER DWTN AP|2022|02|28|11|35|36.7333|-119.8167|84.1|8.0||1|FM15-METAR|223|ICAO-KFCH|2.0||1|FM15-METAR|223|ICAO-KFCH|||||||||||||110|N-Normal|1|FM15-METAR|223|ICAO-KFCH|1.5|N-Normal|1|FM15-METAR|223|ICAO-KFCH|||||||||||||66|Derived||FM15-METAR|223|ICAO-KFCH|||||||||||||||||||||||||||||||||||||||||||||||||||||||||||||||||||||||||1027.1||1|FM15-METAR|223|ICAO-KFCH|||||||||||||||||||||||||||||||||||||||||||MET061METAR KFCH 281135Z AUTO 11003KT 10SM CLR 08/02 A3033 RMK A01=||F||223|ICAO-KFCH
USW00023167|FRESNO CHANDLER DWTN AP|2022|02|28|11|55|36.7333|-119.8167|84.1|8.0||1|FM15-METAR|223|ICAO-KFCH|2.0||1|FM15-METAR|223|ICAO-KFCH|||||||||||||130|N-Normal|1|FM15-METAR|223|ICAO-KFCH|2.1|N-Normal|1|FM15-METAR|223|ICAO-KFCH|||||||||||||66|Derived||FM15-METAR|223|ICAO-KFCH|||||||||||||||||||||||||||||||||||||||||||||||||||||||||||||||||||||||||1027.1||1|FM15-METAR|223|ICAO-KFCH|||||||||||||||||||||||||||||||||||||||||||MET061METAR KFCH 281155Z AUTO 13004KT 10SM CLR 08/02 A3033 RMK A01=||F||223|ICAO-KFCH
USW00023167|FRESNO CHANDLER DWTN AP|2022|02|28|12|15|36.7333|-119.8167|84.1|8.0||1|FM15-METAR|223|ICAO-KFCH|2.0||1|FM15-METAR|223|ICAO-KFCH|||||||||||||110|N-Normal|1|FM15-METAR|223|ICAO-KFCH|2.6|N-Normal|1|FM15-METAR|223|ICAO-KFCH|||||||||||||66|Derived||FM15-METAR|223|ICAO-KFCH|||||||||||||||||||||||||||||||||||||||||||||||||||||||||||||||||||||||||1027.1||1|FM15-METAR|223|ICAO-KFCH|||||||||||||||||||||||||||||||||||||||||||MET061METAR KFCH 281215Z AUTO 11005KT 10SM CLR 08/02 A3033 RMK A01=||F||223|ICAO-KFCH
USW00023167|FRESNO CHANDLER DWTN AP|2022|02|28|12|35|36.7333|-119.8167|84.1|8.0||1|FM15-METAR|223|ICAO-KFCH|2.0||1|FM15-METAR|223|ICAO-KFCH|||||||||||||110|N-Normal|1|FM15-METAR|223|ICAO-KFCH|2.1|N-Normal|1|FM15-METAR|223|ICAO-KFCH|||||||||||||66|Derived||FM15-METAR|223|ICAO-KFCH|||||||||||||||||||||||||||||||||||||||||||||||||||||||||||||||||||||||||1027.1||1|FM15-METAR|223|ICAO-KFCH|||||||||||||||||||||||||||||||||||||||||||MET061METAR KFCH 281235Z AUTO 11004KT 10SM CLR 08/02 A3033 RMK A01=||F||223|ICAO-KFCH
USW00023167|FRESNO CHANDLER DWTN AP|2022|02|28|12|55|36.7333|-119.8167|84.1|8.0||1|FM15-METAR|223|ICAO-KFCH|2.0||1|FM15-METAR|223|ICAO-KFCH|||||||||||||110|N-Normal|1|FM15-METAR|223|ICAO-KFCH|1.5|N-Normal|1|FM15-METAR|223|ICAO-KFCH|||||||||||||66|Derived||FM15-METAR|223|ICAO-KFCH|||||||||||||||||||||||||||||||||||||||||||||||||||||||||||||||||||||||||1027.1||1|FM15-METAR|223|ICAO-KFCH|||||||||||||||||||||||||||||||||||||||||||MET061METAR KFCH 281255Z AUTO 11003KT 10SM CLR 08/02 A3033 RMK A01=||F||223|ICAO-KFCH
USW00023167|FRESNO CHANDLER DWTN AP|2022|02|28|13|15|36.7333|-119.8167|84.1|7.0||1|FM15-METAR|223|ICAO-KFCH|2.0||1|FM15-METAR|223|ICAO-KFCH|||||||||||||999|C-Calm|9|FM15-METAR|223|ICAO-KFCH|0.0|C-Calm|1|FM15-METAR|223|ICAO-KFCH|||||||||||||71|Derived||FM15-METAR|223|ICAO-KFCH|||||||||||||||||||||||||||||||||||||||||||||||||||||||||||||||||||||||||1027.1||1|FM15-METAR|223|ICAO-KFCH|||||||||||||||||||||||||||||||||||||||||||MET061METAR KFCH 281315Z AUTO 00000KT 10SM CLR 07/02 A3033 RMK A01=||F||223|ICAO-KFCH
USW00023167|FRESNO CHANDLER DWTN AP|2022|02|28|13|30|36.7333|-119.8167|84.1|7.0||1|FM15-METAR|223|ICAO-KFCH|2.0||1|FM15-METAR|223|ICAO-KFCH|||||||||||||999|C-Calm|9|FM15-METAR|223|ICAO-KFCH|0.0|C-Calm|1|FM15-METAR|223|ICAO-KFCH|||||||||||||71|Derived||FM15-METAR|223|ICAO-KFCH|||||||||||||||||||||||||||||||||||||||||||||||||||||||||||||||||||||||||1026.7||1|FM15-METAR|223|ICAO-KFCH|||||||||||||||||||||||||||||||||||||||||||MET061METAR KFCH 281330Z AUTO 00000KT 10SM CLR 07/02 A3032 RMK A01=||F||223|ICAO-KFCH
USW00023167|FRESNO CHANDLER DWTN AP|2022|02|28|13|55|36.7333|-119.8167|84.1|7.0||1|FM15-METAR|223|ICAO-KFCH|2.0||1|FM15-METAR|223|ICAO-KFCH|||||||||||||999|C-Calm|9|FM15-METAR|223|ICAO-KFCH|0.0|C-Calm|1|FM15-METAR|223|ICAO-KFCH|||||||||||||71|Derived||FM15-METAR|223|ICAO-KFCH|||||||||||||||||||||||||||||||||||||||||||||||||||||||||||||||||||||||||1027.1||1|FM15-METAR|223|ICAO-KFCH|||||||||||||||||||||||||||||||||||||||||||MET061METAR KFCH 281355Z AUTO 00000KT 10SM CLR 07/02 A3033 RMK A01=||F||223|ICAO-KFCH
USW00023167|FRESNO CHANDLER DWTN AP|2022|02|28|14|15|36.7333|-119.8167|84.1|6.0||1|FM15-METAR|223|ICAO-KFCH|2.0||1|FM15-METAR|223|ICAO-KFCH|||||||||||||999|C-Calm|9|FM15-METAR|223|ICAO-KFCH|0.0|C-Calm|1|FM15-METAR|223|ICAO-KFCH|||||||||||||76|Derived||FM15-METAR|223|ICAO-KFCH|||||||||||||||||||||||||||||||||||||||||||||||||||||||||||||||||||||||||1027.1||1|FM15-METAR|223|ICAO-KFCH|||||||||||||||||||||||||||||||||||||||||||MET061METAR KFCH 281415Z AUTO 00000KT 10SM CLR 06/02 A3033 RMK A01=||F||223|ICAO-KFCH
USW00023167|FRESNO CHANDLER DWTN AP|2022|02|28|14|35|36.7333|-119.8167|84.1|6.0||1|FM15-METAR|223|ICAO-KFCH|2.0||1|FM15-METAR|223|ICAO-KFCH|||||||||||||999|C-Calm|9|FM15-METAR|223|ICAO-KFCH|0.0|C-Calm|1|FM15-METAR|223|ICAO-KFCH|||||||||||||76|Derived||FM15-METAR|223|ICAO-KFCH|||||||||||||||||||||||||||||||||||||||||||||||||||||||||||||||||||||||||1027.1||1|FM15-METAR|223|ICAO-KFCH|||||||||||||||||||||||||||||||||||||||||||MET061METAR KFCH 281435Z AUTO 00000KT 10SM CLR 06/02 A3033 RMK A01=||F||223|ICAO-KFCH
USW00023167|FRESNO CHANDLER DWTN AP|2022|02|28|14|55|36.7333|-119.8167|84.1|5.0||1|FM15-METAR|223|ICAO-KFCH|2.0||1|FM15-METAR|223|ICAO-KFCH|||||||||||||999|C-Calm|9|FM15-METAR|223|ICAO-KFCH|0.0|C-Calm|1|FM15-METAR|223|ICAO-KFCH|||||||||||||81|Derived||FM15-METAR|223|ICAO-KFCH|||||||||||||||||||||||||||||||||||||||||||||||||||||||||||||||||||||||||1027.1||1|FM15-METAR|223|ICAO-KFCH|||||||||||||||||||||||||||||||||||||||||||MET061METAR KFCH 281455Z AUTO 00000KT 10SM CLR 05/02 A3033 RMK A01=||F||223|ICAO-KFCH
USW00023167|FRESNO CHANDLER DWTN AP|2022|02|28|15|15|36.7333|-119.8167|84.1|6.0||1|FM15-METAR|223|ICAO-KFCH|2.0||1|FM15-METAR|223|ICAO-KFCH|||||||||||||070|N-Normal|1|FM15-METAR|223|ICAO-KFCH|1.5|N-Normal|1|FM15-METAR|223|ICAO-KFCH|||||||||||||76|Derived||FM15-METAR|223|ICAO-KFCH|||||||||||||||||||||||||||||||||||||||||||||||||||||||||||||||||||||||||1026.7||1|FM15-METAR|223|ICAO-KFCH|||||||||||||||||||||||||||||||||||||||||||MET061METAR KFCH 281515Z AUTO 07003KT 10SM CLR 06/02 A3032 RMK A01=||F||223|ICAO-KFCH
USW00023167|FRESNO CHANDLER DWTN AP|2022|02|28|15|35|36.7333|-119.8167|84.1|8.0||1|FM15-METAR|223|ICAO-KFCH|3.0||1|FM15-METAR|223|ICAO-KFCH|||||||||||||999|C-Calm|9|FM15-METAR|223|ICAO-KFCH|0.0|C-Calm|1|FM15-METAR|223|ICAO-KFCH|||||||||||||71|Derived||FM15-METAR|223|ICAO-KFCH|||||||||||||||||||||||||||||||||||||||||||||||||||||||||||||||||||||||||1027.1||1|FM15-METAR|223|ICAO-KFCH|||||||||||||||||||||||||||||||||||||||||||MET061METAR KFCH 281535Z AUTO 00000KT 10SM CLR 08/03 A3033 RMK A01=||F||223|ICAO-KFCH
USW00023167|FRESNO CHANDLER DWTN AP|2022|02|28|15|55|36.7333|-119.8167|84.1|10.0||1|FM15-METAR|223|ICAO-KFCH|3.0||1|FM15-METAR|223|ICAO-KFCH|||||||||||||110|N-Normal|1|FM15-METAR|223|ICAO-KFCH|1.5|N-Normal|1|FM15-METAR|223|ICAO-KFCH|||||||||||||62|Derived||FM15-METAR|223|ICAO-KFCH|||||||||||||||||||||||||||||||||||||||||||||||||||||||||||||||||||||||||1027.1||1|FM15-METAR|223|ICAO-KFCH|||||||||||||||||||||||||||||||||||||||||||MET061METAR KFCH 281555Z AUTO 11003KT 10SM CLR 10/03 A3033 RMK A01=||F||223|ICAO-KFCH
USW00023167|FRESNO CHANDLER DWTN AP|2022|02|28|16|15|36.7333|-119.8167|84.1|11.0||1|FM15-METAR|223|ICAO-KFCH|3.0||1|FM15-METAR|223|ICAO-KFCH|||||||||||||120|N-Normal|1|FM15-METAR|223|ICAO-KFCH|2.1|N-Normal|1|FM15-METAR|223|ICAO-KFCH|||||||||||||58|Derived||FM15-METAR|223|ICAO-KFCH|||||||||||||||||||||||||||||||||||||||||||||||||||||||||||||||||||||||||1027.1||1|FM15-METAR|223|ICAO-KFCH|||||||||||||||||||||||||||||||||||||||||||MET061METAR KFCH 281615Z AUTO 12004KT 10SM CLR 11/03 A3033 RMK A01=||F||223|ICAO-KFCH
USW00023167|FRESNO CHANDLER DWTN AP|2022|02|28|16|35|36.7333|-119.8167|84.1|12.0||1|FM15-METAR|223|ICAO-KFCH|3.0||1|FM15-METAR|223|ICAO-KFCH|||||||||||||130|N-Normal|1|FM15-METAR|223|ICAO-KFCH|1.5|N-Normal|1|FM15-METAR|223|ICAO-KFCH|||||||||||||54|Derived||FM15-METAR|223|ICAO-KFCH|||||||||||||||||||||||||||||||||||||||||||||||||||||||||||||||||||||||||1027.4||1|FM15-METAR|223|ICAO-KFCH|||||||||||||||||||||||||||||||||||||||||||MET057METAR KFCH 281635Z AUTO 13003KT 10SM 12/03 A3034 RMK A01=||F||223|ICAO-KFCH
USW00023167|FRESNO CHANDLER DWTN AP|2022|02|28|16|55|36.7333|-119.8167|84.1|12.0||1|FM15-METAR|223|ICAO-KFCH|3.0||1|FM15-METAR|223|ICAO-KFCH|||||||||||||160|N-Normal|1|FM15-METAR|223|ICAO-KFCH|2.6|N-Normal|1|FM15-METAR|223|ICAO-KFCH|||||||||||||54|Derived||FM15-METAR|223|ICAO-KFCH|||||||||||||||||||||||||||||||||||||||||||||||||||||||||||||||||||||||||1027.4||1|FM15-METAR|223|ICAO-KFCH|||||||||||||||||||||||||||||||||||||||||||MET061METAR KFCH 281655Z AUTO 16005KT 10SM CLR 12/03 A3034 RMK A01=||F||223|ICAO-KFCH
USW00023167|FRESNO CHANDLER DWTN AP|2022|02|28|17|15|36.7333|-119.8167|84.1|13.0||1|FM15-METAR|223|ICAO-KFCH|4.0||1|FM15-METAR|223|ICAO-KFCH|||||||||||||150|N-Normal|1|FM15-METAR|223|ICAO-KFCH|2.6|N-Normal|1|FM15-METAR|223|ICAO-KFCH|||||||||||||55|Derived||FM15-METAR|223|ICAO-KFCH|||||||||||||||||||||||||||||||||||||||||||||||||||||||||||||||||||||||||1027.4||1|FM15-METAR|223|ICAO-KFCH|||||||||||||||||||||||||||||||||||||||||||MET061METAR KFCH 281715Z AUTO 15005KT 10SM CLR 13/04 A3034 RMK A01=||F||223|ICAO-KFCH
USW00023167|FRESNO CHANDLER DWTN AP|2022|02|28|17|35|36.7333|-119.8167|84.1|14.0||1|FM15-METAR|223|ICAO-KFCH|3.0||1|FM15-METAR|223|ICAO-KFCH|||||||||||||180|N-Normal|1|FM15-METAR|223|ICAO-KFCH|2.1|N-Normal|1|FM15-METAR|223|ICAO-KFCH|||||||||||||48|Derived||FM15-METAR|223|ICAO-KFCH|||||||||||||||||||||||||||||||||||||||||||||||||||||||||||||||||||||||||1027.1||1|FM15-METAR|223|ICAO-KFCH|||||||||||||||||||||||||||||||||||||||||||MET061METAR KFCH 281735Z AUTO 18004KT 10SM CLR 14/03 A3033 RMK A01=||F||223|ICAO-KFCH
USW00023167|FRESNO CHANDLER DWTN AP|2022|02|28|17|55|36.7333|-119.8167|84.1|15.0||1|FM15-METAR|223|ICAO-KFCH|3.0||1|FM15-METAR|223|ICAO-KFCH|||||||||||||150|N-Normal|1|FM15-METAR|223|ICAO-KFCH|2.6|N-Normal|1|FM15-METAR|223|ICAO-KFCH|||||||||||||45|Derived||FM15-METAR|223|ICAO-KFCH|||||||||||||||||||||||||||||||||||||||||||||||||||||||||||||||||||||||||1027.1||1|FM15-METAR|223|ICAO-KFCH|||||||||||||||||||||||||||||||||||||||||||MET061METAR KFCH 281755Z AUTO 15005KT 10SM CLR 15/03 A3033 RMK A01=||F||223|ICAO-KFCH
USW00023167|FRESNO CHANDLER DWTN AP|2022|02|28|18|15|36.7333|-119.8167|84.1|15.0||1|FM15-METAR|223|ICAO-KFCH|3.0||1|FM15-METAR|223|ICAO-KFCH|||||||||||||140|N-Normal|1|FM15-METAR|223|ICAO-KFCH|2.1|N-Normal|1|FM15-METAR|223|ICAO-KFCH|||||||||||||45|Derived||FM15-METAR|223|ICAO-KFCH|||||||||||||||||||||||||||||||||||||||||||||||||||||||||||||||||||||||||1027.1||1|FM15-METAR|223|ICAO-KFCH|||||||||||||||||||||||||||||||||||||||||||MET061METAR KFCH 281815Z AUTO 14004KT 10SM CLR 15/03 A3033 RMK A01=||F||223|ICAO-KFCH
USW00023167|FRESNO CHANDLER DWTN AP|2022|02|28|18|35|36.7333|-119.8167|84.1|16.0||1|FM15-METAR|223|ICAO-KFCH|2.0||1|FM15-METAR|223|ICAO-KFCH|||||||||||||999|C-Calm|9|FM15-METAR|223|ICAO-KFCH|0.0|C-Calm|1|FM15-METAR|223|ICAO-KFCH|||||||||||||39|Derived||FM15-METAR|223|ICAO-KFCH|||||||||||||||||||||||||||||||||||||||||||||||||||||||||||||||||||||||||1027.1||1|FM15-METAR|223|ICAO-KFCH|||||||||||||||||||||||||||||||||||||||||||MET061METAR KFCH 281835Z AUTO 00000KT 10SM CLR 16/02 A3033 RMK A01=||F||223|ICAO-KFCH
USW00023167|FRESNO CHANDLER DWTN AP|2022|02|28|18|55|36.7333|-119.8167|84.1|17.0||1|FM15-METAR|223|ICAO-KFCH|2.0||1|FM15-METAR|223|ICAO-KFCH|||||||||||||999|C-Calm|9|FM15-METAR|223|ICAO-KFCH|0.0|C-Calm|1|FM15-METAR|223|ICAO-KFCH|||||||||||||37|Derived||FM15-METAR|223|ICAO-KFCH|||||||||||||||||||||||||||||||||||||||||||||||||||||||||||||||||||||||||1026.7||1|FM15-METAR|223|ICAO-KFCH|||||||||||||||||||||||||||||||||||||||||||MET061METAR KFCH 281855Z AUTO 00000KT 10SM CLR 17/02 A3032 RMK A01=||F||223|ICAO-KFCH
USW00023167|FRESNO CHANDLER DWTN AP|2022|02|28|19|15|36.7333|-119.8167|84.1|18.0||1|FM15-METAR|223|ICAO-KFCH|2.0||1|FM15-METAR|223|ICAO-KFCH|||||||||||||999|C-Calm|9|FM15-METAR|223|ICAO-KFCH|0.0|C-Calm|1|FM15-METAR|223|ICAO-KFCH|||||||||||||34|Derived||FM15-METAR|223|ICAO-KFCH|||||||||||||||||||||||||||||||||||||||||||||||||||||||||||||||||||||||||1026.7||1|FM15-METAR|223|ICAO-KFCH|||||||||||||||||||||||||||||||||||||||||||MET061METAR KFCH 281915Z AUTO 00000KT 10SM CLR 18/02 A3032 RMK A01=||F||223|ICAO-KFCH
USW00023167|FRESNO CHANDLER DWTN AP|2022|02|28|19|35|36.7333|-119.8167|84.1|18.0||1|FM15-METAR|223|ICAO-KFCH|2.0||1|FM15-METAR|223|ICAO-KFCH|||||||||||||290|N-Normal|1|FM15-METAR|223|ICAO-KFCH|2.6|N-Normal|1|FM15-METAR|223|ICAO-KFCH|||||||||||||34|Derived||FM15-METAR|223|ICAO-KFCH|||||||||||||||||||||||||||||||||||||||||||||||||||||||||||||||||||||||||1026.4||1|FM15-METAR|223|ICAO-KFCH|||||||||||||||||||||||||||||||||||||||||||MET061METAR KFCH 281935Z AUTO 29005KT 10SM CLR 18/02 A3031 RMK A01=||F||223|ICAO-KFCH
USW00023167|FRESNO CHANDLER DWTN AP|2022|02|28|19|55|36.7333|-119.8167|84.1|19.0||1|FM15-METAR|223|ICAO-KFCH|2.0||1|FM15-METAR|223|ICAO-KFCH|||||||||||||999|V-Variable|9|FM15-METAR|223|ICAO-KFCH|2.6|V-Variable|1|FM15-METAR|223|ICAO-KFCH|||||||||||||32|Derived||FM15-METAR|223|ICAO-KFCH|||||||||||||||||||||||||||||||||||||||||||||||||||||||||||||||||||||||||1026.1||1|FM15-METAR|223|ICAO-KFCH|||||||||||||||||||||||||||||||||||||||||||MET061METAR KFCH 281955Z AUTO VRB05KT 10SM CLR 19/02 A3030 RMK A01=||F||223|ICAO-KFCH
USW00023167|FRESNO CHANDLER DWTN AP|2022|02|28|20|15|36.7333|-119.8167|84.1|19.0||1|FM15-METAR|223|ICAO-KFCH|2.0||1|FM15-METAR|223|ICAO-KFCH|||||||||||||999|C-Calm|9|FM15-METAR|223|ICAO-KFCH|0.0|C-Calm|1|FM15-METAR|223|ICAO-KFCH|5.1||1|FM15-METAR|223|ICAO-KFCH|||||||32|Derived||FM15-METAR|223|ICAO-KFCH|||||||||||||||||||||||||||||||||||||||||||||||||||||||||||||||||||||||||1025.4||1|FM15-METAR|223|ICAO-KFCH|||||||||||||||||||||||||||||||||||||||||||MET064METAR KFCH 282015Z AUTO 00000G10KT 10SM CLR 19/02 A3028 RMK A01=||F||223|ICAO-KFCH
USW00023167|FRESNO CHANDLER DWTN AP|2022|02|28|20|35|36.7333|-119.8167|84.1|19.0||1|FM15-METAR|223|ICAO-KFCH|2.0||1|FM15-METAR|223|ICAO-KFCH|||||||||||||999|C-Calm|9|FM15-METAR|223|ICAO-KFCH|0.0|C-Calm|1|FM15-METAR|223|ICAO-KFCH|||||||||||||32|Derived||FM15-METAR|223|ICAO-KFCH|||||||||||||||||||||||||||||||||||||||||||||||||||||||||||||||||||||||||1025.1||1|FM15-METAR|223|ICAO-KFCH|||||||||||||||||||||||||||||||||||||||||||MET061METAR KFCH 282035Z AUTO 00000KT 10SM CLR 19/02 A3027 RMK A01=||F||223|ICAO-KFCH
USW00023167|FRESNO CHANDLER DWTN AP|2022|02|28|20|50|36.7333|-119.8167|84.1|20.0||1|FM15-METAR|223|ICAO-KFCH|2.0||1|FM15-METAR|223|ICAO-KFCH|||||||||||||999|V-Variable|9|FM15-METAR|223|ICAO-KFCH|2.1|V-Variable|1|FM15-METAR|223|ICAO-KFCH|||||||||||||30|Derived||FM15-METAR|223|ICAO-KFCH|||||||||||||||||||||||||||||||||||||||||||||||||||||||||||||||||||||||||1024.7||1|FM15-METAR|223|ICAO-KFCH|||||||||||||||||||||||||||||||||||||||||||MET061METAR KFCH 282050Z AUTO VRB04KT 10SM CLR 20/02 A3026 RMK A01=||F||223|ICAO-KFCH
USW00023167|FRESNO CHANDLER DWTN AP|2022|02|28|21|10|36.7333|-119.8167|84.1|20.0||1|FM15-METAR|223|ICAO-KFCH|2.0||1|FM15-METAR|223|ICAO-KFCH|||||||||||||999|C-Calm|9|FM15-METAR|223|ICAO-KFCH|0.0|C-Calm|1|FM15-METAR|223|ICAO-KFCH|||||||||||||30|Derived||FM15-METAR|223|ICAO-KFCH|||||||||||||||||||||||||||||||||||||||||||||||||||||||||||||||||||||||||1024.0||1|FM15-METAR|223|ICAO-KFCH|||||||||||||||||||||||||||||||||||||||||||MET061METAR KFCH 282110Z AUTO 00000KT 10SM CLR 20/02 A3024 RMK A01=||F||223|ICAO-KFCH
USW00023167|FRESNO CHANDLER DWTN AP|2022|02|28|21|35|36.7333|-119.8167|84.1|21.0||1|FM15-METAR|223|ICAO-KFCH|2.0||1|FM15-METAR|223|ICAO-KFCH|||||||||||||999|C-Calm|9|FM15-METAR|223|ICAO-KFCH|0.0|C-Calm|1|FM15-METAR|223|ICAO-KFCH|||||||||||||29|Derived||FM15-METAR|223|ICAO-KFCH|||||||||||||||||||||||||||||||||||||||||||||||||||||||||||||||||||||||||1023.7||1|FM15-METAR|223|ICAO-KFCH|||||||||||||||||||||||||||||||||||||||||||MET061METAR KFCH 282135Z AUTO 00000KT 10SM CLR 21/02 A3023 RMK A01=||F||223|ICAO-KFCH
USW00023167|FRESNO CHANDLER DWTN AP|2022|02|28|21|55|36.7333|-119.8167|84.1|21.0||1|FM15-METAR|223|ICAO-KFCH|2.0||1|FM15-METAR|223|ICAO-KFCH|||||||||||||240|N-Normal|1|FM15-METAR|223|ICAO-KFCH|1.5|N-Normal|1|FM15-METAR|223|ICAO-KFCH|||||||||||||29|Derived||FM15-METAR|223|ICAO-KFCH|||||||||||||||||||||||||||||||||||||||||||||||||||||||||||||||||||||||||1023.4||1|FM15-METAR|223|ICAO-KFCH|||||||||||||||||||||||||||||||||||||||||||MET061METAR KFCH 282155Z AUTO 24003KT 10SM CLR 21/02 A3022 RMK A01=||F||223|ICAO-KFCH
USW00023167|FRESNO CHANDLER DWTN AP|2022|02|28|22|15|36.7333|-119.8167|84.1|21.0||1|FM15-METAR|223|ICAO-KFCH|2.0||1|FM15-METAR|223|ICAO-KFCH|||||||||||||999|V-Variable|9|FM15-METAR|223|ICAO-KFCH|2.6|V-Variable|1|FM15-METAR|223|ICAO-KFCH|||||||||||||29|Derived||FM15-METAR|223|ICAO-KFCH|||||||||||||||||||||||||||||||||||||||||||||||||||||||||||||||||||||||||1023.4||1|FM15-METAR|223|ICAO-KFCH|||||||||||||||||||||||||||||||||||||||||||MET061METAR KFCH 282215Z AUTO VRB05KT 10SM CLR 21/02 A3022 RMK A01=||F||223|ICAO-KFCH
USW00023167|FRESNO CHANDLER DWTN AP|2022|02|28|22|35|36.7333|-119.8167|84.1|22.0||1|FM15-METAR|223|ICAO-KFCH|2.0||1|FM15-METAR|223|ICAO-KFCH|||||||||||||300|N-Normal|1|FM15-METAR|223|ICAO-KFCH|1.5|N-Normal|1|FM15-METAR|223|ICAO-KFCH|||||||||||||27|Derived||FM15-METAR|223|ICAO-KFCH|||||||||||||||||||||||||||||||||||||||||||||||||||||||||||||||||||||||||1023.0||1|FM15-METAR|223|ICAO-KFCH|||||||||||||||||||||||||||||||||||||||||||MET061METAR KFCH 282235Z AUTO 30003KT 10SM CLR 22/02 A3021 RMK A01=||F||223|ICAO-KFCH
USW00023167|FRESNO CHANDLER DWTN AP|2022|02|28|22|55|36.7333|-119.8167|84.1|22.0||1|FM15-METAR|223|ICAO-KFCH|2.0||1|FM15-METAR|223|ICAO-KFCH|||||||||||||999|V-Variable|9|FM15-METAR|223|ICAO-KFCH|2.6|V-Variable|1|FM15-METAR|223|ICAO-KFCH|||||||||||||27|Derived||FM15-METAR|223|ICAO-KFCH|||||||||||||||||||||||||||||||||||||||||||||||||||||||||||||||||||||||||1023.0||1|FM15-METAR|223|ICAO-KFCH|||||||||||||||||||||||||||||||||||||||||||MET061METAR KFCH 282255Z AUTO VRB05KT 10SM CLR 22/02 A3021 RMK A01=||F||223|ICAO-KFCH
USW00023167|FRESNO CHANDLER DWTN AP|2022|02|28|23|15|36.7333|-119.8167|84.1|22.0||1|FM15-METAR|223|ICAO-KFCH|2.0||1|FM15-METAR|223|ICAO-KFCH|||||||||||||999|V-Variable|9|FM15-METAR|223|ICAO-KFCH|2.1|V-Variable|1|FM15-METAR|223|ICAO-KFCH|||||||||||||27|Derived||FM15-METAR|223|ICAO-KFCH|||||||||||||||||||||||||||||||||||||||||||||||||||||||||||||||||||||||||1023.0||1|FM15-METAR|223|ICAO-KFCH|||||||||||||||||||||||||||||||||||||||||||MET061METAR KFCH 282315Z AUTO VRB04KT 10SM CLR 22/02 A3021 RMK A01=||F||223|ICAO-KFCH
USW00023167|FRESNO CHANDLER DWTN AP|2022|02|28|23|30|36.7333|-119.8167|84.1|22.0||1|FM15-METAR|223|ICAO-KFCH|2.0||1|FM15-METAR|223|ICAO-KFCH|||||||||||||360|N-Normal|1|FM15-METAR|223|ICAO-KFCH|2.6|N-Normal|1|FM15-METAR|223|ICAO-KFCH|||||||||||||27|Derived||FM15-METAR|223|ICAO-KFCH|||||||||||||||||||||||||||||||||||||||||||||||||||||||||||||||||||||||||1023.0||1|FM15-METAR|223|ICAO-KFCH|||||||||||||||||||||||||||||||||||||||||||MET061METAR KFCH 282330Z AUTO 36005KT 10SM CLR 22/02 A3021 RMK A01=||F||223|ICAO-KFCH
USW00023167|FRESNO CHANDLER DWTN AP|2022|02|28|23|55|36.7333|-119.8167|84.1|22.0||1|FM15-METAR|223|ICAO-KFCH|2.0||1|FM15-METAR|223|ICAO-KFCH|||||||||||||999|V-Variable|9|FM15-METAR|223|ICAO-KFCH|2.1|V-Variable|1|FM15-METAR|223|ICAO-KFCH|||||||||||||27|Derived||FM15-METAR|223|ICAO-KFCH|||||||||||||||||||||||||||||||||||||||||||||||||||||||||||||||||||||||||1022.7||1|FM15-METAR|223|ICAO-KFCH|||||||||||||||||||||||||||||||||||||||||||MET061METAR KFCH 282355Z AUTO VRB04KT 10SM CLR 22/02 A3020 RMK A01=||F||223|ICAO-KFCH
USW00023167|FRESNO CHANDLER DWTN AP|2022|03|01|00|15|36.7333|-119.8167|84.1|22.0||1|FM15-METAR|223|ICAO-KFCH|2.0||1|FM15-METAR|223|ICAO-KFCH|||||||||||||320|N-Normal|1|FM15-METAR|223|ICAO-KFCH|2.6|N-Normal|1|FM15-METAR|223|ICAO-KFCH|||||||||||||27|Derived||FM15-METAR|223|ICAO-KFCH|||||||||||||||||||||||||||||||||||||||||||||||||||||||||||||||||||||||||1022.7||1|FM15-METAR|223|ICAO-KFCH|||||||||||||||||||||||||||||||||||||||||||MET061METAR KFCH 010015Z AUTO 32005KT 10SM CLR 22/02 A3020 RMK A01=||F||223|ICAO-KFCH
USW00023167|FRESNO CHANDLER DWTN AP|2022|03|01|00|35|36.7333|-119.8167|84.1|22.0||1|FM15-METAR|223|ICAO-KFCH|2.0||1|FM15-METAR|223|ICAO-KFCH|||||||||||||300|N-Normal|1|FM15-METAR|223|ICAO-KFCH|3.6|N-Normal|1|FM15-METAR|223|ICAO-KFCH|||||||||||||27|Derived||FM15-METAR|223|ICAO-KFCH|||||||||||||||||||||||||||||||||||||||||||||||||||||||||||||||||||||||||1022.7||1|FM15-METAR|223|ICAO-KFCH|||||||||||||||||||||||||||||||||||||||||||MET061METAR KFCH 010035Z AUTO 30007KT 10SM CLR 22/02 A3020 RMK A01=||F||223|ICAO-KFCH
USW00023167|FRESNO CHANDLER DWTN AP|2022|03|01|00|55|36.7333|-119.8167|84.1|22.0||1|FM15-METAR|223|ICAO-KFCH|2.0||1|FM15-METAR|223|ICAO-KFCH|||||||||||||320|N-Normal|1|FM15-METAR|223|ICAO-KFCH|1.5|N-Normal|1|FM15-METAR|223|ICAO-KFCH|||||||||||||27|Derived||FM15-METAR|223|ICAO-KFCH|||||||||||||||||||||||||||||||||||||||||||||||||||||||||||||||||||||||||1022.3||1|FM15-METAR|223|ICAO-KFCH|||||||||||||||||||||||||||||||||||||||||||MET061METAR KFCH 010055Z AUTO 32003KT 10SM CLR 22/02 A3019 RMK A01=||F||223|ICAO-KFCH
USW00023167|FRESNO CHANDLER DWTN AP|2022|03|01|01|15|36.7333|-119.8167|84.1|22.0||1|FM15-METAR|223|ICAO-KFCH|2.0||1|FM15-METAR|223|ICAO-KFCH|||||||||||||320|N-Normal|1|FM15-METAR|223|ICAO-KFCH|2.1|N-Normal|1|FM15-METAR|223|ICAO-KFCH|||||||||||||27|Derived||FM15-METAR|223|ICAO-KFCH|||||||||||||||||||||||||||||||||||||||||||||||||||||||||||||||||||||||||1022.3||1|FM15-METAR|223|ICAO-KFCH|||||||||||||||||||||||||||||||||||||||||||MET061METAR KFCH 010115Z AUTO 32004KT 10SM CLR 22/02 A3019 RMK A01=||F||223|ICAO-KFCH
USW00023167|FRESNO CHANDLER DWTN AP|2022|03|01|01|35|36.7333|-119.8167|84.1|21.0||1|FM15-METAR|223|ICAO-KFCH|2.0||1|FM15-METAR|223|ICAO-KFCH|||||||||||||290|N-Normal|1|FM15-METAR|223|ICAO-KFCH|2.1|N-Normal|1|FM15-METAR|223|ICAO-KFCH|||||||||||||29|Derived||FM15-METAR|223|ICAO-KFCH|||||||||||||||||||||||||||||||||||||||||||||||||||||||||||||||||||||||||1022.3||1|FM15-METAR|223|ICAO-KFCH|||||||||||||||||||||||||||||||||||||||||||MET061METAR KFCH 010135Z AUTO 29004KT 10SM CLR 21/02 A3019 RMK A01=||F||223|ICAO-KFCH
USW00023167|FRESNO CHANDLER DWTN AP|2022|03|01|01|55|36.7333|-119.8167|84.1|20.0||1|FM15-METAR|223|ICAO-KFCH|3.0||1|FM15-METAR|223|ICAO-KFCH|||||||||||||290|N-Normal|1|FM15-METAR|223|ICAO-KFCH|1.5|N-Normal|1|FM15-METAR|223|ICAO-KFCH|||||||||||||33|Derived||FM15-METAR|223|ICAO-KFCH|||||||||||||||||||||||||||||||||||||||||||||||||||||||||||||||||||||||||1022.3||1|FM15-METAR|223|ICAO-KFCH|||||||||||||||||||||||||||||||||||||||||||MET061METAR KFCH 010155Z AUTO 29003KT 10SM CLR 20/03 A3019 RMK A01=||F||223|ICAO-KFCH
USW00023167|FRESNO CHANDLER DWTN AP|2022|03|01|02|15|36.7333|-119.8167|84.1|20.0||1|FM15-METAR|223|ICAO-KFCH|3.0||1|FM15-METAR|223|ICAO-KFCH|||||||||||||999|C-Calm|9|FM15-METAR|223|ICAO-KFCH|0.0|C-Calm|1|FM15-METAR|223|ICAO-KFCH|||||||||||||33|Derived||FM15-METAR|223|ICAO-KFCH|||||||||||||||||||||||||||||||||||||||||||||||||||||||||||||||||||||||||1022.3||1|FM15-METAR|223|ICAO-KFCH|||||||||||||||||||||||||||||||||||||||||||MET061METAR KFCH 010215Z AUTO 00000KT 10SM CLR 20/03 A3019 RMK A01=||F||223|ICAO-KFCH
USW00023167|FRESNO CHANDLER DWTN AP|2022|03|01|02|35|36.7333|-119.8167|84.1|18.0||1|FM15-METAR|223|ICAO-KFCH|4.0||1|FM15-METAR|223|ICAO-KFCH|||||||||||||999|C-Calm|9|FM15-METAR|223|ICAO-KFCH|0.0|C-Calm|1|FM15-METAR|223|ICAO-KFCH|||||||||||||40|Derived||FM15-METAR|223|ICAO-KFCH|||||||||||||||||||||||||||||||||||||||||||||||||||||||||||||||||||||||||1022.7||1|FM15-METAR|223|ICAO-KFCH|||||||||||||||||||||||||||||||||||||||||||MET061METAR KFCH 010235Z AUTO 00000KT 10SM CLR 18/04 A3020 RMK A01=||F||223|ICAO-KFCH
USW00023167|FRESNO CHANDLER DWTN AP|2022|03|01|02|55|36.7333|-119.8167|84.1|18.0||1|FM15-METAR|223|ICAO-KFCH|5.0||1|FM15-METAR|223|ICAO-KFCH|||||||||||||310|N-Normal|1|FM15-METAR|223|ICAO-KFCH|1.5|N-Normal|1|FM15-METAR|223|ICAO-KFCH|||||||||||||43|Derived||FM15-METAR|223|ICAO-KFCH|||||||||||||||||||||||||||||||||||||||||||||||||||||||||||||||||||||||||1023.0||1|FM15-METAR|223|ICAO-KFCH|||||||||||||||||||||||||||||||||||||||||||MET061METAR KFCH 010255Z AUTO 31003KT 10SM CLR 18/05 A3021 RMK A01=||F||223|ICAO-KFCH
USW00023167|FRESNO CHANDLER DWTN AP|2022|03|01|03|15|36.7333|-119.8167|84.1|17.0||1|FM15-METAR|223|ICAO-KFCH|4.0||1|FM15-METAR|223|ICAO-KFCH|||||||||||||999|C-Calm|9|FM15-METAR|223|ICAO-KFCH|0.0|C-Calm|1|FM15-METAR|223|ICAO-KFCH|||||||||||||42|Derived||FM15-METAR|223|ICAO-KFCH|||||||||||||||||||||||||||||||||||||||||||||||||||||||||||||||||||||||||1023.0||1|FM15-METAR|223|ICAO-KFCH|||||||||||||||||||||||||||||||||||||||||||MET061METAR KFCH 010315Z AUTO 00000KT 10SM CLR 17/04 A3021 RMK A01=||F||223|ICAO-KFCH
USW00023167|FRESNO CHANDLER DWTN AP|2022|03|01|03|35|36.7333|-119.8167|84.1|17.0||1|FM15-METAR|223|ICAO-KFCH|4.0||1|FM15-METAR|223|ICAO-KFCH|||||||||||||999|C-Calm|9|FM15-METAR|223|ICAO-KFCH|0.0|C-Calm|1|FM15-METAR|223|ICAO-KFCH|||||||||||||42|Derived||FM15-METAR|223|ICAO-KFCH|||||||||||||||||||||||||||||||||||||||||||||||||||||||||||||||||||||||||1023.4||1|FM15-METAR|223|ICAO-KFCH|||||||||||||||||||||||||||||||||||||||||||MET061METAR KFCH 010335Z AUTO 00000KT 10SM CLR 17/04 A3022 RMK A01=||F||223|ICAO-KFCH
USW00023167|FRESNO CHANDLER DWTN AP|2022|03|01|03|55|36.7333|-119.8167|84.1|16.0||1|FM15-METAR|223|ICAO-KFCH|5.0||1|FM15-METAR|223|ICAO-KFCH|||||||||||||999|C-Calm|9|FM15-METAR|223|ICAO-KFCH|0.0|C-Calm|1|FM15-METAR|223|ICAO-KFCH|||||||||||||48|Derived||FM15-METAR|223|ICAO-KFCH|||||||||||||||||||||||||||||||||||||||||||||||||||||||||||||||||||||||||1023.4||1|FM15-METAR|223|ICAO-KFCH|||||||||||||||||||||||||||||||||||||||||||MET061METAR KFCH 010355Z AUTO 00000KT 10SM CLR 16/05 A3022 RMK A01=||F||223|ICAO-KFCH
USW00023167|FRESNO CHANDLER DWTN AP|2022|03|01|04|15|36.7333|-119.8167|84.1|15.0||1|FM15-METAR|223|ICAO-KFCH|5.0||1|FM15-METAR|223|ICAO-KFCH|||||||||||||999|C-Calm|9|FM15-METAR|223|ICAO-KFCH|0.0|C-Calm|1|FM15-METAR|223|ICAO-KFCH|||||||||||||51|Derived||FM15-METAR|223|ICAO-KFCH|||||||||||||||||||||||||||||||||||||||||||||||||||||||||||||||||||||||||1023.7||1|FM15-METAR|223|ICAO-KFCH|||||||||||||||||||||||||||||||||||||||||||MET071METAR KFCH 010415Z AUTO 00000KT 10SM FEW028 FEW038 15/05 A3023 RMK A01=||F||223|ICAO-KFCH
USW00023167|FRESNO CHANDLER DWTN AP|2022|03|01|04|35|36.7333|-119.8167|84.1|14.0||1|FM15-METAR|223|ICAO-KFCH|5.0||1|FM15-METAR|223|ICAO-KFCH|||||||||||||999|C-Calm|9|FM15-METAR|223|ICAO-KFCH|0.0|C-Calm|1|FM15-METAR|223|ICAO-KFCH|||||||||||||55|Derived||FM15-METAR|223|ICAO-KFCH|||||||||||||||||||||||||||||||||||||||||||||||||||||||||||||||||||||||||1023.7||1|FM15-METAR|223|ICAO-KFCH|||||||||||||||||||||||||||||||||||||||||||MET061METAR KFCH 010435Z AUTO 00000KT 10SM CLR 14/05 A3023 RMK A01=||F||223|ICAO-KFCH
USW00023167|FRESNO CHANDLER DWTN AP|2022|03|01|04|55|36.7333|-119.8167|84.1|14.0||1|FM15-METAR|223|ICAO-KFCH|4.0||1|FM15-METAR|223|ICAO-KFCH|||||||||||||999|C-Calm|9|FM15-METAR|223|ICAO-KFCH|0.0|C-Calm|1|FM15-METAR|223|ICAO-KFCH|||||||||||||51|Derived||FM15-METAR|223|ICAO-KFCH|||||||||||||||||||||||||||||||||||||||||||||||||||||||||||||||||||||||||1024.0||1|FM15-METAR|223|ICAO-KFCH|||||||||||||||||||||||||||||||||||||||||||MET064METAR KFCH 010455Z AUTO 00000KT 10SM FEW029 14/04 A3024 RMK A01=||F||223|ICAO-KFCH
USW00023167|FRESNO CHANDLER DWTN AP|2022|03|01|05|15|36.7333|-119.8167|84.1|||||||||||||||||||||||||||||||||||||||||||||||||||||||||||||||||||||||||||||||||||||||||||||||||||||||||||||||||||||||||||||||1024.4||1|FM15-METAR|223|ICAO-KFCH|||||||||||||||||||||||||||||||||||||||||||MET038METAR KFCH 010515Z AUTO A3025 RMK A01=||F||223|ICAO-KFCH
USW00023167|FRESNO CHANDLER DWTN AP|2022|03|01|05|35|36.7333|-119.8167|84.1|13.0||1|FM15-METAR|223|ICAO-KFCH|5.0||1|FM15-METAR|223|ICAO-KFCH|||||||||||||030|N-Normal|1|FM15-METAR|223|ICAO-KFCH|1.5|N-Normal|1|FM15-METAR|223|ICAO-KFCH|||||||||||||59|Derived||FM15-METAR|223|ICAO-KFCH|||||||||||||||||||||||||||||||||||||||||||||||||||||||||||||||||||||||||1024.4||1|FM15-METAR|223|ICAO-KFCH|||||||||||||||||||||||||||||||||||||||||||MET057METAR KFCH 010535Z AUTO 03003KT 10SM 13/05 A3025 RMK A01=||F||223|ICAO-KFCH
USW00023167|FRESNO CHANDLER DWTN AP|2022|03|01|05|55|36.7333|-119.8167|84.1|13.0||1|FM15-METAR|223|ICAO-KFCH|4.0||1|FM15-METAR|223|ICAO-KFCH|||||||||||||999|C-Calm|9|FM15-METAR|223|ICAO-KFCH|0.0|C-Calm|1|FM15-METAR|223|ICAO-KFCH|||||||||||||55|Derived||FM15-METAR|223|ICAO-KFCH|||||||||||||||||||||||||||||||||||||||||||||||||||||||||||||||||||||||||1024.4||1|FM15-METAR|223|ICAO-KFCH|||||||||||||||||||||||||||||||||||||||||||MET061METAR KFCH 010555Z AUTO 00000KT 10SM CLR 13/04 A3025 RMK A01=||F||223|ICAO-KFCH
USW00023167|FRESNO CHANDLER DWTN AP|2022|03|01|06|15|36.7333|-119.8167|84.1|13.0||1|FM15-METAR|223|ICAO-KFCH|4.0||1|FM15-METAR|223|ICAO-KFCH|||||||||||||999|C-Calm|9|FM15-METAR|223|ICAO-KFCH|0.0|C-Calm|1|FM15-METAR|223|ICAO-KFCH|||||||||||||55|Derived||FM15-METAR|223|ICAO-KFCH|||||||||||||||||||||||||||||||||||||||||||||||||||||||||||||||||||||||||1024.4||1|FM15-METAR|223|ICAO-KFCH|||||||||||||||||||||||||||||||||||||||||||MET061METAR KFCH 010615Z AUTO 00000KT 10SM CLR 13/04 A3025 RMK A01=||F||223|ICAO-KFCH
USW00023167|FRESNO CHANDLER DWTN AP|2022|03|01|06|35|36.7333|-119.8167|84.1|13.0||1|FM15-METAR|223|ICAO-KFCH|5.0||1|FM15-METAR|223|ICAO-KFCH|||||||||||||999|C-Calm|9|FM15-METAR|223|ICAO-KFCH|0.0|C-Calm|1|FM15-METAR|223|ICAO-KFCH|||||||||||||59|Derived||FM15-METAR|223|ICAO-KFCH|||||||||||||||||||||||||||||||||||||||||||||||||||||||||||||||||||||||||1024.4||1|FM15-METAR|223|ICAO-KFCH|||||||||||||||||||||||||||||||||||||||||||MET061METAR KFCH 010635Z AUTO 00000KT 10SM CLR 13/05 A3025 RMK A01=||F||223|ICAO-KFCH
USW00023167|FRESNO CHANDLER DWTN AP|2022|03|01|06|55|36.7333|-119.8167|84.1|13.0||1|FM15-METAR|223|ICAO-KFCH|4.0||1|FM15-METAR|223|ICAO-KFCH|||||||||||||999|C-Calm|9|FM15-METAR|223|ICAO-KFCH|0.0|C-Calm|1|FM15-METAR|223|ICAO-KFCH|||||||||||||55|Derived||FM15-METAR|223|ICAO-KFCH|||||||||||||||||||||||||||||||||||||||||||||||||||||||||||||||||||||||||1024.0||1|FM15-METAR|223|ICAO-KFCH|||||||||||||||||||||||||||||||||||||||||||MET061METAR KFCH 010655Z AUTO 00000KT 10SM CLR 13/04 A3024 RMK A01=||F||223|ICAO-KFCH
USW00023167|FRESNO CHANDLER DWTN AP|2022|03|01|07|15|36.7333|-119.8167|84.1|12.0||1|FM15-METAR|223|ICAO-KFCH|4.0||1|FM15-METAR|223|ICAO-KFCH|||||||||||||999|C-Calm|9|FM15-METAR|223|ICAO-KFCH|0.0|C-Calm|1|FM15-METAR|223|ICAO-KFCH|||||||||||||58|Derived||FM15-METAR|223|ICAO-KFCH|||||||||||||||||||||||||||||||||||||||||||||||||||||||||||||||||||||||||1024.0||1|FM15-METAR|223|ICAO-KFCH|||||||||||||||||||||||||||||||||||||||||||MET061METAR KFCH 010715Z AUTO 00000KT 10SM CLR 12/04 A3024 RMK A01=||F||223|ICAO-KFCH
USW00023167|FRESNO CHANDLER DWTN AP|2022|03|01|07|35|36.7333|-119.8167|84.1|12.0||1|FM15-METAR|223|ICAO-KFCH|4.0||1|FM15-METAR|223|ICAO-KFCH|||||||||||||999|C-Calm|9|FM15-METAR|223|ICAO-KFCH|0.0|C-Calm|1|FM15-METAR|223|ICAO-KFCH|||||||||||||58|Derived||FM15-METAR|223|ICAO-KFCH|||||||||||||||||||||||||||||||||||||||||||||||||||||||||||||||||||||||||1024.4||1|FM15-METAR|223|ICAO-KFCH|||||||||||||||||||||||||||||||||||||||||||MET061METAR KFCH 010735Z AUTO 00000KT 10SM CLR 12/04 A3025 RMK A01=||F||223|ICAO-KFCH
USW00023167|FRESNO CHANDLER DWTN AP|2022|03|01|07|55|36.7333|-119.8167|84.1|13.0||1|FM15-METAR|223|ICAO-KFCH|4.0||1|FM15-METAR|223|ICAO-KFCH|||||||||||||999|C-Calm|9|FM15-METAR|223|ICAO-KFCH|0.0|C-Calm|1|FM15-METAR|223|ICAO-KFCH|||||||||||||55|Derived||FM15-METAR|223|ICAO-KFCH|||||||||||||||||||||||||||||||||||||||||||||||||||||||||||||||||||||||||1024.4||1|FM15-METAR|223|ICAO-KFCH|||||||||||||||||||||||||||||||||||||||||||MET061METAR KFCH 010755Z AUTO 00000KT 10SM CLR 13/04 A3025 RMK A01=||F||223|ICAO-KFCH
USW00023167|FRESNO CHANDLER DWTN AP|2022|03|01|08|15|36.7333|-119.8167|84.1|11.0||1|FM15-METAR|223|ICAO-KFCH|4.0||1|FM15-METAR|223|ICAO-KFCH|||||||||||||999|C-Calm|9|FM15-METAR|223|ICAO-KFCH|0.0|C-Calm|1|FM15-METAR|223|ICAO-KFCH|||||||||||||62|Derived||FM15-METAR|223|ICAO-KFCH|||||||||||||||||||||||||||||||||||||||||||||||||||||||||||||||||||||||||1024.4||1|FM15-METAR|223|ICAO-KFCH|||||||||||||||||||||||||||||||||||||||||||MET061METAR KFCH 010815Z AUTO 00000KT 10SM CLR 11/04 A3025 RMK A01=||F||223|ICAO-KFCH
USW00023167|FRESNO CHANDLER DWTN AP|2022|03|01|08|35|36.7333|-119.8167|84.1|11.0||1|FM15-METAR|223|ICAO-KFCH|5.0||1|FM15-METAR|223|ICAO-KFCH|||||||||||||999|C-Calm|9|FM15-METAR|223|ICAO-KFCH|0.0|C-Calm|1|FM15-METAR|223|ICAO-KFCH|||||||||||||67|Derived||FM15-METAR|223|ICAO-KFCH|||||||||||||||||||||||||||||||||||||||||||||||||||||||||||||||||||||||||1024.4||1|FM15-METAR|223|ICAO-KFCH|||||||||||||||||||||||||||||||||||||||||||MET057METAR KFCH 010835Z AUTO 00000KT 10SM 11/05 A3025 RMK A01=||F||223|ICAO-KFCH
USW00023167|FRESNO CHANDLER DWTN AP|2022|03|01|08|55|36.7333|-119.8167|84.1|10.0||1|FM15-METAR|223|ICAO-KFCH|5.0||1|FM15-METAR|223|ICAO-KFCH|||||||||||||999|C-Calm|9|FM15-METAR|223|ICAO-KFCH|0.0|C-Calm|1|FM15-METAR|223|ICAO-KFCH|||||||||||||71|Derived||FM15-METAR|223|ICAO-KFCH|||||||||||||||||||||||||||||||||||||||||||||||||||||||||||||||||||||||||1024.4||1|FM15-METAR|223|ICAO-KFCH|||||||||||||||||||||||||||||||||||||||||||MET061METAR KFCH 010855Z AUTO 00000KT 10SM CLR 10/05 A3025 RMK A01=||F||223|ICAO-KFCH
USW00023167|FRESNO CHANDLER DWTN AP|2022|03|01|09|15|36.7333|-119.8167|84.1|9.0||1|FM15-METAR|223|ICAO-KFCH|4.0||1|FM15-METAR|223|ICAO-KFCH|||||||||||||999|C-Calm|9|FM15-METAR|223|ICAO-KFCH|0.0|C-Calm|1|FM15-METAR|223|ICAO-KFCH|||||||||||||71|Derived||FM15-METAR|223|ICAO-KFCH|||||||||||||||||||||||||||||||||||||||||||||||||||||||||||||||||||||||||1024.4||1|FM15-METAR|223|ICAO-KFCH|||||||||||||||||||||||||||||||||||||||||||MET061METAR KFCH 010915Z AUTO 00000KT 10SM CLR 09/04 A3025 RMK A01=||F||223|ICAO-KFCH
USW00023167|FRESNO CHANDLER DWTN AP|2022|03|01|09|35|36.7333|-119.8167|84.1|9.0||1|FM15-METAR|223|ICAO-KFCH|4.0||1|FM15-METAR|223|ICAO-KFCH|||||||||||||999|C-Calm|9|FM15-METAR|223|ICAO-KFCH|0.0|C-Calm|1|FM15-METAR|223|ICAO-KFCH|||||||||||||71|Derived||FM15-METAR|223|ICAO-KFCH|||||||||||||||||||||||||||||||||||||||||||||||||||||||||||||||||||||||||1024.4||1|FM15-METAR|223|ICAO-KFCH|||||||||||||||||||||||||||||||||||||||||||MET061METAR KFCH 010935Z AUTO 00000KT 10SM CLR 09/04 A3025 RMK A01=||F||223|ICAO-KFCH
USW00023167|FRESNO CHANDLER DWTN AP|2022|03|01|09|55|36.7333|-119.8167|84.1|9.0||1|FM15-METAR|223|ICAO-KFCH|4.0||1|FM15-METAR|223|ICAO-KFCH|||||||||||||999|C-Calm|9|FM15-METAR|223|ICAO-KFCH|0.0|C-Calm|1|FM15-METAR|223|ICAO-KFCH|||||||||||||71|Derived||FM15-METAR|223|ICAO-KFCH|||||||||||||||||||||||||||||||||||||||||||||||||||||||||||||||||||||||||1024.4||1|FM15-METAR|223|ICAO-KFCH|||||||||||||||||||||||||||||||||||||||||||MET061METAR KFCH 010955Z AUTO 00000KT 10SM CLR 09/04 A3025 RMK A01=||F||223|ICAO-KFCH
USW00023167|FRESNO CHANDLER DWTN AP|2022|03|01|10|15|36.7333|-119.8167|84.1|9.0||1|FM15-METAR|223|ICAO-KFCH|4.0||1|FM15-METAR|223|ICAO-KFCH|||||||||||||999|C-Calm|9|FM15-METAR|223|ICAO-KFCH|0.0|C-Calm|1|FM15-METAR|223|ICAO-KFCH|||||||||||||71|Derived||FM15-METAR|223|ICAO-KFCH|||||||||||||||||||||||||||||||||||||||||||||||||||||||||||||||||||||||||1024.0||1|FM15-METAR|223|ICAO-KFCH|||||||||||||||||||||||||||||||||||||||||||MET061METAR KFCH 011015Z AUTO 00000KT 10SM CLR 09/04 A3024 RMK A01=||F||223|ICAO-KFCH
USW00023167|FRESNO CHANDLER DWTN AP|2022|03|01|10|35|36.7333|-119.8167|84.1|10.0||1|FM15-METAR|223|ICAO-KFCH|4.0||1|FM15-METAR|223|ICAO-KFCH|||||||||||||040|N-Normal|1|FM15-METAR|223|ICAO-KFCH|1.5|N-Normal|1|FM15-METAR|223|ICAO-KFCH|||||||||||||67|Derived||FM15-METAR|223|ICAO-KFCH|||||||||||||||||||||||||||||||||||||||||||||||||||||||||||||||||||||||||1024.0||1|FM15-METAR|223|ICAO-KFCH|||||||||||||||||||||||||||||||||||||||||||MET061METAR KFCH 011035Z AUTO 04003KT 10SM CLR 10/04 A3024 RMK A01=||F||223|ICAO-KFCH
USW00023167|FRESNO CHANDLER DWTN AP|2022|03|01|10|55|36.7333|-119.8167|84.1|9.0||1|FM15-METAR|223|ICAO-KFCH|4.0||1|FM15-METAR|223|ICAO-KFCH|||||||||||||999|C-Calm|9|FM15-METAR|223|ICAO-KFCH|0.0|C-Calm|1|FM15-METAR|223|ICAO-KFCH|||||||||||||71|Derived||FM15-METAR|223|ICAO-KFCH|||||||||||||||||||||||||||||||||||||||||||||||||||||||||||||||||||||||||1024.0||1|FM15-METAR|223|ICAO-KFCH|||||||||||||||||||||||||||||||||||||||||||MET061METAR KFCH 011055Z AUTO 00000KT 10SM CLR 09/04 A3024 RMK A01=||F||223|ICAO-KFCH
USW00023167|FRESNO CHANDLER DWTN AP|2022|03|01|11|15|36.7333|-119.8167|84.1|9.0||1|FM15-METAR|223|ICAO-KFCH|4.0||1|FM15-METAR|223|ICAO-KFCH|||||||||||||999|C-Calm|9|FM15-METAR|223|ICAO-KFCH|0.0|C-Calm|1|FM15-METAR|223|ICAO-KFCH|||||||||||||71|Derived||FM15-METAR|223|ICAO-KFCH|||||||||||||||||||||||||||||||||||||||||||||||||||||||||||||||||||||||||1023.7||1|FM15-METAR|223|ICAO-KFCH|||||||||||||||||||||||||||||||||||||||||||MET061METAR KFCH 011115Z AUTO 00000KT 10SM CLR 09/04 A3023 RMK A01=||F||223|ICAO-KFCH
USW00023167|FRESNO CHANDLER DWTN AP|2022|03|01|11|35|36.7333|-119.8167|84.1|8.0||1|FM15-METAR|223|ICAO-KFCH|4.0||1|FM15-METAR|223|ICAO-KFCH|||||||||||||999|C-Calm|9|FM15-METAR|223|ICAO-KFCH|0.0|C-Calm|1|FM15-METAR|223|ICAO-KFCH|||||||||||||76|Derived||FM15-METAR|223|ICAO-KFCH|||||||||||||||||||||||||||||||||||||||||||||||||||||||||||||||||||||||||1023.4||1|FM15-METAR|223|ICAO-KFCH|||||||||||||||||||||||||||||||||||||||||||MET061METAR KFCH 011135Z AUTO 00000KT 10SM CLR 08/04 A3022 RMK A01=||F||223|ICAO-KFCH
USW00023167|FRESNO CHANDLER DWTN AP|2022|03|01|11|55|36.7333|-119.8167|84.1|8.0||1|FM15-METAR|223|ICAO-KFCH|4.0||1|FM15-METAR|223|ICAO-KFCH|||||||||||||999|C-Calm|9|FM15-METAR|223|ICAO-KFCH|0.0|C-Calm|1|FM15-METAR|223|ICAO-KFCH|||||||||||||76|Derived||FM15-METAR|223|ICAO-KFCH|||||||||||||||||||||||||||||||||||||||||||||||||||||||||||||||||||||||||1023.4||1|FM15-METAR|223|ICAO-KFCH|||||||||||||||||||||||||||||||||||||||||||MET061METAR KFCH 011155Z AUTO 00000KT 10SM CLR 08/04 A3022 RMK A01=||F||223|ICAO-KFCH
USW00023167|FRESNO CHANDLER DWTN AP|2022|03|01|12|15|36.7333|-119.8167|84.1|9.0||1|FM15-METAR|223|ICAO-KFCH|4.0||1|FM15-METAR|223|ICAO-KFCH|||||||||||||||||||||||||||||||||||||71|Derived||FM15-METAR|223|ICAO-KFCH|||||||||||||||||||||||||||||||||||||||||||||||||||||||||||||||||||||||||1023.4||1|FM15-METAR|223|ICAO-KFCH|||||||||||||||||||||||||||||||||||||||||||MET049METAR KFCH 011215Z AUTO 10SM 09/04 A3022 RMK A01=||F||223|ICAO-KFCH
USW00023167|FRESNO CHANDLER DWTN AP|2022|03|01|12|35|36.7333|-119.8167|84.1|9.0||1|FM15-METAR|223|ICAO-KFCH|4.0||1|FM15-METAR|223|ICAO-KFCH|||||||||||||||||||||||||||||||||||||71|Derived||FM15-METAR|223|ICAO-KFCH|||||||||||||||||||||||||||||||||||||||||||||||||||||||||||||||||||||||||1023.4||1|FM15-METAR|223|ICAO-KFCH|||||||||||||||||||||||||||||||||||||||||||MET049METAR KFCH 011235Z AUTO 10SM 09/04 A3022 RMK A01=||F||223|ICAO-KFCH
USW00023167|FRESNO CHANDLER DWTN AP|2022|03|01|12|55|36.7333|-119.8167|84.1|8.0||1|FM15-METAR|223|ICAO-KFCH|4.0||1|FM15-METAR|223|ICAO-KFCH|||||||||||||999|C-Calm|9|FM15-METAR|223|ICAO-KFCH|0.0|C-Calm|1|FM15-METAR|223|ICAO-KFCH|||||||||||||76|Derived||FM15-METAR|223|ICAO-KFCH|||||||||||||||||||||||||||||||||||||||||||||||||||||||||||||||||||||||||1023.4||1|FM15-METAR|223|ICAO-KFCH|||||||||||||||||||||||||||||||||||||||||||MET057METAR KFCH 011255Z AUTO 00000KT 10SM 08/04 A3022 RMK A01=||F||223|ICAO-KFCH
USW00023167|FRESNO CHANDLER DWTN AP|2022|03|01|13|10|36.7333|-119.8167|84.1|8.0||1|FM15-METAR|223|ICAO-KFCH|4.0||1|FM15-METAR|223|ICAO-KFCH|||||||||||||999|C-Calm|9|FM15-METAR|223|ICAO-KFCH|0.0|C-Calm|1|FM15-METAR|223|ICAO-KFCH|||||||||||||76|Derived||FM15-METAR|223|ICAO-KFCH|||||||||||||||||||||||||||||||||||||||||||||||||||||||||||||||||||||||||1023.4||1|FM15-METAR|223|ICAO-KFCH|||||||||||||||||||||||||||||||||||||||||||MET057METAR KFCH 011310Z AUTO 00000KT 10SM 08/04 A3022 RMK A01=||F||223|ICAO-KFCH
USW00023167|FRESNO CHANDLER DWTN AP|2022|03|01|13|35|36.7333|-119.8167|84.1|8.0||1|FM15-METAR|223|ICAO-KFCH|4.0||1|FM15-METAR|223|ICAO-KFCH|||||||||||||999|C-Calm|9|FM15-METAR|223|ICAO-KFCH|0.0|C-Calm|1|FM15-METAR|223|ICAO-KFCH|||||||||||||76|Derived||FM15-METAR|223|ICAO-KFCH|||||||||||||||||||||||||||||||||||||||||||||||||||||||||||||||||||||||||1023.4||1|FM15-METAR|223|ICAO-KFCH|||||||||||||||||||||||||||||||||||||||||||MET061METAR KFCH 011335Z AUTO 00000KT 10SM CLR 08/04 A3022 RMK A01=||F||223|ICAO-KFCH
USW00023167|FRESNO CHANDLER DWTN AP|2022|03|01|13|55|36.7333|-119.8167|84.1|7.0||1|FM15-METAR|223|ICAO-KFCH|4.0||1|FM15-METAR|223|ICAO-KFCH|||||||||||||999|C-Calm|9|FM15-METAR|223|ICAO-KFCH|0.0|C-Calm|1|FM15-METAR|223|ICAO-KFCH|||||||||||||81|Derived||FM15-METAR|223|ICAO-KFCH|||||||||||||||||||||||||||||||||||||||||||||||||||||||||||||||||||||||||1023.7||1|FM15-METAR|223|ICAO-KFCH|||||||||||||||||||||||||||||||||||||||||||MET061METAR KFCH 011355Z AUTO 00000KT 10SM CLR 07/04 A3023 RMK A01=||F||223|ICAO-KFCH
USW00023167|FRESNO CHANDLER DWTN AP|2022|03|01|14|15|36.7333|-119.8167|84.1|8.0||1|FM15-METAR|223|ICAO-KFCH|4.0||1|FM15-METAR|223|ICAO-KFCH|||||||||||||999|C-Calm|9|FM15-METAR|223|ICAO-KFCH|0.0|C-Calm|1|FM15-METAR|223|ICAO-KFCH|||||||||||||76|Derived||FM15-METAR|223|ICAO-KFCH|||||||||||||||||||||||||||||||||||||||||||||||||||||||||||||||||||||||||1024.0||1|FM15-METAR|223|ICAO-KFCH|||||||||||||||||||||||||||||||||||||||||||MET061METAR KFCH 011415Z AUTO 00000KT 10SM CLR 08/04 A3024 RMK A01=||F||223|ICAO-KFCH
USW00023167|FRESNO CHANDLER DWTN AP|2022|03|01|14|35|36.7333|-119.8167|84.1|7.0||1|FM15-METAR|223|ICAO-KFCH|4.0||1|FM15-METAR|223|ICAO-KFCH|||||||||||||999|C-Calm|9|FM15-METAR|223|ICAO-KFCH|0.0|C-Calm|1|FM15-METAR|223|ICAO-KFCH|||||||||||||81|Derived||FM15-METAR|223|ICAO-KFCH|||||||||||||||||||||||||||||||||||||||||||||||||||||||||||||||||||||||||1024.4||1|FM15-METAR|223|ICAO-KFCH|||||||||||||||||||||||||||||||||||||||||||MET061METAR KFCH 011435Z AUTO 00000KT 10SM CLR 07/04 A3025 RMK A01=||F||223|ICAO-KFCH
USW00023167|FRESNO CHANDLER DWTN AP|2022|03|01|14|55|36.7333|-119.8167|84.1|7.0||1|FM15-METAR|223|ICAO-KFCH|4.0||1|FM15-METAR|223|ICAO-KFCH|||||||||||||080|N-Normal|1|FM15-METAR|223|ICAO-KFCH|1.5|N-Normal|1|FM15-METAR|223|ICAO-KFCH|||||||||||||81|Derived||FM15-METAR|223|ICAO-KFCH|||||||||||||||||||||||||||||||||||||||||||||||||||||||||||||||||||||||||1024.4||1|FM15-METAR|223|ICAO-KFCH|||||||||||||||||||||||||||||||||||||||||||MET061METAR KFCH 011455Z AUTO 08003KT 10SM CLR 07/04 A3025 RMK A01=||F||223|ICAO-KFCH
USW00023167|FRESNO CHANDLER DWTN AP|2022|03|01|15|15|36.7333|-119.8167|84.1|8.0||1|FM15-METAR|223|ICAO-KFCH|5.0||1|FM15-METAR|223|ICAO-KFCH|||||||||||||090|N-Normal|1|FM15-METAR|223|ICAO-KFCH|1.5|N-Normal|1|FM15-METAR|223|ICAO-KFCH|||||||||||||82|Derived||FM15-METAR|223|ICAO-KFCH|||||||||||||||||||||||||||||||||||||||||||||||||||||||||||||||||||||||||1024.7||1|FM15-METAR|223|ICAO-KFCH|||||||||||||||||||||||||||||||||||||||||||MET061METAR KFCH 011515Z AUTO 09003KT 10SM CLR 08/05 A3026 RMK A01=||F||223|ICAO-KFCH
USW00023167|FRESNO CHANDLER DWTN AP|2022|03|01|15|30|36.7333|-119.8167|84.1|9.0||1|FM15-METAR|223|ICAO-KFCH|5.0||1|FM15-METAR|223|ICAO-KFCH|||||||||||||100|N-Normal|1|FM15-METAR|223|ICAO-KFCH|1.5|N-Normal|1|FM15-METAR|223|ICAO-KFCH|||||||||||||76|Derived||FM15-METAR|223|ICAO-KFCH|||||||||||||||||||||||||||||||||||||||||||||||||||||||||||||||||||||||||1024.7||1|FM15-METAR|223|ICAO-KFCH|||||||||||||||||||||||||||||||||||||||||||MET061METAR KFCH 011530Z AUTO 10003KT 10SM CLR 09/05 A3026 RMK A01=||F||223|ICAO-KFCH
USW00023167|FRESNO CHANDLER DWTN AP|2022|03|01|15|55|36.7333|-119.8167|84.1|11.0||1|FM15-METAR|223|ICAO-KFCH|5.0||1|FM15-METAR|223|ICAO-KFCH|||||||||||||100|N-Normal|1|FM15-METAR|223|ICAO-KFCH|2.1|N-Normal|1|FM15-METAR|223|ICAO-KFCH|||||||||||||67|Derived||FM15-METAR|223|ICAO-KFCH|||||||||||||||||||||||||||||||||||||||||||||||||||||||||||||||||||||||||1025.1||1|FM15-METAR|223|ICAO-KFCH|||||||||||||||||||||||||||||||||||||||||||MET061METAR KFCH 011555Z AUTO 10004KT 10SM CLR 11/05 A3027 RMK A01=||F||223|ICAO-KFCH
USW00023167|FRESNO CHANDLER DWTN AP|2022|03|01|16|15|36.7333|-119.8167|84.1|||||||||||||||||||||||||||||||||||||||||||||||||||||||||||||||||||||||||||||||||||||||||||||||||||||||||||||||||||||||||||||||1025.1||1|FM15-METAR|223|ICAO-KFCH|||||||||||||||||||||||||||||||||||||||||||MET038METAR KFCH 011615Z AUTO A3027 RMK A01=||F||223|ICAO-KFCH
USW00023167|FRESNO CHANDLER DWTN AP|2022|03|01|16|35|36.7333|-119.8167|84.1|13.0||1|FM15-METAR|223|ICAO-KFCH|4.0||1|FM15-METAR|223|ICAO-KFCH|||||||||||||120|N-Normal|1|FM15-METAR|223|ICAO-KFCH|2.6|N-Normal|1|FM15-METAR|223|ICAO-KFCH|||||||||||||55|Derived||FM15-METAR|223|ICAO-KFCH|||||||||||||||||||||||||||||||||||||||||||||||||||||||||||||||||||||||||1025.1||1|FM15-METAR|223|ICAO-KFCH|||||||||||||||||||||||||||||||||||||||||||MET057METAR KFCH 011635Z AUTO 12005KT 10SM 13/04 A3027 RMK A01=||F||223|ICAO-KFCH
USW00023167|FRESNO CHANDLER DWTN AP|2022|03|01|16|55|36.7333|-119.8167|84.1|14.0||1|FM15-METAR|223|ICAO-KFCH|4.0||1|FM15-METAR|223|ICAO-KFCH|||||||||||||130|N-Normal|1|FM15-METAR|223|ICAO-KFCH|3.1|N-Normal|1|FM15-METAR|223|ICAO-KFCH|||||||||||||51|Derived||FM15-METAR|223|ICAO-KFCH|||||||||||||||||||||||||||||||||||||||||||||||||||||||||||||||||||||||||1024.7||1|FM15-METAR|223|ICAO-KFCH|||||||||||||||||||||||||||||||||||||||||||MET061METAR KFCH 011655Z AUTO 13006KT 10SM CLR 14/04 A3026 RMK A01=||F||223|ICAO-KFCH
USW00023167|FRESNO CHANDLER DWTN AP|2022|03|01|17|10|36.7333|-119.8167|84.1|15.0||1|FM15-METAR|223|ICAO-KFCH|4.0||1|FM15-METAR|223|ICAO-KFCH|||||||||||||110|N-Normal|1|FM15-METAR|223|ICAO-KFCH|2.6|N-Normal|1|FM15-METAR|223|ICAO-KFCH|||||||||||||48|Derived||FM15-METAR|223|ICAO-KFCH|||||||||||||||||||||||||||||||||||||||||||||||||||||||||||||||||||||||||1024.4||1|FM15-METAR|223|ICAO-KFCH|||||||||||||||||||||||||||||||||||||||||||MET061METAR KFCH 011710Z AUTO 11005KT 10SM CLR 15/04 A3025 RMK A01=||F||223|ICAO-KFCH
USW00023167|FRESNO CHANDLER DWTN AP|2022|03|01|17|35|36.7333|-119.8167|84.1|16.0||1|FM15-METAR|223|ICAO-KFCH|4.0||1|FM15-METAR|223|ICAO-KFCH|||||||||||||110|N-Normal|1|FM15-METAR|223|ICAO-KFCH|2.1|N-Normal|1|FM15-METAR|223|ICAO-KFCH|||||||||||||45|Derived||FM15-METAR|223|ICAO-KFCH|||||||||||||||||||||||||||||||||||||||||||||||||||||||||||||||||||||||||1024.0||1|FM15-METAR|223|ICAO-KFCH|||||||||||||||||||||||||||||||||||||||||||MET061METAR KFCH 011735Z AUTO 11004KT 10SM CLR 16/04 A3024 RMK A01=||F||223|ICAO-KFCH
USW00023167|FRESNO CHANDLER DWTN AP|2022|03|01|17|50|36.7333|-119.8167|84.1|16.0||1|FM15-METAR|223|ICAO-KFCH|4.0||1|FM15-METAR|223|ICAO-KFCH|||||||||||||130|N-Normal|1|FM15-METAR|223|ICAO-KFCH|2.1|N-Normal|1|FM15-METAR|223|ICAO-KFCH|||||||||||||45|Derived||FM15-METAR|223|ICAO-KFCH|||||||||||||||||||||||||||||||||||||||||||||||||||||||||||||||||||||||||1024.0||1|FM15-METAR|223|ICAO-KFCH|||||||||||||||||||||||||||||||||||||||||||MET061METAR KFCH 011750Z AUTO 13004KT 10SM CLR 16/04 A3024 RMK A01=||F||223|ICAO-KFCH
USW00023167|FRESNO CHANDLER DWTN AP|2022|03|01|18|10|36.7333|-119.8167|84.1|17.0||1|FM15-METAR|223|ICAO-KFCH|4.0||1|FM15-METAR|223|ICAO-KFCH|||||||||||||999|V-Variable|9|FM15-METAR|223|ICAO-KFCH|2.1|V-Variable|1|FM15-METAR|223|ICAO-KFCH|||||||||||||42|Derived||FM15-METAR|223|ICAO-KFCH|||||||||||||||||||||||||||||||||||||||||||||||||||||||||||||||||||||||||1024.0||1|FM15-METAR|223|ICAO-KFCH|||||||||||||||||||||||||||||||||||||||||||MET061METAR KFCH 011810Z AUTO VRB04KT 10SM CLR 17/04 A3024 RMK A01=||F||223|ICAO-KFCH
USW00023167|FRESNO CHANDLER DWTN AP|2022|03|01|18|35|36.7333|-119.8167|84.1|18.0||1|FM15-METAR|223|ICAO-KFCH|4.0||1|FM15-METAR|223|ICAO-KFCH|||||||||||||140|N-Normal|1|FM15-METAR|223|ICAO-KFCH|2.6|N-Normal|1|FM15-METAR|223|ICAO-KFCH|||||||||||||40|Derived||FM15-METAR|223|ICAO-KFCH|||||||||||||||||||||||||||||||||||||||||||||||||||||||||||||||||||||||||1023.7||1|FM15-METAR|223|ICAO-KFCH|||||||||||||||||||||||||||||||||||||||||||MET061METAR KFCH 011835Z AUTO 14005KT 10SM CLR 18/04 A3023 RMK A01=||F||223|ICAO-KFCH
USW00023167|FRESNO CHANDLER DWTN AP|2022|03|01|18|55|36.7333|-119.8167|84.1|19.0||1|FM15-METAR|223|ICAO-KFCH|4.0||1|FM15-METAR|223|ICAO-KFCH|||||||||||||120|N-Normal|1|FM15-METAR|223|ICAO-KFCH|2.6|N-Normal|1|FM15-METAR|223|ICAO-KFCH|||||||||||||37|Derived||FM15-METAR|223|ICAO-KFCH|||||||||||||||||||||||||||||||||||||||||||||||||||||||||||||||||||||||||1023.4||1|FM15-METAR|223|ICAO-KFCH|||||||||||||||||||||||||||||||||||||||||||MET061METAR KFCH 011855Z AUTO 12005KT 10SM CLR 19/04 A3022 RMK A01=||F||223|ICAO-KFCH
USW00023167|FRESNO CHANDLER DWTN AP|2022|03|01|19|15|36.7333|-119.8167|84.1|20.0||1|FM15-METAR|223|ICAO-KFCH|4.0||1|FM15-METAR|223|ICAO-KFCH|||||||||||||160|N-Normal|1|FM15-METAR|223|ICAO-KFCH|2.1|N-Normal|1|FM15-METAR|223|ICAO-KFCH|||||||||||||35|Derived||FM15-METAR|223|ICAO-KFCH|||||||||||||||||||||||||||||||||||||||||||||||||||||||||||||||||||||||||1023.4||1|FM15-METAR|223|ICAO-KFCH|||||||||||||||||||||||||||||||||||||||||||MET061METAR KFCH 011915Z AUTO 16004KT 10SM CLR 20/04 A3022 RMK A01=||F||223|ICAO-KFCH
USW00023167|FRESNO CHANDLER DWTN AP|2022|03|01|19|35|36.7333|-119.8167|84.1|20.0||1|FM15-METAR|223|ICAO-KFCH|4.0||1|FM15-METAR|223|ICAO-KFCH|||||||||||||999|C-Calm|9|FM15-METAR|223|ICAO-KFCH|0.0|C-Calm|1|FM15-METAR|223|ICAO-KFCH|||||||||||||35|Derived||FM15-METAR|223|ICAO-KFCH|||||||||||||||||||||||||||||||||||||||||||||||||||||||||||||||||||||||||1023.0||1|FM15-METAR|223|ICAO-KFCH|||||||||||||||||||||||||||||||||||||||||||MET061METAR KFCH 011935Z AUTO 00000KT 10SM CLR 20/04 A3021 RMK A01=||F||223|ICAO-KFCH
USW00023167|FRESNO CHANDLER DWTN AP|2022|03|01|19|55|36.7333|-119.8167|84.1|21.0||1|FM15-METAR|223|ICAO-KFCH|5.0||1|FM15-METAR|223|ICAO-KFCH|||||||||||||999|C-Calm|9|FM15-METAR|223|ICAO-KFCH|0.0|C-Calm|1|FM15-METAR|223|ICAO-KFCH|||||||||||||35|Derived||FM15-METAR|223|ICAO-KFCH|||||||||||||||||||||||||||||||||||||||||||||||||||||||||||||||||||||||||1023.0||1|FM15-METAR|223|ICAO-KFCH|||||||||||||||||||||||||||||||||||||||||||MET061METAR KFCH 011955Z AUTO 00000KT 10SM CLR 21/05 A3021 RMK A01=||F||223|ICAO-KFCH
USW00023167|FRESNO CHANDLER DWTN AP|2022|03|01|20|15|36.7333|-119.8167|84.1|21.0||1|FM15-METAR|223|ICAO-KFCH|5.0||1|FM15-METAR|223|ICAO-KFCH|||||||||||||999|C-Calm|9|FM15-METAR|223|ICAO-KFCH|0.0|C-Calm|1|FM15-METAR|223|ICAO-KFCH|||||||||||||35|Derived||FM15-METAR|223|ICAO-KFCH|||||||||||||||||||||||||||||||||||||||||||||||||||||||||||||||||||||||||1022.7||1|FM15-METAR|223|ICAO-KFCH|||||||||||||||||||||||||||||||||||||||||||MET061METAR KFCH 012015Z AUTO 00000KT 10SM CLR 21/05 A3020 RMK A01=||F||223|ICAO-KFCH
USW00023167|FRESNO CHANDLER DWTN AP|2022|03|01|20|35|36.7333|-119.8167|84.1|22.0||1|FM15-METAR|223|ICAO-KFCH|5.0||1|FM15-METAR|223|ICAO-KFCH|||||||||||||220|N-Normal|1|FM15-METAR|223|ICAO-KFCH|1.5|N-Normal|1|FM15-METAR|223|ICAO-KFCH|||||||||||||33|Derived||FM15-METAR|223|ICAO-KFCH|||||||||||||||||||||||||||||||||||||||||||||||||||||||||||||||||||||||||1022.3||1|FM15-METAR|223|ICAO-KFCH|||||||||||||||||||||||||||||||||||||||||||MET061METAR KFCH 012035Z AUTO 22003KT 10SM CLR 22/05 A3019 RMK A01=||F||223|ICAO-KFCH
USW00023167|FRESNO CHANDLER DWTN AP|2022|03|01|20|50|36.7333|-119.8167|84.1|22.0||1|FM15-METAR|223|ICAO-KFCH|6.0||1|FM15-METAR|223|ICAO-KFCH|||||||||||||290|N-Normal|1|FM15-METAR|223|ICAO-KFCH|2.6|N-Normal|1|FM15-METAR|223|ICAO-KFCH|||||||||||||36|Derived||FM15-METAR|223|ICAO-KFCH|||||||||||||||||||||||||||||||||||||||||||||||||||||||||||||||||||||||||1022.0||1|FM15-METAR|223|ICAO-KFCH|||||||||||||||||||||||||||||||||||||||||||MET061METAR KFCH 012050Z AUTO 29005KT 10SM CLR 22/06 A3018 RMK A01=||F||223|ICAO-KFCH
USW00023167|FRESNO CHANDLER DWTN AP|2022|03|01|21|15|36.7333|-119.8167|84.1|22.0||1|FM15-METAR|223|ICAO-KFCH|5.0||1|FM15-METAR|223|ICAO-KFCH|||||||||||||999|C-Calm|9|FM15-METAR|223|ICAO-KFCH|0.0|C-Calm|1|FM15-METAR|223|ICAO-KFCH|||||||||||||33|Derived||FM15-METAR|223|ICAO-KFCH|||||||||||||||||||||||||||||||||||||||||||||||||||||||||||||||||||||||||1021.7||1|FM15-METAR|223|ICAO-KFCH|||||||||||||||||||||||||||||||||||||||||||MET061METAR KFCH 012115Z AUTO 00000KT 10SM CLR 22/05 A3017 RMK A01=||F||223|ICAO-KFCH
USW00023167|FRESNO CHANDLER DWTN AP|2022|03|01|21|35|36.7333|-119.8167|84.1|23.0||1|FM15-METAR|223|ICAO-KFCH|5.0||1|FM15-METAR|223|ICAO-KFCH|||||||||||||170|N-Normal|1|FM15-METAR|223|ICAO-KFCH|2.1|N-Normal|1|FM15-METAR|223|ICAO-KFCH|||||||||||||31|Derived||FM15-METAR|223|ICAO-KFCH|||||||||||||||||||||||||||||||||||||||||||||||||||||||||||||||||||||||||1021.3||1|FM15-METAR|223|ICAO-KFCH|||||||||||||||||||||||||||||||||||||||||||MET061METAR KFCH 012135Z AUTO 17004KT 10SM CLR 23/05 A3016 RMK A01=||F||223|ICAO-KFCH
USW00023167|FRESNO CHANDLER DWTN AP|2022|03|01|21|55|36.7333|-119.8167|84.1|23.0||1|FM15-METAR|223|ICAO-KFCH|5.0||1|FM15-METAR|223|ICAO-KFCH|||||||||||||160|N-Normal|1|FM15-METAR|223|ICAO-KFCH|1.5|N-Normal|1|FM15-METAR|223|ICAO-KFCH|||||||||||||31|Derived||FM15-METAR|223|ICAO-KFCH|||||||||||||||||||||||||||||||||||||||||||||||||||||||||||||||||||||||||1021.0||1|FM15-METAR|223|ICAO-KFCH|||||||||||||||||||||||||||||||||||||||||||MET061METAR KFCH 012155Z AUTO 16003KT 10SM CLR 23/05 A3015 RMK A01=||F||223|ICAO-KFCH
USW00023167|FRESNO CHANDLER DWTN AP|2022|03|01|22|15|36.7333|-119.8167|84.1|23.0||1|FM15-METAR|223|ICAO-KFCH|5.0||1|FM15-METAR|223|ICAO-KFCH|||||||||||||999|C-Calm|9|FM15-METAR|223|ICAO-KFCH|0.0|C-Calm|1|FM15-METAR|223|ICAO-KFCH|||||||||||||31|Derived||FM15-METAR|223|ICAO-KFCH|||||||||||||||||||||||||||||||||||||||||||||||||||||||||||||||||||||||||1020.7||1|FM15-METAR|223|ICAO-KFCH|||||||||||||||||||||||||||||||||||||||||||MET061METAR KFCH 012215Z AUTO 00000KT 10SM CLR 23/05 A3014 RMK A01=||F||223|ICAO-KFCH
USW00023167|FRESNO CHANDLER DWTN AP|2022|03|01|22|35|36.7333|-119.8167|84.1|23.0||1|FM15-METAR|223|ICAO-KFCH|5.0||1|FM15-METAR|223|ICAO-KFCH|||||||||||||999|C-Calm|9|FM15-METAR|223|ICAO-KFCH|0.0|C-Calm|1|FM15-METAR|223|ICAO-KFCH|||||||||||||31|Derived||FM15-METAR|223|ICAO-KFCH|||||||||||||||||||||||||||||||||||||||||||||||||||||||||||||||||||||||||1020.7||1|FM15-METAR|223|ICAO-KFCH|||||||||||||||||||||||||||||||||||||||||||MET061METAR KFCH 012235Z AUTO 00000KT 10SM CLR 23/05 A3014 RMK A01=||F||223|ICAO-KFCH
USW00023167|FRESNO CHANDLER DWTN AP|2022|03|01|22|55|36.7333|-119.8167|84.1|23.0||1|FM15-METAR|223|ICAO-KFCH|5.0||1|FM15-METAR|223|ICAO-KFCH|||||||||||||999|C-Calm|9|FM15-METAR|223|ICAO-KFCH|0.0|C-Calm|1|FM15-METAR|223|ICAO-KFCH|||||||||||||31|Derived||FM15-METAR|223|ICAO-KFCH|||||||||||||||||||||||||||||||||||||||||||||||||||||||||||||||||||||||||1020.3||1|FM15-METAR|223|ICAO-KFCH|||||||||||||||||||||||||||||||||||||||||||MET061METAR KFCH 012255Z AUTO 00000KT 10SM CLR 23/05 A3013 RMK A01=||F||223|ICAO-KFCH
USW00023167|FRESNO CHANDLER DWTN AP|2022|03|01|23|15|36.7333|-119.8167|84.1|23.0||1|FM15-METAR|223|ICAO-KFCH|5.0||1|FM15-METAR|223|ICAO-KFCH|||||||||||||320|N-Normal|1|FM15-METAR|223|ICAO-KFCH|2.1|N-Normal|1|FM15-METAR|223|ICAO-KFCH|||||||||||||31|Derived||FM15-METAR|223|ICAO-KFCH|||||||||||||||||||||||||||||||||||||||||||||||||||||||||||||||||||||||||1020.3||1|FM15-METAR|223|ICAO-KFCH|||||||||||||||||||||||||||||||||||||||||||MET061METAR KFCH 012315Z AUTO 32004KT 10SM CLR 23/05 A3013 RMK A01=||F||223|ICAO-KFCH
USW00023167|FRESNO CHANDLER DWTN AP|2022|03|01|23|35|36.7333|-119.8167|84.1|23.0||1|FM15-METAR|223|ICAO-KFCH|5.0||1|FM15-METAR|223|ICAO-KFCH|||||||||||||999|C-Calm|9|FM15-METAR|223|ICAO-KFCH|0.0|C-Calm|1|FM15-METAR|223|ICAO-KFCH|||||||||||||31|Derived||FM15-METAR|223|ICAO-KFCH|||||||||||||||||||||||||||||||||||||||||||||||||||||||||||||||||||||||||1020.3||1|FM15-METAR|223|ICAO-KFCH|||||||||||||||||||||||||||||||||||||||||||MET061METAR KFCH 012335Z AUTO 00000KT 10SM CLR 23/05 A3013 RMK A01=||F||223|ICAO-KFCH
USW00023167|FRESNO CHANDLER DWTN AP|2022|03|01|23|55|36.7333|-119.8167|84.1|24.0||1|FM15-METAR|223|ICAO-KFCH|5.0||1|FM15-METAR|223|ICAO-KFCH|||||||||||||280|N-Normal|1|FM15-METAR|223|ICAO-KFCH|2.1|N-Normal|1|FM15-METAR|223|ICAO-KFCH|||||||||||||29|Derived||FM15-METAR|223|ICAO-KFCH|||||||||||||||||||||||||||||||||||||||||||||||||||||||||||||||||||||||||1020.0||1|FM15-METAR|223|ICAO-KFCH|||||||||||||||||||||||||||||||||||||||||||MET061METAR KFCH 012355Z AUTO 28004KT 10SM CLR 24/05 A3012 RMK A01=||F||223|ICAO-KFCH
USW00023167|FRESNO CHANDLER DWTN AP|2022|03|02|00|15|36.7333|-119.8167|84.1|23.0||1|FM15-METAR|223|ICAO-KFCH|5.0||1|FM15-METAR|223|ICAO-KFCH|||||||||||||999|C-Calm|9|FM15-METAR|223|ICAO-KFCH|0.0|C-Calm|1|FM15-METAR|223|ICAO-KFCH|||||||||||||31|Derived||FM15-METAR|223|ICAO-KFCH|||||||||||||||||||||||||||||||||||||||||||||||||||||||||||||||||||||||||1020.0||1|FM15-METAR|223|ICAO-KFCH|||||||||||||||||||||||||||||||||||||||||||MET061METAR KFCH 020015Z AUTO 00000KT 10SM CLR 23/05 A3012 RMK A01=||F||223|ICAO-KFCH
USW00023167|FRESNO CHANDLER DWTN AP|2022|03|02|00|35|36.7333|-119.8167|84.1|24.0||1|FM15-METAR|223|ICAO-KFCH|5.0||1|FM15-METAR|223|ICAO-KFCH|||||||||||||320|N-Normal|1|FM15-METAR|223|ICAO-KFCH|2.1|N-Normal|1|FM15-METAR|223|ICAO-KFCH|||||||||||||29|Derived||FM15-METAR|223|ICAO-KFCH|||||||||||||||||||||||||||||||||||||||||||||||||||||||||||||||||||||||||1020.0||1|FM15-METAR|223|ICAO-KFCH|||||||||||||||||||||||||||||||||||||||||||MET061METAR KFCH 020035Z AUTO 32004KT 10SM CLR 24/05 A3012 RMK A01=||F||223|ICAO-KFCH
USW00023167|FRESNO CHANDLER DWTN AP|2022|03|02|00|55|36.7333|-119.8167|84.1|23.0||1|FM15-METAR|223|ICAO-KFCH|5.0||1|FM15-METAR|223|ICAO-KFCH|||||||||||||290|N-Normal|1|FM15-METAR|223|ICAO-KFCH|2.1|N-Normal|1|FM15-METAR|223|ICAO-KFCH|||||||||||||31|Derived||FM15-METAR|223|ICAO-KFCH|||||||||||||||||||||||||||||||||||||||||||||||||||||||||||||||||||||||||1020.0||1|FM15-METAR|223|ICAO-KFCH|||||||||||||||||||||||||||||||||||||||||||MET061METAR KFCH 020055Z AUTO 29004KT 10SM CLR 23/05 A3012 RMK A01=||F||223|ICAO-KFCH
USW00023167|FRESNO CHANDLER DWTN AP|2022|03|02|01|15|36.7333|-119.8167|84.1|23.0||1|FM15-METAR|223|ICAO-KFCH|6.0||1|FM15-METAR|223|ICAO-KFCH|||||||||||||300|N-Normal|1|FM15-METAR|223|ICAO-KFCH|3.1|N-Normal|1|FM15-METAR|223|ICAO-KFCH|||||||||||||33|Derived||FM15-METAR|223|ICAO-KFCH|||||||||||||||||||||||||||||||||||||||||||||||||||||||||||||||||||||||||1019.6||1|FM15-METAR|223|ICAO-KFCH|||||||||||||||||||||||||||||||||||||||||||MET061METAR KFCH 020115Z AUTO 30006KT 10SM CLR 23/06 A3011 RMK A01=||F||223|ICAO-KFCH
USW00023167|FRESNO CHANDLER DWTN AP|2022|03|02|01|35|36.7333|-119.8167|84.1|23.0||1|FM15-METAR|223|ICAO-KFCH|6.0||1|FM15-METAR|223|ICAO-KFCH|||||||||||||310|N-Normal|1|FM15-METAR|223|ICAO-KFCH|2.1|N-Normal|1|FM15-METAR|223|ICAO-KFCH|||||||||||||33|Derived||FM15-METAR|223|ICAO-KFCH|||||||||||||||||||||||||||||||||||||||||||||||||||||||||||||||||||||||||1020.0||1|FM15-METAR|223|ICAO-KFCH|||||||||||||||||||||||||||||||||||||||||||MET061METAR KFCH 020135Z AUTO 31004KT 10SM CLR 23/06 A3012 RMK A01=||F||223|ICAO-KFCH
USW00023167|FRESNO CHANDLER DWTN AP|2022|03|02|01|55|36.7333|-119.8167|84.1|21.0||1|FM15-METAR|223|ICAO-KFCH|6.0||1|FM15-METAR|223|ICAO-KFCH|||||||||||||999|C-Calm|9|FM15-METAR|223|ICAO-KFCH|0.0|C-Calm|1|FM15-METAR|223|ICAO-KFCH|||||||||||||38|Derived||FM15-METAR|223|ICAO-KFCH|||||||||||||||||||||||||||||||||||||||||||||||||||||||||||||||||||||||||1020.0||1|FM15-METAR|223|ICAO-KFCH|||||||||||||||||||||||||||||||||||||||||||MET061METAR KFCH 020155Z AUTO 00000KT 10SM CLR 21/06 A3012 RMK A01=||F||223|ICAO-KFCH
USW00023167|FRESNO CHANDLER DWTN AP|2022|03|02|02|15|36.7333|-119.8167|84.1|21.0||1|FM15-METAR|223|ICAO-KFCH|6.0||1|FM15-METAR|223|ICAO-KFCH|||||||||||||999|C-Calm|9|FM15-METAR|223|ICAO-KFCH|0.0|C-Calm|1|FM15-METAR|223|ICAO-KFCH|||||||||||||38|Derived||FM15-METAR|223|ICAO-KFCH|||||||||||||||||||||||||||||||||||||||||||||||||||||||||||||||||||||||||1020.3||1|FM15-METAR|223|ICAO-KFCH|||||||||||||||||||||||||||||||||||||||||||MET061METAR KFCH 020215Z AUTO 00000KT 10SM CLR 21/06 A3013 RMK A01=||F||223|ICAO-KFCH
USW00023167|FRESNO CHANDLER DWTN AP|2022|03|02|02|35|36.7333|-119.8167|84.1|20.0||1|FM15-METAR|223|ICAO-KFCH|6.0||1|FM15-METAR|223|ICAO-KFCH|||||||||||||999|C-Calm|9|FM15-METAR|223|ICAO-KFCH|0.0|C-Calm|1|FM15-METAR|223|ICAO-KFCH|||||||||||||40|Derived||FM15-METAR|223|ICAO-KFCH|||||||||||||||||||||||||||||||||||||||||||||||||||||||||||||||||||||||||1020.7||1|FM15-METAR|223|ICAO-KFCH|||||||||||||||||||||||||||||||||||||||||||MET061METAR KFCH 020235Z AUTO 00000KT 10SM CLR 20/06 A3014 RMK A01=||F||223|ICAO-KFCH
USW00023167|FRESNO CHANDLER DWTN AP|2022|03|02|02|55|36.7333|-119.8167|84.1|19.0||1|FM15-METAR|223|ICAO-KFCH|7.0||1|FM15-METAR|223|ICAO-KFCH|||||||||||||999|C-Calm|9|FM15-METAR|223|ICAO-KFCH|0.0|C-Calm|1|FM15-METAR|223|ICAO-KFCH|||||||||||||46|Derived||FM15-METAR|223|ICAO-KFCH|||||||||||||||||||||||||||||||||||||||||||||||||||||||||||||||||||||||||1021.0||1|FM15-METAR|223|ICAO-KFCH|||||||||||||||||||||||||||||||||||||||||||MET061METAR KFCH 020255Z AUTO 00000KT 10SM CLR 19/07 A3015 RMK A01=||F||223|ICAO-KFCH
USW00023167|FRESNO CHANDLER DWTN AP|2022|03|02|09|45|36.7333|-119.8167|84.1|11.0||1|FM15-METAR|223|ICAO-KFCH|7.0||1|FM15-METAR|223|ICAO-KFCH|||||||||||||100|N-Normal|1|FM15-METAR|223|ICAO-KFCH|1.5|N-Normal|1|FM15-METAR|223|ICAO-KFCH|||||||||||||77|Derived||FM15-METAR|223|ICAO-KFCH|||||||||||||||||||||||||||||||||||||||||||||||||||||||||||||||||||||||||1021.0||1|FM15-METAR|223|ICAO-KFCH|||||||||||||||||||||||||||||||||||||||||||MET061METAR KFCH 020945Z AUTO 10003KT 10SM CLR 11/07 A3015 RMK A01=||F||223|ICAO-KFCH
USW00023167|FRESNO CHANDLER DWTN AP|2022|03|02|10|10|36.7333|-119.8167|84.1|11.0||1|FM15-METAR|223|ICAO-KFCH|7.0||1|FM15-METAR|223|ICAO-KFCH|||||||||||||110|N-Normal|1|FM15-METAR|223|ICAO-KFCH|1.5|N-Normal|1|FM15-METAR|223|ICAO-KFCH|||||||||||||77|Derived||FM15-METAR|223|ICAO-KFCH|||||||||||||||||||||||||||||||||||||||||||||||||||||||||||||||||||||||||1021.0||1|FM15-METAR|223|ICAO-KFCH|||||||||||||||||||||||||||||||||||||||||||MET057METAR KFCH 021010Z AUTO 11003KT 10SM 11/07 A3015 RMK A01=||F||223|ICAO-KFCH
USW00023167|FRESNO CHANDLER DWTN AP|2022|03|02|10|15|36.7333|-119.8167|84.1|11.0||1|FM15-METAR|223|ICAO-KFCH|7.0||1|FM15-METAR|223|ICAO-KFCH|||||||||||||100|N-Normal|1|FM15-METAR|223|ICAO-KFCH|2.1|N-Normal|1|FM15-METAR|223|ICAO-KFCH|||||||||||||77|Derived||FM15-METAR|223|ICAO-KFCH|||||||||||||||||||||||||||||||||||||||||||||||||||||||||||||||||||||||||1020.7||1|FM15-METAR|223|ICAO-KFCH|||||||||||||||||||||||||||||||||||||||||||MET057METAR KFCH 021015Z AUTO 10004KT 10SM 11/07 A3014 RMK A01=||F||223|ICAO-KFCH
USW00023167|FRESNO CHANDLER DWTN AP|2022|03|02|10|35|36.7333|-119.8167|84.1|11.0||1|FM15-METAR|223|ICAO-KFCH|7.0||1|FM15-METAR|223|ICAO-KFCH|||||||||||||999|C-Calm|9|FM15-METAR|223|ICAO-KFCH|0.0|C-Calm|1|FM15-METAR|223|ICAO-KFCH|||||||||||||77|Derived||FM15-METAR|223|ICAO-KFCH|||||||||||||||||||||||||||||||||||||||||||||||||||||||||||||||||||||||||1020.7||1|FM15-METAR|223|ICAO-KFCH|||||||||||||||||||||||||||||||||||||||||||MET057METAR KFCH 021035Z AUTO 00000KT 10SM 11/07 A3014 RMK A01=||F||223|ICAO-KFCH
USW00023167|FRESNO CHANDLER DWTN AP|2022|03|02|10|55|36.7333|-119.8167|84.1|12.0||1|FM15-METAR|223|ICAO-KFCH|7.0||1|FM15-METAR|223|ICAO-KFCH|||||||||||||||||||||||||||||||||||||72|Derived||FM15-METAR|223|ICAO-KFCH|||||||||||||||||||||||||||||||||||||||||||||||||||||||||||||||||||||||||1020.3||1|FM15-METAR|223|ICAO-KFCH|||||||||||||||||||||||||||||||||||||||||||MET049METAR KFCH 021055Z AUTO 10SM 12/07 A3013 RMK A01=||F||223|ICAO-KFCH
USW00023167|FRESNO CHANDLER DWTN AP|2022|03|02|11|15|36.7333|-119.8167|84.1|11.0||1|FM15-METAR|223|ICAO-KFCH|7.0||1|FM15-METAR|223|ICAO-KFCH|||||||||||||999|C-Calm|9|FM15-METAR|223|ICAO-KFCH|0.0|C-Calm|1|FM15-METAR|223|ICAO-KFCH|||||||||||||77|Derived||FM15-METAR|223|ICAO-KFCH|||||||||||||||||||||||||||||||||||||||||||||||||||||||||||||||||||||||||1020.3||1|FM15-METAR|223|ICAO-KFCH|||||||||||||||||||||||||||||||||||||||||||MET061METAR KFCH 021115Z AUTO 00000KT 10SM CLR 11/07 A3013 RMK A01=||F||223|ICAO-KFCH
USW00023167|FRESNO CHANDLER DWTN AP|2022|03|02|11|35|36.7333|-119.8167|84.1|10.0||1|FM15-METAR|223|ICAO-KFCH|7.0||1|FM15-METAR|223|ICAO-KFCH|||||||||||||999|C-Calm|9|FM15-METAR|223|ICAO-KFCH|0.0|C-Calm|1|FM15-METAR|223|ICAO-KFCH|||||||||||||82|Derived||FM15-METAR|223|ICAO-KFCH|||||||||||||||||||||||||||||||||||||||||||||||||||||||||||||||||||||||||1020.0||1|FM15-METAR|223|ICAO-KFCH|||||||||||||||||||||||||||||||||||||||||||MET061METAR KFCH 021135Z AUTO 00000KT 10SM CLR 10/07 A3012 RMK A01=||F||223|ICAO-KFCH
USW00023167|FRESNO CHANDLER DWTN AP|2022|03|02|11|55|36.7333|-119.8167|84.1|10.0||1|FM15-METAR|223|ICAO-KFCH|7.0||1|FM15-METAR|223|ICAO-KFCH|||||||||||||999|C-Calm|9|FM15-METAR|223|ICAO-KFCH|0.0|C-Calm|1|FM15-METAR|223|ICAO-KFCH|||||||||||||82|Derived||FM15-METAR|223|ICAO-KFCH|||||||||||||||||||||||||||||||||||||||||||||||||||||||||||||||||||||||||1020.0||1|FM15-METAR|223|ICAO-KFCH|||||||||||||||||||||||||||||||||||||||||||MET061METAR KFCH 021155Z AUTO 00000KT 10SM CLR 10/07 A3012 RMK A01=||F||223|ICAO-KFCH
USW00023167|FRESNO CHANDLER DWTN AP|2022|03|02|12|15|36.7333|-119.8167|84.1|10.0||1|FM15-METAR|223|ICAO-KFCH|7.0||1|FM15-METAR|223|ICAO-KFCH|||||||||||||110|N-Normal|1|FM15-METAR|223|ICAO-KFCH|1.5|N-Normal|1|FM15-METAR|223|ICAO-KFCH|||||||||||||82|Derived||FM15-METAR|223|ICAO-KFCH|||||||||||||||||||||||||||||||||||||||||||||||||||||||||||||||||||||||||1020.0||1|FM15-METAR|223|ICAO-KFCH|||||||||||||||||||||||||||||||||||||||||||MET061METAR KFCH 021215Z AUTO 11003KT 10SM CLR 10/07 A3012 RMK A01=||F||223|ICAO-KFCH
USW00023167|FRESNO CHANDLER DWTN AP|2022|03|02|12|35|36.7333|-119.8167|84.1|10.0||1|FM15-METAR|223|ICAO-KFCH|7.0||1|FM15-METAR|223|ICAO-KFCH|||||||||||||999|C-Calm|9|FM15-METAR|223|ICAO-KFCH|0.0|C-Calm|1|FM15-METAR|223|ICAO-KFCH|||||||||||||82|Derived||FM15-METAR|223|ICAO-KFCH|||||||||||||||||||||||||||||||||||||||||||||||||||||||||||||||||||||||||1019.6||1|FM15-METAR|223|ICAO-KFCH|||||||||||||||||||||||||||||||||||||||||||MET061METAR KFCH 021235Z AUTO 00000KT 10SM CLR 10/07 A3011 RMK A01=||F||223|ICAO-KFCH
USW00023167|FRESNO CHANDLER DWTN AP|2022|03|02|12|55|36.7333|-119.8167|84.1|10.0||1|FM15-METAR|223|ICAO-KFCH|6.0||1|FM15-METAR|223|ICAO-KFCH|||||||||||||999|C-Calm|9|FM15-METAR|223|ICAO-KFCH|0.0|C-Calm|1|FM15-METAR|223|ICAO-KFCH|||||||||||||76|Derived||FM15-METAR|223|ICAO-KFCH|||||||||||||||||||||||||||||||||||||||||||||||||||||||||||||||||||||||||1020.0||1|FM15-METAR|223|ICAO-KFCH|||||||||||||||||||||||||||||||||||||||||||MET061METAR KFCH 021255Z AUTO 00000KT 10SM CLR 10/06 A3012 RMK A01=||F||223|ICAO-KFCH
USW00023167|FRESNO CHANDLER DWTN AP|2022|03|02|13|15|36.7333|-119.8167|84.1|10.0||1|FM15-METAR|223|ICAO-KFCH|6.0||1|FM15-METAR|223|ICAO-KFCH|||||||||||||110|N-Normal|1|FM15-METAR|223|ICAO-KFCH|1.5|N-Normal|1|FM15-METAR|223|ICAO-KFCH|||||||||||||76|Derived||FM15-METAR|223|ICAO-KFCH|||||||||||||||||||||||||||||||||||||||||||||||||||||||||||||||||||||||||1019.6||1|FM15-METAR|223|ICAO-KFCH|||||||||||||||||||||||||||||||||||||||||||MET061METAR KFCH 021315Z AUTO 11003KT 10SM CLR 10/06 A3011 RMK A01=||F||223|ICAO-KFCH
USW00023167|FRESNO CHANDLER DWTN AP|2022|03|02|13|35|36.7333|-119.8167|84.1|10.0||1|FM15-METAR|223|ICAO-KFCH|6.0||1|FM15-METAR|223|ICAO-KFCH|||||||||||||100|N-Normal|1|FM15-METAR|223|ICAO-KFCH|1.5|N-Normal|1|FM15-METAR|223|ICAO-KFCH|||||||||||||76|Derived||FM15-METAR|223|ICAO-KFCH|||||||||||||||||||||||||||||||||||||||||||||||||||||||||||||||||||||||||1019.6||1|FM15-METAR|223|ICAO-KFCH|||||||||||||||||||||||||||||||||||||||||||MET061METAR KFCH 021335Z AUTO 10003KT 10SM CLR 10/06 A3011 RMK A01=||F||223|ICAO-KFCH
USW00023167|FRESNO CHANDLER DWTN AP|2022|03|02|13|50|36.7333|-119.8167|84.1|10.0||1|FM15-METAR|223|ICAO-KFCH|6.0||1|FM15-METAR|223|ICAO-KFCH|||||||||||||110|N-Normal|1|FM15-METAR|223|ICAO-KFCH|2.1|N-Normal|1|FM15-METAR|223|ICAO-KFCH|||||||||||||76|Derived||FM15-METAR|223|ICAO-KFCH|||||||||||||||||||||||||||||||||||||||||||||||||||||||||||||||||||||||||1019.6||1|FM15-METAR|223|ICAO-KFCH|||||||||||||||||||||||||||||||||||||||||||MET061METAR KFCH 021350Z AUTO 11004KT 10SM CLR 10/06 A3011 RMK A01=||F||223|ICAO-KFCH
USW00023167|FRESNO CHANDLER DWTN AP|2022|03|02|14|15|36.7333|-119.8167|84.1|11.0||1|FM15-METAR|223|ICAO-KFCH|6.0||1|FM15-METAR|223|ICAO-KFCH|||||||||||||100|N-Normal|1|FM15-METAR|223|ICAO-KFCH|1.5|N-Normal|1|FM15-METAR|223|ICAO-KFCH|||||||||||||72|Derived||FM15-METAR|223|ICAO-KFCH|||||||||||||||||||||||||||||||||||||||||||||||||||||||||||||||||||||||||1019.6||1|FM15-METAR|223|ICAO-KFCH|||||||||||||||||||||||||||||||||||||||||||MET061METAR KFCH 021415Z AUTO 10003KT 10SM CLR 11/06 A3011 RMK A01=||F||223|ICAO-KFCH
USW00023167|FRESNO CHANDLER DWTN AP|2022|03|02|14|35|36.7333|-119.8167|84.1|10.0||1|FM15-METAR|223|ICAO-KFCH|6.0||1|FM15-METAR|223|ICAO-KFCH|||||||||||||130|N-Normal|1|FM15-METAR|223|ICAO-KFCH|2.6|N-Normal|1|FM15-METAR|223|ICAO-KFCH|||||||||||||76|Derived||FM15-METAR|223|ICAO-KFCH|||||||||||||||||||||||||||||||||||||||||||||||||||||||||||||||||||||||||1020.0||1|FM15-METAR|223|ICAO-KFCH|||||||||||||||||||||||||||||||||||||||||||MET061METAR KFCH 021435Z AUTO 13005KT 10SM CLR 10/06 A3012 RMK A01=||F||223|ICAO-KFCH
USW00023167|FRESNO CHANDLER DWTN AP|2022|03|02|14|55|36.7333|-119.8167|84.1|10.0||1|FM15-METAR|223|ICAO-KFCH|6.0||1|FM15-METAR|223|ICAO-KFCH|||||||||||||999|C-Calm|9|FM15-METAR|223|ICAO-KFCH|0.0|C-Calm|1|FM15-METAR|223|ICAO-KFCH|||||||||||||76|Derived||FM15-METAR|223|ICAO-KFCH|||||||||||||||||||||||||||||||||||||||||||||||||||||||||||||||||||||||||1020.0||1|FM15-METAR|223|ICAO-KFCH|||||||||||||||||||||||||||||||||||||||||||MET061METAR KFCH 021455Z AUTO 00000KT 10SM CLR 10/06 A3012 RMK A01=||F||223|ICAO-KFCH
USW00023167|FRESNO CHANDLER DWTN AP|2022|03|02|15|15|36.7333|-119.8167|84.1|10.0||1|FM15-METAR|223|ICAO-KFCH|6.0||1|FM15-METAR|223|ICAO-KFCH|||||||||||||120|N-Normal|1|FM15-METAR|223|ICAO-KFCH|1.5|N-Normal|1|FM15-METAR|223|ICAO-KFCH|||||||||||||76|Derived||FM15-METAR|223|ICAO-KFCH|||||||||||||||||||||||||||||||||||||||||||||||||||||||||||||||||||||||||1020.0||1|FM15-METAR|223|ICAO-KFCH|||||||||||||||||||||||||||||||||||||||||||MET061METAR KFCH 021515Z AUTO 12003KT 10SM CLR 10/06 A3012 RMK A01=||F||223|ICAO-KFCH
USW00023167|FRESNO CHANDLER DWTN AP|2022|03|02|15|35|36.7333|-119.8167|84.1|11.0||1|FM15-METAR|223|ICAO-KFCH|6.0||1|FM15-METAR|223|ICAO-KFCH|||||||||||||999|C-Calm|9|FM15-METAR|223|ICAO-KFCH|0.0|C-Calm|1|FM15-METAR|223|ICAO-KFCH|||||||||||||72|Derived||FM15-METAR|223|ICAO-KFCH|||||||||||||||||||||||||||||||||||||||||||||||||||||||||||||||||||||||||1020.0||1|FM15-METAR|223|ICAO-KFCH|||||||||||||||||||||||||||||||||||||||||||MET061METAR KFCH 021535Z AUTO 00000KT 10SM CLR 11/06 A3012 RMK A01=||F||223|ICAO-KFCH
USW00023167|FRESNO CHANDLER DWTN AP|2022|03|02|15|55|36.7333|-119.8167|84.1|12.0||1|FM15-METAR|223|ICAO-KFCH|6.0||1|FM15-METAR|223|ICAO-KFCH|||||||||||||999|C-Calm|9|FM15-METAR|223|ICAO-KFCH|0.0|C-Calm|1|FM15-METAR|223|ICAO-KFCH|||||||||||||67|Derived||FM15-METAR|223|ICAO-KFCH|||||||||||||||||||||||||||||||||||||||||||||||||||||||||||||||||||||||||1020.0||1|FM15-METAR|223|ICAO-KFCH|||||||||||||||||||||||||||||||||||||||||||MET061METAR KFCH 021555Z AUTO 00000KT 10SM CLR 12/06 A3012 RMK A01=||F||223|ICAO-KFCH
USW00023167|FRESNO CHANDLER DWTN AP|2022|03|02|16|10|36.7333|-119.8167|84.1|13.0||1|FM15-METAR|223|ICAO-KFCH|6.0||1|FM15-METAR|223|ICAO-KFCH|||||||||||||999|C-Calm|9|FM15-METAR|223|ICAO-KFCH|0.0|C-Calm|1|FM15-METAR|223|ICAO-KFCH|||||||||||||63|Derived||FM15-METAR|223|ICAO-KFCH|||||||||||||||||||||||||||||||||||||||||||||||||||||||||||||||||||||||||1020.0||1|FM15-METAR|223|ICAO-KFCH|||||||||||||||||||||||||||||||||||||||||||MET057METAR KFCH 021610Z AUTO 00000KT 10SM 13/06 A3012 RMK A01=||F||223|ICAO-KFCH
USW00023167|FRESNO CHANDLER DWTN AP|2022|03|02|16|35|36.7333|-119.8167|84.1|15.0||1|FM15-METAR|223|ICAO-KFCH|6.0||1|FM15-METAR|223|ICAO-KFCH|||||||||||||140|N-Normal|1|FM15-METAR|223|ICAO-KFCH|2.1|N-Normal|1|FM15-METAR|223|ICAO-KFCH|||||||||||||55|Derived||FM15-METAR|223|ICAO-KFCH|||||||||||||||||||||||||||||||||||||||||||||||||||||||||||||||||||||||||1020.0||1|FM15-METAR|223|ICAO-KFCH|||||||||||||||||||||||||||||||||||||||||||MET061METAR KFCH 021635Z AUTO 14004KT 10SM CLR 15/06 A3012 RMK A01=||F||223|ICAO-KFCH
USW00023167|FRESNO CHANDLER DWTN AP|2022|03|02|16|50|36.7333|-119.8167|84.1|15.0||1|FM15-METAR|223|ICAO-KFCH|6.0||1|FM15-METAR|223|ICAO-KFCH|||||||||||||120|N-Normal|1|FM15-METAR|223|ICAO-KFCH|2.6|N-Normal|1|FM15-METAR|223|ICAO-KFCH|||||||||||||55|Derived||FM15-METAR|223|ICAO-KFCH|||||||||||||||||||||||||||||||||||||||||||||||||||||||||||||||||||||||||1020.0||1|FM15-METAR|223|ICAO-KFCH|||||||||||||||||||||||||||||||||||||||||||MET061METAR KFCH 021650Z AUTO 12005KT 10SM CLR 15/06 A3012 RMK A01=||F||223|ICAO-KFCH
USW00023167|FRESNO CHANDLER DWTN AP|2022|03|02|17|15|36.7333|-119.8167|84.1|16.0||1|FM15-METAR|223|ICAO-KFCH|6.0||1|FM15-METAR|223|ICAO-KFCH|||||||||||||120|N-Normal|1|FM15-METAR|223|ICAO-KFCH|2.6|N-Normal|1|FM15-METAR|223|ICAO-KFCH|||||||||||||52|Derived||FM15-METAR|223|ICAO-KFCH|||||||||||||||||||||||||||||||||||||||||||||||||||||||||||||||||||||||||1020.0||1|FM15-METAR|223|ICAO-KFCH|||||||||||||||||||||||||||||||||||||||||||MET061METAR KFCH 021715Z AUTO 12005KT 10SM CLR 16/06 A3012 RMK A01=||F||223|ICAO-KFCH
USW00023167|FRESNO CHANDLER DWTN AP|2022|03|02|17|35|36.7333|-119.8167|84.1|17.0||1|FM15-METAR|223|ICAO-KFCH|6.0||1|FM15-METAR|223|ICAO-KFCH|||||||||||||130|N-Normal|1|FM15-METAR|223|ICAO-KFCH|3.1|N-Normal|1|FM15-METAR|223|ICAO-KFCH|||||||||||||49|Derived||FM15-METAR|223|ICAO-KFCH|||||||||||||||||||||||||||||||||||||||||||||||||||||||||||||||||||||||||1019.6||1|FM15-METAR|223|ICAO-KFCH|||||||||||||||||||||||||||||||||||||||||||MET061METAR KFCH 021735Z AUTO 13006KT 10SM CLR 17/06 A3011 RMK A01=||F||223|ICAO-KFCH
USW00023167|FRESNO CHANDLER DWTN AP|2022|03|02|17|55|36.7333|-119.8167|84.1|18.0||1|FM15-METAR|223|ICAO-KFCH|6.0||1|FM15-METAR|223|ICAO-KFCH|||||||||||||999|V-Variable|9|FM15-METAR|223|ICAO-KFCH|2.1|V-Variable|1|FM15-METAR|223|ICAO-KFCH|||||||||||||46|Derived||FM15-METAR|223|ICAO-KFCH|||||||||||||||||||||||||||||||||||||||||||||||||||||||||||||||||||||||||1019.6||1|FM15-METAR|223|ICAO-KFCH|||||||||||||||||||||||||||||||||||||||||||MET061METAR KFCH 021755Z AUTO VRB04KT 10SM CLR 18/06 A3011 RMK A01=||F||223|ICAO-KFCH
USW00023167|FRESNO CHANDLER DWTN AP|2022|03|02|18|15|36.7333|-119.8167|84.1|19.0||1|FM15-METAR|223|ICAO-KFCH|6.0||1|FM15-METAR|223|ICAO-KFCH|||||||||||||150|N-Normal|1|FM15-METAR|223|ICAO-KFCH|2.1|N-Normal|1|FM15-METAR|223|ICAO-KFCH|||||||||||||43|Derived||FM15-METAR|223|ICAO-KFCH|||||||||||||||||||||||||||||||||||||||||||||||||||||||||||||||||||||||||1019.6||1|FM15-METAR|223|ICAO-KFCH|||||||||||||||||||||||||||||||||||||||||||MET061METAR KFCH 021815Z AUTO 15004KT 10SM CLR 19/06 A3011 RMK A01=||F||223|ICAO-KFCH
USW00023167|FRESNO CHANDLER DWTN AP|2022|03|02|18|35|36.7333|-119.8167|84.1|19.0||1|FM15-METAR|223|ICAO-KFCH|6.0||1|FM15-METAR|223|ICAO-KFCH|||||||||||||999|C-Calm|9|FM15-METAR|223|ICAO-KFCH|0.0|C-Calm|1|FM15-METAR|223|ICAO-KFCH|||||||||||||43|Derived||FM15-METAR|223|ICAO-KFCH|||||||||||||||||||||||||||||||||||||||||||||||||||||||||||||||||||||||||1019.6||1|FM15-METAR|223|ICAO-KFCH|||||||||||||||||||||||||||||||||||||||||||MET061METAR KFCH 021835Z AUTO 00000KT 10SM CLR 19/06 A3011 RMK A01=||F||223|ICAO-KFCH
USW00023167|FRESNO CHANDLER DWTN AP|2022|03|02|18|55|36.7333|-119.8167|84.1|20.0||1|FM15-METAR|223|ICAO-KFCH|6.0||1|FM15-METAR|223|ICAO-KFCH|||||||||||||170|N-Normal|1|FM15-METAR|223|ICAO-KFCH|1.5|N-Normal|1|FM15-METAR|223|ICAO-KFCH|||||||||||||40|Derived||FM15-METAR|223|ICAO-KFCH|||||||||||||||||||||||||||||||||||||||||||||||||||||||||||||||||||||||||1019.3||1|FM15-METAR|223|ICAO-KFCH|||||||||||||||||||||||||||||||||||||||||||MET061METAR KFCH 021855Z AUTO 17003KT 10SM CLR 20/06 A3010 RMK A01=||F||223|ICAO-KFCH
USW00023167|FRESNO CHANDLER DWTN AP|2022|03|02|19|15|36.7333|-119.8167|84.1|21.0||1|FM15-METAR|223|ICAO-KFCH|6.0||1|FM15-METAR|223|ICAO-KFCH|||||||||||||999|V-Variable|9|FM15-METAR|223|ICAO-KFCH|2.1|V-Variable|1|FM15-METAR|223|ICAO-KFCH|||||||||||||38|Derived||FM15-METAR|223|ICAO-KFCH|||||||||||||||||||||||||||||||||||||||||||||||||||||||||||||||||||||||||1019.3||1|FM15-METAR|223|ICAO-KFCH|||||||||||||||||||||||||||||||||||||||||||MET061METAR KFCH 021915Z AUTO VRB04KT 10SM CLR 21/06 A3010 RMK A01=||F||223|ICAO-KFCH
USW00023167|FRESNO CHANDLER DWTN AP|2022|03|02|19|35|36.7333|-119.8167|84.1|21.0||1|FM15-METAR|223|ICAO-KFCH|6.0||1|FM15-METAR|223|ICAO-KFCH|||||||||||||999|C-Calm|9|FM15-METAR|223|ICAO-KFCH|0.0|C-Calm|1|FM15-METAR|223|ICAO-KFCH|||||||||||||38|Derived||FM15-METAR|223|ICAO-KFCH|||||||||||||||||||||||||||||||||||||||||||||||||||||||||||||||||||||||||1019.3||1|FM15-METAR|223|ICAO-KFCH|||||||||||||||||||||||||||||||||||||||||||MET061METAR KFCH 021935Z AUTO 00000KT 10SM CLR 21/06 A3010 RMK A01=||F||223|ICAO-KFCH
USW00023167|FRESNO CHANDLER DWTN AP|2022|03|02|19|55|36.7333|-119.8167|84.1|22.0||1|FM15-METAR|223|ICAO-KFCH|7.0||1|FM15-METAR|223|ICAO-KFCH|||||||||||||999|C-Calm|9|FM15-METAR|223|ICAO-KFCH|0.0|C-Calm|1|FM15-METAR|223|ICAO-KFCH|||||||||||||38|Derived||FM15-METAR|223|ICAO-KFCH|||||||||||||||||||||||||||||||||||||||||||||||||||||||||||||||||||||||||1019.0||1|FM15-METAR|223|ICAO-KFCH|||||||||||||||||||||||||||||||||||||||||||MET061METAR KFCH 021955Z AUTO 00000KT 10SM CLR 22/07 A3009 RMK A01=||F||223|ICAO-KFCH
USW00023167|FRESNO CHANDLER DWTN AP|2022|03|02|20|15|36.7333|-119.8167|84.1|22.0||1|FM15-METAR|223|ICAO-KFCH|7.0||1|FM15-METAR|223|ICAO-KFCH|||||||||||||999|C-Calm|9|FM15-METAR|223|ICAO-KFCH|0.0|C-Calm|1|FM15-METAR|223|ICAO-KFCH|||||||||||||38|Derived||FM15-METAR|223|ICAO-KFCH|||||||||||||||||||||||||||||||||||||||||||||||||||||||||||||||||||||||||1018.6||1|FM15-METAR|223|ICAO-KFCH|||||||||||||||||||||||||||||||||||||||||||MET061METAR KFCH 022015Z AUTO 00000KT 10SM CLR 22/07 A3008 RMK A01=||F||223|ICAO-KFCH
USW00023167|FRESNO CHANDLER DWTN AP|2022|03|02|20|35|36.7333|-119.8167|84.1|22.0||1|FM15-METAR|223|ICAO-KFCH|6.0||1|FM15-METAR|223|ICAO-KFCH|||||||||||||999|C-Calm|9|FM15-METAR|223|ICAO-KFCH|0.0|C-Calm|1|FM15-METAR|223|ICAO-KFCH|||||||||||||36|Derived||FM15-METAR|223|ICAO-KFCH|||||||||||||||||||||||||||||||||||||||||||||||||||||||||||||||||||||||||1017.9||1|FM15-METAR|223|ICAO-KFCH|||||||||||||||||||||||||||||||||||||||||||MET061METAR KFCH 022035Z AUTO 00000KT 10SM CLR 22/06 A3006 RMK A01=||F||223|ICAO-KFCH
USW00023167|FRESNO CHANDLER DWTN AP|2022|03|02|20|55|36.7333|-119.8167|84.1|23.0||1|FM15-METAR|223|ICAO-KFCH|6.0||1|FM15-METAR|223|ICAO-KFCH|||||||||||||090|N-Normal|1|FM15-METAR|223|ICAO-KFCH|2.1|N-Normal|1|FM15-METAR|223|ICAO-KFCH|||||||||||||33|Derived||FM15-METAR|223|ICAO-KFCH|||||||||||||||||||||||||||||||||||||||||||||||||||||||||||||||||||||||||1017.6||1|FM15-METAR|223|ICAO-KFCH|||||||||||||||||||||||||||||||||||||||||||MET061METAR KFCH 022055Z AUTO 09004KT 10SM CLR 23/06 A3005 RMK A01=||F||223|ICAO-KFCH
USW00023167|FRESNO CHANDLER DWTN AP|2022|03|02|21|15|36.7333|-119.8167|84.1|23.0||1|FM15-METAR|223|ICAO-KFCH|6.0||1|FM15-METAR|223|ICAO-KFCH|||||||||||||999|C-Calm|9|FM15-METAR|223|ICAO-KFCH|0.0|C-Calm|1|FM15-METAR|223|ICAO-KFCH|||||||||||||33|Derived||FM15-METAR|223|ICAO-KFCH|||||||||||||||||||||||||||||||||||||||||||||||||||||||||||||||||||||||||1016.9||1|FM15-METAR|223|ICAO-KFCH|||||||||||||||||||||||||||||||||||||||||||MET061METAR KFCH 022115Z AUTO 00000KT 10SM CLR 23/06 A3003 RMK A01=||F||223|ICAO-KFCH
USW00023167|FRESNO CHANDLER DWTN AP|2022|03|02|21|35|36.7333|-119.8167|84.1|24.0||1|FM15-METAR|223|ICAO-KFCH|6.0||1|FM15-METAR|223|ICAO-KFCH|||||||||||||999|C-Calm|9|FM15-METAR|223|ICAO-KFCH|0.0|C-Calm|1|FM15-METAR|223|ICAO-KFCH|||||||||||||31|Derived||FM15-METAR|223|ICAO-KFCH|||||||||||||||||||||||||||||||||||||||||||||||||||||||||||||||||||||||||1016.9||1|FM15-METAR|223|ICAO-KFCH|||||||||||||||||||||||||||||||||||||||||||MET061METAR KFCH 022135Z AUTO 00000KT 10SM CLR 24/06 A3003 RMK A01=||F||223|ICAO-KFCH
USW00023167|FRESNO CHANDLER DWTN AP|2022|03|02|21|55|36.7333|-119.8167|84.1|24.0||1|FM15-METAR|223|ICAO-KFCH|5.0||1|FM15-METAR|223|ICAO-KFCH|||||||||||||999|C-Calm|9|FM15-METAR|223|ICAO-KFCH|0.0|C-Calm|1|FM15-METAR|223|ICAO-KFCH|||||||||||||29|Derived||FM15-METAR|223|ICAO-KFCH|||||||||||||||||||||||||||||||||||||||||||||||||||||||||||||||||||||||||1016.6||1|FM15-METAR|223|ICAO-KFCH|||||||||||||||||||||||||||||||||||||||||||MET057METAR KFCH 022155Z AUTO 00000KT 10SM 24/05 A3002 RMK A01=||F||223|ICAO-KFCH
USW00023167|FRESNO CHANDLER DWTN AP|2022|03|02|22|15|36.7333|-119.8167|84.1|25.0||1|FM15-METAR|223|ICAO-KFCH|5.0||1|FM15-METAR|223|ICAO-KFCH|||||||||||||999|V-Variable|9|FM15-METAR|223|ICAO-KFCH|1.5|V-Variable|1|FM15-METAR|223|ICAO-KFCH|||||||||||||28|Derived||FM15-METAR|223|ICAO-KFCH|||||||||||||||||||||||||||||||||||||||||||||||||||||||||||||||||||||||||1016.3||1|FM15-METAR|223|ICAO-KFCH|||||||||||||||||||||||||||||||||||||||||||MET061METAR KFCH 022215Z AUTO VRB03KT 10SM CLR 25/05 A3001 RMK A01=||F||223|ICAO-KFCH
USW00023167|FRESNO CHANDLER DWTN AP|2022|03|02|22|35|36.7333|-119.8167|84.1|25.0||1|FM15-METAR|223|ICAO-KFCH|5.0||1|FM15-METAR|223|ICAO-KFCH|||||||||||||999|C-Calm|9|FM15-METAR|223|ICAO-KFCH|0.0|C-Calm|1|FM15-METAR|223|ICAO-KFCH|||||||||||||28|Derived||FM15-METAR|223|ICAO-KFCH|||||||||||||||||||||||||||||||||||||||||||||||||||||||||||||||||||||||||1015.9||1|FM15-METAR|223|ICAO-KFCH|||||||||||||||||||||||||||||||||||||||||||MET061METAR KFCH 022235Z AUTO 00000KT 10SM CLR 25/05 A3000 RMK A01=||F||223|ICAO-KFCH
USW00023167|FRESNO CHANDLER DWTN AP|2022|03|02|22|55|36.7333|-119.8167|84.1|25.0||1|FM15-METAR|223|ICAO-KFCH|5.0||1|FM15-METAR|223|ICAO-KFCH|||||||||||||999|C-Calm|9|FM15-METAR|223|ICAO-KFCH|0.0|C-Calm|1|FM15-METAR|223|ICAO-KFCH|||||||||||||28|Derived||FM15-METAR|223|ICAO-KFCH|||||||||||||||||||||||||||||||||||||||||||||||||||||||||||||||||||||||||1015.9||1|FM15-METAR|223|ICAO-KFCH|||||||||||||||||||||||||||||||||||||||||||MET061METAR KFCH 022255Z AUTO 00000KT 10SM CLR 25/05 A3000 RMK A01=||F||223|ICAO-KFCH
USW00023167|FRESNO CHANDLER DWTN AP|2022|03|02|23|15|36.7333|-119.8167|84.1|25.0||1|FM15-METAR|223|ICAO-KFCH|4.0||1|FM15-METAR|223|ICAO-KFCH|||||||||||||350|N-Normal|1|FM15-METAR|223|ICAO-KFCH|3.1|N-Normal|1|FM15-METAR|223|ICAO-KFCH|||||||||||||26|Derived||FM15-METAR|223|ICAO-KFCH|||||||||||||||||||||||||||||||||||||||||||||||||||||||||||||||||||||||||1015.6||1|FM15-METAR|223|ICAO-KFCH|||||||||||||||||||||||||||||||||||||||||||MET061METAR KFCH 022315Z AUTO 35006KT 10SM CLR 25/04 A2999 RMK A01=||F||223|ICAO-KFCH
USW00023167|FRESNO CHANDLER DWTN AP|2022|03|02|23|35|36.7333|-119.8167|84.1|25.0||1|FM15-METAR|223|ICAO-KFCH|5.0||1|FM15-METAR|223|ICAO-KFCH|||||||||||||290|N-Normal|1|FM15-METAR|223|ICAO-KFCH|2.6|N-Normal|1|FM15-METAR|223|ICAO-KFCH|||||||||||||28|Derived||FM15-METAR|223|ICAO-KFCH|||||||||||||||||||||||||||||||||||||||||||||||||||||||||||||||||||||||||1015.6||1|FM15-METAR|223|ICAO-KFCH|||||||||||||||||||||||||||||||||||||||||||MET061METAR KFCH 022335Z AUTO 29005KT 10SM CLR 25/05 A2999 RMK A01=||F||223|ICAO-KFCH
USW00023167|FRESNO CHANDLER DWTN AP|2022|03|02|23|55|36.7333|-119.8167|84.1|25.0||1|FM15-METAR|223|ICAO-KFCH|5.0||1|FM15-METAR|223|ICAO-KFCH|||||||||||||310|N-Normal|1|FM15-METAR|223|ICAO-KFCH|3.1|N-Normal|1|FM15-METAR|223|ICAO-KFCH|||||||||||||28|Derived||FM15-METAR|223|ICAO-KFCH|||||||||||||||||||||||||||||||||||||||||||||||||||||||||||||||||||||||||1015.2||1|FM15-METAR|223|ICAO-KFCH|||||||||||||||||||||||||||||||||||||||||||MET061METAR KFCH 022355Z AUTO 31006KT 10SM CLR 25/05 A2998 RMK A01=||F||223|ICAO-KFCH
USW00023167|FRESNO CHANDLER DWTN AP|2022|03|03|00|15|36.7333|-119.8167|84.1|25.0||1|FM15-METAR|223|ICAO-KFCH|5.0||1|FM15-METAR|223|ICAO-KFCH|||||||||||||310|N-Normal|1|FM15-METAR|223|ICAO-KFCH|3.1|N-Normal|1|FM15-METAR|223|ICAO-KFCH|||||||||||||28|Derived||FM15-METAR|223|ICAO-KFCH|||||||||||||||||||||||||||||||||||||||||||||||||||||||||||||||||||||||||1014.9||1|FM15-METAR|223|ICAO-KFCH|||||||||||||||||||||||||||||||||||||||||||MET061METAR KFCH 030015Z AUTO 31006KT 10SM CLR 25/05 A2997 RMK A01=||F||223|ICAO-KFCH
USW00023167|FRESNO CHANDLER DWTN AP|2022|03|03|00|35|36.7333|-119.8167|84.1|25.0||1|FM15-METAR|223|ICAO-KFCH|5.0||1|FM15-METAR|223|ICAO-KFCH|||||||||||||300|N-Normal|1|FM15-METAR|223|ICAO-KFCH|2.6|N-Normal|1|FM15-METAR|223|ICAO-KFCH|||||||||||||28|Derived||FM15-METAR|223|ICAO-KFCH|||||||||||||||||||||||||||||||||||||||||||||||||||||||||||||||||||||||||1014.9||1|FM15-METAR|223|ICAO-KFCH|||||||||||||||||||||||||||||||||||||||||||MET061METAR KFCH 030035Z AUTO 30005KT 10SM CLR 25/05 A2997 RMK A01=||F||223|ICAO-KFCH
USW00023167|FRESNO CHANDLER DWTN AP|2022|03|03|00|55|36.7333|-119.8167|84.1|25.0||1|FM15-METAR|223|ICAO-KFCH|4.0||1|FM15-METAR|223|ICAO-KFCH|||||||||||||320|N-Normal|1|FM15-METAR|223|ICAO-KFCH|3.6|N-Normal|1|FM15-METAR|223|ICAO-KFCH|||||||||||||26|Derived||FM15-METAR|223|ICAO-KFCH|||||||||||||||||||||||||||||||||||||||||||||||||||||||||||||||||||||||||1014.9||1|FM15-METAR|223|ICAO-KFCH|||||||||||||||||||||||||||||||||||||||||||MET061METAR KFCH 030055Z AUTO 32007KT 10SM CLR 25/04 A2997 RMK A01=||F||223|ICAO-KFCH
USW00023167|FRESNO CHANDLER DWTN AP|2022|03|03|01|15|36.7333|-119.8167|84.1|24.0||1|FM15-METAR|223|ICAO-KFCH|4.0||1|FM15-METAR|223|ICAO-KFCH|||||||||||||320|N-Normal|1|FM15-METAR|223|ICAO-KFCH|2.1|N-Normal|1|FM15-METAR|223|ICAO-KFCH|||||||||||||27|Derived||FM15-METAR|223|ICAO-KFCH|||||||||||||||||||||||||||||||||||||||||||||||||||||||||||||||||||||||||1014.9||1|FM15-METAR|223|ICAO-KFCH|||||||||||||||||||||||||||||||||||||||||||MET061METAR KFCH 030115Z AUTO 32004KT 10SM CLR 24/04 A2997 RMK A01=||F||223|ICAO-KFCH
USW00023167|FRESNO CHANDLER DWTN AP|2022|03|03|01|35|36.7333|-119.8167|84.1|24.0||1|FM15-METAR|223|ICAO-KFCH|4.0||1|FM15-METAR|223|ICAO-KFCH|||||||||||||310|N-Normal|1|FM15-METAR|223|ICAO-KFCH|2.1|N-Normal|1|FM15-METAR|223|ICAO-KFCH|||||||||||||27|Derived||FM15-METAR|223|ICAO-KFCH|||||||||||||||||||||||||||||||||||||||||||||||||||||||||||||||||||||||||1014.9||1|FM15-METAR|223|ICAO-KFCH|||||||||||||||||||||||||||||||||||||||||||MET061METAR KFCH 030135Z AUTO 31004KT 10SM CLR 24/04 A2997 RMK A01=||F||223|ICAO-KFCH
USW00023167|FRESNO CHANDLER DWTN AP|2022|03|03|01|55|36.7333|-119.8167|84.1|23.0||1|FM15-METAR|223|ICAO-KFCH|4.0||1|FM15-METAR|223|ICAO-KFCH|||||||||||||320|N-Normal|1|FM15-METAR|223|ICAO-KFCH|2.1|N-Normal|1|FM15-METAR|223|ICAO-KFCH|||||||||||||29|Derived||FM15-METAR|223|ICAO-KFCH|||||||||||||||||||||||||||||||||||||||||||||||||||||||||||||||||||||||||1014.9||1|FM15-METAR|223|ICAO-KFCH|||||||||||||||||||||||||||||||||||||||||||MET061METAR KFCH 030155Z AUTO 32004KT 10SM CLR 23/04 A2997 RMK A01=||F||223|ICAO-KFCH
USW00023167|FRESNO CHANDLER DWTN AP|2022|03|03|02|15|36.7333|-119.8167|84.1|23.0||1|FM15-METAR|223|ICAO-KFCH|5.0||1|FM15-METAR|223|ICAO-KFCH|||||||||||||340|N-Normal|1|FM15-METAR|223|ICAO-KFCH|2.1|N-Normal|1|FM15-METAR|223|ICAO-KFCH|||||||||||||31|Derived||FM15-METAR|223|ICAO-KFCH|||||||||||||||||||||||||||||||||||||||||||||||||||||||||||||||||||||||||1014.9||1|FM15-METAR|223|ICAO-KFCH|||||||||||||||||||||||||||||||||||||||||||MET061METAR KFCH 030215Z AUTO 34004KT 10SM CLR 23/05 A2997 RMK A01=||F||223|ICAO-KFCH
USW00023167|FRESNO CHANDLER DWTN AP|2022|03|03|02|35|36.7333|-119.8167|84.1|22.0||1|FM15-METAR|223|ICAO-KFCH|5.0||1|FM15-METAR|223|ICAO-KFCH|||||||||||||350|N-Normal|1|FM15-METAR|223|ICAO-KFCH|1.5|N-Normal|1|FM15-METAR|223|ICAO-KFCH|||||||||||||33|Derived||FM15-METAR|223|ICAO-KFCH|||||||||||||||||||||||||||||||||||||||||||||||||||||||||||||||||||||||||1014.9||1|FM15-METAR|223|ICAO-KFCH|||||||||||||||||||||||||||||||||||||||||||MET061METAR KFCH 030235Z AUTO 35003KT 10SM CLR 22/05 A2997 RMK A01=||F||223|ICAO-KFCH
USW00023167|FRESNO CHANDLER DWTN AP|2022|03|03|02|55|36.7333|-119.8167|84.1|21.0||1|FM15-METAR|223|ICAO-KFCH|5.0||1|FM15-METAR|223|ICAO-KFCH|||||||||||||999|C-Calm|9|FM15-METAR|223|ICAO-KFCH|0.0|C-Calm|1|FM15-METAR|223|ICAO-KFCH|||||||||||||35|Derived||FM15-METAR|223|ICAO-KFCH|||||||||||||||||||||||||||||||||||||||||||||||||||||||||||||||||||||||||1014.9||1|FM15-METAR|223|ICAO-KFCH|||||||||||||||||||||||||||||||||||||||||||MET061METAR KFCH 030255Z AUTO 00000KT 10SM CLR 21/05 A2997 RMK A01=||F||223|ICAO-KFCH
USW00023167|FRESNO CHANDLER DWTN AP|2022|03|03|03|15|36.7333|-119.8167|84.1|20.0||1|FM15-METAR|223|ICAO-KFCH|6.0||1|FM15-METAR|223|ICAO-KFCH|||||||||||||999|C-Calm|9|FM15-METAR|223|ICAO-KFCH|0.0|C-Calm|1|FM15-METAR|223|ICAO-KFCH|||||||||||||40|Derived||FM15-METAR|223|ICAO-KFCH|||||||||||||||||||||||||||||||||||||||||||||||||||||||||||||||||||||||||1014.9||1|FM15-METAR|223|ICAO-KFCH|||||||||||||||||||||||||||||||||||||||||||MET061METAR KFCH 030315Z AUTO 00000KT 10SM CLR 20/06 A2997 RMK A01=||F||223|ICAO-KFCH
USW00023167|FRESNO CHANDLER DWTN AP|2022|03|03|03|35|36.7333|-119.8167|84.1|19.0||1|FM15-METAR|223|ICAO-KFCH|6.0||1|FM15-METAR|223|ICAO-KFCH|||||||||||||999|C-Calm|9|FM15-METAR|223|ICAO-KFCH|0.0|C-Calm|1|FM15-METAR|223|ICAO-KFCH|||||||||||||43|Derived||FM15-METAR|223|ICAO-KFCH|||||||||||||||||||||||||||||||||||||||||||||||||||||||||||||||||||||||||1014.9||1|FM15-METAR|223|ICAO-KFCH|||||||||||||||||||||||||||||||||||||||||||MET061METAR KFCH 030335Z AUTO 00000KT 10SM CLR 19/06 A2997 RMK A01=||F||223|ICAO-KFCH
USW00023167|FRESNO CHANDLER DWTN AP|2022|03|03|03|55|36.7333|-119.8167|84.1|18.0||1|FM15-METAR|223|ICAO-KFCH|7.0||1|FM15-METAR|223|ICAO-KFCH|||||||||||||999|C-Calm|9|FM15-METAR|223|ICAO-KFCH|0.0|C-Calm|1|FM15-METAR|223|ICAO-KFCH|||||||||||||49|Derived||FM15-METAR|223|ICAO-KFCH|||||||||||||||||||||||||||||||||||||||||||||||||||||||||||||||||||||||||1014.9||1|FM15-METAR|223|ICAO-KFCH|||||||||||||||||||||||||||||||||||||||||||MET061METAR KFCH 030355Z AUTO 00000KT 10SM CLR 18/07 A2997 RMK A01=||F||223|ICAO-KFCH
USW00023167|FRESNO CHANDLER DWTN AP|2022|03|03|04|15|36.7333|-119.8167|84.1|18.0||1|FM15-METAR|223|ICAO-KFCH|7.0||1|FM15-METAR|223|ICAO-KFCH|||||||||||||999|C-Calm|9|FM15-METAR|223|ICAO-KFCH|0.0|C-Calm|1|FM15-METAR|223|ICAO-KFCH|||||||||||||49|Derived||FM15-METAR|223|ICAO-KFCH|||||||||||||||||||||||||||||||||||||||||||||||||||||||||||||||||||||||||1014.9||1|FM15-METAR|223|ICAO-KFCH|||||||||||||||||||||||||||||||||||||||||||MET061METAR KFCH 030415Z AUTO 00000KT 10SM CLR 18/07 A2997 RMK A01=||F||223|ICAO-KFCH
USW00023167|FRESNO CHANDLER DWTN AP|2022|03|03|04|35|36.7333|-119.8167|84.1|16.0||1|FM15-METAR|223|ICAO-KFCH|7.0||1|FM15-METAR|223|ICAO-KFCH|||||||||||||999|C-Calm|9|FM15-METAR|223|ICAO-KFCH|0.0|C-Calm|1|FM15-METAR|223|ICAO-KFCH|||||||||||||55|Derived||FM15-METAR|223|ICAO-KFCH|||||||||||||||||||||||||||||||||||||||||||||||||||||||||||||||||||||||||1014.9||1|FM15-METAR|223|ICAO-KFCH|||||||||||||||||||||||||||||||||||||||||||MET061METAR KFCH 030435Z AUTO 00000KT 10SM CLR 16/07 A2997 RMK A01=||F||223|ICAO-KFCH
USW00023167|FRESNO CHANDLER DWTN AP|2022|03|03|04|55|36.7333|-119.8167|84.1|16.0||1|FM15-METAR|223|ICAO-KFCH|7.0||1|FM15-METAR|223|ICAO-KFCH|||||||||||||999|C-Calm|9|FM15-METAR|223|ICAO-KFCH|0.0|C-Calm|1|FM15-METAR|223|ICAO-KFCH|||||||||||||55|Derived||FM15-METAR|223|ICAO-KFCH|||||||||||||||||||||||||||||||||||||||||||||||||||||||||||||||||||||||||1015.2||1|FM15-METAR|223|ICAO-KFCH|||||||||||||||||||||||||||||||||||||||||||MET061METAR KFCH 030455Z AUTO 00000KT 10SM CLR 16/07 A2998 RMK A01=||F||223|ICAO-KFCH
USW00023167|FRESNO CHANDLER DWTN AP|2022|03|03|05|15|36.7333|-119.8167|84.1|16.0||1|FM15-METAR|223|ICAO-KFCH|7.0||1|FM15-METAR|223|ICAO-KFCH|||||||||||||999|C-Calm|9|FM15-METAR|223|ICAO-KFCH|0.0|C-Calm|1|FM15-METAR|223|ICAO-KFCH|||||||||||||55|Derived||FM15-METAR|223|ICAO-KFCH|||||||||||||||||||||||||||||||||||||||||||||||||||||||||||||||||||||||||1015.2||1|FM15-METAR|223|ICAO-KFCH|||||||||||||||||||||||||||||||||||||||||||MET061METAR KFCH 030515Z AUTO 00000KT 10SM CLR 16/07 A2998 RMK A01=||F||223|ICAO-KFCH
USW00023167|FRESNO CHANDLER DWTN AP|2022|03|03|05|35|36.7333|-119.8167|84.1|16.0||1|FM15-METAR|223|ICAO-KFCH|7.0||1|FM15-METAR|223|ICAO-KFCH|||||||||||||999|C-Calm|9|FM15-METAR|223|ICAO-KFCH|0.0|C-Calm|1|FM15-METAR|223|ICAO-KFCH|||||||||||||55|Derived||FM15-METAR|223|ICAO-KFCH|||||||||||||||||||||||||||||||||||||||||||||||||||||||||||||||||||||||||1015.2||1|FM15-METAR|223|ICAO-KFCH|||||||||||||||||||||||||||||||||||||||||||MET061METAR KFCH 030535Z AUTO 00000KT 10SM CLR 16/07 A2998 RMK A01=||F||223|ICAO-KFCH
USW00023167|FRESNO CHANDLER DWTN AP|2022|03|03|05|55|36.7333|-119.8167|84.1|15.0||1|FM15-METAR|223|ICAO-KFCH|8.0||1|FM15-METAR|223|ICAO-KFCH|||||||||||||999|C-Calm|9|FM15-METAR|223|ICAO-KFCH|0.0|C-Calm|1|FM15-METAR|223|ICAO-KFCH|||||||||||||63|Derived||FM15-METAR|223|ICAO-KFCH|||||||||||||||||||||||||||||||||||||||||||||||||||||||||||||||||||||||||1015.2||1|FM15-METAR|223|ICAO-KFCH|||||||||||||||||||||||||||||||||||||||||||MET061METAR KFCH 030555Z AUTO 00000KT 10SM CLR 15/08 A2998 RMK A01=||F||223|ICAO-KFCH
USW00023167|FRESNO CHANDLER DWTN AP|2022|03|03|06|15|36.7333|-119.8167|84.1|15.0||1|FM15-METAR|223|ICAO-KFCH|7.0||1|FM15-METAR|223|ICAO-KFCH|||||||||||||999|C-Calm|9|FM15-METAR|223|ICAO-KFCH|0.0|C-Calm|1|FM15-METAR|223|ICAO-KFCH|||||||||||||59|Derived||FM15-METAR|223|ICAO-KFCH|||||||||||||||||||||||||||||||||||||||||||||||||||||||||||||||||||||||||1015.2||1|FM15-METAR|223|ICAO-KFCH|||||||||||||||||||||||||||||||||||||||||||MET061METAR KFCH 030615Z AUTO 00000KT 10SM CLR 15/07 A2998 RMK A01=||F||223|ICAO-KFCH
USW00023167|FRESNO CHANDLER DWTN AP|2022|03|03|06|35|36.7333|-119.8167|84.1|16.0||1|FM15-METAR|223|ICAO-KFCH|7.0||1|FM15-METAR|223|ICAO-KFCH|||||||||||||999|C-Calm|9|FM15-METAR|223|ICAO-KFCH|0.0|C-Calm|1|FM15-METAR|223|ICAO-KFCH|||||||||||||55|Derived||FM15-METAR|223|ICAO-KFCH|||||||||||||||||||||||||||||||||||||||||||||||||||||||||||||||||||||||||1015.2||1|FM15-METAR|223|ICAO-KFCH|||||||||||||||||||||||||||||||||||||||||||MET061METAR KFCH 030635Z AUTO 00000KT 10SM CLR 16/07 A2998 RMK A01=||F||223|ICAO-KFCH
USW00023167|FRESNO CHANDLER DWTN AP|2022|03|03|06|55|36.7333|-119.8167|84.1|14.0||1|FM15-METAR|223|ICAO-KFCH|8.0||1|FM15-METAR|223|ICAO-KFCH|||||||||||||230|N-Normal|1|FM15-METAR|223|ICAO-KFCH|1.5|N-Normal|1|FM15-METAR|223|ICAO-KFCH|||||||||||||67|Derived||FM15-METAR|223|ICAO-KFCH|||||||||||||||||||||||||||||||||||||||||||||||||||||||||||||||||||||||||1015.2||1|FM15-METAR|223|ICAO-KFCH|||||||||||||||||||||||||||||||||||||||||||MET057METAR KFCH 030655Z AUTO 23003KT 10SM 14/08 A2998 RMK A01=||F||223|ICAO-KFCH
USW00023167|FRESNO CHANDLER DWTN AP|2022|03|03|07|15|36.7333|-119.8167|84.1|||||||||||||||||||||||||||||||||||||||||||||||||||||||||||||||||||||||||||||||||||||||||||||||||||||||||||||||||||||||||||||||1015.2||1|FM15-METAR|223|ICAO-KFCH|||||||||||||||||||||||||||||||||||||||||||MET038METAR KFCH 030715Z AUTO A2998 RMK A01=||F||223|ICAO-KFCH
USW00023167|FRESNO CHANDLER DWTN AP|2022|03|03|07|35|36.7333|-119.8167|84.1|12.0||1|FM15-METAR|223|ICAO-KFCH|8.0||1|FM15-METAR|223|ICAO-KFCH|||||||||||||999|C-Calm|9|FM15-METAR|223|ICAO-KFCH|0.0|C-Calm|1|FM15-METAR|223|ICAO-KFCH|||||||||||||77|Derived||FM15-METAR|223|ICAO-KFCH|||||||||||||||||||||||||||||||||||||||||||||||||||||||||||||||||||||||||1015.2||1|FM15-METAR|223|ICAO-KFCH|||||||||||||||||||||||||||||||||||||||||||MET057METAR KFCH 030735Z AUTO 00000KT 10SM 12/08 A2998 RMK A01=||F||223|ICAO-KFCH
USW00023167|FRESNO CHANDLER DWTN AP|2022|03|03|07|55|36.7333|-119.8167|84.1|12.0||1|FM15-METAR|223|ICAO-KFCH|8.0||1|FM15-METAR|223|ICAO-KFCH|||||||||||||999|C-Calm|9|FM15-METAR|223|ICAO-KFCH|0.0|C-Calm|1|FM15-METAR|223|ICAO-KFCH|||||||||||||77|Derived||FM15-METAR|223|ICAO-KFCH|||||||||||||||||||||||||||||||||||||||||||||||||||||||||||||||||||||||||1015.2||1|FM15-METAR|223|ICAO-KFCH|||||||||||||||||||||||||||||||||||||||||||MET061METAR KFCH 030755Z AUTO 00000KT 10SM CLR 12/08 A2998 RMK A01=||F||223|ICAO-KFCH
USW00023167|FRESNO CHANDLER DWTN AP|2022|03|03|08|15|36.7333|-119.8167|84.1|12.0||1|FM15-METAR|223|ICAO-KFCH|8.0||1|FM15-METAR|223|ICAO-KFCH|||||||||||||999|C-Calm|9|FM15-METAR|223|ICAO-KFCH|0.0|C-Calm|1|FM15-METAR|223|ICAO-KFCH|||||||||||||77|Derived||FM15-METAR|223|ICAO-KFCH|||||||||||||||||||||||||||||||||||||||||||||||||||||||||||||||||||||||||1014.9||1|FM15-METAR|223|ICAO-KFCH|||||||||||||||||||||||||||||||||||||||||||MET061METAR KFCH 030815Z AUTO 00000KT 10SM CLR 12/08 A2997 RMK A01=||F||223|ICAO-KFCH
USW00023167|FRESNO CHANDLER DWTN AP|2022|03|03|08|35|36.7333|-119.8167|84.1|12.0||1|FM15-METAR|223|ICAO-KFCH|8.0||1|FM15-METAR|223|ICAO-KFCH|||||||||||||999|C-Calm|9|FM15-METAR|223|ICAO-KFCH|0.0|C-Calm|1|FM15-METAR|223|ICAO-KFCH|||||||||||||77|Derived||FM15-METAR|223|ICAO-KFCH|||||||||||||||||||||||||||||||||||||||||||||||||||||||||||||||||||||||||1014.9||1|FM15-METAR|223|ICAO-KFCH|||||||||||||||||||||||||||||||||||||||||||MET061METAR KFCH 030835Z AUTO 00000KT 10SM CLR 12/08 A2997 RMK A01=||F||223|ICAO-KFCH
USW00023167|FRESNO CHANDLER DWTN AP|2022|03|03|08|55|36.7333|-119.8167|84.1|12.0||1|FM15-METAR|223|ICAO-KFCH|8.0||1|FM15-METAR|223|ICAO-KFCH|||||||||||||999|C-Calm|9|FM15-METAR|223|ICAO-KFCH|0.0|C-Calm|1|FM15-METAR|223|ICAO-KFCH|||||||||||||77|Derived||FM15-METAR|223|ICAO-KFCH|||||||||||||||||||||||||||||||||||||||||||||||||||||||||||||||||||||||||1014.9||1|FM15-METAR|223|ICAO-KFCH|||||||||||||||||||||||||||||||||||||||||||MET061METAR KFCH 030855Z AUTO 00000KT 10SM CLR 12/08 A2997 RMK A01=||F||223|ICAO-KFCH
USW00023167|FRESNO CHANDLER DWTN AP|2022|03|03|09|15|36.7333|-119.8167|84.1|12.0||1|FM15-METAR|223|ICAO-KFCH|8.0||1|FM15-METAR|223|ICAO-KFCH|||||||||||||999|C-Calm|9|FM15-METAR|223|ICAO-KFCH|0.0|C-Calm|1|FM15-METAR|223|ICAO-KFCH|||||||||||||77|Derived||FM15-METAR|223|ICAO-KFCH|||||||||||||||||||||||||||||||||||||||||||||||||||||||||||||||||||||||||1014.6||1|FM15-METAR|223|ICAO-KFCH|||||||||||||||||||||||||||||||||||||||||||MET061METAR KFCH 030915Z AUTO 00000KT 10SM CLR 12/08 A2996 RMK A01=||F||223|ICAO-KFCH
USW00023167|FRESNO CHANDLER DWTN AP|2022|03|03|09|35|36.7333|-119.8167|84.1|12.0||1|FM15-METAR|223|ICAO-KFCH|8.0||1|FM15-METAR|223|ICAO-KFCH|||||||||||||290|N-Normal|1|FM15-METAR|223|ICAO-KFCH|2.1|N-Normal|1|FM15-METAR|223|ICAO-KFCH|||||||||||||77|Derived||FM15-METAR|223|ICAO-KFCH|||||||||||||||||||||||||||||||||||||||||||||||||||||||||||||||||||||||||1014.2||1|FM15-METAR|223|ICAO-KFCH|||||||||||||||||||||||||||||||||||||||||||MET061METAR KFCH 030935Z AUTO 29004KT 10SM CLR 12/08 A2995 RMK A01=||F||223|ICAO-KFCH
USW00023167|FRESNO CHANDLER DWTN AP|2022|03|03|09|55|36.7333|-119.8167|84.1|11.0||1|FM15-METAR|223|ICAO-KFCH|8.0||1|FM15-METAR|223|ICAO-KFCH|||||||||||||999|C-Calm|9|FM15-METAR|223|ICAO-KFCH|0.0|C-Calm|1|FM15-METAR|223|ICAO-KFCH|||||||||||||82|Derived||FM15-METAR|223|ICAO-KFCH|||||||||||||||||||||||||||||||||||||||||||||||||||||||||||||||||||||||||1014.2||1|FM15-METAR|223|ICAO-KFCH|||||||||||||||||||||||||||||||||||||||||||MET061METAR KFCH 030955Z AUTO 00000KT 10SM CLR 11/08 A2995 RMK A01=||F||223|ICAO-KFCH
USW00023167|FRESNO CHANDLER DWTN AP|2022|03|03|10|15|36.7333|-119.8167|84.1|11.0||1|FM15-METAR|223|ICAO-KFCH|8.0||1|FM15-METAR|223|ICAO-KFCH|||||||||||||280|N-Normal|1|FM15-METAR|223|ICAO-KFCH|2.6|N-Normal|1|FM15-METAR|223|ICAO-KFCH|||||||||||||82|Derived||FM15-METAR|223|ICAO-KFCH|||||||||||||||||||||||||||||||||||||||||||||||||||||||||||||||||||||||||1013.9||1|FM15-METAR|223|ICAO-KFCH|||||||||||||||||||||||||||||||||||||||||||MET064METAR KFCH 031015Z AUTO 28005KT 10SM FEW035 11/08 A2994 RMK A01=||F||223|ICAO-KFCH
USW00023167|FRESNO CHANDLER DWTN AP|2022|03|03|10|35|36.7333|-119.8167|84.1|10.0||1|FM15-METAR|223|ICAO-KFCH|8.0||1|FM15-METAR|223|ICAO-KFCH|||||||||||||290|N-Normal|1|FM15-METAR|223|ICAO-KFCH|1.5|N-Normal|1|FM15-METAR|223|ICAO-KFCH|||||||||||||88|Derived||FM15-METAR|223|ICAO-KFCH|||||||||||||||||||||||||||||||||||||||||||||||||||||||||||||||||||||||||1013.9||1|FM15-METAR|223|ICAO-KFCH|||||||||||||||||||||||||||||||||||||||||||MET064METAR KFCH 031035Z AUTO 29003KT 10SM FEW037 10/08 A2994 RMK A01=||F||223|ICAO-KFCH
USW00023167|FRESNO CHANDLER DWTN AP|2022|03|03|10|55|36.7333|-119.8167|84.1|10.0||1|FM15-METAR|223|ICAO-KFCH|7.0||1|FM15-METAR|223|ICAO-KFCH|||||||||||||999|C-Calm|9|FM15-METAR|223|ICAO-KFCH|0.0|C-Calm|1|FM15-METAR|223|ICAO-KFCH|||||||||||||82|Derived||FM15-METAR|223|ICAO-KFCH|||||||||||||||||||||||||||||||||||||||||||||||||||||||||||||||||||||||||1013.5||1|FM15-METAR|223|ICAO-KFCH|||||||||||||||||||||||||||||||||||||||||||MET061METAR KFCH 031055Z AUTO 00000KT 10SM CLR 10/07 A2993 RMK A01=||F||223|ICAO-KFCH
USW00023167|FRESNO CHANDLER DWTN AP|2022|03|03|11|15|36.7333|-119.8167|84.1|10.0||1|FM15-METAR|223|ICAO-KFCH|8.0||1|FM15-METAR|223|ICAO-KFCH|||||||||||||300|N-Normal|1|FM15-METAR|223|ICAO-KFCH|2.1|N-Normal|1|FM15-METAR|223|ICAO-KFCH|||||||||||||88|Derived||FM15-METAR|223|ICAO-KFCH|||||||||||||||||||||||||||||||||||||||||||||||||||||||||||||||||||||||||1013.2||1|FM15-METAR|223|ICAO-KFCH|||||||||||||||||||||||||||||||||||||||||||MET057METAR KFCH 031115Z AUTO 30004KT 10SM 10/08 A2992 RMK A01=||F||223|ICAO-KFCH
USW00023167|FRESNO CHANDLER DWTN AP|2022|03|03|11|35|36.7333|-119.8167|84.1|10.0||1|FM15-METAR|223|ICAO-KFCH|7.0||1|FM15-METAR|223|ICAO-KFCH|||||||||||||290|N-Normal|1|FM15-METAR|223|ICAO-KFCH|1.5|N-Normal|1|FM15-METAR|223|ICAO-KFCH|||||||||||||82|Derived||FM15-METAR|223|ICAO-KFCH|||||||||||||||||||||||||||||||||||||||||||||||||||||||||||||||||||||||||1013.2||1|FM15-METAR|223|ICAO-KFCH|||||||||||||||||||||||||||||||||||||||||||MET061METAR KFCH 031135Z AUTO 29003KT 10SM CLR 10/07 A2992 RMK A01=||F||223|ICAO-KFCH
USW00023167|FRESNO CHANDLER DWTN AP|2022|03|03|11|55|36.7333|-119.8167|84.1|9.0||1|FM15-METAR|223|ICAO-KFCH|7.0||1|FM15-METAR|223|ICAO-KFCH|||||||||||||999|C-Calm|9|FM15-METAR|223|ICAO-KFCH|0.0|C-Calm|1|FM15-METAR|223|ICAO-KFCH|||||||||||||87|Derived||FM15-METAR|223|ICAO-KFCH|||||||||||||||||||||||||||||||||||||||||||||||||||||||||||||||||||||||||1013.2||1|FM15-METAR|223|ICAO-KFCH|||||||||||||||||||||||||||||||||||||||||||MET061METAR KFCH 031155Z AUTO 00000KT 10SM CLR 09/07 A2992 RMK A01=||F||223|ICAO-KFCH
USW00023167|FRESNO CHANDLER DWTN AP|2022|03|03|12|15|36.7333|-119.8167|84.1|10.0||1|FM15-METAR|223|ICAO-KFCH|7.0||1|FM15-METAR|223|ICAO-KFCH|||||||||||||300|N-Normal|1|FM15-METAR|223|ICAO-KFCH|1.5|N-Normal|1|FM15-METAR|223|ICAO-KFCH|||||||||||||82|Derived||FM15-METAR|223|ICAO-KFCH|||||||||||||||||||||||||||||||||||||||||||||||||||||||||||||||||||||||||1013.2||1|FM15-METAR|223|ICAO-KFCH|||||||||||||||||||||||||||||||||||||||||||MET064METAR KFCH 031215Z AUTO 30003KT 10SM SCT037 10/07 A2992 RMK A01=||F||223|ICAO-KFCH
USW00023167|FRESNO CHANDLER DWTN AP|2022|03|03|12|35|36.7333|-119.8167|84.1|10.0||1|FM15-METAR|223|ICAO-KFCH|7.0||1|FM15-METAR|223|ICAO-KFCH|||||||||||||320|N-Normal|1|FM15-METAR|223|ICAO-KFCH|1.5|N-Normal|1|FM15-METAR|223|ICAO-KFCH|||||||||||||82|Derived||FM15-METAR|223|ICAO-KFCH|||||||||||||||||||||||||||||||||||||||||||||||||||||||||||||||||||||||||1013.2||1|FM15-METAR|223|ICAO-KFCH|||||||||||||||||||||||||||||||||||||||||||MET064METAR KFCH 031235Z AUTO 32003KT 10SM BKN037 10/07 A2992 RMK A01=||F||223|ICAO-KFCH
USW00023167|FRESNO CHANDLER DWTN AP|2022|03|03|12|55|36.7333|-119.8167|84.1|10.0||1|FM15-METAR|223|ICAO-KFCH|7.0||1|FM15-METAR|223|ICAO-KFCH|||||||||||||300|N-Normal|1|FM15-METAR|223|ICAO-KFCH|2.1|N-Normal|1|FM15-METAR|223|ICAO-KFCH|||||||||||||82|Derived||FM15-METAR|223|ICAO-KFCH|||||||||||||||||||||||||||||||||||||||||||||||||||||||||||||||||||||||||1012.9||1|FM15-METAR|223|ICAO-KFCH|||||||||||||||||||||||||||||||||||||||||||MET064METAR KFCH 031255Z AUTO 30004KT 10SM FEW035 10/07 A2991 RMK A01=||F||223|ICAO-KFCH
USW00023167|FRESNO CHANDLER DWTN AP|2022|03|03|13|15|36.7333|-119.8167|84.1|10.0||1|FM15-METAR|223|ICAO-KFCH|7.0||1|FM15-METAR|223|ICAO-KFCH|||||||||||||310|N-Normal|1|FM15-METAR|223|ICAO-KFCH|1.5|N-Normal|1|FM15-METAR|223|ICAO-KFCH|||||||||||||82|Derived||FM15-METAR|223|ICAO-KFCH|||||||||||||||||||||||||||||||||||||||||||||||||||||||||||||||||||||||||1012.9||1|FM15-METAR|223|ICAO-KFCH|||||||||||||||||||||||||||||||||||||||||||MET057METAR KFCH 031315Z AUTO 31003KT 10SM 10/07 A2991 RMK A01=||F||223|ICAO-KFCH
USW00023167|FRESNO CHANDLER DWTN AP|2022|03|03|13|35|36.7333|-119.8167|84.1|9.0||1|FM15-METAR|223|ICAO-KFCH|7.0||1|FM15-METAR|223|ICAO-KFCH|||||||||||||999|C-Calm|9|FM15-METAR|223|ICAO-KFCH|0.0|C-Calm|1|FM15-METAR|223|ICAO-KFCH|||||||||||||87|Derived||FM15-METAR|223|ICAO-KFCH|||||||||||||||||||||||||||||||||||||||||||||||||||||||||||||||||||||||||1012.9||1|FM15-METAR|223|ICAO-KFCH|||||||||||||||||||||||||||||||||||||||||||MET064METAR KFCH 031335Z AUTO 00000KT 10SM SCT037 09/07 A2991 RMK A01=||F||223|ICAO-KFCH
USW00023167|FRESNO CHANDLER DWTN AP|2022|03|03|13|55|36.7333|-119.8167|84.1|9.0||1|FM15-METAR|223|ICAO-KFCH|6.0||1|FM15-METAR|223|ICAO-KFCH|||||||||||||999|C-Calm|9|FM15-METAR|223|ICAO-KFCH|0.0|C-Calm|1|FM15-METAR|223|ICAO-KFCH|||||||||||||82|Derived||FM15-METAR|223|ICAO-KFCH|||||||||||||||||||||||||||||||||||||||||||||||||||||||||||||||||||||||||1012.9||1|FM15-METAR|223|ICAO-KFCH|||||||||||||||||||||||||||||||||||||||||||MET071METAR KFCH 031355Z AUTO 00000KT 10SM SCT030 BKN038 09/06 A2991 RMK A01=||F||223|ICAO-KFCH
USW00023167|FRESNO CHANDLER DWTN AP|2022|03|03|14|15|36.7333|-119.8167|84.1|10.0||1|FM15-METAR|223|ICAO-KFCH|7.0||1|FM15-METAR|223|ICAO-KFCH|||||||||||||999|C-Calm|9|FM15-METAR|223|ICAO-KFCH|0.0|C-Calm|1|FM15-METAR|223|ICAO-KFCH|||||||||||||82|Derived||FM15-METAR|223|ICAO-KFCH|||||||||||||||||||||||||||||||||||||||||||||||||||||||||||||||||||||||||1012.5||1|FM15-METAR|223|ICAO-KFCH|||||||||||||||||||||||||||||||||||||||||||MET071METAR KFCH 031415Z AUTO 00000KT 10SM SCT029 BKN037 10/07 A2990 RMK A01=||F||223|ICAO-KFCH
USW00023167|FRESNO CHANDLER DWTN AP|2022|03|03|14|35|36.7333|-119.8167|84.1|9.0||1|FM15-METAR|223|ICAO-KFCH|6.0||1|FM15-METAR|223|ICAO-KFCH|||||||||||||999|C-Calm|9|FM15-METAR|223|ICAO-KFCH|0.0|C-Calm|1|FM15-METAR|223|ICAO-KFCH|||||||||||||82|Derived||FM15-METAR|223|ICAO-KFCH|||||||||||||||||||||||||||||||||||||||||||||||||||||||||||||||||||||||||1012.5||1|FM15-METAR|223|ICAO-KFCH|||||||||||||||||||||||||||||||||||||||||||MET064METAR KFCH 031435Z AUTO 00000KT 10SM FEW037 09/06 A2990 RMK A01=||F||223|ICAO-KFCH
USW00023167|FRESNO CHANDLER DWTN AP|2022|03|03|14|55|36.7333|-119.8167|84.1|9.0||1|FM15-METAR|223|ICAO-KFCH|7.0||1|FM15-METAR|223|ICAO-KFCH|||||||||||||280|N-Normal|1|FM15-METAR|223|ICAO-KFCH|2.6|N-Normal|1|FM15-METAR|223|ICAO-KFCH|||||||||||||87|Derived||FM15-METAR|223|ICAO-KFCH|||||||||||||||||||||||||||||||||||||||||||||||||||||||||||||||||||||||||1012.5||1|FM15-METAR|223|ICAO-KFCH|||||||||||||||||||||||||||||||||||||||||||MET061METAR KFCH 031455Z AUTO 28005KT 10SM CLR 09/07 A2990 RMK A01=||F||223|ICAO-KFCH
USW00023167|FRESNO CHANDLER DWTN AP|2022|03|03|15|15|36.7333|-119.8167|84.1|10.0||1|FM15-METAR|223|ICAO-KFCH|7.0||1|FM15-METAR|223|ICAO-KFCH|||||||||||||270|N-Normal|1|FM15-METAR|223|ICAO-KFCH|1.5|N-Normal|1|FM15-METAR|223|ICAO-KFCH|||||||||||||82|Derived||FM15-METAR|223|ICAO-KFCH|||||||||||||||||||||||||||||||||||||||||||||||||||||||||||||||||||||||||1012.9||1|FM15-METAR|223|ICAO-KFCH|||||||||||||||||||||||||||||||||||||||||||MET061METAR KFCH 031515Z AUTO 27003KT 10SM CLR 10/07 A2991 RMK A01=||F||223|ICAO-KFCH
USW00023167|FRESNO CHANDLER DWTN AP|2022|03|03|15|35|36.7333|-119.8167|84.1|11.0||1|FM15-METAR|223|ICAO-KFCH|6.0||1|FM15-METAR|223|ICAO-KFCH|||||||||||||340|N-Normal|1|FM15-METAR|223|ICAO-KFCH|2.6|N-Normal|1|FM15-METAR|223|ICAO-KFCH|||||||||||||72|Derived||FM15-METAR|223|ICAO-KFCH|||||||||||||||||||||||||||||||||||||||||||||||||||||||||||||||||||||||||1012.9||1|FM15-METAR|223|ICAO-KFCH|||||||||||||||||||||||||||||||||||||||||||MET061METAR KFCH 031535Z AUTO 34005KT 10SM CLR 11/06 A2991 RMK A01=||F||223|ICAO-KFCH
USW00023167|FRESNO CHANDLER DWTN AP|2022|03|03|15|55|36.7333|-119.8167|84.1|11.0||1|FM15-METAR|223|ICAO-KFCH|6.0||1|FM15-METAR|223|ICAO-KFCH|||||||||||||300|N-Normal|1|FM15-METAR|223|ICAO-KFCH|1.5|N-Normal|1|FM15-METAR|223|ICAO-KFCH|||||||||||||72|Derived||FM15-METAR|223|ICAO-KFCH|||||||||||||||||||||||||||||||||||||||||||||||||||||||||||||||||||||||||1012.9||1|FM15-METAR|223|ICAO-KFCH|||||||||||||||||||||||||||||||||||||||||||MET061METAR KFCH 031555Z AUTO 30003KT 10SM CLR 11/06 A2991 RMK A01=||F||223|ICAO-KFCH
USW00023167|FRESNO CHANDLER DWTN AP|2022|03|03|16|15|36.7333|-119.8167|84.1|||||||||||||||||||||||||||||||||||||||||||||||||||||||||||||||||||||||||||||||||||||||||||||||||||||||||||||||||||||||||||||||1012.9||1|FM15-METAR|223|ICAO-KFCH|||||||||||||||||||||||||||||||||||||||||||MET047METAR KFCH 031615Z AUTO 10SM CLR A2991 RMK A01=||F||223|ICAO-KFCH
USW00023167|FRESNO CHANDLER DWTN AP|2022|03|03|16|35|36.7333|-119.8167|84.1|13.0||1|FM15-METAR|223|ICAO-KFCH|7.0||1|FM15-METAR|223|ICAO-KFCH|||||||||||||999|C-Calm|9|FM15-METAR|223|ICAO-KFCH|0.0|C-Calm|1|FM15-METAR|223|ICAO-KFCH|||||||||||||67|Derived||FM15-METAR|223|ICAO-KFCH|||||||||||||||||||||||||||||||||||||||||||||||||||||||||||||||||||||||||1013.2||1|FM15-METAR|223|ICAO-KFCH|||||||||||||||||||||||||||||||||||||||||||MET057METAR KFCH 031635Z AUTO 00000KT 10SM 13/07 A2992 RMK A01=||F||223|ICAO-KFCH
USW00023167|FRESNO CHANDLER DWTN AP|2022|03|03|16|55|36.7333|-119.8167|84.1|13.0||1|FM15-METAR|223|ICAO-KFCH|7.0||1|FM15-METAR|223|ICAO-KFCH|||||||||||||999|C-Calm|9|FM15-METAR|223|ICAO-KFCH|0.0|C-Calm|1|FM15-METAR|223|ICAO-KFCH|||||||||||||67|Derived||FM15-METAR|223|ICAO-KFCH|||||||||||||||||||||||||||||||||||||||||||||||||||||||||||||||||||||||||1013.2||1|FM15-METAR|223|ICAO-KFCH|||||||||||||||||||||||||||||||||||||||||||MET061METAR KFCH 031655Z AUTO 00000KT 10SM CLR 13/07 A2992 RMK A01=||F||223|ICAO-KFCH
USW00023167|FRESNO CHANDLER DWTN AP|2022|03|03|17|15|36.7333|-119.8167|84.1|14.0||1|FM15-METAR|223|ICAO-KFCH|7.0||1|FM15-METAR|223|ICAO-KFCH|||||||||||||999|C-Calm|9|FM15-METAR|223|ICAO-KFCH|0.0|C-Calm|1|FM15-METAR|223|ICAO-KFCH|||||||||||||63|Derived||FM15-METAR|223|ICAO-KFCH|||||||||||||||||||||||||||||||||||||||||||||||||||||||||||||||||||||||||1013.2||1|FM15-METAR|223|ICAO-KFCH|||||||||||||||||||||||||||||||||||||||||||MET061METAR KFCH 031715Z AUTO 00000KT 10SM CLR 14/07 A2992 RMK A01=||F||223|ICAO-KFCH
USW00023167|FRESNO CHANDLER DWTN AP|2022|03|03|17|35|36.7333|-119.8167|84.1|15.0||1|FM15-METAR|223|ICAO-KFCH|7.0||1|FM15-METAR|223|ICAO-KFCH|||||||||||||999|C-Calm|9|FM15-METAR|223|ICAO-KFCH|0.0|C-Calm|1|FM15-METAR|223|ICAO-KFCH|||||||||||||59|Derived||FM15-METAR|223|ICAO-KFCH|||||||||||||||||||||||||||||||||||||||||||||||||||||||||||||||||||||||||1013.2||1|FM15-METAR|223|ICAO-KFCH|||||||||||||||||||||||||||||||||||||||||||MET061METAR KFCH 031735Z AUTO 00000KT 10SM CLR 15/07 A2992 RMK A01=||F||223|ICAO-KFCH
USW00023167|FRESNO CHANDLER DWTN AP|2022|03|03|17|55|36.7333|-119.8167|84.1|15.0||1|FM15-METAR|223|ICAO-KFCH|7.0||1|FM15-METAR|223|ICAO-KFCH|||||||||||||999|C-Calm|9|FM15-METAR|223|ICAO-KFCH|0.0|C-Calm|1|FM15-METAR|223|ICAO-KFCH|||||||||||||59|Derived||FM15-METAR|223|ICAO-KFCH|||||||||||||||||||||||||||||||||||||||||||||||||||||||||||||||||||||||||1012.9||1|FM15-METAR|223|ICAO-KFCH|||||||||||||||||||||||||||||||||||||||||||MET061METAR KFCH 031755Z AUTO 00000KT 10SM CLR 15/07 A2991 RMK A01=||F||223|ICAO-KFCH
USW00023167|FRESNO CHANDLER DWTN AP|2022|03|03|18|15|36.7333|-119.8167|84.1|16.0||1|FM15-METAR|223|ICAO-KFCH|7.0||1|FM15-METAR|223|ICAO-KFCH|||||||||||||160|N-Normal|1|FM15-METAR|223|ICAO-KFCH|1.5|N-Normal|1|FM15-METAR|223|ICAO-KFCH|||||||||||||55|Derived||FM15-METAR|223|ICAO-KFCH|||||||||||||||||||||||||||||||||||||||||||||||||||||||||||||||||||||||||1012.9||1|FM15-METAR|223|ICAO-KFCH|||||||||||||||||||||||||||||||||||||||||||MET061METAR KFCH 031815Z AUTO 16003KT 10SM CLR 16/07 A2991 RMK A01=||F||223|ICAO-KFCH
USW00023167|FRESNO CHANDLER DWTN AP|2022|03|03|18|35|36.7333|-119.8167|84.1|18.0||1|FM15-METAR|223|ICAO-KFCH|8.0||1|FM15-METAR|223|ICAO-KFCH|||||||||||||999|V-Variable|9|FM15-METAR|223|ICAO-KFCH|1.5|V-Variable|1|FM15-METAR|223|ICAO-KFCH|||||||||||||52|Derived||FM15-METAR|223|ICAO-KFCH|||||||||||||||||||||||||||||||||||||||||||||||||||||||||||||||||||||||||1012.5||1|FM15-METAR|223|ICAO-KFCH|||||||||||||||||||||||||||||||||||||||||||MET061METAR KFCH 031835Z AUTO VRB03KT 10SM CLR 18/08 A2990 RMK A01=||F||223|ICAO-KFCH
USW00023167|FRESNO CHANDLER DWTN AP|2022|03|03|18|55|36.7333|-119.8167|84.1|18.0||1|FM15-METAR|223|ICAO-KFCH|8.0||1|FM15-METAR|223|ICAO-KFCH|||||||||||||090|N-Normal|1|FM15-METAR|223|ICAO-KFCH|2.1|N-Normal|1|FM15-METAR|223|ICAO-KFCH|||||||||||||52|Derived||FM15-METAR|223|ICAO-KFCH|||||||||||||||||||||||||||||||||||||||||||||||||||||||||||||||||||||||||1012.5||1|FM15-METAR|223|ICAO-KFCH|||||||||||||||||||||||||||||||||||||||||||MET061METAR KFCH 031855Z AUTO 09004KT 10SM CLR 18/08 A2990 RMK A01=||F||223|ICAO-KFCH
USW00023167|FRESNO CHANDLER DWTN AP|2022|03|03|19|15|36.7333|-119.8167|84.1|19.0||1|FM15-METAR|223|ICAO-KFCH|8.0||1|FM15-METAR|223|ICAO-KFCH|||||||||||||120|N-Normal|1|FM15-METAR|223|ICAO-KFCH|2.6|N-Normal|1|FM15-METAR|223|ICAO-KFCH|||||||||||||49|Derived||FM15-METAR|223|ICAO-KFCH|||||||||||||||||||||||||||||||||||||||||||||||||||||||||||||||||||||||||1012.5||1|FM15-METAR|223|ICAO-KFCH|||||||||||||||||||||||||||||||||||||||||||MET061METAR KFCH 031915Z AUTO 12005KT 10SM CLR 19/08 A2990 RMK A01=||F||223|ICAO-KFCH
USW00023167|FRESNO CHANDLER DWTN AP|2022|03|03|19|35|36.7333|-119.8167|84.1|19.0||1|FM15-METAR|223|ICAO-KFCH|8.0||1|FM15-METAR|223|ICAO-KFCH|||||||||||||999|V-Variable|9|FM15-METAR|223|ICAO-KFCH|1.5|V-Variable|1|FM15-METAR|223|ICAO-KFCH|||||||||||||49|Derived||FM15-METAR|223|ICAO-KFCH|||||||||||||||||||||||||||||||||||||||||||||||||||||||||||||||||||||||||1012.5||1|FM15-METAR|223|ICAO-KFCH|||||||||||||||||||||||||||||||||||||||||||MET061METAR KFCH 031935Z AUTO VRB03KT 10SM CLR 19/08 A2990 RMK A01=||F||223|ICAO-KFCH
USW00023167|FRESNO CHANDLER DWTN AP|2022|03|03|19|55|36.7333|-119.8167|84.1|20.0||1|FM15-METAR|223|ICAO-KFCH|8.0||1|FM15-METAR|223|ICAO-KFCH|||||||||||||110|N-Normal|1|FM15-METAR|223|ICAO-KFCH|2.1|N-Normal|1|FM15-METAR|223|ICAO-KFCH|||||||||||||46|Derived||FM15-METAR|223|ICAO-KFCH|||||||||||||||||||||||||||||||||||||||||||||||||||||||||||||||||||||||||1012.2||1|FM15-METAR|223|ICAO-KFCH|||||||||||||||||||||||||||||||||||||||||||MET061METAR KFCH 031955Z AUTO 11004KT 10SM CLR 20/08 A2989 RMK A01=||F||223|ICAO-KFCH
USW00023167|FRESNO CHANDLER DWTN AP|2022|03|03|20|15|36.7333|-119.8167|84.1|20.0||1|FM15-METAR|223|ICAO-KFCH|7.0||1|FM15-METAR|223|ICAO-KFCH|||||||||||||999|C-Calm|9|FM15-METAR|223|ICAO-KFCH|0.0|C-Calm|1|FM15-METAR|223|ICAO-KFCH|||||||||||||43|Derived||FM15-METAR|223|ICAO-KFCH|||||||||||||||||||||||||||||||||||||||||||||||||||||||||||||||||||||||||1011.8||1|FM15-METAR|223|ICAO-KFCH|||||||||||||||||||||||||||||||||||||||||||MET061METAR KFCH 032015Z AUTO 00000KT 10SM CLR 20/07 A2988 RMK A01=||F||223|ICAO-KFCH
USW00023167|FRESNO CHANDLER DWTN AP|2022|03|03|20|35|36.7333|-119.8167|84.1|21.0||1|FM15-METAR|223|ICAO-KFCH|7.0||1|FM15-METAR|223|ICAO-KFCH|||||||||||||200|N-Normal|1|FM15-METAR|223|ICAO-KFCH|2.1|N-Normal|1|FM15-METAR|223|ICAO-KFCH|||||||||||||40|Derived||FM15-METAR|223|ICAO-KFCH|||||||||||||||||||||||||||||||||||||||||||||||||||||||||||||||||||||||||1011.8||1|FM15-METAR|223|ICAO-KFCH|||||||||||||||||||||||||||||||||||||||||||MET061METAR KFCH 032035Z AUTO 20004KT 10SM CLR 21/07 A2988 RMK A01=||F||223|ICAO-KFCH
USW00023167|FRESNO CHANDLER DWTN AP|2022|03|03|20|55|36.7333|-119.8167|84.1|21.0||1|FM15-METAR|223|ICAO-KFCH|7.0||1|FM15-METAR|223|ICAO-KFCH|||||||||||||260|N-Normal|1|FM15-METAR|223|ICAO-KFCH|3.6|N-Normal|1|FM15-METAR|223|ICAO-KFCH|||||||||||||40|Derived||FM15-METAR|223|ICAO-KFCH|||||||||||||||||||||||||||||||||||||||||||||||||||||||||||||||||||||||||1011.5||1|FM15-METAR|223|ICAO-KFCH|||||||||||||||||||||||||||||||||||||||||||MET061METAR KFCH 032055Z AUTO 26007KT 10SM CLR 21/07 A2987 RMK A01=||F||223|ICAO-KFCH
USW00023167|FRESNO CHANDLER DWTN AP|2022|03|03|21|15|36.7333|-119.8167|84.1|21.0||1|FM15-METAR|223|ICAO-KFCH|8.0||1|FM15-METAR|223|ICAO-KFCH|||||||||||||290|N-Normal|1|FM15-METAR|223|ICAO-KFCH|2.1|N-Normal|1|FM15-METAR|223|ICAO-KFCH|||||||||||||43|Derived||FM15-METAR|223|ICAO-KFCH|||||||||||||||||||||||||||||||||||||||||||||||||||||||||||||||||||||||||1010.8||1|FM15-METAR|223|ICAO-KFCH|||||||||||||||||||||||||||||||||||||||||||MET061METAR KFCH 032115Z AUTO 29004KT 10SM CLR 21/08 A2985 RMK A01=||F||223|ICAO-KFCH
USW00023167|FRESNO CHANDLER DWTN AP|2022|03|03|21|35|36.7333|-119.8167|84.1|21.0||1|FM15-METAR|223|ICAO-KFCH|8.0||1|FM15-METAR|223|ICAO-KFCH|||||||||||||140|N-Normal|1|FM15-METAR|223|ICAO-KFCH|2.1|N-Normal|1|FM15-METAR|223|ICAO-KFCH|||||||||||||43|Derived||FM15-METAR|223|ICAO-KFCH|||||||||||||||||||||||||||||||||||||||||||||||||||||||||||||||||||||||||1010.8||1|FM15-METAR|223|ICAO-KFCH|||||||||||||||||||||||||||||||||||||||||||MET061METAR KFCH 032135Z AUTO 14004KT 10SM CLR 21/08 A2985 RMK A01=||F||223|ICAO-KFCH
USW00023167|FRESNO CHANDLER DWTN AP|2022|03|03|21|55|36.7333|-119.8167|84.1|21.0||1|FM15-METAR|223|ICAO-KFCH|8.0||1|FM15-METAR|223|ICAO-KFCH|||||||||||||270|N-Normal|1|FM15-METAR|223|ICAO-KFCH|4.1|N-Normal|1|FM15-METAR|223|ICAO-KFCH|||||||||||||43|Derived||FM15-METAR|223|ICAO-KFCH|||||||||||||||||||||||||||||||||||||||||||||||||||||||||||||||||||||||||1010.5||1|FM15-METAR|223|ICAO-KFCH|||||||||||||||||||||||||||||||||||||||||||MET061METAR KFCH 032155Z AUTO 27008KT 10SM CLR 21/08 A2984 RMK A01=||F||223|ICAO-KFCH
USW00023167|FRESNO CHANDLER DWTN AP|2022|03|03|22|15|36.7333|-119.8167|84.1|20.0||1|FM15-METAR|223|ICAO-KFCH|8.0||1|FM15-METAR|223|ICAO-KFCH|||||||||||||280|N-Normal|1|FM15-METAR|223|ICAO-KFCH|3.6|N-Normal|1|FM15-METAR|223|ICAO-KFCH|||||||||||||46|Derived||FM15-METAR|223|ICAO-KFCH|||||||||||||||||||||||||||||||||||||||||||||||||||||||||||||||||||||||||1010.2||1|FM15-METAR|223|ICAO-KFCH|||||||||||||||||||||||||||||||||||||||||||MET061METAR KFCH 032215Z AUTO 28007KT 10SM CLR 20/08 A2983 RMK A01=||F||223|ICAO-KFCH
USW00023167|FRESNO CHANDLER DWTN AP|2022|03|03|22|35|36.7333|-119.8167|84.1|21.0||1|FM15-METAR|223|ICAO-KFCH|8.0||1|FM15-METAR|223|ICAO-KFCH|||||||||||||280|N-Normal|1|FM15-METAR|223|ICAO-KFCH|3.6|N-Normal|1|FM15-METAR|223|ICAO-KFCH|||||||||||||43|Derived||FM15-METAR|223|ICAO-KFCH|||||||||||||||||||||||||||||||||||||||||||||||||||||||||||||||||||||||||1009.8||1|FM15-METAR|223|ICAO-KFCH|||||||||||||||||||||||||||||||||||||||||||MET061METAR KFCH 032235Z AUTO 28007KT 10SM CLR 21/08 A2982 RMK A01=||F||223|ICAO-KFCH
USW00023167|FRESNO CHANDLER DWTN AP|2022|03|03|22|55|36.7333|-119.8167|84.1|20.0||1|FM15-METAR|223|ICAO-KFCH|8.0||1|FM15-METAR|223|ICAO-KFCH|||||||||||||300|N-Normal|1|FM15-METAR|223|ICAO-KFCH|1.5|N-Normal|1|FM15-METAR|223|ICAO-KFCH|||||||||||||46|Derived||FM15-METAR|223|ICAO-KFCH|||||||||||||||||||||||||||||||||||||||||||||||||||||||||||||||||||||||||1009.8||1|FM15-METAR|223|ICAO-KFCH|||||||||||||||||||||||||||||||||||||||||||MET061METAR KFCH 032255Z AUTO 30003KT 10SM CLR 20/08 A2982 RMK A01=||F||223|ICAO-KFCH
USW00023167|FRESNO CHANDLER DWTN AP|2022|03|03|23|15|36.7333|-119.8167|84.1|21.0||1|FM15-METAR|223|ICAO-KFCH|8.0||1|FM15-METAR|223|ICAO-KFCH|||||||||||||999|V-Variable|9|FM15-METAR|223|ICAO-KFCH|2.1|V-Variable|1|FM15-METAR|223|ICAO-KFCH|||||||||||||43|Derived||FM15-METAR|223|ICAO-KFCH|||||||||||||||||||||||||||||||||||||||||||||||||||||||||||||||||||||||||1009.5||1|FM15-METAR|223|ICAO-KFCH|||||||||||||||||||||||||||||||||||||||||||MET061METAR KFCH 032315Z AUTO VRB04KT 10SM CLR 21/08 A2981 RMK A01=||F||223|ICAO-KFCH
USW00023167|FRESNO CHANDLER DWTN AP|2022|03|03|23|35|36.7333|-119.8167|84.1|21.0||1|FM15-METAR|223|ICAO-KFCH|8.0||1|FM15-METAR|223|ICAO-KFCH|||||||||||||999|V-Variable|9|FM15-METAR|223|ICAO-KFCH|1.5|V-Variable|1|FM15-METAR|223|ICAO-KFCH|||||||||||||43|Derived||FM15-METAR|223|ICAO-KFCH|||||||||||||||||||||||||||||||||||||||||||||||||||||||||||||||||||||||||1009.1||1|FM15-METAR|223|ICAO-KFCH|||||||||||||||||||||||||||||||||||||||||||MET061METAR KFCH 032335Z AUTO VRB03KT 10SM CLR 21/08 A2980 RMK A01=||F||223|ICAO-KFCH
USW00023167|FRESNO CHANDLER DWTN AP|2022|03|03|23|55|36.7333|-119.8167|84.1|21.0||1|FM15-METAR|223|ICAO-KFCH|7.0||1|FM15-METAR|223|ICAO-KFCH|||||||||||||999|C-Calm|9|FM15-METAR|223|ICAO-KFCH|0.0|C-Calm|1|FM15-METAR|223|ICAO-KFCH|||||||||||||40|Derived||FM15-METAR|223|ICAO-KFCH|||||||||||||||||||||||||||||||||||||||||||||||||||||||||||||||||||||||||1009.1||1|FM15-METAR|223|ICAO-KFCH|||||||||||||||||||||||||||||||||||||||||||MET061METAR KFCH 032355Z AUTO 00000KT 10SM CLR 21/07 A2980 RMK A01=||F||223|ICAO-KFCH
USW00023167|FRESNO CHANDLER DWTN AP|2022|03|04|00|15|36.7333|-119.8167|84.1|21.0||1|FM15-METAR|223|ICAO-KFCH|8.0||1|FM15-METAR|223|ICAO-KFCH|||||||||||||240|N-Normal|1|FM15-METAR|223|ICAO-KFCH|3.1|N-Normal|1|FM15-METAR|223|ICAO-KFCH|||||||||||||43|Derived||FM15-METAR|223|ICAO-KFCH|||||||||||||||||||||||||||||||||||||||||||||||||||||||||||||||||||||||||1009.1||1|FM15-METAR|223|ICAO-KFCH|||||||||||||||||||||||||||||||||||||||||||MET061METAR KFCH 040015Z AUTO 24006KT 10SM CLR 21/08 A2980 RMK A01=||F||223|ICAO-KFCH
USW00023167|FRESNO CHANDLER DWTN AP|2022|03|04|00|35|36.7333|-119.8167|84.1|21.0||1|FM15-METAR|223|ICAO-KFCH|8.0||1|FM15-METAR|223|ICAO-KFCH|||||||||||||999|V-Variable|9|FM15-METAR|223|ICAO-KFCH|1.5|V-Variable|1|FM15-METAR|223|ICAO-KFCH|||||||||||||43|Derived||FM15-METAR|223|ICAO-KFCH|||||||||||||||||||||||||||||||||||||||||||||||||||||||||||||||||||||||||1008.8||1|FM15-METAR|223|ICAO-KFCH|||||||||||||||||||||||||||||||||||||||||||MET061METAR KFCH 040035Z AUTO VRB03KT 10SM CLR 21/08 A2979 RMK A01=||F||223|ICAO-KFCH
USW00023167|FRESNO CHANDLER DWTN AP|2022|03|04|00|55|36.7333|-119.8167|84.1|21.0||1|FM15-METAR|223|ICAO-KFCH|8.0||1|FM15-METAR|223|ICAO-KFCH|||||||||||||300|N-Normal|1|FM15-METAR|223|ICAO-KFCH|1.5|N-Normal|1|FM15-METAR|223|ICAO-KFCH|||||||||||||43|Derived||FM15-METAR|223|ICAO-KFCH|||||||||||||||||||||||||||||||||||||||||||||||||||||||||||||||||||||||||1008.8||1|FM15-METAR|223|ICAO-KFCH|||||||||||||||||||||||||||||||||||||||||||MET061METAR KFCH 040055Z AUTO 30003KT 10SM CLR 21/08 A2979 RMK A01=||F||223|ICAO-KFCH
USW00023167|FRESNO CHANDLER DWTN AP|2022|03|04|01|15|36.7333|-119.8167|84.1|20.0||1|FM15-METAR|223|ICAO-KFCH|8.0||1|FM15-METAR|223|ICAO-KFCH|||||||||||||270|N-Normal|1|FM15-METAR|223|ICAO-KFCH|2.1|N-Normal|1|FM15-METAR|223|ICAO-KFCH|||||||||||||46|Derived||FM15-METAR|223|ICAO-KFCH|||||||||||||||||||||||||||||||||||||||||||||||||||||||||||||||||||||||||1008.8||1|FM15-METAR|223|ICAO-KFCH|||||||||||||||||||||||||||||||||||||||||||MET061METAR KFCH 040115Z AUTO 27004KT 10SM CLR 20/08 A2979 RMK A01=||F||223|ICAO-KFCH
USW00023167|FRESNO CHANDLER DWTN AP|2022|03|04|01|35|36.7333|-119.8167|84.1|20.0||1|FM15-METAR|223|ICAO-KFCH|8.0||1|FM15-METAR|223|ICAO-KFCH|||||||||||||270|N-Normal|1|FM15-METAR|223|ICAO-KFCH|2.6|N-Normal|1|FM15-METAR|223|ICAO-KFCH|||||||||||||46|Derived||FM15-METAR|223|ICAO-KFCH|||||||||||||||||||||||||||||||||||||||||||||||||||||||||||||||||||||||||1008.8||1|FM15-METAR|223|ICAO-KFCH|||||||||||||||||||||||||||||||||||||||||||MET061METAR KFCH 040135Z AUTO 27005KT 10SM CLR 20/08 A2979 RMK A01=||F||223|ICAO-KFCH
USW00023167|FRESNO CHANDLER DWTN AP|2022|03|04|01|55|36.7333|-119.8167|84.1|20.0||1|FM15-METAR|223|ICAO-KFCH|8.0||1|FM15-METAR|223|ICAO-KFCH|||||||||||||290|N-Normal|1|FM15-METAR|223|ICAO-KFCH|2.1|N-Normal|1|FM15-METAR|223|ICAO-KFCH|||||||||||||46|Derived||FM15-METAR|223|ICAO-KFCH|||||||||||||||||||||||||||||||||||||||||||||||||||||||||||||||||||||||||1008.8||1|FM15-METAR|223|ICAO-KFCH|||||||||||||||||||||||||||||||||||||||||||MET061METAR KFCH 040155Z AUTO 29004KT 10SM CLR 20/08 A2979 RMK A01=||F||223|ICAO-KFCH
USW00023167|FRESNO CHANDLER DWTN AP|2022|03|04|02|15|36.7333|-119.8167|84.1|19.0||1|FM15-METAR|223|ICAO-KFCH|7.0||1|FM15-METAR|223|ICAO-KFCH|||||||||||||330|N-Normal|1|FM15-METAR|223|ICAO-KFCH|3.1|N-Normal|1|FM15-METAR|223|ICAO-KFCH|||||||||||||46|Derived||FM15-METAR|223|ICAO-KFCH|||||||||||||||||||||||||||||||||||||||||||||||||||||||||||||||||||||||||1008.8||1|FM15-METAR|223|ICAO-KFCH|||||||||||||||||||||||||||||||||||||||||||MET061METAR KFCH 040215Z AUTO 33006KT 10SM CLR 19/07 A2979 RMK A01=||F||223|ICAO-KFCH
USW00023167|FRESNO CHANDLER DWTN AP|2022|03|04|02|35|36.7333|-119.8167|84.1|19.0||1|FM15-METAR|223|ICAO-KFCH|6.0||1|FM15-METAR|223|ICAO-KFCH|||||||||||||320|N-Normal|1|FM15-METAR|223|ICAO-KFCH|2.6|N-Normal|1|FM15-METAR|223|ICAO-KFCH|||||||||||||43|Derived||FM15-METAR|223|ICAO-KFCH|||||||||||||||||||||||||||||||||||||||||||||||||||||||||||||||||||||||||1008.8||1|FM15-METAR|223|ICAO-KFCH|||||||||||||||||||||||||||||||||||||||||||MET061METAR KFCH 040235Z AUTO 32005KT 10SM CLR 19/06 A2979 RMK A01=||F||223|ICAO-KFCH
USW00023167|FRESNO CHANDLER DWTN AP|2022|03|04|02|55|36.7333|-119.8167|84.1|19.0||1|FM15-METAR|223|ICAO-KFCH|6.0||1|FM15-METAR|223|ICAO-KFCH|||||||||||||310|N-Normal|1|FM15-METAR|223|ICAO-KFCH|3.1|N-Normal|1|FM15-METAR|223|ICAO-KFCH|||||||||||||43|Derived||FM15-METAR|223|ICAO-KFCH|||||||||||||||||||||||||||||||||||||||||||||||||||||||||||||||||||||||||1009.1||1|FM15-METAR|223|ICAO-KFCH|||||||||||||||||||||||||||||||||||||||||||MET064METAR KFCH 040255Z AUTO 31006KT 10SM SCT047 19/06 A2980 RMK A01=||F||223|ICAO-KFCH
USW00023167|FRESNO CHANDLER DWTN AP|2022|03|04|03|15|36.7333|-119.8167|84.1|18.0||1|FM15-METAR|223|ICAO-KFCH|6.0||1|FM15-METAR|223|ICAO-KFCH|||||||||||||320|N-Normal|1|FM15-METAR|223|ICAO-KFCH|4.1|N-Normal|1|FM15-METAR|223|ICAO-KFCH|||||||||||||46|Derived||FM15-METAR|223|ICAO-KFCH|||||||||||||||||||||||||||||||||||||||||||||||||||||||||||||||||||||||||1009.1||1|FM15-METAR|223|ICAO-KFCH|||||||||||||||||||||||||||||||||||||||||||MET071METAR KFCH 040315Z AUTO 32008KT 10SM BKN046 BKN050 18/06 A2980 RMK A01=||F||223|ICAO-KFCH
USW00023167|FRESNO CHANDLER DWTN AP|2022|03|04|03|30|36.7333|-119.8167|84.1|18.0||1|FM15-METAR|223|ICAO-KFCH|6.0||1|FM15-METAR|223|ICAO-KFCH|||||||||||||320|N-Normal|1|FM15-METAR|223|ICAO-KFCH|3.6|N-Normal|1|FM15-METAR|223|ICAO-KFCH|6.7||1|FM15-METAR|223|ICAO-KFCH|||||||46|Derived||FM15-METAR|223|ICAO-KFCH|||||||||||||||||||||||||||||||||||||||||||||||||||||||||||||||||||||||||1009.1||1|FM15-METAR|223|ICAO-KFCH|||||||||||||||||||||||||||||||||||||||||||MET067METAR KFCH 040330Z AUTO 32007G13KT 10SM BKN048 18/06 A2980 RMK A01=||F||223|ICAO-KFCH
USW00023167|FRESNO CHANDLER DWTN AP|2022|03|04|03|55|36.7333|-119.8167|84.1|17.0||1|FM15-METAR|223|ICAO-KFCH|5.0||1|FM15-METAR|223|ICAO-KFCH|||||||||||||310|N-Normal|1|FM15-METAR|223|ICAO-KFCH|3.6|N-Normal|1|FM15-METAR|223|ICAO-KFCH|||||||||||||45|Derived||FM15-METAR|223|ICAO-KFCH|||||||||||||||||||||||||||||||||||||||||||||||||||||||||||||||||||||||||1009.1||1|FM15-METAR|223|ICAO-KFCH|||||||||||||||||||||||||||||||||||||||||||MET071METAR KFCH 040355Z AUTO 31007KT 10SM BKN048 BKN055 17/05 A2980 RMK A01=||F||223|ICAO-KFCH
USW00023167|FRESNO CHANDLER DWTN AP|2022|03|04|04|15|36.7333|-119.8167|84.1|17.0||1|FM15-METAR|223|ICAO-KFCH|5.0||1|FM15-METAR|223|ICAO-KFCH|||||||||||||320|N-Normal|1|FM15-METAR|223|ICAO-KFCH|4.1|N-Normal|1|FM15-METAR|223|ICAO-KFCH|||||||||||||45|Derived||FM15-METAR|223|ICAO-KFCH|||||||||||||||||||||||||||||||||||||||||||||||||||||||||||||||||||||||||1009.1||1|FM15-METAR|223|ICAO-KFCH|||||||||||||||||||||||||||||||||||||||||||MET071METAR KFCH 040415Z AUTO 32008KT 10SM SCT044 OVC050 17/05 A2980 RMK A01=||F||223|ICAO-KFCH
USW00023167|FRESNO CHANDLER DWTN AP|2022|03|04|04|30|36.7333|-119.8167|84.1|17.0||1|FM15-METAR|223|ICAO-KFCH|5.0||1|FM15-METAR|223|ICAO-KFCH|||||||||||||300|N-Normal|1|FM15-METAR|223|ICAO-KFCH|4.1|N-Normal|1|FM15-METAR|223|ICAO-KFCH|||||||||||||45|Derived||FM15-METAR|223|ICAO-KFCH|||||||||||||||||||||||||||||||||||||||||||||||||||||||||||||||||||||||||1009.5||1|FM15-METAR|223|ICAO-KFCH|||||||||||||||||||||||||||||||||||||||||||MET071METAR KFCH 040430Z AUTO 30008KT 10SM BKN040 OVC048 17/05 A2981 RMK A01=||F||223|ICAO-KFCH
USW00023167|FRESNO CHANDLER DWTN AP|2022|03|04|04|55|36.7333|-119.8167|84.1|16.0||1|FM15-METAR|223|ICAO-KFCH|7.0||1|FM15-METAR|223|ICAO-KFCH|||||||||||||320|N-Normal|1|FM15-METAR|223|ICAO-KFCH|4.6|N-Normal|1|FM15-METAR|223|ICAO-KFCH|7.7||1|FM15-METAR|223|ICAO-KFCH|||||||55|Derived||FM15-METAR|223|ICAO-KFCH|||||||||||||||||||||||||||||||||||||||||||||||||||||||||||||||||||||||||1009.5||1|FM15-METAR|223|ICAO-KFCH|||||||||||||||||||||||||||||||||||||||||||MET067METAR KFCH 040455Z AUTO 32009G15KT 10SM OVC040 16/07 A2981 RMK A01=||F||223|ICAO-KFCH
USW00023167|FRESNO CHANDLER DWTN AP|2022|03|04|05|15|36.7333|-119.8167|84.1|15.0||1|FM15-METAR|223|ICAO-KFCH|7.0||1|FM15-METAR|223|ICAO-KFCH|||||||||||||320|N-Normal|1|FM15-METAR|223|ICAO-KFCH|6.2|N-Normal|1|FM15-METAR|223|ICAO-KFCH|||||||||||||59|Derived||FM15-METAR|223|ICAO-KFCH|||||||||||||||||||||||||||||||||||||||||||||||||||||||||||||||||||||||||1009.5||1|FM15-METAR|223|ICAO-KFCH|||||||||||||||||||||||||||||||||||||||||||MET064METAR KFCH 040515Z AUTO 32012KT 10SM OVC045 15/07 A2981 RMK A01=||F||223|ICAO-KFCH
USW00023167|FRESNO CHANDLER DWTN AP|2022|03|04|05|30|36.7333|-119.8167|84.1|15.0||1|FM15-METAR|223|ICAO-KFCH|7.0||1|FM15-METAR|223|ICAO-KFCH|||||||||||||320|N-Normal|1|FM15-METAR|223|ICAO-KFCH|5.1|N-Normal|1|FM15-METAR|223|ICAO-KFCH|||||||||||||59|Derived||FM15-METAR|223|ICAO-KFCH|||||||||||||||||||||||||||||||||||||||||||||||||||||||||||||||||||||||||1009.8||1|FM15-METAR|223|ICAO-KFCH|||||||||||||||||||||||||||||||||||||||||||MET064METAR KFCH 040530Z AUTO 32010KT 10SM OVC047 15/07 A2982 RMK A01=||F||223|ICAO-KFCH
USW00023167|FRESNO CHANDLER DWTN AP|2022|03|04|05|55|36.7333|-119.8167|84.1|15.0||1|FM15-METAR|223|ICAO-KFCH|8.0||1|FM15-METAR|223|ICAO-KFCH|||||||||||||310|N-Normal|1|FM15-METAR|223|ICAO-KFCH|4.6|N-Normal|1|FM15-METAR|223|ICAO-KFCH|||||||||||||63|Derived||FM15-METAR|223|ICAO-KFCH|||||||||||||||||||||||||||||||||||||||||||||||||||||||||||||||||||||||||1010.2||1|FM15-METAR|223|ICAO-KFCH|||||||||||||||||||||||||||||||||||||||||||MET071METAR KFCH 040555Z AUTO 31009KT 10SM BKN050 OVC055 15/08 A2983 RMK A01=||F||223|ICAO-KFCH
USW00023167|FRESNO CHANDLER DWTN AP|2022|03|04|06|10|36.7333|-119.8167|84.1|14.0||1|FM15-METAR|223|ICAO-KFCH|8.0||1|FM15-METAR|223|ICAO-KFCH|||||||||||||300|N-Normal|1|FM15-METAR|223|ICAO-KFCH|4.6|N-Normal|1|FM15-METAR|223|ICAO-KFCH|||||||||||||67|Derived||FM15-METAR|223|ICAO-KFCH|||||||||||||||||||||||||||||||||||||||||||||||||||||||||||||||||||||||||1010.2||1|FM15-METAR|223|ICAO-KFCH|||||||||||||||||||||||||||||||||||||||||||MET064METAR KFCH 040610Z AUTO 30009KT 10SM BKN060 14/08 A2983 RMK A01=||F||223|ICAO-KFCH
USW00023167|FRESNO CHANDLER DWTN AP|2022|03|04|06|30|36.7333|-119.8167|84.1|14.0||1|FM15-METAR|223|ICAO-KFCH|8.0||1|FM15-METAR|223|ICAO-KFCH|||||||||||||310|N-Normal|1|FM15-METAR|223|ICAO-KFCH|4.6|N-Normal|1|FM15-METAR|223|ICAO-KFCH|||||||||||||67|Derived||FM15-METAR|223|ICAO-KFCH|||||||||||||||||||||||||||||||||||||||||||||||||||||||||||||||||||||||||1010.2||1|FM15-METAR|223|ICAO-KFCH|||||||||||||||||||||||||||||||||||||||||||MET071METAR KFCH 040630Z AUTO 31009KT 10SM BKN060 BKN110 14/08 A2983 RMK A01=||F||223|ICAO-KFCH
USW00023167|FRESNO CHANDLER DWTN AP|2022|03|04|06|50|36.7333|-119.8167|84.1|13.0||1|FM15-METAR|223|ICAO-KFCH|8.0||1|FM15-METAR|223|ICAO-KFCH|||||||||||||310|N-Normal|1|FM15-METAR|223|ICAO-KFCH|4.6|N-Normal|1|FM15-METAR|223|ICAO-KFCH|||||||||||||72|Derived||FM15-METAR|223|ICAO-KFCH|||||||||||||||||||||||||||||||||||||||||||||||||||||||||||||||||||||||||1010.5||1|FM15-METAR|223|ICAO-KFCH|||||||||||||||||||||||||||||||||||||||||||MET078METAR KFCH 040650Z AUTO 31009KT 10SM FEW050 FEW060 SCT110 13/08 A2984 RMK A01=||F||223|ICAO-KFCH
USW00023167|FRESNO CHANDLER DWTN AP|2022|03|04|07|15|36.7333|-119.8167|84.1|||||||||||||||||||||||||||||||||||||||||||||||||||||||||||||||||||||||||||||||||||||||||||||||||||||||||||||||||||||||||||||||||||||||||||||||||||||||||||||||||||||||||||||||MET032METAR KFCH 040715Z AUTO RMK A01=||F||223|ICAO-KFCH
USW00023167|FRESNO CHANDLER DWTN AP|2022|03|04|07|30|36.7333|-119.8167|84.1|||||||||||||||||||||||||||||||||||||||||||||||||||||||||||||||||||||||||||||||||||||||||||||||||||||||||||||||||||||||||||||||1010.5||1|FM15-METAR|223|ICAO-KFCH|||||||||||||||||||||||||||||||||||||||||||MET038METAR KFCH 040730Z AUTO A2984 RMK A01=||F||223|ICAO-KFCH
USW00023167|FRESNO CHANDLER DWTN AP|2022|03|04|07|55|36.7333|-119.8167|84.1|13.0||1|FM15-METAR|223|ICAO-KFCH|9.0||1|FM15-METAR|223|ICAO-KFCH|||||||||||||300|N-Normal|1|FM15-METAR|223|ICAO-KFCH|4.6|N-Normal|1|FM15-METAR|223|ICAO-KFCH|||||||||||||77|Derived||FM15-METAR|223|ICAO-KFCH|||||||||||||||||||||||||||||||||||||||||||||||||||||||||||||||||||||||||1010.5||1|FM15-METAR|223|ICAO-KFCH|||||||||||||||||||||||||||||||||||||||||||MET057METAR KFCH 040755Z AUTO 30009KT 10SM 13/09 A2984 RMK A01=||F||223|ICAO-KFCH
USW00023167|FRESNO CHANDLER DWTN AP|2022|03|04|08|15|36.7333|-119.8167|84.1|13.0||4|FM15-METAR|223|ICAO-KFCH|9.0||4|FM15-METAR|223|ICAO-KFCH|||||||||||||||||||||||||||||||||||||77|Derived||FM15-METAR|223|ICAO-KFCH|||||||||||||||||||||||||||||||||||||||||||||||||||||||||||||||||||||||||1010.5||4|FM15-METAR|223|ICAO-KFCH|||||||||||||||||||||||||||||||||||||||||||MET055METAR KFCH 040815Z AUTO 300KT 10SM 13/09 A2984 RMK A01=||F||223|ICAO-KFCH
USW00023167|FRESNO CHANDLER DWTN AP|2022|03|04|08|35|36.7333|-119.8167|84.1|13.0||1|FM15-METAR|223|ICAO-KFCH|9.0||1|FM15-METAR|223|ICAO-KFCH|||||||||||||290|N-Normal|1|FM15-METAR|223|ICAO-KFCH|3.6|N-Normal|1|FM15-METAR|223|ICAO-KFCH|||||||||||||77|Derived||FM15-METAR|223|ICAO-KFCH|||||||||||||||||||||||||||||||||||||||||||||||||||||||||||||||||||||||||1010.8||1|FM15-METAR|223|ICAO-KFCH|||||||||||||||||||||||||||||||||||||||||||MET057METAR KFCH 040835Z AUTO 29007KT 10SM 13/09 A2985 RMK A01=||F||223|ICAO-KFCH
USW00023167|FRESNO CHANDLER DWTN AP|2022|03|04|08|55|36.7333|-119.8167|84.1|13.0||1|FM15-METAR|223|ICAO-KFCH|9.0||1|FM15-METAR|223|ICAO-KFCH|||||||||||||300|N-Normal|1|FM15-METAR|223|ICAO-KFCH|5.1|N-Normal|1|FM15-METAR|223|ICAO-KFCH|||||||||||||77|Derived||FM15-METAR|223|ICAO-KFCH|||||||||||||||||||||||||||||||||||||||||||||||||||||||||||||||||||||||||1010.8||1|FM15-METAR|223|ICAO-KFCH|||||||||||||||||||||||||||||||||||||||||||MET071METAR KFCH 040855Z AUTO 30010KT 10SM FEW049 BKN100 13/09 A2985 RMK A01=||F||223|ICAO-KFCH
USW00023167|FRESNO CHANDLER DWTN AP|2022|03|04|09|15|36.7333|-119.8167|84.1|12.0||1|FM15-METAR|223|ICAO-KFCH|9.0||1|FM15-METAR|223|ICAO-KFCH|||||||||||||310|N-Normal|1|FM15-METAR|223|ICAO-KFCH|4.1|N-Normal|1|FM15-METAR|223|ICAO-KFCH|||||||||||||82|Derived||FM15-METAR|223|ICAO-KFCH|||||||||||||||||||||||||||||||||||||||||||||||||||||||||||||||||||||||||1010.8||1|FM15-METAR|223|ICAO-KFCH|||||||||||||||||||||||||||||||||||||||||||MET071METAR KFCH 040915Z AUTO 31008KT 10SM SCT050 BKN110 12/09 A2985 RMK A01=||F||223|ICAO-KFCH
USW00023167|FRESNO CHANDLER DWTN AP|2022|03|04|09|35|36.7333|-119.8167|84.1|12.0||1|FM15-METAR|223|ICAO-KFCH|9.0||1|FM15-METAR|223|ICAO-KFCH|||||||||||||300|N-Normal|1|FM15-METAR|223|ICAO-KFCH|5.1|N-Normal|1|FM15-METAR|223|ICAO-KFCH|||||||||||||82|Derived||FM15-METAR|223|ICAO-KFCH|||||||||||||||||||||||||||||||||||||||||||||||||||||||||||||||||||||||||1010.5||1|FM15-METAR|223|ICAO-KFCH|||||||||||||||||||||||||||||||||||||||||||MET078METAR KFCH 040935Z AUTO 30010KT 10SM SCT050 SCT090 BKN110 12/09 A2984 RMK A01=||F||223|ICAO-KFCH
USW00023167|FRESNO CHANDLER DWTN AP|2022|03|04|09|55|36.7333|-119.8167|84.1|12.0||1|FM15-METAR|223|ICAO-KFCH|9.0||1|FM15-METAR|223|ICAO-KFCH|||||||||||||300|N-Normal|1|FM15-METAR|223|ICAO-KFCH|5.1|N-Normal|1|FM15-METAR|223|ICAO-KFCH|8.2||1|FM15-METAR|223|ICAO-KFCH|||||||82|Derived||FM15-METAR|223|ICAO-KFCH|||||||||||||||||||||||||||||||||||||||||||||||||||||||||||||||||||||||||1010.2||1|FM15-METAR|223|ICAO-KFCH|||||||||||||||||||||||||||||||||||||||||||MET081METAR KFCH 040955Z AUTO 30010G16KT 10SM BKN050 BKN085 BKN110 12/09 A2983 RMK A01=||F||223|ICAO-KFCH
USW00023167|FRESNO CHANDLER DWTN AP|2022|03|04|10|15|36.7333|-119.8167|84.1|12.0||4|FM15-METAR|223|ICAO-KFCH|9.0||4|FM15-METAR|223|ICAO-KFCH|||||||||||||||||||||||||||||||||||||82|Derived||FM15-METAR|223|ICAO-KFCH|||||||||||||||||||||||||||||||||||||||||||||||||||||||||||||||||||||||||1010.5||4|FM15-METAR|223|ICAO-KFCH|||||||||||||||||||||||||||||||||||||||||||MET062METAR KFCH 041015Z AUTO 290KT 10SM OVC055 12/09 A2984 RMK A01=||F||223|ICAO-KFCH
USW00023167|FRESNO CHANDLER DWTN AP|2022|03|04|10|35|36.7333|-119.8167|84.1|12.0||1|FM15-METAR|223|ICAO-KFCH|9.0||1|FM15-METAR|223|ICAO-KFCH|||||||||||||290|N-Normal|1|FM15-METAR|223|ICAO-KFCH|5.1|N-Normal|1|FM15-METAR|223|ICAO-KFCH|||||||||||||82|Derived||FM15-METAR|223|ICAO-KFCH|||||||||||||||||||||||||||||||||||||||||||||||||||||||||||||||||||||||||1010.5||1|FM15-METAR|223|ICAO-KFCH|||||||||||||||||||||||||||||||||||||||||||MET064METAR KFCH 041035Z AUTO 29010KT 10SM OVC060 12/09 A2984 RMK A01=||F||223|ICAO-KFCH
USW00023167|FRESNO CHANDLER DWTN AP|2022|03|04|10|50|36.7333|-119.8167|84.1|12.0||1|FM15-METAR|223|ICAO-KFCH|9.0||1|FM15-METAR|223|ICAO-KFCH|||||||||||||290|N-Normal|1|FM15-METAR|223|ICAO-KFCH|5.7|N-Normal|1|FM15-METAR|223|ICAO-KFCH|||||||||||||82|Derived||FM15-METAR|223|ICAO-KFCH|||||||||||||||||||||||||||||||||||||||||||||||||||||||||||||||||||||||||1010.2||1|FM15-METAR|223|ICAO-KFCH|||||||||||||||||||||||||||||||||||||||||||MET064METAR KFCH 041050Z AUTO 29011KT 10SM OVC060 12/09 A2983 RMK A01=||F||223|ICAO-KFCH
USW00023167|FRESNO CHANDLER DWTN AP|2022|03|04|11|15|36.7333|-119.8167|84.1|12.0||1|FM15-METAR|223|ICAO-KFCH|9.0||1|FM15-METAR|223|ICAO-KFCH|||||||||||||290|N-Normal|1|FM15-METAR|223|ICAO-KFCH|4.6|N-Normal|1|FM15-METAR|223|ICAO-KFCH|7.2||1|FM15-METAR|223|ICAO-KFCH|||||||82|Derived||FM15-METAR|223|ICAO-KFCH|||||||||||||||||||||||||||||||||||||||||||||||||||||||||||||||||||||||||1010.5||1|FM15-METAR|223|ICAO-KFCH|||||||||||||||||||||||||||||||||||||||||||MET067METAR KFCH 041115Z AUTO 29009G14KT 10SM OVC065 12/09 A2984 RMK A01=||F||223|ICAO-KFCH
USW00023167|FRESNO CHANDLER DWTN AP|2022|03|04|11|35|36.7333|-119.8167|84.1|12.0||1|FM15-METAR|223|ICAO-KFCH|9.0||1|FM15-METAR|223|ICAO-KFCH|||||||||||||290|N-Normal|1|FM15-METAR|223|ICAO-KFCH|5.7|N-Normal|1|FM15-METAR|223|ICAO-KFCH|9.3||1|FM15-METAR|223|ICAO-KFCH|||||||82|Derived||FM15-METAR|223|ICAO-KFCH|||||||||||||||||||||||||||||||||||||||||||||||||||||||||||||||||||||||||1010.5||1|FM15-METAR|223|ICAO-KFCH|||||||||||||||||||||||||||||||||||||||||||MET081METAR KFCH 041135Z AUTO 29011G18KT 10SM FEW055 BKN070 OVC075 12/09 A2984 RMK A01=||F||223|ICAO-KFCH
USW00023167|FRESNO CHANDLER DWTN AP|2022|03|04|11|55|36.7333|-119.8167|84.1|12.0||1|FM15-METAR|223|ICAO-KFCH|9.0||1|FM15-METAR|223|ICAO-KFCH|||||||||||||290|N-Normal|1|FM15-METAR|223|ICAO-KFCH|6.7|N-Normal|1|FM15-METAR|223|ICAO-KFCH|||||||||||||82|Derived||FM15-METAR|223|ICAO-KFCH|||||||||||||||||||||||||||||||||||||||||||||||||||||||||||||||||||||||||1010.5||1|FM15-METAR|223|ICAO-KFCH|||||||||||||||||||||||||||||||||||||||||||MET071METAR KFCH 041155Z AUTO 29013KT 10SM FEW055 OVC070 12/09 A2984 RMK A01=||F||223|ICAO-KFCH
USW00023167|FRESNO CHANDLER DWTN AP|2022|03|04|12|15|36.7333|-119.8167|84.1|13.0||1|FM15-METAR|223|ICAO-KFCH|9.0||1|FM15-METAR|223|ICAO-KFCH|||||||||||||300|N-Normal|1|FM15-METAR|223|ICAO-KFCH|5.1|N-Normal|1|FM15-METAR|223|ICAO-KFCH|||||||||||||77|Derived||FM15-METAR|223|ICAO-KFCH|||||||||||||||||||||||||||||||||||||||||||||||||||||||||||||||||||||||||1010.8||1|FM15-METAR|223|ICAO-KFCH|||||||||||||||||||||||||||||||||||||||||||MET064METAR KFCH 041215Z AUTO 30010KT 10SM OVC070 13/09 A2985 RMK A01=||F||223|ICAO-KFCH
USW00023167|FRESNO CHANDLER DWTN AP|2022|03|04|12|35|36.7333|-119.8167|84.1|13.0||1|FM15-METAR|223|ICAO-KFCH|9.0||1|FM15-METAR|223|ICAO-KFCH|||||||||||||320|N-Normal|1|FM15-METAR|223|ICAO-KFCH|3.1|N-Normal|1|FM15-METAR|223|ICAO-KFCH|||||||||||||77|Derived||FM15-METAR|223|ICAO-KFCH|||||||||||||||||||||||||||||||||||||||||||||||||||||||||||||||||||||||||1011.2||1|FM15-METAR|223|ICAO-KFCH|||||||||||||||||||||||||||||||||||||||||||MET057METAR KFCH 041235Z AUTO 32006KT 10SM 13/09 A2986 RMK A01=||F||223|ICAO-KFCH
USW00023167|FRESNO CHANDLER DWTN AP|2022|03|04|12|55|36.7333|-119.8167|84.1|13.0||1|FM15-METAR|223|ICAO-KFCH|9.0||1|FM15-METAR|223|ICAO-KFCH|||||||||||||330|N-Normal|1|FM15-METAR|223|ICAO-KFCH|2.1|N-Normal|1|FM15-METAR|223|ICAO-KFCH|||||||||||||77|Derived||FM15-METAR|223|ICAO-KFCH|||||||||||||||||||||||||||||||||||||||||||||||||||||||||||||||||||||||||1011.5||1|FM15-METAR|223|ICAO-KFCH|||||||||||||||||||||||||||||||||||||||||||MET064METAR KFCH 041255Z AUTO 33004KT 10SM OVC075 13/09 A2987 RMK A01=||F||223|ICAO-KFCH
USW00023167|FRESNO CHANDLER DWTN AP|2022|03|04|13|15|36.7333|-119.8167|84.1|13.0||1|FM15-METAR|223|ICAO-KFCH|8.0||1|FM15-METAR|223|ICAO-KFCH|||||||||||||340|N-Normal|1|FM15-METAR|223|ICAO-KFCH|2.1|N-Normal|1|FM15-METAR|223|ICAO-KFCH|||||||||||||72|Derived||FM15-METAR|223|ICAO-KFCH|||||||||||||||||||||||||||||||||||||||||||||||||||||||||||||||||||||||||1011.5||1|FM15-METAR|223|ICAO-KFCH|||||||||||||||||||||||||||||||||||||||||||MET078METAR KFCH 041315Z AUTO 34004KT 10SM FEW050 FEW065 OVC075 13/08 A2987 RMK A01=||F||223|ICAO-KFCH
USW00023167|FRESNO CHANDLER DWTN AP|2022|03|04|13|35|36.7333|-119.8167|84.1|12.0||1|FM15-METAR|223|ICAO-KFCH|9.0||1|FM15-METAR|223|ICAO-KFCH|||||||||||||350|N-Normal|1|FM15-METAR|223|ICAO-KFCH|2.1|N-Normal|1|FM15-METAR|223|ICAO-KFCH|||||||||||||82|Derived||FM15-METAR|223|ICAO-KFCH|||||||||||||||||||||||||||||||||||||||||||||||||||||||||||||||||||||||||1011.8||1|FM15-METAR|223|ICAO-KFCH|||||||||||||||||||||||||||||||||||||||||||MET078METAR KFCH 041335Z AUTO 35004KT 10SM FEW045 SCT050 BKN060 12/09 A2988 RMK A01=||F||223|ICAO-KFCH
USW00023167|FRESNO CHANDLER DWTN AP|2022|03|04|13|55|36.7333|-119.8167|84.1|12.0||1|FM15-METAR|223|ICAO-KFCH|9.0||1|FM15-METAR|223|ICAO-KFCH|||||||||||||999|V-Variable|9|FM15-METAR|223|ICAO-KFCH|1.5|V-Variable|1|FM15-METAR|223|ICAO-KFCH|||||||||||||82|Derived||FM15-METAR|223|ICAO-KFCH|||||||||||||||||||||||||||||||||||||||||||||||||||||||||||||||||||||||||1012.2||1|FM15-METAR|223|ICAO-KFCH|||||||||||||||||||||||||||||||||||||||||||MET078METAR KFCH 041355Z AUTO VRB03KT 10SM FEW047 FEW055 OVC075 12/09 A2989 RMK A01=||F||223|ICAO-KFCH
USW00023167|FRESNO CHANDLER DWTN AP|2022|03|04|14|15|36.7333|-119.8167|84.1|13.0||1|FM15-METAR|223|ICAO-KFCH|9.0||1|FM15-METAR|223|ICAO-KFCH|||||||||||||330|N-Normal|1|FM15-METAR|223|ICAO-KFCH|2.6|N-Normal|1|FM15-METAR|223|ICAO-KFCH|||||||||||||77|Derived||FM15-METAR|223|ICAO-KFCH|||||||||||||||||||||||||||||||||||||||||||||||||||||||||||||||||||||||||1012.5||1|FM15-METAR|223|ICAO-KFCH|||||||||||||||||||||||||||||||||||||||||||MET071METAR KFCH 041415Z AUTO 33005KT 10SM BKN055 OVC075 13/09 A2990 RMK A01=||F||223|ICAO-KFCH
USW00023167|FRESNO CHANDLER DWTN AP|2022|03|04|14|35|36.7333|-119.8167|84.1|12.0||1|FM15-METAR|223|ICAO-KFCH|9.0||1|FM15-METAR|223|ICAO-KFCH|||||||||||||320|N-Normal|1|FM15-METAR|223|ICAO-KFCH|3.1|N-Normal|1|FM15-METAR|223|ICAO-KFCH|||||||||||||82|Derived||FM15-METAR|223|ICAO-KFCH|||||||||||||||||||||||||||||||||||||||||||||||||||||||||||||||||||||||||1012.5||1|FM15-METAR|223|ICAO-KFCH|||||||||||||||||||||||||||||||||||||||||||MET071METAR KFCH 041435Z AUTO 32006KT 10SM SCT055 OVC070 12/09 A2990 RMK A01=||F||223|ICAO-KFCH
USW00023167|FRESNO CHANDLER DWTN AP|2022|03|04|14|55|36.7333|-119.8167|84.1|12.0||1|FM15-METAR|223|ICAO-KFCH|9.0||1|FM15-METAR|223|ICAO-KFCH|||||||||||||330|N-Normal|1|FM15-METAR|223|ICAO-KFCH|2.6|N-Normal|1|FM15-METAR|223|ICAO-KFCH|||||||||||||82|Derived||FM15-METAR|223|ICAO-KFCH|||||||||||||||||||||||||||||||||||||||||||||||||||||||||||||||||||||||||1012.9||1|FM15-METAR|223|ICAO-KFCH|||||||||||||||||||||||||||||||||||||||||||MET071METAR KFCH 041455Z AUTO 33005KT 10SM BKN055 OVC070 12/09 A2991 RMK A01=||F||223|ICAO-KFCH
USW00023167|FRESNO CHANDLER DWTN AP|2022|03|04|15|10|36.7333|-119.8167|84.1|12.0||1|FM15-METAR|223|ICAO-KFCH|9.0||1|FM15-METAR|223|ICAO-KFCH|||||||||||||010|N-Normal|1|FM15-METAR|223|ICAO-KFCH|2.6|N-Normal|1|FM15-METAR|223|ICAO-KFCH|||||||||||||82|Derived||FM15-METAR|223|ICAO-KFCH|||||||||||||||||||||||||||||||||||||||||||||||||||||||||||||||||||||||||1012.9||1|FM15-METAR|223|ICAO-KFCH|||||||||||||||||||||||||||||||||||||||||||MET064METAR KFCH 041510Z AUTO 01005KT 10SM OVC055 12/09 A2991 RMK A01=||F||223|ICAO-KFCH
USW00023167|FRESNO CHANDLER DWTN AP|2022|03|04|15|35|36.7333|-119.8167|84.1|12.0||1|FM15-METAR|223|ICAO-KFCH|9.0||1|FM15-METAR|223|ICAO-KFCH|||||||||||||999|C-Calm|9|FM15-METAR|223|ICAO-KFCH|0.0|C-Calm|1|FM15-METAR|223|ICAO-KFCH|||||||||||||82|Derived||FM15-METAR|223|ICAO-KFCH|||||||||||||||||||||||||||||||||||||||||||||||||||||||||||||||||||||||||1013.5||1|FM15-METAR|223|ICAO-KFCH|||||||||||||||||||||||||||||||||||||||||||MET064METAR KFCH 041535Z AUTO 00000KT 10SM OVC055 12/09 A2993 RMK A01=||F||223|ICAO-KFCH
USW00023167|FRESNO CHANDLER DWTN AP|2022|03|04|15|50|36.7333|-119.8167|84.1|12.0||1|FM15-METAR|223|ICAO-KFCH|9.0||1|FM15-METAR|223|ICAO-KFCH|||||||||||||060|N-Normal|1|FM15-METAR|223|ICAO-KFCH|1.5|N-Normal|1|FM15-METAR|223|ICAO-KFCH|||||||||||||82|Derived||FM15-METAR|223|ICAO-KFCH|||||||||||||||||||||||||||||||||||||||||||||||||||||||||||||||||||||||||1013.5||1|FM15-METAR|223|ICAO-KFCH|||||||||||||||||||||||||||||||||||||||||||MET071METAR KFCH 041550Z AUTO 06003KT 10SM SCT025 OVC055 12/09 A2993 RMK A01=||F||223|ICAO-KFCH
USW00023167|FRESNO CHANDLER DWTN AP|2022|03|04|16|15|36.7333|-119.8167|84.1|||||||||||||||||||||||||||||||||||||||||||||||||||||||||||||||||||||||||||||||||||||||||||||||||||||||||||||||||||||||||||||||||||||||||||||||||||||||||||||||||||||||||||||||MET032METAR KFCH 041615Z AUTO RMK A01=||F||223|ICAO-KFCH
USW00023167|FRESNO CHANDLER DWTN AP|2022|03|04|16|35|36.7333|-119.8167|84.1|12.0||1|FM15-METAR|223|ICAO-KFCH|10.0||1|FM15-METAR|223|ICAO-KFCH|||||||||||||999|V-Variable|9|FM15-METAR|223|ICAO-KFCH|1.5|V-Variable|1|FM15-METAR|223|ICAO-KFCH|||||||||||||88|Derived||FM15-METAR|223|ICAO-KFCH|||||||||||||||||||||||||||||||||||||||||||||||||||||||||||||||||||||||||1014.2||1|FM15-METAR|223|ICAO-KFCH|||||||||||||||||||||||||||||||||||||||||||MET057METAR KFCH 041635Z AUTO VRB03KT 10SM 12/10 A2995 RMK A01=||F||223|ICAO-KFCH
USW00023167|FRESNO CHANDLER DWTN AP|2022|03|04|16|55|36.7333|-119.8167|84.1|12.0||1|FM15-METAR|223|ICAO-KFCH|9.0||1|FM15-METAR|223|ICAO-KFCH|||||||||||||999|C-Calm|9|FM15-METAR|223|ICAO-KFCH|0.0|C-Calm|1|FM15-METAR|223|ICAO-KFCH|||||||||||||82|Derived||FM15-METAR|223|ICAO-KFCH|||||||||||||||||||||||||||||||||||||||||||||||||||||||||||||||||||||||||1014.6||1|FM15-METAR|223|ICAO-KFCH|||||||||||||||||||||||||||||||||||||||||||MET057METAR KFCH 041655Z AUTO 00000KT 10SM 12/09 A2996 RMK A01=||F||223|ICAO-KFCH
USW00023167|FRESNO CHANDLER DWTN AP|2022|03|04|17|15|36.7333|-119.8167|84.1|13.0||1|FM15-METAR|223|ICAO-KFCH|9.0||1|FM15-METAR|223|ICAO-KFCH|||||||||||||999|C-Calm|9|FM15-METAR|223|ICAO-KFCH|0.0|C-Calm|1|FM15-METAR|223|ICAO-KFCH|||||||||||||77|Derived||FM15-METAR|223|ICAO-KFCH|||||||||||||||||||||||||||||||||||||||||||||||||||||||||||||||||||||||||1014.6||1|FM15-METAR|223|ICAO-KFCH|||||||||||||||||||||||||||||||||||||||||||MET071METAR KFCH 041715Z AUTO 00000KT 10SM FEW024 OVC060 13/09 A2996 RMK A01=||F||223|ICAO-KFCH
USW00023167|FRESNO CHANDLER DWTN AP|2022|03|04|17|35|36.7333|-119.8167|84.1|13.0||1|FM15-METAR|223|ICAO-KFCH|9.0||1|FM15-METAR|223|ICAO-KFCH|||||||||||||320|N-Normal|1|FM15-METAR|223|ICAO-KFCH|2.1|N-Normal|1|FM15-METAR|223|ICAO-KFCH|||||||||||||77|Derived||FM15-METAR|223|ICAO-KFCH|||||||||||||||||||||||||||||||||||||||||||||||||||||||||||||||||||||||||1014.9||1|FM15-METAR|223|ICAO-KFCH|||||||||||||||||||||||||||||||||||||||||||MET078METAR KFCH 041735Z AUTO 32004KT 10SM FEW018 FEW024 OVC060 13/09 A2997 RMK A01=||F||223|ICAO-KFCH
USW00023167|FRESNO CHANDLER DWTN AP|2022|03|04|17|55|36.7333|-119.8167|84.1|13.0||1|FM15-METAR|223|ICAO-KFCH|9.0||1|FM15-METAR|223|ICAO-KFCH|||||||||||||320|N-Normal|1|FM15-METAR|223|ICAO-KFCH|2.6|N-Normal|1|FM15-METAR|223|ICAO-KFCH|||||||||||||77|Derived||FM15-METAR|223|ICAO-KFCH|||||||||||||||||||||||||||||||||||||||||||||||||||||||||||||||||||||||||1014.9||1|FM15-METAR|223|ICAO-KFCH|||||||||||||||||||||||||||||||||||||||||||MET071METAR KFCH 041755Z AUTO 32005KT 10SM SCT020 OVC060 13/09 A2997 RMK A01=||F||223|ICAO-KFCH
USW00023167|FRESNO CHANDLER DWTN AP|2022|03|04|18|15|36.7333|-119.8167|84.1|14.0||1|FM15-METAR|223|ICAO-KFCH|9.0||1|FM15-METAR|223|ICAO-KFCH|||||||||||||999|C-Calm|9|FM15-METAR|223|ICAO-KFCH|0.0|C-Calm|1|FM15-METAR|223|ICAO-KFCH|||||||||||||72|Derived||FM15-METAR|223|ICAO-KFCH|||||||||||||||||||||||||||||||||||||||||||||||||||||||||||||||||||||||||1014.9||1|FM15-METAR|223|ICAO-KFCH|||||||||||||||||||||||||||||||||||||||||||MET071METAR KFCH 041815Z AUTO 00000KT 10SM BKN021 OVC065 14/09 A2997 RMK A01=||F||223|ICAO-KFCH
USW00023167|FRESNO CHANDLER DWTN AP|2022|03|04|18|35|36.7333|-119.8167|84.1|14.0||1|FM15-METAR|223|ICAO-KFCH|9.0||1|FM15-METAR|223|ICAO-KFCH|||||||||||||999|C-Calm|9|FM15-METAR|223|ICAO-KFCH|0.0|C-Calm|1|FM15-METAR|223|ICAO-KFCH|||||||||||||72|Derived||FM15-METAR|223|ICAO-KFCH|||||||||||||||||||||||||||||||||||||||||||||||||||||||||||||||||||||||||1014.9||1|FM15-METAR|223|ICAO-KFCH|||||||||||||||||||||||||||||||||||||||||||MET071METAR KFCH 041835Z AUTO 00000KT 10SM BKN020 OVC065 14/09 A2997 RMK A01=||F||223|ICAO-KFCH
USW00023167|FRESNO CHANDLER DWTN AP|2022|03|04|18|55|36.7333|-119.8167|84.1|14.0||1|FM15-METAR|223|ICAO-KFCH|10.0||1|FM15-METAR|223|ICAO-KFCH|||||||||||||999|V-Variable|9|FM15-METAR|223|ICAO-KFCH|2.6|V-Variable|1|FM15-METAR|223|ICAO-KFCH|||||||||||||77|Derived||FM15-METAR|223|ICAO-KFCH|||||||||||||||||||||||||||||||||||||||||||||||||||||||||||||||||||||||||1015.2||1|FM15-METAR|223|ICAO-KFCH|||||||||||||||||||||||||||||||||||||||||||MET071METAR KFCH 041855Z AUTO VRB05KT 10SM BKN020 OVC065 14/10 A2998 RMK A01=||F||223|ICAO-KFCH
USW00023167|FRESNO CHANDLER DWTN AP|2022|03|04|19|15|36.7333|-119.8167|84.1|14.0||1|FM15-METAR|223|ICAO-KFCH|9.0||1|FM15-METAR|223|ICAO-KFCH|||||||||||||100|N-Normal|1|FM15-METAR|223|ICAO-KFCH|2.1|N-Normal|1|FM15-METAR|223|ICAO-KFCH|||||||||||||72|Derived||FM15-METAR|223|ICAO-KFCH|||||||||||||||||||||||||||||||||||||||||||||||||||||||||||||||||||||||||1015.2||1|FM15-METAR|223|ICAO-KFCH|||||||||||||||||||||||||||||||||||||||||||MET071METAR KFCH 041915Z AUTO 10004KT 10SM FEW020 OVC065 14/09 A2998 RMK A01=||F||223|ICAO-KFCH
USW00023167|FRESNO CHANDLER DWTN AP|2022|03|04|19|35|36.7333|-119.8167|84.1|14.0||1|FM15-METAR|223|ICAO-KFCH|10.0||1|FM15-METAR|223|ICAO-KFCH|||||||||||||100|N-Normal|1|FM15-METAR|223|ICAO-KFCH|2.1|N-Normal|1|FM15-METAR|223|ICAO-KFCH|||||||||||||77|Derived||FM15-METAR|223|ICAO-KFCH|||||||||||||||||||||||||||||||||||||||||||||||||||||||||||||||||||||||||1015.2||1|FM15-METAR|223|ICAO-KFCH|||||||||||||||||||||||||||||||||||||||||||MET071METAR KFCH 041935Z AUTO 10004KT 10SM FEW022 OVC060 14/10 A2998 RMK A01=||F||223|ICAO-KFCH
USW00023167|FRESNO CHANDLER DWTN AP|2022|03|04|19|55|36.7333|-119.8167|84.1|14.0||1|FM15-METAR|223|ICAO-KFCH|10.0||1|FM15-METAR|223|ICAO-KFCH|||||||||||||160|N-Normal|1|FM15-METAR|223|ICAO-KFCH|3.1|N-Normal|1|FM15-METAR|223|ICAO-KFCH|||||||||||||77|Derived||FM15-METAR|223|ICAO-KFCH|||||||||||||||||||||||||||||||||||||||||||||||||||||||||||||||||||||||||1015.2||1|FM15-METAR|223|ICAO-KFCH|||||||||||||||||||||||||||||||||||||||||||MET078METAR KFCH 041955Z AUTO 16006KT 10SM SCT018 BKN023 OVC060 14/10 A2998 RMK A01=||F||223|ICAO-KFCH
USW00023167|FRESNO CHANDLER DWTN AP|2022|03|04|20|15|36.7333|-119.8167|84.1|14.0||1|FM15-METAR|223|ICAO-KFCH|10.0||1|FM15-METAR|223|ICAO-KFCH|||||||||||||140|N-Normal|1|FM15-METAR|223|ICAO-KFCH|4.1|N-Normal|1|FM15-METAR|223|ICAO-KFCH|||||||||||||77|Derived||FM15-METAR|223|ICAO-KFCH|||||||||||||||||||||||||||||||||||||||||||||||||||||||||||||||||||||||||1014.9||1|FM15-METAR|223|ICAO-KFCH|||||||||||||||||||||||||||||||||||||||||||MET078METAR KFCH 042015Z AUTO 14008KT 10SM BKN018 BKN024 OVC050 14/10 A2997 RMK A01=||F||223|ICAO-KFCH
USW00023167|FRESNO CHANDLER DWTN AP|2022|03|04|20|35|36.7333|-119.8167|84.1|14.0||1|FM15-METAR|223|ICAO-KFCH|10.0||1|FM15-METAR|223|ICAO-KFCH|||||||||||||150|N-Normal|1|FM15-METAR|223|ICAO-KFCH|3.6|N-Normal|1|FM15-METAR|223|ICAO-KFCH|||||||||||||77|Derived||FM15-METAR|223|ICAO-KFCH|||||||||||||||||||||||||||||||||||||||||||||||||||||||||||||||||||||||||1014.9||1|FM15-METAR|223|ICAO-KFCH|||||||||||||||||||||||||||||||||||||||||||MET078METAR KFCH 042035Z AUTO 15007KT 10SM SCT018 SCT026 BKN049 14/10 A2997 RMK A01=||F||223|ICAO-KFCH
USW00023167|FRESNO CHANDLER DWTN AP|2022|03|04|20|55|36.7333|-119.8167|84.1|14.0||1|FM15-METAR|223|ICAO-KFCH|10.0||1|FM15-METAR|223|ICAO-KFCH|||||||||||||140|N-Normal|1|FM15-METAR|223|ICAO-KFCH|4.1|N-Normal|1|FM15-METAR|223|ICAO-KFCH|||||||||||||77|Derived||FM15-METAR|223|ICAO-KFCH|||||||||||||||||||||||||||||||||||||||||||||||||||||||||||||||||||||||||1014.9||1|FM15-METAR|223|ICAO-KFCH|||||||||||||||||||||||||||||||||||||||||||MET071METAR KFCH 042055Z AUTO 14008KT 10SM SCT018 OVC047 14/10 A2997 RMK A01=||F||223|ICAO-KFCH
USW00023167|FRESNO CHANDLER DWTN AP|2022|03|04|21|15|36.7333|-119.8167|84.1|14.0||1|FM15-METAR|223|ICAO-KFCH|10.0||1|FM15-METAR|223|ICAO-KFCH|||||||||||||130|N-Normal|1|FM15-METAR|223|ICAO-KFCH|4.1|N-Normal|1|FM15-METAR|223|ICAO-KFCH|||||||||||||77|Derived||FM15-METAR|223|ICAO-KFCH|||||||||||||||||||||||||||||||||||||||||||||||||||||||||||||||||||||||||1014.6||1|FM15-METAR|223|ICAO-KFCH|||||||||||||||||||||||||||||||||||||||||||MET078METAR KFCH 042115Z AUTO 13008KT 10SM FEW017 SCT043 BKN048 14/10 A2996 RMK A01=||F||223|ICAO-KFCH
USW00023167|FRESNO CHANDLER DWTN AP|2022|03|04|21|35|36.7333|-119.8167|84.1|14.0||1|FM15-METAR|223|ICAO-KFCH|11.0||1|FM15-METAR|223|ICAO-KFCH|||||||||||||130|N-Normal|1|FM15-METAR|223|ICAO-KFCH|4.1|N-Normal|1|FM15-METAR|223|ICAO-KFCH|||||||||||||82|Derived||FM15-METAR|223|ICAO-KFCH|||||||||||||||||||||||||||||||||||||||||||||||||||||||||||||||||||||||||1014.9||1|FM15-METAR|223|ICAO-KFCH|||||||||||||||||||||||||||||||||||||||||||MET078METAR KFCH 042135Z AUTO 13008KT 10SM FEW017 SCT028 BKN044 14/11 A2997 RMK A01=||F||223|ICAO-KFCH
USW00023167|FRESNO CHANDLER DWTN AP|2022|03|04|21|55|36.7333|-119.8167|84.1|13.0||1|FM15-METAR|223|ICAO-KFCH|11.0||1|FM15-METAR|223|ICAO-KFCH|||||||||||||140|N-Normal|1|FM15-METAR|223|ICAO-KFCH|3.6|N-Normal|1|FM15-METAR|223|ICAO-KFCH|||||||||||||88|Derived||FM15-METAR|223|ICAO-KFCH|||||||||||||||||||||||||||||||||||||||||||||||||||||||||||||||||||||||||1014.9||1|FM15-METAR|223|ICAO-KFCH|||||||||||||||||||||||||||||||||||||||||||MET078METAR KFCH 042155Z AUTO 14007KT 10SM FEW029 BKN042 BKN050 13/11 A2997 RMK A01=||F||223|ICAO-KFCH
USW00023167|FRESNO CHANDLER DWTN AP|2022|03|04|22|15|36.7333|-119.8167|84.1|13.0||1|FM15-METAR|223|ICAO-KFCH|12.0||1|FM15-METAR|223|ICAO-KFCH|||||||||||||999|V-Variable|9|FM15-METAR|223|ICAO-KFCH|2.1|V-Variable|1|FM15-METAR|223|ICAO-KFCH|||||||||||||94|Derived||FM15-METAR|223|ICAO-KFCH|||||||||||||||||||||||||||||||||||||||||||||||||||||||||||||||||||||||||1015.2||1|FM15-METAR|223|ICAO-KFCH|||||||||||||||||||||||||||||||||||||||||||MET078METAR KFCH 042215Z AUTO VRB04KT 10SM SCT013 SCT026 BKN031 13/12 A2998 RMK A01=||F||223|ICAO-KFCH
USW00023167|FRESNO CHANDLER DWTN AP|2022|03|04|22|35|36.7333|-119.8167|84.1|13.0||1|FM15-METAR|223|ICAO-KFCH|12.0||1|FM15-METAR|223|ICAO-KFCH|||||||||||||||||||||||||||||||||||||94|Derived||FM15-METAR|223|ICAO-KFCH|||||||||||||||||||||||||||||||||||||||||||||||||||||||||||||||||||||||||1015.2||1|FM15-METAR|223|ICAO-KFCH|||||||||||||||||||||||||||||||||||||||||||MET070METAR KFCH 042235Z AUTO 10SM FEW013 BKN028 OVC035 13/12 A2998 RMK A01=||F||223|ICAO-KFCH
USW00023167|FRESNO CHANDLER DWTN AP|2022|03|04|22|55|36.7333|-119.8167|84.1|13.0||1|FM15-METAR|223|ICAO-KFCH|12.0||1|FM15-METAR|223|ICAO-KFCH|||||||||||||150|N-Normal|1|FM15-METAR|223|ICAO-KFCH|3.1|N-Normal|1|FM15-METAR|223|ICAO-KFCH|||||||||||||94|Derived||FM15-METAR|223|ICAO-KFCH|||||||||||||||||||||||||||||||||||||||||||||||||||||||||||||||||||||||||1015.2||1|FM15-METAR|223|ICAO-KFCH|||||||||||||||||||||||||||||||||||||||||||MET052METAR KFCH 042255Z AUTO 15006KT 13/12 A2998 RMK A01=||F||223|ICAO-KFCH
USW00023167|FRESNO CHANDLER DWTN AP|2022|03|04|23|15|36.7333|-119.8167|84.1|13.0||1|FM15-METAR|223|ICAO-KFCH|12.0||1|FM15-METAR|223|ICAO-KFCH|||||||||||||140|N-Normal|1|FM15-METAR|223|ICAO-KFCH|3.1|N-Normal|1|FM15-METAR|223|ICAO-KFCH|||||||||||||94|Derived||FM15-METAR|223|ICAO-KFCH|||||||||||||||||||||||||||||||||||||||||||||||||||||||||||||||||||||||||1015.2||1|FM15-METAR|223|ICAO-KFCH|||||||||||||||||||||||||||||||||||||||||||MET057METAR KFCH 042315Z AUTO 14006KT 10SM 13/12 A2998 RMK A01=||F||223|ICAO-KFCH
USW00023167|FRESNO CHANDLER DWTN AP|2022|03|04|23|35|36.7333|-119.8167|84.1|13.0||1|FM15-METAR|223|ICAO-KFCH|12.0||1|FM15-METAR|223|ICAO-KFCH|||||||||||||130|N-Normal|1|FM15-METAR|223|ICAO-KFCH|4.1|N-Normal|1|FM15-METAR|223|ICAO-KFCH|||||||||||||94|Derived||FM15-METAR|223|ICAO-KFCH|||||||||||||||||||||||||||||||||||||||||||||||||||||||||||||||||||||||||1015.2||1|FM15-METAR|223|ICAO-KFCH|||||||||||||||||||||||||||||||||||||||||||MET078METAR KFCH 042335Z AUTO 13008KT 10SM SCT009 BKN013 OVC022 13/12 A2998 RMK A01=||F||223|ICAO-KFCH
USW00023167|FRESNO CHANDLER DWTN AP|2022|03|04|23|55|36.7333|-119.8167|84.1|13.0||1|FM15-METAR|223|ICAO-KFCH|12.0||1|FM15-METAR|223|ICAO-KFCH|||||||||||||130|N-Normal|1|FM15-METAR|223|ICAO-KFCH|3.6|N-Normal|1|FM15-METAR|223|ICAO-KFCH|||||||||||||94|Derived||FM15-METAR|223|ICAO-KFCH|||||||||||||||||||||||||||||||||||||||||||||||||||||||||||||||||||||||||1015.2||1|FM15-METAR|223|ICAO-KFCH|||||||||||||||||||||||||||||||||||||||||||MET071METAR KFCH 042355Z AUTO 13007KT 10SM BKN009 OVC013 13/12 A2998 RMK A01=||F||223|ICAO-KFCH
USW00023167|FRESNO CHANDLER DWTN AP|2022|03|05|00|15|36.7333|-119.8167|84.1|13.0||1|FM15-METAR|223|ICAO-KFCH|12.0||1|FM15-METAR|223|ICAO-KFCH|||||||||||||120|N-Normal|1|FM15-METAR|223|ICAO-KFCH|5.7|N-Normal|1|FM15-METAR|223|ICAO-KFCH|||||||||||||94|Derived||FM15-METAR|223|ICAO-KFCH|||||||||||||||||||||||||||||||||||||||||||||||||||||||||||||||||||||||||1014.9||1|FM15-METAR|223|ICAO-KFCH|||||||||||||||||||||||||||||||||||||||||||MET078METAR KFCH 050015Z AUTO 12011KT 10SM SCT010 BKN019 OVC055 13/12 A2997 RMK A01=||F||223|ICAO-KFCH
USW00023167|FRESNO CHANDLER DWTN AP|2022|03|05|00|35|36.7333|-119.8167|84.1|13.0||1|FM15-METAR|223|ICAO-KFCH|12.0||1|FM15-METAR|223|ICAO-KFCH|||||||||||||120|N-Normal|1|FM15-METAR|223|ICAO-KFCH|4.1|N-Normal|1|FM15-METAR|223|ICAO-KFCH|||||||||||||94|Derived||FM15-METAR|223|ICAO-KFCH|||||||||||||||||||||||||||||||||||||||||||||||||||||||||||||||||||||||||1014.9||1|FM15-METAR|223|ICAO-KFCH|||||||||||||||||||||||||||||||||||||||||||MET078METAR KFCH 050035Z AUTO 12008KT 10SM SCT012 BKN055 OVC080 13/12 A2997 RMK A01=||F||223|ICAO-KFCH
USW00023167|FRESNO CHANDLER DWTN AP|2022|03|05|00|55|36.7333|-119.8167|84.1|13.0||1|FM15-METAR|223|ICAO-KFCH|11.0||1|FM15-METAR|223|ICAO-KFCH|||||||||||||160|N-Normal|1|FM15-METAR|223|ICAO-KFCH|3.1|N-Normal|1|FM15-METAR|223|ICAO-KFCH|||||||||||||88|Derived||FM15-METAR|223|ICAO-KFCH|||||||||||||||||||||||||||||||||||||||||||||||||||||||||||||||||||||||||1015.2||1|FM15-METAR|223|ICAO-KFCH|||||||||||||||||||||||||||||||||||||||||||MET078METAR KFCH 050055Z AUTO 16006KT 10SM FEW012 FEW016 SCT030 13/11 A2998 RMK A01=||F||223|ICAO-KFCH
USW00023167|FRESNO CHANDLER DWTN AP|2022|03|05|01|15|36.7333|-119.8167|84.1|13.0||1|FM15-METAR|223|ICAO-KFCH|12.0||1|FM15-METAR|223|ICAO-KFCH|||||||||||||120|N-Normal|1|FM15-METAR|223|ICAO-KFCH|3.6|N-Normal|1|FM15-METAR|223|ICAO-KFCH|||||||||||||94|Derived||FM15-METAR|223|ICAO-KFCH|||||||||||||||||||||||||||||||||||||||||||||||||||||||||||||||||||||||||1014.9||1|FM15-METAR|223|ICAO-KFCH|||||||||||||||||||||||||||||||||||||||||||MET078METAR KFCH 050115Z AUTO 12007KT 10SM FEW015 FEW038 SCT080 13/12 A2997 RMK A01=||F||223|ICAO-KFCH
USW00023167|FRESNO CHANDLER DWTN AP|2022|03|05|01|35|36.7333|-119.8167|84.1|13.0||1|FM15-METAR|223|ICAO-KFCH|11.0||1|FM15-METAR|223|ICAO-KFCH|||||||||||||110|N-Normal|1|FM15-METAR|223|ICAO-KFCH|2.6|N-Normal|1|FM15-METAR|223|ICAO-KFCH|||||||||||||88|Derived||FM15-METAR|223|ICAO-KFCH|||||||||||||||||||||||||||||||||||||||||||||||||||||||||||||||||||||||||1015.2||1|FM15-METAR|223|ICAO-KFCH|||||||||||||||||||||||||||||||||||||||||||MET078METAR KFCH 050135Z AUTO 11005KT 10SM FEW012 SCT080 SCT090 13/11 A2998 RMK A01=||F||223|ICAO-KFCH
USW00023167|FRESNO CHANDLER DWTN AP|2022|03|05|01|55|36.7333|-119.8167|84.1|13.0||1|FM15-METAR|223|ICAO-KFCH|11.0||1|FM15-METAR|223|ICAO-KFCH|||||||||||||110|N-Normal|1|FM15-METAR|223|ICAO-KFCH|3.1|N-Normal|1|FM15-METAR|223|ICAO-KFCH|||||||||||||88|Derived||FM15-METAR|223|ICAO-KFCH|||||||||||||||||||||||||||||||||||||||||||||||||||||||||||||||||||||||||1015.2||1|FM15-METAR|223|ICAO-KFCH|||||||||||||||||||||||||||||||||||||||||||MET078METAR KFCH 050155Z AUTO 11006KT 10SM FEW029 SCT044 BKN065 13/11 A2998 RMK A01=||F||223|ICAO-KFCH
USW00023167|FRESNO CHANDLER DWTN AP|2022|03|05|02|15|36.7333|-119.8167|84.1|12.0||1|FM15-METAR|223|ICAO-KFCH|12.0||1|FM15-METAR|223|ICAO-KFCH|||||||||||||120|N-Normal|1|FM15-METAR|223|ICAO-KFCH|2.6|N-Normal|1|FM15-METAR|223|ICAO-KFCH|||||||||||||100|Derived||FM15-METAR|223|ICAO-KFCH|||||||||||||||||||||||||||||||||||||||||||||||||||||||||||||||||||||||||1014.9||1|FM15-METAR|223|ICAO-KFCH|||||||||||||||||||||||||||||||||||||||||||MET078METAR KFCH 050215Z AUTO 12005KT 10SM FEW022 SCT032 BKN040 12/12 A2997 RMK A01=||F||223|ICAO-KFCH
USW00023167|FRESNO CHANDLER DWTN AP|2022|03|05|02|35|36.7333|-119.8167|84.1|12.0||1|FM15-METAR|223|ICAO-KFCH|12.0||1|FM15-METAR|223|ICAO-KFCH|||||||||||||140|N-Normal|1|FM15-METAR|223|ICAO-KFCH|3.1|N-Normal|1|FM15-METAR|223|ICAO-KFCH|||||||||||||100|Derived||FM15-METAR|223|ICAO-KFCH|||||||||||||||||||||||||||||||||||||||||||||||||||||||||||||||||||||||||1015.2||1|FM15-METAR|223|ICAO-KFCH|||||||||||||||||||||||||||||||||||||||||||MET057METAR KFCH 050235Z AUTO 14006KT 10SM 12/12 A2998 RMK A01=||F||223|ICAO-KFCH
USW00023167|FRESNO CHANDLER DWTN AP|2022|03|05|02|55|36.7333|-119.8167|84.1|12.0||1|FM15-METAR|223|ICAO-KFCH|11.0||1|FM15-METAR|223|ICAO-KFCH|||||||||||||040|N-Normal|1|FM15-METAR|223|ICAO-KFCH|1.5|N-Normal|1|FM15-METAR|223|ICAO-KFCH|||||||||||||94|Derived||FM15-METAR|223|ICAO-KFCH|||||||||||||||||||||||||||||||||||||||||||||||||||||||||||||||||||||||||1015.9||1|FM15-METAR|223|ICAO-KFCH|||||||||||||||||||||||||||||||||||||||||||MET071METAR KFCH 050255Z AUTO 04003KT 10SM BKN010 OVC033 12/11 A3000 RMK A01=||F||223|ICAO-KFCH
USW00023167|FRESNO CHANDLER DWTN AP|2022|03|05|03|15|36.7333|-119.8167|84.1|12.0||1|FM15-METAR|223|ICAO-KFCH|12.0||1|FM15-METAR|223|ICAO-KFCH|||||||||||||140|N-Normal|1|FM15-METAR|223|ICAO-KFCH|1.5|N-Normal|1|FM15-METAR|223|ICAO-KFCH|||||||||||||100|Derived||FM15-METAR|223|ICAO-KFCH|||||||||||||||||||||||||||||||||||||||||||||||||||||||||||||||||||||||||1015.9||1|FM15-METAR|223|ICAO-KFCH|||||||||||||||||||||||||||||||||||||||||||MET071METAR KFCH 050315Z AUTO 14003KT 10SM BKN010 OVC018 12/12 A3000 RMK A01=||F||223|ICAO-KFCH
USW00023167|FRESNO CHANDLER DWTN AP|2022|03|05|03|35|36.7333|-119.8167|84.1|12.0||1|FM15-METAR|223|ICAO-KFCH|12.0||1|FM15-METAR|223|ICAO-KFCH|||||||||||||999|C-Calm|9|FM15-METAR|223|ICAO-KFCH|0.0|C-Calm|1|FM15-METAR|223|ICAO-KFCH|||||||||||||100|Derived||FM15-METAR|223|ICAO-KFCH|||||||||||||||||||||||||||||||||||||||||||||||||||||||||||||||||||||||||1016.3||1|FM15-METAR|223|ICAO-KFCH|||||||||||||||||||||||||||||||||||||||||||MET078METAR KFCH 050335Z AUTO 00000KT 10SM FEW013 BKN019 OVC075 12/12 A3001 RMK A01=||F||223|ICAO-KFCH
USW00023167|FRESNO CHANDLER DWTN AP|2022|03|05|03|55|36.7333|-119.8167|84.1|12.0||1|FM15-METAR|223|ICAO-KFCH|12.0||1|FM15-METAR|223|ICAO-KFCH|||||||||||||280|N-Normal|1|FM15-METAR|223|ICAO-KFCH|3.1|N-Normal|1|FM15-METAR|223|ICAO-KFCH|||||||||||||100|Derived||FM15-METAR|223|ICAO-KFCH|||||||||||||||||||||||||||||||||||||||||||||||||||||||||||||||||||||||||1016.6||1|FM15-METAR|223|ICAO-KFCH|||||||||||||||||||||||||||||||||||||||||||MET078METAR KFCH 050355Z AUTO 28006KT 10SM SCT011 BKN029 OVC080 12/12 A3002 RMK A01=||F||223|ICAO-KFCH
USW00023167|FRESNO CHANDLER DWTN AP|2022|03|05|04|15|36.7333|-119.8167|84.1|11.0||1|FM15-METAR|223|ICAO-KFCH|7.0||1|FM15-METAR|223|ICAO-KFCH|||||||||||||310|N-Normal|1|FM15-METAR|223|ICAO-KFCH|7.2|N-Normal|1|FM15-METAR|223|ICAO-KFCH|||||||||||||77|Derived||FM15-METAR|223|ICAO-KFCH|||||||||||||||||||||||||||||||||||||||||||||||||||||||||||||||||||||||||1016.9||1|FM15-METAR|223|ICAO-KFCH|||||||||||||||||||||||||||||||||||||||||||MET078METAR KFCH 050415Z AUTO 31014KT 10SM FEW010 FEW024 OVC038 11/07 A3003 RMK A01=||F||223|ICAO-KFCH
USW00023167|FRESNO CHANDLER DWTN AP|2022|03|05|04|35|36.7333|-119.8167|84.1|10.0||1|FM15-METAR|223|ICAO-KFCH|6.0||1|FM15-METAR|223|ICAO-KFCH|||||||||||||||||||||||||||||||||||||76|Derived||FM15-METAR|223|ICAO-KFCH|||||||||||||||||||||||||||||||||||||||||||||||||||||||||||||||||||||||||1017.3||1|FM15-METAR|223|ICAO-KFCH|||||||||||||||||||||||||||||||||||||||||||MET063METAR KFCH 050435Z AUTO 10SM SCT040 OVC046 10/06 A3004 RMK A01=||F||223|ICAO-KFCH
USW00023167|FRESNO CHANDLER DWTN AP|2022|03|05|04|50|36.7333|-119.8167|84.1|10.0||1|FM15-METAR|223|ICAO-KFCH|4.0||1|FM15-METAR|223|ICAO-KFCH|||||||||||||310|N-Normal|1|FM15-METAR|223|ICAO-KFCH|8.2|N-Normal|1|FM15-METAR|223|ICAO-KFCH|11.3||1|FM15-METAR|223|ICAO-KFCH|||||||67|Derived||FM15-METAR|223|ICAO-KFCH|||||||||||||||||||||||||||||||||||||||||||||||||||||||||||||||||||||||||1017.3||1|FM15-METAR|223|ICAO-KFCH|||||||||||||||||||||||||||||||||||||||||||MET067METAR KFCH 050450Z AUTO 31016G22KT 10SM OVC046 10/04 A3004 RMK A01=||F||223|ICAO-KFCH
USW00023167|FRESNO CHANDLER DWTN AP|2022|03|05|05|15|36.7333|-119.8167|84.1|10.0||1|FM15-METAR|223|ICAO-KFCH|-1.0||1|FM15-METAR|223|ICAO-KFCH|||||||||||||310|N-Normal|1|FM15-METAR|223|ICAO-KFCH|11.3|N-Normal|1|FM15-METAR|223|ICAO-KFCH|15.4||1|FM15-METAR|223|ICAO-KFCH|||||||47|Derived||FM15-METAR|223|ICAO-KFCH|||||||||||||||||||||||||||||||||||||||||||||||||||||||||||||||||||||||||1017.3||1|FM15-METAR|223|ICAO-KFCH|||||||||||||||||||||||||||||||||||||||||||MET068METAR KFCH 050515Z AUTO 31022G30KT 10SM OVC050 10/M01 A3004 RMK A01=||F||223|ICAO-KFCH
USW00023167|FRESNO CHANDLER DWTN AP|2022|03|05|05|35|36.7333|-119.8167|84.1|9.0||1|FM15-METAR|223|ICAO-KFCH|0.0||1|FM15-METAR|223|ICAO-KFCH|||||||||||||310|N-Normal|1|FM15-METAR|223|ICAO-KFCH|7.7|N-Normal|1|FM15-METAR|223|ICAO-KFCH|12.4||1|FM15-METAR|223|ICAO-KFCH|||||||54|Derived||FM15-METAR|223|ICAO-KFCH|||||||||||||||||||||||||||||||||||||||||||||||||||||||||||||||||||||||||1017.9||1|FM15-METAR|223|ICAO-KFCH|||||||||||||||||||||||||||||||||||||||||||MET068METAR KFCH 050535Z AUTO 31015G24KT 10SM OVC055 09/M00 A3006 RMK A01=||F||223|ICAO-KFCH
USW00023167|FRESNO CHANDLER DWTN AP|2022|03|05|05|50|36.7333|-119.8167|84.1|9.0||1|FM15-METAR|223|ICAO-KFCH|0.0||1|FM15-METAR|223|ICAO-KFCH|||||||||||||300|N-Normal|1|FM15-METAR|223|ICAO-KFCH|10.3|N-Normal|1|FM15-METAR|223|ICAO-KFCH|||||||||||||54|Derived||FM15-METAR|223|ICAO-KFCH|||||||||||||||||||||||||||||||||||||||||||||||||||||||||||||||||||||||||1017.9||1|FM15-METAR|223|ICAO-KFCH|||||||||||||||||||||||||||||||||||||||||||MET065METAR KFCH 050550Z AUTO 30020KT 10SM OVC060 09/M00 A3006 RMK A01=||F||223|ICAO-KFCH
USW00023167|FRESNO CHANDLER DWTN AP|2022|03|05|06|15|36.7333|-119.8167|84.1|9.0||1|FM15-METAR|223|ICAO-KFCH|1.0||1|FM15-METAR|223|ICAO-KFCH|||||||||||||300|N-Normal|1|FM15-METAR|223|ICAO-KFCH|10.3|N-Normal|1|FM15-METAR|223|ICAO-KFCH|13.4||1|FM15-METAR|223|ICAO-KFCH|||||||58|Derived||FM15-METAR|223|ICAO-KFCH|||||||||||||||||||||||||||||||||||||||||||||||||||||||||||||||||||||||||1017.9||1|FM15-METAR|223|ICAO-KFCH|||||||||||||||||||||||||||||||||||||||||||MET067METAR KFCH 050615Z AUTO 30020G26KT 10SM OVC065 09/01 A3006 RMK A01=||F||223|ICAO-KFCH
USW00023167|FRESNO CHANDLER DWTN AP|2022|03|05|06|35|36.7333|-119.8167|84.1|8.0||1|FM15-METAR|223|ICAO-KFCH|1.0||1|FM15-METAR|223|ICAO-KFCH|||||||||||||310|N-Normal|1|FM15-METAR|223|ICAO-KFCH|7.2|N-Normal|1|FM15-METAR|223|ICAO-KFCH|11.8||1|FM15-METAR|223|ICAO-KFCH|||||||62|Derived||FM15-METAR|223|ICAO-KFCH|||||||||||||||||||||||||||||||||||||||||||||||||||||||||||||||||||||||||1017.9||1|FM15-METAR|223|ICAO-KFCH|||||||||||||||||||||||||||||||||||||||||||MET067METAR KFCH 050635Z AUTO 31014G23KT 10SM OVC070 08/01 A3006 RMK A01=||F||223|ICAO-KFCH
USW00023167|FRESNO CHANDLER DWTN AP|2022|03|05|06|55|36.7333|-119.8167|84.1|8.0||1|FM15-METAR|223|ICAO-KFCH|1.0||1|FM15-METAR|223|ICAO-KFCH|||||||||||||310|N-Normal|1|FM15-METAR|223|ICAO-KFCH|5.1|N-Normal|1|FM15-METAR|223|ICAO-KFCH|9.3||1|FM15-METAR|223|ICAO-KFCH|||||||62|Derived||FM15-METAR|223|ICAO-KFCH|||||||||||||||||||||||||||||||||||||||||||||||||||||||||||||||||||||||||1018.3||1|FM15-METAR|223|ICAO-KFCH|||||||||||||||||||||||||||||||||||||||||||MET067METAR KFCH 050655Z AUTO 31010G18KT 10SM OVC075 08/01 A3007 RMK A01=||F||223|ICAO-KFCH
USW00023167|FRESNO CHANDLER DWTN AP|2022|03|05|07|15|36.7333|-119.8167|84.1|8.0||1|FM15-METAR|223|ICAO-KFCH|1.0||1|FM15-METAR|223|ICAO-KFCH|||||||||||||310|N-Normal|1|FM15-METAR|223|ICAO-KFCH|4.6|N-Normal|1|FM15-METAR|223|ICAO-KFCH|7.7||1|FM15-METAR|223|ICAO-KFCH|||||||62|Derived||FM15-METAR|223|ICAO-KFCH|||||||||||||||||||||||||||||||||||||||||||||||||||||||||||||||||||||||||1018.3||1|FM15-METAR|223|ICAO-KFCH|||||||||||||||||||||||||||||||||||||||||||MET074METAR KFCH 050715Z AUTO 31009G15KT 10SM SCT080 BKN100 08/01 A3007 RMK A01=||F||223|ICAO-KFCH
USW00023167|FRESNO CHANDLER DWTN AP|2022|03|05|07|35|36.7333|-119.8167|84.1|7.0||1|FM15-METAR|223|ICAO-KFCH|1.0||1|FM15-METAR|223|ICAO-KFCH|||||||||||||||||||||||||||||||||||||66|Derived||FM15-METAR|223|ICAO-KFCH|||||||||||||||||||||||||||||||||||||||||||||||||||||||||||||||||||||||||1018.6||1|FM15-METAR|223|ICAO-KFCH|||||||||||||||||||||||||||||||||||||||||||MET044METAR KFCH 050735Z AUTO 07/01 A3008 RMK A01=||F||223|ICAO-KFCH
USW00023167|FRESNO CHANDLER DWTN AP|2022|03|05|07|55|36.7333|-119.8167|84.1|7.0||1|FM15-METAR|223|ICAO-KFCH|1.0||1|FM15-METAR|223|ICAO-KFCH|||||||||||||310|N-Normal|1|FM15-METAR|223|ICAO-KFCH|4.6|N-Normal|1|FM15-METAR|223|ICAO-KFCH|7.2||1|FM15-METAR|223|ICAO-KFCH|||||||66|Derived||FM15-METAR|223|ICAO-KFCH|||||||||||||||||||||||||||||||||||||||||||||||||||||||||||||||||||||||||1018.6||1|FM15-METAR|223|ICAO-KFCH|||||||||||||||||||||||||||||||||||||||||||MET060METAR KFCH 050755Z AUTO 31009G14KT 10SM 07/01 A3008 RMK A01=||F||223|ICAO-KFCH
USW00023167|FRESNO CHANDLER DWTN AP|2022|03|05|08|10|36.7333|-119.8167|84.1|7.0||1|FM15-METAR|223|ICAO-KFCH|1.0||1|FM15-METAR|223|ICAO-KFCH|||||||||||||320|N-Normal|1|FM15-METAR|223|ICAO-KFCH|4.1|N-Normal|1|FM15-METAR|223|ICAO-KFCH|||||||||||||66|Derived||FM15-METAR|223|ICAO-KFCH|||||||||||||||||||||||||||||||||||||||||||||||||||||||||||||||||||||||||1018.6||1|FM15-METAR|223|ICAO-KFCH|||||||||||||||||||||||||||||||||||||||||||MET061METAR KFCH 050810Z AUTO 32008KT 10SM CLR 07/01 A3008 RMK A01=||F||223|ICAO-KFCH
USW00023167|FRESNO CHANDLER DWTN AP|2022|03|05|08|35|36.7333|-119.8167|84.1|7.0||1|FM15-METAR|223|ICAO-KFCH|1.0||1|FM15-METAR|223|ICAO-KFCH|||||||||||||320|N-Normal|1|FM15-METAR|223|ICAO-KFCH|4.1|N-Normal|1|FM15-METAR|223|ICAO-KFCH|||||||||||||66|Derived||FM15-METAR|223|ICAO-KFCH|||||||||||||||||||||||||||||||||||||||||||||||||||||||||||||||||||||||||1019.0||1|FM15-METAR|223|ICAO-KFCH|||||||||||||||||||||||||||||||||||||||||||MET064METAR KFCH 050835Z AUTO 32008KT 10SM FEW036 07/01 A3009 RMK A01=||F||223|ICAO-KFCH
USW00023167|FRESNO CHANDLER DWTN AP|2022|03|05|08|55|36.7333|-119.8167|84.1|7.0||1|FM15-METAR|223|ICAO-KFCH|1.0||1|FM15-METAR|223|ICAO-KFCH|||||||||||||330|N-Normal|1|FM15-METAR|223|ICAO-KFCH|2.6|N-Normal|1|FM15-METAR|223|ICAO-KFCH|||||||||||||66|Derived||FM15-METAR|223|ICAO-KFCH|||||||||||||||||||||||||||||||||||||||||||||||||||||||||||||||||||||||||1018.6||1|FM15-METAR|223|ICAO-KFCH|||||||||||||||||||||||||||||||||||||||||||MET061METAR KFCH 050855Z AUTO 33005KT 10SM CLR 07/01 A3008 RMK A01=||F||223|ICAO-KFCH
USW00023167|FRESNO CHANDLER DWTN AP|2022|03|05|09|15|36.7333|-119.8167|84.1|6.0||1|FM15-METAR|223|ICAO-KFCH|1.0||1|FM15-METAR|223|ICAO-KFCH|||||||||||||340|N-Normal|1|FM15-METAR|223|ICAO-KFCH|2.1|N-Normal|1|FM15-METAR|223|ICAO-KFCH|||||||||||||71|Derived||FM15-METAR|223|ICAO-KFCH|||||||||||||||||||||||||||||||||||||||||||||||||||||||||||||||||||||||||1018.6||1|FM15-METAR|223|ICAO-KFCH|||||||||||||||||||||||||||||||||||||||||||MET061METAR KFCH 050915Z AUTO 34004KT 10SM CLR 06/01 A3008 RMK A01=||F||223|ICAO-KFCH
USW00023167|FRESNO CHANDLER DWTN AP|2022|03|05|09|35|36.7333|-119.8167|84.1|6.0||1|FM15-METAR|223|ICAO-KFCH|1.0||1|FM15-METAR|223|ICAO-KFCH|||||||||||||360|N-Normal|1|FM15-METAR|223|ICAO-KFCH|1.5|N-Normal|1|FM15-METAR|223|ICAO-KFCH|||||||||||||71|Derived||FM15-METAR|223|ICAO-KFCH|||||||||||||||||||||||||||||||||||||||||||||||||||||||||||||||||||||||||1018.6||1|FM15-METAR|223|ICAO-KFCH|||||||||||||||||||||||||||||||||||||||||||MET071METAR KFCH 050935Z AUTO 36003KT 10SM FEW100 BKN120 06/01 A3008 RMK A01=||F||223|ICAO-KFCH
USW00023167|FRESNO CHANDLER DWTN AP|2022|03|05|09|55|36.7333|-119.8167|84.1|6.0||1|FM15-METAR|223|ICAO-KFCH|1.0||1|FM15-METAR|223|ICAO-KFCH|||||||||||||220|N-Normal|1|FM15-METAR|223|ICAO-KFCH|2.1|N-Normal|1|FM15-METAR|223|ICAO-KFCH|||||||||||||71|Derived||FM15-METAR|223|ICAO-KFCH|||||||||||||||||||||||||||||||||||||||||||||||||||||||||||||||||||||||||1018.6||1|FM15-METAR|223|ICAO-KFCH|||||||||||||||||||||||||||||||||||||||||||MET078METAR KFCH 050955Z AUTO 22004KT 10SM FEW075 BKN095 OVC120 06/01 A3008 RMK A01=||F||223|ICAO-KFCH
USW00023167|FRESNO CHANDLER DWTN AP|2022|03|05|10|15|36.7333|-119.8167|84.1|5.0||1|FM15-METAR|223|ICAO-KFCH|2.0||1|FM15-METAR|223|ICAO-KFCH|||||||||||||999|C-Calm|9|FM15-METAR|223|ICAO-KFCH|0.0|C-Calm|1|FM15-METAR|223|ICAO-KFCH|||||||||||||81|Derived||FM15-METAR|223|ICAO-KFCH|||||||||||||||||||||||||||||||||||||||||||||||||||||||||||||||||||||||||1018.3||1|FM15-METAR|223|ICAO-KFCH|||||||||||||||||||||||||||||||||||||||||||MET071METAR KFCH 051015Z AUTO 00000KT 10SM BKN090 BKN120 05/02 A3007 RMK A01=||F||223|ICAO-KFCH
USW00023167|FRESNO CHANDLER DWTN AP|2022|03|05|10|35|36.7333|-119.8167|84.1|5.0||1|FM15-METAR|223|ICAO-KFCH|2.0||1|FM15-METAR|223|ICAO-KFCH|||||||||||||999|C-Calm|9|FM15-METAR|223|ICAO-KFCH|0.0|C-Calm|1|FM15-METAR|223|ICAO-KFCH|||||||||||||81|Derived||FM15-METAR|223|ICAO-KFCH|||||||||||||||||||||||||||||||||||||||||||||||||||||||||||||||||||||||||1018.3||1|FM15-METAR|223|ICAO-KFCH|||||||||||||||||||||||||||||||||||||||||||MET071METAR KFCH 051035Z AUTO 00000KT 10SM BKN080 OVC090 05/02 A3007 RMK A01=||F||223|ICAO-KFCH
USW00023167|FRESNO CHANDLER DWTN AP|2022|03|05|10|55|36.7333|-119.8167|84.1|5.0||1|FM15-METAR|223|ICAO-KFCH|2.0||1|FM15-METAR|223|ICAO-KFCH|||||||||||||080|N-Normal|1|FM15-METAR|223|ICAO-KFCH|1.5|N-Normal|1|FM15-METAR|223|ICAO-KFCH|||||||||||||81|Derived||FM15-METAR|223|ICAO-KFCH|||||||||||||||||||||||||||||||||||||||||||||||||||||||||||||||||||||||||1017.9||1|FM15-METAR|223|ICAO-KFCH|||||||||||||||||||||||||||||||||||||||||||MET078METAR KFCH 051055Z AUTO 08003KT 10SM SCT042 BKN080 OVC090 05/02 A3006 RMK A01=||F||223|ICAO-KFCH
USW00023167|FRESNO CHANDLER DWTN AP|2022|03|05|11|15|36.7333|-119.8167|84.1|5.0||1|FM15-METAR|223|ICAO-KFCH|2.0||1|FM15-METAR|223|ICAO-KFCH|||||||||||||160|N-Normal|1|FM15-METAR|223|ICAO-KFCH|2.1|N-Normal|1|FM15-METAR|223|ICAO-KFCH|||||||||||||81|Derived||FM15-METAR|223|ICAO-KFCH|||||||||||||||||||||||||||||||||||||||||||||||||||||||||||||||||||||||||1017.9||1|FM15-METAR|223|ICAO-KFCH|||||||||||||||||||||||||||||||||||||||||||MET078METAR KFCH 051115Z AUTO 16004KT 10SM FEW042 BKN047 OVC055 05/02 A3006 RMK A01=||F||223|ICAO-KFCH
USW00023167|FRESNO CHANDLER DWTN AP|2022|03|05|11|35|36.7333|-119.8167|84.1|6.0||1|FM15-METAR|223|ICAO-KFCH|2.0||1|FM15-METAR|223|ICAO-KFCH|||||||||||||170|N-Normal|1|FM15-METAR|223|ICAO-KFCH|3.1|N-Normal|1|FM15-METAR|223|ICAO-KFCH|||||||||||||76|Derived||FM15-METAR|223|ICAO-KFCH|||||||||||||||||||||||||||||||||||||||||||||||||||||||||||||||||||||||||1017.6||1|FM15-METAR|223|ICAO-KFCH|||||||||||||||||||||||||||||||||||||||||||MET078METAR KFCH 051135Z AUTO 17006KT 10SM BKN048 BKN060 OVC065 06/02 A3005 RMK A01=||F||223|ICAO-KFCH
USW00023167|FRESNO CHANDLER DWTN AP|2022|03|05|11|55|36.7333|-119.8167|84.1|5.0||1|FM15-METAR|223|ICAO-KFCH|2.0||1|FM15-METAR|223|ICAO-KFCH|||||||||||||160|N-Normal|1|FM15-METAR|223|ICAO-KFCH|2.6|N-Normal|1|FM15-METAR|223|ICAO-KFCH|||||||||||||81|Derived||FM15-METAR|223|ICAO-KFCH|||||||||||||||||||||||||||||||||||||||||||||||||||||||||||||||||||||||||1017.6||1|FM15-METAR|223|ICAO-KFCH|||||||||||||||||||||||||||||||||||||||||||MET071METAR KFCH 051155Z AUTO 16005KT 10SM SCT049 OVC060 05/02 A3005 RMK A01=||F||223|ICAO-KFCH
USW00023167|FRESNO CHANDLER DWTN AP|2022|03|05|12|15|36.7333|-119.8167|84.1|6.0||1|FM15-METAR|223|ICAO-KFCH|2.0||1|FM15-METAR|223|ICAO-KFCH|||||||||||||150|N-Normal|1|FM15-METAR|223|ICAO-KFCH|1.5|N-Normal|1|FM15-METAR|223|ICAO-KFCH|||||||||||||76|Derived||FM15-METAR|223|ICAO-KFCH|||||||||||||||||||||||||||||||||||||||||||||||||||||||||||||||||||||||||1017.6||1|FM15-METAR|223|ICAO-KFCH|||||||||||||||||||||||||||||||||||||||||||MET071METAR KFCH 051215Z AUTO 15003KT 10SM BKN046 OVC055 06/02 A3005 RMK A01=||F||223|ICAO-KFCH
USW00023167|FRESNO CHANDLER DWTN AP|2022|03|05|12|35|36.7333|-119.8167|84.1|6.0||1|FM15-METAR|223|ICAO-KFCH|3.0||1|FM15-METAR|223|ICAO-KFCH|||||||||||||180|N-Normal|1|FM15-METAR|223|ICAO-KFCH|2.1|N-Normal|1|FM15-METAR|223|ICAO-KFCH|||||||||||||81|Derived||FM15-METAR|223|ICAO-KFCH|||||||||||||||||||||||||||||||||||||||||||||||||||||||||||||||||||||||||1017.6||1|FM15-METAR|223|ICAO-KFCH|||||||||||||||||||||||||||||||||||||||||||MET078METAR KFCH 051235Z AUTO 18004KT 10SM FEW004 BKN039 OVC046 06/03 A3005 RMK A01=||F||223|ICAO-KFCH
USW00023167|FRESNO CHANDLER DWTN AP|2022|03|05|12|55|36.7333|-119.8167|84.1|6.0||1|FM15-METAR|223|ICAO-KFCH|3.0||1|FM15-METAR|223|ICAO-KFCH|||||||||||||190|N-Normal|1|FM15-METAR|223|ICAO-KFCH|2.1|N-Normal|1|FM15-METAR|223|ICAO-KFCH|||||||||||||81|Derived||FM15-METAR|223|ICAO-KFCH|||||||||||||||||||||||||||||||||||||||||||||||||||||||||||||||||||||||||1017.6||1|FM15-METAR|223|ICAO-KFCH|||||||||||||||||||||||||||||||||||||||||||MET078METAR KFCH 051255Z AUTO 19004KT 10SM FEW013 BKN040 OVC050 06/03 A3005 RMK A01=||F||223|ICAO-KFCH
USW00023167|FRESNO CHANDLER DWTN AP|2022|03|05|13|15|36.7333|-119.8167|84.1|6.0||1|FM15-METAR|223|ICAO-KFCH|4.0||1|FM15-METAR|223|ICAO-KFCH|||||||||||||999|C-Calm|9|FM15-METAR|223|ICAO-KFCH|0.0|C-Calm|1|FM15-METAR|223|ICAO-KFCH|||||||||||||87|Derived||FM15-METAR|223|ICAO-KFCH|||||||||||||||||||||||||||||||||||||||||||||||||||||||||||||||||||||||||1017.6||1|FM15-METAR|223|ICAO-KFCH|||||||||||||||||||||||||||||||||||||||||||MET078METAR KFCH 051315Z AUTO 00000KT 10SM BKN038 BKN047 OVC055 06/04 A3005 RMK A01=||F||223|ICAO-KFCH
USW00023167|FRESNO CHANDLER DWTN AP|2022|03|05|13|35|36.7333|-119.8167|84.1|6.0||1|FM15-METAR|223|ICAO-KFCH|3.0||1|FM15-METAR|223|ICAO-KFCH|||||||||||||330|N-Normal|1|FM15-METAR|223|ICAO-KFCH|2.1|N-Normal|1|FM15-METAR|223|ICAO-KFCH|||||||||||||81|Derived||FM15-METAR|223|ICAO-KFCH|||||||||||||||||||||||||||||||||||||||||||||||||||||||||||||||||||||||||1017.9||1|FM15-METAR|223|ICAO-KFCH|||||||||||||||||||||||||||||||||||||||||||MET064METAR KFCH 051335Z AUTO 33004KT 10SM OVC037 06/03 A3006 RMK A01=||F||223|ICAO-KFCH
USW00023167|FRESNO CHANDLER DWTN AP|2022|03|05|13|55|36.7333|-119.8167|84.1|6.0||1|FM15-METAR|223|ICAO-KFCH|3.0||1|FM15-METAR|223|ICAO-KFCH|||||||||||||999|C-Calm|9|FM15-METAR|223|ICAO-KFCH|0.0|C-Calm|1|FM15-METAR|223|ICAO-KFCH|||||||||||||81|Derived||FM15-METAR|223|ICAO-KFCH|||||||||||||||||||||||||||||||||||||||||||||||||||||||||||||||||||||||||1018.3||1|FM15-METAR|223|ICAO-KFCH|||||||||||||||||||||||||||||||||||||||||||MET071METAR KFCH 051355Z AUTO 00000KT 10SM FEW027 OVC036 06/03 A3007 RMK A01=||F||223|ICAO-KFCH
USW00023167|FRESNO CHANDLER DWTN AP|2022|03|05|14|15|36.7333|-119.8167|84.1|6.0||1|FM15-METAR|223|ICAO-KFCH|3.0||1|FM15-METAR|223|ICAO-KFCH|||||||||||||999|C-Calm|9|FM15-METAR|223|ICAO-KFCH|0.0|C-Calm|1|FM15-METAR|223|ICAO-KFCH|||||||||||||81|Derived||FM15-METAR|223|ICAO-KFCH|||||||||||||||||||||||||||||||||||||||||||||||||||||||||||||||||||||||||1018.3||1|FM15-METAR|223|ICAO-KFCH|||||||||||||||||||||||||||||||||||||||||||MET071METAR KFCH 051415Z AUTO 00000KT 10SM SCT025 OVC033 06/03 A3007 RMK A01=||F||223|ICAO-KFCH
USW00023167|FRESNO CHANDLER DWTN AP|2022|03|05|14|35|36.7333|-119.8167|84.1|6.0||1|FM15-METAR|223|ICAO-KFCH|3.0||1|FM15-METAR|223|ICAO-KFCH|||||||||||||999|C-Calm|9|FM15-METAR|223|ICAO-KFCH|0.0|C-Calm|1|FM15-METAR|223|ICAO-KFCH|||||||||||||81|Derived||FM15-METAR|223|ICAO-KFCH|||||||||||||||||||||||||||||||||||||||||||||||||||||||||||||||||||||||||1018.6||1|FM15-METAR|223|ICAO-KFCH|||||||||||||||||||||||||||||||||||||||||||MET071METAR KFCH 051435Z AUTO 00000KT 10SM FEW024 OVC031 06/03 A3008 RMK A01=||F||223|ICAO-KFCH
USW00023167|FRESNO CHANDLER DWTN AP|2022|03|05|14|50|36.7333|-119.8167|84.1|6.0||1|FM15-METAR|223|ICAO-KFCH|4.0||1|FM15-METAR|223|ICAO-KFCH|||||||||||||050|N-Normal|1|FM15-METAR|223|ICAO-KFCH|2.1|N-Normal|1|FM15-METAR|223|ICAO-KFCH|||||||||||||87|Derived||FM15-METAR|223|ICAO-KFCH|||||||||||||||||||||||||||||||||||||||||||||||||||||||||||||||||||||||||1018.6||1|FM15-METAR|223|ICAO-KFCH|||||||||||||||||||||||||||||||||||||||||||MET078METAR KFCH 051450Z AUTO 05004KT 10SM FEW028 BKN033 OVC042 06/04 A3008 RMK A01=||F||223|ICAO-KFCH
USW00023167|FRESNO CHANDLER DWTN AP|2022|03|05|15|15|36.7333|-119.8167|84.1|6.0||1|FM15-METAR|223|ICAO-KFCH|5.0||1|FM15-METAR|223|ICAO-KFCH|||||||||||||070|N-Normal|1|FM15-METAR|223|ICAO-KFCH|2.6|N-Normal|1|FM15-METAR|223|ICAO-KFCH|||||||||||||93|Derived||FM15-METAR|223|ICAO-KFCH|||||||||||||||||||||||||||||||||||||||||||||||||||||||||||||||||||||||||1019.0||1|FM15-METAR|223|ICAO-KFCH|||||||||||||||||||||||||||||||||||||||||||MET064METAR KFCH 051515Z AUTO 07005KT 10SM OVC036 06/05 A3009 RMK A01=||F||223|ICAO-KFCH
USW00023167|FRESNO CHANDLER DWTN AP|2022|03|05|15|35|36.7333|-119.8167|84.1|6.0||1|FM15-METAR|223|ICAO-KFCH|5.0||1|FM15-METAR|223|ICAO-KFCH|||||||||||||999|V-Variable|9|FM15-METAR|223|ICAO-KFCH|1.5|V-Variable|1|FM15-METAR|223|ICAO-KFCH|||||||||||||93|Derived||FM15-METAR|223|ICAO-KFCH|||||||||||||||||||||||||||||||||||||||||||||||||||||||||||||||||||||||||1019.3||1|FM15-METAR|223|ICAO-KFCH|||||||||||||||||||||||||||||||||||||||||||MET078METAR KFCH 051535Z AUTO VRB03KT 10SM BKN036 BKN041 OVC055 06/05 A3010 RMK A01=||F||223|ICAO-KFCH
USW00023167|FRESNO CHANDLER DWTN AP|2022|03|05|15|50|36.7333|-119.8167|84.1|6.0||1|FM15-METAR|223|ICAO-KFCH|4.0||1|FM15-METAR|223|ICAO-KFCH|||||||||||||999|C-Calm|9|FM15-METAR|223|ICAO-KFCH|0.0|C-Calm|1|FM15-METAR|223|ICAO-KFCH|||||||||||||87|Derived||FM15-METAR|223|ICAO-KFCH|||||||||||||||||||||||||||||||||||||||||||||||||||||||||||||||||||||||||1019.3||1|FM15-METAR|223|ICAO-KFCH|||||||||||||||||||||||||||||||||||||||||||MET078METAR KFCH 051550Z AUTO 00000KT 10SM FEW026 BKN034 OVC042 06/04 A3010 RMK A01=||F||223|ICAO-KFCH
USW00023167|FRESNO CHANDLER DWTN AP|2022|03|05|16|10|36.7333|-119.8167|84.1|6.0||1|FM15-METAR|223|ICAO-KFCH|5.0||1|FM15-METAR|223|ICAO-KFCH|||||||||||||999|C-Calm|9|FM15-METAR|223|ICAO-KFCH|0.0|C-Calm|1|FM15-METAR|223|ICAO-KFCH|||||||||||||93|Derived||FM15-METAR|223|ICAO-KFCH|||||||||||||||||||||||||||||||||||||||||||||||||||||||||||||||||||||||||1019.6||1|FM15-METAR|223|ICAO-KFCH|||||||||||||||||||||||||||||||||||||||||||MET078METAR KFCH 051610Z AUTO 00000KT 10SM FEW026 BKN035 OVC043 06/05 A3011 RMK A01=||F||223|ICAO-KFCH
USW00023167|FRESNO CHANDLER DWTN AP|2022|03|05|16|35|36.7333|-119.8167|84.1|7.0||1|FM15-METAR|223|ICAO-KFCH|5.0||1|FM15-METAR|223|ICAO-KFCH|||||||||||||050|N-Normal|1|FM15-METAR|223|ICAO-KFCH|2.1|N-Normal|1|FM15-METAR|223|ICAO-KFCH|||||||||||||87|Derived||FM15-METAR|223|ICAO-KFCH|||||||||||||||||||||||||||||||||||||||||||||||||||||||||||||||||||||||||1020.0||1|FM15-METAR|223|ICAO-KFCH|||||||||||||||||||||||||||||||||||||||||||MET057METAR KFCH 051635Z AUTO 05004KT 10SM 07/05 A3012 RMK A01=||F||223|ICAO-KFCH
USW00023167|FRESNO CHANDLER DWTN AP|2022|03|05|16|55|36.7333|-119.8167|84.1|7.0||1|FM15-METAR|223|ICAO-KFCH|5.0||1|FM15-METAR|223|ICAO-KFCH|||||||||||||090|N-Normal|1|FM15-METAR|223|ICAO-KFCH|2.6|N-Normal|1|FM15-METAR|223|ICAO-KFCH|||||||||||||87|Derived||FM15-METAR|223|ICAO-KFCH|||||||||||||||||||||||||||||||||||||||||||||||||||||||||||||||||||||||||1020.0||1|FM15-METAR|223|ICAO-KFCH|||||||||||||||||||||||||||||||||||||||||||MET057METAR KFCH 051655Z AUTO 09005KT 10SM 07/05 A3012 RMK A01=||F||223|ICAO-KFCH
USW00023167|FRESNO CHANDLER DWTN AP|2022|03|05|17|15|36.7333|-119.8167|84.1|7.0||1|FM15-METAR|223|ICAO-KFCH|5.0||1|FM15-METAR|223|ICAO-KFCH|||||||||||||090|N-Normal|1|FM15-METAR|223|ICAO-KFCH|2.1|N-Normal|1|FM15-METAR|223|ICAO-KFCH|||||||||||||87|Derived||FM15-METAR|223|ICAO-KFCH|||||||||||||||||||||||||||||||||||||||||||||||||||||||||||||||||||||||||1020.0||1|FM15-METAR|223|ICAO-KFCH|||||||||||||||||||||||||||||||||||||||||||MET071METAR KFCH 051715Z AUTO 09004KT 10SM SCT033 BKN044 07/05 A3012 RMK A01=||F||223|ICAO-KFCH
USW00023167|FRESNO CHANDLER DWTN AP|2022|03|05|17|35|36.7333|-119.8167|84.1|7.0||1|FM15-METAR|223|ICAO-KFCH|5.0||1|FM15-METAR|223|ICAO-KFCH|||||||||||||120|N-Normal|1|FM15-METAR|223|ICAO-KFCH|1.5|N-Normal|1|FM15-METAR|223|ICAO-KFCH|||||||||||||87|Derived||FM15-METAR|223|ICAO-KFCH|||||||||||||||||||||||||||||||||||||||||||||||||||||||||||||||||||||||||1020.3||1|FM15-METAR|223|ICAO-KFCH|||||||||||||||||||||||||||||||||||||||||||MET078METAR KFCH 051735Z AUTO 12003KT 10SM FEW022 SCT033 BKN048 07/05 A3013 RMK A01=||F||223|ICAO-KFCH
USW00023167|FRESNO CHANDLER DWTN AP|2022|03|05|17|50|36.7333|-119.8167|84.1|7.0||1|FM15-METAR|223|ICAO-KFCH|4.0||1|FM15-METAR|223|ICAO-KFCH|||||||||||||110|N-Normal|1|FM15-METAR|223|ICAO-KFCH|2.1|N-Normal|1|FM15-METAR|223|ICAO-KFCH|||||||||||||81|Derived||FM15-METAR|223|ICAO-KFCH|||||||||||||||||||||||||||||||||||||||||||||||||||||||||||||||||||||||||1020.3||1|FM15-METAR|223|ICAO-KFCH|||||||||||||||||||||||||||||||||||||||||||MET078METAR KFCH 051750Z AUTO 11004KT 10SM SCT019 BKN028 OVC048 07/04 A3013 RMK A01=||F||223|ICAO-KFCH
USW00023167|FRESNO CHANDLER DWTN AP|2022|03|05|18|15|36.7333|-119.8167|84.1|8.0||1|FM15-METAR|223|ICAO-KFCH|3.0||1|FM15-METAR|223|ICAO-KFCH|||||||||||||999|C-Calm|9|FM15-METAR|223|ICAO-KFCH|0.0|C-Calm|1|FM15-METAR|223|ICAO-KFCH|||||||||||||71|Derived||FM15-METAR|223|ICAO-KFCH|||||||||||||||||||||||||||||||||||||||||||||||||||||||||||||||||||||||||1020.3||1|FM15-METAR|223|ICAO-KFCH|||||||||||||||||||||||||||||||||||||||||||MET078METAR KFCH 051815Z AUTO 00000KT 10SM SCT028 BKN034 OVC045 08/03 A3013 RMK A01=||F||223|ICAO-KFCH
USW00023167|FRESNO CHANDLER DWTN AP|2022|03|05|18|35|36.7333|-119.8167|84.1|||||||||||||||||||||||||||||||||||||||||||||||||||||||||||||||||||||||||||||||||||||||||||||||||||||||||||||||||||||||||||||||1020.7||1|FM15-METAR|223|ICAO-KFCH|||||||||||||||||||||||||||||||||||||||||||MET038METAR KFCH 051835Z AUTO A3014 RMK A01=||F||223|ICAO-KFCH
USW00023167|FRESNO CHANDLER DWTN AP|2022|03|05|18|55|36.7333|-119.8167|84.1|||||||||||||||||||||||||||||||||||||||||||||||||||||||||||||||||||||||||||||||||||||||||||||||||||||||||||||||||||||||||||||||1020.3||1|FM15-METAR|223|ICAO-KFCH|||||||||||||||||||||||||||||||||||||||||||MET038METAR KFCH 051855Z AUTO A3013 RMK A01=||F||223|ICAO-KFCH
USW00023167|FRESNO CHANDLER DWTN AP|2022|03|05|19|15|36.7333|-119.8167|84.1|9.0||1|FM15-METAR|223|ICAO-KFCH|4.0||1|FM15-METAR|223|ICAO-KFCH|||||||||||||080|N-Normal|1|FM15-METAR|223|ICAO-KFCH|1.5|N-Normal|1|FM15-METAR|223|ICAO-KFCH|||||||||||||71|Derived||FM15-METAR|223|ICAO-KFCH|||||||||||||||||||||||||||||||||||||||||||||||||||||||||||||||||||||||||1020.3||1|FM15-METAR|223|ICAO-KFCH|||||||||||||||||||||||||||||||||||||||||||MET057METAR KFCH 051915Z AUTO 08003KT 10SM 09/04 A3013 RMK A01=||F||223|ICAO-KFCH
USW00023167|FRESNO CHANDLER DWTN AP|2022|03|05|19|30|36.7333|-119.8167|84.1|9.0||1|FM15-METAR|223|ICAO-KFCH|4.0||1|FM15-METAR|223|ICAO-KFCH|||||||||||||050|N-Normal|1|FM15-METAR|223|ICAO-KFCH|2.1|N-Normal|1|FM15-METAR|223|ICAO-KFCH|||||||||||||71|Derived||FM15-METAR|223|ICAO-KFCH|||||||||||||||||||||||||||||||||||||||||||||||||||||||||||||||||||||||||1020.3||1|FM15-METAR|223|ICAO-KFCH|||||||||||||||||||||||||||||||||||||||||||MET078METAR KFCH 051930Z AUTO 05004KT 10SM BKN024 BKN028 OVC038 09/04 A3013 RMK A01=||F||223|ICAO-KFCH
USW00023167|FRESNO CHANDLER DWTN AP|2022|03|05|19|55|36.7333|-119.8167|84.1|9.0||1|FM15-METAR|223|ICAO-KFCH|3.0||1|FM15-METAR|223|ICAO-KFCH|||||||||||||999|C-Calm|9|FM15-METAR|223|ICAO-KFCH|0.0|C-Calm|1|FM15-METAR|223|ICAO-KFCH|||||||||||||66|Derived||FM15-METAR|223|ICAO-KFCH|||||||||||||||||||||||||||||||||||||||||||||||||||||||||||||||||||||||||1020.0||1|FM15-METAR|223|ICAO-KFCH|||||||||||||||||||||||||||||||||||||||||||MET078METAR KFCH 051955Z AUTO 00000KT 10SM BKN028 BKN037 BKN050 09/03 A3012 RMK A01=||F||223|ICAO-KFCH
USW00023167|FRESNO CHANDLER DWTN AP|2022|03|05|20|15|36.7333|-119.8167|84.1|10.0||1|FM15-METAR|223|ICAO-KFCH|3.0||1|FM15-METAR|223|ICAO-KFCH|||||||||||||999|C-Calm|9|FM15-METAR|223|ICAO-KFCH|0.0|C-Calm|1|FM15-METAR|223|ICAO-KFCH|||||||||||||62|Derived||FM15-METAR|223|ICAO-KFCH|||||||||||||||||||||||||||||||||||||||||||||||||||||||||||||||||||||||||1019.6||1|FM15-METAR|223|ICAO-KFCH|||||||||||||||||||||||||||||||||||||||||||MET078METAR KFCH 052015Z AUTO 00000KT 10SM SCT027 BKN050 OVC055 10/03 A3011 RMK A01=||F||223|ICAO-KFCH
USW00023167|FRESNO CHANDLER DWTN AP|2022|03|05|20|35|36.7333|-119.8167|84.1|10.0||1|FM15-METAR|223|ICAO-KFCH|3.0||1|FM15-METAR|223|ICAO-KFCH|||||||||||||999|C-Calm|9|FM15-METAR|223|ICAO-KFCH|0.0|C-Calm|1|FM15-METAR|223|ICAO-KFCH|||||||||||||62|Derived||FM15-METAR|223|ICAO-KFCH|||||||||||||||||||||||||||||||||||||||||||||||||||||||||||||||||||||||||1019.6||1|FM15-METAR|223|ICAO-KFCH|||||||||||||||||||||||||||||||||||||||||||MET078METAR KFCH 052035Z AUTO 00000KT 10SM SCT032 SCT040 BKN050 10/03 A3011 RMK A01=||F||223|ICAO-KFCH
USW00023167|FRESNO CHANDLER DWTN AP|2022|03|05|20|50|36.7333|-119.8167|84.1|11.0||1|FM15-METAR|223|ICAO-KFCH|3.0||1|FM15-METAR|223|ICAO-KFCH|||||||||||||999|C-Calm|9|FM15-METAR|223|ICAO-KFCH|0.0|C-Calm|1|FM15-METAR|223|ICAO-KFCH|||||||||||||58|Derived||FM15-METAR|223|ICAO-KFCH|||||||||||||||||||||||||||||||||||||||||||||||||||||||||||||||||||||||||1019.6||1|FM15-METAR|223|ICAO-KFCH|||||||||||||||||||||||||||||||||||||||||||MET078METAR KFCH 052050Z AUTO 00000KT 10SM SCT034 BKN040 BKN055 11/03 A3011 RMK A01=||F||223|ICAO-KFCH
USW00023167|FRESNO CHANDLER DWTN AP|2022|03|05|21|15|36.7333|-119.8167|84.1|11.0||1|FM15-METAR|223|ICAO-KFCH|2.0||1|FM15-METAR|223|ICAO-KFCH|||||||||||||999|C-Calm|9|FM15-METAR|223|ICAO-KFCH|0.0|C-Calm|1|FM15-METAR|223|ICAO-KFCH|||||||||||||54|Derived||FM15-METAR|223|ICAO-KFCH|||||||||||||||||||||||||||||||||||||||||||||||||||||||||||||||||||||||||1019.3||1|FM15-METAR|223|ICAO-KFCH|||||||||||||||||||||||||||||||||||||||||||MET078METAR KFCH 052115Z AUTO 00000KT 10SM FEW034 SCT043 BKN050 11/02 A3010 RMK A01=||F||223|ICAO-KFCH
USW00023167|FRESNO CHANDLER DWTN AP|2022|03|05|21|35|36.7333|-119.8167|84.1|11.0||1|FM15-METAR|223|ICAO-KFCH|1.0||1|FM15-METAR|223|ICAO-KFCH|||||||||||||320|N-Normal|1|FM15-METAR|223|ICAO-KFCH|4.1|N-Normal|1|FM15-METAR|223|ICAO-KFCH|||||||||||||50|Derived||FM15-METAR|223|ICAO-KFCH|||||||||||||||||||||||||||||||||||||||||||||||||||||||||||||||||||||||||1019.3||1|FM15-METAR|223|ICAO-KFCH|||||||||||||||||||||||||||||||||||||||||||MET071METAR KFCH 052135Z AUTO 32008KT 10SM SCT041 SCT050 11/01 A3010 RMK A01=||F||223|ICAO-KFCH
USW00023167|FRESNO CHANDLER DWTN AP|2022|03|05|21|55|36.7333|-119.8167|84.1|12.0||1|FM15-METAR|223|ICAO-KFCH|0.0||1|FM15-METAR|223|ICAO-KFCH|||||||||||||330|N-Normal|1|FM15-METAR|223|ICAO-KFCH|4.6|N-Normal|1|FM15-METAR|223|ICAO-KFCH|||||||||||||44|Derived||FM15-METAR|223|ICAO-KFCH|||||||||||||||||||||||||||||||||||||||||||||||||||||||||||||||||||||||||1019.0||1|FM15-METAR|223|ICAO-KFCH|||||||||||||||||||||||||||||||||||||||||||MET071METAR KFCH 052155Z AUTO 33009KT 10SM FEW049 SCT060 12/00 A3009 RMK A01=||F||223|ICAO-KFCH
USW00023167|FRESNO CHANDLER DWTN AP|2022|03|05|22|15|36.7333|-119.8167|84.1|12.0||1|FM15-METAR|223|ICAO-KFCH|2.0||1|FM15-METAR|223|ICAO-KFCH|||||||||||||310|N-Normal|1|FM15-METAR|223|ICAO-KFCH|5.1|N-Normal|1|FM15-METAR|223|ICAO-KFCH|||||||||||||51|Derived||FM15-METAR|223|ICAO-KFCH|||||||||||||||||||||||||||||||||||||||||||||||||||||||||||||||||||||||||1019.0||1|FM15-METAR|223|ICAO-KFCH|||||||||||||||||||||||||||||||||||||||||||MET071METAR KFCH 052215Z AUTO 31010KT 10SM FEW049 FEW055 12/02 A3009 RMK A01=||F||223|ICAO-KFCH
USW00023167|FRESNO CHANDLER DWTN AP|2022|03|06|02|15|36.7333|-119.8167|84.1|11.0||1|FM15-METAR|223|ICAO-KFCH|1.0||1|FM15-METAR|223|ICAO-KFCH|||||||||||||350|N-Normal|1|FM15-METAR|223|ICAO-KFCH|3.1|N-Normal|1|FM15-METAR|223|ICAO-KFCH|6.2||1|FM15-METAR|223|ICAO-KFCH|||||||50|Derived||FM15-METAR|223|ICAO-KFCH|||||||||||||||||||||||||||||||||||||||||||||||||||||||||||||||||||||||||1020.0||1|FM15-METAR|223|ICAO-KFCH|||||||||||||||||||||||||||||||||||||||||||MET060METAR KFCH 060215Z AUTO 35006G12KT 10SM 11/01 A3012 RMK A01=||F||223|ICAO-KFCH
USW00023167|FRESNO CHANDLER DWTN AP|2022|03|06|02|30|36.7333|-119.8167|84.1|10.0||1|FM15-METAR|223|ICAO-KFCH|1.0||1|FM15-METAR|223|ICAO-KFCH|||||||||||||360|N-Normal|1|FM15-METAR|223|ICAO-KFCH|3.1|N-Normal|1|FM15-METAR|223|ICAO-KFCH|||||||||||||54|Derived||FM15-METAR|223|ICAO-KFCH|||||||||||||||||||||||||||||||||||||||||||||||||||||||||||||||||||||||||1020.0||1|FM15-METAR|223|ICAO-KFCH|||||||||||||||||||||||||||||||||||||||||||MET057METAR KFCH 060230Z AUTO 36006KT 10SM 10/01 A3012 RMK A01=||F||223|ICAO-KFCH
USW00023167|FRESNO CHANDLER DWTN AP|2022|03|06|02|50|36.7333|-119.8167|84.1|10.0||1|FM15-METAR|223|ICAO-KFCH|2.0||1|FM15-METAR|223|ICAO-KFCH|||||||||||||360|N-Normal|1|FM15-METAR|223|ICAO-KFCH|3.1|N-Normal|1|FM15-METAR|223|ICAO-KFCH|||||||||||||58|Derived||FM15-METAR|223|ICAO-KFCH|||||||||||||||||||||||||||||||||||||||||||||||||||||||||||||||||||||||||1020.3||1|FM15-METAR|223|ICAO-KFCH|||||||||||||||||||||||||||||||||||||||||||MET057METAR KFCH 060250Z AUTO 36006KT 10SM 10/02 A3013 RMK A01=||F||223|ICAO-KFCH
USW00023167|FRESNO CHANDLER DWTN AP|2022|03|06|03|15|36.7333|-119.8167|84.1|10.0||1|FM15-METAR|223|ICAO-KFCH|2.0||1|FM15-METAR|223|ICAO-KFCH|||||||||||||340|N-Normal|1|FM15-METAR|223|ICAO-KFCH|1.5|N-Normal|1|FM15-METAR|223|ICAO-KFCH|||||||||||||58|Derived||FM15-METAR|223|ICAO-KFCH|||||||||||||||||||||||||||||||||||||||||||||||||||||||||||||||||||||||||1020.7||1|FM15-METAR|223|ICAO-KFCH|||||||||||||||||||||||||||||||||||||||||||MET061METAR KFCH 060315Z AUTO 34003KT 10SM CLR 10/02 A3014 RMK A01=||F||223|ICAO-KFCH
USW00023167|FRESNO CHANDLER DWTN AP|2022|03|06|03|30|36.7333|-119.8167|84.1|10.0||1|FM15-METAR|223|ICAO-KFCH|2.0||1|FM15-METAR|223|ICAO-KFCH|||||||||||||999|C-Calm|9|FM15-METAR|223|ICAO-KFCH|0.0|C-Calm|1|FM15-METAR|223|ICAO-KFCH|||||||||||||58|Derived||FM15-METAR|223|ICAO-KFCH|||||||||||||||||||||||||||||||||||||||||||||||||||||||||||||||||||||||||1020.7||1|FM15-METAR|223|ICAO-KFCH|||||||||||||||||||||||||||||||||||||||||||MET061METAR KFCH 060330Z AUTO 00000KT 10SM CLR 10/02 A3014 RMK A01=||F||223|ICAO-KFCH
USW00023167|FRESNO CHANDLER DWTN AP|2022|03|06|03|45|36.7333|-119.8167|84.1|9.0||1|FM15-METAR|223|ICAO-KFCH|2.0||1|FM15-METAR|223|ICAO-KFCH|||||||||||||999|C-Calm|9|FM15-METAR|223|ICAO-KFCH|0.0|C-Calm|1|FM15-METAR|223|ICAO-KFCH|||||||||||||62|Derived||FM15-METAR|223|ICAO-KFCH|||||||||||||||||||||||||||||||||||||||||||||||||||||||||||||||||||||||||1020.7||1|FM15-METAR|223|ICAO-KFCH|||||||||||||||||||||||||||||||||||||||||||MET061METAR KFCH 060345Z AUTO 00000KT 10SM CLR 09/02 A3014 RMK A01=||F||223|ICAO-KFCH
USW00023167|FRESNO CHANDLER DWTN AP|2022|03|06|04|25|36.7333|-119.8167|84.1|8.0||1|FM15-METAR|223|ICAO-KFCH|3.0||1|FM15-METAR|223|ICAO-KFCH|||||||||||||999|C-Calm|9|FM15-METAR|223|ICAO-KFCH|0.0|C-Calm|1|FM15-METAR|223|ICAO-KFCH|||||||||||||71|Derived||FM15-METAR|223|ICAO-KFCH|||||||||||||||||||||||||||||||||||||||||||||||||||||||||||||||||||||||||1020.7||1|FM15-METAR|223|ICAO-KFCH|||||||||||||||||||||||||||||||||||||||||||MET061METAR KFCH 060425Z AUTO 00000KT 10SM CLR 08/03 A3014 RMK A01=||F||223|ICAO-KFCH
USW00023167|FRESNO CHANDLER DWTN AP|2022|03|06|04|55|36.7333|-119.8167|84.1|||||||||||||||||||||||||||||||||||||||||||||||||||||||||||||||||||||||||||||||||||||||||||||||||||||||||||||||||||||||||||||||1021.0||1|FM15-METAR|223|ICAO-KFCH|||||||||||||||||||||||||||||||||||||||||||MET038METAR KFCH 060455Z AUTO A3015 RMK A01=||F||223|ICAO-KFCH
USW00023167|FRESNO CHANDLER DWTN AP|2022|03|06|05|20|36.7333|-119.8167|84.1|6.0||1|FM15-METAR|223|ICAO-KFCH|3.0||1|FM15-METAR|223|ICAO-KFCH|||||||||||||300|N-Normal|1|FM15-METAR|223|ICAO-KFCH|2.1|N-Normal|1|FM15-METAR|223|ICAO-KFCH|||||||||||||81|Derived||FM15-METAR|223|ICAO-KFCH|||||||||||||||||||||||||||||||||||||||||||||||||||||||||||||||||||||||||1021.3||1|FM15-METAR|223|ICAO-KFCH|||||||||||||||||||||||||||||||||||||||||||MET057METAR KFCH 060520Z AUTO 30004KT 10SM 06/03 A3016 RMK A01=||F||223|ICAO-KFCH
USW00023167|FRESNO CHANDLER DWTN AP|2022|03|06|05|45|36.7333|-119.8167|84.1|7.0||1|FM15-METAR|223|ICAO-KFCH|2.0||1|FM15-METAR|223|ICAO-KFCH|||||||||||||999|C-Calm|9|FM15-METAR|223|ICAO-KFCH|0.0|C-Calm|1|FM15-METAR|223|ICAO-KFCH|||||||||||||71|Derived||FM15-METAR|223|ICAO-KFCH|||||||||||||||||||||||||||||||||||||||||||||||||||||||||||||||||||||||||1021.3||1|FM15-METAR|223|ICAO-KFCH|||||||||||||||||||||||||||||||||||||||||||MET061METAR KFCH 060545Z AUTO 00000KT 10SM CLR 07/02 A3016 RMK A01=||F||223|ICAO-KFCH
USW00023167|FRESNO CHANDLER DWTN AP|2022|03|06|06|15|36.7333|-119.8167|84.1|6.0||1|FM15-METAR|223|ICAO-KFCH|3.0||1|FM15-METAR|223|ICAO-KFCH|||||||||||||999|C-Calm|9|FM15-METAR|223|ICAO-KFCH|0.0|C-Calm|1|FM15-METAR|223|ICAO-KFCH|||||||||||||81|Derived||FM15-METAR|223|ICAO-KFCH|||||||||||||||||||||||||||||||||||||||||||||||||||||||||||||||||||||||||1021.3||1|FM15-METAR|223|ICAO-KFCH|||||||||||||||||||||||||||||||||||||||||||MET061METAR KFCH 060615Z AUTO 00000KT 10SM CLR 06/03 A3016 RMK A01=||F||223|ICAO-KFCH
USW00023167|FRESNO CHANDLER DWTN AP|2022|03|06|07|00|36.7333|-119.8167|84.1|5.0||1|FM15-METAR|223|ICAO-KFCH|2.0||1|FM15-METAR|223|ICAO-KFCH|||||||||||||290|N-Normal|1|FM15-METAR|223|ICAO-KFCH|2.1|N-Normal|1|FM15-METAR|223|ICAO-KFCH|||||||||||||81|Derived||FM15-METAR|223|ICAO-KFCH|||||||||||||||||||||||||||||||||||||||||||||||||||||||||||||||||||||||||1021.7||1|FM15-METAR|223|ICAO-KFCH|||||||||||||||||||||||||||||||||||||||||||MET061METAR KFCH 060700Z AUTO 29004KT 10SM CLR 05/02 A3017 RMK A01=||F||223|ICAO-KFCH
USW00023167|FRESNO CHANDLER DWTN AP|2022|03|06|07|15|36.7333|-119.8167|84.1|5.0||1|FM15-METAR|223|ICAO-KFCH|2.0||1|FM15-METAR|223|ICAO-KFCH|||||||||||||999|C-Calm|9|FM15-METAR|223|ICAO-KFCH|0.0|C-Calm|1|FM15-METAR|223|ICAO-KFCH|||||||||||||81|Derived||FM15-METAR|223|ICAO-KFCH|||||||||||||||||||||||||||||||||||||||||||||||||||||||||||||||||||||||||1021.7||1|FM15-METAR|223|ICAO-KFCH|||||||||||||||||||||||||||||||||||||||||||MET061METAR KFCH 060715Z AUTO 00000KT 10SM CLR 05/02 A3017 RMK A01=||F||223|ICAO-KFCH
USW00023167|FRESNO CHANDLER DWTN AP|2022|03|06|07|40|36.7333|-119.8167|84.1|5.0||1|FM15-METAR|223|ICAO-KFCH|2.0||1|FM15-METAR|223|ICAO-KFCH|||||||||||||280|N-Normal|1|FM15-METAR|223|ICAO-KFCH|1.5|N-Normal|1|FM15-METAR|223|ICAO-KFCH|||||||||||||81|Derived||FM15-METAR|223|ICAO-KFCH|||||||||||||||||||||||||||||||||||||||||||||||||||||||||||||||||||||||||1022.0||1|FM15-METAR|223|ICAO-KFCH|||||||||||||||||||||||||||||||||||||||||||MET061METAR KFCH 060740Z AUTO 28003KT 10SM CLR 05/02 A3018 RMK A01=||F||223|ICAO-KFCH
USW00023167|FRESNO CHANDLER DWTN AP|2022|03|06|10|25|36.7333|-119.8167|84.1|3.0||1|FM15-METAR|223|ICAO-KFCH|2.0||1|FM15-METAR|223|ICAO-KFCH|||||||||||||999|C-Calm|9|FM15-METAR|223|ICAO-KFCH|0.0|C-Calm|1|FM15-METAR|223|ICAO-KFCH|||||||||||||93|Derived||FM15-METAR|223|ICAO-KFCH|||||||||||||||||||||||||||||||||||||||||||||||||||||||||||||||||||||||||1022.7||1|FM15-METAR|223|ICAO-KFCH|||||||||||||||||||||||||||||||||||||||||||MET061METAR KFCH 061025Z AUTO 00000KT 10SM CLR 03/02 A3020 RMK A01=||F||223|ICAO-KFCH
USW00023167|FRESNO CHANDLER DWTN AP|2022|03|06|11|30|36.7333|-119.8167|84.1|3.0||1|FM15-METAR|223|ICAO-KFCH|2.0||1|FM15-METAR|223|ICAO-KFCH|||||||||||||999|C-Calm|9|FM15-METAR|223|ICAO-KFCH|0.0|C-Calm|1|FM15-METAR|223|ICAO-KFCH|||||||||||||93|Derived||FM15-METAR|223|ICAO-KFCH|||||||||||||||||||||||||||||||||||||||||||||||||||||||||||||||||||||||||1023.0||1|FM15-METAR|223|ICAO-KFCH|||||||||||||||||||||||||||||||||||||||||||MET061METAR KFCH 061130Z AUTO 00000KT 10SM CLR 03/02 A3021 RMK A01=||F||223|ICAO-KFCH
USW00023167|FRESNO CHANDLER DWTN AP|2022|03|06|12|35|36.7333|-119.8167|84.1|3.0||1|FM15-METAR|223|ICAO-KFCH|2.0||1|FM15-METAR|223|ICAO-KFCH|||||||||||||999|C-Calm|9|FM15-METAR|223|ICAO-KFCH|0.0|C-Calm|1|FM15-METAR|223|ICAO-KFCH|||||||||||||93|Derived||FM15-METAR|223|ICAO-KFCH|||||||||||||||||||||||||||||||||||||||||||||||||||||||||||||||||||||||||1023.7||1|FM15-METAR|223|ICAO-KFCH|||||||||||||||||||||||||||||||||||||||||||MET064METAR KFCH 061235Z AUTO 00000KT 10SM OVC050 03/02 A3023 RMK A01=||F||223|ICAO-KFCH
USW00023167|FRESNO CHANDLER DWTN AP|2022|03|06|13|40|36.7333|-119.8167|84.1|3.0||1|FM15-METAR|223|ICAO-KFCH|2.0||1|FM15-METAR|223|ICAO-KFCH|||||||||||||999|C-Calm|9|FM15-METAR|223|ICAO-KFCH|0.0|C-Calm|1|FM15-METAR|223|ICAO-KFCH|||||||||||||93|Derived||FM15-METAR|223|ICAO-KFCH|||||||||||||||||||||||||||||||||||||||||||||||||||||||||||||||||||||||||1024.0||1|FM15-METAR|223|ICAO-KFCH|||||||||||||||||||||||||||||||||||||||||||MET064METAR KFCH 061340Z AUTO 00000KT 10SM OVC050 03/02 A3024 RMK A01=||F||223|ICAO-KFCH
USW00023167|FRESNO CHANDLER DWTN AP|2022|03|06|15|30|36.7333|-119.8167|84.1|6.0||1|FM15-METAR|223|ICAO-KFCH|3.0||1|FM15-METAR|223|ICAO-KFCH|||||||||||||120|N-Normal|1|FM15-METAR|223|ICAO-KFCH|2.6|N-Normal|1|FM15-METAR|223|ICAO-KFCH|||||||||||||81|Derived||FM15-METAR|223|ICAO-KFCH|||||||||||||||||||||||||||||||||||||||||||||||||||||||||||||||||||||||||1025.4||1|FM15-METAR|223|ICAO-KFCH|||||||||||||||||||||||||||||||||||||||||||MET064METAR KFCH 061530Z AUTO 12005KT 10SM OVC050 06/03 A3028 RMK A01=||F||223|ICAO-KFCH
USW00023167|FRESNO CHANDLER DWTN AP|2022|03|06|16|10|36.7333|-119.8167|84.1|7.0||1|FM15-METAR|223|ICAO-KFCH|3.0||1|FM15-METAR|223|ICAO-KFCH|||||||||||||120|N-Normal|1|FM15-METAR|223|ICAO-KFCH|3.1|N-Normal|1|FM15-METAR|223|ICAO-KFCH|||||||||||||76|Derived||FM15-METAR|223|ICAO-KFCH|||||||||||||||||||||||||||||||||||||||||||||||||||||||||||||||||||||||||1026.1||1|FM15-METAR|223|ICAO-KFCH|||||||||||||||||||||||||||||||||||||||||||MET064METAR KFCH 061610Z AUTO 12006KT 10SM OVC050 07/03 A3030 RMK A01=||F||223|ICAO-KFCH
USW00023167|FRESNO CHANDLER DWTN AP|2022|03|06|16|30|36.7333|-119.8167|84.1|8.0||1|FM15-METAR|223|ICAO-KFCH|3.0||1|FM15-METAR|223|ICAO-KFCH|||||||||||||150|N-Normal|1|FM15-METAR|223|ICAO-KFCH|2.6|N-Normal|1|FM15-METAR|223|ICAO-KFCH|||||||||||||71|Derived||FM15-METAR|223|ICAO-KFCH|||||||||||||||||||||||||||||||||||||||||||||||||||||||||||||||||||||||||1026.1||1|FM15-METAR|223|ICAO-KFCH|||||||||||||||||||||||||||||||||||||||||||MET064METAR KFCH 061630Z AUTO 15005KT 10SM OVC050 08/03 A3030 RMK A01=||F||223|ICAO-KFCH
USW00023167|FRESNO CHANDLER DWTN AP|2022|03|06|16|50|36.7333|-119.8167|84.1|9.0||1|FM15-METAR|223|ICAO-KFCH|4.0||1|FM15-METAR|223|ICAO-KFCH|||||||||||||140|N-Normal|1|FM15-METAR|223|ICAO-KFCH|2.6|N-Normal|1|FM15-METAR|223|ICAO-KFCH|||||||||||||71|Derived||FM15-METAR|223|ICAO-KFCH|||||||||||||||||||||||||||||||||||||||||||||||||||||||||||||||||||||||||1026.4||1|FM15-METAR|223|ICAO-KFCH|||||||||||||||||||||||||||||||||||||||||||MET064METAR KFCH 061650Z AUTO 14005KT 10SM OVC050 09/04 A3031 RMK A01=||F||223|ICAO-KFCH
USW00023167|FRESNO CHANDLER DWTN AP|2022|03|06|17|00|36.7333|-119.8167|84.1|9.0||1|FM15-METAR|223|ICAO-KFCH|4.0||1|FM15-METAR|223|ICAO-KFCH|||||||||||||||||||||||||||||||||||||71|Derived||FM15-METAR|223|ICAO-KFCH|||||||||||||||||||||||||||||||||||||||||||||||||||||||||||||||||||||||||1026.4||1|FM15-METAR|223|ICAO-KFCH|||||||||||||||||||||||||||||||||||||||||||MET056METAR KFCH 061700Z AUTO 10SM OVC050 09/04 A3031 RMK A01=||F||223|ICAO-KFCH
USW00023167|FRESNO CHANDLER DWTN AP|2022|03|06|18|50|36.7333|-119.8167|84.1|12.0||1|FM15-METAR|223|ICAO-KFCH|3.0||1|FM15-METAR|223|ICAO-KFCH|||||||||||||999|C-Calm|9|FM15-METAR|223|ICAO-KFCH|0.0|C-Calm|1|FM15-METAR|223|ICAO-KFCH|||||||||||||54|Derived||FM15-METAR|223|ICAO-KFCH|||||||||||||||||||||||||||||||||||||||||||||||||||||||||||||||||||||||||1026.4||1|FM15-METAR|223|ICAO-KFCH|||||||||||||||||||||||||||||||||||||||||||MET061METAR KFCH 061850Z AUTO 00000KT 10SM CLR 12/03 A3031 RMK A01=||F||223|ICAO-KFCH
USW00023167|FRESNO CHANDLER DWTN AP|2022|03|06|19|10|36.7333|-119.8167|84.1|12.0||1|FM15-METAR|223|ICAO-KFCH|3.0||1|FM15-METAR|223|ICAO-KFCH|||||||||||||999|C-Calm|9|FM15-METAR|223|ICAO-KFCH|0.0|C-Calm|1|FM15-METAR|223|ICAO-KFCH|||||||||||||54|Derived||FM15-METAR|223|ICAO-KFCH|||||||||||||||||||||||||||||||||||||||||||||||||||||||||||||||||||||||||1026.4||1|FM15-METAR|223|ICAO-KFCH|||||||||||||||||||||||||||||||||||||||||||MET061METAR KFCH 061910Z AUTO 00000KT 10SM CLR 12/03 A3031 RMK A01=||F||223|ICAO-KFCH
USW00023167|FRESNO CHANDLER DWTN AP|2022|03|06|19|35|36.7333|-119.8167|84.1|12.0||1|FM15-METAR|223|ICAO-KFCH|2.0||1|FM15-METAR|223|ICAO-KFCH|||||||||||||999|C-Calm|9|FM15-METAR|223|ICAO-KFCH|0.0|C-Calm|1|FM15-METAR|223|ICAO-KFCH|||||||||||||51|Derived||FM15-METAR|223|ICAO-KFCH|||||||||||||||||||||||||||||||||||||||||||||||||||||||||||||||||||||||||1026.4||1|FM15-METAR|223|ICAO-KFCH|||||||||||||||||||||||||||||||||||||||||||MET071METAR KFCH 061935Z AUTO 00000KT 10SM SCT043 SCT050 12/02 A3031 RMK A01=||F||223|ICAO-KFCH
USW00023167|FRESNO CHANDLER DWTN AP|2022|03|06|19|55|36.7333|-119.8167|84.1|12.0||1|FM15-METAR|223|ICAO-KFCH|2.0||1|FM15-METAR|223|ICAO-KFCH|||||||||||||999|C-Calm|9|FM15-METAR|223|ICAO-KFCH|0.0|C-Calm|1|FM15-METAR|223|ICAO-KFCH|5.1||1|FM15-METAR|223|ICAO-KFCH|||||||51|Derived||FM15-METAR|223|ICAO-KFCH|||||||||||||||||||||||||||||||||||||||||||||||||||||||||||||||||||||||||1026.1||1|FM15-METAR|223|ICAO-KFCH|||||||||||||||||||||||||||||||||||||||||||MET074METAR KFCH 061955Z AUTO 00000G10KT 10SM SCT040 BKN046 12/02 A3030 RMK A01=||F||223|ICAO-KFCH
USW00023167|FRESNO CHANDLER DWTN AP|2022|03|06|20|25|36.7333|-119.8167|84.1|13.0||1|FM15-METAR|223|ICAO-KFCH|2.0||1|FM15-METAR|223|ICAO-KFCH|||||||||||||999|V-Variable|9|FM15-METAR|223|ICAO-KFCH|2.6|V-Variable|1|FM15-METAR|223|ICAO-KFCH|||||||||||||47|Derived||FM15-METAR|223|ICAO-KFCH|||||||||||||||||||||||||||||||||||||||||||||||||||||||||||||||||||||||||1025.7||1|FM15-METAR|223|ICAO-KFCH|||||||||||||||||||||||||||||||||||||||||||MET064METAR KFCH 062025Z AUTO VRB05KT 10SM BKN045 13/02 A3029 RMK A01=||F||223|ICAO-KFCH
USW00023167|FRESNO CHANDLER DWTN AP|2022|03|06|20|50|36.7333|-119.8167|84.1|13.0||1|FM15-METAR|223|ICAO-KFCH|3.0||1|FM15-METAR|223|ICAO-KFCH|||||||||||||310|N-Normal|1|FM15-METAR|223|ICAO-KFCH|2.1|N-Normal|1|FM15-METAR|223|ICAO-KFCH|||||||||||||51|Derived||FM15-METAR|223|ICAO-KFCH|||||||||||||||||||||||||||||||||||||||||||||||||||||||||||||||||||||||||1025.7||1|FM15-METAR|223|ICAO-KFCH|||||||||||||||||||||||||||||||||||||||||||MET071METAR KFCH 062050Z AUTO 31004KT 10SM BKN046 BKN050 13/03 A3029 RMK A01=||F||223|ICAO-KFCH
USW00023167|FRESNO CHANDLER DWTN AP|2022|03|06|21|15|36.7333|-119.8167|84.1|14.0||1|FM15-METAR|223|ICAO-KFCH|2.0||1|FM15-METAR|223|ICAO-KFCH|||||||||||||999|V-Variable|9|FM15-METAR|223|ICAO-KFCH|2.1|V-Variable|1|FM15-METAR|223|ICAO-KFCH|||||||||||||44|Derived||FM15-METAR|223|ICAO-KFCH|||||||||||||||||||||||||||||||||||||||||||||||||||||||||||||||||||||||||1025.4||1|FM15-METAR|223|ICAO-KFCH|||||||||||||||||||||||||||||||||||||||||||MET064METAR KFCH 062115Z AUTO VRB04KT 10SM SCT046 14/02 A3028 RMK A01=||F||223|ICAO-KFCH
USW00023167|FRESNO CHANDLER DWTN AP|2022|03|06|22|40|36.7333|-119.8167|84.1|14.0||1|FM15-METAR|223|ICAO-KFCH|2.0||1|FM15-METAR|223|ICAO-KFCH|||||||||||||999|C-Calm|9|FM15-METAR|223|ICAO-KFCH|0.0|C-Calm|1|FM15-METAR|223|ICAO-KFCH|||||||||||||44|Derived||FM15-METAR|223|ICAO-KFCH|||||||||||||||||||||||||||||||||||||||||||||||||||||||||||||||||||||||||1024.7||1|FM15-METAR|223|ICAO-KFCH|||||||||||||||||||||||||||||||||||||||||||MET064METAR KFCH 062240Z AUTO 00000KT 10SM SCT050 14/02 A3026 RMK A01=||F||223|ICAO-KFCH
