Station_ID|Station_name|Year|Month|Day|Hour|Minute|Latitude|Longitude|Elevation|temperature|temperature_Measurement_Code|temperature_Quality_Code|temperature_Report_Type|temperature_Source_Code|temperature_Source_Station_ID|dew_point_temperature|dew_point_temperature_Measurement_Code|dew_point_temperature_Quality_Code|dew_point_temperature_Report_Type|dew_point_temperature_Source_Code|dew_point_temperature_Source_Station_ID|station_level_pressure|station_level_pressure_Measurement_Code|station_level_pressure_Quality_Code|station_level_pressure_Report_Type|station_level_pressure_Source_Code|station_level_pressure_Source_Station_ID|sea_level_pressure|sea_level_pressure_Measurement_Code|sea_level_pressure_Quality_Code|sea_level_pressure_Report_Type|sea_level_pressure_Source_Code|sea_level_pressure_Source_Station_ID|wind_direction|wind_direction_Measurement_Code|wind_direction_Quality_Code|wind_direction_Report_Type|wind_direction_Source_Code|wind_direction_Source_Station_ID|wind_speed|wind_speed_Measurement_Code|wind_speed_Quality_Code|wind_speed_Report_Type|wind_speed_Source_Code|wind_speed_Source_Station_ID|wind_gust|wind_gust_Measurement_Code|wind_gust_Quality_Code|wind_gust_Report_Type|wind_gust_Source_Code|wind_gust_Source_Station_ID|precipitation|precipitation_Measurement_Code|precipitation_Quality_Code|precipitation_Report_Type|precipitation_Source_Code|precipitation_Source_Station_ID|relative_humidity|relative_humidity_Measurement_Code|relative_humidity_Quality_Code|relative_humidity_Report_Type|relative_humidity_Source_Code|relative_humidity_Source_Station_ID|wet_bulb_temperature|wet_bulb_temperature_Measurement_Code|wet_bulb_temperature_Quality_Code|wet_bulb_temperature_Report_Type|wet_bulb_temperature_Source_Code|wet_bulb_temperature_Source_Station_ID|pres_wx_MW1|pres_wx_MW1_Measurement_Code|pres_wx_MW1_Quality_Code|pres_wx_MW1_Report_Type|pres_wx_MW1_Source_Code|pres_wx_MW1_Source_Station_ID|pres_wx_MW2|pres_wx_MW2_Measurement_Code|pres_wx_MW2_Quality_Code|pres_wx_MW2_Report_Type|pres_wx_MW2_Source_Code|pres_wx_MW2_Source_Station_ID|pres_wx_MW3|pres_wx_MW3_Measurement_Code|pres_wx_MW3_Quality_Code|pres_wx_MW3_Report_Type|pres_wx_MW3_Source_Code|pres_wx_MW3_Source_Station_ID|pres_wx_AU1|pres_wx_AU1_Measurement_Code|pres_wx_AU1_Quality_Code|pres_wx_AU1_Report_Type|pres_wx_AU1_Source_Code|pres_wx_AU1_Source_Station_ID|pres_wx_AU2|pres_wx_AU2_Measurement_Code|pres_wx_AU2_Quality_Code|pres_wx_AU2_Report_Type|pres_wx_AU2_Source_Code|pres_wx_AU2_Source_Station_ID|pres_wx_AU3|pres_wx_AU3_Measurement_Code|pres_wx_AU3_Quality_Code|pres_wx_AU3_Report_Type|pres_wx_AU3_Source_Code|pres_wx_AU3_Source_Station_ID|pres_wx_AW1|pres_wx_AW1_Measurement_Code|pres_wx_AW1_Quality_Code|pres_wx_AW1_Report_Type|pres_wx_AW1_Source_Code|pres_wx_AW1_Source_Station_ID|pres_wx_AW2|pres_wx_AW2_Measurement_Code|pres_wx_AW2_Quality_Code|pres_wx_AW2_Report_Type|pres_wx_AW2_Source_Code|pres_wx_AW2_Source_Station_ID|pres_wx_AW3|pres_wx_AW3_Measurement_Code|pres_wx_AW3_Quality_Code|pres_wx_AW3_Report_Type|pres_wx_AW3_Source_Code|pres_wx_AW3_Source_Station_ID|snow_depth|snow_depth_Measurement_Code|snow_depth_Quality_Code|snow_depth_Report_Type|snow_depth_Source_Code|snow_depth_Source_Station_ID|visibility|visibility_Measurement_Code|visibility_Quality_Code|visibility_Report_Type|visibility_Source_Code|visibility_Source_Station_ID|altimeter|altimeter_Measurement_Code|altimeter_Quality_Code|altimeter_Report_Type|altimeter_Source_Code|altimeter_Source_Station_ID|pressure_3hr_change|pressure_3hr_change_Measurement_Code|pressure_3hr_change_Quality_Code|pressure_3hr_change_Report_Type|pressure_3hr_change_Source_Code|pressure_3hr_change_Source_Station_ID|sky_cover_1|sky_cover_1_Measurement_Code|sky_cover_1_Quality_Code|sky_cover_1_Report_Type|sky_cover_1_Source_Code|sky_cover_1_Source_Station_ID|sky_cover_baseht_1|sky_cover_baseht_1_Measurement_Code|sky_cover_baseht_1_Quality_Code|sky_cover_baseht_1_Report_Type|sky_cover_baseht_1_Source_Code|sky_cover_baseht_1_Source_Station_ID|sky_cover_2|sky_cover_2_Measurement_Code|sky_cover_2_Quality_Code|sky_cover_2_Report_Type|sky_cover_2_Source_Code|sky_cover_2_Source_Station_ID|sky_cover_baseht_2|sky_cover_baseht_2_Measurement_Code|sky_cover_baseht_2_Quality_Code|sky_cover_baseht_2_Report_Type|sky_cover_baseht_2_Source_Code|sky_cover_baseht_2_Source_Station_ID|sky_cover_3|sky_cover_3_Measurement_Code|sky_cover_3_Quality_Code|sky_cover_3_Report_Type|sky_cover_3_Source_Code|sky_cover_3_Source_Station_ID|sky_cover_baseht_3|sky_cover_baseht_3_Measurement_Code|sky_cover_baseht_3_Quality_Code|sky_cover_baseht_3_Report_Type|sky_cover_baseht_3_Source_Code|sky_cover_baseht_3_Source_Station_ID|remarks|remarks_Measurement_Code|remarks_Quality_Code|remarks_Report_Type|remarks_Source_Code|remarks_Source_Station_ID
USW00023167|FRESNO CHANDLER DWTN AP|2021|07|29|20|35|36.7333|-119.8167|84.1|35.0||1|FM15-METAR|223|ICAO-KFCH|13.0||1|FM15-METAR|223|ICAO-KFCH|||||||||||||999|C-Calm|9|FM15-METAR|223|ICAO-KFCH|0.0|C-Calm|1|FM15-METAR|223|ICAO-KFCH|5.1||1|FM15-METAR|223|ICAO-KFCH|||||||26|Derived||FM15-METAR|223|ICAO-KFCH|||||||||||||||||||||||||||||||||||||||||||||||||||||||||||||||||||||||||1011.5||1|FM15-METAR|223|ICAO-KFCH|||||||||||||||||||||||||||||||||||||||||||MET060METAR KFCH 292035Z AUTO 00000G10KT 10SM 35/13 A2987 RMK A01=||F||223|ICAO-KFCH
USW00023167|FRESNO CHANDLER DWTN AP|2021|07|29|20|55|36.7333|-119.8167|84.1|36.0||1|FM15-METAR|223|ICAO-KFCH|13.0||1|FM15-METAR|223|ICAO-KFCH|||||||||||||270|N-Normal|1|FM15-METAR|223|ICAO-KFCH|3.6|N-Normal|1|FM15-METAR|223|ICAO-KFCH|||||||||||||25|Derived||FM15-METAR|223|ICAO-KFCH|||||||||||||||||||||||||||||||||||||||||||||||||||||||||||||||||||||||||1011.2||1|FM15-METAR|223|ICAO-KFCH|||||||||||||||||||||||||||||||||||||||||||MET061METAR KFCH 292055Z AUTO 27007KT 10SM CLR 36/13 A2986 RMK A01=||F||223|ICAO-KFCH
USW00023167|FRESNO CHANDLER DWTN AP|2021|07|29|21|15|36.7333|-119.8167|84.1|37.0||1|FM15-METAR|223|ICAO-KFCH|13.0||1|FM15-METAR|223|ICAO-KFCH|||||||||||||999|V-Variable|9|FM15-METAR|223|ICAO-KFCH|2.1|V-Variable|1|FM15-METAR|223|ICAO-KFCH|||||||||||||24|Derived||FM15-METAR|223|ICAO-KFCH|||||||||||||||||||||||||||||||||||||||||||||||||||||||||||||||||||||||||1011.2||1|FM15-METAR|223|ICAO-KFCH|||||||||||||||||||||||||||||||||||||||||||MET061METAR KFCH 292115Z AUTO VRB04KT 10SM CLR 37/13 A2986 RMK A01=||F||223|ICAO-KFCH
USW00023167|FRESNO CHANDLER DWTN AP|2021|07|29|21|35|36.7333|-119.8167|84.1|37.0||1|FM15-METAR|223|ICAO-KFCH|13.0||1|FM15-METAR|223|ICAO-KFCH|||||||||||||999|V-Variable|9|FM15-METAR|223|ICAO-KFCH|1.5|V-Variable|1|FM15-METAR|223|ICAO-KFCH|5.1||1|FM15-METAR|223|ICAO-KFCH|||||||24|Derived||FM15-METAR|223|ICAO-KFCH|||||||||||||||||||||||||||||||||||||||||||||||||||||||||||||||||||||||||1010.8||1|FM15-METAR|223|ICAO-KFCH|||||||||||||||||||||||||||||||||||||||||||MET064METAR KFCH 292135Z AUTO VRB03G10KT 10SM CLR 37/13 A2985 RMK A01=||F||223|ICAO-KFCH
USW00023167|FRESNO CHANDLER DWTN AP|2021|07|29|21|55|36.7333|-119.8167|84.1|38.0||1|FM15-METAR|223|ICAO-KFCH|13.0||1|FM15-METAR|223|ICAO-KFCH|||||||||||||240|N-Normal|1|FM15-METAR|223|ICAO-KFCH|3.6|N-Normal|1|FM15-METAR|223|ICAO-KFCH|||||||||||||22|Derived||FM15-METAR|223|ICAO-KFCH|||||||||||||||||||||||||||||||||||||||||||||||||||||||||||||||||||||||||1010.8||1|FM15-METAR|223|ICAO-KFCH|||||||||||||||||||||||||||||||||||||||||||MET061METAR KFCH 292155Z AUTO 24007KT 10SM CLR 38/13 A2985 RMK A01=||F||223|ICAO-KFCH
USW00023167|FRESNO CHANDLER DWTN AP|2021|07|29|22|15|36.7333|-119.8167|84.1|38.0||1|FM15-METAR|223|ICAO-KFCH|13.0||1|FM15-METAR|223|ICAO-KFCH|||||||||||||300|N-Normal|1|FM15-METAR|223|ICAO-KFCH|2.6|N-Normal|1|FM15-METAR|223|ICAO-KFCH|||||||||||||22|Derived||FM15-METAR|223|ICAO-KFCH|||||||||||||||||||||||||||||||||||||||||||||||||||||||||||||||||||||||||1010.5||1|FM15-METAR|223|ICAO-KFCH|||||||||||||||||||||||||||||||||||||||||||MET061METAR KFCH 292215Z AUTO 30005KT 10SM CLR 38/13 A2984 RMK A01=||F||223|ICAO-KFCH
USW00023167|FRESNO CHANDLER DWTN AP|2021|07|29|22|35|36.7333|-119.8167|84.1|39.0||1|FM15-METAR|223|ICAO-KFCH|13.0||1|FM15-METAR|223|ICAO-KFCH|||||||||||||350|N-Normal|1|FM15-METAR|223|ICAO-KFCH|3.6|N-Normal|1|FM15-METAR|223|ICAO-KFCH|||||||||||||21|Derived||FM15-METAR|223|ICAO-KFCH|||||||||||||||||||||||||||||||||||||||||||||||||||||||||||||||||||||||||1010.2||1|FM15-METAR|223|ICAO-KFCH|||||||||||||||||||||||||||||||||||||||||||MET061METAR KFCH 292235Z AUTO 35007KT 10SM CLR 39/13 A2983 RMK A01=||F||223|ICAO-KFCH
USW00023167|FRESNO CHANDLER DWTN AP|2021|07|29|22|55|36.7333|-119.8167|84.1|39.0||1|FM15-METAR|223|ICAO-KFCH|12.0||1|FM15-METAR|223|ICAO-KFCH|||||||||||||999|V-Variable|9|FM15-METAR|223|ICAO-KFCH|2.6|V-Variable|1|FM15-METAR|223|ICAO-KFCH|||||||||||||20|Derived||FM15-METAR|223|ICAO-KFCH|||||||||||||||||||||||||||||||||||||||||||||||||||||||||||||||||||||||||1010.2||1|FM15-METAR|223|ICAO-KFCH|||||||||||||||||||||||||||||||||||||||||||MET061METAR KFCH 292255Z AUTO VRB05KT 10SM CLR 39/12 A2983 RMK A01=||F||223|ICAO-KFCH
USW00023167|FRESNO CHANDLER DWTN AP|2021|07|29|23|15|36.7333|-119.8167|84.1|39.0||1|FM15-METAR|223|ICAO-KFCH|12.0||1|FM15-METAR|223|ICAO-KFCH|||||||||||||999|C-Calm|9|FM15-METAR|223|ICAO-KFCH|0.0|C-Calm|1|FM15-METAR|223|ICAO-KFCH|||||||||||||20|Derived||FM15-METAR|223|ICAO-KFCH|||||||||||||||||||||||||||||||||||||||||||||||||||||||||||||||||||||||||1009.8||1|FM15-METAR|223|ICAO-KFCH|||||||||||||||||||||||||||||||||||||||||||MET061METAR KFCH 292315Z AUTO 00000KT 10SM CLR 39/12 A2982 RMK A01=||F||223|ICAO-KFCH
USW00023167|FRESNO CHANDLER DWTN AP|2021|07|29|23|35|36.7333|-119.8167|84.1|39.0||1|FM15-METAR|223|ICAO-KFCH|13.0||1|FM15-METAR|223|ICAO-KFCH|||||||||||||310|N-Normal|1|FM15-METAR|223|ICAO-KFCH|4.6|N-Normal|1|FM15-METAR|223|ICAO-KFCH|||||||||||||21|Derived||FM15-METAR|223|ICAO-KFCH|||||||||||||||||||||||||||||||||||||||||||||||||||||||||||||||||||||||||1009.5||1|FM15-METAR|223|ICAO-KFCH|||||||||||||||||||||||||||||||||||||||||||MET060METAR KFCH 292335Z AUTO 31009KT 9SM CLR 39/13 A2981 RMK A01=||F||223|ICAO-KFCH
USW00023167|FRESNO CHANDLER DWTN AP|2021|07|29|23|55|36.7333|-119.8167|84.1|39.0||1|FM15-METAR|223|ICAO-KFCH|13.0||1|FM15-METAR|223|ICAO-KFCH|||||||||||||310|N-Normal|1|FM15-METAR|223|ICAO-KFCH|3.6|N-Normal|1|FM15-METAR|223|ICAO-KFCH|||||||||||||21|Derived||FM15-METAR|223|ICAO-KFCH|||||||||||||||||||||||||||||||||||||||||||||||||||||||||||||||||||||||||1009.1||1|FM15-METAR|223|ICAO-KFCH|||||||||||||||||||||||||||||||||||||||||||MET060METAR KFCH 292355Z AUTO 31007KT 9SM CLR 39/13 A2980 RMK A01=||F||223|ICAO-KFCH
USW00023167|FRESNO CHANDLER DWTN AP|2021|07|30|00|15|36.7333|-119.8167|84.1|39.0||1|FM15-METAR|223|ICAO-KFCH|12.0||1|FM15-METAR|223|ICAO-KFCH|||||||||||||300|N-Normal|1|FM15-METAR|223|ICAO-KFCH|4.6|N-Normal|1|FM15-METAR|223|ICAO-KFCH|||||||||||||20|Derived||FM15-METAR|223|ICAO-KFCH|||||||||||||||||||||||||||||||||||||||||||||||||||||||||||||||||||||||||1009.1||1|FM15-METAR|223|ICAO-KFCH|||||||||||||||||||||||||||||||||||||||||||MET061METAR KFCH 300015Z AUTO 30009KT 10SM CLR 39/12 A2980 RMK A01=||F||223|ICAO-KFCH
USW00023167|FRESNO CHANDLER DWTN AP|2021|07|30|00|30|36.7333|-119.8167|84.1|39.0||1|FM15-METAR|223|ICAO-KFCH|13.0||1|FM15-METAR|223|ICAO-KFCH|||||||||||||290|N-Normal|1|FM15-METAR|223|ICAO-KFCH|4.1|N-Normal|1|FM15-METAR|223|ICAO-KFCH|||||||||||||21|Derived||FM15-METAR|223|ICAO-KFCH|||||||||||||||||||||||||||||||||||||||||||||||||||||||||||||||||||||||||1008.8||1|FM15-METAR|223|ICAO-KFCH|||||||||||||||||||||||||||||||||||||||||||MET061METAR KFCH 300030Z AUTO 29008KT 10SM CLR 39/13 A2979 RMK A01=||F||223|ICAO-KFCH
USW00023167|FRESNO CHANDLER DWTN AP|2021|07|30|00|55|36.7333|-119.8167|84.1|39.0||1|FM15-METAR|223|ICAO-KFCH|14.0||1|FM15-METAR|223|ICAO-KFCH|||||||||||||300|N-Normal|1|FM15-METAR|223|ICAO-KFCH|4.6|N-Normal|1|FM15-METAR|223|ICAO-KFCH|||||||||||||23|Derived||FM15-METAR|223|ICAO-KFCH|||||||||||||||||||||||||||||||||||||||||||||||||||||||||||||||||||||||||1008.8||1|FM15-METAR|223|ICAO-KFCH|||||||||||||||||||||||||||||||||||||||||||MET061METAR KFCH 300055Z AUTO 30009KT 10SM CLR 39/14 A2979 RMK A01=||F||223|ICAO-KFCH
USW00023167|FRESNO CHANDLER DWTN AP|2021|07|30|01|15|36.7333|-119.8167|84.1|39.0||1|FM15-METAR|223|ICAO-KFCH|14.0||1|FM15-METAR|223|ICAO-KFCH|||||||||||||280|N-Normal|1|FM15-METAR|223|ICAO-KFCH|4.1|N-Normal|1|FM15-METAR|223|ICAO-KFCH|||||||||||||23|Derived||FM15-METAR|223|ICAO-KFCH|||||||||||||||||||||||||||||||||||||||||||||||||||||||||||||||||||||||||1008.5||1|FM15-METAR|223|ICAO-KFCH|||||||||||||||||||||||||||||||||||||||||||MET061METAR KFCH 300115Z AUTO 28008KT 10SM CLR 39/14 A2978 RMK A01=||F||223|ICAO-KFCH
USW00023167|FRESNO CHANDLER DWTN AP|2021|07|30|01|35|36.7333|-119.8167|84.1|39.0||1|FM15-METAR|223|ICAO-KFCH|14.0||1|FM15-METAR|223|ICAO-KFCH|||||||||||||290|N-Normal|1|FM15-METAR|223|ICAO-KFCH|5.1|N-Normal|1|FM15-METAR|223|ICAO-KFCH|||||||||||||23|Derived||FM15-METAR|223|ICAO-KFCH|||||||||||||||||||||||||||||||||||||||||||||||||||||||||||||||||||||||||1008.5||1|FM15-METAR|223|ICAO-KFCH|||||||||||||||||||||||||||||||||||||||||||MET061METAR KFCH 300135Z AUTO 29010KT 10SM CLR 39/14 A2978 RMK A01=||F||223|ICAO-KFCH
USW00023167|FRESNO CHANDLER DWTN AP|2021|07|30|01|55|36.7333|-119.8167|84.1|38.0||1|FM15-METAR|223|ICAO-KFCH|15.0||1|FM15-METAR|223|ICAO-KFCH|||||||||||||300|N-Normal|1|FM15-METAR|223|ICAO-KFCH|5.7|N-Normal|1|FM15-METAR|223|ICAO-KFCH|||||||||||||25|Derived||FM15-METAR|223|ICAO-KFCH|||||||||||||||||||||||||||||||||||||||||||||||||||||||||||||||||||||||||1008.1||1|FM15-METAR|223|ICAO-KFCH|||||||||||||||||||||||||||||||||||||||||||MET061METAR KFCH 300155Z AUTO 30011KT 10SM CLR 38/15 A2977 RMK A01=||F||223|ICAO-KFCH
USW00023167|FRESNO CHANDLER DWTN AP|2021|07|30|02|15|36.7333|-119.8167|84.1|38.0||1|FM15-METAR|223|ICAO-KFCH|14.0||1|FM15-METAR|223|ICAO-KFCH|||||||||||||300|N-Normal|1|FM15-METAR|223|ICAO-KFCH|5.1|N-Normal|1|FM15-METAR|223|ICAO-KFCH|||||||||||||24|Derived||FM15-METAR|223|ICAO-KFCH|||||||||||||||||||||||||||||||||||||||||||||||||||||||||||||||||||||||||1008.5||1|FM15-METAR|223|ICAO-KFCH|||||||||||||||||||||||||||||||||||||||||||MET061METAR KFCH 300215Z AUTO 30010KT 10SM CLR 38/14 A2978 RMK A01=||F||223|ICAO-KFCH
USW00023167|FRESNO CHANDLER DWTN AP|2021|07|30|02|35|36.7333|-119.8167|84.1|37.0||1|FM15-METAR|223|ICAO-KFCH|15.0||1|FM15-METAR|223|ICAO-KFCH|||||||||||||300|N-Normal|1|FM15-METAR|223|ICAO-KFCH|4.6|N-Normal|1|FM15-METAR|223|ICAO-KFCH|||||||||||||27|Derived||FM15-METAR|223|ICAO-KFCH|||||||||||||||||||||||||||||||||||||||||||||||||||||||||||||||||||||||||1008.5||1|FM15-METAR|223|ICAO-KFCH|||||||||||||||||||||||||||||||||||||||||||MET061METAR KFCH 300235Z AUTO 30009KT 10SM CLR 37/15 A2978 RMK A01=||F||223|ICAO-KFCH
USW00023167|FRESNO CHANDLER DWTN AP|2021|07|30|02|55|36.7333|-119.8167|84.1|36.0||1|FM15-METAR|223|ICAO-KFCH|15.0||1|FM15-METAR|223|ICAO-KFCH|||||||||||||300|N-Normal|1|FM15-METAR|223|ICAO-KFCH|5.1|N-Normal|1|FM15-METAR|223|ICAO-KFCH|||||||||||||28|Derived||FM15-METAR|223|ICAO-KFCH|||||||||||||||||||||||||||||||||||||||||||||||||||||||||||||||||||||||||1008.5||1|FM15-METAR|223|ICAO-KFCH|||||||||||||||||||||||||||||||||||||||||||MET061METAR KFCH 300255Z AUTO 30010KT 10SM CLR 36/15 A2978 RMK A01=||F||223|ICAO-KFCH
USW00023167|FRESNO CHANDLER DWTN AP|2021|07|30|03|15|36.7333|-119.8167|84.1|36.0||1|FM15-METAR|223|ICAO-KFCH|15.0||1|FM15-METAR|223|ICAO-KFCH|||||||||||||300|N-Normal|1|FM15-METAR|223|ICAO-KFCH|5.1|N-Normal|1|FM15-METAR|223|ICAO-KFCH|||||||||||||28|Derived||FM15-METAR|223|ICAO-KFCH|||||||||||||||||||||||||||||||||||||||||||||||||||||||||||||||||||||||||1008.5||1|FM15-METAR|223|ICAO-KFCH|||||||||||||||||||||||||||||||||||||||||||MET061METAR KFCH 300315Z AUTO 30010KT 10SM CLR 36/15 A2978 RMK A01=||F||223|ICAO-KFCH
USW00023167|FRESNO CHANDLER DWTN AP|2021|07|30|03|35|36.7333|-119.8167|84.1|35.0||1|FM15-METAR|223|ICAO-KFCH|16.0||1|FM15-METAR|223|ICAO-KFCH|||||||||||||310|N-Normal|1|FM15-METAR|223|ICAO-KFCH|4.6|N-Normal|1|FM15-METAR|223|ICAO-KFCH|7.2||1|FM15-METAR|223|ICAO-KFCH|||||||32|Derived||FM15-METAR|223|ICAO-KFCH|||||||||||||||||||||||||||||||||||||||||||||||||||||||||||||||||||||||||1008.8||1|FM15-METAR|223|ICAO-KFCH|||||||||||||||||||||||||||||||||||||||||||MET064METAR KFCH 300335Z AUTO 31009G14KT 10SM CLR 35/16 A2979 RMK A01=||F||223|ICAO-KFCH
USW00023167|FRESNO CHANDLER DWTN AP|2021|07|30|03|55|36.7333|-119.8167|84.1|34.0||1|FM15-METAR|223|ICAO-KFCH|16.0||1|FM15-METAR|223|ICAO-KFCH|||||||||||||300|N-Normal|1|FM15-METAR|223|ICAO-KFCH|6.2|N-Normal|1|FM15-METAR|223|ICAO-KFCH|||||||||||||34|Derived||FM15-METAR|223|ICAO-KFCH|||||||||||||||||||||||||||||||||||||||||||||||||||||||||||||||||||||||||1008.8||1|FM15-METAR|223|ICAO-KFCH|||||||||||||||||||||||||||||||||||||||||||MET061METAR KFCH 300355Z AUTO 30012KT 10SM CLR 34/16 A2979 RMK A01=||F||223|ICAO-KFCH
USW00023167|FRESNO CHANDLER DWTN AP|2021|07|30|04|15|36.7333|-119.8167|84.1|34.0||1|FM15-METAR|223|ICAO-KFCH|16.0||1|FM15-METAR|223|ICAO-KFCH|||||||||||||300|N-Normal|1|FM15-METAR|223|ICAO-KFCH|5.1|N-Normal|1|FM15-METAR|223|ICAO-KFCH|||||||||||||34|Derived||FM15-METAR|223|ICAO-KFCH|||||||||||||||||||||||||||||||||||||||||||||||||||||||||||||||||||||||||1009.1||1|FM15-METAR|223|ICAO-KFCH|||||||||||||||||||||||||||||||||||||||||||MET061METAR KFCH 300415Z AUTO 30010KT 10SM CLR 34/16 A2980 RMK A01=||F||223|ICAO-KFCH
USW00023167|FRESNO CHANDLER DWTN AP|2021|07|30|04|35|36.7333|-119.8167|84.1|33.0||1|FM15-METAR|223|ICAO-KFCH|16.0||1|FM15-METAR|223|ICAO-KFCH|||||||||||||310|N-Normal|1|FM15-METAR|223|ICAO-KFCH|4.1|N-Normal|1|FM15-METAR|223|ICAO-KFCH|||||||||||||36|Derived||FM15-METAR|223|ICAO-KFCH|||||||||||||||||||||||||||||||||||||||||||||||||||||||||||||||||||||||||1009.5||1|FM15-METAR|223|ICAO-KFCH|||||||||||||||||||||||||||||||||||||||||||MET061METAR KFCH 300435Z AUTO 31008KT 10SM CLR 33/16 A2981 RMK A01=||F||223|ICAO-KFCH
USW00023167|FRESNO CHANDLER DWTN AP|2021|07|30|04|55|36.7333|-119.8167|84.1|33.0||1|FM15-METAR|223|ICAO-KFCH|17.0||1|FM15-METAR|223|ICAO-KFCH|||||||||||||300|N-Normal|1|FM15-METAR|223|ICAO-KFCH|4.6|N-Normal|1|FM15-METAR|223|ICAO-KFCH|||||||||||||38|Derived||FM15-METAR|223|ICAO-KFCH|||||||||||||||||||||||||||||||||||||||||||||||||||||||||||||||||||||||||1009.5||1|FM15-METAR|223|ICAO-KFCH|||||||||||||||||||||||||||||||||||||||||||MET061METAR KFCH 300455Z AUTO 30009KT 10SM CLR 33/17 A2981 RMK A01=||F||223|ICAO-KFCH
USW00023167|FRESNO CHANDLER DWTN AP|2021|07|30|05|15|36.7333|-119.8167|84.1|32.0||1|FM15-METAR|223|ICAO-KFCH|17.0||1|FM15-METAR|223|ICAO-KFCH|||||||||||||290|N-Normal|1|FM15-METAR|223|ICAO-KFCH|3.6|N-Normal|1|FM15-METAR|223|ICAO-KFCH|||||||||||||41|Derived||FM15-METAR|223|ICAO-KFCH|||||||||||||||||||||||||||||||||||||||||||||||||||||||||||||||||||||||||1009.5||1|FM15-METAR|223|ICAO-KFCH|||||||||||||||||||||||||||||||||||||||||||MET061METAR KFCH 300515Z AUTO 29007KT 10SM CLR 32/17 A2981 RMK A01=||F||223|ICAO-KFCH
USW00023167|FRESNO CHANDLER DWTN AP|2021|07|30|05|35|36.7333|-119.8167|84.1|32.0||1|FM15-METAR|223|ICAO-KFCH|17.0||1|FM15-METAR|223|ICAO-KFCH|||||||||||||290|N-Normal|1|FM15-METAR|223|ICAO-KFCH|5.7|N-Normal|1|FM15-METAR|223|ICAO-KFCH|||||||||||||41|Derived||FM15-METAR|223|ICAO-KFCH|||||||||||||||||||||||||||||||||||||||||||||||||||||||||||||||||||||||||1009.5||1|FM15-METAR|223|ICAO-KFCH|||||||||||||||||||||||||||||||||||||||||||MET061METAR KFCH 300535Z AUTO 29011KT 10SM CLR 32/17 A2981 RMK A01=||F||223|ICAO-KFCH
USW00023167|FRESNO CHANDLER DWTN AP|2021|07|30|05|55|36.7333|-119.8167|84.1|32.0||1|FM15-METAR|223|ICAO-KFCH|16.0||1|FM15-METAR|223|ICAO-KFCH|||||||||||||290|N-Normal|1|FM15-METAR|223|ICAO-KFCH|5.7|N-Normal|1|FM15-METAR|223|ICAO-KFCH|||||||||||||38|Derived||FM15-METAR|223|ICAO-KFCH|||||||||||||||||||||||||||||||||||||||||||||||||||||||||||||||||||||||||1009.5||1|FM15-METAR|223|ICAO-KFCH|||||||||||||||||||||||||||||||||||||||||||MET061METAR KFCH 300555Z AUTO 29011KT 10SM CLR 32/16 A2981 RMK A01=||F||223|ICAO-KFCH
USW00023167|FRESNO CHANDLER DWTN AP|2021|07|30|06|15|36.7333|-119.8167|84.1|31.0||1|FM15-METAR|223|ICAO-KFCH|15.0||1|FM15-METAR|223|ICAO-KFCH|||||||||||||300|N-Normal|1|FM15-METAR|223|ICAO-KFCH|5.1|N-Normal|1|FM15-METAR|223|ICAO-KFCH|||||||||||||38|Derived||FM15-METAR|223|ICAO-KFCH|||||||||||||||||||||||||||||||||||||||||||||||||||||||||||||||||||||||||1009.5||1|FM15-METAR|223|ICAO-KFCH|||||||||||||||||||||||||||||||||||||||||||MET061METAR KFCH 300615Z AUTO 30010KT 10SM CLR 31/15 A2981 RMK A01=||F||223|ICAO-KFCH
USW00023167|FRESNO CHANDLER DWTN AP|2021|07|30|06|35|36.7333|-119.8167|84.1|31.0||1|FM15-METAR|223|ICAO-KFCH|15.0||1|FM15-METAR|223|ICAO-KFCH|||||||||||||300|N-Normal|1|FM15-METAR|223|ICAO-KFCH|4.1|N-Normal|1|FM15-METAR|223|ICAO-KFCH|||||||||||||38|Derived||FM15-METAR|223|ICAO-KFCH|||||||||||||||||||||||||||||||||||||||||||||||||||||||||||||||||||||||||1009.8||1|FM15-METAR|223|ICAO-KFCH|||||||||||||||||||||||||||||||||||||||||||MET061METAR KFCH 300635Z AUTO 30008KT 10SM CLR 31/15 A2982 RMK A01=||F||223|ICAO-KFCH
USW00023167|FRESNO CHANDLER DWTN AP|2021|07|30|06|55|36.7333|-119.8167|84.1|31.0||1|FM15-METAR|223|ICAO-KFCH|15.0||1|FM15-METAR|223|ICAO-KFCH|||||||||||||310|N-Normal|1|FM15-METAR|223|ICAO-KFCH|4.1|N-Normal|1|FM15-METAR|223|ICAO-KFCH|7.2||1|FM15-METAR|223|ICAO-KFCH|||||||38|Derived||FM15-METAR|223|ICAO-KFCH|||||||||||||||||||||||||||||||||||||||||||||||||||||||||||||||||||||||||1009.8||1|FM15-METAR|223|ICAO-KFCH|||||||||||||||||||||||||||||||||||||||||||MET064METAR KFCH 300655Z AUTO 31008G14KT 10SM CLR 31/15 A2982 RMK A01=||F||223|ICAO-KFCH
USW00023167|FRESNO CHANDLER DWTN AP|2021|07|30|07|15|36.7333|-119.8167|84.1|30.0||1|FM15-METAR|223|ICAO-KFCH|14.0||1|FM15-METAR|223|ICAO-KFCH|||||||||||||300|N-Normal|1|FM15-METAR|223|ICAO-KFCH|5.1|N-Normal|1|FM15-METAR|223|ICAO-KFCH|||||||||||||38|Derived||FM15-METAR|223|ICAO-KFCH|||||||||||||||||||||||||||||||||||||||||||||||||||||||||||||||||||||||||1009.8||1|FM15-METAR|223|ICAO-KFCH|||||||||||||||||||||||||||||||||||||||||||MET061METAR KFCH 300715Z AUTO 30010KT 10SM CLR 30/14 A2982 RMK A01=||F||223|ICAO-KFCH
USW00023167|FRESNO CHANDLER DWTN AP|2021|07|30|07|35|36.7333|-119.8167|84.1|30.0||1|FM15-METAR|223|ICAO-KFCH|14.0||1|FM15-METAR|223|ICAO-KFCH|||||||||||||300|N-Normal|1|FM15-METAR|223|ICAO-KFCH|5.1|N-Normal|1|FM15-METAR|223|ICAO-KFCH|||||||||||||38|Derived||FM15-METAR|223|ICAO-KFCH|||||||||||||||||||||||||||||||||||||||||||||||||||||||||||||||||||||||||1009.8||1|FM15-METAR|223|ICAO-KFCH|||||||||||||||||||||||||||||||||||||||||||MET061METAR KFCH 300735Z AUTO 30010KT 10SM CLR 30/14 A2982 RMK A01=||F||223|ICAO-KFCH
USW00023167|FRESNO CHANDLER DWTN AP|2021|07|30|07|55|36.7333|-119.8167|84.1|30.0||1|FM15-METAR|223|ICAO-KFCH|13.0||1|FM15-METAR|223|ICAO-KFCH|||||||||||||300|N-Normal|1|FM15-METAR|223|ICAO-KFCH|5.1|N-Normal|1|FM15-METAR|223|ICAO-KFCH|||||||||||||35|Derived||FM15-METAR|223|ICAO-KFCH|||||||||||||||||||||||||||||||||||||||||||||||||||||||||||||||||||||||||1009.8||1|FM15-METAR|223|ICAO-KFCH|||||||||||||||||||||||||||||||||||||||||||MET061METAR KFCH 300755Z AUTO 30010KT 10SM CLR 30/13 A2982 RMK A01=||F||223|ICAO-KFCH
USW00023167|FRESNO CHANDLER DWTN AP|2021|07|30|08|15|36.7333|-119.8167|84.1|30.0||1|FM15-METAR|223|ICAO-KFCH|13.0||1|FM15-METAR|223|ICAO-KFCH|||||||||||||300|N-Normal|1|FM15-METAR|223|ICAO-KFCH|5.7|N-Normal|1|FM15-METAR|223|ICAO-KFCH|||||||||||||35|Derived||FM15-METAR|223|ICAO-KFCH|||||||||||||||||||||||||||||||||||||||||||||||||||||||||||||||||||||||||1009.8||1|FM15-METAR|223|ICAO-KFCH|||||||||||||||||||||||||||||||||||||||||||MET061METAR KFCH 300815Z AUTO 30011KT 10SM CLR 30/13 A2982 RMK A01=||F||223|ICAO-KFCH
USW00023167|FRESNO CHANDLER DWTN AP|2021|07|30|08|35|36.7333|-119.8167|84.1|29.0||1|FM15-METAR|223|ICAO-KFCH|13.0||1|FM15-METAR|223|ICAO-KFCH|||||||||||||310|N-Normal|1|FM15-METAR|223|ICAO-KFCH|4.1|N-Normal|1|FM15-METAR|223|ICAO-KFCH|||||||||||||37|Derived||FM15-METAR|223|ICAO-KFCH|||||||||||||||||||||||||||||||||||||||||||||||||||||||||||||||||||||||||1009.8||1|FM15-METAR|223|ICAO-KFCH|||||||||||||||||||||||||||||||||||||||||||MET061METAR KFCH 300835Z AUTO 31008KT 10SM CLR 29/13 A2982 RMK A01=||F||223|ICAO-KFCH
USW00023167|FRESNO CHANDLER DWTN AP|2021|07|30|08|55|36.7333|-119.8167|84.1|29.0||1|FM15-METAR|223|ICAO-KFCH|13.0||1|FM15-METAR|223|ICAO-KFCH|||||||||||||320|N-Normal|1|FM15-METAR|223|ICAO-KFCH|3.1|N-Normal|1|FM15-METAR|223|ICAO-KFCH|||||||||||||37|Derived||FM15-METAR|223|ICAO-KFCH|||||||||||||||||||||||||||||||||||||||||||||||||||||||||||||||||||||||||1009.8||1|FM15-METAR|223|ICAO-KFCH|||||||||||||||||||||||||||||||||||||||||||MET061METAR KFCH 300855Z AUTO 32006KT 10SM CLR 29/13 A2982 RMK A01=||F||223|ICAO-KFCH
USW00023167|FRESNO CHANDLER DWTN AP|2021|07|30|09|10|36.7333|-119.8167|84.1|28.0||1|FM15-METAR|223|ICAO-KFCH|13.0||1|FM15-METAR|223|ICAO-KFCH|||||||||||||320|N-Normal|1|FM15-METAR|223|ICAO-KFCH|3.1|N-Normal|1|FM15-METAR|223|ICAO-KFCH|||||||||||||40|Derived||FM15-METAR|223|ICAO-KFCH|||||||||||||||||||||||||||||||||||||||||||||||||||||||||||||||||||||||||1009.8||1|FM15-METAR|223|ICAO-KFCH|||||||||||||||||||||||||||||||||||||||||||MET061METAR KFCH 300910Z AUTO 32006KT 10SM CLR 28/13 A2982 RMK A01=||F||223|ICAO-KFCH
USW00023167|FRESNO CHANDLER DWTN AP|2021|07|30|09|35|36.7333|-119.8167|84.1|28.0||1|FM15-METAR|223|ICAO-KFCH|14.0||1|FM15-METAR|223|ICAO-KFCH|||||||||||||320|N-Normal|1|FM15-METAR|223|ICAO-KFCH|2.1|N-Normal|1|FM15-METAR|223|ICAO-KFCH|||||||||||||42|Derived||FM15-METAR|223|ICAO-KFCH|||||||||||||||||||||||||||||||||||||||||||||||||||||||||||||||||||||||||1009.8||1|FM15-METAR|223|ICAO-KFCH|||||||||||||||||||||||||||||||||||||||||||MET061METAR KFCH 300935Z AUTO 32004KT 10SM CLR 28/14 A2982 RMK A01=||F||223|ICAO-KFCH
USW00023167|FRESNO CHANDLER DWTN AP|2021|07|30|09|55|36.7333|-119.8167|84.1|28.0||1|FM15-METAR|223|ICAO-KFCH|13.0||1|FM15-METAR|223|ICAO-KFCH|||||||||||||300|N-Normal|1|FM15-METAR|223|ICAO-KFCH|2.1|N-Normal|1|FM15-METAR|223|ICAO-KFCH|||||||||||||40|Derived||FM15-METAR|223|ICAO-KFCH|||||||||||||||||||||||||||||||||||||||||||||||||||||||||||||||||||||||||1009.8||1|FM15-METAR|223|ICAO-KFCH|||||||||||||||||||||||||||||||||||||||||||MET061METAR KFCH 300955Z AUTO 30004KT 10SM CLR 28/13 A2982 RMK A01=||F||223|ICAO-KFCH
USW00023167|FRESNO CHANDLER DWTN AP|2021|07|30|10|15|36.7333|-119.8167|84.1|28.0||1|FM15-METAR|223|ICAO-KFCH|13.0||1|FM15-METAR|223|ICAO-KFCH|||||||||||||310|N-Normal|1|FM15-METAR|223|ICAO-KFCH|3.1|N-Normal|1|FM15-METAR|223|ICAO-KFCH|||||||||||||40|Derived||FM15-METAR|223|ICAO-KFCH|||||||||||||||||||||||||||||||||||||||||||||||||||||||||||||||||||||||||1009.5||1|FM15-METAR|223|ICAO-KFCH|||||||||||||||||||||||||||||||||||||||||||MET061METAR KFCH 301015Z AUTO 31006KT 10SM CLR 28/13 A2981 RMK A01=||F||223|ICAO-KFCH
USW00023167|FRESNO CHANDLER DWTN AP|2021|07|30|10|35|36.7333|-119.8167|84.1|27.0||1|FM15-METAR|223|ICAO-KFCH|14.0||1|FM15-METAR|223|ICAO-KFCH|||||||||||||320|N-Normal|1|FM15-METAR|223|ICAO-KFCH|4.1|N-Normal|1|FM15-METAR|223|ICAO-KFCH|||||||||||||45|Derived||FM15-METAR|223|ICAO-KFCH|||||||||||||||||||||||||||||||||||||||||||||||||||||||||||||||||||||||||1009.5||1|FM15-METAR|223|ICAO-KFCH|||||||||||||||||||||||||||||||||||||||||||MET078METAR KFCH 301035Z AUTO 32008KT 10SM FEW017 SCT033 BKN070 27/14 A2981 RMK A01=||F||223|ICAO-KFCH
USW00023167|FRESNO CHANDLER DWTN AP|2021|07|30|10|55|36.7333|-119.8167|84.1|27.0||1|FM15-METAR|223|ICAO-KFCH|14.0||1|FM15-METAR|223|ICAO-KFCH|||||||||||||070|N-Normal|1|FM15-METAR|223|ICAO-KFCH|2.1|N-Normal|1|FM15-METAR|223|ICAO-KFCH|||||||||||||45|Derived||FM15-METAR|223|ICAO-KFCH|||||||||||||||||||||||||||||||||||||||||||||||||||||||||||||||||||||||||1009.8||1|FM15-METAR|223|ICAO-KFCH|||||||||||||||||||||||||||||||||||||||||||MET078METAR KFCH 301055Z AUTO 07004KT 10SM FEW017 SCT033 BKN048 27/14 A2982 RMK A01=||F||223|ICAO-KFCH
USW00023167|FRESNO CHANDLER DWTN AP|2021|07|30|11|15|36.7333|-119.8167|84.1|27.0||1|FM15-METAR|223|ICAO-KFCH|13.0||1|FM15-METAR|223|ICAO-KFCH|||||||||||||300|N-Normal|1|FM15-METAR|223|ICAO-KFCH|5.1|N-Normal|1|FM15-METAR|223|ICAO-KFCH|||||||||||||42|Derived||FM15-METAR|223|ICAO-KFCH|||||||||||||||||||||||||||||||||||||||||||||||||||||||||||||||||||||||||1009.5||1|FM15-METAR|223|ICAO-KFCH|||||||||||||||||||||||||||||||||||||||||||MET078METAR KFCH 301115Z AUTO 30010KT 10SM FEW035 FEW050 FEW060 27/13 A2981 RMK A01=||F||223|ICAO-KFCH
USW00023167|FRESNO CHANDLER DWTN AP|2021|07|30|11|35|36.7333|-119.8167|84.1|27.0||1|FM15-METAR|223|ICAO-KFCH|13.0||1|FM15-METAR|223|ICAO-KFCH|||||||||||||340|N-Normal|1|FM15-METAR|223|ICAO-KFCH|2.1|N-Normal|1|FM15-METAR|223|ICAO-KFCH|||||||||||||42|Derived||FM15-METAR|223|ICAO-KFCH|||||||||||||||||||||||||||||||||||||||||||||||||||||||||||||||||||||||||1009.8||1|FM15-METAR|223|ICAO-KFCH|||||||||||||||||||||||||||||||||||||||||||MET061METAR KFCH 301135Z AUTO 34004KT 10SM CLR 27/13 A2982 RMK A01=||F||223|ICAO-KFCH
USW00023167|FRESNO CHANDLER DWTN AP|2021|07|30|11|55|36.7333|-119.8167|84.1|27.0||1|FM15-METAR|223|ICAO-KFCH|13.0||1|FM15-METAR|223|ICAO-KFCH|||||||||||||290|N-Normal|1|FM15-METAR|223|ICAO-KFCH|1.5|N-Normal|1|FM15-METAR|223|ICAO-KFCH|||||||||||||42|Derived||FM15-METAR|223|ICAO-KFCH|||||||||||||||||||||||||||||||||||||||||||||||||||||||||||||||||||||||||1009.8||1|FM15-METAR|223|ICAO-KFCH|||||||||||||||||||||||||||||||||||||||||||MET057METAR KFCH 301155Z AUTO 29003KT 10SM 27/13 A2982 RMK A01=||F||223|ICAO-KFCH
USW00023167|FRESNO CHANDLER DWTN AP|2021|07|30|12|15|36.7333|-119.8167|84.1|27.0||1|FM15-METAR|223|ICAO-KFCH|13.0||1|FM15-METAR|223|ICAO-KFCH|||||||||||||250|N-Normal|1|FM15-METAR|223|ICAO-KFCH|1.5|N-Normal|1|FM15-METAR|223|ICAO-KFCH|||||||||||||42|Derived||FM15-METAR|223|ICAO-KFCH|||||||||||||||||||||||||||||||||||||||||||||||||||||||||||||||||||||||||1010.2||1|FM15-METAR|223|ICAO-KFCH|||||||||||||||||||||||||||||||||||||||||||MET061METAR KFCH 301215Z AUTO 25003KT 10SM CLR 27/13 A2983 RMK A01=||F||223|ICAO-KFCH
USW00023167|FRESNO CHANDLER DWTN AP|2021|07|30|12|35|36.7333|-119.8167|84.1|26.0||1|FM15-METAR|223|ICAO-KFCH|13.0||1|FM15-METAR|223|ICAO-KFCH|||||||||||||270|N-Normal|1|FM15-METAR|223|ICAO-KFCH|2.1|N-Normal|1|FM15-METAR|223|ICAO-KFCH|||||||||||||45|Derived||FM15-METAR|223|ICAO-KFCH|||||||||||||||||||||||||||||||||||||||||||||||||||||||||||||||||||||||||1010.2||1|FM15-METAR|223|ICAO-KFCH|||||||||||||||||||||||||||||||||||||||||||MET061METAR KFCH 301235Z AUTO 27004KT 10SM CLR 26/13 A2983 RMK A01=||F||223|ICAO-KFCH
USW00023167|FRESNO CHANDLER DWTN AP|2021|07|30|12|55|36.7333|-119.8167|84.1|26.0||1|FM15-METAR|223|ICAO-KFCH|13.0||1|FM15-METAR|223|ICAO-KFCH|||||||||||||260|N-Normal|1|FM15-METAR|223|ICAO-KFCH|2.1|N-Normal|1|FM15-METAR|223|ICAO-KFCH|||||||||||||45|Derived||FM15-METAR|223|ICAO-KFCH|||||||||||||||||||||||||||||||||||||||||||||||||||||||||||||||||||||||||1010.5||1|FM15-METAR|223|ICAO-KFCH|||||||||||||||||||||||||||||||||||||||||||MET061METAR KFCH 301255Z AUTO 26004KT 10SM CLR 26/13 A2984 RMK A01=||F||223|ICAO-KFCH
USW00023167|FRESNO CHANDLER DWTN AP|2021|07|30|13|15|36.7333|-119.8167|84.1|25.0||1|FM15-METAR|223|ICAO-KFCH|14.0||1|FM15-METAR|223|ICAO-KFCH|||||||||||||270|N-Normal|1|FM15-METAR|223|ICAO-KFCH|2.1|N-Normal|1|FM15-METAR|223|ICAO-KFCH|||||||||||||51|Derived||FM15-METAR|223|ICAO-KFCH|||||||||||||||||||||||||||||||||||||||||||||||||||||||||||||||||||||||||1010.5||1|FM15-METAR|223|ICAO-KFCH|||||||||||||||||||||||||||||||||||||||||||MET061METAR KFCH 301315Z AUTO 27004KT 10SM CLR 25/14 A2984 RMK A01=||F||223|ICAO-KFCH
USW00023167|FRESNO CHANDLER DWTN AP|2021|07|30|13|35|36.7333|-119.8167|84.1|25.0||1|FM15-METAR|223|ICAO-KFCH|14.0||1|FM15-METAR|223|ICAO-KFCH|||||||||||||270|N-Normal|1|FM15-METAR|223|ICAO-KFCH|1.5|N-Normal|1|FM15-METAR|223|ICAO-KFCH|||||||||||||51|Derived||FM15-METAR|223|ICAO-KFCH|||||||||||||||||||||||||||||||||||||||||||||||||||||||||||||||||||||||||1010.5||1|FM15-METAR|223|ICAO-KFCH|||||||||||||||||||||||||||||||||||||||||||MET061METAR KFCH 301335Z AUTO 27003KT 10SM CLR 25/14 A2984 RMK A01=||F||223|ICAO-KFCH
USW00023167|FRESNO CHANDLER DWTN AP|2021|07|30|13|55|36.7333|-119.8167|84.1|25.0||1|FM15-METAR|223|ICAO-KFCH|14.0||1|FM15-METAR|223|ICAO-KFCH|||||||||||||999|C-Calm|9|FM15-METAR|223|ICAO-KFCH|0.0|C-Calm|1|FM15-METAR|223|ICAO-KFCH|||||||||||||51|Derived||FM15-METAR|223|ICAO-KFCH|||||||||||||||||||||||||||||||||||||||||||||||||||||||||||||||||||||||||1010.8||1|FM15-METAR|223|ICAO-KFCH|||||||||||||||||||||||||||||||||||||||||||MET061METAR KFCH 301355Z AUTO 00000KT 10SM CLR 25/14 A2985 RMK A01=||F||223|ICAO-KFCH
USW00023167|FRESNO CHANDLER DWTN AP|2021|07|30|14|15|36.7333|-119.8167|84.1|25.0||1|FM15-METAR|223|ICAO-KFCH|14.0||1|FM15-METAR|223|ICAO-KFCH|||||||||||||999|C-Calm|9|FM15-METAR|223|ICAO-KFCH|0.0|C-Calm|1|FM15-METAR|223|ICAO-KFCH|||||||||||||51|Derived||FM15-METAR|223|ICAO-KFCH|||||||||||||||||||||||||||||||||||||||||||||||||||||||||||||||||||||||||1010.8||1|FM15-METAR|223|ICAO-KFCH|||||||||||||||||||||||||||||||||||||||||||MET061METAR KFCH 301415Z AUTO 00000KT 10SM CLR 25/14 A2985 RMK A01=||F||223|ICAO-KFCH
USW00023167|FRESNO CHANDLER DWTN AP|2021|07|30|14|35|36.7333|-119.8167|84.1|26.0||1|FM15-METAR|223|ICAO-KFCH|13.0||1|FM15-METAR|223|ICAO-KFCH|||||||||||||999|C-Calm|9|FM15-METAR|223|ICAO-KFCH|0.0|C-Calm|1|FM15-METAR|223|ICAO-KFCH|||||||||||||45|Derived||FM15-METAR|223|ICAO-KFCH|||||||||||||||||||||||||||||||||||||||||||||||||||||||||||||||||||||||||1011.2||1|FM15-METAR|223|ICAO-KFCH|||||||||||||||||||||||||||||||||||||||||||MET061METAR KFCH 301435Z AUTO 00000KT 10SM CLR 26/13 A2986 RMK A01=||F||223|ICAO-KFCH
USW00023167|FRESNO CHANDLER DWTN AP|2021|07|30|14|55|36.7333|-119.8167|84.1|27.0||1|FM15-METAR|223|ICAO-KFCH|14.0||1|FM15-METAR|223|ICAO-KFCH|||||||||||||220|N-Normal|1|FM15-METAR|223|ICAO-KFCH|1.5|N-Normal|1|FM15-METAR|223|ICAO-KFCH|||||||||||||45|Derived||FM15-METAR|223|ICAO-KFCH|||||||||||||||||||||||||||||||||||||||||||||||||||||||||||||||||||||||||1011.5||1|FM15-METAR|223|ICAO-KFCH|||||||||||||||||||||||||||||||||||||||||||MET061METAR KFCH 301455Z AUTO 22003KT 10SM CLR 27/14 A2987 RMK A01=||F||223|ICAO-KFCH
USW00023167|FRESNO CHANDLER DWTN AP|2021|07|30|15|15|36.7333|-119.8167|84.1|27.0||1|FM15-METAR|223|ICAO-KFCH|14.0||1|FM15-METAR|223|ICAO-KFCH|||||||||||||999|C-Calm|9|FM15-METAR|223|ICAO-KFCH|0.0|C-Calm|1|FM15-METAR|223|ICAO-KFCH|||||||||||||45|Derived||FM15-METAR|223|ICAO-KFCH|||||||||||||||||||||||||||||||||||||||||||||||||||||||||||||||||||||||||1011.8||1|FM15-METAR|223|ICAO-KFCH|||||||||||||||||||||||||||||||||||||||||||MET061METAR KFCH 301515Z AUTO 00000KT 10SM CLR 27/14 A2988 RMK A01=||F||223|ICAO-KFCH
USW00023167|FRESNO CHANDLER DWTN AP|2021|07|30|15|30|36.7333|-119.8167|84.1|28.0||1|FM15-METAR|223|ICAO-KFCH|14.0||1|FM15-METAR|223|ICAO-KFCH|||||||||||||999|C-Calm|9|FM15-METAR|223|ICAO-KFCH|0.0|C-Calm|1|FM15-METAR|223|ICAO-KFCH|||||||||||||42|Derived||FM15-METAR|223|ICAO-KFCH|||||||||||||||||||||||||||||||||||||||||||||||||||||||||||||||||||||||||1011.8||1|FM15-METAR|223|ICAO-KFCH|||||||||||||||||||||||||||||||||||||||||||MET061METAR KFCH 301530Z AUTO 00000KT 10SM CLR 28/14 A2988 RMK A01=||F||223|ICAO-KFCH
USW00023167|FRESNO CHANDLER DWTN AP|2021|07|30|15|55|36.7333|-119.8167|84.1|29.0||1|FM15-METAR|223|ICAO-KFCH|14.0||1|FM15-METAR|223|ICAO-KFCH|||||||||||||999|C-Calm|9|FM15-METAR|223|ICAO-KFCH|0.0|C-Calm|1|FM15-METAR|223|ICAO-KFCH|||||||||||||40|Derived||FM15-METAR|223|ICAO-KFCH|||||||||||||||||||||||||||||||||||||||||||||||||||||||||||||||||||||||||1012.2||1|FM15-METAR|223|ICAO-KFCH|||||||||||||||||||||||||||||||||||||||||||MET061METAR KFCH 301555Z AUTO 00000KT 10SM CLR 29/14 A2989 RMK A01=||F||223|ICAO-KFCH
USW00023167|FRESNO CHANDLER DWTN AP|2021|07|30|16|15|36.7333|-119.8167|84.1|30.0||1|FM15-METAR|223|ICAO-KFCH|14.0||1|FM15-METAR|223|ICAO-KFCH|||||||||||||160|N-Normal|1|FM15-METAR|223|ICAO-KFCH|2.1|N-Normal|1|FM15-METAR|223|ICAO-KFCH|||||||||||||38|Derived||FM15-METAR|223|ICAO-KFCH|||||||||||||||||||||||||||||||||||||||||||||||||||||||||||||||||||||||||1012.2||1|FM15-METAR|223|ICAO-KFCH|||||||||||||||||||||||||||||||||||||||||||MET060METAR KFCH 301615Z AUTO 16004KT 9SM CLR 30/14 A2989 RMK A01=||F||223|ICAO-KFCH
USW00023167|FRESNO CHANDLER DWTN AP|2021|07|30|16|30|36.7333|-119.8167|84.1|30.0||1|FM15-METAR|223|ICAO-KFCH|14.0||1|FM15-METAR|223|ICAO-KFCH|||||||||||||999|C-Calm|9|FM15-METAR|223|ICAO-KFCH|0.0|C-Calm|1|FM15-METAR|223|ICAO-KFCH|||||||||||||38|Derived||FM15-METAR|223|ICAO-KFCH|||||||||||||||||||||||||||||||||||||||||||||||||||||||||||||||||||||||||1011.8||1|FM15-METAR|223|ICAO-KFCH|||||||||||||||||||||||||||||||||||||||||||MET061METAR KFCH 301630Z AUTO 00000KT 10SM CLR 30/14 A2988 RMK A01=||F||223|ICAO-KFCH
USW00023167|FRESNO CHANDLER DWTN AP|2021|07|30|16|55|36.7333|-119.8167|84.1|31.0||1|FM15-METAR|223|ICAO-KFCH|13.0||1|FM15-METAR|223|ICAO-KFCH|||||||||||||999|C-Calm|9|FM15-METAR|223|ICAO-KFCH|0.0|C-Calm|1|FM15-METAR|223|ICAO-KFCH|||||||||||||33|Derived||FM15-METAR|223|ICAO-KFCH|||||||||||||||||||||||||||||||||||||||||||||||||||||||||||||||||||||||||1011.8||1|FM15-METAR|223|ICAO-KFCH|||||||||||||||||||||||||||||||||||||||||||MET061METAR KFCH 301655Z AUTO 00000KT 10SM CLR 31/13 A2988 RMK A01=||F||223|ICAO-KFCH
USW00023167|FRESNO CHANDLER DWTN AP|2021|07|30|17|15|36.7333|-119.8167|84.1|32.0||1|FM15-METAR|223|ICAO-KFCH|13.0||1|FM15-METAR|223|ICAO-KFCH|||||||||||||220|N-Normal|1|FM15-METAR|223|ICAO-KFCH|2.1|N-Normal|1|FM15-METAR|223|ICAO-KFCH|||||||||||||31|Derived||FM15-METAR|223|ICAO-KFCH|||||||||||||||||||||||||||||||||||||||||||||||||||||||||||||||||||||||||1011.8||1|FM15-METAR|223|ICAO-KFCH|||||||||||||||||||||||||||||||||||||||||||MET061METAR KFCH 301715Z AUTO 22004KT 10SM CLR 32/13 A2988 RMK A01=||F||223|ICAO-KFCH
USW00023167|FRESNO CHANDLER DWTN AP|2021|07|30|17|35|36.7333|-119.8167|84.1|33.0||1|FM15-METAR|223|ICAO-KFCH|12.0||1|FM15-METAR|223|ICAO-KFCH|||||||||||||999|V-Variable|9|FM15-METAR|223|ICAO-KFCH|2.1|V-Variable|1|FM15-METAR|223|ICAO-KFCH|||||||||||||28|Derived||FM15-METAR|223|ICAO-KFCH|||||||||||||||||||||||||||||||||||||||||||||||||||||||||||||||||||||||||1011.8||1|FM15-METAR|223|ICAO-KFCH|||||||||||||||||||||||||||||||||||||||||||MET061METAR KFCH 301735Z AUTO VRB04KT 10SM CLR 33/12 A2988 RMK A01=||F||223|ICAO-KFCH
USW00023167|FRESNO CHANDLER DWTN AP|2021|07|30|17|55|36.7333|-119.8167|84.1|33.0||1|FM15-METAR|223|ICAO-KFCH|13.0||1|FM15-METAR|223|ICAO-KFCH|||||||||||||300|N-Normal|1|FM15-METAR|223|ICAO-KFCH|2.1|N-Normal|1|FM15-METAR|223|ICAO-KFCH|||||||||||||30|Derived||FM15-METAR|223|ICAO-KFCH|||||||||||||||||||||||||||||||||||||||||||||||||||||||||||||||||||||||||1011.8||1|FM15-METAR|223|ICAO-KFCH|||||||||||||||||||||||||||||||||||||||||||MET061METAR KFCH 301755Z AUTO 30004KT 10SM CLR 33/13 A2988 RMK A01=||F||223|ICAO-KFCH
USW00023167|FRESNO CHANDLER DWTN AP|2021|07|30|18|15|36.7333|-119.8167|84.1|34.0||1|FM15-METAR|223|ICAO-KFCH|13.0||1|FM15-METAR|223|ICAO-KFCH|||||||||||||290|N-Normal|1|FM15-METAR|223|ICAO-KFCH|3.6|N-Normal|1|FM15-METAR|223|ICAO-KFCH|||||||||||||28|Derived||FM15-METAR|223|ICAO-KFCH|||||||||||||||||||||||||||||||||||||||||||||||||||||||||||||||||||||||||1011.8||1|FM15-METAR|223|ICAO-KFCH|||||||||||||||||||||||||||||||||||||||||||MET061METAR KFCH 301815Z AUTO 29007KT 10SM CLR 34/13 A2988 RMK A01=||F||223|ICAO-KFCH
USW00023167|FRESNO CHANDLER DWTN AP|2021|07|30|18|35|36.7333|-119.8167|84.1|34.0||1|FM15-METAR|223|ICAO-KFCH|12.0||1|FM15-METAR|223|ICAO-KFCH|||||||||||||280|N-Normal|1|FM15-METAR|223|ICAO-KFCH|2.1|N-Normal|1|FM15-METAR|223|ICAO-KFCH|5.7||1|FM15-METAR|223|ICAO-KFCH|||||||26|Derived||FM15-METAR|223|ICAO-KFCH|||||||||||||||||||||||||||||||||||||||||||||||||||||||||||||||||||||||||1011.5||1|FM15-METAR|223|ICAO-KFCH|||||||||||||||||||||||||||||||||||||||||||MET064METAR KFCH 301835Z AUTO 28004G11KT 10SM CLR 34/12 A2987 RMK A01=||F||223|ICAO-KFCH
USW00023167|FRESNO CHANDLER DWTN AP|2021|07|30|18|55|36.7333|-119.8167|84.1|34.0||1|FM15-METAR|223|ICAO-KFCH|13.0||1|FM15-METAR|223|ICAO-KFCH|||||||||||||999|V-Variable|9|FM15-METAR|223|ICAO-KFCH|2.6|V-Variable|1|FM15-METAR|223|ICAO-KFCH|||||||||||||28|Derived||FM15-METAR|223|ICAO-KFCH|||||||||||||||||||||||||||||||||||||||||||||||||||||||||||||||||||||||||1011.5||1|FM15-METAR|223|ICAO-KFCH|||||||||||||||||||||||||||||||||||||||||||MET061METAR KFCH 301855Z AUTO VRB05KT 10SM CLR 34/13 A2987 RMK A01=||F||223|ICAO-KFCH
USW00023167|FRESNO CHANDLER DWTN AP|2021|07|30|19|15|36.7333|-119.8167|84.1|36.0||1|FM15-METAR|223|ICAO-KFCH|13.0||1|FM15-METAR|223|ICAO-KFCH|||||||||||||999|V-Variable|9|FM15-METAR|223|ICAO-KFCH|3.1|V-Variable|1|FM15-METAR|223|ICAO-KFCH|||||||||||||25|Derived||FM15-METAR|223|ICAO-KFCH|||||||||||||||||||||||||||||||||||||||||||||||||||||||||||||||||||||||||1011.2||1|FM15-METAR|223|ICAO-KFCH|||||||||||||||||||||||||||||||||||||||||||MET061METAR KFCH 301915Z AUTO VRB06KT 10SM CLR 36/13 A2986 RMK A01=||F||223|ICAO-KFCH
USW00023167|FRESNO CHANDLER DWTN AP|2021|07|30|19|35|36.7333|-119.8167|84.1|36.0||1|FM15-METAR|223|ICAO-KFCH|13.0||1|FM15-METAR|223|ICAO-KFCH|||||||||||||250|N-Normal|1|FM15-METAR|223|ICAO-KFCH|4.6|N-Normal|1|FM15-METAR|223|ICAO-KFCH|||||||||||||25|Derived||FM15-METAR|223|ICAO-KFCH|||||||||||||||||||||||||||||||||||||||||||||||||||||||||||||||||||||||||1011.2||1|FM15-METAR|223|ICAO-KFCH|||||||||||||||||||||||||||||||||||||||||||MET061METAR KFCH 301935Z AUTO 25009KT 10SM CLR 36/13 A2986 RMK A01=||F||223|ICAO-KFCH
USW00023167|FRESNO CHANDLER DWTN AP|2021|07|30|19|50|36.7333|-119.8167|84.1|37.0||1|FM15-METAR|223|ICAO-KFCH|13.0||1|FM15-METAR|223|ICAO-KFCH|||||||||||||260|N-Normal|1|FM15-METAR|223|ICAO-KFCH|4.1|N-Normal|1|FM15-METAR|223|ICAO-KFCH|||||||||||||24|Derived||FM15-METAR|223|ICAO-KFCH|||||||||||||||||||||||||||||||||||||||||||||||||||||||||||||||||||||||||1011.2||1|FM15-METAR|223|ICAO-KFCH|||||||||||||||||||||||||||||||||||||||||||MET061METAR KFCH 301950Z AUTO 26008KT 10SM CLR 37/13 A2986 RMK A01=||F||223|ICAO-KFCH
USW00023167|FRESNO CHANDLER DWTN AP|2021|07|30|20|15|36.7333|-119.8167|84.1|37.0||1|FM15-METAR|223|ICAO-KFCH|13.0||1|FM15-METAR|223|ICAO-KFCH|||||||||||||280|N-Normal|1|FM15-METAR|223|ICAO-KFCH|3.6|N-Normal|1|FM15-METAR|223|ICAO-KFCH|6.2||1|FM15-METAR|223|ICAO-KFCH|||||||24|Derived||FM15-METAR|223|ICAO-KFCH|||||||||||||||||||||||||||||||||||||||||||||||||||||||||||||||||||||||||1010.8||1|FM15-METAR|223|ICAO-KFCH|||||||||||||||||||||||||||||||||||||||||||MET064METAR KFCH 302015Z AUTO 28007G12KT 10SM CLR 37/13 A2985 RMK A01=||F||223|ICAO-KFCH
USW00023167|FRESNO CHANDLER DWTN AP|2021|07|30|20|35|36.7333|-119.8167|84.1|37.0||1|FM15-METAR|223|ICAO-KFCH|13.0||1|FM15-METAR|223|ICAO-KFCH|||||||||||||270|N-Normal|1|FM15-METAR|223|ICAO-KFCH|4.1|N-Normal|1|FM15-METAR|223|ICAO-KFCH|||||||||||||24|Derived||FM15-METAR|223|ICAO-KFCH|||||||||||||||||||||||||||||||||||||||||||||||||||||||||||||||||||||||||1010.5||1|FM15-METAR|223|ICAO-KFCH|||||||||||||||||||||||||||||||||||||||||||MET061METAR KFCH 302035Z AUTO 27008KT 10SM CLR 37/13 A2984 RMK A01=||F||223|ICAO-KFCH
USW00023167|FRESNO CHANDLER DWTN AP|2021|07|30|20|50|36.7333|-119.8167|84.1|38.0||1|FM15-METAR|223|ICAO-KFCH|14.0||1|FM15-METAR|223|ICAO-KFCH|||||||||||||270|N-Normal|1|FM15-METAR|223|ICAO-KFCH|4.6|N-Normal|1|FM15-METAR|223|ICAO-KFCH|||||||||||||24|Derived||FM15-METAR|223|ICAO-KFCH|||||||||||||||||||||||||||||||||||||||||||||||||||||||||||||||||||||||||1010.5||1|FM15-METAR|223|ICAO-KFCH|||||||||||||||||||||||||||||||||||||||||||MET061METAR KFCH 302050Z AUTO 27009KT 10SM CLR 38/14 A2984 RMK A01=||F||223|ICAO-KFCH
USW00023167|FRESNO CHANDLER DWTN AP|2021|07|30|21|15|36.7333|-119.8167|84.1|38.0||1|FM15-METAR|223|ICAO-KFCH|14.0||1|FM15-METAR|223|ICAO-KFCH|||||||||||||250|N-Normal|1|FM15-METAR|223|ICAO-KFCH|4.1|N-Normal|1|FM15-METAR|223|ICAO-KFCH|7.2||1|FM15-METAR|223|ICAO-KFCH|||||||24|Derived||FM15-METAR|223|ICAO-KFCH|||||||||||||||||||||||||||||||||||||||||||||||||||||||||||||||||||||||||1010.5||1|FM15-METAR|223|ICAO-KFCH|||||||||||||||||||||||||||||||||||||||||||MET064METAR KFCH 302115Z AUTO 25008G14KT 10SM CLR 38/14 A2984 RMK A01=||F||223|ICAO-KFCH
USW00023167|FRESNO CHANDLER DWTN AP|2021|07|30|21|35|36.7333|-119.8167|84.1|38.0||1|FM15-METAR|223|ICAO-KFCH|14.0||1|FM15-METAR|223|ICAO-KFCH|||||||||||||280|N-Normal|1|FM15-METAR|223|ICAO-KFCH|4.1|N-Normal|1|FM15-METAR|223|ICAO-KFCH|||||||||||||24|Derived||FM15-METAR|223|ICAO-KFCH|||||||||||||||||||||||||||||||||||||||||||||||||||||||||||||||||||||||||1010.2||1|FM15-METAR|223|ICAO-KFCH|||||||||||||||||||||||||||||||||||||||||||MET061METAR KFCH 302135Z AUTO 28008KT 10SM CLR 38/14 A2983 RMK A01=||F||223|ICAO-KFCH
USW00023167|FRESNO CHANDLER DWTN AP|2021|07|30|21|55|36.7333|-119.8167|84.1|39.0||1|FM15-METAR|223|ICAO-KFCH|14.0||1|FM15-METAR|223|ICAO-KFCH|||||||||||||290|N-Normal|1|FM15-METAR|223|ICAO-KFCH|2.6|N-Normal|1|FM15-METAR|223|ICAO-KFCH|6.2||1|FM15-METAR|223|ICAO-KFCH|||||||23|Derived||FM15-METAR|223|ICAO-KFCH|||||||||||||||||||||||||||||||||||||||||||||||||||||||||||||||||||||||||1010.2||1|FM15-METAR|223|ICAO-KFCH|||||||||||||||||||||||||||||||||||||||||||MET064METAR KFCH 302155Z AUTO 29005G12KT 10SM CLR 39/14 A2983 RMK A01=||F||223|ICAO-KFCH
USW00023167|FRESNO CHANDLER DWTN AP|2021|07|30|22|15|36.7333|-119.8167|84.1|39.0||1|FM15-METAR|223|ICAO-KFCH|14.0||1|FM15-METAR|223|ICAO-KFCH|||||||||||||330|N-Normal|1|FM15-METAR|223|ICAO-KFCH|3.6|N-Normal|1|FM15-METAR|223|ICAO-KFCH|6.2||1|FM15-METAR|223|ICAO-KFCH|||||||23|Derived||FM15-METAR|223|ICAO-KFCH|||||||||||||||||||||||||||||||||||||||||||||||||||||||||||||||||||||||||1009.8||1|FM15-METAR|223|ICAO-KFCH|||||||||||||||||||||||||||||||||||||||||||MET064METAR KFCH 302215Z AUTO 33007G12KT 10SM CLR 39/14 A2982 RMK A01=||F||223|ICAO-KFCH
USW00023167|FRESNO CHANDLER DWTN AP|2021|07|30|22|35|36.7333|-119.8167|84.1|40.0||1|FM15-METAR|223|ICAO-KFCH|13.0||1|FM15-METAR|223|ICAO-KFCH|||||||||||||310|N-Normal|1|FM15-METAR|223|ICAO-KFCH|4.1|N-Normal|1|FM15-METAR|223|ICAO-KFCH|7.2||1|FM15-METAR|223|ICAO-KFCH|||||||20|Derived||FM15-METAR|223|ICAO-KFCH|||||||||||||||||||||||||||||||||||||||||||||||||||||||||||||||||||||||||1009.8||1|FM15-METAR|223|ICAO-KFCH|||||||||||||||||||||||||||||||||||||||||||MET064METAR KFCH 302235Z AUTO 31008G14KT 10SM CLR 40/13 A2982 RMK A01=||F||223|ICAO-KFCH
USW00023167|FRESNO CHANDLER DWTN AP|2021|07|30|22|55|36.7333|-119.8167|84.1|40.0||1|FM15-METAR|223|ICAO-KFCH|14.0||1|FM15-METAR|223|ICAO-KFCH|||||||||||||999|V-Variable|9|FM15-METAR|223|ICAO-KFCH|2.6|V-Variable|1|FM15-METAR|223|ICAO-KFCH|8.2||1|FM15-METAR|223|ICAO-KFCH|||||||21|Derived||FM15-METAR|223|ICAO-KFCH|||||||||||||||||||||||||||||||||||||||||||||||||||||||||||||||||||||||||1009.5||1|FM15-METAR|223|ICAO-KFCH|||||||||||||||||||||||||||||||||||||||||||MET064METAR KFCH 302255Z AUTO VRB05G16KT 10SM CLR 40/14 A2981 RMK A01=||F||223|ICAO-KFCH
USW00023167|FRESNO CHANDLER DWTN AP|2021|07|30|23|15|36.7333|-119.8167|84.1|40.0||1|FM15-METAR|223|ICAO-KFCH|13.0||1|FM15-METAR|223|ICAO-KFCH|||||||||||||999|V-Variable|9|FM15-METAR|223|ICAO-KFCH|2.1|V-Variable|1|FM15-METAR|223|ICAO-KFCH|5.1||1|FM15-METAR|223|ICAO-KFCH|||||||20|Derived||FM15-METAR|223|ICAO-KFCH|||||||||||||||||||||||||||||||||||||||||||||||||||||||||||||||||||||||||1009.5||1|FM15-METAR|223|ICAO-KFCH|||||||||||||||||||||||||||||||||||||||||||MET064METAR KFCH 302315Z AUTO VRB04G10KT 10SM CLR 40/13 A2981 RMK A01=||F||223|ICAO-KFCH
USW00023167|FRESNO CHANDLER DWTN AP|2021|07|30|23|35|36.7333|-119.8167|84.1|40.0||1|FM15-METAR|223|ICAO-KFCH|14.0||1|FM15-METAR|223|ICAO-KFCH|||||||||||||999|V-Variable|9|FM15-METAR|223|ICAO-KFCH|2.1|V-Variable|1|FM15-METAR|223|ICAO-KFCH|||||||||||||21|Derived||FM15-METAR|223|ICAO-KFCH|||||||||||||||||||||||||||||||||||||||||||||||||||||||||||||||||||||||||1009.5||1|FM15-METAR|223|ICAO-KFCH|||||||||||||||||||||||||||||||||||||||||||MET061METAR KFCH 302335Z AUTO VRB04KT 10SM CLR 40/14 A2981 RMK A01=||F||223|ICAO-KFCH
USW00023167|FRESNO CHANDLER DWTN AP|2021|07|30|23|55|36.7333|-119.8167|84.1|40.0||1|FM15-METAR|223|ICAO-KFCH|13.0||1|FM15-METAR|223|ICAO-KFCH|||||||||||||360|N-Normal|1|FM15-METAR|223|ICAO-KFCH|3.6|N-Normal|1|FM15-METAR|223|ICAO-KFCH|6.2||1|FM15-METAR|223|ICAO-KFCH|||||||20|Derived||FM15-METAR|223|ICAO-KFCH|||||||||||||||||||||||||||||||||||||||||||||||||||||||||||||||||||||||||1009.1||1|FM15-METAR|223|ICAO-KFCH|||||||||||||||||||||||||||||||||||||||||||MET064METAR KFCH 302355Z AUTO 36007G12KT 10SM CLR 40/13 A2980 RMK A01=||F||223|ICAO-KFCH
USW00023167|FRESNO CHANDLER DWTN AP|2021|07|31|00|15|36.7333|-119.8167|84.1|40.0||1|FM15-METAR|223|ICAO-KFCH|14.0||1|FM15-METAR|223|ICAO-KFCH|||||||||||||999|V-Variable|9|FM15-METAR|223|ICAO-KFCH|3.1|V-Variable|1|FM15-METAR|223|ICAO-KFCH|5.7||1|FM15-METAR|223|ICAO-KFCH|||||||21|Derived||FM15-METAR|223|ICAO-KFCH|||||||||||||||||||||||||||||||||||||||||||||||||||||||||||||||||||||||||1009.1||1|FM15-METAR|223|ICAO-KFCH|||||||||||||||||||||||||||||||||||||||||||MET064METAR KFCH 310015Z AUTO VRB06G11KT 10SM CLR 40/14 A2980 RMK A01=||F||223|ICAO-KFCH
USW00023167|FRESNO CHANDLER DWTN AP|2021|07|31|00|35|36.7333|-119.8167|84.1|40.0||1|FM15-METAR|223|ICAO-KFCH|13.0||1|FM15-METAR|223|ICAO-KFCH|||||||||||||320|N-Normal|1|FM15-METAR|223|ICAO-KFCH|3.1|N-Normal|1|FM15-METAR|223|ICAO-KFCH|||||||||||||20|Derived||FM15-METAR|223|ICAO-KFCH|||||||||||||||||||||||||||||||||||||||||||||||||||||||||||||||||||||||||1009.1||1|FM15-METAR|223|ICAO-KFCH|||||||||||||||||||||||||||||||||||||||||||MET061METAR KFCH 310035Z AUTO 32006KT 10SM CLR 40/13 A2980 RMK A01=||F||223|ICAO-KFCH
USW00023167|FRESNO CHANDLER DWTN AP|2021|07|31|00|55|36.7333|-119.8167|84.1|40.0||1|FM15-METAR|223|ICAO-KFCH|13.0||1|FM15-METAR|223|ICAO-KFCH|||||||||||||320|N-Normal|1|FM15-METAR|223|ICAO-KFCH|4.1|N-Normal|1|FM15-METAR|223|ICAO-KFCH|7.2||1|FM15-METAR|223|ICAO-KFCH|||||||20|Derived||FM15-METAR|223|ICAO-KFCH|||||||||||||||||||||||||||||||||||||||||||||||||||||||||||||||||||||||||1008.8||1|FM15-METAR|223|ICAO-KFCH|||||||||||||||||||||||||||||||||||||||||||MET064METAR KFCH 310055Z AUTO 32008G14KT 10SM CLR 40/13 A2979 RMK A01=||F||223|ICAO-KFCH
USW00023167|FRESNO CHANDLER DWTN AP|2021|07|31|01|15|36.7333|-119.8167|84.1|40.0||1|FM15-METAR|223|ICAO-KFCH|13.0||1|FM15-METAR|223|ICAO-KFCH|||||||||||||300|N-Normal|1|FM15-METAR|223|ICAO-KFCH|4.6|N-Normal|1|FM15-METAR|223|ICAO-KFCH|7.2||1|FM15-METAR|223|ICAO-KFCH|||||||20|Derived||FM15-METAR|223|ICAO-KFCH|||||||||||||||||||||||||||||||||||||||||||||||||||||||||||||||||||||||||1008.8||1|FM15-METAR|223|ICAO-KFCH|||||||||||||||||||||||||||||||||||||||||||MET064METAR KFCH 310115Z AUTO 30009G14KT 10SM CLR 40/13 A2979 RMK A01=||F||223|ICAO-KFCH
USW00023167|FRESNO CHANDLER DWTN AP|2021|07|31|01|35|36.7333|-119.8167|84.1|40.0||1|FM15-METAR|223|ICAO-KFCH|13.0||1|FM15-METAR|223|ICAO-KFCH|||||||||||||330|N-Normal|1|FM15-METAR|223|ICAO-KFCH|4.6|N-Normal|1|FM15-METAR|223|ICAO-KFCH|||||||||||||20|Derived||FM15-METAR|223|ICAO-KFCH|||||||||||||||||||||||||||||||||||||||||||||||||||||||||||||||||||||||||1009.1||1|FM15-METAR|223|ICAO-KFCH|||||||||||||||||||||||||||||||||||||||||||MET061METAR KFCH 310135Z AUTO 33009KT 10SM CLR 40/13 A2980 RMK A01=||F||223|ICAO-KFCH
USW00023167|FRESNO CHANDLER DWTN AP|2021|07|31|01|55|36.7333|-119.8167|84.1|39.0||1|FM15-METAR|223|ICAO-KFCH|14.0||1|FM15-METAR|223|ICAO-KFCH|||||||||||||300|N-Normal|1|FM15-METAR|223|ICAO-KFCH|4.6|N-Normal|1|FM15-METAR|223|ICAO-KFCH|||||||||||||23|Derived||FM15-METAR|223|ICAO-KFCH|||||||||||||||||||||||||||||||||||||||||||||||||||||||||||||||||||||||||1009.1||1|FM15-METAR|223|ICAO-KFCH|||||||||||||||||||||||||||||||||||||||||||MET061METAR KFCH 310155Z AUTO 30009KT 10SM CLR 39/14 A2980 RMK A01=||F||223|ICAO-KFCH
USW00023167|FRESNO CHANDLER DWTN AP|2021|07|31|02|10|36.7333|-119.8167|84.1|39.0||1|FM15-METAR|223|ICAO-KFCH|14.0||1|FM15-METAR|223|ICAO-KFCH|||||||||||||320|N-Normal|1|FM15-METAR|223|ICAO-KFCH|3.6|N-Normal|1|FM15-METAR|223|ICAO-KFCH|||||||||||||23|Derived||FM15-METAR|223|ICAO-KFCH|||||||||||||||||||||||||||||||||||||||||||||||||||||||||||||||||||||||||1009.1||1|FM15-METAR|223|ICAO-KFCH|||||||||||||||||||||||||||||||||||||||||||MET061METAR KFCH 310210Z AUTO 32007KT 10SM CLR 39/14 A2980 RMK A01=||F||223|ICAO-KFCH
USW00023167|FRESNO CHANDLER DWTN AP|2021|07|31|02|35|36.7333|-119.8167|84.1|39.0||1|FM15-METAR|223|ICAO-KFCH|15.0||1|FM15-METAR|223|ICAO-KFCH|||||||||||||290|N-Normal|1|FM15-METAR|223|ICAO-KFCH|3.1|N-Normal|1|FM15-METAR|223|ICAO-KFCH|||||||||||||24|Derived||FM15-METAR|223|ICAO-KFCH|||||||||||||||||||||||||||||||||||||||||||||||||||||||||||||||||||||||||1009.5||1|FM15-METAR|223|ICAO-KFCH|||||||||||||||||||||||||||||||||||||||||||MET061METAR KFCH 310235Z AUTO 29006KT 10SM CLR 39/15 A2981 RMK A01=||F||223|ICAO-KFCH
USW00023167|FRESNO CHANDLER DWTN AP|2021|07|31|02|55|36.7333|-119.8167|84.1|38.0||1|FM15-METAR|223|ICAO-KFCH|16.0||1|FM15-METAR|223|ICAO-KFCH|||||||||||||300|N-Normal|1|FM15-METAR|223|ICAO-KFCH|4.6|N-Normal|1|FM15-METAR|223|ICAO-KFCH|||||||||||||27|Derived||FM15-METAR|223|ICAO-KFCH|||||||||||||||||||||||||||||||||||||||||||||||||||||||||||||||||||||||||1009.5||1|FM15-METAR|223|ICAO-KFCH|||||||||||||||||||||||||||||||||||||||||||MET061METAR KFCH 310255Z AUTO 30009KT 10SM CLR 38/16 A2981 RMK A01=||F||223|ICAO-KFCH
USW00023167|FRESNO CHANDLER DWTN AP|2021|07|31|03|15|36.7333|-119.8167|84.1|37.0||1|FM15-METAR|223|ICAO-KFCH|15.0||1|FM15-METAR|223|ICAO-KFCH|||||||||||||300|N-Normal|1|FM15-METAR|223|ICAO-KFCH|3.6|N-Normal|1|FM15-METAR|223|ICAO-KFCH|||||||||||||27|Derived||FM15-METAR|223|ICAO-KFCH|||||||||||||||||||||||||||||||||||||||||||||||||||||||||||||||||||||||||1009.5||1|FM15-METAR|223|ICAO-KFCH|||||||||||||||||||||||||||||||||||||||||||MET061METAR KFCH 310315Z AUTO 30007KT 10SM CLR 37/15 A2981 RMK A01=||F||223|ICAO-KFCH
USW00023167|FRESNO CHANDLER DWTN AP|2021|07|31|03|35|36.7333|-119.8167|84.1|37.0||1|FM15-METAR|223|ICAO-KFCH|15.0||1|FM15-METAR|223|ICAO-KFCH|||||||||||||280|N-Normal|1|FM15-METAR|223|ICAO-KFCH|3.1|N-Normal|1|FM15-METAR|223|ICAO-KFCH|||||||||||||27|Derived||FM15-METAR|223|ICAO-KFCH|||||||||||||||||||||||||||||||||||||||||||||||||||||||||||||||||||||||||1009.8||1|FM15-METAR|223|ICAO-KFCH|||||||||||||||||||||||||||||||||||||||||||MET061METAR KFCH 310335Z AUTO 28006KT 10SM CLR 37/15 A2982 RMK A01=||F||223|ICAO-KFCH
USW00023167|FRESNO CHANDLER DWTN AP|2021|07|31|03|55|36.7333|-119.8167|84.1|36.0||1|FM15-METAR|223|ICAO-KFCH|15.0||1|FM15-METAR|223|ICAO-KFCH|||||||||||||310|N-Normal|1|FM15-METAR|223|ICAO-KFCH|4.6|N-Normal|1|FM15-METAR|223|ICAO-KFCH|||||||||||||28|Derived||FM15-METAR|223|ICAO-KFCH|||||||||||||||||||||||||||||||||||||||||||||||||||||||||||||||||||||||||1010.2||1|FM15-METAR|223|ICAO-KFCH|||||||||||||||||||||||||||||||||||||||||||MET061METAR KFCH 310355Z AUTO 31009KT 10SM CLR 36/15 A2983 RMK A01=||F||223|ICAO-KFCH
USW00023167|FRESNO CHANDLER DWTN AP|2021|07|31|04|15|36.7333|-119.8167|84.1|35.0||1|FM15-METAR|223|ICAO-KFCH|16.0||1|FM15-METAR|223|ICAO-KFCH|||||||||||||310|N-Normal|1|FM15-METAR|223|ICAO-KFCH|3.6|N-Normal|1|FM15-METAR|223|ICAO-KFCH|||||||||||||32|Derived||FM15-METAR|223|ICAO-KFCH|||||||||||||||||||||||||||||||||||||||||||||||||||||||||||||||||||||||||1010.5||1|FM15-METAR|223|ICAO-KFCH|||||||||||||||||||||||||||||||||||||||||||MET061METAR KFCH 310415Z AUTO 31007KT 10SM CLR 35/16 A2984 RMK A01=||F||223|ICAO-KFCH
USW00023167|FRESNO CHANDLER DWTN AP|2021|07|31|04|35|36.7333|-119.8167|84.1|34.0||1|FM15-METAR|223|ICAO-KFCH|16.0||1|FM15-METAR|223|ICAO-KFCH|||||||||||||310|N-Normal|1|FM15-METAR|223|ICAO-KFCH|4.1|N-Normal|1|FM15-METAR|223|ICAO-KFCH|||||||||||||34|Derived||FM15-METAR|223|ICAO-KFCH|||||||||||||||||||||||||||||||||||||||||||||||||||||||||||||||||||||||||1010.8||1|FM15-METAR|223|ICAO-KFCH|||||||||||||||||||||||||||||||||||||||||||MET061METAR KFCH 310435Z AUTO 31008KT 10SM CLR 34/16 A2985 RMK A01=||F||223|ICAO-KFCH
USW00023167|FRESNO CHANDLER DWTN AP|2021|07|31|04|55|36.7333|-119.8167|84.1|33.0||1|FM15-METAR|223|ICAO-KFCH|16.0||1|FM15-METAR|223|ICAO-KFCH|||||||||||||300|N-Normal|1|FM15-METAR|223|ICAO-KFCH|4.1|N-Normal|1|FM15-METAR|223|ICAO-KFCH|||||||||||||36|Derived||FM15-METAR|223|ICAO-KFCH|||||||||||||||||||||||||||||||||||||||||||||||||||||||||||||||||||||||||1010.8||1|FM15-METAR|223|ICAO-KFCH|||||||||||||||||||||||||||||||||||||||||||MET061METAR KFCH 310455Z AUTO 30008KT 10SM CLR 33/16 A2985 RMK A01=||F||223|ICAO-KFCH
USW00023167|FRESNO CHANDLER DWTN AP|2021|07|31|05|15|36.7333|-119.8167|84.1|33.0||1|FM15-METAR|223|ICAO-KFCH|16.0||1|FM15-METAR|223|ICAO-KFCH|||||||||||||300|N-Normal|1|FM15-METAR|223|ICAO-KFCH|5.7|N-Normal|1|FM15-METAR|223|ICAO-KFCH|||||||||||||36|Derived||FM15-METAR|223|ICAO-KFCH|||||||||||||||||||||||||||||||||||||||||||||||||||||||||||||||||||||||||1010.8||1|FM15-METAR|223|ICAO-KFCH|||||||||||||||||||||||||||||||||||||||||||MET061METAR KFCH 310515Z AUTO 30011KT 10SM CLR 33/16 A2985 RMK A01=||F||223|ICAO-KFCH
USW00023167|FRESNO CHANDLER DWTN AP|2021|07|31|05|35|36.7333|-119.8167|84.1|32.0||1|FM15-METAR|223|ICAO-KFCH|15.0||1|FM15-METAR|223|ICAO-KFCH|||||||||||||310|N-Normal|1|FM15-METAR|223|ICAO-KFCH|6.2|N-Normal|1|FM15-METAR|223|ICAO-KFCH|||||||||||||36|Derived||FM15-METAR|223|ICAO-KFCH|||||||||||||||||||||||||||||||||||||||||||||||||||||||||||||||||||||||||1011.2||1|FM15-METAR|223|ICAO-KFCH|||||||||||||||||||||||||||||||||||||||||||MET061METAR KFCH 310535Z AUTO 31012KT 10SM CLR 32/15 A2986 RMK A01=||F||223|ICAO-KFCH
USW00023167|FRESNO CHANDLER DWTN AP|2021|07|31|05|55|36.7333|-119.8167|84.1|31.0||1|FM15-METAR|223|ICAO-KFCH|15.0||1|FM15-METAR|223|ICAO-KFCH|||||||||||||300|N-Normal|1|FM15-METAR|223|ICAO-KFCH|5.1|N-Normal|1|FM15-METAR|223|ICAO-KFCH|||||||||||||38|Derived||FM15-METAR|223|ICAO-KFCH|||||||||||||||||||||||||||||||||||||||||||||||||||||||||||||||||||||||||1011.2||1|FM15-METAR|223|ICAO-KFCH|||||||||||||||||||||||||||||||||||||||||||MET061METAR KFCH 310555Z AUTO 30010KT 10SM CLR 31/15 A2986 RMK A01=||F||223|ICAO-KFCH
USW00023167|FRESNO CHANDLER DWTN AP|2021|07|31|06|15|36.7333|-119.8167|84.1|31.0||1|FM15-METAR|223|ICAO-KFCH|14.0||1|FM15-METAR|223|ICAO-KFCH|||||||||||||300|N-Normal|1|FM15-METAR|223|ICAO-KFCH|5.1|N-Normal|1|FM15-METAR|223|ICAO-KFCH|||||||||||||35|Derived||FM15-METAR|223|ICAO-KFCH|||||||||||||||||||||||||||||||||||||||||||||||||||||||||||||||||||||||||1011.5||1|FM15-METAR|223|ICAO-KFCH|||||||||||||||||||||||||||||||||||||||||||MET061METAR KFCH 310615Z AUTO 30010KT 10SM CLR 31/14 A2987 RMK A01=||F||223|ICAO-KFCH
USW00023167|FRESNO CHANDLER DWTN AP|2021|07|31|06|35|36.7333|-119.8167|84.1|31.0||1|FM15-METAR|223|ICAO-KFCH|14.0||1|FM15-METAR|223|ICAO-KFCH|||||||||||||300|N-Normal|1|FM15-METAR|223|ICAO-KFCH|5.7|N-Normal|1|FM15-METAR|223|ICAO-KFCH|||||||||||||35|Derived||FM15-METAR|223|ICAO-KFCH|||||||||||||||||||||||||||||||||||||||||||||||||||||||||||||||||||||||||1011.5||1|FM15-METAR|223|ICAO-KFCH|||||||||||||||||||||||||||||||||||||||||||MET061METAR KFCH 310635Z AUTO 30011KT 10SM CLR 31/14 A2987 RMK A01=||F||223|ICAO-KFCH
USW00023167|FRESNO CHANDLER DWTN AP|2021|07|31|06|55|36.7333|-119.8167|84.1|30.0||1|FM15-METAR|223|ICAO-KFCH|13.0||1|FM15-METAR|223|ICAO-KFCH|||||||||||||300|N-Normal|1|FM15-METAR|223|ICAO-KFCH|6.2|N-Normal|1|FM15-METAR|223|ICAO-KFCH|||||||||||||35|Derived||FM15-METAR|223|ICAO-KFCH|||||||||||||||||||||||||||||||||||||||||||||||||||||||||||||||||||||||||1011.5||1|FM15-METAR|223|ICAO-KFCH|||||||||||||||||||||||||||||||||||||||||||MET061METAR KFCH 310655Z AUTO 30012KT 10SM CLR 30/13 A2987 RMK A01=||F||223|ICAO-KFCH
USW00023167|FRESNO CHANDLER DWTN AP|2021|07|31|07|15|36.7333|-119.8167|84.1|29.0||1|FM15-METAR|223|ICAO-KFCH|13.0||1|FM15-METAR|223|ICAO-KFCH|||||||||||||310|N-Normal|1|FM15-METAR|223|ICAO-KFCH|5.1|N-Normal|1|FM15-METAR|223|ICAO-KFCH|8.2||1|FM15-METAR|223|ICAO-KFCH|||||||37|Derived||FM15-METAR|223|ICAO-KFCH|||||||||||||||||||||||||||||||||||||||||||||||||||||||||||||||||||||||||1011.8||1|FM15-METAR|223|ICAO-KFCH|||||||||||||||||||||||||||||||||||||||||||MET064METAR KFCH 310715Z AUTO 31010G16KT 10SM CLR 29/13 A2988 RMK A01=||F||223|ICAO-KFCH
USW00023167|FRESNO CHANDLER DWTN AP|2021|07|31|07|35|36.7333|-119.8167|84.1|29.0||1|FM15-METAR|223|ICAO-KFCH|13.0||1|FM15-METAR|223|ICAO-KFCH|||||||||||||300|N-Normal|1|FM15-METAR|223|ICAO-KFCH|5.1|N-Normal|1|FM15-METAR|223|ICAO-KFCH|||||||||||||37|Derived||FM15-METAR|223|ICAO-KFCH|||||||||||||||||||||||||||||||||||||||||||||||||||||||||||||||||||||||||1011.8||1|FM15-METAR|223|ICAO-KFCH|||||||||||||||||||||||||||||||||||||||||||MET061METAR KFCH 310735Z AUTO 30010KT 10SM CLR 29/13 A2988 RMK A01=||F||223|ICAO-KFCH
USW00023167|FRESNO CHANDLER DWTN AP|2021|07|31|07|55|36.7333|-119.8167|84.1|28.0||1|FM15-METAR|223|ICAO-KFCH|13.0||1|FM15-METAR|223|ICAO-KFCH|||||||||||||300|N-Normal|1|FM15-METAR|223|ICAO-KFCH|3.6|N-Normal|1|FM15-METAR|223|ICAO-KFCH|||||||||||||40|Derived||FM15-METAR|223|ICAO-KFCH|||||||||||||||||||||||||||||||||||||||||||||||||||||||||||||||||||||||||1011.8||1|FM15-METAR|223|ICAO-KFCH|||||||||||||||||||||||||||||||||||||||||||MET061METAR KFCH 310755Z AUTO 30007KT 10SM CLR 28/13 A2988 RMK A01=||F||223|ICAO-KFCH
USW00023167|FRESNO CHANDLER DWTN AP|2021|07|31|08|15|36.7333|-119.8167|84.1|28.0||1|FM15-METAR|223|ICAO-KFCH|13.0||1|FM15-METAR|223|ICAO-KFCH|||||||||||||320|N-Normal|1|FM15-METAR|223|ICAO-KFCH|2.1|N-Normal|1|FM15-METAR|223|ICAO-KFCH|5.1||1|FM15-METAR|223|ICAO-KFCH|||||||40|Derived||FM15-METAR|223|ICAO-KFCH|||||||||||||||||||||||||||||||||||||||||||||||||||||||||||||||||||||||||1011.8||1|FM15-METAR|223|ICAO-KFCH|||||||||||||||||||||||||||||||||||||||||||MET064METAR KFCH 310815Z AUTO 32004G10KT 10SM CLR 28/13 A2988 RMK A01=||F||223|ICAO-KFCH
USW00023167|FRESNO CHANDLER DWTN AP|2021|07|31|08|35|36.7333|-119.8167|84.1|28.0||1|FM15-METAR|223|ICAO-KFCH|13.0||1|FM15-METAR|223|ICAO-KFCH|||||||||||||280|N-Normal|1|FM15-METAR|223|ICAO-KFCH|2.1|N-Normal|1|FM15-METAR|223|ICAO-KFCH|||||||||||||40|Derived||FM15-METAR|223|ICAO-KFCH|||||||||||||||||||||||||||||||||||||||||||||||||||||||||||||||||||||||||1011.8||1|FM15-METAR|223|ICAO-KFCH|||||||||||||||||||||||||||||||||||||||||||MET061METAR KFCH 310835Z AUTO 28004KT 10SM CLR 28/13 A2988 RMK A01=||F||223|ICAO-KFCH
USW00023167|FRESNO CHANDLER DWTN AP|2021|07|31|08|55|36.7333|-119.8167|84.1|27.0||1|FM15-METAR|223|ICAO-KFCH|13.0||1|FM15-METAR|223|ICAO-KFCH|||||||||||||290|N-Normal|1|FM15-METAR|223|ICAO-KFCH|2.6|N-Normal|1|FM15-METAR|223|ICAO-KFCH|||||||||||||42|Derived||FM15-METAR|223|ICAO-KFCH|||||||||||||||||||||||||||||||||||||||||||||||||||||||||||||||||||||||||1012.2||1|FM15-METAR|223|ICAO-KFCH|||||||||||||||||||||||||||||||||||||||||||MET061METAR KFCH 310855Z AUTO 29005KT 10SM CLR 27/13 A2989 RMK A01=||F||223|ICAO-KFCH
USW00023167|FRESNO CHANDLER DWTN AP|2021|07|31|09|15|36.7333|-119.8167|84.1|27.0||1|FM15-METAR|223|ICAO-KFCH|13.0||1|FM15-METAR|223|ICAO-KFCH|||||||||||||300|N-Normal|1|FM15-METAR|223|ICAO-KFCH|2.6|N-Normal|1|FM15-METAR|223|ICAO-KFCH|||||||||||||42|Derived||FM15-METAR|223|ICAO-KFCH|||||||||||||||||||||||||||||||||||||||||||||||||||||||||||||||||||||||||1012.2||1|FM15-METAR|223|ICAO-KFCH|||||||||||||||||||||||||||||||||||||||||||MET061METAR KFCH 310915Z AUTO 30005KT 10SM CLR 27/13 A2989 RMK A01=||F||223|ICAO-KFCH
USW00023167|FRESNO CHANDLER DWTN AP|2021|07|31|09|30|36.7333|-119.8167|84.1|27.0||1|FM15-METAR|223|ICAO-KFCH|13.0||1|FM15-METAR|223|ICAO-KFCH|||||||||||||300|N-Normal|1|FM15-METAR|223|ICAO-KFCH|2.1|N-Normal|1|FM15-METAR|223|ICAO-KFCH|||||||||||||42|Derived||FM15-METAR|223|ICAO-KFCH|||||||||||||||||||||||||||||||||||||||||||||||||||||||||||||||||||||||||1012.2||1|FM15-METAR|223|ICAO-KFCH|||||||||||||||||||||||||||||||||||||||||||MET061METAR KFCH 310930Z AUTO 30004KT 10SM CLR 27/13 A2989 RMK A01=||F||223|ICAO-KFCH
USW00023167|FRESNO CHANDLER DWTN AP|2021|07|31|09|55|36.7333|-119.8167|84.1|27.0||1|FM15-METAR|223|ICAO-KFCH|12.0||1|FM15-METAR|223|ICAO-KFCH|||||||||||||290|N-Normal|1|FM15-METAR|223|ICAO-KFCH|3.6|N-Normal|1|FM15-METAR|223|ICAO-KFCH|||||||||||||39|Derived||FM15-METAR|223|ICAO-KFCH|||||||||||||||||||||||||||||||||||||||||||||||||||||||||||||||||||||||||1012.2||1|FM15-METAR|223|ICAO-KFCH|||||||||||||||||||||||||||||||||||||||||||MET061METAR KFCH 310955Z AUTO 29007KT 10SM CLR 27/12 A2989 RMK A01=||F||223|ICAO-KFCH
USW00023167|FRESNO CHANDLER DWTN AP|2021|07|31|10|10|36.7333|-119.8167|84.1|26.0||1|FM15-METAR|223|ICAO-KFCH|12.0||1|FM15-METAR|223|ICAO-KFCH|||||||||||||300|N-Normal|1|FM15-METAR|223|ICAO-KFCH|3.1|N-Normal|1|FM15-METAR|223|ICAO-KFCH|||||||||||||42|Derived||FM15-METAR|223|ICAO-KFCH|||||||||||||||||||||||||||||||||||||||||||||||||||||||||||||||||||||||||1012.2||1|FM15-METAR|223|ICAO-KFCH|||||||||||||||||||||||||||||||||||||||||||MET061METAR KFCH 311010Z AUTO 30006KT 10SM CLR 26/12 A2989 RMK A01=||F||223|ICAO-KFCH
USW00023167|FRESNO CHANDLER DWTN AP|2021|07|31|10|35|36.7333|-119.8167|84.1|26.0||1|FM15-METAR|223|ICAO-KFCH|13.0||1|FM15-METAR|223|ICAO-KFCH|||||||||||||310|N-Normal|1|FM15-METAR|223|ICAO-KFCH|1.5|N-Normal|1|FM15-METAR|223|ICAO-KFCH|||||||||||||45|Derived||FM15-METAR|223|ICAO-KFCH|||||||||||||||||||||||||||||||||||||||||||||||||||||||||||||||||||||||||1012.2||1|FM15-METAR|223|ICAO-KFCH|||||||||||||||||||||||||||||||||||||||||||MET061METAR KFCH 311035Z AUTO 31003KT 10SM CLR 26/13 A2989 RMK A01=||F||223|ICAO-KFCH
USW00023167|FRESNO CHANDLER DWTN AP|2021|07|31|10|55|36.7333|-119.8167|84.1|25.0||1|FM15-METAR|223|ICAO-KFCH|12.0||1|FM15-METAR|223|ICAO-KFCH|||||||||||||320|N-Normal|1|FM15-METAR|223|ICAO-KFCH|1.5|N-Normal|1|FM15-METAR|223|ICAO-KFCH|||||||||||||44|Derived||FM15-METAR|223|ICAO-KFCH|||||||||||||||||||||||||||||||||||||||||||||||||||||||||||||||||||||||||1012.2||1|FM15-METAR|223|ICAO-KFCH|||||||||||||||||||||||||||||||||||||||||||MET061METAR KFCH 311055Z AUTO 32003KT 10SM CLR 25/12 A2989 RMK A01=||F||223|ICAO-KFCH
USW00023167|FRESNO CHANDLER DWTN AP|2021|07|31|11|15|36.7333|-119.8167|84.1|25.0||1|FM15-METAR|223|ICAO-KFCH|12.0||1|FM15-METAR|223|ICAO-KFCH|||||||||||||300|N-Normal|1|FM15-METAR|223|ICAO-KFCH|2.6|N-Normal|1|FM15-METAR|223|ICAO-KFCH|||||||||||||44|Derived||FM15-METAR|223|ICAO-KFCH|||||||||||||||||||||||||||||||||||||||||||||||||||||||||||||||||||||||||1012.2||1|FM15-METAR|223|ICAO-KFCH|||||||||||||||||||||||||||||||||||||||||||MET061METAR KFCH 311115Z AUTO 30005KT 10SM CLR 25/12 A2989 RMK A01=||F||223|ICAO-KFCH
USW00023167|FRESNO CHANDLER DWTN AP|2021|07|31|11|35|36.7333|-119.8167|84.1|25.0||1|FM15-METAR|223|ICAO-KFCH|12.0||1|FM15-METAR|223|ICAO-KFCH|||||||||||||300|N-Normal|1|FM15-METAR|223|ICAO-KFCH|2.6|N-Normal|1|FM15-METAR|223|ICAO-KFCH|||||||||||||44|Derived||FM15-METAR|223|ICAO-KFCH|||||||||||||||||||||||||||||||||||||||||||||||||||||||||||||||||||||||||1012.5||1|FM15-METAR|223|ICAO-KFCH|||||||||||||||||||||||||||||||||||||||||||MET061METAR KFCH 311135Z AUTO 30005KT 10SM CLR 25/12 A2990 RMK A01=||F||223|ICAO-KFCH
USW00023167|FRESNO CHANDLER DWTN AP|2021|07|31|11|50|36.7333|-119.8167|84.1|25.0||1|FM15-METAR|223|ICAO-KFCH|12.0||1|FM15-METAR|223|ICAO-KFCH|||||||||||||290|N-Normal|1|FM15-METAR|223|ICAO-KFCH|2.6|N-Normal|1|FM15-METAR|223|ICAO-KFCH|||||||||||||44|Derived||FM15-METAR|223|ICAO-KFCH|||||||||||||||||||||||||||||||||||||||||||||||||||||||||||||||||||||||||1012.5||1|FM15-METAR|223|ICAO-KFCH|||||||||||||||||||||||||||||||||||||||||||MET061METAR KFCH 311150Z AUTO 29005KT 10SM CLR 25/12 A2990 RMK A01=||F||223|ICAO-KFCH
USW00023167|FRESNO CHANDLER DWTN AP|2021|07|31|12|15|36.7333|-119.8167|84.1|25.0||1|FM15-METAR|223|ICAO-KFCH|12.0||1|FM15-METAR|223|ICAO-KFCH|||||||||||||300|N-Normal|1|FM15-METAR|223|ICAO-KFCH|2.1|N-Normal|1|FM15-METAR|223|ICAO-KFCH|||||||||||||44|Derived||FM15-METAR|223|ICAO-KFCH|||||||||||||||||||||||||||||||||||||||||||||||||||||||||||||||||||||||||1012.9||1|FM15-METAR|223|ICAO-KFCH|||||||||||||||||||||||||||||||||||||||||||MET061METAR KFCH 311215Z AUTO 30004KT 10SM CLR 25/12 A2991 RMK A01=||F||223|ICAO-KFCH
USW00023167|FRESNO CHANDLER DWTN AP|2021|07|31|12|35|36.7333|-119.8167|84.1|24.0||1|FM15-METAR|223|ICAO-KFCH|11.0||1|FM15-METAR|223|ICAO-KFCH|||||||||||||300|N-Normal|1|FM15-METAR|223|ICAO-KFCH|2.1|N-Normal|1|FM15-METAR|223|ICAO-KFCH|||||||||||||44|Derived||FM15-METAR|223|ICAO-KFCH|||||||||||||||||||||||||||||||||||||||||||||||||||||||||||||||||||||||||1013.2||1|FM15-METAR|223|ICAO-KFCH|||||||||||||||||||||||||||||||||||||||||||MET061METAR KFCH 311235Z AUTO 30004KT 10SM CLR 24/11 A2992 RMK A01=||F||223|ICAO-KFCH
USW00023167|FRESNO CHANDLER DWTN AP|2021|07|31|12|55|36.7333|-119.8167|84.1|24.0||1|FM15-METAR|223|ICAO-KFCH|12.0||1|FM15-METAR|223|ICAO-KFCH|||||||||||||260|N-Normal|1|FM15-METAR|223|ICAO-KFCH|2.1|N-Normal|1|FM15-METAR|223|ICAO-KFCH|||||||||||||47|Derived||FM15-METAR|223|ICAO-KFCH|||||||||||||||||||||||||||||||||||||||||||||||||||||||||||||||||||||||||1013.5||1|FM15-METAR|223|ICAO-KFCH|||||||||||||||||||||||||||||||||||||||||||MET061METAR KFCH 311255Z AUTO 26004KT 10SM CLR 24/12 A2993 RMK A01=||F||223|ICAO-KFCH
USW00023167|FRESNO CHANDLER DWTN AP|2021|07|31|13|15|36.7333|-119.8167|84.1|24.0||1|FM15-METAR|223|ICAO-KFCH|12.0||1|FM15-METAR|223|ICAO-KFCH|||||||||||||250|N-Normal|1|FM15-METAR|223|ICAO-KFCH|1.5|N-Normal|1|FM15-METAR|223|ICAO-KFCH|||||||||||||47|Derived||FM15-METAR|223|ICAO-KFCH|||||||||||||||||||||||||||||||||||||||||||||||||||||||||||||||||||||||||1013.9||1|FM15-METAR|223|ICAO-KFCH|||||||||||||||||||||||||||||||||||||||||||MET061METAR KFCH 311315Z AUTO 25003KT 10SM CLR 24/12 A2994 RMK A01=||F||223|ICAO-KFCH
USW00023167|FRESNO CHANDLER DWTN AP|2021|07|31|13|35|36.7333|-119.8167|84.1|24.0||1|FM15-METAR|223|ICAO-KFCH|12.0||1|FM15-METAR|223|ICAO-KFCH|||||||||||||999|C-Calm|9|FM15-METAR|223|ICAO-KFCH|0.0|C-Calm|1|FM15-METAR|223|ICAO-KFCH|||||||||||||47|Derived||FM15-METAR|223|ICAO-KFCH|||||||||||||||||||||||||||||||||||||||||||||||||||||||||||||||||||||||||1013.9||1|FM15-METAR|223|ICAO-KFCH|||||||||||||||||||||||||||||||||||||||||||MET061METAR KFCH 311335Z AUTO 00000KT 10SM CLR 24/12 A2994 RMK A01=||F||223|ICAO-KFCH
USW00023167|FRESNO CHANDLER DWTN AP|2021|07|31|13|55|36.7333|-119.8167|84.1|24.0||1|FM15-METAR|223|ICAO-KFCH|12.0||1|FM15-METAR|223|ICAO-KFCH|||||||||||||999|C-Calm|9|FM15-METAR|223|ICAO-KFCH|0.0|C-Calm|1|FM15-METAR|223|ICAO-KFCH|||||||||||||47|Derived||FM15-METAR|223|ICAO-KFCH|||||||||||||||||||||||||||||||||||||||||||||||||||||||||||||||||||||||||1014.2||1|FM15-METAR|223|ICAO-KFCH|||||||||||||||||||||||||||||||||||||||||||MET061METAR KFCH 311355Z AUTO 00000KT 10SM CLR 24/12 A2995 RMK A01=||F||223|ICAO-KFCH
USW00023167|FRESNO CHANDLER DWTN AP|2021|07|31|14|15|36.7333|-119.8167|84.1|25.0||1|FM15-METAR|223|ICAO-KFCH|12.0||1|FM15-METAR|223|ICAO-KFCH|||||||||||||999|C-Calm|9|FM15-METAR|223|ICAO-KFCH|0.0|C-Calm|1|FM15-METAR|223|ICAO-KFCH|||||||||||||44|Derived||FM15-METAR|223|ICAO-KFCH|||||||||||||||||||||||||||||||||||||||||||||||||||||||||||||||||||||||||1014.2||1|FM15-METAR|223|ICAO-KFCH|||||||||||||||||||||||||||||||||||||||||||MET061METAR KFCH 311415Z AUTO 00000KT 10SM CLR 25/12 A2995 RMK A01=||F||223|ICAO-KFCH
USW00023167|FRESNO CHANDLER DWTN AP|2021|07|31|14|35|36.7333|-119.8167|84.1|26.0||1|FM15-METAR|223|ICAO-KFCH|12.0||1|FM15-METAR|223|ICAO-KFCH|||||||||||||020|N-Normal|1|FM15-METAR|223|ICAO-KFCH|1.5|N-Normal|1|FM15-METAR|223|ICAO-KFCH|||||||||||||42|Derived||FM15-METAR|223|ICAO-KFCH|||||||||||||||||||||||||||||||||||||||||||||||||||||||||||||||||||||||||1014.6||1|FM15-METAR|223|ICAO-KFCH|||||||||||||||||||||||||||||||||||||||||||MET061METAR KFCH 311435Z AUTO 02003KT 10SM CLR 26/12 A2996 RMK A01=||F||223|ICAO-KFCH
USW00023167|FRESNO CHANDLER DWTN AP|2021|07|31|14|55|36.7333|-119.8167|84.1|26.0||1|FM15-METAR|223|ICAO-KFCH|11.0||1|FM15-METAR|223|ICAO-KFCH|||||||||||||010|N-Normal|1|FM15-METAR|223|ICAO-KFCH|2.1|N-Normal|1|FM15-METAR|223|ICAO-KFCH|||||||||||||39|Derived||FM15-METAR|223|ICAO-KFCH|||||||||||||||||||||||||||||||||||||||||||||||||||||||||||||||||||||||||1014.9||1|FM15-METAR|223|ICAO-KFCH|||||||||||||||||||||||||||||||||||||||||||MET061METAR KFCH 311455Z AUTO 01004KT 10SM CLR 26/11 A2997 RMK A01=||F||223|ICAO-KFCH
USW00023167|FRESNO CHANDLER DWTN AP|2021|07|31|15|15|36.7333|-119.8167|84.1|27.0||1|FM15-METAR|223|ICAO-KFCH|12.0||1|FM15-METAR|223|ICAO-KFCH|||||||||||||999|C-Calm|9|FM15-METAR|223|ICAO-KFCH|0.0|C-Calm|1|FM15-METAR|223|ICAO-KFCH|||||||||||||39|Derived||FM15-METAR|223|ICAO-KFCH|||||||||||||||||||||||||||||||||||||||||||||||||||||||||||||||||||||||||1015.2||1|FM15-METAR|223|ICAO-KFCH|||||||||||||||||||||||||||||||||||||||||||MET061METAR KFCH 311515Z AUTO 00000KT 10SM CLR 27/12 A2998 RMK A01=||F||223|ICAO-KFCH
USW00023167|FRESNO CHANDLER DWTN AP|2021|07|31|15|35|36.7333|-119.8167|84.1|28.0||1|FM15-METAR|223|ICAO-KFCH|12.0||1|FM15-METAR|223|ICAO-KFCH|||||||||||||160|N-Normal|1|FM15-METAR|223|ICAO-KFCH|1.5|N-Normal|1|FM15-METAR|223|ICAO-KFCH|||||||||||||37|Derived||FM15-METAR|223|ICAO-KFCH|||||||||||||||||||||||||||||||||||||||||||||||||||||||||||||||||||||||||1015.6||1|FM15-METAR|223|ICAO-KFCH|||||||||||||||||||||||||||||||||||||||||||MET061METAR KFCH 311535Z AUTO 16003KT 10SM CLR 28/12 A2999 RMK A01=||F||223|ICAO-KFCH
USW00023167|FRESNO CHANDLER DWTN AP|2021|07|31|15|55|36.7333|-119.8167|84.1|27.0||1|FM15-METAR|223|ICAO-KFCH|13.0||1|FM15-METAR|223|ICAO-KFCH|||||||||||||200|N-Normal|1|FM15-METAR|223|ICAO-KFCH|2.6|N-Normal|1|FM15-METAR|223|ICAO-KFCH|||||||||||||42|Derived||FM15-METAR|223|ICAO-KFCH|||||||||||||||||||||||||||||||||||||||||||||||||||||||||||||||||||||||||1015.6||1|FM15-METAR|223|ICAO-KFCH|||||||||||||||||||||||||||||||||||||||||||MET061METAR KFCH 311555Z AUTO 20005KT 10SM CLR 27/13 A2999 RMK A01=||F||223|ICAO-KFCH
USW00023167|FRESNO CHANDLER DWTN AP|2021|07|31|16|15|36.7333|-119.8167|84.1|28.0||1|FM15-METAR|223|ICAO-KFCH|13.0||1|FM15-METAR|223|ICAO-KFCH|||||||||||||999|C-Calm|9|FM15-METAR|223|ICAO-KFCH|0.0|C-Calm|1|FM15-METAR|223|ICAO-KFCH|||||||||||||40|Derived||FM15-METAR|223|ICAO-KFCH|||||||||||||||||||||||||||||||||||||||||||||||||||||||||||||||||||||||||1015.6||1|FM15-METAR|223|ICAO-KFCH|||||||||||||||||||||||||||||||||||||||||||MET061METAR KFCH 311615Z AUTO 00000KT 10SM CLR 28/13 A2999 RMK A01=||F||223|ICAO-KFCH
USW00023167|FRESNO CHANDLER DWTN AP|2021|07|31|16|35|36.7333|-119.8167|84.1|29.0||1|FM15-METAR|223|ICAO-KFCH|13.0||1|FM15-METAR|223|ICAO-KFCH|||||||||||||999|C-Calm|9|FM15-METAR|223|ICAO-KFCH|0.0|C-Calm|1|FM15-METAR|223|ICAO-KFCH|||||||||||||37|Derived||FM15-METAR|223|ICAO-KFCH|||||||||||||||||||||||||||||||||||||||||||||||||||||||||||||||||||||||||1015.6||1|FM15-METAR|223|ICAO-KFCH|||||||||||||||||||||||||||||||||||||||||||MET061METAR KFCH 311635Z AUTO 00000KT 10SM CLR 29/13 A2999 RMK A01=||F||223|ICAO-KFCH
USW00023167|FRESNO CHANDLER DWTN AP|2021|07|31|16|55|36.7333|-119.8167|84.1|30.0||1|FM15-METAR|223|ICAO-KFCH|13.0||1|FM15-METAR|223|ICAO-KFCH|||||||||||||999|V-Variable|9|FM15-METAR|223|ICAO-KFCH|2.1|V-Variable|1|FM15-METAR|223|ICAO-KFCH|||||||||||||35|Derived||FM15-METAR|223|ICAO-KFCH|||||||||||||||||||||||||||||||||||||||||||||||||||||||||||||||||||||||||1015.9||1|FM15-METAR|223|ICAO-KFCH|||||||||||||||||||||||||||||||||||||||||||MET061METAR KFCH 311655Z AUTO VRB04KT 10SM CLR 30/13 A3000 RMK A01=||F||223|ICAO-KFCH
USW00023167|FRESNO CHANDLER DWTN AP|2021|07|31|17|15|36.7333|-119.8167|84.1|30.0||1|FM15-METAR|223|ICAO-KFCH|13.0||1|FM15-METAR|223|ICAO-KFCH|||||||||||||999|C-Calm|9|FM15-METAR|223|ICAO-KFCH|0.0|C-Calm|1|FM15-METAR|223|ICAO-KFCH|||||||||||||35|Derived||FM15-METAR|223|ICAO-KFCH|||||||||||||||||||||||||||||||||||||||||||||||||||||||||||||||||||||||||1015.9||1|FM15-METAR|223|ICAO-KFCH|||||||||||||||||||||||||||||||||||||||||||MET061METAR KFCH 311715Z AUTO 00000KT 10SM CLR 30/13 A3000 RMK A01=||F||223|ICAO-KFCH
USW00023167|FRESNO CHANDLER DWTN AP|2021|07|31|17|35|36.7333|-119.8167|84.1|30.0||1|FM15-METAR|223|ICAO-KFCH|12.0||1|FM15-METAR|223|ICAO-KFCH|||||||||||||999|C-Calm|9|FM15-METAR|223|ICAO-KFCH|0.0|C-Calm|1|FM15-METAR|223|ICAO-KFCH|||||||||||||33|Derived||FM15-METAR|223|ICAO-KFCH|||||||||||||||||||||||||||||||||||||||||||||||||||||||||||||||||||||||||1015.9||1|FM15-METAR|223|ICAO-KFCH|||||||||||||||||||||||||||||||||||||||||||MET061METAR KFCH 311735Z AUTO 00000KT 10SM CLR 30/12 A3000 RMK A01=||F||223|ICAO-KFCH
USW00023167|FRESNO CHANDLER DWTN AP|2021|07|31|17|55|36.7333|-119.8167|84.1|31.0||1|FM15-METAR|223|ICAO-KFCH|12.0||1|FM15-METAR|223|ICAO-KFCH|||||||||||||999|C-Calm|9|FM15-METAR|223|ICAO-KFCH|0.0|C-Calm|1|FM15-METAR|223|ICAO-KFCH|||||||||||||31|Derived||FM15-METAR|223|ICAO-KFCH|||||||||||||||||||||||||||||||||||||||||||||||||||||||||||||||||||||||||1015.9||1|FM15-METAR|223|ICAO-KFCH|||||||||||||||||||||||||||||||||||||||||||MET061METAR KFCH 311755Z AUTO 00000KT 10SM CLR 31/12 A3000 RMK A01=||F||223|ICAO-KFCH
USW00023167|FRESNO CHANDLER DWTN AP|2021|07|31|18|15|36.7333|-119.8167|84.1|32.0||1|FM15-METAR|223|ICAO-KFCH|12.0||1|FM15-METAR|223|ICAO-KFCH|||||||||||||999|V-Variable|9|FM15-METAR|223|ICAO-KFCH|1.5|V-Variable|1|FM15-METAR|223|ICAO-KFCH|||||||||||||29|Derived||FM15-METAR|223|ICAO-KFCH|||||||||||||||||||||||||||||||||||||||||||||||||||||||||||||||||||||||||1015.9||1|FM15-METAR|223|ICAO-KFCH|||||||||||||||||||||||||||||||||||||||||||MET061METAR KFCH 311815Z AUTO VRB03KT 10SM CLR 32/12 A3000 RMK A01=||F||223|ICAO-KFCH
USW00023167|FRESNO CHANDLER DWTN AP|2021|07|31|18|35|36.7333|-119.8167|84.1|33.0||1|FM15-METAR|223|ICAO-KFCH|11.0||1|FM15-METAR|223|ICAO-KFCH|||||||||||||999|C-Calm|9|FM15-METAR|223|ICAO-KFCH|0.0|C-Calm|1|FM15-METAR|223|ICAO-KFCH|||||||||||||26|Derived||FM15-METAR|223|ICAO-KFCH|||||||||||||||||||||||||||||||||||||||||||||||||||||||||||||||||||||||||1015.9||1|FM15-METAR|223|ICAO-KFCH|||||||||||||||||||||||||||||||||||||||||||MET061METAR KFCH 311835Z AUTO 00000KT 10SM CLR 33/11 A3000 RMK A01=||F||223|ICAO-KFCH
USW00023167|FRESNO CHANDLER DWTN AP|2021|07|31|18|55|36.7333|-119.8167|84.1|33.0||1|FM15-METAR|223|ICAO-KFCH|12.0||1|FM15-METAR|223|ICAO-KFCH|||||||||||||230|N-Normal|1|FM15-METAR|223|ICAO-KFCH|2.1|N-Normal|1|FM15-METAR|223|ICAO-KFCH|||||||||||||28|Derived||FM15-METAR|223|ICAO-KFCH|||||||||||||||||||||||||||||||||||||||||||||||||||||||||||||||||||||||||1015.9||1|FM15-METAR|223|ICAO-KFCH|||||||||||||||||||||||||||||||||||||||||||MET061METAR KFCH 311855Z AUTO 23004KT 10SM CLR 33/12 A3000 RMK A01=||F||223|ICAO-KFCH
USW00023167|FRESNO CHANDLER DWTN AP|2021|07|31|19|10|36.7333|-119.8167|84.1|34.0||1|FM15-METAR|223|ICAO-KFCH|11.0||1|FM15-METAR|223|ICAO-KFCH|||||||||||||999|C-Calm|9|FM15-METAR|223|ICAO-KFCH|0.0|C-Calm|1|FM15-METAR|223|ICAO-KFCH|||||||||||||24|Derived||FM15-METAR|223|ICAO-KFCH|||||||||||||||||||||||||||||||||||||||||||||||||||||||||||||||||||||||||1015.9||1|FM15-METAR|223|ICAO-KFCH|||||||||||||||||||||||||||||||||||||||||||MET060METAR KFCH 311910Z AUTO 00000KT 9SM CLR 34/11 A3000 RMK A01=||F||223|ICAO-KFCH
USW00023167|FRESNO CHANDLER DWTN AP|2021|07|31|19|30|36.7333|-119.8167|84.1|34.0||1|FM15-METAR|223|ICAO-KFCH|11.0||1|FM15-METAR|223|ICAO-KFCH|||||||||||||999|C-Calm|9|FM15-METAR|223|ICAO-KFCH|0.0|C-Calm|1|FM15-METAR|223|ICAO-KFCH|||||||||||||24|Derived||FM15-METAR|223|ICAO-KFCH|||||||||||||||||||||||||||||||||||||||||||||||||||||||||||||||||||||||||1015.6||1|FM15-METAR|223|ICAO-KFCH|||||||||||||||||||||||||||||||||||||||||||MET060METAR KFCH 311930Z AUTO 00000KT 9SM CLR 34/11 A2999 RMK A01=||F||223|ICAO-KFCH
USW00023167|FRESNO CHANDLER DWTN AP|2021|07|31|19|55|36.7333|-119.8167|84.1|35.0||1|FM15-METAR|223|ICAO-KFCH|11.0||1|FM15-METAR|223|ICAO-KFCH|||||||||||||150|N-Normal|1|FM15-METAR|223|ICAO-KFCH|1.5|N-Normal|1|FM15-METAR|223|ICAO-KFCH|||||||||||||23|Derived||FM15-METAR|223|ICAO-KFCH|||||||||||||||||||||||||||||||||||||||||||||||||||||||||||||||||||||||||1015.2||1|FM15-METAR|223|ICAO-KFCH|||||||||||||||||||||||||||||||||||||||||||MET061METAR KFCH 311955Z AUTO 15003KT 10SM CLR 35/11 A2998 RMK A01=||F||223|ICAO-KFCH
USW00023167|FRESNO CHANDLER DWTN AP|2021|07|31|20|15|36.7333|-119.8167|84.1|36.0||1|FM15-METAR|223|ICAO-KFCH|11.0||1|FM15-METAR|223|ICAO-KFCH|||||||||||||150|N-Normal|1|FM15-METAR|223|ICAO-KFCH|2.1|N-Normal|1|FM15-METAR|223|ICAO-KFCH|||||||||||||22|Derived||FM15-METAR|223|ICAO-KFCH|||||||||||||||||||||||||||||||||||||||||||||||||||||||||||||||||||||||||1014.9||1|FM15-METAR|223|ICAO-KFCH|||||||||||||||||||||||||||||||||||||||||||MET061METAR KFCH 312015Z AUTO 15004KT 10SM CLR 36/11 A2997 RMK A01=||F||223|ICAO-KFCH
USW00023167|FRESNO CHANDLER DWTN AP|2021|07|31|20|35|36.7333|-119.8167|84.1|36.0||1|FM15-METAR|223|ICAO-KFCH|11.0||1|FM15-METAR|223|ICAO-KFCH|||||||||||||999|V-Variable|9|FM15-METAR|223|ICAO-KFCH|2.6|V-Variable|1|FM15-METAR|223|ICAO-KFCH|||||||||||||22|Derived||FM15-METAR|223|ICAO-KFCH|||||||||||||||||||||||||||||||||||||||||||||||||||||||||||||||||||||||||1014.9||1|FM15-METAR|223|ICAO-KFCH|||||||||||||||||||||||||||||||||||||||||||MET061METAR KFCH 312035Z AUTO VRB05KT 10SM CLR 36/11 A2997 RMK A01=||F||223|ICAO-KFCH
USW00023167|FRESNO CHANDLER DWTN AP|2021|07|31|20|55|36.7333|-119.8167|84.1|36.0||1|FM15-METAR|223|ICAO-KFCH|11.0||1|FM15-METAR|223|ICAO-KFCH|||||||||||||140|N-Normal|1|FM15-METAR|223|ICAO-KFCH|2.6|N-Normal|1|FM15-METAR|223|ICAO-KFCH|||||||||||||22|Derived||FM15-METAR|223|ICAO-KFCH|||||||||||||||||||||||||||||||||||||||||||||||||||||||||||||||||||||||||1014.6||1|FM15-METAR|223|ICAO-KFCH|||||||||||||||||||||||||||||||||||||||||||MET061METAR KFCH 312055Z AUTO 14005KT 10SM CLR 36/11 A2996 RMK A01=||F||223|ICAO-KFCH
USW00023167|FRESNO CHANDLER DWTN AP|2021|07|31|21|15|36.7333|-119.8167|84.1|36.0||1|FM15-METAR|223|ICAO-KFCH|11.0||1|FM15-METAR|223|ICAO-KFCH|||||||||||||160|N-Normal|1|FM15-METAR|223|ICAO-KFCH|1.5|N-Normal|1|FM15-METAR|223|ICAO-KFCH|||||||||||||22|Derived||FM15-METAR|223|ICAO-KFCH|||||||||||||||||||||||||||||||||||||||||||||||||||||||||||||||||||||||||1014.6||1|FM15-METAR|223|ICAO-KFCH|||||||||||||||||||||||||||||||||||||||||||MET061METAR KFCH 312115Z AUTO 16003KT 10SM CLR 36/11 A2996 RMK A01=||F||223|ICAO-KFCH
USW00023167|FRESNO CHANDLER DWTN AP|2021|07|31|21|35|36.7333|-119.8167|84.1|37.0||1|FM15-METAR|223|ICAO-KFCH|12.0||1|FM15-METAR|223|ICAO-KFCH|||||||||||||270|N-Normal|1|FM15-METAR|223|ICAO-KFCH|2.1|N-Normal|1|FM15-METAR|223|ICAO-KFCH|||||||||||||22|Derived||FM15-METAR|223|ICAO-KFCH|||||||||||||||||||||||||||||||||||||||||||||||||||||||||||||||||||||||||1014.2||1|FM15-METAR|223|ICAO-KFCH|||||||||||||||||||||||||||||||||||||||||||MET061METAR KFCH 312135Z AUTO 27004KT 10SM CLR 37/12 A2995 RMK A01=||F||223|ICAO-KFCH
USW00023167|FRESNO CHANDLER DWTN AP|2021|07|31|21|55|36.7333|-119.8167|84.1|38.0||1|FM15-METAR|223|ICAO-KFCH|12.0||1|FM15-METAR|223|ICAO-KFCH|||||||||||||999|C-Calm|9|FM15-METAR|223|ICAO-KFCH|0.0|C-Calm|1|FM15-METAR|223|ICAO-KFCH|||||||||||||21|Derived||FM15-METAR|223|ICAO-KFCH|||||||||||||||||||||||||||||||||||||||||||||||||||||||||||||||||||||||||1014.2||1|FM15-METAR|223|ICAO-KFCH|||||||||||||||||||||||||||||||||||||||||||MET061METAR KFCH 312155Z AUTO 00000KT 10SM CLR 38/12 A2995 RMK A01=||F||223|ICAO-KFCH
USW00023167|FRESNO CHANDLER DWTN AP|2021|07|31|22|15|36.7333|-119.8167|84.1|38.0||1|FM15-METAR|223|ICAO-KFCH|11.0||1|FM15-METAR|223|ICAO-KFCH|||||||||||||240|N-Normal|1|FM15-METAR|223|ICAO-KFCH|1.5|N-Normal|1|FM15-METAR|223|ICAO-KFCH|||||||||||||20|Derived||FM15-METAR|223|ICAO-KFCH|||||||||||||||||||||||||||||||||||||||||||||||||||||||||||||||||||||||||1013.9||1|FM15-METAR|223|ICAO-KFCH|||||||||||||||||||||||||||||||||||||||||||MET061METAR KFCH 312215Z AUTO 24003KT 10SM CLR 38/11 A2994 RMK A01=||F||223|ICAO-KFCH
USW00023167|FRESNO CHANDLER DWTN AP|2021|07|31|22|35|36.7333|-119.8167|84.1|39.0||1|FM15-METAR|223|ICAO-KFCH|11.0||1|FM15-METAR|223|ICAO-KFCH|||||||||||||999|V-Variable|9|FM15-METAR|223|ICAO-KFCH|2.1|V-Variable|1|FM15-METAR|223|ICAO-KFCH|||||||||||||18|Derived||FM15-METAR|223|ICAO-KFCH|||||||||||||||||||||||||||||||||||||||||||||||||||||||||||||||||||||||||1013.5||1|FM15-METAR|223|ICAO-KFCH|||||||||||||||||||||||||||||||||||||||||||MET061METAR KFCH 312235Z AUTO VRB04KT 10SM CLR 39/11 A2993 RMK A01=||F||223|ICAO-KFCH
USW00023167|FRESNO CHANDLER DWTN AP|2021|07|31|22|55|36.7333|-119.8167|84.1|39.0||1|FM15-METAR|223|ICAO-KFCH|11.0||1|FM15-METAR|223|ICAO-KFCH|||||||||||||999|V-Variable|9|FM15-METAR|223|ICAO-KFCH|3.1|V-Variable|1|FM15-METAR|223|ICAO-KFCH|||||||||||||18|Derived||FM15-METAR|223|ICAO-KFCH|||||||||||||||||||||||||||||||||||||||||||||||||||||||||||||||||||||||||1013.2||1|FM15-METAR|223|ICAO-KFCH|||||||||||||||||||||||||||||||||||||||||||MET061METAR KFCH 312255Z AUTO VRB06KT 10SM CLR 39/11 A2992 RMK A01=||F||223|ICAO-KFCH
USW00023167|FRESNO CHANDLER DWTN AP|2021|07|31|23|15|36.7333|-119.8167|84.1|39.0||1|FM15-METAR|223|ICAO-KFCH|11.0||1|FM15-METAR|223|ICAO-KFCH|||||||||||||999|V-Variable|9|FM15-METAR|223|ICAO-KFCH|2.6|V-Variable|1|FM15-METAR|223|ICAO-KFCH|5.1||1|FM15-METAR|223|ICAO-KFCH|||||||18|Derived||FM15-METAR|223|ICAO-KFCH|||||||||||||||||||||||||||||||||||||||||||||||||||||||||||||||||||||||||1013.2||1|FM15-METAR|223|ICAO-KFCH|||||||||||||||||||||||||||||||||||||||||||MET064METAR KFCH 312315Z AUTO VRB05G10KT 10SM CLR 39/11 A2992 RMK A01=||F||223|ICAO-KFCH
USW00023167|FRESNO CHANDLER DWTN AP|2021|07|31|23|35|36.7333|-119.8167|84.1|39.0||1|FM15-METAR|223|ICAO-KFCH|10.0||1|FM15-METAR|223|ICAO-KFCH|||||||||||||340|N-Normal|1|FM15-METAR|223|ICAO-KFCH|2.6|N-Normal|1|FM15-METAR|223|ICAO-KFCH|||||||||||||17|Derived||FM15-METAR|223|ICAO-KFCH|||||||||||||||||||||||||||||||||||||||||||||||||||||||||||||||||||||||||1012.9||1|FM15-METAR|223|ICAO-KFCH|||||||||||||||||||||||||||||||||||||||||||MET061METAR KFCH 312335Z AUTO 34005KT 10SM CLR 39/10 A2991 RMK A01=||F||223|ICAO-KFCH
USW00023167|FRESNO CHANDLER DWTN AP|2021|07|31|23|55|36.7333|-119.8167|84.1|39.0||1|FM15-METAR|223|ICAO-KFCH|10.0||1|FM15-METAR|223|ICAO-KFCH|||||||||||||999|V-Variable|9|FM15-METAR|223|ICAO-KFCH|2.1|V-Variable|1|FM15-METAR|223|ICAO-KFCH|5.7||1|FM15-METAR|223|ICAO-KFCH|||||||17|Derived||FM15-METAR|223|ICAO-KFCH|||||||||||||||||||||||||||||||||||||||||||||||||||||||||||||||||||||||||1012.9||1|FM15-METAR|223|ICAO-KFCH|||||||||||||||||||||||||||||||||||||||||||MET064METAR KFCH 312355Z AUTO VRB04G11KT 10SM CLR 39/10 A2991 RMK A01=||F||223|ICAO-KFCH
USW00023167|FRESNO CHANDLER DWTN AP|2021|08|01|00|15|36.7333|-119.8167|84.1|39.0||1|FM15-METAR|223|ICAO-KFCH|9.0||1|FM15-METAR|223|ICAO-KFCH|||||||||||||350|N-Normal|1|FM15-METAR|223|ICAO-KFCH|3.6|N-Normal|1|FM15-METAR|223|ICAO-KFCH|||||||||||||16|Derived||FM15-METAR|223|ICAO-KFCH|||||||||||||||||||||||||||||||||||||||||||||||||||||||||||||||||||||||||1012.5||1|FM15-METAR|223|ICAO-KFCH|||||||||||||||||||||||||||||||||||||||||||MET061METAR KFCH 010015Z AUTO 35007KT 10SM CLR 39/09 A2990 RMK A01=||F||223|ICAO-KFCH
USW00023167|FRESNO CHANDLER DWTN AP|2021|08|01|00|35|36.7333|-119.8167|84.1|39.0||1|FM15-METAR|223|ICAO-KFCH|8.0||1|FM15-METAR|223|ICAO-KFCH|||||||||||||330|N-Normal|1|FM15-METAR|223|ICAO-KFCH|4.1|N-Normal|1|FM15-METAR|223|ICAO-KFCH|||||||||||||15|Derived||FM15-METAR|223|ICAO-KFCH|||||||||||||||||||||||||||||||||||||||||||||||||||||||||||||||||||||||||1012.5||1|FM15-METAR|223|ICAO-KFCH|||||||||||||||||||||||||||||||||||||||||||MET061METAR KFCH 010035Z AUTO 33008KT 10SM CLR 39/08 A2990 RMK A01=||F||223|ICAO-KFCH
USW00023167|FRESNO CHANDLER DWTN AP|2021|08|01|00|55|36.7333|-119.8167|84.1|39.0||1|FM15-METAR|223|ICAO-KFCH|8.0||1|FM15-METAR|223|ICAO-KFCH|||||||||||||350|N-Normal|1|FM15-METAR|223|ICAO-KFCH|2.6|N-Normal|1|FM15-METAR|223|ICAO-KFCH|||||||||||||15|Derived||FM15-METAR|223|ICAO-KFCH|||||||||||||||||||||||||||||||||||||||||||||||||||||||||||||||||||||||||1012.5||1|FM15-METAR|223|ICAO-KFCH|||||||||||||||||||||||||||||||||||||||||||MET061METAR KFCH 010055Z AUTO 35005KT 10SM CLR 39/08 A2990 RMK A01=||F||223|ICAO-KFCH
USW00023167|FRESNO CHANDLER DWTN AP|2021|08|01|01|15|36.7333|-119.8167|84.1|39.0||1|FM15-METAR|223|ICAO-KFCH|8.0||1|FM15-METAR|223|ICAO-KFCH|||||||||||||330|V-Variable|1|FM15-METAR|223|ICAO-KFCH|4.1|V-Variable|1|FM15-METAR|223|ICAO-KFCH|||||||||||||15|Derived||FM15-METAR|223|ICAO-KFCH|||||||||||||||||||||||||||||||||||||||||||||||||||||||||||||||||||||||||1012.5||1|FM15-METAR|223|ICAO-KFCH|||||||||||||||||||||||||||||||||||||||||||MET069METAR KFCH 010115Z AUTO 33008KT 300V360 10SM CLR 39/08 A2990 RMK A01=||F||223|ICAO-KFCH
USW00023167|FRESNO CHANDLER DWTN AP|2021|08|01|01|35|36.7333|-119.8167|84.1|39.0||1|FM15-METAR|223|ICAO-KFCH|9.0||1|FM15-METAR|223|ICAO-KFCH|||||||||||||350|N-Normal|1|FM15-METAR|223|ICAO-KFCH|3.6|N-Normal|1|FM15-METAR|223|ICAO-KFCH|||||||||||||16|Derived||FM15-METAR|223|ICAO-KFCH|||||||||||||||||||||||||||||||||||||||||||||||||||||||||||||||||||||||||1012.5||1|FM15-METAR|223|ICAO-KFCH|||||||||||||||||||||||||||||||||||||||||||MET061METAR KFCH 010135Z AUTO 35007KT 10SM CLR 39/09 A2990 RMK A01=||F||223|ICAO-KFCH
USW00023167|FRESNO CHANDLER DWTN AP|2021|08|01|01|55|36.7333|-119.8167|84.1|38.0||1|FM15-METAR|223|ICAO-KFCH|10.0||1|FM15-METAR|223|ICAO-KFCH|||||||||||||330|N-Normal|1|FM15-METAR|223|ICAO-KFCH|4.1|N-Normal|1|FM15-METAR|223|ICAO-KFCH|||||||||||||18|Derived||FM15-METAR|223|ICAO-KFCH|||||||||||||||||||||||||||||||||||||||||||||||||||||||||||||||||||||||||1012.5||1|FM15-METAR|223|ICAO-KFCH|||||||||||||||||||||||||||||||||||||||||||MET061METAR KFCH 010155Z AUTO 33008KT 10SM CLR 38/10 A2990 RMK A01=||F||223|ICAO-KFCH
USW00023167|FRESNO CHANDLER DWTN AP|2021|08|01|02|15|36.7333|-119.8167|84.1|38.0||1|FM15-METAR|223|ICAO-KFCH|11.0||1|FM15-METAR|223|ICAO-KFCH|||||||||||||310|N-Normal|1|FM15-METAR|223|ICAO-KFCH|3.6|N-Normal|1|FM15-METAR|223|ICAO-KFCH|||||||||||||20|Derived||FM15-METAR|223|ICAO-KFCH|||||||||||||||||||||||||||||||||||||||||||||||||||||||||||||||||||||||||1012.5||1|FM15-METAR|223|ICAO-KFCH|||||||||||||||||||||||||||||||||||||||||||MET061METAR KFCH 010215Z AUTO 31007KT 10SM CLR 38/11 A2990 RMK A01=||F||223|ICAO-KFCH
USW00023167|FRESNO CHANDLER DWTN AP|2021|08|01|02|35|36.7333|-119.8167|84.1|37.0||1|FM15-METAR|223|ICAO-KFCH|12.0||1|FM15-METAR|223|ICAO-KFCH|||||||||||||310|N-Normal|1|FM15-METAR|223|ICAO-KFCH|4.6|N-Normal|1|FM15-METAR|223|ICAO-KFCH|||||||||||||22|Derived||FM15-METAR|223|ICAO-KFCH|||||||||||||||||||||||||||||||||||||||||||||||||||||||||||||||||||||||||1012.5||1|FM15-METAR|223|ICAO-KFCH|||||||||||||||||||||||||||||||||||||||||||MET061METAR KFCH 010235Z AUTO 31009KT 10SM CLR 37/12 A2990 RMK A01=||F||223|ICAO-KFCH
USW00023167|FRESNO CHANDLER DWTN AP|2021|08|01|02|50|36.7333|-119.8167|84.1|36.0||1|FM15-METAR|223|ICAO-KFCH|12.0||1|FM15-METAR|223|ICAO-KFCH|||||||||||||310|N-Normal|1|FM15-METAR|223|ICAO-KFCH|5.1|N-Normal|1|FM15-METAR|223|ICAO-KFCH|||||||||||||23|Derived||FM15-METAR|223|ICAO-KFCH|||||||||||||||||||||||||||||||||||||||||||||||||||||||||||||||||||||||||1012.5||1|FM15-METAR|223|ICAO-KFCH|||||||||||||||||||||||||||||||||||||||||||MET061METAR KFCH 010250Z AUTO 31010KT 10SM CLR 36/12 A2990 RMK A01=||F||223|ICAO-KFCH
USW00023167|FRESNO CHANDLER DWTN AP|2021|08|01|03|15|36.7333|-119.8167|84.1|35.0||1|FM15-METAR|223|ICAO-KFCH|12.0||1|FM15-METAR|223|ICAO-KFCH|||||||||||||310|N-Normal|1|FM15-METAR|223|ICAO-KFCH|4.1|N-Normal|1|FM15-METAR|223|ICAO-KFCH|||||||||||||25|Derived||FM15-METAR|223|ICAO-KFCH|||||||||||||||||||||||||||||||||||||||||||||||||||||||||||||||||||||||||1012.9||1|FM15-METAR|223|ICAO-KFCH|||||||||||||||||||||||||||||||||||||||||||MET061METAR KFCH 010315Z AUTO 31008KT 10SM CLR 35/12 A2991 RMK A01=||F||223|ICAO-KFCH
USW00023167|FRESNO CHANDLER DWTN AP|2021|08|01|03|35|36.7333|-119.8167|84.1|34.0||1|FM15-METAR|223|ICAO-KFCH|12.0||1|FM15-METAR|223|ICAO-KFCH|||||||||||||300|N-Normal|1|FM15-METAR|223|ICAO-KFCH|4.1|N-Normal|1|FM15-METAR|223|ICAO-KFCH|||||||||||||26|Derived||FM15-METAR|223|ICAO-KFCH|||||||||||||||||||||||||||||||||||||||||||||||||||||||||||||||||||||||||1012.9||1|FM15-METAR|223|ICAO-KFCH|||||||||||||||||||||||||||||||||||||||||||MET061METAR KFCH 010335Z AUTO 30008KT 10SM CLR 34/12 A2991 RMK A01=||F||223|ICAO-KFCH
USW00023167|FRESNO CHANDLER DWTN AP|2021|08|01|03|50|36.7333|-119.8167|84.1|34.0||1|FM15-METAR|223|ICAO-KFCH|12.0||1|FM15-METAR|223|ICAO-KFCH|||||||||||||320|N-Normal|1|FM15-METAR|223|ICAO-KFCH|4.1|N-Normal|1|FM15-METAR|223|ICAO-KFCH|||||||||||||26|Derived||FM15-METAR|223|ICAO-KFCH|||||||||||||||||||||||||||||||||||||||||||||||||||||||||||||||||||||||||1013.2||1|FM15-METAR|223|ICAO-KFCH|||||||||||||||||||||||||||||||||||||||||||MET061METAR KFCH 010350Z AUTO 32008KT 10SM CLR 34/12 A2992 RMK A01=||F||223|ICAO-KFCH
USW00023167|FRESNO CHANDLER DWTN AP|2021|08|01|04|15|36.7333|-119.8167|84.1|33.0||1|FM15-METAR|223|ICAO-KFCH|12.0||1|FM15-METAR|223|ICAO-KFCH|||||||||||||310|N-Normal|1|FM15-METAR|223|ICAO-KFCH|4.1|N-Normal|1|FM15-METAR|223|ICAO-KFCH|||||||||||||28|Derived||FM15-METAR|223|ICAO-KFCH|||||||||||||||||||||||||||||||||||||||||||||||||||||||||||||||||||||||||1013.5||1|FM15-METAR|223|ICAO-KFCH|||||||||||||||||||||||||||||||||||||||||||MET061METAR KFCH 010415Z AUTO 31008KT 10SM CLR 33/12 A2993 RMK A01=||F||223|ICAO-KFCH
USW00023167|FRESNO CHANDLER DWTN AP|2021|08|01|04|35|36.7333|-119.8167|84.1|32.0||1|FM15-METAR|223|ICAO-KFCH|13.0||1|FM15-METAR|223|ICAO-KFCH|||||||||||||310|N-Normal|1|FM15-METAR|223|ICAO-KFCH|4.6|N-Normal|1|FM15-METAR|223|ICAO-KFCH|||||||||||||31|Derived||FM15-METAR|223|ICAO-KFCH|||||||||||||||||||||||||||||||||||||||||||||||||||||||||||||||||||||||||1013.9||1|FM15-METAR|223|ICAO-KFCH|||||||||||||||||||||||||||||||||||||||||||MET061METAR KFCH 010435Z AUTO 31009KT 10SM CLR 32/13 A2994 RMK A01=||F||223|ICAO-KFCH
USW00023167|FRESNO CHANDLER DWTN AP|2021|08|01|04|55|36.7333|-119.8167|84.1|31.0||1|FM15-METAR|223|ICAO-KFCH|15.0||1|FM15-METAR|223|ICAO-KFCH|||||||||||||320|N-Normal|1|FM15-METAR|223|ICAO-KFCH|4.6|N-Normal|1|FM15-METAR|223|ICAO-KFCH|||||||||||||38|Derived||FM15-METAR|223|ICAO-KFCH|||||||||||||||||||||||||||||||||||||||||||||||||||||||||||||||||||||||||1014.2||1|FM15-METAR|223|ICAO-KFCH|||||||||||||||||||||||||||||||||||||||||||MET061METAR KFCH 010455Z AUTO 32009KT 10SM CLR 31/15 A2995 RMK A01=||F||223|ICAO-KFCH
USW00023167|FRESNO CHANDLER DWTN AP|2021|08|01|05|15|36.7333|-119.8167|84.1|30.0||1|FM15-METAR|223|ICAO-KFCH|15.0||1|FM15-METAR|223|ICAO-KFCH|||||||||||||310|N-Normal|1|FM15-METAR|223|ICAO-KFCH|4.1|N-Normal|1|FM15-METAR|223|ICAO-KFCH|||||||||||||40|Derived||FM15-METAR|223|ICAO-KFCH|||||||||||||||||||||||||||||||||||||||||||||||||||||||||||||||||||||||||1014.6||1|FM15-METAR|223|ICAO-KFCH|||||||||||||||||||||||||||||||||||||||||||MET061METAR KFCH 010515Z AUTO 31008KT 10SM CLR 30/15 A2996 RMK A01=||F||223|ICAO-KFCH
USW00023167|FRESNO CHANDLER DWTN AP|2021|08|01|05|35|36.7333|-119.8167|84.1|30.0||1|FM15-METAR|223|ICAO-KFCH|16.0||1|FM15-METAR|223|ICAO-KFCH|||||||||||||300|N-Normal|1|FM15-METAR|223|ICAO-KFCH|5.1|N-Normal|1|FM15-METAR|223|ICAO-KFCH|||||||||||||43|Derived||FM15-METAR|223|ICAO-KFCH|||||||||||||||||||||||||||||||||||||||||||||||||||||||||||||||||||||||||1014.6||1|FM15-METAR|223|ICAO-KFCH|||||||||||||||||||||||||||||||||||||||||||MET061METAR KFCH 010535Z AUTO 30010KT 10SM CLR 30/16 A2996 RMK A01=||F||223|ICAO-KFCH
USW00023167|FRESNO CHANDLER DWTN AP|2021|08|01|05|55|36.7333|-119.8167|84.1|29.0||1|FM15-METAR|223|ICAO-KFCH|16.0||1|FM15-METAR|223|ICAO-KFCH|||||||||||||300|N-Normal|1|FM15-METAR|223|ICAO-KFCH|5.7|N-Normal|1|FM15-METAR|223|ICAO-KFCH|||||||||||||45|Derived||FM15-METAR|223|ICAO-KFCH|||||||||||||||||||||||||||||||||||||||||||||||||||||||||||||||||||||||||1014.6||1|FM15-METAR|223|ICAO-KFCH|||||||||||||||||||||||||||||||||||||||||||MET061METAR KFCH 010555Z AUTO 30011KT 10SM CLR 29/16 A2996 RMK A01=||F||223|ICAO-KFCH
USW00023167|FRESNO CHANDLER DWTN AP|2021|08|01|06|15|36.7333|-119.8167|84.1|28.0||1|FM15-METAR|223|ICAO-KFCH|15.0||1|FM15-METAR|223|ICAO-KFCH|||||||||||||300|N-Normal|1|FM15-METAR|223|ICAO-KFCH|6.2|N-Normal|1|FM15-METAR|223|ICAO-KFCH|||||||||||||45|Derived||FM15-METAR|223|ICAO-KFCH|||||||||||||||||||||||||||||||||||||||||||||||||||||||||||||||||||||||||1014.6||1|FM15-METAR|223|ICAO-KFCH|||||||||||||||||||||||||||||||||||||||||||MET061METAR KFCH 010615Z AUTO 30012KT 10SM CLR 28/15 A2996 RMK A01=||F||223|ICAO-KFCH
USW00023167|FRESNO CHANDLER DWTN AP|2021|08|01|06|35|36.7333|-119.8167|84.1|28.0||1|FM15-METAR|223|ICAO-KFCH|14.0||1|FM15-METAR|223|ICAO-KFCH|||||||||||||290|N-Normal|1|FM15-METAR|223|ICAO-KFCH|5.7|N-Normal|1|FM15-METAR|223|ICAO-KFCH|||||||||||||42|Derived||FM15-METAR|223|ICAO-KFCH|||||||||||||||||||||||||||||||||||||||||||||||||||||||||||||||||||||||||1014.6||1|FM15-METAR|223|ICAO-KFCH|||||||||||||||||||||||||||||||||||||||||||MET061METAR KFCH 010635Z AUTO 29011KT 10SM CLR 28/14 A2996 RMK A01=||F||223|ICAO-KFCH
USW00023167|FRESNO CHANDLER DWTN AP|2021|08|01|06|55|36.7333|-119.8167|84.1|27.0||1|FM15-METAR|223|ICAO-KFCH|14.0||1|FM15-METAR|223|ICAO-KFCH|||||||||||||310|N-Normal|1|FM15-METAR|223|ICAO-KFCH|4.6|N-Normal|1|FM15-METAR|223|ICAO-KFCH|||||||||||||45|Derived||FM15-METAR|223|ICAO-KFCH|||||||||||||||||||||||||||||||||||||||||||||||||||||||||||||||||||||||||1014.6||1|FM15-METAR|223|ICAO-KFCH|||||||||||||||||||||||||||||||||||||||||||MET061METAR KFCH 010655Z AUTO 31009KT 10SM CLR 27/14 A2996 RMK A01=||F||223|ICAO-KFCH
USW00023167|FRESNO CHANDLER DWTN AP|2021|08|01|07|15|36.7333|-119.8167|84.1|27.0||1|FM15-METAR|223|ICAO-KFCH|14.0||1|FM15-METAR|223|ICAO-KFCH|||||||||||||300|N-Normal|1|FM15-METAR|223|ICAO-KFCH|4.6|N-Normal|1|FM15-METAR|223|ICAO-KFCH|||||||||||||45|Derived||FM15-METAR|223|ICAO-KFCH|||||||||||||||||||||||||||||||||||||||||||||||||||||||||||||||||||||||||1014.6||1|FM15-METAR|223|ICAO-KFCH|||||||||||||||||||||||||||||||||||||||||||MET061METAR KFCH 010715Z AUTO 30009KT 10SM CLR 27/14 A2996 RMK A01=||F||223|ICAO-KFCH
USW00023167|FRESNO CHANDLER DWTN AP|2021|08|01|07|35|36.7333|-119.8167|84.1|26.0||1|FM15-METAR|223|ICAO-KFCH|14.0||1|FM15-METAR|223|ICAO-KFCH|||||||||||||300|N-Normal|1|FM15-METAR|223|ICAO-KFCH|3.1|N-Normal|1|FM15-METAR|223|ICAO-KFCH|||||||||||||48|Derived||FM15-METAR|223|ICAO-KFCH|||||||||||||||||||||||||||||||||||||||||||||||||||||||||||||||||||||||||1014.9||1|FM15-METAR|223|ICAO-KFCH|||||||||||||||||||||||||||||||||||||||||||MET061METAR KFCH 010735Z AUTO 30006KT 10SM CLR 26/14 A2997 RMK A01=||F||223|ICAO-KFCH
USW00023167|FRESNO CHANDLER DWTN AP|2021|08|01|07|55|36.7333|-119.8167|84.1|26.0||1|FM15-METAR|223|ICAO-KFCH|13.0||1|FM15-METAR|223|ICAO-KFCH|||||||||||||300|N-Normal|1|FM15-METAR|223|ICAO-KFCH|4.6|N-Normal|1|FM15-METAR|223|ICAO-KFCH|||||||||||||45|Derived||FM15-METAR|223|ICAO-KFCH|||||||||||||||||||||||||||||||||||||||||||||||||||||||||||||||||||||||||1014.6||1|FM15-METAR|223|ICAO-KFCH|||||||||||||||||||||||||||||||||||||||||||MET061METAR KFCH 010755Z AUTO 30009KT 10SM CLR 26/13 A2996 RMK A01=||F||223|ICAO-KFCH
USW00023167|FRESNO CHANDLER DWTN AP|2021|08|01|08|15|36.7333|-119.8167|84.1|25.0||1|FM15-METAR|223|ICAO-KFCH|13.0||1|FM15-METAR|223|ICAO-KFCH|||||||||||||310|N-Normal|1|FM15-METAR|223|ICAO-KFCH|4.1|N-Normal|1|FM15-METAR|223|ICAO-KFCH|||||||||||||47|Derived||FM15-METAR|223|ICAO-KFCH|||||||||||||||||||||||||||||||||||||||||||||||||||||||||||||||||||||||||1014.6||1|FM15-METAR|223|ICAO-KFCH|||||||||||||||||||||||||||||||||||||||||||MET061METAR KFCH 010815Z AUTO 31008KT 10SM CLR 25/13 A2996 RMK A01=||F||223|ICAO-KFCH
USW00023167|FRESNO CHANDLER DWTN AP|2021|08|01|08|35|36.7333|-119.8167|84.1|25.0||1|FM15-METAR|223|ICAO-KFCH|13.0||1|FM15-METAR|223|ICAO-KFCH|||||||||||||310|N-Normal|1|FM15-METAR|223|ICAO-KFCH|3.6|N-Normal|1|FM15-METAR|223|ICAO-KFCH|||||||||||||47|Derived||FM15-METAR|223|ICAO-KFCH|||||||||||||||||||||||||||||||||||||||||||||||||||||||||||||||||||||||||1014.6||1|FM15-METAR|223|ICAO-KFCH|||||||||||||||||||||||||||||||||||||||||||MET061METAR KFCH 010835Z AUTO 31007KT 10SM CLR 25/13 A2996 RMK A01=||F||223|ICAO-KFCH
USW00023167|FRESNO CHANDLER DWTN AP|2021|08|01|08|55|36.7333|-119.8167|84.1|25.0||1|FM15-METAR|223|ICAO-KFCH|13.0||1|FM15-METAR|223|ICAO-KFCH|||||||||||||300|N-Normal|1|FM15-METAR|223|ICAO-KFCH|3.1|N-Normal|1|FM15-METAR|223|ICAO-KFCH|||||||||||||47|Derived||FM15-METAR|223|ICAO-KFCH|||||||||||||||||||||||||||||||||||||||||||||||||||||||||||||||||||||||||1014.6||1|FM15-METAR|223|ICAO-KFCH|||||||||||||||||||||||||||||||||||||||||||MET061METAR KFCH 010855Z AUTO 30006KT 10SM CLR 25/13 A2996 RMK A01=||F||223|ICAO-KFCH
USW00023167|FRESNO CHANDLER DWTN AP|2021|08|01|09|15|36.7333|-119.8167|84.1|25.0||1|FM15-METAR|223|ICAO-KFCH|12.0||1|FM15-METAR|223|ICAO-KFCH|||||||||||||300|N-Normal|1|FM15-METAR|223|ICAO-KFCH|3.6|N-Normal|1|FM15-METAR|223|ICAO-KFCH|||||||||||||44|Derived||FM15-METAR|223|ICAO-KFCH|||||||||||||||||||||||||||||||||||||||||||||||||||||||||||||||||||||||||1014.6||1|FM15-METAR|223|ICAO-KFCH|||||||||||||||||||||||||||||||||||||||||||MET061METAR KFCH 010915Z AUTO 30007KT 10SM CLR 25/12 A2996 RMK A01=||F||223|ICAO-KFCH
USW00023167|FRESNO CHANDLER DWTN AP|2021|08|01|09|35|36.7333|-119.8167|84.1|24.0||1|FM15-METAR|223|ICAO-KFCH|13.0||1|FM15-METAR|223|ICAO-KFCH|||||||||||||300|N-Normal|1|FM15-METAR|223|ICAO-KFCH|3.6|N-Normal|1|FM15-METAR|223|ICAO-KFCH|||||||||||||50|Derived||FM15-METAR|223|ICAO-KFCH|||||||||||||||||||||||||||||||||||||||||||||||||||||||||||||||||||||||||1014.6||1|FM15-METAR|223|ICAO-KFCH|||||||||||||||||||||||||||||||||||||||||||MET061METAR KFCH 010935Z AUTO 30007KT 10SM CLR 24/13 A2996 RMK A01=||F||223|ICAO-KFCH
USW00023167|FRESNO CHANDLER DWTN AP|2021|08|01|09|55|36.7333|-119.8167|84.1|24.0||1|FM15-METAR|223|ICAO-KFCH|12.0||1|FM15-METAR|223|ICAO-KFCH|||||||||||||300|N-Normal|1|FM15-METAR|223|ICAO-KFCH|2.1|N-Normal|1|FM15-METAR|223|ICAO-KFCH|||||||||||||47|Derived||FM15-METAR|223|ICAO-KFCH|||||||||||||||||||||||||||||||||||||||||||||||||||||||||||||||||||||||||1014.9||1|FM15-METAR|223|ICAO-KFCH|||||||||||||||||||||||||||||||||||||||||||MET061METAR KFCH 010955Z AUTO 30004KT 10SM CLR 24/12 A2997 RMK A01=||F||223|ICAO-KFCH
USW00023167|FRESNO CHANDLER DWTN AP|2021|08|01|10|15|36.7333|-119.8167|84.1|23.0||1|FM15-METAR|223|ICAO-KFCH|12.0||1|FM15-METAR|223|ICAO-KFCH|||||||||||||300|N-Normal|1|FM15-METAR|223|ICAO-KFCH|2.6|N-Normal|1|FM15-METAR|223|ICAO-KFCH|||||||||||||50|Derived||FM15-METAR|223|ICAO-KFCH|||||||||||||||||||||||||||||||||||||||||||||||||||||||||||||||||||||||||1014.6||1|FM15-METAR|223|ICAO-KFCH|||||||||||||||||||||||||||||||||||||||||||MET061METAR KFCH 011015Z AUTO 30005KT 10SM CLR 23/12 A2996 RMK A01=||F||223|ICAO-KFCH
USW00023167|FRESNO CHANDLER DWTN AP|2021|08|01|10|35|36.7333|-119.8167|84.1|23.0||1|FM15-METAR|223|ICAO-KFCH|13.0||1|FM15-METAR|223|ICAO-KFCH|||||||||||||310|N-Normal|1|FM15-METAR|223|ICAO-KFCH|1.5|N-Normal|1|FM15-METAR|223|ICAO-KFCH|||||||||||||53|Derived||FM15-METAR|223|ICAO-KFCH|||||||||||||||||||||||||||||||||||||||||||||||||||||||||||||||||||||||||1014.9||1|FM15-METAR|223|ICAO-KFCH|||||||||||||||||||||||||||||||||||||||||||MET061METAR KFCH 011035Z AUTO 31003KT 10SM CLR 23/13 A2997 RMK A01=||F||223|ICAO-KFCH
USW00023167|FRESNO CHANDLER DWTN AP|2021|08|01|10|55|36.7333|-119.8167|84.1|23.0||1|FM15-METAR|223|ICAO-KFCH|13.0||1|FM15-METAR|223|ICAO-KFCH|||||||||||||300|N-Normal|1|FM15-METAR|223|ICAO-KFCH|2.1|N-Normal|1|FM15-METAR|223|ICAO-KFCH|||||||||||||53|Derived||FM15-METAR|223|ICAO-KFCH|||||||||||||||||||||||||||||||||||||||||||||||||||||||||||||||||||||||||1014.9||1|FM15-METAR|223|ICAO-KFCH|||||||||||||||||||||||||||||||||||||||||||MET061METAR KFCH 011055Z AUTO 30004KT 10SM CLR 23/13 A2997 RMK A01=||F||223|ICAO-KFCH
USW00023167|FRESNO CHANDLER DWTN AP|2021|08|01|11|15|36.7333|-119.8167|84.1|23.0||1|FM15-METAR|223|ICAO-KFCH|13.0||1|FM15-METAR|223|ICAO-KFCH|||||||||||||||||||||||||||||||||||||53|Derived||FM15-METAR|223|ICAO-KFCH|||||||||||||||||||||||||||||||||||||||||||||||||||||||||||||||||||||||||1015.2||1|FM15-METAR|223|ICAO-KFCH|||||||||||||||||||||||||||||||||||||||||||MET053METAR KFCH 011115Z AUTO 10SM CLR 23/13 A2998 RMK A01=||F||223|ICAO-KFCH
USW00023167|FRESNO CHANDLER DWTN AP|2021|08|01|11|35|36.7333|-119.8167|84.1|22.0||1|FM15-METAR|223|ICAO-KFCH|13.0||1|FM15-METAR|223|ICAO-KFCH|||||||||||||260|N-Normal|1|FM15-METAR|223|ICAO-KFCH|2.1|N-Normal|1|FM15-METAR|223|ICAO-KFCH|||||||||||||57|Derived||FM15-METAR|223|ICAO-KFCH|||||||||||||||||||||||||||||||||||||||||||||||||||||||||||||||||||||||||1015.2||1|FM15-METAR|223|ICAO-KFCH|||||||||||||||||||||||||||||||||||||||||||MET061METAR KFCH 011135Z AUTO 26004KT 10SM CLR 22/13 A2998 RMK A01=||F||223|ICAO-KFCH
USW00023167|FRESNO CHANDLER DWTN AP|2021|08|01|11|55|36.7333|-119.8167|84.1|21.0||1|FM15-METAR|223|ICAO-KFCH|13.0||1|FM15-METAR|223|ICAO-KFCH|||||||||||||280|N-Normal|1|FM15-METAR|223|ICAO-KFCH|2.6|N-Normal|1|FM15-METAR|223|ICAO-KFCH|||||||||||||60|Derived||FM15-METAR|223|ICAO-KFCH|||||||||||||||||||||||||||||||||||||||||||||||||||||||||||||||||||||||||1015.2||1|FM15-METAR|223|ICAO-KFCH|||||||||||||||||||||||||||||||||||||||||||MET061METAR KFCH 011155Z AUTO 28005KT 10SM CLR 21/13 A2998 RMK A01=||F||223|ICAO-KFCH
USW00023167|FRESNO CHANDLER DWTN AP|2021|08|01|12|15|36.7333|-119.8167|84.1|21.0||1|FM15-METAR|223|ICAO-KFCH|13.0||1|FM15-METAR|223|ICAO-KFCH|||||||||||||280|N-Normal|1|FM15-METAR|223|ICAO-KFCH|2.1|N-Normal|1|FM15-METAR|223|ICAO-KFCH|||||||||||||60|Derived||FM15-METAR|223|ICAO-KFCH|||||||||||||||||||||||||||||||||||||||||||||||||||||||||||||||||||||||||1015.2||1|FM15-METAR|223|ICAO-KFCH|||||||||||||||||||||||||||||||||||||||||||MET061METAR KFCH 011215Z AUTO 28004KT 10SM CLR 21/13 A2998 RMK A01=||F||223|ICAO-KFCH
USW00023167|FRESNO CHANDLER DWTN AP|2021|08|01|12|35|36.7333|-119.8167|84.1|21.0||1|FM15-METAR|223|ICAO-KFCH|13.0||1|FM15-METAR|223|ICAO-KFCH|||||||||||||280|N-Normal|1|FM15-METAR|223|ICAO-KFCH|2.1|N-Normal|1|FM15-METAR|223|ICAO-KFCH|||||||||||||60|Derived||FM15-METAR|223|ICAO-KFCH|||||||||||||||||||||||||||||||||||||||||||||||||||||||||||||||||||||||||1015.2||1|FM15-METAR|223|ICAO-KFCH|||||||||||||||||||||||||||||||||||||||||||MET061METAR KFCH 011235Z AUTO 28004KT 10SM CLR 21/13 A2998 RMK A01=||F||223|ICAO-KFCH
USW00023167|FRESNO CHANDLER DWTN AP|2021|08|01|12|55|36.7333|-119.8167|84.1|21.0||1|FM15-METAR|223|ICAO-KFCH|12.0||1|FM15-METAR|223|ICAO-KFCH|||||||||||||999|C-Calm|9|FM15-METAR|223|ICAO-KFCH|0.0|C-Calm|1|FM15-METAR|223|ICAO-KFCH|||||||||||||57|Derived||FM15-METAR|223|ICAO-KFCH|||||||||||||||||||||||||||||||||||||||||||||||||||||||||||||||||||||||||1015.6||1|FM15-METAR|223|ICAO-KFCH|||||||||||||||||||||||||||||||||||||||||||MET061METAR KFCH 011255Z AUTO 00000KT 10SM CLR 21/12 A2999 RMK A01=||F||223|ICAO-KFCH
USW00023167|FRESNO CHANDLER DWTN AP|2021|08|01|13|15|36.7333|-119.8167|84.1|21.0||1|FM15-METAR|223|ICAO-KFCH|12.0||1|FM15-METAR|223|ICAO-KFCH|||||||||||||999|C-Calm|9|FM15-METAR|223|ICAO-KFCH|0.0|C-Calm|1|FM15-METAR|223|ICAO-KFCH|||||||||||||57|Derived||FM15-METAR|223|ICAO-KFCH|||||||||||||||||||||||||||||||||||||||||||||||||||||||||||||||||||||||||1015.9||1|FM15-METAR|223|ICAO-KFCH|||||||||||||||||||||||||||||||||||||||||||MET061METAR KFCH 011315Z AUTO 00000KT 10SM CLR 21/12 A3000 RMK A01=||F||223|ICAO-KFCH
USW00023167|FRESNO CHANDLER DWTN AP|2021|08|01|13|35|36.7333|-119.8167|84.1|21.0||1|FM15-METAR|223|ICAO-KFCH|13.0||1|FM15-METAR|223|ICAO-KFCH|||||||||||||999|C-Calm|9|FM15-METAR|223|ICAO-KFCH|0.0|C-Calm|1|FM15-METAR|223|ICAO-KFCH|||||||||||||60|Derived||FM15-METAR|223|ICAO-KFCH|||||||||||||||||||||||||||||||||||||||||||||||||||||||||||||||||||||||||1016.3||1|FM15-METAR|223|ICAO-KFCH|||||||||||||||||||||||||||||||||||||||||||MET061METAR KFCH 011335Z AUTO 00000KT 10SM CLR 21/13 A3001 RMK A01=||F||223|ICAO-KFCH
USW00023167|FRESNO CHANDLER DWTN AP|2021|08|01|13|55|36.7333|-119.8167|84.1|21.0||1|FM15-METAR|223|ICAO-KFCH|13.0||1|FM15-METAR|223|ICAO-KFCH|||||||||||||240|N-Normal|1|FM15-METAR|223|ICAO-KFCH|1.5|N-Normal|1|FM15-METAR|223|ICAO-KFCH|||||||||||||60|Derived||FM15-METAR|223|ICAO-KFCH|||||||||||||||||||||||||||||||||||||||||||||||||||||||||||||||||||||||||1016.6||1|FM15-METAR|223|ICAO-KFCH|||||||||||||||||||||||||||||||||||||||||||MET061METAR KFCH 011355Z AUTO 24003KT 10SM CLR 21/13 A3002 RMK A01=||F||223|ICAO-KFCH
USW00023167|FRESNO CHANDLER DWTN AP|2021|08|01|14|15|36.7333|-119.8167|84.1|21.0||1|FM15-METAR|223|ICAO-KFCH|13.0||1|FM15-METAR|223|ICAO-KFCH|||||||||||||999|C-Calm|9|FM15-METAR|223|ICAO-KFCH|0.0|C-Calm|1|FM15-METAR|223|ICAO-KFCH|||||||||||||60|Derived||FM15-METAR|223|ICAO-KFCH|||||||||||||||||||||||||||||||||||||||||||||||||||||||||||||||||||||||||1016.6||1|FM15-METAR|223|ICAO-KFCH|||||||||||||||||||||||||||||||||||||||||||MET061METAR KFCH 011415Z AUTO 00000KT 10SM CLR 21/13 A3002 RMK A01=||F||223|ICAO-KFCH
USW00023167|FRESNO CHANDLER DWTN AP|2021|08|01|14|35|36.7333|-119.8167|84.1|22.0||1|FM15-METAR|223|ICAO-KFCH|12.0||1|FM15-METAR|223|ICAO-KFCH|||||||||||||999|C-Calm|9|FM15-METAR|223|ICAO-KFCH|0.0|C-Calm|1|FM15-METAR|223|ICAO-KFCH|||||||||||||53|Derived||FM15-METAR|223|ICAO-KFCH|||||||||||||||||||||||||||||||||||||||||||||||||||||||||||||||||||||||||1016.6||1|FM15-METAR|223|ICAO-KFCH|||||||||||||||||||||||||||||||||||||||||||MET061METAR KFCH 011435Z AUTO 00000KT 10SM CLR 22/12 A3002 RMK A01=||F||223|ICAO-KFCH
USW00023167|FRESNO CHANDLER DWTN AP|2021|08|01|14|55|36.7333|-119.8167|84.1|23.0||1|FM15-METAR|223|ICAO-KFCH|12.0||1|FM15-METAR|223|ICAO-KFCH|||||||||||||999|C-Calm|9|FM15-METAR|223|ICAO-KFCH|0.0|C-Calm|1|FM15-METAR|223|ICAO-KFCH|||||||||||||50|Derived||FM15-METAR|223|ICAO-KFCH|||||||||||||||||||||||||||||||||||||||||||||||||||||||||||||||||||||||||1016.9||1|FM15-METAR|223|ICAO-KFCH|||||||||||||||||||||||||||||||||||||||||||MET061METAR KFCH 011455Z AUTO 00000KT 10SM CLR 23/12 A3003 RMK A01=||F||223|ICAO-KFCH
USW00023167|FRESNO CHANDLER DWTN AP|2021|08|01|15|15|36.7333|-119.8167|84.1|23.0||1|FM15-METAR|223|ICAO-KFCH|12.0||1|FM15-METAR|223|ICAO-KFCH|||||||||||||999|C-Calm|9|FM15-METAR|223|ICAO-KFCH|0.0|C-Calm|1|FM15-METAR|223|ICAO-KFCH|||||||||||||50|Derived||FM15-METAR|223|ICAO-KFCH|||||||||||||||||||||||||||||||||||||||||||||||||||||||||||||||||||||||||1016.9||1|FM15-METAR|223|ICAO-KFCH|||||||||||||||||||||||||||||||||||||||||||MET061METAR KFCH 011515Z AUTO 00000KT 10SM CLR 23/12 A3003 RMK A01=||F||223|ICAO-KFCH
USW00023167|FRESNO CHANDLER DWTN AP|2021|08|01|15|35|36.7333|-119.8167|84.1|24.0||1|FM15-METAR|223|ICAO-KFCH|12.0||1|FM15-METAR|223|ICAO-KFCH|||||||||||||999|C-Calm|9|FM15-METAR|223|ICAO-KFCH|0.0|C-Calm|1|FM15-METAR|223|ICAO-KFCH|||||||||||||47|Derived||FM15-METAR|223|ICAO-KFCH|||||||||||||||||||||||||||||||||||||||||||||||||||||||||||||||||||||||||1016.9||1|FM15-METAR|223|ICAO-KFCH|||||||||||||||||||||||||||||||||||||||||||MET061METAR KFCH 011535Z AUTO 00000KT 10SM CLR 24/12 A3003 RMK A01=||F||223|ICAO-KFCH
USW00023167|FRESNO CHANDLER DWTN AP|2021|08|01|15|55|36.7333|-119.8167|84.1|25.0||1|FM15-METAR|223|ICAO-KFCH|12.0||1|FM15-METAR|223|ICAO-KFCH|||||||||||||999|C-Calm|9|FM15-METAR|223|ICAO-KFCH|0.0|C-Calm|1|FM15-METAR|223|ICAO-KFCH|||||||||||||44|Derived||FM15-METAR|223|ICAO-KFCH|||||||||||||||||||||||||||||||||||||||||||||||||||||||||||||||||||||||||1017.3||1|FM15-METAR|223|ICAO-KFCH|||||||||||||||||||||||||||||||||||||||||||MET061METAR KFCH 011555Z AUTO 00000KT 10SM CLR 25/12 A3004 RMK A01=||F||223|ICAO-KFCH
USW00023167|FRESNO CHANDLER DWTN AP|2021|08|01|16|15|36.7333|-119.8167|84.1|26.0||1|FM15-METAR|223|ICAO-KFCH|12.0||1|FM15-METAR|223|ICAO-KFCH|||||||||||||999|C-Calm|9|FM15-METAR|223|ICAO-KFCH|0.0|C-Calm|1|FM15-METAR|223|ICAO-KFCH|||||||||||||42|Derived||FM15-METAR|223|ICAO-KFCH|||||||||||||||||||||||||||||||||||||||||||||||||||||||||||||||||||||||||1017.3||1|FM15-METAR|223|ICAO-KFCH|||||||||||||||||||||||||||||||||||||||||||MET061METAR KFCH 011615Z AUTO 00000KT 10SM CLR 26/12 A3004 RMK A01=||F||223|ICAO-KFCH
USW00023167|FRESNO CHANDLER DWTN AP|2021|08|01|16|35|36.7333|-119.8167|84.1|27.0||1|FM15-METAR|223|ICAO-KFCH|12.0||1|FM15-METAR|223|ICAO-KFCH|||||||||||||999|C-Calm|9|FM15-METAR|223|ICAO-KFCH|0.0|C-Calm|1|FM15-METAR|223|ICAO-KFCH|||||||||||||39|Derived||FM15-METAR|223|ICAO-KFCH|||||||||||||||||||||||||||||||||||||||||||||||||||||||||||||||||||||||||1016.9||1|FM15-METAR|223|ICAO-KFCH|||||||||||||||||||||||||||||||||||||||||||MET061METAR KFCH 011635Z AUTO 00000KT 10SM CLR 27/12 A3003 RMK A01=||F||223|ICAO-KFCH
USW00023167|FRESNO CHANDLER DWTN AP|2021|08|01|16|50|36.7333|-119.8167|84.1|28.0||1|FM15-METAR|223|ICAO-KFCH|12.0||1|FM15-METAR|223|ICAO-KFCH|||||||||||||999|C-Calm|9|FM15-METAR|223|ICAO-KFCH|0.0|C-Calm|1|FM15-METAR|223|ICAO-KFCH|||||||||||||37|Derived||FM15-METAR|223|ICAO-KFCH|||||||||||||||||||||||||||||||||||||||||||||||||||||||||||||||||||||||||1016.9||1|FM15-METAR|223|ICAO-KFCH|||||||||||||||||||||||||||||||||||||||||||MET061METAR KFCH 011650Z AUTO 00000KT 10SM CLR 28/12 A3003 RMK A01=||F||223|ICAO-KFCH
USW00023167|FRESNO CHANDLER DWTN AP|2021|08|01|17|10|36.7333|-119.8167|84.1|28.0||1|FM15-METAR|223|ICAO-KFCH|12.0||1|FM15-METAR|223|ICAO-KFCH|||||||||||||999|C-Calm|9|FM15-METAR|223|ICAO-KFCH|0.0|C-Calm|1|FM15-METAR|223|ICAO-KFCH|||||||||||||37|Derived||FM15-METAR|223|ICAO-KFCH|||||||||||||||||||||||||||||||||||||||||||||||||||||||||||||||||||||||||1016.9||1|FM15-METAR|223|ICAO-KFCH|||||||||||||||||||||||||||||||||||||||||||MET061METAR KFCH 011710Z AUTO 00000KT 10SM CLR 28/12 A3003 RMK A01=||F||223|ICAO-KFCH
USW00023167|FRESNO CHANDLER DWTN AP|2021|08|01|17|35|36.7333|-119.8167|84.1|30.0||1|FM15-METAR|223|ICAO-KFCH|11.0||1|FM15-METAR|223|ICAO-KFCH|||||||||||||999|C-Calm|9|FM15-METAR|223|ICAO-KFCH|0.0|C-Calm|1|FM15-METAR|223|ICAO-KFCH|||||||||||||31|Derived||FM15-METAR|223|ICAO-KFCH|||||||||||||||||||||||||||||||||||||||||||||||||||||||||||||||||||||||||1016.9||1|FM15-METAR|223|ICAO-KFCH|||||||||||||||||||||||||||||||||||||||||||MET061METAR KFCH 011735Z AUTO 00000KT 10SM CLR 30/11 A3003 RMK A01=||F||223|ICAO-KFCH
USW00023167|FRESNO CHANDLER DWTN AP|2021|08|01|17|55|36.7333|-119.8167|84.1|31.0||1|FM15-METAR|223|ICAO-KFCH|11.0||1|FM15-METAR|223|ICAO-KFCH|||||||||||||999|C-Calm|9|FM15-METAR|223|ICAO-KFCH|0.0|C-Calm|1|FM15-METAR|223|ICAO-KFCH|||||||||||||29|Derived||FM15-METAR|223|ICAO-KFCH|||||||||||||||||||||||||||||||||||||||||||||||||||||||||||||||||||||||||1016.9||1|FM15-METAR|223|ICAO-KFCH|||||||||||||||||||||||||||||||||||||||||||MET061METAR KFCH 011755Z AUTO 00000KT 10SM CLR 31/11 A3003 RMK A01=||F||223|ICAO-KFCH
USW00023167|FRESNO CHANDLER DWTN AP|2021|08|01|18|15|36.7333|-119.8167|84.1|31.0||1|FM15-METAR|223|ICAO-KFCH|10.0||1|FM15-METAR|223|ICAO-KFCH|||||||||||||240|N-Normal|1|FM15-METAR|223|ICAO-KFCH|2.6|N-Normal|1|FM15-METAR|223|ICAO-KFCH|||||||||||||27|Derived||FM15-METAR|223|ICAO-KFCH|||||||||||||||||||||||||||||||||||||||||||||||||||||||||||||||||||||||||1016.9||1|FM15-METAR|223|ICAO-KFCH|||||||||||||||||||||||||||||||||||||||||||MET061METAR KFCH 011815Z AUTO 24005KT 10SM CLR 31/10 A3003 RMK A01=||F||223|ICAO-KFCH
USW00023167|FRESNO CHANDLER DWTN AP|2021|08|01|18|35|36.7333|-119.8167|84.1|32.0||1|FM15-METAR|223|ICAO-KFCH|9.0||1|FM15-METAR|223|ICAO-KFCH|||||||||||||999|V-Variable|9|FM15-METAR|223|ICAO-KFCH|2.1|V-Variable|1|FM15-METAR|223|ICAO-KFCH|||||||||||||24|Derived||FM15-METAR|223|ICAO-KFCH|||||||||||||||||||||||||||||||||||||||||||||||||||||||||||||||||||||||||1016.6||1|FM15-METAR|223|ICAO-KFCH|||||||||||||||||||||||||||||||||||||||||||MET061METAR KFCH 011835Z AUTO VRB04KT 10SM CLR 32/09 A3002 RMK A01=||F||223|ICAO-KFCH
USW00023167|FRESNO CHANDLER DWTN AP|2021|08|01|18|55|36.7333|-119.8167|84.1|33.0||1|FM15-METAR|223|ICAO-KFCH|6.0||1|FM15-METAR|223|ICAO-KFCH|||||||||||||240|N-Normal|1|FM15-METAR|223|ICAO-KFCH|2.6|N-Normal|1|FM15-METAR|223|ICAO-KFCH|||||||||||||18|Derived||FM15-METAR|223|ICAO-KFCH|||||||||||||||||||||||||||||||||||||||||||||||||||||||||||||||||||||||||1016.3||1|FM15-METAR|223|ICAO-KFCH|||||||||||||||||||||||||||||||||||||||||||MET061METAR KFCH 011855Z AUTO 24005KT 10SM CLR 33/06 A3001 RMK A01=||F||223|ICAO-KFCH
USW00023167|FRESNO CHANDLER DWTN AP|2021|08|01|19|15|36.7333|-119.8167|84.1|34.0||1|FM15-METAR|223|ICAO-KFCH|7.0||1|FM15-METAR|223|ICAO-KFCH|||||||||||||999|V-Variable|9|FM15-METAR|223|ICAO-KFCH|2.1|V-Variable|1|FM15-METAR|223|ICAO-KFCH|||||||||||||19|Derived||FM15-METAR|223|ICAO-KFCH|||||||||||||||||||||||||||||||||||||||||||||||||||||||||||||||||||||||||1016.3||1|FM15-METAR|223|ICAO-KFCH|||||||||||||||||||||||||||||||||||||||||||MET061METAR KFCH 011915Z AUTO VRB04KT 10SM CLR 34/07 A3001 RMK A01=||F||223|ICAO-KFCH
USW00023167|FRESNO CHANDLER DWTN AP|2021|08|01|19|35|36.7333|-119.8167|84.1|34.0||1|FM15-METAR|223|ICAO-KFCH|8.0||1|FM15-METAR|223|ICAO-KFCH|||||||||||||999|C-Calm|9|FM15-METAR|223|ICAO-KFCH|0.0|C-Calm|1|FM15-METAR|223|ICAO-KFCH|||||||||||||20|Derived||FM15-METAR|223|ICAO-KFCH|||||||||||||||||||||||||||||||||||||||||||||||||||||||||||||||||||||||||1016.3||1|FM15-METAR|223|ICAO-KFCH|||||||||||||||||||||||||||||||||||||||||||MET061METAR KFCH 011935Z AUTO 00000KT 10SM CLR 34/08 A3001 RMK A01=||F||223|ICAO-KFCH
USW00023167|FRESNO CHANDLER DWTN AP|2021|08|01|19|55|36.7333|-119.8167|84.1|34.0||1|FM15-METAR|223|ICAO-KFCH|9.0||1|FM15-METAR|223|ICAO-KFCH|||||||||||||270|N-Normal|1|FM15-METAR|223|ICAO-KFCH|1.5|N-Normal|1|FM15-METAR|223|ICAO-KFCH|||||||||||||21|Derived||FM15-METAR|223|ICAO-KFCH|||||||||||||||||||||||||||||||||||||||||||||||||||||||||||||||||||||||||1015.9||1|FM15-METAR|223|ICAO-KFCH|||||||||||||||||||||||||||||||||||||||||||MET061METAR KFCH 011955Z AUTO 27003KT 10SM CLR 34/09 A3000 RMK A01=||F||223|ICAO-KFCH
USW00023167|FRESNO CHANDLER DWTN AP|2021|08|01|20|15|36.7333|-119.8167|84.1|35.0||1|FM15-METAR|223|ICAO-KFCH|9.0||1|FM15-METAR|223|ICAO-KFCH|||||||||||||999|V-Variable|9|FM15-METAR|223|ICAO-KFCH|2.1|V-Variable|1|FM15-METAR|223|ICAO-KFCH|||||||||||||20|Derived||FM15-METAR|223|ICAO-KFCH|||||||||||||||||||||||||||||||||||||||||||||||||||||||||||||||||||||||||1015.6||1|FM15-METAR|223|ICAO-KFCH|||||||||||||||||||||||||||||||||||||||||||MET061METAR KFCH 012015Z AUTO VRB04KT 10SM CLR 35/09 A2999 RMK A01=||F||223|ICAO-KFCH
USW00023167|FRESNO CHANDLER DWTN AP|2021|08|01|20|35|36.7333|-119.8167|84.1|36.0||1|FM15-METAR|223|ICAO-KFCH|9.0||1|FM15-METAR|223|ICAO-KFCH|||||||||||||270|N-Normal|1|FM15-METAR|223|ICAO-KFCH|2.1|N-Normal|1|FM15-METAR|223|ICAO-KFCH|||||||||||||19|Derived||FM15-METAR|223|ICAO-KFCH|||||||||||||||||||||||||||||||||||||||||||||||||||||||||||||||||||||||||1015.2||1|FM15-METAR|223|ICAO-KFCH|||||||||||||||||||||||||||||||||||||||||||MET061METAR KFCH 012035Z AUTO 27004KT 10SM CLR 36/09 A2998 RMK A01=||F||223|ICAO-KFCH
USW00023167|FRESNO CHANDLER DWTN AP|2021|08|01|20|55|36.7333|-119.8167|84.1|37.0||1|FM15-METAR|223|ICAO-KFCH|8.0||1|FM15-METAR|223|ICAO-KFCH|||||||||||||999|C-Calm|9|FM15-METAR|223|ICAO-KFCH|0.0|C-Calm|1|FM15-METAR|223|ICAO-KFCH|||||||||||||17|Derived||FM15-METAR|223|ICAO-KFCH|||||||||||||||||||||||||||||||||||||||||||||||||||||||||||||||||||||||||1015.2||1|FM15-METAR|223|ICAO-KFCH|||||||||||||||||||||||||||||||||||||||||||MET061METAR KFCH 012055Z AUTO 00000KT 10SM CLR 37/08 A2998 RMK A01=||F||223|ICAO-KFCH
USW00023167|FRESNO CHANDLER DWTN AP|2021|08|01|21|15|36.7333|-119.8167|84.1|38.0||1|FM15-METAR|223|ICAO-KFCH|7.0||1|FM15-METAR|223|ICAO-KFCH|||||||||||||230|N-Normal|1|FM15-METAR|223|ICAO-KFCH|2.6|N-Normal|1|FM15-METAR|223|ICAO-KFCH|||||||||||||15|Derived||FM15-METAR|223|ICAO-KFCH|||||||||||||||||||||||||||||||||||||||||||||||||||||||||||||||||||||||||1014.9||1|FM15-METAR|223|ICAO-KFCH|||||||||||||||||||||||||||||||||||||||||||MET061METAR KFCH 012115Z AUTO 23005KT 10SM CLR 38/07 A2997 RMK A01=||F||223|ICAO-KFCH
USW00023167|FRESNO CHANDLER DWTN AP|2021|08|01|21|35|36.7333|-119.8167|84.1|38.0||1|FM15-METAR|223|ICAO-KFCH|6.0||1|FM15-METAR|223|ICAO-KFCH|||||||||||||210|N-Normal|1|FM15-METAR|223|ICAO-KFCH|2.6|N-Normal|1|FM15-METAR|223|ICAO-KFCH|||||||||||||14|Derived||FM15-METAR|223|ICAO-KFCH|||||||||||||||||||||||||||||||||||||||||||||||||||||||||||||||||||||||||1014.6||1|FM15-METAR|223|ICAO-KFCH|||||||||||||||||||||||||||||||||||||||||||MET061METAR KFCH 012135Z AUTO 21005KT 10SM CLR 38/06 A2996 RMK A01=||F||223|ICAO-KFCH
USW00023167|FRESNO CHANDLER DWTN AP|2021|08|01|21|55|36.7333|-119.8167|84.1|38.0||1|FM15-METAR|223|ICAO-KFCH|6.0||1|FM15-METAR|223|ICAO-KFCH|||||||||||||999|C-Calm|9|FM15-METAR|223|ICAO-KFCH|0.0|C-Calm|1|FM15-METAR|223|ICAO-KFCH|||||||||||||14|Derived||FM15-METAR|223|ICAO-KFCH|||||||||||||||||||||||||||||||||||||||||||||||||||||||||||||||||||||||||1014.6||1|FM15-METAR|223|ICAO-KFCH|||||||||||||||||||||||||||||||||||||||||||MET061METAR KFCH 012155Z AUTO 00000KT 10SM CLR 38/06 A2996 RMK A01=||F||223|ICAO-KFCH
USW00023167|FRESNO CHANDLER DWTN AP|2021|08|01|22|15|36.7333|-119.8167|84.1|38.0||1|FM15-METAR|223|ICAO-KFCH|7.0||1|FM15-METAR|223|ICAO-KFCH|||||||||||||999|C-Calm|9|FM15-METAR|223|ICAO-KFCH|0.0|C-Calm|1|FM15-METAR|223|ICAO-KFCH|||||||||||||15|Derived||FM15-METAR|223|ICAO-KFCH|||||||||||||||||||||||||||||||||||||||||||||||||||||||||||||||||||||||||1014.2||1|FM15-METAR|223|ICAO-KFCH|||||||||||||||||||||||||||||||||||||||||||MET061METAR KFCH 012215Z AUTO 00000KT 10SM CLR 38/07 A2995 RMK A01=||F||223|ICAO-KFCH
USW00023167|FRESNO CHANDLER DWTN AP|2021|08|01|22|35|36.7333|-119.8167|84.1|39.0||1|FM15-METAR|223|ICAO-KFCH|6.0||1|FM15-METAR|223|ICAO-KFCH|||||||||||||999|V-Variable|9|FM15-METAR|223|ICAO-KFCH|2.1|V-Variable|1|FM15-METAR|223|ICAO-KFCH|||||||||||||13|Derived||FM15-METAR|223|ICAO-KFCH|||||||||||||||||||||||||||||||||||||||||||||||||||||||||||||||||||||||||1013.9||1|FM15-METAR|223|ICAO-KFCH|||||||||||||||||||||||||||||||||||||||||||MET061METAR KFCH 012235Z AUTO VRB04KT 10SM CLR 39/06 A2994 RMK A01=||F||223|ICAO-KFCH
USW00023167|FRESNO CHANDLER DWTN AP|2021|08|01|22|55|36.7333|-119.8167|84.1|39.0||1|FM15-METAR|223|ICAO-KFCH|7.0||1|FM15-METAR|223|ICAO-KFCH|||||||||||||999|C-Calm|9|FM15-METAR|223|ICAO-KFCH|0.0|C-Calm|1|FM15-METAR|223|ICAO-KFCH|||||||||||||14|Derived||FM15-METAR|223|ICAO-KFCH|||||||||||||||||||||||||||||||||||||||||||||||||||||||||||||||||||||||||1013.9||1|FM15-METAR|223|ICAO-KFCH|||||||||||||||||||||||||||||||||||||||||||MET061METAR KFCH 012255Z AUTO 00000KT 10SM CLR 39/07 A2994 RMK A01=||F||223|ICAO-KFCH
USW00023167|FRESNO CHANDLER DWTN AP|2021|08|01|23|15|36.7333|-119.8167|84.1|39.0||1|FM15-METAR|223|ICAO-KFCH|7.0||1|FM15-METAR|223|ICAO-KFCH|||||||||||||180|N-Normal|1|FM15-METAR|223|ICAO-KFCH|2.1|N-Normal|1|FM15-METAR|223|ICAO-KFCH|||||||||||||14|Derived||FM15-METAR|223|ICAO-KFCH|||||||||||||||||||||||||||||||||||||||||||||||||||||||||||||||||||||||||1013.5||1|FM15-METAR|223|ICAO-KFCH|||||||||||||||||||||||||||||||||||||||||||MET061METAR KFCH 012315Z AUTO 18004KT 10SM CLR 39/07 A2993 RMK A01=||F||223|ICAO-KFCH
USW00023167|FRESNO CHANDLER DWTN AP|2021|08|01|23|35|36.7333|-119.8167|84.1|39.0||1|FM15-METAR|223|ICAO-KFCH|7.0||1|FM15-METAR|223|ICAO-KFCH|||||||||||||230|N-Normal|1|FM15-METAR|223|ICAO-KFCH|1.5|N-Normal|1|FM15-METAR|223|ICAO-KFCH|||||||||||||14|Derived||FM15-METAR|223|ICAO-KFCH|||||||||||||||||||||||||||||||||||||||||||||||||||||||||||||||||||||||||1013.2||1|FM15-METAR|223|ICAO-KFCH|||||||||||||||||||||||||||||||||||||||||||MET061METAR KFCH 012335Z AUTO 23003KT 10SM CLR 39/07 A2992 RMK A01=||F||223|ICAO-KFCH
USW00023167|FRESNO CHANDLER DWTN AP|2021|08|01|23|55|36.7333|-119.8167|84.1|39.0||1|FM15-METAR|223|ICAO-KFCH|7.0||1|FM15-METAR|223|ICAO-KFCH|||||||||||||200|N-Normal|1|FM15-METAR|223|ICAO-KFCH|2.6|N-Normal|1|FM15-METAR|223|ICAO-KFCH|||||||||||||14|Derived||FM15-METAR|223|ICAO-KFCH|||||||||||||||||||||||||||||||||||||||||||||||||||||||||||||||||||||||||1013.2||1|FM15-METAR|223|ICAO-KFCH|||||||||||||||||||||||||||||||||||||||||||MET061METAR KFCH 012355Z AUTO 20005KT 10SM CLR 39/07 A2992 RMK A01=||F||223|ICAO-KFCH
USW00023167|FRESNO CHANDLER DWTN AP|2021|08|02|00|15|36.7333|-119.8167|84.1|39.0||1|FM15-METAR|223|ICAO-KFCH|8.0||1|FM15-METAR|223|ICAO-KFCH|||||||||||||210|N-Normal|1|FM15-METAR|223|ICAO-KFCH|2.6|N-Normal|1|FM15-METAR|223|ICAO-KFCH|||||||||||||15|Derived||FM15-METAR|223|ICAO-KFCH|||||||||||||||||||||||||||||||||||||||||||||||||||||||||||||||||||||||||1013.2||1|FM15-METAR|223|ICAO-KFCH|||||||||||||||||||||||||||||||||||||||||||MET061METAR KFCH 020015Z AUTO 21005KT 10SM CLR 39/08 A2992 RMK A01=||F||223|ICAO-KFCH
USW00023167|FRESNO CHANDLER DWTN AP|2021|08|02|00|35|36.7333|-119.8167|84.1|39.0||1|FM15-METAR|223|ICAO-KFCH|8.0||1|FM15-METAR|223|ICAO-KFCH|||||||||||||250|N-Normal|1|FM15-METAR|223|ICAO-KFCH|2.1|N-Normal|1|FM15-METAR|223|ICAO-KFCH|||||||||||||15|Derived||FM15-METAR|223|ICAO-KFCH|||||||||||||||||||||||||||||||||||||||||||||||||||||||||||||||||||||||||1013.2||1|FM15-METAR|223|ICAO-KFCH|||||||||||||||||||||||||||||||||||||||||||MET061METAR KFCH 020035Z AUTO 25004KT 10SM CLR 39/08 A2992 RMK A01=||F||223|ICAO-KFCH
USW00023167|FRESNO CHANDLER DWTN AP|2021|08|02|00|55|36.7333|-119.8167|84.1|39.0||1|FM15-METAR|223|ICAO-KFCH|8.0||1|FM15-METAR|223|ICAO-KFCH|||||||||||||999|C-Calm|9|FM15-METAR|223|ICAO-KFCH|0.0|C-Calm|1|FM15-METAR|223|ICAO-KFCH|||||||||||||15|Derived||FM15-METAR|223|ICAO-KFCH|||||||||||||||||||||||||||||||||||||||||||||||||||||||||||||||||||||||||1012.9||1|FM15-METAR|223|ICAO-KFCH|||||||||||||||||||||||||||||||||||||||||||MET061METAR KFCH 020055Z AUTO 00000KT 10SM CLR 39/08 A2991 RMK A01=||F||223|ICAO-KFCH
USW00023167|FRESNO CHANDLER DWTN AP|2021|08|02|01|15|36.7333|-119.8167|84.1|39.0||1|FM15-METAR|223|ICAO-KFCH|8.0||1|FM15-METAR|223|ICAO-KFCH|||||||||||||210|N-Normal|1|FM15-METAR|223|ICAO-KFCH|2.1|N-Normal|1|FM15-METAR|223|ICAO-KFCH|||||||||||||15|Derived||FM15-METAR|223|ICAO-KFCH|||||||||||||||||||||||||||||||||||||||||||||||||||||||||||||||||||||||||1012.9||1|FM15-METAR|223|ICAO-KFCH|||||||||||||||||||||||||||||||||||||||||||MET061METAR KFCH 020115Z AUTO 21004KT 10SM CLR 39/08 A2991 RMK A01=||F||223|ICAO-KFCH
USW00023167|FRESNO CHANDLER DWTN AP|2021|08|02|01|35|36.7333|-119.8167|84.1|39.0||1|FM15-METAR|223|ICAO-KFCH|6.0||1|FM15-METAR|223|ICAO-KFCH|||||||||||||999|V-Variable|9|FM15-METAR|223|ICAO-KFCH|2.1|V-Variable|1|FM15-METAR|223|ICAO-KFCH|||||||||||||13|Derived||FM15-METAR|223|ICAO-KFCH|||||||||||||||||||||||||||||||||||||||||||||||||||||||||||||||||||||||||1012.9||1|FM15-METAR|223|ICAO-KFCH|||||||||||||||||||||||||||||||||||||||||||MET061METAR KFCH 020135Z AUTO VRB04KT 10SM CLR 39/06 A2991 RMK A01=||F||223|ICAO-KFCH
USW00023167|FRESNO CHANDLER DWTN AP|2021|08|02|01|55|36.7333|-119.8167|84.1|39.0||1|FM15-METAR|223|ICAO-KFCH|4.0||1|FM15-METAR|223|ICAO-KFCH|||||||||||||210|N-Normal|1|FM15-METAR|223|ICAO-KFCH|2.6|N-Normal|1|FM15-METAR|223|ICAO-KFCH|||||||||||||11|Derived||FM15-METAR|223|ICAO-KFCH|||||||||||||||||||||||||||||||||||||||||||||||||||||||||||||||||||||||||1012.9||1|FM15-METAR|223|ICAO-KFCH|||||||||||||||||||||||||||||||||||||||||||MET061METAR KFCH 020155Z AUTO 21005KT 10SM CLR 39/04 A2991 RMK A01=||F||223|ICAO-KFCH
USW00023167|FRESNO CHANDLER DWTN AP|2021|08|02|02|15|36.7333|-119.8167|84.1|39.0||1|FM15-METAR|223|ICAO-KFCH|7.0||1|FM15-METAR|223|ICAO-KFCH|||||||||||||999|C-Calm|9|FM15-METAR|223|ICAO-KFCH|0.0|C-Calm|1|FM15-METAR|223|ICAO-KFCH|||||||||||||14|Derived||FM15-METAR|223|ICAO-KFCH|||||||||||||||||||||||||||||||||||||||||||||||||||||||||||||||||||||||||1012.9||1|FM15-METAR|223|ICAO-KFCH|||||||||||||||||||||||||||||||||||||||||||MET061METAR KFCH 020215Z AUTO 00000KT 10SM CLR 39/07 A2991 RMK A01=||F||223|ICAO-KFCH
USW00023167|FRESNO CHANDLER DWTN AP|2021|08|02|02|35|36.7333|-119.8167|84.1|39.0||1|FM15-METAR|223|ICAO-KFCH|6.0||1|FM15-METAR|223|ICAO-KFCH|||||||||||||999|C-Calm|9|FM15-METAR|223|ICAO-KFCH|0.0|C-Calm|1|FM15-METAR|223|ICAO-KFCH|||||||||||||13|Derived||FM15-METAR|223|ICAO-KFCH|||||||||||||||||||||||||||||||||||||||||||||||||||||||||||||||||||||||||1012.9||1|FM15-METAR|223|ICAO-KFCH|||||||||||||||||||||||||||||||||||||||||||MET061METAR KFCH 020235Z AUTO 00000KT 10SM CLR 39/06 A2991 RMK A01=||F||223|ICAO-KFCH
USW00023167|FRESNO CHANDLER DWTN AP|2021|08|02|02|50|36.7333|-119.8167|84.1|39.0||1|FM15-METAR|223|ICAO-KFCH|6.0||1|FM15-METAR|223|ICAO-KFCH|||||||||||||999|C-Calm|9|FM15-METAR|223|ICAO-KFCH|0.0|C-Calm|1|FM15-METAR|223|ICAO-KFCH|||||||||||||13|Derived||FM15-METAR|223|ICAO-KFCH|||||||||||||||||||||||||||||||||||||||||||||||||||||||||||||||||||||||||1013.2||1|FM15-METAR|223|ICAO-KFCH|||||||||||||||||||||||||||||||||||||||||||MET061METAR KFCH 020250Z AUTO 00000KT 10SM CLR 39/06 A2992 RMK A01=||F||223|ICAO-KFCH
USW00023167|FRESNO CHANDLER DWTN AP|2021|08|02|03|15|36.7333|-119.8167|84.1|37.0||1|FM15-METAR|223|ICAO-KFCH|11.0||1|FM15-METAR|223|ICAO-KFCH|||||||||||||240|N-Normal|1|FM15-METAR|223|ICAO-KFCH|5.1|N-Normal|1|FM15-METAR|223|ICAO-KFCH|||||||||||||21|Derived||FM15-METAR|223|ICAO-KFCH|||||||||||||||||||||||||||||||||||||||||||||||||||||||||||||||||||||||||1013.5||1|FM15-METAR|223|ICAO-KFCH|||||||||||||||||||||||||||||||||||||||||||MET061METAR KFCH 020315Z AUTO 24010KT 10SM CLR 37/11 A2993 RMK A01=||F||223|ICAO-KFCH
USW00023167|FRESNO CHANDLER DWTN AP|2021|08|02|03|35|36.7333|-119.8167|84.1|34.0||1|FM15-METAR|223|ICAO-KFCH|14.0||1|FM15-METAR|223|ICAO-KFCH|||||||||||||300|N-Normal|1|FM15-METAR|223|ICAO-KFCH|5.7|N-Normal|1|FM15-METAR|223|ICAO-KFCH|||||||||||||30|Derived||FM15-METAR|223|ICAO-KFCH|||||||||||||||||||||||||||||||||||||||||||||||||||||||||||||||||||||||||1013.5||1|FM15-METAR|223|ICAO-KFCH|||||||||||||||||||||||||||||||||||||||||||MET061METAR KFCH 020335Z AUTO 30011KT 10SM CLR 34/14 A2993 RMK A01=||F||223|ICAO-KFCH
USW00023167|FRESNO CHANDLER DWTN AP|2021|08|02|03|55|36.7333|-119.8167|84.1|33.0||1|FM15-METAR|223|ICAO-KFCH|15.0||1|FM15-METAR|223|ICAO-KFCH|||||||||||||300|N-Normal|1|FM15-METAR|223|ICAO-KFCH|5.1|N-Normal|1|FM15-METAR|223|ICAO-KFCH|||||||||||||34|Derived||FM15-METAR|223|ICAO-KFCH|||||||||||||||||||||||||||||||||||||||||||||||||||||||||||||||||||||||||1013.9||1|FM15-METAR|223|ICAO-KFCH|||||||||||||||||||||||||||||||||||||||||||MET061METAR KFCH 020355Z AUTO 30010KT 10SM CLR 33/15 A2994 RMK A01=||F||223|ICAO-KFCH
USW00023167|FRESNO CHANDLER DWTN AP|2021|08|02|04|15|36.7333|-119.8167|84.1|32.0||1|FM15-METAR|223|ICAO-KFCH|16.0||1|FM15-METAR|223|ICAO-KFCH|||||||||||||310|N-Normal|1|FM15-METAR|223|ICAO-KFCH|4.1|N-Normal|1|FM15-METAR|223|ICAO-KFCH|6.7||1|FM15-METAR|223|ICAO-KFCH|||||||38|Derived||FM15-METAR|223|ICAO-KFCH|||||||||||||||||||||||||||||||||||||||||||||||||||||||||||||||||||||||||1014.2||1|FM15-METAR|223|ICAO-KFCH|||||||||||||||||||||||||||||||||||||||||||MET064METAR KFCH 020415Z AUTO 31008G13KT 10SM CLR 32/16 A2995 RMK A01=||F||223|ICAO-KFCH
USW00023167|FRESNO CHANDLER DWTN AP|2021|08|02|04|35|36.7333|-119.8167|84.1|31.0||1|FM15-METAR|223|ICAO-KFCH|16.0||1|FM15-METAR|223|ICAO-KFCH|||||||||||||290|N-Normal|1|FM15-METAR|223|ICAO-KFCH|4.1|N-Normal|1|FM15-METAR|223|ICAO-KFCH|||||||||||||40|Derived||FM15-METAR|223|ICAO-KFCH|||||||||||||||||||||||||||||||||||||||||||||||||||||||||||||||||||||||||1014.6||1|FM15-METAR|223|ICAO-KFCH|||||||||||||||||||||||||||||||||||||||||||MET061METAR KFCH 020435Z AUTO 29008KT 10SM CLR 31/16 A2996 RMK A01=||F||223|ICAO-KFCH
USW00023167|FRESNO CHANDLER DWTN AP|2021|08|02|04|55|36.7333|-119.8167|84.1|30.0||1|FM15-METAR|223|ICAO-KFCH|16.0||1|FM15-METAR|223|ICAO-KFCH|||||||||||||300|N-Normal|1|FM15-METAR|223|ICAO-KFCH|4.6|N-Normal|1|FM15-METAR|223|ICAO-KFCH|||||||||||||43|Derived||FM15-METAR|223|ICAO-KFCH|||||||||||||||||||||||||||||||||||||||||||||||||||||||||||||||||||||||||1014.9||1|FM15-METAR|223|ICAO-KFCH|||||||||||||||||||||||||||||||||||||||||||MET061METAR KFCH 020455Z AUTO 30009KT 10SM CLR 30/16 A2997 RMK A01=||F||223|ICAO-KFCH
USW00023167|FRESNO CHANDLER DWTN AP|2021|08|02|05|15|36.7333|-119.8167|84.1|29.0||1|FM15-METAR|223|ICAO-KFCH|15.0||1|FM15-METAR|223|ICAO-KFCH|||||||||||||310|N-Normal|1|FM15-METAR|223|ICAO-KFCH|3.6|N-Normal|1|FM15-METAR|223|ICAO-KFCH|||||||||||||43|Derived||FM15-METAR|223|ICAO-KFCH|||||||||||||||||||||||||||||||||||||||||||||||||||||||||||||||||||||||||1014.9||1|FM15-METAR|223|ICAO-KFCH|||||||||||||||||||||||||||||||||||||||||||MET061METAR KFCH 020515Z AUTO 31007KT 10SM CLR 29/15 A2997 RMK A01=||F||223|ICAO-KFCH
USW00023167|FRESNO CHANDLER DWTN AP|2021|08|02|05|30|36.7333|-119.8167|84.1|29.0||1|FM15-METAR|223|ICAO-KFCH|15.0||1|FM15-METAR|223|ICAO-KFCH|||||||||||||310|N-Normal|1|FM15-METAR|223|ICAO-KFCH|4.6|N-Normal|1|FM15-METAR|223|ICAO-KFCH|||||||||||||43|Derived||FM15-METAR|223|ICAO-KFCH|||||||||||||||||||||||||||||||||||||||||||||||||||||||||||||||||||||||||1015.2||1|FM15-METAR|223|ICAO-KFCH|||||||||||||||||||||||||||||||||||||||||||MET061METAR KFCH 020530Z AUTO 31009KT 10SM CLR 29/15 A2998 RMK A01=||F||223|ICAO-KFCH
USW00023167|FRESNO CHANDLER DWTN AP|2021|08|02|05|55|36.7333|-119.8167|84.1|28.0||1|FM15-METAR|223|ICAO-KFCH|15.0||1|FM15-METAR|223|ICAO-KFCH|||||||||||||300|N-Normal|1|FM15-METAR|223|ICAO-KFCH|3.6|N-Normal|1|FM15-METAR|223|ICAO-KFCH|||||||||||||45|Derived||FM15-METAR|223|ICAO-KFCH|||||||||||||||||||||||||||||||||||||||||||||||||||||||||||||||||||||||||1015.2||1|FM15-METAR|223|ICAO-KFCH|||||||||||||||||||||||||||||||||||||||||||MET061METAR KFCH 020555Z AUTO 30007KT 10SM CLR 28/15 A2998 RMK A01=||F||223|ICAO-KFCH
USW00023167|FRESNO CHANDLER DWTN AP|2021|08|02|06|15|36.7333|-119.8167|84.1|28.0||1|FM15-METAR|223|ICAO-KFCH|14.0||1|FM15-METAR|223|ICAO-KFCH|||||||||||||330|N-Normal|1|FM15-METAR|223|ICAO-KFCH|3.1|N-Normal|1|FM15-METAR|223|ICAO-KFCH|||||||||||||42|Derived||FM15-METAR|223|ICAO-KFCH|||||||||||||||||||||||||||||||||||||||||||||||||||||||||||||||||||||||||1015.2||1|FM15-METAR|223|ICAO-KFCH|||||||||||||||||||||||||||||||||||||||||||MET061METAR KFCH 020615Z AUTO 33006KT 10SM CLR 28/14 A2998 RMK A01=||F||223|ICAO-KFCH
USW00023167|FRESNO CHANDLER DWTN AP|2021|08|02|06|35|36.7333|-119.8167|84.1|27.0||1|FM15-METAR|223|ICAO-KFCH|13.0||1|FM15-METAR|223|ICAO-KFCH|||||||||||||310|N-Normal|1|FM15-METAR|223|ICAO-KFCH|4.6|N-Normal|1|FM15-METAR|223|ICAO-KFCH|||||||||||||42|Derived||FM15-METAR|223|ICAO-KFCH|||||||||||||||||||||||||||||||||||||||||||||||||||||||||||||||||||||||||1015.2||1|FM15-METAR|223|ICAO-KFCH|||||||||||||||||||||||||||||||||||||||||||MET061METAR KFCH 020635Z AUTO 31009KT 10SM CLR 27/13 A2998 RMK A01=||F||223|ICAO-KFCH
USW00023167|FRESNO CHANDLER DWTN AP|2021|08|02|06|55|36.7333|-119.8167|84.1|27.0||1|FM15-METAR|223|ICAO-KFCH|13.0||1|FM15-METAR|223|ICAO-KFCH|||||||||||||300|N-Normal|1|FM15-METAR|223|ICAO-KFCH|3.1|N-Normal|1|FM15-METAR|223|ICAO-KFCH|||||||||||||42|Derived||FM15-METAR|223|ICAO-KFCH|||||||||||||||||||||||||||||||||||||||||||||||||||||||||||||||||||||||||1015.6||1|FM15-METAR|223|ICAO-KFCH|||||||||||||||||||||||||||||||||||||||||||MET061METAR KFCH 020655Z AUTO 30006KT 10SM CLR 27/13 A2999 RMK A01=||F||223|ICAO-KFCH
USW00023167|FRESNO CHANDLER DWTN AP|2021|08|02|07|15|36.7333|-119.8167|84.1|26.0||1|FM15-METAR|223|ICAO-KFCH|13.0||1|FM15-METAR|223|ICAO-KFCH|||||||||||||300|N-Normal|1|FM15-METAR|223|ICAO-KFCH|4.1|N-Normal|1|FM15-METAR|223|ICAO-KFCH|||||||||||||45|Derived||FM15-METAR|223|ICAO-KFCH|||||||||||||||||||||||||||||||||||||||||||||||||||||||||||||||||||||||||1015.6||1|FM15-METAR|223|ICAO-KFCH|||||||||||||||||||||||||||||||||||||||||||MET061METAR KFCH 020715Z AUTO 30008KT 10SM CLR 26/13 A2999 RMK A01=||F||223|ICAO-KFCH
USW00023167|FRESNO CHANDLER DWTN AP|2021|08|02|07|35|36.7333|-119.8167|84.1|25.0||1|FM15-METAR|223|ICAO-KFCH|14.0||1|FM15-METAR|223|ICAO-KFCH|||||||||||||310|N-Normal|1|FM15-METAR|223|ICAO-KFCH|4.6|N-Normal|1|FM15-METAR|223|ICAO-KFCH|||||||||||||51|Derived||FM15-METAR|223|ICAO-KFCH|||||||||||||||||||||||||||||||||||||||||||||||||||||||||||||||||||||||||1015.6||1|FM15-METAR|223|ICAO-KFCH|||||||||||||||||||||||||||||||||||||||||||MET061METAR KFCH 020735Z AUTO 31009KT 10SM CLR 25/14 A2999 RMK A01=||F||223|ICAO-KFCH
USW00023167|FRESNO CHANDLER DWTN AP|2021|08|02|07|55|36.7333|-119.8167|84.1|24.0||1|FM15-METAR|223|ICAO-KFCH|14.0||1|FM15-METAR|223|ICAO-KFCH|||||||||||||310|N-Normal|1|FM15-METAR|223|ICAO-KFCH|3.1|N-Normal|1|FM15-METAR|223|ICAO-KFCH|||||||||||||54|Derived||FM15-METAR|223|ICAO-KFCH|||||||||||||||||||||||||||||||||||||||||||||||||||||||||||||||||||||||||1015.9||1|FM15-METAR|223|ICAO-KFCH|||||||||||||||||||||||||||||||||||||||||||MET061METAR KFCH 020755Z AUTO 31006KT 10SM CLR 24/14 A3000 RMK A01=||F||223|ICAO-KFCH
USW00023167|FRESNO CHANDLER DWTN AP|2021|08|02|08|15|36.7333|-119.8167|84.1|24.0||1|FM15-METAR|223|ICAO-KFCH|14.0||1|FM15-METAR|223|ICAO-KFCH|||||||||||||290|N-Normal|1|FM15-METAR|223|ICAO-KFCH|3.1|N-Normal|1|FM15-METAR|223|ICAO-KFCH|||||||||||||54|Derived||FM15-METAR|223|ICAO-KFCH|||||||||||||||||||||||||||||||||||||||||||||||||||||||||||||||||||||||||1016.3||1|FM15-METAR|223|ICAO-KFCH|||||||||||||||||||||||||||||||||||||||||||MET061METAR KFCH 020815Z AUTO 29006KT 10SM CLR 24/14 A3001 RMK A01=||F||223|ICAO-KFCH
USW00023167|FRESNO CHANDLER DWTN AP|2021|08|02|08|35|36.7333|-119.8167|84.1|23.0||1|FM15-METAR|223|ICAO-KFCH|13.0||1|FM15-METAR|223|ICAO-KFCH|||||||||||||280|N-Normal|1|FM15-METAR|223|ICAO-KFCH|3.1|N-Normal|1|FM15-METAR|223|ICAO-KFCH|||||||||||||53|Derived||FM15-METAR|223|ICAO-KFCH|||||||||||||||||||||||||||||||||||||||||||||||||||||||||||||||||||||||||1016.3||1|FM15-METAR|223|ICAO-KFCH|||||||||||||||||||||||||||||||||||||||||||MET061METAR KFCH 020835Z AUTO 28006KT 10SM CLR 23/13 A3001 RMK A01=||F||223|ICAO-KFCH
USW00023167|FRESNO CHANDLER DWTN AP|2021|08|02|08|55|36.7333|-119.8167|84.1|23.0||1|FM15-METAR|223|ICAO-KFCH|13.0||1|FM15-METAR|223|ICAO-KFCH|||||||||||||280|N-Normal|1|FM15-METAR|223|ICAO-KFCH|3.1|N-Normal|1|FM15-METAR|223|ICAO-KFCH|||||||||||||53|Derived||FM15-METAR|223|ICAO-KFCH|||||||||||||||||||||||||||||||||||||||||||||||||||||||||||||||||||||||||1016.3||1|FM15-METAR|223|ICAO-KFCH|||||||||||||||||||||||||||||||||||||||||||MET061METAR KFCH 020855Z AUTO 28006KT 10SM CLR 23/13 A3001 RMK A01=||F||223|ICAO-KFCH
USW00023167|FRESNO CHANDLER DWTN AP|2021|08|02|09|15|36.7333|-119.8167|84.1|22.0||1|FM15-METAR|223|ICAO-KFCH|13.0||1|FM15-METAR|223|ICAO-KFCH|||||||||||||290|N-Normal|1|FM15-METAR|223|ICAO-KFCH|3.1|N-Normal|1|FM15-METAR|223|ICAO-KFCH|||||||||||||57|Derived||FM15-METAR|223|ICAO-KFCH|||||||||||||||||||||||||||||||||||||||||||||||||||||||||||||||||||||||||1016.3||1|FM15-METAR|223|ICAO-KFCH|||||||||||||||||||||||||||||||||||||||||||MET061METAR KFCH 020915Z AUTO 29006KT 10SM CLR 22/13 A3001 RMK A01=||F||223|ICAO-KFCH
USW00023167|FRESNO CHANDLER DWTN AP|2021|08|02|09|35|36.7333|-119.8167|84.1|22.0||1|FM15-METAR|223|ICAO-KFCH|12.0||1|FM15-METAR|223|ICAO-KFCH|||||||||||||300|N-Normal|1|FM15-METAR|223|ICAO-KFCH|3.6|N-Normal|1|FM15-METAR|223|ICAO-KFCH|||||||||||||53|Derived||FM15-METAR|223|ICAO-KFCH|||||||||||||||||||||||||||||||||||||||||||||||||||||||||||||||||||||||||1016.3||1|FM15-METAR|223|ICAO-KFCH|||||||||||||||||||||||||||||||||||||||||||MET061METAR KFCH 020935Z AUTO 30007KT 10SM CLR 22/12 A3001 RMK A01=||F||223|ICAO-KFCH
USW00023167|FRESNO CHANDLER DWTN AP|2021|08|02|09|55|36.7333|-119.8167|84.1|22.0||1|FM15-METAR|223|ICAO-KFCH|12.0||1|FM15-METAR|223|ICAO-KFCH|||||||||||||320|N-Normal|1|FM15-METAR|223|ICAO-KFCH|2.6|N-Normal|1|FM15-METAR|223|ICAO-KFCH|||||||||||||53|Derived||FM15-METAR|223|ICAO-KFCH|||||||||||||||||||||||||||||||||||||||||||||||||||||||||||||||||||||||||1016.6||1|FM15-METAR|223|ICAO-KFCH|||||||||||||||||||||||||||||||||||||||||||MET061METAR KFCH 020955Z AUTO 32005KT 10SM CLR 22/12 A3002 RMK A01=||F||223|ICAO-KFCH
USW00023167|FRESNO CHANDLER DWTN AP|2021|08|02|10|15|36.7333|-119.8167|84.1|22.0||1|FM15-METAR|223|ICAO-KFCH|11.0||1|FM15-METAR|223|ICAO-KFCH|||||||||||||330|N-Normal|1|FM15-METAR|223|ICAO-KFCH|3.6|N-Normal|1|FM15-METAR|223|ICAO-KFCH|||||||||||||50|Derived||FM15-METAR|223|ICAO-KFCH|||||||||||||||||||||||||||||||||||||||||||||||||||||||||||||||||||||||||1016.6||1|FM15-METAR|223|ICAO-KFCH|||||||||||||||||||||||||||||||||||||||||||MET061METAR KFCH 021015Z AUTO 33007KT 10SM CLR 22/11 A3002 RMK A01=||F||223|ICAO-KFCH
USW00023167|FRESNO CHANDLER DWTN AP|2021|08|02|10|30|36.7333|-119.8167|84.1|22.0||1|FM15-METAR|223|ICAO-KFCH|11.0||1|FM15-METAR|223|ICAO-KFCH|||||||||||||330|N-Normal|1|FM15-METAR|223|ICAO-KFCH|3.1|N-Normal|1|FM15-METAR|223|ICAO-KFCH|||||||||||||50|Derived||FM15-METAR|223|ICAO-KFCH|||||||||||||||||||||||||||||||||||||||||||||||||||||||||||||||||||||||||1016.6||1|FM15-METAR|223|ICAO-KFCH|||||||||||||||||||||||||||||||||||||||||||MET061METAR KFCH 021030Z AUTO 33006KT 10SM CLR 22/11 A3002 RMK A01=||F||223|ICAO-KFCH
USW00023167|FRESNO CHANDLER DWTN AP|2021|08|02|10|55|36.7333|-119.8167|84.1|22.0||1|FM15-METAR|223|ICAO-KFCH|11.0||1|FM15-METAR|223|ICAO-KFCH|||||||||||||330|N-Normal|1|FM15-METAR|223|ICAO-KFCH|3.6|N-Normal|1|FM15-METAR|223|ICAO-KFCH|||||||||||||50|Derived||FM15-METAR|223|ICAO-KFCH|||||||||||||||||||||||||||||||||||||||||||||||||||||||||||||||||||||||||1016.6||1|FM15-METAR|223|ICAO-KFCH|||||||||||||||||||||||||||||||||||||||||||MET061METAR KFCH 021055Z AUTO 33007KT 10SM CLR 22/11 A3002 RMK A01=||F||223|ICAO-KFCH
USW00023167|FRESNO CHANDLER DWTN AP|2021|08|02|11|15|36.7333|-119.8167|84.1|22.0||1|FM15-METAR|223|ICAO-KFCH|11.0||1|FM15-METAR|223|ICAO-KFCH|||||||||||||340|N-Normal|1|FM15-METAR|223|ICAO-KFCH|3.6|N-Normal|1|FM15-METAR|223|ICAO-KFCH|||||||||||||50|Derived||FM15-METAR|223|ICAO-KFCH|||||||||||||||||||||||||||||||||||||||||||||||||||||||||||||||||||||||||1016.6||1|FM15-METAR|223|ICAO-KFCH|||||||||||||||||||||||||||||||||||||||||||MET061METAR KFCH 021115Z AUTO 34007KT 10SM CLR 22/11 A3002 RMK A01=||F||223|ICAO-KFCH
USW00023167|FRESNO CHANDLER DWTN AP|2021|08|02|11|35|36.7333|-119.8167|84.1|22.0||1|FM15-METAR|223|ICAO-KFCH|11.0||1|FM15-METAR|223|ICAO-KFCH|||||||||||||320|N-Normal|1|FM15-METAR|223|ICAO-KFCH|3.1|N-Normal|1|FM15-METAR|223|ICAO-KFCH|6.7||1|FM15-METAR|223|ICAO-KFCH|||||||50|Derived||FM15-METAR|223|ICAO-KFCH|||||||||||||||||||||||||||||||||||||||||||||||||||||||||||||||||||||||||1016.9||1|FM15-METAR|223|ICAO-KFCH|||||||||||||||||||||||||||||||||||||||||||MET064METAR KFCH 021135Z AUTO 32006G13KT 10SM CLR 22/11 A3003 RMK A01=||F||223|ICAO-KFCH
USW00023167|FRESNO CHANDLER DWTN AP|2021|08|02|11|55|36.7333|-119.8167|84.1|21.0||1|FM15-METAR|223|ICAO-KFCH|11.0||1|FM15-METAR|223|ICAO-KFCH|||||||||||||250|N-Normal|1|FM15-METAR|223|ICAO-KFCH|3.1|N-Normal|1|FM15-METAR|223|ICAO-KFCH|||||||||||||53|Derived||FM15-METAR|223|ICAO-KFCH|||||||||||||||||||||||||||||||||||||||||||||||||||||||||||||||||||||||||1017.3||1|FM15-METAR|223|ICAO-KFCH|||||||||||||||||||||||||||||||||||||||||||MET061METAR KFCH 021155Z AUTO 25006KT 10SM CLR 21/11 A3004 RMK A01=||F||223|ICAO-KFCH
USW00023167|FRESNO CHANDLER DWTN AP|2021|08|02|12|15|36.7333|-119.8167|84.1|19.0||1|FM15-METAR|223|ICAO-KFCH|13.0||1|FM15-METAR|223|ICAO-KFCH|||||||||||||270|N-Normal|1|FM15-METAR|223|ICAO-KFCH|3.1|N-Normal|1|FM15-METAR|223|ICAO-KFCH|||||||||||||68|Derived||FM15-METAR|223|ICAO-KFCH|||||||||||||||||||||||||||||||||||||||||||||||||||||||||||||||||||||||||1017.3||1|FM15-METAR|223|ICAO-KFCH|||||||||||||||||||||||||||||||||||||||||||MET061METAR KFCH 021215Z AUTO 27006KT 10SM CLR 19/13 A3004 RMK A01=||F||223|ICAO-KFCH
USW00023167|FRESNO CHANDLER DWTN AP|2021|08|02|12|35|36.7333|-119.8167|84.1|19.0||1|FM15-METAR|223|ICAO-KFCH|13.0||1|FM15-METAR|223|ICAO-KFCH|||||||||||||290|N-Normal|1|FM15-METAR|223|ICAO-KFCH|3.1|N-Normal|1|FM15-METAR|223|ICAO-KFCH|||||||||||||68|Derived||FM15-METAR|223|ICAO-KFCH|||||||||||||||||||||||||||||||||||||||||||||||||||||||||||||||||||||||||1017.3||1|FM15-METAR|223|ICAO-KFCH|||||||||||||||||||||||||||||||||||||||||||MET061METAR KFCH 021235Z AUTO 29006KT 10SM CLR 19/13 A3004 RMK A01=||F||223|ICAO-KFCH
USW00023167|FRESNO CHANDLER DWTN AP|2021|08|02|12|55|36.7333|-119.8167|84.1|18.0||1|FM15-METAR|223|ICAO-KFCH|13.0||1|FM15-METAR|223|ICAO-KFCH|||||||||||||280|N-Normal|1|FM15-METAR|223|ICAO-KFCH|3.1|N-Normal|1|FM15-METAR|223|ICAO-KFCH|||||||||||||73|Derived||FM15-METAR|223|ICAO-KFCH|||||||||||||||||||||||||||||||||||||||||||||||||||||||||||||||||||||||||1017.6||1|FM15-METAR|223|ICAO-KFCH|||||||||||||||||||||||||||||||||||||||||||MET061METAR KFCH 021255Z AUTO 28006KT 10SM CLR 18/13 A3005 RMK A01=||F||223|ICAO-KFCH
USW00023167|FRESNO CHANDLER DWTN AP|2021|08|02|13|15|36.7333|-119.8167|84.1|18.0||1|FM15-METAR|223|ICAO-KFCH|13.0||1|FM15-METAR|223|ICAO-KFCH|||||||||||||280|N-Normal|1|FM15-METAR|223|ICAO-KFCH|3.1|N-Normal|1|FM15-METAR|223|ICAO-KFCH|||||||||||||73|Derived||FM15-METAR|223|ICAO-KFCH|||||||||||||||||||||||||||||||||||||||||||||||||||||||||||||||||||||||||1017.9||1|FM15-METAR|223|ICAO-KFCH|||||||||||||||||||||||||||||||||||||||||||MET061METAR KFCH 021315Z AUTO 28006KT 10SM CLR 18/13 A3006 RMK A01=||F||223|ICAO-KFCH
USW00023167|FRESNO CHANDLER DWTN AP|2021|08|02|13|35|36.7333|-119.8167|84.1|18.0||1|FM15-METAR|223|ICAO-KFCH|13.0||1|FM15-METAR|223|ICAO-KFCH|||||||||||||300|N-Normal|1|FM15-METAR|223|ICAO-KFCH|2.6|N-Normal|1|FM15-METAR|223|ICAO-KFCH|||||||||||||73|Derived||FM15-METAR|223|ICAO-KFCH|||||||||||||||||||||||||||||||||||||||||||||||||||||||||||||||||||||||||1018.3||1|FM15-METAR|223|ICAO-KFCH|||||||||||||||||||||||||||||||||||||||||||MET061METAR KFCH 021335Z AUTO 30005KT 10SM CLR 18/13 A3007 RMK A01=||F||223|ICAO-KFCH
USW00023167|FRESNO CHANDLER DWTN AP|2021|08|02|13|55|36.7333|-119.8167|84.1|18.0||1|FM15-METAR|223|ICAO-KFCH|13.0||1|FM15-METAR|223|ICAO-KFCH|||||||||||||300|N-Normal|1|FM15-METAR|223|ICAO-KFCH|3.1|N-Normal|1|FM15-METAR|223|ICAO-KFCH|||||||||||||73|Derived||FM15-METAR|223|ICAO-KFCH|||||||||||||||||||||||||||||||||||||||||||||||||||||||||||||||||||||||||1018.3||1|FM15-METAR|223|ICAO-KFCH|||||||||||||||||||||||||||||||||||||||||||MET061METAR KFCH 021355Z AUTO 30006KT 10SM CLR 18/13 A3007 RMK A01=||F||223|ICAO-KFCH
USW00023167|FRESNO CHANDLER DWTN AP|2021|08|02|14|15|36.7333|-119.8167|84.1|18.0||1|FM15-METAR|223|ICAO-KFCH|12.0||1|FM15-METAR|223|ICAO-KFCH|||||||||||||300|N-Normal|1|FM15-METAR|223|ICAO-KFCH|3.6|N-Normal|1|FM15-METAR|223|ICAO-KFCH|||||||||||||68|Derived||FM15-METAR|223|ICAO-KFCH|||||||||||||||||||||||||||||||||||||||||||||||||||||||||||||||||||||||||1018.6||1|FM15-METAR|223|ICAO-KFCH|||||||||||||||||||||||||||||||||||||||||||MET061METAR KFCH 021415Z AUTO 30007KT 10SM CLR 18/12 A3008 RMK A01=||F||223|ICAO-KFCH
USW00023167|FRESNO CHANDLER DWTN AP|2021|08|02|14|35|36.7333|-119.8167|84.1|19.0||1|FM15-METAR|223|ICAO-KFCH|12.0||1|FM15-METAR|223|ICAO-KFCH|||||||||||||300|N-Normal|1|FM15-METAR|223|ICAO-KFCH|2.6|N-Normal|1|FM15-METAR|223|ICAO-KFCH|||||||||||||64|Derived||FM15-METAR|223|ICAO-KFCH|||||||||||||||||||||||||||||||||||||||||||||||||||||||||||||||||||||||||1018.6||1|FM15-METAR|223|ICAO-KFCH|||||||||||||||||||||||||||||||||||||||||||MET061METAR KFCH 021435Z AUTO 30005KT 10SM CLR 19/12 A3008 RMK A01=||F||223|ICAO-KFCH
USW00023167|FRESNO CHANDLER DWTN AP|2021|08|02|14|55|36.7333|-119.8167|84.1|20.0||1|FM15-METAR|223|ICAO-KFCH|12.0||1|FM15-METAR|223|ICAO-KFCH|||||||||||||280|N-Normal|1|FM15-METAR|223|ICAO-KFCH|3.1|N-Normal|1|FM15-METAR|223|ICAO-KFCH|||||||||||||60|Derived||FM15-METAR|223|ICAO-KFCH|||||||||||||||||||||||||||||||||||||||||||||||||||||||||||||||||||||||||1019.0||1|FM15-METAR|223|ICAO-KFCH|||||||||||||||||||||||||||||||||||||||||||MET061METAR KFCH 021455Z AUTO 28006KT 10SM CLR 20/12 A3009 RMK A01=||F||223|ICAO-KFCH
USW00023167|FRESNO CHANDLER DWTN AP|2021|08|02|15|15|36.7333|-119.8167|84.1|20.0||1|FM15-METAR|223|ICAO-KFCH|12.0||1|FM15-METAR|223|ICAO-KFCH|||||||||||||300|N-Normal|1|FM15-METAR|223|ICAO-KFCH|2.6|N-Normal|1|FM15-METAR|223|ICAO-KFCH|||||||||||||60|Derived||FM15-METAR|223|ICAO-KFCH|||||||||||||||||||||||||||||||||||||||||||||||||||||||||||||||||||||||||1019.0||1|FM15-METAR|223|ICAO-KFCH|||||||||||||||||||||||||||||||||||||||||||MET061METAR KFCH 021515Z AUTO 30005KT 10SM CLR 20/12 A3009 RMK A01=||F||223|ICAO-KFCH
USW00023167|FRESNO CHANDLER DWTN AP|2021|08|02|15|30|36.7333|-119.8167|84.1|21.0||1|FM15-METAR|223|ICAO-KFCH|12.0||1|FM15-METAR|223|ICAO-KFCH|||||||||||||999|C-Calm|9|FM15-METAR|223|ICAO-KFCH|0.0|C-Calm|1|FM15-METAR|223|ICAO-KFCH|||||||||||||57|Derived||FM15-METAR|223|ICAO-KFCH|||||||||||||||||||||||||||||||||||||||||||||||||||||||||||||||||||||||||1019.0||1|FM15-METAR|223|ICAO-KFCH|||||||||||||||||||||||||||||||||||||||||||MET061METAR KFCH 021530Z AUTO 00000KT 10SM CLR 21/12 A3009 RMK A01=||F||223|ICAO-KFCH
USW00023167|FRESNO CHANDLER DWTN AP|2021|08|02|15|55|36.7333|-119.8167|84.1|22.0||1|FM15-METAR|223|ICAO-KFCH|12.0||1|FM15-METAR|223|ICAO-KFCH|||||||||||||999|C-Calm|9|FM15-METAR|223|ICAO-KFCH|0.0|C-Calm|1|FM15-METAR|223|ICAO-KFCH|||||||||||||53|Derived||FM15-METAR|223|ICAO-KFCH|||||||||||||||||||||||||||||||||||||||||||||||||||||||||||||||||||||||||1019.0||1|FM15-METAR|223|ICAO-KFCH|||||||||||||||||||||||||||||||||||||||||||MET060METAR KFCH 021555Z AUTO 00000KT 9SM CLR 22/12 A3009 RMK A01=||F||223|ICAO-KFCH
USW00023167|FRESNO CHANDLER DWTN AP|2021|08|02|16|15|36.7333|-119.8167|84.1|23.0||1|FM15-METAR|223|ICAO-KFCH|12.0||1|FM15-METAR|223|ICAO-KFCH|||||||||||||290|N-Normal|1|FM15-METAR|223|ICAO-KFCH|2.1|N-Normal|1|FM15-METAR|223|ICAO-KFCH|||||||||||||50|Derived||FM15-METAR|223|ICAO-KFCH|||||||||||||||||||||||||||||||||||||||||||||||||||||||||||||||||||||||||1018.6||1|FM15-METAR|223|ICAO-KFCH|||||||||||||||||||||||||||||||||||||||||||MET061METAR KFCH 021615Z AUTO 29004KT 10SM CLR 23/12 A3008 RMK A01=||F||223|ICAO-KFCH
USW00023167|FRESNO CHANDLER DWTN AP|2021|08|02|16|35|36.7333|-119.8167|84.1|24.0||1|FM15-METAR|223|ICAO-KFCH|12.0||1|FM15-METAR|223|ICAO-KFCH|||||||||||||270|N-Normal|1|FM15-METAR|223|ICAO-KFCH|1.5|N-Normal|1|FM15-METAR|223|ICAO-KFCH|||||||||||||47|Derived||FM15-METAR|223|ICAO-KFCH|||||||||||||||||||||||||||||||||||||||||||||||||||||||||||||||||||||||||1018.6||1|FM15-METAR|223|ICAO-KFCH|||||||||||||||||||||||||||||||||||||||||||MET061METAR KFCH 021635Z AUTO 27003KT 10SM CLR 24/12 A3008 RMK A01=||F||223|ICAO-KFCH
USW00023167|FRESNO CHANDLER DWTN AP|2021|08|02|16|55|36.7333|-119.8167|84.1|25.0||1|FM15-METAR|223|ICAO-KFCH|12.0||1|FM15-METAR|223|ICAO-KFCH|||||||||||||999|C-Calm|9|FM15-METAR|223|ICAO-KFCH|0.0|C-Calm|1|FM15-METAR|223|ICAO-KFCH|||||||||||||44|Derived||FM15-METAR|223|ICAO-KFCH|||||||||||||||||||||||||||||||||||||||||||||||||||||||||||||||||||||||||1018.6||1|FM15-METAR|223|ICAO-KFCH|||||||||||||||||||||||||||||||||||||||||||MET061METAR KFCH 021655Z AUTO 00000KT 10SM CLR 25/12 A3008 RMK A01=||F||223|ICAO-KFCH
USW00023167|FRESNO CHANDLER DWTN AP|2021|08|02|17|15|36.7333|-119.8167|84.1|26.0||1|FM15-METAR|223|ICAO-KFCH|12.0||1|FM15-METAR|223|ICAO-KFCH|||||||||||||999|V-Variable|9|FM15-METAR|223|ICAO-KFCH|2.6|V-Variable|1|FM15-METAR|223|ICAO-KFCH|||||||||||||42|Derived||FM15-METAR|223|ICAO-KFCH|||||||||||||||||||||||||||||||||||||||||||||||||||||||||||||||||||||||||1018.6||1|FM15-METAR|223|ICAO-KFCH|||||||||||||||||||||||||||||||||||||||||||MET061METAR KFCH 021715Z AUTO VRB05KT 10SM CLR 26/12 A3008 RMK A01=||F||223|ICAO-KFCH
USW00023167|FRESNO CHANDLER DWTN AP|2021|08|02|17|35|36.7333|-119.8167|84.1|27.0||1|FM15-METAR|223|ICAO-KFCH|11.0||1|FM15-METAR|223|ICAO-KFCH|||||||||||||999|C-Calm|9|FM15-METAR|223|ICAO-KFCH|0.0|C-Calm|1|FM15-METAR|223|ICAO-KFCH|||||||||||||37|Derived||FM15-METAR|223|ICAO-KFCH|||||||||||||||||||||||||||||||||||||||||||||||||||||||||||||||||||||||||1018.3||1|FM15-METAR|223|ICAO-KFCH|||||||||||||||||||||||||||||||||||||||||||MET061METAR KFCH 021735Z AUTO 00000KT 10SM CLR 27/11 A3007 RMK A01=||F||223|ICAO-KFCH
USW00023167|FRESNO CHANDLER DWTN AP|2021|08|02|17|55|36.7333|-119.8167|84.1|28.0||1|FM15-METAR|223|ICAO-KFCH|12.0||1|FM15-METAR|223|ICAO-KFCH|||||||||||||999|V-Variable|9|FM15-METAR|223|ICAO-KFCH|2.6|V-Variable|1|FM15-METAR|223|ICAO-KFCH|||||||||||||37|Derived||FM15-METAR|223|ICAO-KFCH|||||||||||||||||||||||||||||||||||||||||||||||||||||||||||||||||||||||||1018.3||1|FM15-METAR|223|ICAO-KFCH|||||||||||||||||||||||||||||||||||||||||||MET061METAR KFCH 021755Z AUTO VRB05KT 10SM CLR 28/12 A3007 RMK A01=||F||223|ICAO-KFCH
USW00023167|FRESNO CHANDLER DWTN AP|2021|08|02|18|15|36.7333|-119.8167|84.1|29.0||1|FM15-METAR|223|ICAO-KFCH|12.0||1|FM15-METAR|223|ICAO-KFCH|||||||||||||999|V-Variable|9|FM15-METAR|223|ICAO-KFCH|2.1|V-Variable|1|FM15-METAR|223|ICAO-KFCH|||||||||||||35|Derived||FM15-METAR|223|ICAO-KFCH|||||||||||||||||||||||||||||||||||||||||||||||||||||||||||||||||||||||||1018.3||1|FM15-METAR|223|ICAO-KFCH|||||||||||||||||||||||||||||||||||||||||||MET061METAR KFCH 021815Z AUTO VRB04KT 10SM CLR 29/12 A3007 RMK A01=||F||223|ICAO-KFCH
USW00023167|FRESNO CHANDLER DWTN AP|2021|08|02|18|35|36.7333|-119.8167|84.1|29.0||1|FM15-METAR|223|ICAO-KFCH|12.0||1|FM15-METAR|223|ICAO-KFCH|||||||||||||999|C-Calm|9|FM15-METAR|223|ICAO-KFCH|0.0|C-Calm|1|FM15-METAR|223|ICAO-KFCH|||||||||||||35|Derived||FM15-METAR|223|ICAO-KFCH|||||||||||||||||||||||||||||||||||||||||||||||||||||||||||||||||||||||||1017.9||1|FM15-METAR|223|ICAO-KFCH|||||||||||||||||||||||||||||||||||||||||||MET061METAR KFCH 021835Z AUTO 00000KT 10SM CLR 29/12 A3006 RMK A01=||F||223|ICAO-KFCH
USW00023167|FRESNO CHANDLER DWTN AP|2021|08|02|18|55|36.7333|-119.8167|84.1|30.0||1|FM15-METAR|223|ICAO-KFCH|12.0||1|FM15-METAR|223|ICAO-KFCH|||||||||||||340|N-Normal|1|FM15-METAR|223|ICAO-KFCH|2.6|N-Normal|1|FM15-METAR|223|ICAO-KFCH|5.7||1|FM15-METAR|223|ICAO-KFCH|||||||33|Derived||FM15-METAR|223|ICAO-KFCH|||||||||||||||||||||||||||||||||||||||||||||||||||||||||||||||||||||||||1017.9||1|FM15-METAR|223|ICAO-KFCH|||||||||||||||||||||||||||||||||||||||||||MET064METAR KFCH 021855Z AUTO 34005G11KT 10SM CLR 30/12 A3006 RMK A01=||F||223|ICAO-KFCH
USW00023167|FRESNO CHANDLER DWTN AP|2021|08|02|19|15|36.7333|-119.8167|84.1|31.0||1|FM15-METAR|223|ICAO-KFCH|12.0||1|FM15-METAR|223|ICAO-KFCH|||||||||||||999|V-Variable|9|FM15-METAR|223|ICAO-KFCH|1.5|V-Variable|1|FM15-METAR|223|ICAO-KFCH|||||||||||||31|Derived||FM15-METAR|223|ICAO-KFCH|||||||||||||||||||||||||||||||||||||||||||||||||||||||||||||||||||||||||1017.6||1|FM15-METAR|223|ICAO-KFCH|||||||||||||||||||||||||||||||||||||||||||MET061METAR KFCH 021915Z AUTO VRB03KT 10SM CLR 31/12 A3005 RMK A01=||F||223|ICAO-KFCH
USW00023167|FRESNO CHANDLER DWTN AP|2021|08|02|19|35|36.7333|-119.8167|84.1|32.0||1|FM15-METAR|223|ICAO-KFCH|12.0||1|FM15-METAR|223|ICAO-KFCH|||||||||||||999|V-Variable|9|FM15-METAR|223|ICAO-KFCH|3.1|V-Variable|1|FM15-METAR|223|ICAO-KFCH|||||||||||||29|Derived||FM15-METAR|223|ICAO-KFCH|||||||||||||||||||||||||||||||||||||||||||||||||||||||||||||||||||||||||1017.3||1|FM15-METAR|223|ICAO-KFCH|||||||||||||||||||||||||||||||||||||||||||MET061METAR KFCH 021935Z AUTO VRB06KT 10SM CLR 32/12 A3004 RMK A01=||F||223|ICAO-KFCH
USW00023167|FRESNO CHANDLER DWTN AP|2021|08|02|19|55|36.7333|-119.8167|84.1|32.0||1|FM15-METAR|223|ICAO-KFCH|12.0||1|FM15-METAR|223|ICAO-KFCH|||||||||||||280|N-Normal|1|FM15-METAR|223|ICAO-KFCH|4.1|N-Normal|1|FM15-METAR|223|ICAO-KFCH|||||||||||||29|Derived||FM15-METAR|223|ICAO-KFCH|||||||||||||||||||||||||||||||||||||||||||||||||||||||||||||||||||||||||1016.9||1|FM15-METAR|223|ICAO-KFCH|||||||||||||||||||||||||||||||||||||||||||MET061METAR KFCH 021955Z AUTO 28008KT 10SM CLR 32/12 A3003 RMK A01=||F||223|ICAO-KFCH
USW00023167|FRESNO CHANDLER DWTN AP|2021|08|02|20|15|36.7333|-119.8167|84.1|33.0||1|FM15-METAR|223|ICAO-KFCH|12.0||1|FM15-METAR|223|ICAO-KFCH|||||||||||||999|V-Variable|9|FM15-METAR|223|ICAO-KFCH|3.1|V-Variable|1|FM15-METAR|223|ICAO-KFCH|||||||||||||28|Derived||FM15-METAR|223|ICAO-KFCH|||||||||||||||||||||||||||||||||||||||||||||||||||||||||||||||||||||||||1016.6||1|FM15-METAR|223|ICAO-KFCH|||||||||||||||||||||||||||||||||||||||||||MET061METAR KFCH 022015Z AUTO VRB06KT 10SM CLR 33/12 A3002 RMK A01=||F||223|ICAO-KFCH
USW00023167|FRESNO CHANDLER DWTN AP|2021|08|02|20|35|36.7333|-119.8167|84.1|34.0||1|FM15-METAR|223|ICAO-KFCH|11.0||1|FM15-METAR|223|ICAO-KFCH|||||||||||||330|N-Normal|1|FM15-METAR|223|ICAO-KFCH|3.1|N-Normal|1|FM15-METAR|223|ICAO-KFCH|||||||||||||24|Derived||FM15-METAR|223|ICAO-KFCH|||||||||||||||||||||||||||||||||||||||||||||||||||||||||||||||||||||||||1016.6||1|FM15-METAR|223|ICAO-KFCH|||||||||||||||||||||||||||||||||||||||||||MET061METAR KFCH 022035Z AUTO 33006KT 10SM CLR 34/11 A3002 RMK A01=||F||223|ICAO-KFCH
USW00023167|FRESNO CHANDLER DWTN AP|2021|08|02|20|50|36.7333|-119.8167|84.1|34.0||1|FM15-METAR|223|ICAO-KFCH|10.0||1|FM15-METAR|223|ICAO-KFCH|||||||||||||999|V-Variable|9|FM15-METAR|223|ICAO-KFCH|3.1|V-Variable|1|FM15-METAR|223|ICAO-KFCH|5.7||1|FM15-METAR|223|ICAO-KFCH|||||||23|Derived||FM15-METAR|223|ICAO-KFCH|||||||||||||||||||||||||||||||||||||||||||||||||||||||||||||||||||||||||1016.3||1|FM15-METAR|223|ICAO-KFCH|||||||||||||||||||||||||||||||||||||||||||MET064METAR KFCH 022050Z AUTO VRB06G11KT 10SM CLR 34/10 A3001 RMK A01=||F||223|ICAO-KFCH
USW00023167|FRESNO CHANDLER DWTN AP|2021|08|02|21|15|36.7333|-119.8167|84.1|35.0||1|FM15-METAR|223|ICAO-KFCH|10.0||1|FM15-METAR|223|ICAO-KFCH|||||||||||||350|N-Normal|1|FM15-METAR|223|ICAO-KFCH|2.6|N-Normal|1|FM15-METAR|223|ICAO-KFCH|||||||||||||22|Derived||FM15-METAR|223|ICAO-KFCH|||||||||||||||||||||||||||||||||||||||||||||||||||||||||||||||||||||||||1015.9||1|FM15-METAR|223|ICAO-KFCH|||||||||||||||||||||||||||||||||||||||||||MET061METAR KFCH 022115Z AUTO 35005KT 10SM CLR 35/10 A3000 RMK A01=||F||223|ICAO-KFCH
USW00023167|FRESNO CHANDLER DWTN AP|2021|08|02|21|35|36.7333|-119.8167|84.1|35.0||1|FM15-METAR|223|ICAO-KFCH|9.0||1|FM15-METAR|223|ICAO-KFCH|||||||||||||310|N-Normal|1|FM15-METAR|223|ICAO-KFCH|3.1|N-Normal|1|FM15-METAR|223|ICAO-KFCH|||||||||||||20|Derived||FM15-METAR|223|ICAO-KFCH|||||||||||||||||||||||||||||||||||||||||||||||||||||||||||||||||||||||||1015.6||1|FM15-METAR|223|ICAO-KFCH|||||||||||||||||||||||||||||||||||||||||||MET061METAR KFCH 022135Z AUTO 31006KT 10SM CLR 35/09 A2999 RMK A01=||F||223|ICAO-KFCH
USW00023167|FRESNO CHANDLER DWTN AP|2021|08|02|21|50|36.7333|-119.8167|84.1|35.0||1|FM15-METAR|223|ICAO-KFCH|7.0||1|FM15-METAR|223|ICAO-KFCH|||||||||||||300|V-Variable|1|FM15-METAR|223|ICAO-KFCH|3.6|V-Variable|1|FM15-METAR|223|ICAO-KFCH|||||||||||||18|Derived||FM15-METAR|223|ICAO-KFCH|||||||||||||||||||||||||||||||||||||||||||||||||||||||||||||||||||||||||1015.6||1|FM15-METAR|223|ICAO-KFCH|||||||||||||||||||||||||||||||||||||||||||MET069METAR KFCH 022150Z AUTO 30007KT 270V330 10SM CLR 35/07 A2999 RMK A01=||F||223|ICAO-KFCH
USW00023167|FRESNO CHANDLER DWTN AP|2021|08|02|22|15|36.7333|-119.8167|84.1|36.0||1|FM15-METAR|223|ICAO-KFCH|6.0||1|FM15-METAR|223|ICAO-KFCH|||||||||||||300|N-Normal|1|FM15-METAR|223|ICAO-KFCH|3.6|N-Normal|1|FM15-METAR|223|ICAO-KFCH|||||||||||||16|Derived||FM15-METAR|223|ICAO-KFCH|||||||||||||||||||||||||||||||||||||||||||||||||||||||||||||||||||||||||1015.2||1|FM15-METAR|223|ICAO-KFCH|||||||||||||||||||||||||||||||||||||||||||MET061METAR KFCH 022215Z AUTO 30007KT 10SM CLR 36/06 A2998 RMK A01=||F||223|ICAO-KFCH
USW00023167|FRESNO CHANDLER DWTN AP|2021|08|02|22|30|36.7333|-119.8167|84.1|36.0||1|FM15-METAR|223|ICAO-KFCH|7.0||1|FM15-METAR|223|ICAO-KFCH|||||||||||||320|N-Normal|1|FM15-METAR|223|ICAO-KFCH|3.6|N-Normal|1|FM15-METAR|223|ICAO-KFCH|6.7||1|FM15-METAR|223|ICAO-KFCH|||||||17|Derived||FM15-METAR|223|ICAO-KFCH|||||||||||||||||||||||||||||||||||||||||||||||||||||||||||||||||||||||||1014.9||1|FM15-METAR|223|ICAO-KFCH|||||||||||||||||||||||||||||||||||||||||||MET064METAR KFCH 022230Z AUTO 32007G13KT 10SM CLR 36/07 A2997 RMK A01=||F||223|ICAO-KFCH
USW00023167|FRESNO CHANDLER DWTN AP|2021|08|02|22|55|36.7333|-119.8167|84.1|37.0||1|FM15-METAR|223|ICAO-KFCH|4.0||1|FM15-METAR|223|ICAO-KFCH|||||||||||||290|N-Normal|1|FM15-METAR|223|ICAO-KFCH|4.1|N-Normal|1|FM15-METAR|223|ICAO-KFCH|||||||||||||13|Derived||FM15-METAR|223|ICAO-KFCH|||||||||||||||||||||||||||||||||||||||||||||||||||||||||||||||||||||||||1014.9||1|FM15-METAR|223|ICAO-KFCH|||||||||||||||||||||||||||||||||||||||||||MET061METAR KFCH 022255Z AUTO 29008KT 10SM CLR 37/04 A2997 RMK A01=||F||223|ICAO-KFCH
USW00023167|FRESNO CHANDLER DWTN AP|2021|08|02|23|15|36.7333|-119.8167|84.1|37.0||1|FM15-METAR|223|ICAO-KFCH|5.0||1|FM15-METAR|223|ICAO-KFCH|||||||||||||999|V-Variable|9|FM15-METAR|223|ICAO-KFCH|3.1|V-Variable|1|FM15-METAR|223|ICAO-KFCH|||||||||||||14|Derived||FM15-METAR|223|ICAO-KFCH|||||||||||||||||||||||||||||||||||||||||||||||||||||||||||||||||||||||||1014.6||1|FM15-METAR|223|ICAO-KFCH|||||||||||||||||||||||||||||||||||||||||||MET061METAR KFCH 022315Z AUTO VRB06KT 10SM CLR 37/05 A2996 RMK A01=||F||223|ICAO-KFCH
USW00023167|FRESNO CHANDLER DWTN AP|2021|08|02|23|35|36.7333|-119.8167|84.1|37.0||1|FM15-METAR|223|ICAO-KFCH|7.0||1|FM15-METAR|223|ICAO-KFCH|||||||||||||290|N-Normal|1|FM15-METAR|223|ICAO-KFCH|3.6|N-Normal|1|FM15-METAR|223|ICAO-KFCH|||||||||||||16|Derived||FM15-METAR|223|ICAO-KFCH|||||||||||||||||||||||||||||||||||||||||||||||||||||||||||||||||||||||||1014.2||1|FM15-METAR|223|ICAO-KFCH|||||||||||||||||||||||||||||||||||||||||||MET061METAR KFCH 022335Z AUTO 29007KT 10SM CLR 37/07 A2995 RMK A01=||F||223|ICAO-KFCH
USW00023167|FRESNO CHANDLER DWTN AP|2021|08|02|23|55|36.7333|-119.8167|84.1|37.0||1|FM15-METAR|223|ICAO-KFCH|8.0||1|FM15-METAR|223|ICAO-KFCH|||||||||||||290|N-Normal|1|FM15-METAR|223|ICAO-KFCH|4.1|N-Normal|1|FM15-METAR|223|ICAO-KFCH|6.7||1|FM15-METAR|223|ICAO-KFCH|||||||17|Derived||FM15-METAR|223|ICAO-KFCH|||||||||||||||||||||||||||||||||||||||||||||||||||||||||||||||||||||||||1014.2||1|FM15-METAR|223|ICAO-KFCH|||||||||||||||||||||||||||||||||||||||||||MET064METAR KFCH 022355Z AUTO 29008G13KT 10SM CLR 37/08 A2995 RMK A01=||F||223|ICAO-KFCH
USW00023167|FRESNO CHANDLER DWTN AP|2021|08|03|00|15|36.7333|-119.8167|84.1|37.0||1|FM15-METAR|223|ICAO-KFCH|6.0||1|FM15-METAR|223|ICAO-KFCH|||||||||||||320|N-Normal|1|FM15-METAR|223|ICAO-KFCH|4.1|N-Normal|1|FM15-METAR|223|ICAO-KFCH|6.7||1|FM15-METAR|223|ICAO-KFCH|||||||15|Derived||FM15-METAR|223|ICAO-KFCH|||||||||||||||||||||||||||||||||||||||||||||||||||||||||||||||||||||||||1013.9||1|FM15-METAR|223|ICAO-KFCH|||||||||||||||||||||||||||||||||||||||||||MET064METAR KFCH 030015Z AUTO 32008G13KT 10SM CLR 37/06 A2994 RMK A01=||F||223|ICAO-KFCH
USW00023167|FRESNO CHANDLER DWTN AP|2021|08|03|00|35|36.7333|-119.8167|84.1|37.0||1|FM15-METAR|223|ICAO-KFCH|9.0||1|FM15-METAR|223|ICAO-KFCH|||||||||||||290|N-Normal|1|FM15-METAR|223|ICAO-KFCH|5.7|N-Normal|1|FM15-METAR|223|ICAO-KFCH|||||||||||||18|Derived||FM15-METAR|223|ICAO-KFCH|||||||||||||||||||||||||||||||||||||||||||||||||||||||||||||||||||||||||1013.9||1|FM15-METAR|223|ICAO-KFCH|||||||||||||||||||||||||||||||||||||||||||MET061METAR KFCH 030035Z AUTO 29011KT 10SM CLR 37/09 A2994 RMK A01=||F||223|ICAO-KFCH
USW00023167|FRESNO CHANDLER DWTN AP|2021|08|03|00|50|36.7333|-119.8167|84.1|37.0||1|FM15-METAR|223|ICAO-KFCH|8.0||1|FM15-METAR|223|ICAO-KFCH|||||||||||||320|N-Normal|1|FM15-METAR|223|ICAO-KFCH|4.1|N-Normal|1|FM15-METAR|223|ICAO-KFCH|7.7||1|FM15-METAR|223|ICAO-KFCH|||||||17|Derived||FM15-METAR|223|ICAO-KFCH|||||||||||||||||||||||||||||||||||||||||||||||||||||||||||||||||||||||||1013.9||1|FM15-METAR|223|ICAO-KFCH|||||||||||||||||||||||||||||||||||||||||||MET064METAR KFCH 030050Z AUTO 32008G15KT 10SM CLR 37/08 A2994 RMK A01=||F||223|ICAO-KFCH
USW00023167|FRESNO CHANDLER DWTN AP|2021|08|03|01|15|36.7333|-119.8167|84.1|36.0||1|FM15-METAR|223|ICAO-KFCH|8.0||1|FM15-METAR|223|ICAO-KFCH|||||||||||||300|N-Normal|1|FM15-METAR|223|ICAO-KFCH|5.1|N-Normal|1|FM15-METAR|223|ICAO-KFCH|||||||||||||18|Derived||FM15-METAR|223|ICAO-KFCH|||||||||||||||||||||||||||||||||||||||||||||||||||||||||||||||||||||||||1013.5||1|FM15-METAR|223|ICAO-KFCH|||||||||||||||||||||||||||||||||||||||||||MET061METAR KFCH 030115Z AUTO 30010KT 10SM CLR 36/08 A2993 RMK A01=||F||223|ICAO-KFCH
USW00023167|FRESNO CHANDLER DWTN AP|2021|08|03|01|35|36.7333|-119.8167|84.1|36.0||1|FM15-METAR|223|ICAO-KFCH|7.0||1|FM15-METAR|223|ICAO-KFCH|||||||||||||300|N-Normal|1|FM15-METAR|223|ICAO-KFCH|4.6|N-Normal|1|FM15-METAR|223|ICAO-KFCH|||||||||||||17|Derived||FM15-METAR|223|ICAO-KFCH|||||||||||||||||||||||||||||||||||||||||||||||||||||||||||||||||||||||||1013.5||1|FM15-METAR|223|ICAO-KFCH|||||||||||||||||||||||||||||||||||||||||||MET061METAR KFCH 030135Z AUTO 30009KT 10SM CLR 36/07 A2993 RMK A01=||F||223|ICAO-KFCH
USW00023167|FRESNO CHANDLER DWTN AP|2021|08|03|01|55|36.7333|-119.8167|84.1|36.0||1|FM15-METAR|223|ICAO-KFCH|8.0||1|FM15-METAR|223|ICAO-KFCH|||||||||||||300|N-Normal|1|FM15-METAR|223|ICAO-KFCH|5.7|N-Normal|1|FM15-METAR|223|ICAO-KFCH|||||||||||||18|Derived||FM15-METAR|223|ICAO-KFCH|||||||||||||||||||||||||||||||||||||||||||||||||||||||||||||||||||||||||1013.5||1|FM15-METAR|223|ICAO-KFCH|||||||||||||||||||||||||||||||||||||||||||MET061METAR KFCH 030155Z AUTO 30011KT 10SM CLR 36/08 A2993 RMK A01=||F||223|ICAO-KFCH
USW00023167|FRESNO CHANDLER DWTN AP|2021|08|03|02|15|36.7333|-119.8167|84.1|35.0||1|FM15-METAR|223|ICAO-KFCH|10.0||1|FM15-METAR|223|ICAO-KFCH|||||||||||||310|N-Normal|1|FM15-METAR|223|ICAO-KFCH|5.1|N-Normal|1|FM15-METAR|223|ICAO-KFCH|||||||||||||22|Derived||FM15-METAR|223|ICAO-KFCH|||||||||||||||||||||||||||||||||||||||||||||||||||||||||||||||||||||||||1013.5||1|FM15-METAR|223|ICAO-KFCH|||||||||||||||||||||||||||||||||||||||||||MET061METAR KFCH 030215Z AUTO 31010KT 10SM CLR 35/10 A2993 RMK A01=||F||223|ICAO-KFCH
USW00023167|FRESNO CHANDLER DWTN AP|2021|08|03|02|35|36.7333|-119.8167|84.1|34.0||1|FM15-METAR|223|ICAO-KFCH|11.0||1|FM15-METAR|223|ICAO-KFCH|||||||||||||300|N-Normal|1|FM15-METAR|223|ICAO-KFCH|6.2|N-Normal|1|FM15-METAR|223|ICAO-KFCH|||||||||||||24|Derived||FM15-METAR|223|ICAO-KFCH|||||||||||||||||||||||||||||||||||||||||||||||||||||||||||||||||||||||||1013.5||1|FM15-METAR|223|ICAO-KFCH|||||||||||||||||||||||||||||||||||||||||||MET061METAR KFCH 030235Z AUTO 30012KT 10SM CLR 34/11 A2993 RMK A01=||F||223|ICAO-KFCH
USW00023167|FRESNO CHANDLER DWTN AP|2021|08|03|02|55|36.7333|-119.8167|84.1|33.0||1|FM15-METAR|223|ICAO-KFCH|11.0||1|FM15-METAR|223|ICAO-KFCH|||||||||||||310|N-Normal|1|FM15-METAR|223|ICAO-KFCH|4.6|N-Normal|1|FM15-METAR|223|ICAO-KFCH|||||||||||||26|Derived||FM15-METAR|223|ICAO-KFCH|||||||||||||||||||||||||||||||||||||||||||||||||||||||||||||||||||||||||1013.9||1|FM15-METAR|223|ICAO-KFCH|||||||||||||||||||||||||||||||||||||||||||MET061METAR KFCH 030255Z AUTO 31009KT 10SM CLR 33/11 A2994 RMK A01=||F||223|ICAO-KFCH
USW00023167|FRESNO CHANDLER DWTN AP|2021|08|03|03|15|36.7333|-119.8167|84.1|32.0||1|FM15-METAR|223|ICAO-KFCH|11.0||1|FM15-METAR|223|ICAO-KFCH|||||||||||||300|N-Normal|1|FM15-METAR|223|ICAO-KFCH|4.1|N-Normal|1|FM15-METAR|223|ICAO-KFCH|||||||||||||27|Derived||FM15-METAR|223|ICAO-KFCH|||||||||||||||||||||||||||||||||||||||||||||||||||||||||||||||||||||||||1013.9||1|FM15-METAR|223|ICAO-KFCH|||||||||||||||||||||||||||||||||||||||||||MET061METAR KFCH 030315Z AUTO 30008KT 10SM CLR 32/11 A2994 RMK A01=||F||223|ICAO-KFCH
USW00023167|FRESNO CHANDLER DWTN AP|2021|08|03|03|35|36.7333|-119.8167|84.1|31.0||1|FM15-METAR|223|ICAO-KFCH|12.0||1|FM15-METAR|223|ICAO-KFCH|||||||||||||300|N-Normal|1|FM15-METAR|223|ICAO-KFCH|4.1|N-Normal|1|FM15-METAR|223|ICAO-KFCH|||||||||||||31|Derived||FM15-METAR|223|ICAO-KFCH|||||||||||||||||||||||||||||||||||||||||||||||||||||||||||||||||||||||||1013.9||1|FM15-METAR|223|ICAO-KFCH|||||||||||||||||||||||||||||||||||||||||||MET061METAR KFCH 030335Z AUTO 30008KT 10SM CLR 31/12 A2994 RMK A01=||F||223|ICAO-KFCH
USW00023167|FRESNO CHANDLER DWTN AP|2021|08|03|03|55|36.7333|-119.8167|84.1|31.0||1|FM15-METAR|223|ICAO-KFCH|13.0||1|FM15-METAR|223|ICAO-KFCH|||||||||||||300|N-Normal|1|FM15-METAR|223|ICAO-KFCH|5.1|N-Normal|1|FM15-METAR|223|ICAO-KFCH|||||||||||||33|Derived||FM15-METAR|223|ICAO-KFCH|||||||||||||||||||||||||||||||||||||||||||||||||||||||||||||||||||||||||1014.2||1|FM15-METAR|223|ICAO-KFCH|||||||||||||||||||||||||||||||||||||||||||MET061METAR KFCH 030355Z AUTO 30010KT 10SM CLR 31/13 A2995 RMK A01=||F||223|ICAO-KFCH
USW00023167|FRESNO CHANDLER DWTN AP|2021|08|03|04|10|36.7333|-119.8167|84.1|30.0||1|FM15-METAR|223|ICAO-KFCH|13.0||1|FM15-METAR|223|ICAO-KFCH|||||||||||||300|N-Normal|1|FM15-METAR|223|ICAO-KFCH|5.1|N-Normal|1|FM15-METAR|223|ICAO-KFCH|||||||||||||35|Derived||FM15-METAR|223|ICAO-KFCH|||||||||||||||||||||||||||||||||||||||||||||||||||||||||||||||||||||||||1014.2||1|FM15-METAR|223|ICAO-KFCH|||||||||||||||||||||||||||||||||||||||||||MET061METAR KFCH 030410Z AUTO 30010KT 10SM CLR 30/13 A2995 RMK A01=||F||223|ICAO-KFCH
USW00023167|FRESNO CHANDLER DWTN AP|2021|08|03|04|35|36.7333|-119.8167|84.1|29.0||1|FM15-METAR|223|ICAO-KFCH|13.0||1|FM15-METAR|223|ICAO-KFCH|||||||||||||300|N-Normal|1|FM15-METAR|223|ICAO-KFCH|4.6|N-Normal|1|FM15-METAR|223|ICAO-KFCH|||||||||||||37|Derived||FM15-METAR|223|ICAO-KFCH|||||||||||||||||||||||||||||||||||||||||||||||||||||||||||||||||||||||||1014.6||1|FM15-METAR|223|ICAO-KFCH|||||||||||||||||||||||||||||||||||||||||||MET061METAR KFCH 030435Z AUTO 30009KT 10SM CLR 29/13 A2996 RMK A01=||F||223|ICAO-KFCH
USW00023167|FRESNO CHANDLER DWTN AP|2021|08|03|04|55|36.7333|-119.8167|84.1|28.0||1|FM15-METAR|223|ICAO-KFCH|13.0||1|FM15-METAR|223|ICAO-KFCH|||||||||||||310|N-Normal|1|FM15-METAR|223|ICAO-KFCH|4.1|N-Normal|1|FM15-METAR|223|ICAO-KFCH|||||||||||||40|Derived||FM15-METAR|223|ICAO-KFCH|||||||||||||||||||||||||||||||||||||||||||||||||||||||||||||||||||||||||1014.9||1|FM15-METAR|223|ICAO-KFCH|||||||||||||||||||||||||||||||||||||||||||MET061METAR KFCH 030455Z AUTO 31008KT 10SM CLR 28/13 A2997 RMK A01=||F||223|ICAO-KFCH
USW00023167|FRESNO CHANDLER DWTN AP|2021|08|03|05|15|36.7333|-119.8167|84.1|28.0||1|FM15-METAR|223|ICAO-KFCH|12.0||1|FM15-METAR|223|ICAO-KFCH|||||||||||||310|N-Normal|1|FM15-METAR|223|ICAO-KFCH|4.6|N-Normal|1|FM15-METAR|223|ICAO-KFCH|||||||||||||37|Derived||FM15-METAR|223|ICAO-KFCH|||||||||||||||||||||||||||||||||||||||||||||||||||||||||||||||||||||||||1014.9||1|FM15-METAR|223|ICAO-KFCH|||||||||||||||||||||||||||||||||||||||||||MET061METAR KFCH 030515Z AUTO 31009KT 10SM CLR 28/12 A2997 RMK A01=||F||223|ICAO-KFCH
USW00023167|FRESNO CHANDLER DWTN AP|2021|08|03|05|35|36.7333|-119.8167|84.1|28.0||1|FM15-METAR|223|ICAO-KFCH|11.0||1|FM15-METAR|223|ICAO-KFCH|||||||||||||310|N-Normal|1|FM15-METAR|223|ICAO-KFCH|5.1|N-Normal|1|FM15-METAR|223|ICAO-KFCH|||||||||||||35|Derived||FM15-METAR|223|ICAO-KFCH|||||||||||||||||||||||||||||||||||||||||||||||||||||||||||||||||||||||||1014.9||1|FM15-METAR|223|ICAO-KFCH|||||||||||||||||||||||||||||||||||||||||||MET061METAR KFCH 030535Z AUTO 31010KT 10SM CLR 28/11 A2997 RMK A01=||F||223|ICAO-KFCH
USW00023167|FRESNO CHANDLER DWTN AP|2021|08|03|05|55|36.7333|-119.8167|84.1|27.0||1|FM15-METAR|223|ICAO-KFCH|11.0||1|FM15-METAR|223|ICAO-KFCH|||||||||||||300|N-Normal|1|FM15-METAR|223|ICAO-KFCH|4.6|N-Normal|1|FM15-METAR|223|ICAO-KFCH|||||||||||||37|Derived||FM15-METAR|223|ICAO-KFCH|||||||||||||||||||||||||||||||||||||||||||||||||||||||||||||||||||||||||1014.9||1|FM15-METAR|223|ICAO-KFCH|||||||||||||||||||||||||||||||||||||||||||MET061METAR KFCH 030555Z AUTO 30009KT 10SM CLR 27/11 A2997 RMK A01=||F||223|ICAO-KFCH
USW00023167|FRESNO CHANDLER DWTN AP|2021|08|03|06|15|36.7333|-119.8167|84.1|27.0||1|FM15-METAR|223|ICAO-KFCH|11.0||1|FM15-METAR|223|ICAO-KFCH|||||||||||||300|N-Normal|1|FM15-METAR|223|ICAO-KFCH|3.6|N-Normal|1|FM15-METAR|223|ICAO-KFCH|||||||||||||37|Derived||FM15-METAR|223|ICAO-KFCH|||||||||||||||||||||||||||||||||||||||||||||||||||||||||||||||||||||||||1014.9||1|FM15-METAR|223|ICAO-KFCH|||||||||||||||||||||||||||||||||||||||||||MET061METAR KFCH 030615Z AUTO 30007KT 10SM CLR 27/11 A2997 RMK A01=||F||223|ICAO-KFCH
USW00023167|FRESNO CHANDLER DWTN AP|2021|08|03|06|35|36.7333|-119.8167|84.1|26.0||1|FM15-METAR|223|ICAO-KFCH|11.0||1|FM15-METAR|223|ICAO-KFCH|||||||||||||310|N-Normal|1|FM15-METAR|223|ICAO-KFCH|3.6|N-Normal|1|FM15-METAR|223|ICAO-KFCH|||||||||||||39|Derived||FM15-METAR|223|ICAO-KFCH|||||||||||||||||||||||||||||||||||||||||||||||||||||||||||||||||||||||||1015.2||1|FM15-METAR|223|ICAO-KFCH|||||||||||||||||||||||||||||||||||||||||||MET061METAR KFCH 030635Z AUTO 31007KT 10SM CLR 26/11 A2998 RMK A01=||F||223|ICAO-KFCH
USW00023167|FRESNO CHANDLER DWTN AP|2021|08|03|06|55|36.7333|-119.8167|84.1|26.0||1|FM15-METAR|223|ICAO-KFCH|11.0||1|FM15-METAR|223|ICAO-KFCH|||||||||||||310|N-Normal|1|FM15-METAR|223|ICAO-KFCH|2.6|N-Normal|1|FM15-METAR|223|ICAO-KFCH|||||||||||||39|Derived||FM15-METAR|223|ICAO-KFCH|||||||||||||||||||||||||||||||||||||||||||||||||||||||||||||||||||||||||1015.2||1|FM15-METAR|223|ICAO-KFCH|||||||||||||||||||||||||||||||||||||||||||MET061METAR KFCH 030655Z AUTO 31005KT 10SM CLR 26/11 A2998 RMK A01=||F||223|ICAO-KFCH
USW00023167|FRESNO CHANDLER DWTN AP|2021|08|03|07|15|36.7333|-119.8167|84.1|25.0||1|FM15-METAR|223|ICAO-KFCH|11.0||1|FM15-METAR|223|ICAO-KFCH|||||||||||||310|N-Normal|1|FM15-METAR|223|ICAO-KFCH|3.1|N-Normal|1|FM15-METAR|223|ICAO-KFCH|||||||||||||42|Derived||FM15-METAR|223|ICAO-KFCH|||||||||||||||||||||||||||||||||||||||||||||||||||||||||||||||||||||||||1015.2||1|FM15-METAR|223|ICAO-KFCH|||||||||||||||||||||||||||||||||||||||||||MET061METAR KFCH 030715Z AUTO 31006KT 10SM CLR 25/11 A2998 RMK A01=||F||223|ICAO-KFCH
USW00023167|FRESNO CHANDLER DWTN AP|2021|08|03|07|35|36.7333|-119.8167|84.1|25.0||1|FM15-METAR|223|ICAO-KFCH|10.0||1|FM15-METAR|223|ICAO-KFCH|||||||||||||320|N-Normal|1|FM15-METAR|223|ICAO-KFCH|3.1|N-Normal|1|FM15-METAR|223|ICAO-KFCH|||||||||||||39|Derived||FM15-METAR|223|ICAO-KFCH|||||||||||||||||||||||||||||||||||||||||||||||||||||||||||||||||||||||||1015.2||1|FM15-METAR|223|ICAO-KFCH|||||||||||||||||||||||||||||||||||||||||||MET061METAR KFCH 030735Z AUTO 32006KT 10SM CLR 25/10 A2998 RMK A01=||F||223|ICAO-KFCH
USW00023167|FRESNO CHANDLER DWTN AP|2021|08|03|07|55|36.7333|-119.8167|84.1|25.0||1|FM15-METAR|223|ICAO-KFCH|10.0||1|FM15-METAR|223|ICAO-KFCH|||||||||||||320|N-Normal|1|FM15-METAR|223|ICAO-KFCH|2.6|N-Normal|1|FM15-METAR|223|ICAO-KFCH|||||||||||||39|Derived||FM15-METAR|223|ICAO-KFCH|||||||||||||||||||||||||||||||||||||||||||||||||||||||||||||||||||||||||1015.2||1|FM15-METAR|223|ICAO-KFCH|||||||||||||||||||||||||||||||||||||||||||MET061METAR KFCH 030755Z AUTO 32005KT 10SM CLR 25/10 A2998 RMK A01=||F||223|ICAO-KFCH
USW00023167|FRESNO CHANDLER DWTN AP|2021|08|03|08|15|36.7333|-119.8167|84.1|25.0||1|FM15-METAR|223|ICAO-KFCH|9.0||1|FM15-METAR|223|ICAO-KFCH|||||||||||||330|N-Normal|1|FM15-METAR|223|ICAO-KFCH|2.6|N-Normal|1|FM15-METAR|223|ICAO-KFCH|||||||||||||36|Derived||FM15-METAR|223|ICAO-KFCH|||||||||||||||||||||||||||||||||||||||||||||||||||||||||||||||||||||||||1014.9||1|FM15-METAR|223|ICAO-KFCH|||||||||||||||||||||||||||||||||||||||||||MET061METAR KFCH 030815Z AUTO 33005KT 10SM CLR 25/09 A2997 RMK A01=||F||223|ICAO-KFCH
USW00023167|FRESNO CHANDLER DWTN AP|2021|08|03|08|35|36.7333|-119.8167|84.1|25.0||1|FM15-METAR|223|ICAO-KFCH|8.0||1|FM15-METAR|223|ICAO-KFCH|||||||||||||330|N-Normal|1|FM15-METAR|223|ICAO-KFCH|3.6|N-Normal|1|FM15-METAR|223|ICAO-KFCH|||||||||||||34|Derived||FM15-METAR|223|ICAO-KFCH|||||||||||||||||||||||||||||||||||||||||||||||||||||||||||||||||||||||||1014.9||1|FM15-METAR|223|ICAO-KFCH|||||||||||||||||||||||||||||||||||||||||||MET061METAR KFCH 030835Z AUTO 33007KT 10SM CLR 25/08 A2997 RMK A01=||F||223|ICAO-KFCH
USW00023167|FRESNO CHANDLER DWTN AP|2021|08|03|08|55|36.7333|-119.8167|84.1|25.0||1|FM15-METAR|223|ICAO-KFCH|7.0||1|FM15-METAR|223|ICAO-KFCH|||||||||||||320|N-Normal|1|FM15-METAR|223|ICAO-KFCH|3.6|N-Normal|1|FM15-METAR|223|ICAO-KFCH|||||||||||||32|Derived||FM15-METAR|223|ICAO-KFCH|||||||||||||||||||||||||||||||||||||||||||||||||||||||||||||||||||||||||1014.9||1|FM15-METAR|223|ICAO-KFCH|||||||||||||||||||||||||||||||||||||||||||MET061METAR KFCH 030855Z AUTO 32007KT 10SM CLR 25/07 A2997 RMK A01=||F||223|ICAO-KFCH
USW00023167|FRESNO CHANDLER DWTN AP|2021|08|03|09|15|36.7333|-119.8167|84.1|25.0||1|FM15-METAR|223|ICAO-KFCH|7.0||1|FM15-METAR|223|ICAO-KFCH|||||||||||||330|N-Normal|1|FM15-METAR|223|ICAO-KFCH|3.1|N-Normal|1|FM15-METAR|223|ICAO-KFCH|||||||||||||32|Derived||FM15-METAR|223|ICAO-KFCH|||||||||||||||||||||||||||||||||||||||||||||||||||||||||||||||||||||||||1014.6||1|FM15-METAR|223|ICAO-KFCH|||||||||||||||||||||||||||||||||||||||||||MET061METAR KFCH 030915Z AUTO 33006KT 10SM CLR 25/07 A2996 RMK A01=||F||223|ICAO-KFCH
USW00023167|FRESNO CHANDLER DWTN AP|2021|08|03|09|35|36.7333|-119.8167|84.1|24.0||1|FM15-METAR|223|ICAO-KFCH|8.0||1|FM15-METAR|223|ICAO-KFCH|||||||||||||300|N-Normal|1|FM15-METAR|223|ICAO-KFCH|2.6|N-Normal|1|FM15-METAR|223|ICAO-KFCH|||||||||||||36|Derived||FM15-METAR|223|ICAO-KFCH|||||||||||||||||||||||||||||||||||||||||||||||||||||||||||||||||||||||||1014.6||1|FM15-METAR|223|ICAO-KFCH|||||||||||||||||||||||||||||||||||||||||||MET061METAR KFCH 030935Z AUTO 30005KT 10SM CLR 24/08 A2996 RMK A01=||F||223|ICAO-KFCH
USW00023167|FRESNO CHANDLER DWTN AP|2021|08|03|09|55|36.7333|-119.8167|84.1|23.0||1|FM15-METAR|223|ICAO-KFCH|9.0||1|FM15-METAR|223|ICAO-KFCH|||||||||||||310|N-Normal|1|FM15-METAR|223|ICAO-KFCH|2.6|N-Normal|1|FM15-METAR|223|ICAO-KFCH|||||||||||||41|Derived||FM15-METAR|223|ICAO-KFCH|||||||||||||||||||||||||||||||||||||||||||||||||||||||||||||||||||||||||1014.6||1|FM15-METAR|223|ICAO-KFCH|||||||||||||||||||||||||||||||||||||||||||MET061METAR KFCH 030955Z AUTO 31005KT 10SM CLR 23/09 A2996 RMK A01=||F||223|ICAO-KFCH
USW00023167|FRESNO CHANDLER DWTN AP|2021|08|03|10|15|36.7333|-119.8167|84.1|22.0||1|FM15-METAR|223|ICAO-KFCH|10.0||1|FM15-METAR|223|ICAO-KFCH|||||||||||||290|N-Normal|1|FM15-METAR|223|ICAO-KFCH|1.5|N-Normal|1|FM15-METAR|223|ICAO-KFCH|||||||||||||47|Derived||FM15-METAR|223|ICAO-KFCH|||||||||||||||||||||||||||||||||||||||||||||||||||||||||||||||||||||||||1014.6||1|FM15-METAR|223|ICAO-KFCH|||||||||||||||||||||||||||||||||||||||||||MET061METAR KFCH 031015Z AUTO 29003KT 10SM CLR 22/10 A2996 RMK A01=||F||223|ICAO-KFCH
USW00023167|FRESNO CHANDLER DWTN AP|2021|08|03|10|35|36.7333|-119.8167|84.1|22.0||1|FM15-METAR|223|ICAO-KFCH|9.0||1|FM15-METAR|223|ICAO-KFCH|||||||||||||320|N-Normal|1|FM15-METAR|223|ICAO-KFCH|3.1|N-Normal|1|FM15-METAR|223|ICAO-KFCH|||||||||||||44|Derived||FM15-METAR|223|ICAO-KFCH|||||||||||||||||||||||||||||||||||||||||||||||||||||||||||||||||||||||||1014.6||1|FM15-METAR|223|ICAO-KFCH|||||||||||||||||||||||||||||||||||||||||||MET061METAR KFCH 031035Z AUTO 32006KT 10SM CLR 22/09 A2996 RMK A01=||F||223|ICAO-KFCH
USW00023167|FRESNO CHANDLER DWTN AP|2021|08|03|10|55|36.7333|-119.8167|84.1|22.0||1|FM15-METAR|223|ICAO-KFCH|8.0||1|FM15-METAR|223|ICAO-KFCH|||||||||||||320|N-Normal|1|FM15-METAR|223|ICAO-KFCH|1.5|N-Normal|1|FM15-METAR|223|ICAO-KFCH|||||||||||||41|Derived||FM15-METAR|223|ICAO-KFCH|||||||||||||||||||||||||||||||||||||||||||||||||||||||||||||||||||||||||1014.6||1|FM15-METAR|223|ICAO-KFCH|||||||||||||||||||||||||||||||||||||||||||MET061METAR KFCH 031055Z AUTO 32003KT 10SM CLR 22/08 A2996 RMK A01=||F||223|ICAO-KFCH
USW00023167|FRESNO CHANDLER DWTN AP|2021|08|03|11|15|36.7333|-119.8167|84.1|22.0||1|FM15-METAR|223|ICAO-KFCH|10.0||1|FM15-METAR|223|ICAO-KFCH|||||||||||||290|N-Normal|1|FM15-METAR|223|ICAO-KFCH|2.1|N-Normal|1|FM15-METAR|223|ICAO-KFCH|||||||||||||47|Derived||FM15-METAR|223|ICAO-KFCH|||||||||||||||||||||||||||||||||||||||||||||||||||||||||||||||||||||||||1014.6||1|FM15-METAR|223|ICAO-KFCH|||||||||||||||||||||||||||||||||||||||||||MET061METAR KFCH 031115Z AUTO 29004KT 10SM CLR 22/10 A2996 RMK A01=||F||223|ICAO-KFCH
USW00023167|FRESNO CHANDLER DWTN AP|2021|08|03|11|35|36.7333|-119.8167|84.1|21.0||1|FM15-METAR|223|ICAO-KFCH|10.0||1|FM15-METAR|223|ICAO-KFCH|||||||||||||300|N-Normal|1|FM15-METAR|223|ICAO-KFCH|2.1|N-Normal|1|FM15-METAR|223|ICAO-KFCH|||||||||||||50|Derived||FM15-METAR|223|ICAO-KFCH|||||||||||||||||||||||||||||||||||||||||||||||||||||||||||||||||||||||||1014.6||1|FM15-METAR|223|ICAO-KFCH|||||||||||||||||||||||||||||||||||||||||||MET060METAR KFCH 031135Z AUTO 30004KT 9SM CLR 21/10 A2996 RMK A01=||F||223|ICAO-KFCH
USW00023167|FRESNO CHANDLER DWTN AP|2021|08|03|11|55|36.7333|-119.8167|84.1|21.0||1|FM15-METAR|223|ICAO-KFCH|10.0||1|FM15-METAR|223|ICAO-KFCH|||||||||||||999|C-Calm|9|FM15-METAR|223|ICAO-KFCH|0.0|C-Calm|1|FM15-METAR|223|ICAO-KFCH|||||||||||||50|Derived||FM15-METAR|223|ICAO-KFCH|||||||||||||||||||||||||||||||||||||||||||||||||||||||||||||||||||||||||1014.9||1|FM15-METAR|223|ICAO-KFCH|||||||||||||||||||||||||||||||||||||||||||MET061METAR KFCH 031155Z AUTO 00000KT 10SM CLR 21/10 A2997 RMK A01=||F||223|ICAO-KFCH
USW00023167|FRESNO CHANDLER DWTN AP|2021|08|03|12|15|36.7333|-119.8167|84.1|21.0||1|FM15-METAR|223|ICAO-KFCH|10.0||1|FM15-METAR|223|ICAO-KFCH|||||||||||||290|N-Normal|1|FM15-METAR|223|ICAO-KFCH|1.5|N-Normal|1|FM15-METAR|223|ICAO-KFCH|||||||||||||50|Derived||FM15-METAR|223|ICAO-KFCH|||||||||||||||||||||||||||||||||||||||||||||||||||||||||||||||||||||||||1015.2||1|FM15-METAR|223|ICAO-KFCH|||||||||||||||||||||||||||||||||||||||||||MET061METAR KFCH 031215Z AUTO 29003KT 10SM CLR 21/10 A2998 RMK A01=||F||223|ICAO-KFCH
USW00023167|FRESNO CHANDLER DWTN AP|2021|08|03|12|30|36.7333|-119.8167|84.1|20.0||1|FM15-METAR|223|ICAO-KFCH|10.0||1|FM15-METAR|223|ICAO-KFCH|||||||||||||270|N-Normal|1|FM15-METAR|223|ICAO-KFCH|2.1|N-Normal|1|FM15-METAR|223|ICAO-KFCH|||||||||||||53|Derived||FM15-METAR|223|ICAO-KFCH|||||||||||||||||||||||||||||||||||||||||||||||||||||||||||||||||||||||||1015.2||1|FM15-METAR|223|ICAO-KFCH|||||||||||||||||||||||||||||||||||||||||||MET061METAR KFCH 031230Z AUTO 27004KT 10SM CLR 20/10 A2998 RMK A01=||F||223|ICAO-KFCH
USW00023167|FRESNO CHANDLER DWTN AP|2021|08|03|12|55|36.7333|-119.8167|84.1|20.0||1|FM15-METAR|223|ICAO-KFCH|10.0||1|FM15-METAR|223|ICAO-KFCH|||||||||||||270|N-Normal|1|FM15-METAR|223|ICAO-KFCH|2.1|N-Normal|1|FM15-METAR|223|ICAO-KFCH|||||||||||||53|Derived||FM15-METAR|223|ICAO-KFCH|||||||||||||||||||||||||||||||||||||||||||||||||||||||||||||||||||||||||1015.6||1|FM15-METAR|223|ICAO-KFCH|||||||||||||||||||||||||||||||||||||||||||MET061METAR KFCH 031255Z AUTO 27004KT 10SM CLR 20/10 A2999 RMK A01=||F||223|ICAO-KFCH
USW00023167|FRESNO CHANDLER DWTN AP|2021|08|03|13|15|36.7333|-119.8167|84.1|19.0||1|FM15-METAR|223|ICAO-KFCH|11.0||1|FM15-METAR|223|ICAO-KFCH|||||||||||||260|N-Normal|1|FM15-METAR|223|ICAO-KFCH|3.1|N-Normal|1|FM15-METAR|223|ICAO-KFCH|||||||||||||60|Derived||FM15-METAR|223|ICAO-KFCH|||||||||||||||||||||||||||||||||||||||||||||||||||||||||||||||||||||||||1015.9||1|FM15-METAR|223|ICAO-KFCH|||||||||||||||||||||||||||||||||||||||||||MET060METAR KFCH 031315Z AUTO 26006KT 9SM CLR 19/11 A3000 RMK A01=||F||223|ICAO-KFCH
USW00023167|FRESNO CHANDLER DWTN AP|2021|08|03|13|35|36.7333|-119.8167|84.1|19.0||1|FM15-METAR|223|ICAO-KFCH|10.0||1|FM15-METAR|223|ICAO-KFCH|||||||||||||280|N-Normal|1|FM15-METAR|223|ICAO-KFCH|2.1|N-Normal|1|FM15-METAR|223|ICAO-KFCH|||||||||||||56|Derived||FM15-METAR|223|ICAO-KFCH|||||||||||||||||||||||||||||||||||||||||||||||||||||||||||||||||||||||||1015.9||1|FM15-METAR|223|ICAO-KFCH|||||||||||||||||||||||||||||||||||||||||||MET060METAR KFCH 031335Z AUTO 28004KT 9SM CLR 19/10 A3000 RMK A01=||F||223|ICAO-KFCH
USW00023167|FRESNO CHANDLER DWTN AP|2021|08|03|13|55|36.7333|-119.8167|84.1|20.0||1|FM15-METAR|223|ICAO-KFCH|10.0||1|FM15-METAR|223|ICAO-KFCH|||||||||||||310|N-Normal|1|FM15-METAR|223|ICAO-KFCH|2.1|N-Normal|1|FM15-METAR|223|ICAO-KFCH|||||||||||||53|Derived||FM15-METAR|223|ICAO-KFCH|||||||||||||||||||||||||||||||||||||||||||||||||||||||||||||||||||||||||1015.9||1|FM15-METAR|223|ICAO-KFCH|||||||||||||||||||||||||||||||||||||||||||MET060METAR KFCH 031355Z AUTO 31004KT 9SM CLR 20/10 A3000 RMK A01=||F||223|ICAO-KFCH
USW00023167|FRESNO CHANDLER DWTN AP|2021|08|03|14|15|36.7333|-119.8167|84.1|20.0||1|FM15-METAR|223|ICAO-KFCH|10.0||1|FM15-METAR|223|ICAO-KFCH|||||||||||||330|N-Normal|1|FM15-METAR|223|ICAO-KFCH|1.5|N-Normal|1|FM15-METAR|223|ICAO-KFCH|||||||||||||53|Derived||FM15-METAR|223|ICAO-KFCH|||||||||||||||||||||||||||||||||||||||||||||||||||||||||||||||||||||||||1015.9||1|FM15-METAR|223|ICAO-KFCH|||||||||||||||||||||||||||||||||||||||||||MET061METAR KFCH 031415Z AUTO 33003KT 10SM CLR 20/10 A3000 RMK A01=||F||223|ICAO-KFCH
USW00023167|FRESNO CHANDLER DWTN AP|2021|08|03|14|35|36.7333|-119.8167|84.1|21.0||1|FM15-METAR|223|ICAO-KFCH|9.0||1|FM15-METAR|223|ICAO-KFCH|||||||||||||290|N-Normal|1|FM15-METAR|223|ICAO-KFCH|2.1|N-Normal|1|FM15-METAR|223|ICAO-KFCH|||||||||||||46|Derived||FM15-METAR|223|ICAO-KFCH|||||||||||||||||||||||||||||||||||||||||||||||||||||||||||||||||||||||||1016.3||1|FM15-METAR|223|ICAO-KFCH|||||||||||||||||||||||||||||||||||||||||||MET061METAR KFCH 031435Z AUTO 29004KT 10SM CLR 21/09 A3001 RMK A01=||F||223|ICAO-KFCH
USW00023167|FRESNO CHANDLER DWTN AP|2021|08|03|14|55|36.7333|-119.8167|84.1|22.0||1|FM15-METAR|223|ICAO-KFCH|9.0||1|FM15-METAR|223|ICAO-KFCH|||||||||||||310|N-Normal|1|FM15-METAR|223|ICAO-KFCH|2.1|N-Normal|1|FM15-METAR|223|ICAO-KFCH|||||||||||||44|Derived||FM15-METAR|223|ICAO-KFCH|||||||||||||||||||||||||||||||||||||||||||||||||||||||||||||||||||||||||1016.3||1|FM15-METAR|223|ICAO-KFCH|||||||||||||||||||||||||||||||||||||||||||MET060METAR KFCH 031455Z AUTO 31004KT 9SM CLR 22/09 A3001 RMK A01=||F||223|ICAO-KFCH
USW00023167|FRESNO CHANDLER DWTN AP|2021|08|03|15|15|36.7333|-119.8167|84.1|22.0||1|FM15-METAR|223|ICAO-KFCH|9.0||1|FM15-METAR|223|ICAO-KFCH|||||||||||||300|N-Normal|1|FM15-METAR|223|ICAO-KFCH|2.1|N-Normal|1|FM15-METAR|223|ICAO-KFCH|||||||||||||44|Derived||FM15-METAR|223|ICAO-KFCH|||||||||||||||||||||||||||||||||||||||||||||||||||||||||||||||||||||||||1016.3||1|FM15-METAR|223|ICAO-KFCH|||||||||||||||||||||||||||||||||||||||||||MET060METAR KFCH 031515Z AUTO 30004KT 9SM CLR 22/09 A3001 RMK A01=||F||223|ICAO-KFCH
USW00023167|FRESNO CHANDLER DWTN AP|2021|08|03|15|35|36.7333|-119.8167|84.1|24.0||1|FM15-METAR|223|ICAO-KFCH|9.0||1|FM15-METAR|223|ICAO-KFCH|||||||||||||300|N-Normal|1|FM15-METAR|223|ICAO-KFCH|2.6|N-Normal|1|FM15-METAR|223|ICAO-KFCH|||||||||||||39|Derived||FM15-METAR|223|ICAO-KFCH|||||||||||||||||||||||||||||||||||||||||||||||||||||||||||||||||||||||||1016.3||1|FM15-METAR|223|ICAO-KFCH|||||||||||||||||||||||||||||||||||||||||||MET060METAR KFCH 031535Z AUTO 30005KT 9SM CLR 24/09 A3001 RMK A01=||F||223|ICAO-KFCH
USW00023167|FRESNO CHANDLER DWTN AP|2021|08|03|15|55|36.7333|-119.8167|84.1|24.0||1|FM15-METAR|223|ICAO-KFCH|9.0||1|FM15-METAR|223|ICAO-KFCH|||||||||||||280|N-Normal|1|FM15-METAR|223|ICAO-KFCH|2.6|N-Normal|1|FM15-METAR|223|ICAO-KFCH|||||||||||||39|Derived||FM15-METAR|223|ICAO-KFCH|||||||||||||||||||||||||||||||||||||||||||||||||||||||||||||||||||||||||1016.3||1|FM15-METAR|223|ICAO-KFCH|||||||||||||||||||||||||||||||||||||||||||MET060METAR KFCH 031555Z AUTO 28005KT 9SM CLR 24/09 A3001 RMK A01=||F||223|ICAO-KFCH
USW00023167|FRESNO CHANDLER DWTN AP|2021|08|03|16|15|36.7333|-119.8167|84.1|25.0||1|FM15-METAR|223|ICAO-KFCH|9.0||1|FM15-METAR|223|ICAO-KFCH|||||||||||||999|V-Variable|9|FM15-METAR|223|ICAO-KFCH|1.5|V-Variable|1|FM15-METAR|223|ICAO-KFCH|||||||||||||36|Derived||FM15-METAR|223|ICAO-KFCH|||||||||||||||||||||||||||||||||||||||||||||||||||||||||||||||||||||||||1016.3||1|FM15-METAR|223|ICAO-KFCH|||||||||||||||||||||||||||||||||||||||||||MET060METAR KFCH 031615Z AUTO VRB03KT 9SM CLR 25/09 A3001 RMK A01=||F||223|ICAO-KFCH
USW00023167|FRESNO CHANDLER DWTN AP|2021|08|03|16|35|36.7333|-119.8167|84.1|26.0||1|FM15-METAR|223|ICAO-KFCH|8.0||1|FM15-METAR|223|ICAO-KFCH|||||||||||||999|C-Calm|9|FM15-METAR|223|ICAO-KFCH|0.0|C-Calm|1|FM15-METAR|223|ICAO-KFCH|||||||||||||32|Derived||FM15-METAR|223|ICAO-KFCH|||||||||||||||||||||||||||||||||||||||||||||||||||||||||||||||||||||||||1015.9||1|FM15-METAR|223|ICAO-KFCH|||||||||||||||||||||||||||||||||||||||||||MET061METAR KFCH 031635Z AUTO 00000KT 10SM CLR 26/08 A3000 RMK A01=||F||223|ICAO-KFCH
USW00023167|FRESNO CHANDLER DWTN AP|2021|08|03|16|55|36.7333|-119.8167|84.1|27.0||1|FM15-METAR|223|ICAO-KFCH|9.0||1|FM15-METAR|223|ICAO-KFCH|||||||||||||999|C-Calm|9|FM15-METAR|223|ICAO-KFCH|0.0|C-Calm|1|FM15-METAR|223|ICAO-KFCH|||||||||||||32|Derived||FM15-METAR|223|ICAO-KFCH|||||||||||||||||||||||||||||||||||||||||||||||||||||||||||||||||||||||||1015.9||1|FM15-METAR|223|ICAO-KFCH|||||||||||||||||||||||||||||||||||||||||||MET061METAR KFCH 031655Z AUTO 00000KT 10SM CLR 27/09 A3000 RMK A01=||F||223|ICAO-KFCH
USW00023167|FRESNO CHANDLER DWTN AP|2021|08|03|17|15|36.7333|-119.8167|84.1|28.0||1|FM15-METAR|223|ICAO-KFCH|9.0||1|FM15-METAR|223|ICAO-KFCH|||||||||||||999|C-Calm|9|FM15-METAR|223|ICAO-KFCH|0.0|C-Calm|1|FM15-METAR|223|ICAO-KFCH|||||||||||||30|Derived||FM15-METAR|223|ICAO-KFCH|||||||||||||||||||||||||||||||||||||||||||||||||||||||||||||||||||||||||1015.9||1|FM15-METAR|223|ICAO-KFCH|||||||||||||||||||||||||||||||||||||||||||MET060METAR KFCH 031715Z AUTO 00000KT 9SM CLR 28/09 A3000 RMK A01=||F||223|ICAO-KFCH
USW00023167|FRESNO CHANDLER DWTN AP|2021|08|03|17|35|36.7333|-119.8167|84.1|29.0||1|FM15-METAR|223|ICAO-KFCH|9.0||1|FM15-METAR|223|ICAO-KFCH|||||||||||||999|V-Variable|9|FM15-METAR|223|ICAO-KFCH|2.1|V-Variable|1|FM15-METAR|223|ICAO-KFCH|||||||||||||29|Derived||FM15-METAR|223|ICAO-KFCH|||||||||||||||||||||||||||||||||||||||||||||||||||||||||||||||||||||||||1015.6||1|FM15-METAR|223|ICAO-KFCH|||||||||||||||||||||||||||||||||||||||||||MET061METAR KFCH 031735Z AUTO VRB04KT 10SM CLR 29/09 A2999 RMK A01=||F||223|ICAO-KFCH
USW00023167|FRESNO CHANDLER DWTN AP|2021|08|03|17|55|36.7333|-119.8167|84.1|31.0||1|FM15-METAR|223|ICAO-KFCH|9.0||1|FM15-METAR|223|ICAO-KFCH|||||||||||||300|N-Normal|1|FM15-METAR|223|ICAO-KFCH|2.1|N-Normal|1|FM15-METAR|223|ICAO-KFCH|||||||||||||25|Derived||FM15-METAR|223|ICAO-KFCH|||||||||||||||||||||||||||||||||||||||||||||||||||||||||||||||||||||||||1015.6||1|FM15-METAR|223|ICAO-KFCH|||||||||||||||||||||||||||||||||||||||||||MET061METAR KFCH 031755Z AUTO 30004KT 10SM CLR 31/09 A2999 RMK A01=||F||223|ICAO-KFCH
USW00023167|FRESNO CHANDLER DWTN AP|2021|08|03|18|15|36.7333|-119.8167|84.1|31.0||1|FM15-METAR|223|ICAO-KFCH|9.0||1|FM15-METAR|223|ICAO-KFCH|||||||||||||999|V-Variable|9|FM15-METAR|223|ICAO-KFCH|2.6|V-Variable|1|FM15-METAR|223|ICAO-KFCH|||||||||||||25|Derived||FM15-METAR|223|ICAO-KFCH|||||||||||||||||||||||||||||||||||||||||||||||||||||||||||||||||||||||||1015.2||1|FM15-METAR|223|ICAO-KFCH|||||||||||||||||||||||||||||||||||||||||||MET061METAR KFCH 031815Z AUTO VRB05KT 10SM CLR 31/09 A2998 RMK A01=||F||223|ICAO-KFCH
USW00023167|FRESNO CHANDLER DWTN AP|2021|08|03|18|35|36.7333|-119.8167|84.1|32.0||1|FM15-METAR|223|ICAO-KFCH|9.0||1|FM15-METAR|223|ICAO-KFCH|||||||||||||999|V-Variable|9|FM15-METAR|223|ICAO-KFCH|3.1|V-Variable|1|FM15-METAR|223|ICAO-KFCH|||||||||||||24|Derived||FM15-METAR|223|ICAO-KFCH|||||||||||||||||||||||||||||||||||||||||||||||||||||||||||||||||||||||||1015.2||1|FM15-METAR|223|ICAO-KFCH|||||||||||||||||||||||||||||||||||||||||||MET061METAR KFCH 031835Z AUTO VRB06KT 10SM CLR 32/09 A2998 RMK A01=||F||223|ICAO-KFCH
USW00023167|FRESNO CHANDLER DWTN AP|2021|08|03|18|55|36.7333|-119.8167|84.1|32.0||1|FM15-METAR|223|ICAO-KFCH|8.0||1|FM15-METAR|223|ICAO-KFCH|||||||||||||999|V-Variable|9|FM15-METAR|223|ICAO-KFCH|2.1|V-Variable|1|FM15-METAR|223|ICAO-KFCH|||||||||||||22|Derived||FM15-METAR|223|ICAO-KFCH|||||||||||||||||||||||||||||||||||||||||||||||||||||||||||||||||||||||||1014.9||1|FM15-METAR|223|ICAO-KFCH|||||||||||||||||||||||||||||||||||||||||||MET061METAR KFCH 031855Z AUTO VRB04KT 10SM CLR 32/08 A2997 RMK A01=||F||223|ICAO-KFCH
USW00023167|FRESNO CHANDLER DWTN AP|2021|08|03|19|15|36.7333|-119.8167|84.1|33.0||1|FM15-METAR|223|ICAO-KFCH|7.0||1|FM15-METAR|223|ICAO-KFCH|||||||||||||280|V-Variable|1|FM15-METAR|223|ICAO-KFCH|3.6|V-Variable|1|FM15-METAR|223|ICAO-KFCH|||||||||||||20|Derived||FM15-METAR|223|ICAO-KFCH|||||||||||||||||||||||||||||||||||||||||||||||||||||||||||||||||||||||||1014.9||1|FM15-METAR|223|ICAO-KFCH|||||||||||||||||||||||||||||||||||||||||||MET068METAR KFCH 031915Z AUTO 28007KT 240V310 9SM CLR 33/07 A2997 RMK A01=||F||223|ICAO-KFCH
USW00023167|FRESNO CHANDLER DWTN AP|2021|08|03|19|35|36.7333|-119.8167|84.1|34.0||1|FM15-METAR|223|ICAO-KFCH|6.0||1|FM15-METAR|223|ICAO-KFCH|||||||||||||320|N-Normal|1|FM15-METAR|223|ICAO-KFCH|3.1|N-Normal|1|FM15-METAR|223|ICAO-KFCH|6.2||1|FM15-METAR|223|ICAO-KFCH|||||||17|Derived||FM15-METAR|223|ICAO-KFCH|||||||||||||||||||||||||||||||||||||||||||||||||||||||||||||||||||||||||1014.6||1|FM15-METAR|223|ICAO-KFCH|||||||||||||||||||||||||||||||||||||||||||MET064METAR KFCH 031935Z AUTO 32006G12KT 10SM CLR 34/06 A2996 RMK A01=||F||223|ICAO-KFCH
USW00023167|FRESNO CHANDLER DWTN AP|2021|08|03|19|55|36.7333|-119.8167|84.1|34.0||1|FM15-METAR|223|ICAO-KFCH|7.0||1|FM15-METAR|223|ICAO-KFCH|||||||||||||300|N-Normal|1|FM15-METAR|223|ICAO-KFCH|2.6|N-Normal|1|FM15-METAR|223|ICAO-KFCH|||||||||||||19|Derived||FM15-METAR|223|ICAO-KFCH|||||||||||||||||||||||||||||||||||||||||||||||||||||||||||||||||||||||||1014.2||1|FM15-METAR|223|ICAO-KFCH|||||||||||||||||||||||||||||||||||||||||||MET061METAR KFCH 031955Z AUTO 30005KT 10SM CLR 34/07 A2995 RMK A01=||F||223|ICAO-KFCH
USW00023167|FRESNO CHANDLER DWTN AP|2021|08|03|20|15|36.7333|-119.8167|84.1|35.0||1|FM15-METAR|223|ICAO-KFCH|8.0||1|FM15-METAR|223|ICAO-KFCH|||||||||||||300|V-Variable|1|FM15-METAR|223|ICAO-KFCH|3.6|V-Variable|1|FM15-METAR|223|ICAO-KFCH|||||||||||||19|Derived||FM15-METAR|223|ICAO-KFCH|||||||||||||||||||||||||||||||||||||||||||||||||||||||||||||||||||||||||1014.2||1|FM15-METAR|223|ICAO-KFCH|||||||||||||||||||||||||||||||||||||||||||MET069METAR KFCH 032015Z AUTO 30007KT 240V340 10SM CLR 35/08 A2995 RMK A01=||F||223|ICAO-KFCH
USW00023167|FRESNO CHANDLER DWTN AP|2021|08|03|20|35|36.7333|-119.8167|84.1|35.0||1|FM15-METAR|223|ICAO-KFCH|8.0||1|FM15-METAR|223|ICAO-KFCH|||||||||||||999|V-Variable|9|FM15-METAR|223|ICAO-KFCH|2.1|V-Variable|1|FM15-METAR|223|ICAO-KFCH|5.7||1|FM15-METAR|223|ICAO-KFCH|||||||19|Derived||FM15-METAR|223|ICAO-KFCH|||||||||||||||||||||||||||||||||||||||||||||||||||||||||||||||||||||||||1013.9||1|FM15-METAR|223|ICAO-KFCH|||||||||||||||||||||||||||||||||||||||||||MET064METAR KFCH 032035Z AUTO VRB04G11KT 10SM CLR 35/08 A2994 RMK A01=||F||223|ICAO-KFCH
USW00023167|FRESNO CHANDLER DWTN AP|2021|08|03|20|55|36.7333|-119.8167|84.1|35.0||1|FM15-METAR|223|ICAO-KFCH|8.0||1|FM15-METAR|223|ICAO-KFCH|||||||||||||300|N-Normal|1|FM15-METAR|223|ICAO-KFCH|3.6|N-Normal|1|FM15-METAR|223|ICAO-KFCH|||||||||||||19|Derived||FM15-METAR|223|ICAO-KFCH|||||||||||||||||||||||||||||||||||||||||||||||||||||||||||||||||||||||||1013.5||1|FM15-METAR|223|ICAO-KFCH|||||||||||||||||||||||||||||||||||||||||||MET061METAR KFCH 032055Z AUTO 30007KT 10SM CLR 35/08 A2993 RMK A01=||F||223|ICAO-KFCH
USW00023167|FRESNO CHANDLER DWTN AP|2021|08|03|21|15|36.7333|-119.8167|84.1|36.0||1|FM15-METAR|223|ICAO-KFCH|8.0||1|FM15-METAR|223|ICAO-KFCH|||||||||||||320|V-Variable|1|FM15-METAR|223|ICAO-KFCH|3.6|V-Variable|1|FM15-METAR|223|ICAO-KFCH|||||||||||||18|Derived||FM15-METAR|223|ICAO-KFCH|||||||||||||||||||||||||||||||||||||||||||||||||||||||||||||||||||||||||1013.2||1|FM15-METAR|223|ICAO-KFCH|||||||||||||||||||||||||||||||||||||||||||MET069METAR KFCH 032115Z AUTO 32007KT 290V360 10SM CLR 36/08 A2992 RMK A01=||F||223|ICAO-KFCH
USW00023167|FRESNO CHANDLER DWTN AP|2021|08|03|21|30|36.7333|-119.8167|84.1|37.0||1|FM15-METAR|223|ICAO-KFCH|8.0||1|FM15-METAR|223|ICAO-KFCH|||||||||||||310|N-Normal|1|FM15-METAR|223|ICAO-KFCH|3.1|N-Normal|1|FM15-METAR|223|ICAO-KFCH|6.7||1|FM15-METAR|223|ICAO-KFCH|||||||17|Derived||FM15-METAR|223|ICAO-KFCH|||||||||||||||||||||||||||||||||||||||||||||||||||||||||||||||||||||||||1013.2||1|FM15-METAR|223|ICAO-KFCH|||||||||||||||||||||||||||||||||||||||||||MET064METAR KFCH 032130Z AUTO 31006G13KT 10SM CLR 37/08 A2992 RMK A01=||F||223|ICAO-KFCH
USW00023167|FRESNO CHANDLER DWTN AP|2021|08|03|21|55|36.7333|-119.8167|84.1|38.0||1|FM15-METAR|223|ICAO-KFCH|6.0||1|FM15-METAR|223|ICAO-KFCH|||||||||||||310|N-Normal|1|FM15-METAR|223|ICAO-KFCH|5.1|N-Normal|1|FM15-METAR|223|ICAO-KFCH|||||||||||||14|Derived||FM15-METAR|223|ICAO-KFCH|||||||||||||||||||||||||||||||||||||||||||||||||||||||||||||||||||||||||1012.9||1|FM15-METAR|223|ICAO-KFCH|||||||||||||||||||||||||||||||||||||||||||MET061METAR KFCH 032155Z AUTO 31010KT 10SM CLR 38/06 A2991 RMK A01=||F||223|ICAO-KFCH
USW00023167|FRESNO CHANDLER DWTN AP|2021|08|03|22|15|36.7333|-119.8167|84.1|38.0||1|FM15-METAR|223|ICAO-KFCH|6.0||1|FM15-METAR|223|ICAO-KFCH|||||||||||||320|N-Normal|1|FM15-METAR|223|ICAO-KFCH|4.1|N-Normal|1|FM15-METAR|223|ICAO-KFCH|||||||||||||14|Derived||FM15-METAR|223|ICAO-KFCH|||||||||||||||||||||||||||||||||||||||||||||||||||||||||||||||||||||||||1012.5||1|FM15-METAR|223|ICAO-KFCH|||||||||||||||||||||||||||||||||||||||||||MET060METAR KFCH 032215Z AUTO 32008KT 9SM CLR 38/06 A2990 RMK A01=||F||223|ICAO-KFCH
USW00023167|FRESNO CHANDLER DWTN AP|2021|08|03|22|35|36.7333|-119.8167|84.1|38.0||1|FM15-METAR|223|ICAO-KFCH|6.0||1|FM15-METAR|223|ICAO-KFCH|||||||||||||310|N-Normal|1|FM15-METAR|223|ICAO-KFCH|5.1|N-Normal|1|FM15-METAR|223|ICAO-KFCH|||||||||||||14|Derived||FM15-METAR|223|ICAO-KFCH|||||||||||||||||||||||||||||||||||||||||||||||||||||||||||||||||||||||||1012.2||1|FM15-METAR|223|ICAO-KFCH|||||||||||||||||||||||||||||||||||||||||||MET061METAR KFCH 032235Z AUTO 31010KT 10SM CLR 38/06 A2989 RMK A01=||F||223|ICAO-KFCH
USW00023167|FRESNO CHANDLER DWTN AP|2021|08|03|22|50|36.7333|-119.8167|84.1|39.0||1|FM15-METAR|223|ICAO-KFCH|5.0||1|FM15-METAR|223|ICAO-KFCH|||||||||||||310|N-Normal|1|FM15-METAR|223|ICAO-KFCH|4.1|N-Normal|1|FM15-METAR|223|ICAO-KFCH|||||||||||||12|Derived||FM15-METAR|223|ICAO-KFCH|||||||||||||||||||||||||||||||||||||||||||||||||||||||||||||||||||||||||1011.8||1|FM15-METAR|223|ICAO-KFCH|||||||||||||||||||||||||||||||||||||||||||MET061METAR KFCH 032250Z AUTO 31008KT 10SM CLR 39/05 A2988 RMK A01=||F||223|ICAO-KFCH
USW00023167|FRESNO CHANDLER DWTN AP|2021|08|03|23|10|36.7333|-119.8167|84.1|38.0||1|FM15-METAR|223|ICAO-KFCH|4.0||1|FM15-METAR|223|ICAO-KFCH|||||||||||||340|N-Normal|1|FM15-METAR|223|ICAO-KFCH|4.6|N-Normal|1|FM15-METAR|223|ICAO-KFCH|7.2||1|FM15-METAR|223|ICAO-KFCH|||||||12|Derived||FM15-METAR|223|ICAO-KFCH|||||||||||||||||||||||||||||||||||||||||||||||||||||||||||||||||||||||||1011.8||1|FM15-METAR|223|ICAO-KFCH|||||||||||||||||||||||||||||||||||||||||||MET064METAR KFCH 032310Z AUTO 34009G14KT 10SM CLR 38/04 A2988 RMK A01=||F||223|ICAO-KFCH
USW00023167|FRESNO CHANDLER DWTN AP|2021|08|03|23|35|36.7333|-119.8167|84.1|39.0||1|FM15-METAR|223|ICAO-KFCH|5.0||1|FM15-METAR|223|ICAO-KFCH|||||||||||||290|N-Normal|1|FM15-METAR|223|ICAO-KFCH|5.1|N-Normal|1|FM15-METAR|223|ICAO-KFCH|||||||||||||12|Derived||FM15-METAR|223|ICAO-KFCH|||||||||||||||||||||||||||||||||||||||||||||||||||||||||||||||||||||||||1011.5||1|FM15-METAR|223|ICAO-KFCH|||||||||||||||||||||||||||||||||||||||||||MET061METAR KFCH 032335Z AUTO 29010KT 10SM CLR 39/05 A2987 RMK A01=||F||223|ICAO-KFCH
USW00023167|FRESNO CHANDLER DWTN AP|2021|08|03|23|50|36.7333|-119.8167|84.1|39.0||1|FM15-METAR|223|ICAO-KFCH|5.0||1|FM15-METAR|223|ICAO-KFCH|||||||||||||300|N-Normal|1|FM15-METAR|223|ICAO-KFCH|4.6|N-Normal|1|FM15-METAR|223|ICAO-KFCH|||||||||||||12|Derived||FM15-METAR|223|ICAO-KFCH|||||||||||||||||||||||||||||||||||||||||||||||||||||||||||||||||||||||||1011.2||1|FM15-METAR|223|ICAO-KFCH|||||||||||||||||||||||||||||||||||||||||||MET061METAR KFCH 032350Z AUTO 30009KT 10SM CLR 39/05 A2986 RMK A01=||F||223|ICAO-KFCH
USW00023167|FRESNO CHANDLER DWTN AP|2021|08|04|00|15|36.7333|-119.8167|84.1|39.0||1|FM15-METAR|223|ICAO-KFCH|5.0||1|FM15-METAR|223|ICAO-KFCH|||||||||||||300|N-Normal|1|FM15-METAR|223|ICAO-KFCH|6.2|N-Normal|1|FM15-METAR|223|ICAO-KFCH|||||||||||||12|Derived||FM15-METAR|223|ICAO-KFCH|||||||||||||||||||||||||||||||||||||||||||||||||||||||||||||||||||||||||1010.8||1|FM15-METAR|223|ICAO-KFCH|||||||||||||||||||||||||||||||||||||||||||MET061METAR KFCH 040015Z AUTO 30012KT 10SM CLR 39/05 A2985 RMK A01=||F||223|ICAO-KFCH
USW00023167|FRESNO CHANDLER DWTN AP|2021|08|04|00|35|36.7333|-119.8167|84.1|39.0||1|FM15-METAR|223|ICAO-KFCH|5.0||1|FM15-METAR|223|ICAO-KFCH|||||||||||||310|N-Normal|1|FM15-METAR|223|ICAO-KFCH|5.1|N-Normal|1|FM15-METAR|223|ICAO-KFCH|||||||||||||12|Derived||FM15-METAR|223|ICAO-KFCH|||||||||||||||||||||||||||||||||||||||||||||||||||||||||||||||||||||||||1010.8||1|FM15-METAR|223|ICAO-KFCH|||||||||||||||||||||||||||||||||||||||||||MET061METAR KFCH 040035Z AUTO 31010KT 10SM CLR 39/05 A2985 RMK A01=||F||223|ICAO-KFCH
USW00023167|FRESNO CHANDLER DWTN AP|2021|08|04|00|55|36.7333|-119.8167|84.1|39.0||1|FM15-METAR|223|ICAO-KFCH|4.0||1|FM15-METAR|223|ICAO-KFCH|||||||||||||290|N-Normal|1|FM15-METAR|223|ICAO-KFCH|4.1|N-Normal|1|FM15-METAR|223|ICAO-KFCH|||||||||||||11|Derived||FM15-METAR|223|ICAO-KFCH|||||||||||||||||||||||||||||||||||||||||||||||||||||||||||||||||||||||||1010.8||1|FM15-METAR|223|ICAO-KFCH|||||||||||||||||||||||||||||||||||||||||||MET061METAR KFCH 040055Z AUTO 29008KT 10SM CLR 39/04 A2985 RMK A01=||F||223|ICAO-KFCH
USW00023167|FRESNO CHANDLER DWTN AP|2021|08|04|01|15|36.7333|-119.8167|84.1|38.0||1|FM15-METAR|223|ICAO-KFCH|6.0||1|FM15-METAR|223|ICAO-KFCH|||||||||||||290|N-Normal|1|FM15-METAR|223|ICAO-KFCH|5.1|N-Normal|1|FM15-METAR|223|ICAO-KFCH|||||||||||||14|Derived||FM15-METAR|223|ICAO-KFCH|||||||||||||||||||||||||||||||||||||||||||||||||||||||||||||||||||||||||1010.5||1|FM15-METAR|223|ICAO-KFCH|||||||||||||||||||||||||||||||||||||||||||MET061METAR KFCH 040115Z AUTO 29010KT 10SM CLR 38/06 A2984 RMK A01=||F||223|ICAO-KFCH
USW00023167|FRESNO CHANDLER DWTN AP|2021|08|04|01|35|36.7333|-119.8167|84.1|38.0||1|FM15-METAR|223|ICAO-KFCH|7.0||1|FM15-METAR|223|ICAO-KFCH|||||||||||||300|N-Normal|1|FM15-METAR|223|ICAO-KFCH|6.2|N-Normal|1|FM15-METAR|223|ICAO-KFCH|||||||||||||15|Derived||FM15-METAR|223|ICAO-KFCH|||||||||||||||||||||||||||||||||||||||||||||||||||||||||||||||||||||||||1010.2||1|FM15-METAR|223|ICAO-KFCH|||||||||||||||||||||||||||||||||||||||||||MET061METAR KFCH 040135Z AUTO 30012KT 10SM CLR 38/07 A2983 RMK A01=||F||223|ICAO-KFCH
USW00023167|FRESNO CHANDLER DWTN AP|2021|08|04|01|55|36.7333|-119.8167|84.1|38.0||1|FM15-METAR|223|ICAO-KFCH|7.0||1|FM15-METAR|223|ICAO-KFCH|||||||||||||300|N-Normal|1|FM15-METAR|223|ICAO-KFCH|5.7|N-Normal|1|FM15-METAR|223|ICAO-KFCH|||||||||||||15|Derived||FM15-METAR|223|ICAO-KFCH|||||||||||||||||||||||||||||||||||||||||||||||||||||||||||||||||||||||||1010.5||1|FM15-METAR|223|ICAO-KFCH|||||||||||||||||||||||||||||||||||||||||||MET061METAR KFCH 040155Z AUTO 30011KT 10SM CLR 38/07 A2984 RMK A01=||F||223|ICAO-KFCH
USW00023167|FRESNO CHANDLER DWTN AP|2021|08|04|02|15|36.7333|-119.8167|84.1|37.0||1|FM15-METAR|223|ICAO-KFCH|7.0||1|FM15-METAR|223|ICAO-KFCH|||||||||||||310|N-Normal|1|FM15-METAR|223|ICAO-KFCH|5.1|N-Normal|1|FM15-METAR|223|ICAO-KFCH|||||||||||||16|Derived||FM15-METAR|223|ICAO-KFCH|||||||||||||||||||||||||||||||||||||||||||||||||||||||||||||||||||||||||1010.5||1|FM15-METAR|223|ICAO-KFCH|||||||||||||||||||||||||||||||||||||||||||MET061METAR KFCH 040215Z AUTO 31010KT 10SM CLR 37/07 A2984 RMK A01=||F||223|ICAO-KFCH
USW00023167|FRESNO CHANDLER DWTN AP|2021|08|04|02|35|36.7333|-119.8167|84.1|36.0||1|FM15-METAR|223|ICAO-KFCH|9.0||1|FM15-METAR|223|ICAO-KFCH|||||||||||||300|N-Normal|1|FM15-METAR|223|ICAO-KFCH|5.1|N-Normal|1|FM15-METAR|223|ICAO-KFCH|||||||||||||19|Derived||FM15-METAR|223|ICAO-KFCH|||||||||||||||||||||||||||||||||||||||||||||||||||||||||||||||||||||||||1010.5||1|FM15-METAR|223|ICAO-KFCH|||||||||||||||||||||||||||||||||||||||||||MET061METAR KFCH 040235Z AUTO 30010KT 10SM CLR 36/09 A2984 RMK A01=||F||223|ICAO-KFCH
USW00023167|FRESNO CHANDLER DWTN AP|2021|08|04|02|55|36.7333|-119.8167|84.1|35.0||1|FM15-METAR|223|ICAO-KFCH|10.0||1|FM15-METAR|223|ICAO-KFCH|||||||||||||300|N-Normal|1|FM15-METAR|223|ICAO-KFCH|4.6|N-Normal|1|FM15-METAR|223|ICAO-KFCH|||||||||||||22|Derived||FM15-METAR|223|ICAO-KFCH|||||||||||||||||||||||||||||||||||||||||||||||||||||||||||||||||||||||||1010.5||1|FM15-METAR|223|ICAO-KFCH|||||||||||||||||||||||||||||||||||||||||||MET061METAR KFCH 040255Z AUTO 30009KT 10SM CLR 35/10 A2984 RMK A01=||F||223|ICAO-KFCH
USW00023167|FRESNO CHANDLER DWTN AP|2021|08|04|03|15|36.7333|-119.8167|84.1|34.0||1|FM15-METAR|223|ICAO-KFCH|11.0||1|FM15-METAR|223|ICAO-KFCH|||||||||||||300|N-Normal|1|FM15-METAR|223|ICAO-KFCH|3.6|N-Normal|1|FM15-METAR|223|ICAO-KFCH|||||||||||||24|Derived||FM15-METAR|223|ICAO-KFCH|||||||||||||||||||||||||||||||||||||||||||||||||||||||||||||||||||||||||1010.8||1|FM15-METAR|223|ICAO-KFCH|||||||||||||||||||||||||||||||||||||||||||MET061METAR KFCH 040315Z AUTO 30007KT 10SM CLR 34/11 A2985 RMK A01=||F||223|ICAO-KFCH
USW00023167|FRESNO CHANDLER DWTN AP|2021|08|04|03|35|36.7333|-119.8167|84.1|33.0||1|FM15-METAR|223|ICAO-KFCH|12.0||1|FM15-METAR|223|ICAO-KFCH|||||||||||||300|N-Normal|1|FM15-METAR|223|ICAO-KFCH|4.1|N-Normal|1|FM15-METAR|223|ICAO-KFCH|||||||||||||28|Derived||FM15-METAR|223|ICAO-KFCH|||||||||||||||||||||||||||||||||||||||||||||||||||||||||||||||||||||||||1010.8||1|FM15-METAR|223|ICAO-KFCH|||||||||||||||||||||||||||||||||||||||||||MET061METAR KFCH 040335Z AUTO 30008KT 10SM CLR 33/12 A2985 RMK A01=||F||223|ICAO-KFCH
USW00023167|FRESNO CHANDLER DWTN AP|2021|08|04|03|55|36.7333|-119.8167|84.1|33.0||1|FM15-METAR|223|ICAO-KFCH|12.0||1|FM15-METAR|223|ICAO-KFCH|||||||||||||300|N-Normal|1|FM15-METAR|223|ICAO-KFCH|3.6|N-Normal|1|FM15-METAR|223|ICAO-KFCH|||||||||||||28|Derived||FM15-METAR|223|ICAO-KFCH|||||||||||||||||||||||||||||||||||||||||||||||||||||||||||||||||||||||||1011.2||1|FM15-METAR|223|ICAO-KFCH|||||||||||||||||||||||||||||||||||||||||||MET061METAR KFCH 040355Z AUTO 30007KT 10SM CLR 33/12 A2986 RMK A01=||F||223|ICAO-KFCH
USW00023167|FRESNO CHANDLER DWTN AP|2021|08|04|04|15|36.7333|-119.8167|84.1|32.0||1|FM15-METAR|223|ICAO-KFCH|13.0||1|FM15-METAR|223|ICAO-KFCH|||||||||||||310|N-Normal|1|FM15-METAR|223|ICAO-KFCH|4.1|N-Normal|1|FM15-METAR|223|ICAO-KFCH|||||||||||||31|Derived||FM15-METAR|223|ICAO-KFCH|||||||||||||||||||||||||||||||||||||||||||||||||||||||||||||||||||||||||1011.2||1|FM15-METAR|223|ICAO-KFCH|||||||||||||||||||||||||||||||||||||||||||MET061METAR KFCH 040415Z AUTO 31008KT 10SM CLR 32/13 A2986 RMK A01=||F||223|ICAO-KFCH
USW00023167|FRESNO CHANDLER DWTN AP|2021|08|04|04|35|36.7333|-119.8167|84.1|31.0||1|FM15-METAR|223|ICAO-KFCH|13.0||1|FM15-METAR|223|ICAO-KFCH|||||||||||||300|N-Normal|1|FM15-METAR|223|ICAO-KFCH|4.6|N-Normal|1|FM15-METAR|223|ICAO-KFCH|||||||||||||33|Derived||FM15-METAR|223|ICAO-KFCH|||||||||||||||||||||||||||||||||||||||||||||||||||||||||||||||||||||||||1011.5||1|FM15-METAR|223|ICAO-KFCH|||||||||||||||||||||||||||||||||||||||||||MET061METAR KFCH 040435Z AUTO 30009KT 10SM CLR 31/13 A2987 RMK A01=||F||223|ICAO-KFCH
USW00023167|FRESNO CHANDLER DWTN AP|2021|08|04|04|55|36.7333|-119.8167|84.1|30.0||1|FM15-METAR|223|ICAO-KFCH|13.0||1|FM15-METAR|223|ICAO-KFCH|||||||||||||300|N-Normal|1|FM15-METAR|223|ICAO-KFCH|4.1|N-Normal|1|FM15-METAR|223|ICAO-KFCH|||||||||||||35|Derived||FM15-METAR|223|ICAO-KFCH|||||||||||||||||||||||||||||||||||||||||||||||||||||||||||||||||||||||||1011.8||1|FM15-METAR|223|ICAO-KFCH|||||||||||||||||||||||||||||||||||||||||||MET061METAR KFCH 040455Z AUTO 30008KT 10SM CLR 30/13 A2988 RMK A01=||F||223|ICAO-KFCH
USW00023167|FRESNO CHANDLER DWTN AP|2021|08|04|05|15|36.7333|-119.8167|84.1|30.0||1|FM15-METAR|223|ICAO-KFCH|13.0||1|FM15-METAR|223|ICAO-KFCH|||||||||||||300|N-Normal|1|FM15-METAR|223|ICAO-KFCH|3.6|N-Normal|1|FM15-METAR|223|ICAO-KFCH|||||||||||||35|Derived||FM15-METAR|223|ICAO-KFCH|||||||||||||||||||||||||||||||||||||||||||||||||||||||||||||||||||||||||1011.8||1|FM15-METAR|223|ICAO-KFCH|||||||||||||||||||||||||||||||||||||||||||MET061METAR KFCH 040515Z AUTO 30007KT 10SM CLR 30/13 A2988 RMK A01=||F||223|ICAO-KFCH
USW00023167|FRESNO CHANDLER DWTN AP|2021|08|04|05|35|36.7333|-119.8167|84.1|29.0||1|FM15-METAR|223|ICAO-KFCH|14.0||1|FM15-METAR|223|ICAO-KFCH|||||||||||||270|N-Normal|1|FM15-METAR|223|ICAO-KFCH|2.1|N-Normal|1|FM15-METAR|223|ICAO-KFCH|||||||||||||40|Derived||FM15-METAR|223|ICAO-KFCH|||||||||||||||||||||||||||||||||||||||||||||||||||||||||||||||||||||||||1011.8||1|FM15-METAR|223|ICAO-KFCH|||||||||||||||||||||||||||||||||||||||||||MET061METAR KFCH 040535Z AUTO 27004KT 10SM CLR 29/14 A2988 RMK A01=||F||223|ICAO-KFCH
USW00023167|FRESNO CHANDLER DWTN AP|2021|08|04|05|55|36.7333|-119.8167|84.1|28.0||1|FM15-METAR|223|ICAO-KFCH|14.0||1|FM15-METAR|223|ICAO-KFCH|||||||||||||300|N-Normal|1|FM15-METAR|223|ICAO-KFCH|1.5|N-Normal|1|FM15-METAR|223|ICAO-KFCH|||||||||||||42|Derived||FM15-METAR|223|ICAO-KFCH|||||||||||||||||||||||||||||||||||||||||||||||||||||||||||||||||||||||||1011.8||1|FM15-METAR|223|ICAO-KFCH|||||||||||||||||||||||||||||||||||||||||||MET061METAR KFCH 040555Z AUTO 30003KT 10SM CLR 28/14 A2988 RMK A01=||F||223|ICAO-KFCH
USW00023167|FRESNO CHANDLER DWTN AP|2021|08|04|06|15|36.7333|-119.8167|84.1|28.0||1|FM15-METAR|223|ICAO-KFCH|13.0||1|FM15-METAR|223|ICAO-KFCH|||||||||||||300|N-Normal|1|FM15-METAR|223|ICAO-KFCH|3.1|N-Normal|1|FM15-METAR|223|ICAO-KFCH|||||||||||||40|Derived||FM15-METAR|223|ICAO-KFCH|||||||||||||||||||||||||||||||||||||||||||||||||||||||||||||||||||||||||1011.8||1|FM15-METAR|223|ICAO-KFCH|||||||||||||||||||||||||||||||||||||||||||MET061METAR KFCH 040615Z AUTO 30006KT 10SM CLR 28/13 A2988 RMK A01=||F||223|ICAO-KFCH
USW00023167|FRESNO CHANDLER DWTN AP|2021|08|04|06|35|36.7333|-119.8167|84.1|28.0||1|FM15-METAR|223|ICAO-KFCH|13.0||1|FM15-METAR|223|ICAO-KFCH|||||||||||||310|N-Normal|1|FM15-METAR|223|ICAO-KFCH|2.1|N-Normal|1|FM15-METAR|223|ICAO-KFCH|||||||||||||40|Derived||FM15-METAR|223|ICAO-KFCH|||||||||||||||||||||||||||||||||||||||||||||||||||||||||||||||||||||||||1011.8||1|FM15-METAR|223|ICAO-KFCH|||||||||||||||||||||||||||||||||||||||||||MET061METAR KFCH 040635Z AUTO 31004KT 10SM CLR 28/13 A2988 RMK A01=||F||223|ICAO-KFCH
USW00023167|FRESNO CHANDLER DWTN AP|2021|08|04|06|55|36.7333|-119.8167|84.1|27.0||1|FM15-METAR|223|ICAO-KFCH|12.0||1|FM15-METAR|223|ICAO-KFCH|||||||||||||310|N-Normal|1|FM15-METAR|223|ICAO-KFCH|2.6|N-Normal|1|FM15-METAR|223|ICAO-KFCH|||||||||||||39|Derived||FM15-METAR|223|ICAO-KFCH|||||||||||||||||||||||||||||||||||||||||||||||||||||||||||||||||||||||||1011.8||1|FM15-METAR|223|ICAO-KFCH|||||||||||||||||||||||||||||||||||||||||||MET061METAR KFCH 040655Z AUTO 31005KT 10SM CLR 27/12 A2988 RMK A01=||F||223|ICAO-KFCH
USW00023167|FRESNO CHANDLER DWTN AP|2021|08|04|07|15|36.7333|-119.8167|84.1|27.0||1|FM15-METAR|223|ICAO-KFCH|12.0||1|FM15-METAR|223|ICAO-KFCH|||||||||||||270|N-Normal|1|FM15-METAR|223|ICAO-KFCH|2.1|N-Normal|1|FM15-METAR|223|ICAO-KFCH|||||||||||||39|Derived||FM15-METAR|223|ICAO-KFCH|||||||||||||||||||||||||||||||||||||||||||||||||||||||||||||||||||||||||1011.8||1|FM15-METAR|223|ICAO-KFCH|||||||||||||||||||||||||||||||||||||||||||MET061METAR KFCH 040715Z AUTO 27004KT 10SM CLR 27/12 A2988 RMK A01=||F||223|ICAO-KFCH
USW00023167|FRESNO CHANDLER DWTN AP|2021|08|04|07|35|36.7333|-119.8167|84.1|26.0||1|FM15-METAR|223|ICAO-KFCH|12.0||1|FM15-METAR|223|ICAO-KFCH|||||||||||||270|N-Normal|1|FM15-METAR|223|ICAO-KFCH|1.5|N-Normal|1|FM15-METAR|223|ICAO-KFCH|||||||||||||42|Derived||FM15-METAR|223|ICAO-KFCH|||||||||||||||||||||||||||||||||||||||||||||||||||||||||||||||||||||||||1011.8||1|FM15-METAR|223|ICAO-KFCH|||||||||||||||||||||||||||||||||||||||||||MET061METAR KFCH 040735Z AUTO 27003KT 10SM CLR 26/12 A2988 RMK A01=||F||223|ICAO-KFCH
USW00023167|FRESNO CHANDLER DWTN AP|2021|08|04|07|55|36.7333|-119.8167|84.1|26.0||1|FM15-METAR|223|ICAO-KFCH|12.0||1|FM15-METAR|223|ICAO-KFCH|||||||||||||300|N-Normal|1|FM15-METAR|223|ICAO-KFCH|2.1|N-Normal|1|FM15-METAR|223|ICAO-KFCH|||||||||||||42|Derived||FM15-METAR|223|ICAO-KFCH|||||||||||||||||||||||||||||||||||||||||||||||||||||||||||||||||||||||||1011.8||1|FM15-METAR|223|ICAO-KFCH|||||||||||||||||||||||||||||||||||||||||||MET061METAR KFCH 040755Z AUTO 30004KT 10SM CLR 26/12 A2988 RMK A01=||F||223|ICAO-KFCH
USW00023167|FRESNO CHANDLER DWTN AP|2021|08|04|08|15|36.7333|-119.8167|84.1|25.0||1|FM15-METAR|223|ICAO-KFCH|12.0||1|FM15-METAR|223|ICAO-KFCH|||||||||||||300|N-Normal|1|FM15-METAR|223|ICAO-KFCH|2.6|N-Normal|1|FM15-METAR|223|ICAO-KFCH|||||||||||||44|Derived||FM15-METAR|223|ICAO-KFCH|||||||||||||||||||||||||||||||||||||||||||||||||||||||||||||||||||||||||1011.5||1|FM15-METAR|223|ICAO-KFCH|||||||||||||||||||||||||||||||||||||||||||MET061METAR KFCH 040815Z AUTO 30005KT 10SM CLR 25/12 A2987 RMK A01=||F||223|ICAO-KFCH
USW00023167|FRESNO CHANDLER DWTN AP|2021|08|04|08|35|36.7333|-119.8167|84.1|25.0||1|FM15-METAR|223|ICAO-KFCH|12.0||1|FM15-METAR|223|ICAO-KFCH|||||||||||||280|N-Normal|1|FM15-METAR|223|ICAO-KFCH|2.6|N-Normal|1|FM15-METAR|223|ICAO-KFCH|||||||||||||44|Derived||FM15-METAR|223|ICAO-KFCH|||||||||||||||||||||||||||||||||||||||||||||||||||||||||||||||||||||||||1011.5||1|FM15-METAR|223|ICAO-KFCH|||||||||||||||||||||||||||||||||||||||||||MET061METAR KFCH 040835Z AUTO 28005KT 10SM CLR 25/12 A2987 RMK A01=||F||223|ICAO-KFCH
USW00023167|FRESNO CHANDLER DWTN AP|2021|08|04|08|55|36.7333|-119.8167|84.1|25.0||1|FM15-METAR|223|ICAO-KFCH|11.0||1|FM15-METAR|223|ICAO-KFCH|||||||||||||300|N-Normal|1|FM15-METAR|223|ICAO-KFCH|3.6|N-Normal|1|FM15-METAR|223|ICAO-KFCH|||||||||||||42|Derived||FM15-METAR|223|ICAO-KFCH|||||||||||||||||||||||||||||||||||||||||||||||||||||||||||||||||||||||||1011.5||1|FM15-METAR|223|ICAO-KFCH|||||||||||||||||||||||||||||||||||||||||||MET061METAR KFCH 040855Z AUTO 30007KT 10SM CLR 25/11 A2987 RMK A01=||F||223|ICAO-KFCH
USW00023167|FRESNO CHANDLER DWTN AP|2021|08|04|09|15|36.7333|-119.8167|84.1|24.0||1|FM15-METAR|223|ICAO-KFCH|11.0||1|FM15-METAR|223|ICAO-KFCH|||||||||||||320|N-Normal|1|FM15-METAR|223|ICAO-KFCH|3.6|N-Normal|1|FM15-METAR|223|ICAO-KFCH|||||||||||||44|Derived||FM15-METAR|223|ICAO-KFCH|||||||||||||||||||||||||||||||||||||||||||||||||||||||||||||||||||||||||1011.2||1|FM15-METAR|223|ICAO-KFCH|||||||||||||||||||||||||||||||||||||||||||MET061METAR KFCH 040915Z AUTO 32007KT 10SM CLR 24/11 A2986 RMK A01=||F||223|ICAO-KFCH
USW00023167|FRESNO CHANDLER DWTN AP|2021|08|04|09|35|36.7333|-119.8167|84.1|24.0||1|FM15-METAR|223|ICAO-KFCH|11.0||1|FM15-METAR|223|ICAO-KFCH|||||||||||||320|N-Normal|1|FM15-METAR|223|ICAO-KFCH|3.1|N-Normal|1|FM15-METAR|223|ICAO-KFCH|||||||||||||44|Derived||FM15-METAR|223|ICAO-KFCH|||||||||||||||||||||||||||||||||||||||||||||||||||||||||||||||||||||||||1011.2||1|FM15-METAR|223|ICAO-KFCH|||||||||||||||||||||||||||||||||||||||||||MET061METAR KFCH 040935Z AUTO 32006KT 10SM CLR 24/11 A2986 RMK A01=||F||223|ICAO-KFCH
USW00023167|FRESNO CHANDLER DWTN AP|2021|08|04|09|55|36.7333|-119.8167|84.1|24.0||1|FM15-METAR|223|ICAO-KFCH|10.0||1|FM15-METAR|223|ICAO-KFCH|||||||||||||330|N-Normal|1|FM15-METAR|223|ICAO-KFCH|1.5|N-Normal|1|FM15-METAR|223|ICAO-KFCH|||||||||||||41|Derived||FM15-METAR|223|ICAO-KFCH|||||||||||||||||||||||||||||||||||||||||||||||||||||||||||||||||||||||||1011.2||1|FM15-METAR|223|ICAO-KFCH|||||||||||||||||||||||||||||||||||||||||||MET061METAR KFCH 040955Z AUTO 33003KT 10SM CLR 24/10 A2986 RMK A01=||F||223|ICAO-KFCH
USW00023167|FRESNO CHANDLER DWTN AP|2021|08|04|10|10|36.7333|-119.8167|84.1|24.0||1|FM15-METAR|223|ICAO-KFCH|10.0||1|FM15-METAR|223|ICAO-KFCH|||||||||||||999|C-Calm|9|FM15-METAR|223|ICAO-KFCH|0.0|C-Calm|1|FM15-METAR|223|ICAO-KFCH|||||||||||||41|Derived||FM15-METAR|223|ICAO-KFCH|||||||||||||||||||||||||||||||||||||||||||||||||||||||||||||||||||||||||1011.5||1|FM15-METAR|223|ICAO-KFCH|||||||||||||||||||||||||||||||||||||||||||MET061METAR KFCH 041010Z AUTO 00000KT 10SM CLR 24/10 A2987 RMK A01=||F||223|ICAO-KFCH
USW00023167|FRESNO CHANDLER DWTN AP|2021|08|04|10|35|36.7333|-119.8167|84.1|24.0||1|FM15-METAR|223|ICAO-KFCH|10.0||1|FM15-METAR|223|ICAO-KFCH|||||||||||||290|N-Normal|1|FM15-METAR|223|ICAO-KFCH|1.5|N-Normal|1|FM15-METAR|223|ICAO-KFCH|||||||||||||41|Derived||FM15-METAR|223|ICAO-KFCH|||||||||||||||||||||||||||||||||||||||||||||||||||||||||||||||||||||||||1011.5||1|FM15-METAR|223|ICAO-KFCH|||||||||||||||||||||||||||||||||||||||||||MET061METAR KFCH 041035Z AUTO 29003KT 10SM CLR 24/10 A2987 RMK A01=||F||223|ICAO-KFCH
USW00023167|FRESNO CHANDLER DWTN AP|2021|08|04|10|55|36.7333|-119.8167|84.1|23.0||1|FM15-METAR|223|ICAO-KFCH|10.0||1|FM15-METAR|223|ICAO-KFCH|||||||||||||999|C-Calm|9|FM15-METAR|223|ICAO-KFCH|0.0|C-Calm|1|FM15-METAR|223|ICAO-KFCH|||||||||||||44|Derived||FM15-METAR|223|ICAO-KFCH|||||||||||||||||||||||||||||||||||||||||||||||||||||||||||||||||||||||||1011.5||1|FM15-METAR|223|ICAO-KFCH|||||||||||||||||||||||||||||||||||||||||||MET061METAR KFCH 041055Z AUTO 00000KT 10SM CLR 23/10 A2987 RMK A01=||F||223|ICAO-KFCH
USW00023167|FRESNO CHANDLER DWTN AP|2021|08|04|11|15|36.7333|-119.8167|84.1|23.0||1|FM15-METAR|223|ICAO-KFCH|10.0||1|FM15-METAR|223|ICAO-KFCH|||||||||||||999|C-Calm|9|FM15-METAR|223|ICAO-KFCH|0.0|C-Calm|1|FM15-METAR|223|ICAO-KFCH|||||||||||||44|Derived||FM15-METAR|223|ICAO-KFCH|||||||||||||||||||||||||||||||||||||||||||||||||||||||||||||||||||||||||1011.5||1|FM15-METAR|223|ICAO-KFCH|||||||||||||||||||||||||||||||||||||||||||MET061METAR KFCH 041115Z AUTO 00000KT 10SM CLR 23/10 A2987 RMK A01=||F||223|ICAO-KFCH
USW00023167|FRESNO CHANDLER DWTN AP|2021|08|04|11|30|36.7333|-119.8167|84.1|23.0||1|FM15-METAR|223|ICAO-KFCH|10.0||1|FM15-METAR|223|ICAO-KFCH|||||||||||||999|C-Calm|9|FM15-METAR|223|ICAO-KFCH|0.0|C-Calm|1|FM15-METAR|223|ICAO-KFCH|||||||||||||44|Derived||FM15-METAR|223|ICAO-KFCH|||||||||||||||||||||||||||||||||||||||||||||||||||||||||||||||||||||||||1011.5||1|FM15-METAR|223|ICAO-KFCH|||||||||||||||||||||||||||||||||||||||||||MET061METAR KFCH 041130Z AUTO 00000KT 10SM CLR 23/10 A2987 RMK A01=||F||223|ICAO-KFCH
USW00023167|FRESNO CHANDLER DWTN AP|2021|08|04|11|55|36.7333|-119.8167|84.1|23.0||1|FM15-METAR|223|ICAO-KFCH|10.0||1|FM15-METAR|223|ICAO-KFCH|||||||||||||999|C-Calm|9|FM15-METAR|223|ICAO-KFCH|0.0|C-Calm|1|FM15-METAR|223|ICAO-KFCH|||||||||||||44|Derived||FM15-METAR|223|ICAO-KFCH|||||||||||||||||||||||||||||||||||||||||||||||||||||||||||||||||||||||||1011.5||1|FM15-METAR|223|ICAO-KFCH|||||||||||||||||||||||||||||||||||||||||||MET061METAR KFCH 041155Z AUTO 00000KT 10SM CLR 23/10 A2987 RMK A01=||F||223|ICAO-KFCH
USW00023167|FRESNO CHANDLER DWTN AP|2021|08|04|12|15|36.7333|-119.8167|84.1|22.0||1|FM15-METAR|223|ICAO-KFCH|10.0||1|FM15-METAR|223|ICAO-KFCH|||||||||||||210|N-Normal|1|FM15-METAR|223|ICAO-KFCH|1.5|N-Normal|1|FM15-METAR|223|ICAO-KFCH|||||||||||||47|Derived||FM15-METAR|223|ICAO-KFCH|||||||||||||||||||||||||||||||||||||||||||||||||||||||||||||||||||||||||1011.8||1|FM15-METAR|223|ICAO-KFCH|||||||||||||||||||||||||||||||||||||||||||MET061METAR KFCH 041215Z AUTO 21003KT 10SM CLR 22/10 A2988 RMK A01=||F||223|ICAO-KFCH
USW00023167|FRESNO CHANDLER DWTN AP|2021|08|04|12|35|36.7333|-119.8167|84.1|22.0||1|FM15-METAR|223|ICAO-KFCH|10.0||1|FM15-METAR|223|ICAO-KFCH|||||||||||||999|C-Calm|9|FM15-METAR|223|ICAO-KFCH|0.0|C-Calm|1|FM15-METAR|223|ICAO-KFCH|||||||||||||47|Derived||FM15-METAR|223|ICAO-KFCH|||||||||||||||||||||||||||||||||||||||||||||||||||||||||||||||||||||||||1011.8||1|FM15-METAR|223|ICAO-KFCH|||||||||||||||||||||||||||||||||||||||||||MET061METAR KFCH 041235Z AUTO 00000KT 10SM CLR 22/10 A2988 RMK A01=||F||223|ICAO-KFCH
USW00023167|FRESNO CHANDLER DWTN AP|2021|08|04|12|55|36.7333|-119.8167|84.1|21.0||1|FM15-METAR|223|ICAO-KFCH|11.0||1|FM15-METAR|223|ICAO-KFCH|||||||||||||300|N-Normal|1|FM15-METAR|223|ICAO-KFCH|1.5|N-Normal|1|FM15-METAR|223|ICAO-KFCH|||||||||||||53|Derived||FM15-METAR|223|ICAO-KFCH|||||||||||||||||||||||||||||||||||||||||||||||||||||||||||||||||||||||||1011.8||1|FM15-METAR|223|ICAO-KFCH|||||||||||||||||||||||||||||||||||||||||||MET061METAR KFCH 041255Z AUTO 30003KT 10SM CLR 21/11 A2988 RMK A01=||F||223|ICAO-KFCH
USW00023167|FRESNO CHANDLER DWTN AP|2021|08|04|13|15|36.7333|-119.8167|84.1|21.0||1|FM15-METAR|223|ICAO-KFCH|10.0||1|FM15-METAR|223|ICAO-KFCH|||||||||||||999|C-Calm|9|FM15-METAR|223|ICAO-KFCH|0.0|C-Calm|1|FM15-METAR|223|ICAO-KFCH|||||||||||||50|Derived||FM15-METAR|223|ICAO-KFCH|||||||||||||||||||||||||||||||||||||||||||||||||||||||||||||||||||||||||1012.2||1|FM15-METAR|223|ICAO-KFCH|||||||||||||||||||||||||||||||||||||||||||MET060METAR KFCH 041315Z AUTO 00000KT 9SM CLR 21/10 A2989 RMK A01=||F||223|ICAO-KFCH
USW00023167|FRESNO CHANDLER DWTN AP|2021|08|04|13|30|36.7333|-119.8167|84.1|21.0||1|FM15-METAR|223|ICAO-KFCH|10.0||1|FM15-METAR|223|ICAO-KFCH|||||||||||||999|C-Calm|9|FM15-METAR|223|ICAO-KFCH|0.0|C-Calm|1|FM15-METAR|223|ICAO-KFCH|||||||||||||50|Derived||FM15-METAR|223|ICAO-KFCH|||||||||||||||||||||||||||||||||||||||||||||||||||||||||||||||||||||||||1012.2||1|FM15-METAR|223|ICAO-KFCH|||||||||||||||||||||||||||||||||||||||||||MET061METAR KFCH 041330Z AUTO 00000KT 10SM CLR 21/10 A2989 RMK A01=||F||223|ICAO-KFCH
USW00023167|FRESNO CHANDLER DWTN AP|2021|08|04|13|55|36.7333|-119.8167|84.1|22.0||1|FM15-METAR|223|ICAO-KFCH|11.0||1|FM15-METAR|223|ICAO-KFCH|||||||||||||280|N-Normal|1|FM15-METAR|223|ICAO-KFCH|2.1|N-Normal|1|FM15-METAR|223|ICAO-KFCH|||||||||||||50|Derived||FM15-METAR|223|ICAO-KFCH|||||||||||||||||||||||||||||||||||||||||||||||||||||||||||||||||||||||||1012.5||1|FM15-METAR|223|ICAO-KFCH|||||||||||||||||||||||||||||||||||||||||||MET060METAR KFCH 041355Z AUTO 28004KT 9SM CLR 22/11 A2990 RMK A01=||F||223|ICAO-KFCH
USW00023167|FRESNO CHANDLER DWTN AP|2021|08|04|14|15|36.7333|-119.8167|84.1|23.0||1|FM15-METAR|223|ICAO-KFCH|10.0||1|FM15-METAR|223|ICAO-KFCH|||||||||||||999|C-Calm|9|FM15-METAR|223|ICAO-KFCH|0.0|C-Calm|1|FM15-METAR|223|ICAO-KFCH|||||||||||||44|Derived||FM15-METAR|223|ICAO-KFCH|||||||||||||||||||||||||||||||||||||||||||||||||||||||||||||||||||||||||1012.5||1|FM15-METAR|223|ICAO-KFCH|||||||||||||||||||||||||||||||||||||||||||MET060METAR KFCH 041415Z AUTO 00000KT 8SM CLR 23/10 A2990 RMK A01=||F||223|ICAO-KFCH
USW00023167|FRESNO CHANDLER DWTN AP|2021|08|04|14|35|36.7333|-119.8167|84.1|24.0||1|FM15-METAR|223|ICAO-KFCH|11.0||1|FM15-METAR|223|ICAO-KFCH|||||||||||||999|C-Calm|9|FM15-METAR|223|ICAO-KFCH|0.0|C-Calm|1|FM15-METAR|223|ICAO-KFCH|||||||||||||44|Derived||FM15-METAR|223|ICAO-KFCH|||||||||||||||||||||||||||||||||||||||||||||||||||||||||||||||||||||||||1012.5||1|FM15-METAR|223|ICAO-KFCH|||||||||||||||||||||||||||||||||||||||||||MET060METAR KFCH 041435Z AUTO 00000KT 9SM CLR 24/11 A2990 RMK A01=||F||223|ICAO-KFCH
USW00023167|FRESNO CHANDLER DWTN AP|2021|08|04|14|50|36.7333|-119.8167|84.1|25.0||1|FM15-METAR|223|ICAO-KFCH|11.0||1|FM15-METAR|223|ICAO-KFCH|||||||||||||999|C-Calm|9|FM15-METAR|223|ICAO-KFCH|0.0|C-Calm|1|FM15-METAR|223|ICAO-KFCH|||||||||||||42|Derived||FM15-METAR|223|ICAO-KFCH|||||||||||||||||||||||||||||||||||||||||||||||||||||||||||||||||||||||||1012.5||1|FM15-METAR|223|ICAO-KFCH|||||||||||||||||||||||||||||||||||||||||||MET060METAR KFCH 041450Z AUTO 00000KT 9SM CLR 25/11 A2990 RMK A01=||F||223|ICAO-KFCH
USW00023167|FRESNO CHANDLER DWTN AP|2021|08|04|15|15|36.7333|-119.8167|84.1|26.0||1|FM15-METAR|223|ICAO-KFCH|10.0||1|FM15-METAR|223|ICAO-KFCH|||||||||||||320|N-Normal|1|FM15-METAR|223|ICAO-KFCH|1.5|N-Normal|1|FM15-METAR|223|ICAO-KFCH|||||||||||||37|Derived||FM15-METAR|223|ICAO-KFCH|||||||||||||||||||||||||||||||||||||||||||||||||||||||||||||||||||||||||1012.9||1|FM15-METAR|223|ICAO-KFCH|||||||||||||||||||||||||||||||||||||||||||MET061METAR KFCH 041515Z AUTO 32003KT 10SM CLR 26/10 A2991 RMK A01=||F||223|ICAO-KFCH
USW00023167|FRESNO CHANDLER DWTN AP|2021|08|04|15|35|36.7333|-119.8167|84.1|27.0||1|FM15-METAR|223|ICAO-KFCH|10.0||1|FM15-METAR|223|ICAO-KFCH|||||||||||||999|C-Calm|9|FM15-METAR|223|ICAO-KFCH|0.0|C-Calm|1|FM15-METAR|223|ICAO-KFCH|||||||||||||34|Derived||FM15-METAR|223|ICAO-KFCH|||||||||||||||||||||||||||||||||||||||||||||||||||||||||||||||||||||||||1012.9||1|FM15-METAR|223|ICAO-KFCH|||||||||||||||||||||||||||||||||||||||||||MET061METAR KFCH 041535Z AUTO 00000KT 10SM CLR 27/10 A2991 RMK A01=||F||223|ICAO-KFCH
USW00023167|FRESNO CHANDLER DWTN AP|2021|08|04|15|55|36.7333|-119.8167|84.1|28.0||1|FM15-METAR|223|ICAO-KFCH|10.0||1|FM15-METAR|223|ICAO-KFCH|||||||||||||999|C-Calm|9|FM15-METAR|223|ICAO-KFCH|0.0|C-Calm|1|FM15-METAR|223|ICAO-KFCH|||||||||||||32|Derived||FM15-METAR|223|ICAO-KFCH|||||||||||||||||||||||||||||||||||||||||||||||||||||||||||||||||||||||||1012.9||1|FM15-METAR|223|ICAO-KFCH|||||||||||||||||||||||||||||||||||||||||||MET061METAR KFCH 041555Z AUTO 00000KT 10SM CLR 28/10 A2991 RMK A01=||F||223|ICAO-KFCH
USW00023167|FRESNO CHANDLER DWTN AP|2021|08|04|16|15|36.7333|-119.8167|84.1|28.0||1|FM15-METAR|223|ICAO-KFCH|10.0||1|FM15-METAR|223|ICAO-KFCH|||||||||||||999|V-Variable|9|FM15-METAR|223|ICAO-KFCH|1.5|V-Variable|1|FM15-METAR|223|ICAO-KFCH|||||||||||||32|Derived||FM15-METAR|223|ICAO-KFCH|||||||||||||||||||||||||||||||||||||||||||||||||||||||||||||||||||||||||1012.9||1|FM15-METAR|223|ICAO-KFCH|||||||||||||||||||||||||||||||||||||||||||MET061METAR KFCH 041615Z AUTO VRB03KT 10SM CLR 28/10 A2991 RMK A01=||F||223|ICAO-KFCH
USW00023167|FRESNO CHANDLER DWTN AP|2021|08|04|16|35|36.7333|-119.8167|84.1|29.0||1|FM15-METAR|223|ICAO-KFCH|10.0||1|FM15-METAR|223|ICAO-KFCH|||||||||||||260|N-Normal|1|FM15-METAR|223|ICAO-KFCH|2.1|N-Normal|1|FM15-METAR|223|ICAO-KFCH|||||||||||||31|Derived||FM15-METAR|223|ICAO-KFCH|||||||||||||||||||||||||||||||||||||||||||||||||||||||||||||||||||||||||1012.9||1|FM15-METAR|223|ICAO-KFCH|||||||||||||||||||||||||||||||||||||||||||MET061METAR KFCH 041635Z AUTO 26004KT 10SM CLR 29/10 A2991 RMK A01=||F||223|ICAO-KFCH
USW00023167|FRESNO CHANDLER DWTN AP|2021|08|04|16|55|36.7333|-119.8167|84.1|30.0||1|FM15-METAR|223|ICAO-KFCH|10.0||1|FM15-METAR|223|ICAO-KFCH|||||||||||||260|N-Normal|1|FM15-METAR|223|ICAO-KFCH|2.1|N-Normal|1|FM15-METAR|223|ICAO-KFCH|||||||||||||29|Derived||FM15-METAR|223|ICAO-KFCH|||||||||||||||||||||||||||||||||||||||||||||||||||||||||||||||||||||||||1012.9||1|FM15-METAR|223|ICAO-KFCH|||||||||||||||||||||||||||||||||||||||||||MET061METAR KFCH 041655Z AUTO 26004KT 10SM CLR 30/10 A2991 RMK A01=||F||223|ICAO-KFCH
USW00023167|FRESNO CHANDLER DWTN AP|2021|08|04|17|15|36.7333|-119.8167|84.1|30.0||1|FM15-METAR|223|ICAO-KFCH|10.0||1|FM15-METAR|223|ICAO-KFCH|||||||||||||280|N-Normal|1|FM15-METAR|223|ICAO-KFCH|2.6|N-Normal|1|FM15-METAR|223|ICAO-KFCH|||||||||||||29|Derived||FM15-METAR|223|ICAO-KFCH|||||||||||||||||||||||||||||||||||||||||||||||||||||||||||||||||||||||||1012.9||1|FM15-METAR|223|ICAO-KFCH|||||||||||||||||||||||||||||||||||||||||||MET061METAR KFCH 041715Z AUTO 28005KT 10SM CLR 30/10 A2991 RMK A01=||F||223|ICAO-KFCH
USW00023167|FRESNO CHANDLER DWTN AP|2021|08|04|17|30|36.7333|-119.8167|84.1|31.0||1|FM15-METAR|223|ICAO-KFCH|11.0||1|FM15-METAR|223|ICAO-KFCH|||||||||||||290|N-Normal|1|FM15-METAR|223|ICAO-KFCH|2.6|N-Normal|1|FM15-METAR|223|ICAO-KFCH|||||||||||||29|Derived||FM15-METAR|223|ICAO-KFCH|||||||||||||||||||||||||||||||||||||||||||||||||||||||||||||||||||||||||1012.9||1|FM15-METAR|223|ICAO-KFCH|||||||||||||||||||||||||||||||||||||||||||MET061METAR KFCH 041730Z AUTO 29005KT 10SM CLR 31/11 A2991 RMK A01=||F||223|ICAO-KFCH
USW00023167|FRESNO CHANDLER DWTN AP|2021|08|04|17|50|36.7333|-119.8167|84.1|32.0||1|FM15-METAR|223|ICAO-KFCH|11.0||1|FM15-METAR|223|ICAO-KFCH|||||||||||||280|N-Normal|1|FM15-METAR|223|ICAO-KFCH|3.1|N-Normal|1|FM15-METAR|223|ICAO-KFCH|||||||||||||27|Derived||FM15-METAR|223|ICAO-KFCH|||||||||||||||||||||||||||||||||||||||||||||||||||||||||||||||||||||||||1012.9||1|FM15-METAR|223|ICAO-KFCH|||||||||||||||||||||||||||||||||||||||||||MET061METAR KFCH 041750Z AUTO 28006KT 10SM CLR 32/11 A2991 RMK A01=||F||223|ICAO-KFCH
USW00023167|FRESNO CHANDLER DWTN AP|2021|08|04|18|10|36.7333|-119.8167|84.1|32.0||1|FM15-METAR|223|ICAO-KFCH|11.0||1|FM15-METAR|223|ICAO-KFCH|||||||||||||300|N-Normal|1|FM15-METAR|223|ICAO-KFCH|2.6|N-Normal|1|FM15-METAR|223|ICAO-KFCH|||||||||||||27|Derived||FM15-METAR|223|ICAO-KFCH|||||||||||||||||||||||||||||||||||||||||||||||||||||||||||||||||||||||||1012.5||1|FM15-METAR|223|ICAO-KFCH|||||||||||||||||||||||||||||||||||||||||||MET060METAR KFCH 041810Z AUTO 30005KT 9SM CLR 32/11 A2990 RMK A01=||F||223|ICAO-KFCH
USW00023167|FRESNO CHANDLER DWTN AP|2021|08|04|18|35|36.7333|-119.8167|84.1|33.0||1|FM15-METAR|223|ICAO-KFCH|10.0||1|FM15-METAR|223|ICAO-KFCH|||||||||||||340|N-Normal|1|FM15-METAR|223|ICAO-KFCH|2.1|N-Normal|1|FM15-METAR|223|ICAO-KFCH|||||||||||||24|Derived||FM15-METAR|223|ICAO-KFCH|||||||||||||||||||||||||||||||||||||||||||||||||||||||||||||||||||||||||1012.5||1|FM15-METAR|223|ICAO-KFCH|||||||||||||||||||||||||||||||||||||||||||MET060METAR KFCH 041835Z AUTO 34004KT 9SM CLR 33/10 A2990 RMK A01=||F||223|ICAO-KFCH
USW00023167|FRESNO CHANDLER DWTN AP|2021|08|04|18|55|36.7333|-119.8167|84.1|34.0||1|FM15-METAR|223|ICAO-KFCH|10.0||1|FM15-METAR|223|ICAO-KFCH|||||||||||||310|N-Normal|1|FM15-METAR|223|ICAO-KFCH|3.6|N-Normal|1|FM15-METAR|223|ICAO-KFCH|6.2||1|FM15-METAR|223|ICAO-KFCH|||||||23|Derived||FM15-METAR|223|ICAO-KFCH|||||||||||||||||||||||||||||||||||||||||||||||||||||||||||||||||||||||||1012.2||1|FM15-METAR|223|ICAO-KFCH|||||||||||||||||||||||||||||||||||||||||||MET064METAR KFCH 041855Z AUTO 31007G12KT 10SM CLR 34/10 A2989 RMK A01=||F||223|ICAO-KFCH
USW00023167|FRESNO CHANDLER DWTN AP|2021|08|04|19|15|36.7333|-119.8167|84.1|34.0||1|FM15-METAR|223|ICAO-KFCH|10.0||1|FM15-METAR|223|ICAO-KFCH|||||||||||||999|V-Variable|9|FM15-METAR|223|ICAO-KFCH|1.5|V-Variable|1|FM15-METAR|223|ICAO-KFCH|||||||||||||23|Derived||FM15-METAR|223|ICAO-KFCH|||||||||||||||||||||||||||||||||||||||||||||||||||||||||||||||||||||||||1012.2||1|FM15-METAR|223|ICAO-KFCH|||||||||||||||||||||||||||||||||||||||||||MET060METAR KFCH 041915Z AUTO VRB03KT 9SM CLR 34/10 A2989 RMK A01=||F||223|ICAO-KFCH
USW00023167|FRESNO CHANDLER DWTN AP|2021|08|04|19|35|36.7333|-119.8167|84.1|35.0||1|FM15-METAR|223|ICAO-KFCH|9.0||1|FM15-METAR|223|ICAO-KFCH|||||||||||||999|V-Variable|9|FM15-METAR|223|ICAO-KFCH|2.6|V-Variable|1|FM15-METAR|223|ICAO-KFCH|||||||||||||20|Derived||FM15-METAR|223|ICAO-KFCH|||||||||||||||||||||||||||||||||||||||||||||||||||||||||||||||||||||||||1012.2||1|FM15-METAR|223|ICAO-KFCH|||||||||||||||||||||||||||||||||||||||||||MET061METAR KFCH 041935Z AUTO VRB05KT 10SM CLR 35/09 A2989 RMK A01=||F||223|ICAO-KFCH
USW00023167|FRESNO CHANDLER DWTN AP|2021|08|04|19|55|36.7333|-119.8167|84.1|36.0||1|FM15-METAR|223|ICAO-KFCH|9.0||1|FM15-METAR|223|ICAO-KFCH|||||||||||||300|N-Normal|1|FM15-METAR|223|ICAO-KFCH|4.6|N-Normal|1|FM15-METAR|223|ICAO-KFCH|||||||||||||19|Derived||FM15-METAR|223|ICAO-KFCH|||||||||||||||||||||||||||||||||||||||||||||||||||||||||||||||||||||||||1011.8||1|FM15-METAR|223|ICAO-KFCH|||||||||||||||||||||||||||||||||||||||||||MET061METAR KFCH 041955Z AUTO 30009KT 10SM CLR 36/09 A2988 RMK A01=||F||223|ICAO-KFCH
USW00023167|FRESNO CHANDLER DWTN AP|2021|08|04|20|15|36.7333|-119.8167|84.1|37.0||1|FM15-METAR|223|ICAO-KFCH|9.0||1|FM15-METAR|223|ICAO-KFCH|||||||||||||300|N-Normal|1|FM15-METAR|223|ICAO-KFCH|3.1|N-Normal|1|FM15-METAR|223|ICAO-KFCH|6.7||1|FM15-METAR|223|ICAO-KFCH|||||||18|Derived||FM15-METAR|223|ICAO-KFCH|||||||||||||||||||||||||||||||||||||||||||||||||||||||||||||||||||||||||1011.5||1|FM15-METAR|223|ICAO-KFCH|||||||||||||||||||||||||||||||||||||||||||MET064METAR KFCH 042015Z AUTO 30006G13KT 10SM CLR 37/09 A2987 RMK A01=||F||223|ICAO-KFCH
USW00023167|FRESNO CHANDLER DWTN AP|2021|08|04|20|35|36.7333|-119.8167|84.1|37.0||1|FM15-METAR|223|ICAO-KFCH|8.0||1|FM15-METAR|223|ICAO-KFCH|||||||||||||320|N-Normal|1|FM15-METAR|223|ICAO-KFCH|4.6|N-Normal|1|FM15-METAR|223|ICAO-KFCH|||||||||||||17|Derived||FM15-METAR|223|ICAO-KFCH|||||||||||||||||||||||||||||||||||||||||||||||||||||||||||||||||||||||||1011.5||1|FM15-METAR|223|ICAO-KFCH|||||||||||||||||||||||||||||||||||||||||||MET061METAR KFCH 042035Z AUTO 32009KT 10SM CLR 37/08 A2987 RMK A01=||F||223|ICAO-KFCH
USW00023167|FRESNO CHANDLER DWTN AP|2021|08|04|20|55|36.7333|-119.8167|84.1|38.0||1|FM15-METAR|223|ICAO-KFCH|8.0||1|FM15-METAR|223|ICAO-KFCH|||||||||||||330|N-Normal|1|FM15-METAR|223|ICAO-KFCH|3.1|N-Normal|1|FM15-METAR|223|ICAO-KFCH|5.7||1|FM15-METAR|223|ICAO-KFCH|||||||16|Derived||FM15-METAR|223|ICAO-KFCH|||||||||||||||||||||||||||||||||||||||||||||||||||||||||||||||||||||||||1011.2||1|FM15-METAR|223|ICAO-KFCH|||||||||||||||||||||||||||||||||||||||||||MET064METAR KFCH 042055Z AUTO 33006G11KT 10SM CLR 38/08 A2986 RMK A01=||F||223|ICAO-KFCH
USW00023167|FRESNO CHANDLER DWTN AP|2021|08|04|21|15|36.7333|-119.8167|84.1|38.0||1|FM15-METAR|223|ICAO-KFCH|7.0||1|FM15-METAR|223|ICAO-KFCH|||||||||||||300|V-Variable|1|FM15-METAR|223|ICAO-KFCH|3.6|V-Variable|1|FM15-METAR|223|ICAO-KFCH|6.7||1|FM15-METAR|223|ICAO-KFCH|||||||15|Derived||FM15-METAR|223|ICAO-KFCH|||||||||||||||||||||||||||||||||||||||||||||||||||||||||||||||||||||||||1010.8||1|FM15-METAR|223|ICAO-KFCH|||||||||||||||||||||||||||||||||||||||||||MET072METAR KFCH 042115Z AUTO 30007G13KT 260V330 10SM CLR 38/07 A2985 RMK A01=||F||223|ICAO-KFCH
USW00023167|FRESNO CHANDLER DWTN AP|2021|08|04|21|35|36.7333|-119.8167|84.1|39.0||1|FM15-METAR|223|ICAO-KFCH|9.0||1|FM15-METAR|223|ICAO-KFCH|||||||||||||300|N-Normal|1|FM15-METAR|223|ICAO-KFCH|5.1|N-Normal|1|FM15-METAR|223|ICAO-KFCH|||||||||||||16|Derived||FM15-METAR|223|ICAO-KFCH|||||||||||||||||||||||||||||||||||||||||||||||||||||||||||||||||||||||||1010.8||1|FM15-METAR|223|ICAO-KFCH|||||||||||||||||||||||||||||||||||||||||||MET061METAR KFCH 042135Z AUTO 30010KT 10SM CLR 39/09 A2985 RMK A01=||F||223|ICAO-KFCH
USW00023167|FRESNO CHANDLER DWTN AP|2021|08|04|21|55|36.7333|-119.8167|84.1|39.0||1|FM15-METAR|223|ICAO-KFCH|7.0||1|FM15-METAR|223|ICAO-KFCH|||||||||||||320|N-Normal|1|FM15-METAR|223|ICAO-KFCH|4.1|N-Normal|1|FM15-METAR|223|ICAO-KFCH|||||||||||||14|Derived||FM15-METAR|223|ICAO-KFCH|||||||||||||||||||||||||||||||||||||||||||||||||||||||||||||||||||||||||1010.5||1|FM15-METAR|223|ICAO-KFCH|||||||||||||||||||||||||||||||||||||||||||MET061METAR KFCH 042155Z AUTO 32008KT 10SM CLR 39/07 A2984 RMK A01=||F||223|ICAO-KFCH
USW00023167|FRESNO CHANDLER DWTN AP|2021|08|04|22|15|36.7333|-119.8167|84.1|39.0||1|FM15-METAR|223|ICAO-KFCH|6.0||1|FM15-METAR|223|ICAO-KFCH|||||||||||||999|V-Variable|9|FM15-METAR|223|ICAO-KFCH|2.6|V-Variable|1|FM15-METAR|223|ICAO-KFCH|6.2||1|FM15-METAR|223|ICAO-KFCH|||||||13|Derived||FM15-METAR|223|ICAO-KFCH|||||||||||||||||||||||||||||||||||||||||||||||||||||||||||||||||||||||||1010.5||1|FM15-METAR|223|ICAO-KFCH|||||||||||||||||||||||||||||||||||||||||||MET064METAR KFCH 042215Z AUTO VRB05G12KT 10SM CLR 39/06 A2984 RMK A01=||F||223|ICAO-KFCH
USW00023167|FRESNO CHANDLER DWTN AP|2021|08|04|22|35|36.7333|-119.8167|84.1|39.0||1|FM15-METAR|223|ICAO-KFCH|8.0||1|FM15-METAR|223|ICAO-KFCH|||||||||||||290|N-Normal|1|FM15-METAR|223|ICAO-KFCH|5.1|N-Normal|1|FM15-METAR|223|ICAO-KFCH|7.7||1|FM15-METAR|223|ICAO-KFCH|||||||15|Derived||FM15-METAR|223|ICAO-KFCH|||||||||||||||||||||||||||||||||||||||||||||||||||||||||||||||||||||||||1010.2||1|FM15-METAR|223|ICAO-KFCH|||||||||||||||||||||||||||||||||||||||||||MET064METAR KFCH 042235Z AUTO 29010G15KT 10SM CLR 39/08 A2983 RMK A01=||F||223|ICAO-KFCH
USW00023167|FRESNO CHANDLER DWTN AP|2021|08|04|22|55|36.7333|-119.8167|84.1|40.0||1|FM15-METAR|223|ICAO-KFCH|6.0||1|FM15-METAR|223|ICAO-KFCH|||||||||||||320|N-Normal|1|FM15-METAR|223|ICAO-KFCH|2.6|N-Normal|1|FM15-METAR|223|ICAO-KFCH|6.7||1|FM15-METAR|223|ICAO-KFCH|||||||12|Derived||FM15-METAR|223|ICAO-KFCH|||||||||||||||||||||||||||||||||||||||||||||||||||||||||||||||||||||||||1009.8||1|FM15-METAR|223|ICAO-KFCH|||||||||||||||||||||||||||||||||||||||||||MET064METAR KFCH 042255Z AUTO 32005G13KT 10SM CLR 40/06 A2982 RMK A01=||F||223|ICAO-KFCH
USW00023167|FRESNO CHANDLER DWTN AP|2021|08|04|23|15|36.7333|-119.8167|84.1|40.0||1|FM15-METAR|223|ICAO-KFCH|6.0||1|FM15-METAR|223|ICAO-KFCH|||||||||||||310|N-Normal|1|FM15-METAR|223|ICAO-KFCH|5.7|N-Normal|1|FM15-METAR|223|ICAO-KFCH|||||||||||||12|Derived||FM15-METAR|223|ICAO-KFCH|||||||||||||||||||||||||||||||||||||||||||||||||||||||||||||||||||||||||1009.8||1|FM15-METAR|223|ICAO-KFCH|||||||||||||||||||||||||||||||||||||||||||MET061METAR KFCH 042315Z AUTO 31011KT 10SM CLR 40/06 A2982 RMK A01=||F||223|ICAO-KFCH
USW00023167|FRESNO CHANDLER DWTN AP|2021|08|04|23|35|36.7333|-119.8167|84.1|40.0||1|FM15-METAR|223|ICAO-KFCH|5.0||1|FM15-METAR|223|ICAO-KFCH|||||||||||||330|N-Normal|1|FM15-METAR|223|ICAO-KFCH|5.7|N-Normal|1|FM15-METAR|223|ICAO-KFCH|||||||||||||12|Derived||FM15-METAR|223|ICAO-KFCH|||||||||||||||||||||||||||||||||||||||||||||||||||||||||||||||||||||||||1009.5||1|FM15-METAR|223|ICAO-KFCH|||||||||||||||||||||||||||||||||||||||||||MET061METAR KFCH 042335Z AUTO 33011KT 10SM CLR 40/05 A2981 RMK A01=||F||223|ICAO-KFCH
USW00023167|FRESNO CHANDLER DWTN AP|2021|08|04|23|55|36.7333|-119.8167|84.1|40.0||1|FM15-METAR|223|ICAO-KFCH|4.0||1|FM15-METAR|223|ICAO-KFCH|||||||||||||310|N-Normal|1|FM15-METAR|223|ICAO-KFCH|5.1|N-Normal|1|FM15-METAR|223|ICAO-KFCH|8.2||1|FM15-METAR|223|ICAO-KFCH|||||||11|Derived||FM15-METAR|223|ICAO-KFCH|||||||||||||||||||||||||||||||||||||||||||||||||||||||||||||||||||||||||1009.5||1|FM15-METAR|223|ICAO-KFCH|||||||||||||||||||||||||||||||||||||||||||MET064METAR KFCH 042355Z AUTO 31010G16KT 10SM CLR 40/04 A2981 RMK A01=||F||223|ICAO-KFCH
USW00023167|FRESNO CHANDLER DWTN AP|2021|08|05|00|15|36.7333|-119.8167|84.1|40.0||1|FM15-METAR|223|ICAO-KFCH|4.0||1|FM15-METAR|223|ICAO-KFCH|||||||||||||320|N-Normal|1|FM15-METAR|223|ICAO-KFCH|5.7|N-Normal|1|FM15-METAR|223|ICAO-KFCH|||||||||||||11|Derived||FM15-METAR|223|ICAO-KFCH|||||||||||||||||||||||||||||||||||||||||||||||||||||||||||||||||||||||||1009.5||1|FM15-METAR|223|ICAO-KFCH|||||||||||||||||||||||||||||||||||||||||||MET061METAR KFCH 050015Z AUTO 32011KT 10SM CLR 40/04 A2981 RMK A01=||F||223|ICAO-KFCH
USW00023167|FRESNO CHANDLER DWTN AP|2021|08|05|00|35|36.7333|-119.8167|84.1|40.0||1|FM15-METAR|223|ICAO-KFCH|5.0||1|FM15-METAR|223|ICAO-KFCH|||||||||||||310|N-Normal|1|FM15-METAR|223|ICAO-KFCH|5.7|N-Normal|1|FM15-METAR|223|ICAO-KFCH|8.2||1|FM15-METAR|223|ICAO-KFCH|||||||12|Derived||FM15-METAR|223|ICAO-KFCH|||||||||||||||||||||||||||||||||||||||||||||||||||||||||||||||||||||||||1009.5||1|FM15-METAR|223|ICAO-KFCH|||||||||||||||||||||||||||||||||||||||||||MET064METAR KFCH 050035Z AUTO 31011G16KT 10SM CLR 40/05 A2981 RMK A01=||F||223|ICAO-KFCH
USW00023167|FRESNO CHANDLER DWTN AP|2021|08|05|00|55|36.7333|-119.8167|84.1|39.0||1|FM15-METAR|223|ICAO-KFCH|7.0||1|FM15-METAR|223|ICAO-KFCH|||||||||||||310|N-Normal|1|FM15-METAR|223|ICAO-KFCH|7.2|N-Normal|1|FM15-METAR|223|ICAO-KFCH|||||||||||||14|Derived||FM15-METAR|223|ICAO-KFCH|||||||||||||||||||||||||||||||||||||||||||||||||||||||||||||||||||||||||1009.1||1|FM15-METAR|223|ICAO-KFCH|||||||||||||||||||||||||||||||||||||||||||MET061METAR KFCH 050055Z AUTO 31014KT 10SM CLR 39/07 A2980 RMK A01=||F||223|ICAO-KFCH
USW00023167|FRESNO CHANDLER DWTN AP|2021|08|05|01|15|36.7333|-119.8167|84.1|39.0||1|FM15-METAR|223|ICAO-KFCH|8.0||1|FM15-METAR|223|ICAO-KFCH|||||||||||||310|N-Normal|1|FM15-METAR|223|ICAO-KFCH|6.7|N-Normal|1|FM15-METAR|223|ICAO-KFCH|||||||||||||15|Derived||FM15-METAR|223|ICAO-KFCH|||||||||||||||||||||||||||||||||||||||||||||||||||||||||||||||||||||||||1009.1||1|FM15-METAR|223|ICAO-KFCH|||||||||||||||||||||||||||||||||||||||||||MET061METAR KFCH 050115Z AUTO 31013KT 10SM CLR 39/08 A2980 RMK A01=||F||223|ICAO-KFCH
USW00023167|FRESNO CHANDLER DWTN AP|2021|08|05|01|35|36.7333|-119.8167|84.1|38.0||1|FM15-METAR|223|ICAO-KFCH|9.0||1|FM15-METAR|223|ICAO-KFCH|||||||||||||310|N-Normal|1|FM15-METAR|223|ICAO-KFCH|5.7|N-Normal|1|FM15-METAR|223|ICAO-KFCH|||||||||||||17|Derived||FM15-METAR|223|ICAO-KFCH|||||||||||||||||||||||||||||||||||||||||||||||||||||||||||||||||||||||||1009.1||1|FM15-METAR|223|ICAO-KFCH|||||||||||||||||||||||||||||||||||||||||||MET061METAR KFCH 050135Z AUTO 31011KT 10SM CLR 38/09 A2980 RMK A01=||F||223|ICAO-KFCH
USW00023167|FRESNO CHANDLER DWTN AP|2021|08|05|01|55|36.7333|-119.8167|84.1|37.0||1|FM15-METAR|223|ICAO-KFCH|10.0||1|FM15-METAR|223|ICAO-KFCH|||||||||||||310|N-Normal|1|FM15-METAR|223|ICAO-KFCH|6.7|N-Normal|1|FM15-METAR|223|ICAO-KFCH|9.8||1|FM15-METAR|223|ICAO-KFCH|||||||19|Derived||FM15-METAR|223|ICAO-KFCH|||||||||||||||||||||||||||||||||||||||||||||||||||||||||||||||||||||||||1009.5||1|FM15-METAR|223|ICAO-KFCH|||||||||||||||||||||||||||||||||||||||||||MET064METAR KFCH 050155Z AUTO 31013G19KT 10SM CLR 37/10 A2981 RMK A01=||F||223|ICAO-KFCH
USW00023167|FRESNO CHANDLER DWTN AP|2021|08|05|02|15|36.7333|-119.8167|84.1|36.0||1|FM15-METAR|223|ICAO-KFCH|11.0||1|FM15-METAR|223|ICAO-KFCH|||||||||||||290|N-Normal|1|FM15-METAR|223|ICAO-KFCH|7.2|N-Normal|1|FM15-METAR|223|ICAO-KFCH|||||||||||||22|Derived||FM15-METAR|223|ICAO-KFCH|||||||||||||||||||||||||||||||||||||||||||||||||||||||||||||||||||||||||1009.5||1|FM15-METAR|223|ICAO-KFCH|||||||||||||||||||||||||||||||||||||||||||MET061METAR KFCH 050215Z AUTO 29014KT 10SM CLR 36/11 A2981 RMK A01=||F||223|ICAO-KFCH
USW00023167|FRESNO CHANDLER DWTN AP|2021|08|05|02|35|36.7333|-119.8167|84.1|35.0||1|FM15-METAR|223|ICAO-KFCH|10.0||1|FM15-METAR|223|ICAO-KFCH|||||||||||||300|N-Normal|1|FM15-METAR|223|ICAO-KFCH|7.2|N-Normal|1|FM15-METAR|223|ICAO-KFCH|||||||||||||22|Derived||FM15-METAR|223|ICAO-KFCH|||||||||||||||||||||||||||||||||||||||||||||||||||||||||||||||||||||||||1009.8||1|FM15-METAR|223|ICAO-KFCH|||||||||||||||||||||||||||||||||||||||||||MET061METAR KFCH 050235Z AUTO 30014KT 10SM CLR 35/10 A2982 RMK A01=||F||223|ICAO-KFCH
USW00023167|FRESNO CHANDLER DWTN AP|2021|08|05|02|55|36.7333|-119.8167|84.1|35.0||1|FM15-METAR|223|ICAO-KFCH|8.0||1|FM15-METAR|223|ICAO-KFCH|||||||||||||310|N-Normal|1|FM15-METAR|223|ICAO-KFCH|3.6|N-Normal|1|FM15-METAR|223|ICAO-KFCH|7.2||1|FM15-METAR|223|ICAO-KFCH|||||||19|Derived||FM15-METAR|223|ICAO-KFCH|||||||||||||||||||||||||||||||||||||||||||||||||||||||||||||||||||||||||1009.8||1|FM15-METAR|223|ICAO-KFCH|||||||||||||||||||||||||||||||||||||||||||MET064METAR KFCH 050255Z AUTO 31007G14KT 10SM CLR 35/08 A2982 RMK A01=||F||223|ICAO-KFCH
USW00023167|FRESNO CHANDLER DWTN AP|2021|08|05|03|15|36.7333|-119.8167|84.1|34.0||1|FM15-METAR|223|ICAO-KFCH|9.0||1|FM15-METAR|223|ICAO-KFCH|||||||||||||300|N-Normal|1|FM15-METAR|223|ICAO-KFCH|6.2|N-Normal|1|FM15-METAR|223|ICAO-KFCH|||||||||||||21|Derived||FM15-METAR|223|ICAO-KFCH|||||||||||||||||||||||||||||||||||||||||||||||||||||||||||||||||||||||||1009.8||1|FM15-METAR|223|ICAO-KFCH|||||||||||||||||||||||||||||||||||||||||||MET061METAR KFCH 050315Z AUTO 30012KT 10SM CLR 34/09 A2982 RMK A01=||F||223|ICAO-KFCH
USW00023167|FRESNO CHANDLER DWTN AP|2021|08|05|03|35|36.7333|-119.8167|84.1|33.0||1|FM15-METAR|223|ICAO-KFCH|11.0||1|FM15-METAR|223|ICAO-KFCH|||||||||||||310|N-Normal|1|FM15-METAR|223|ICAO-KFCH|5.1|N-Normal|1|FM15-METAR|223|ICAO-KFCH|||||||||||||26|Derived||FM15-METAR|223|ICAO-KFCH|||||||||||||||||||||||||||||||||||||||||||||||||||||||||||||||||||||||||1010.2||1|FM15-METAR|223|ICAO-KFCH|||||||||||||||||||||||||||||||||||||||||||MET061METAR KFCH 050335Z AUTO 31010KT 10SM CLR 33/11 A2983 RMK A01=||F||223|ICAO-KFCH
USW00023167|FRESNO CHANDLER DWTN AP|2021|08|05|03|55|36.7333|-119.8167|84.1|33.0||1|FM15-METAR|223|ICAO-KFCH|7.0||1|FM15-METAR|223|ICAO-KFCH|||||||||||||320|N-Normal|1|FM15-METAR|223|ICAO-KFCH|6.2|N-Normal|1|FM15-METAR|223|ICAO-KFCH|||||||||||||20|Derived||FM15-METAR|223|ICAO-KFCH|||||||||||||||||||||||||||||||||||||||||||||||||||||||||||||||||||||||||1010.5||1|FM15-METAR|223|ICAO-KFCH|||||||||||||||||||||||||||||||||||||||||||MET061METAR KFCH 050355Z AUTO 32012KT 10SM CLR 33/07 A2984 RMK A01=||F||223|ICAO-KFCH
USW00023167|FRESNO CHANDLER DWTN AP|2021|08|05|04|15|36.7333|-119.8167|84.1|31.0||1|FM15-METAR|223|ICAO-KFCH|10.0||1|FM15-METAR|223|ICAO-KFCH|||||||||||||310|N-Normal|1|FM15-METAR|223|ICAO-KFCH|5.1|N-Normal|1|FM15-METAR|223|ICAO-KFCH|||||||||||||27|Derived||FM15-METAR|223|ICAO-KFCH|||||||||||||||||||||||||||||||||||||||||||||||||||||||||||||||||||||||||1010.8||1|FM15-METAR|223|ICAO-KFCH|||||||||||||||||||||||||||||||||||||||||||MET061METAR KFCH 050415Z AUTO 31010KT 10SM CLR 31/10 A2985 RMK A01=||F||223|ICAO-KFCH
USW00023167|FRESNO CHANDLER DWTN AP|2021|08|05|04|35|36.7333|-119.8167|84.1|31.0||1|FM15-METAR|223|ICAO-KFCH|10.0||1|FM15-METAR|223|ICAO-KFCH|||||||||||||320|N-Normal|1|FM15-METAR|223|ICAO-KFCH|5.7|N-Normal|1|FM15-METAR|223|ICAO-KFCH|||||||||||||27|Derived||FM15-METAR|223|ICAO-KFCH|||||||||||||||||||||||||||||||||||||||||||||||||||||||||||||||||||||||||1011.2||1|FM15-METAR|223|ICAO-KFCH|||||||||||||||||||||||||||||||||||||||||||MET061METAR KFCH 050435Z AUTO 32011KT 10SM CLR 31/10 A2986 RMK A01=||F||223|ICAO-KFCH
USW00023167|FRESNO CHANDLER DWTN AP|2021|08|05|04|55|36.7333|-119.8167|84.1|30.0||1|FM15-METAR|223|ICAO-KFCH|10.0||1|FM15-METAR|223|ICAO-KFCH|||||||||||||320|N-Normal|1|FM15-METAR|223|ICAO-KFCH|5.1|N-Normal|1|FM15-METAR|223|ICAO-KFCH|||||||||||||29|Derived||FM15-METAR|223|ICAO-KFCH|||||||||||||||||||||||||||||||||||||||||||||||||||||||||||||||||||||||||1011.5||1|FM15-METAR|223|ICAO-KFCH|||||||||||||||||||||||||||||||||||||||||||MET061METAR KFCH 050455Z AUTO 32010KT 10SM CLR 30/10 A2987 RMK A01=||F||223|ICAO-KFCH
USW00023167|FRESNO CHANDLER DWTN AP|2021|08|05|05|15|36.7333|-119.8167|84.1|30.0||1|FM15-METAR|223|ICAO-KFCH|10.0||1|FM15-METAR|223|ICAO-KFCH|||||||||||||310|N-Normal|1|FM15-METAR|223|ICAO-KFCH|6.2|N-Normal|1|FM15-METAR|223|ICAO-KFCH|||||||||||||29|Derived||FM15-METAR|223|ICAO-KFCH|||||||||||||||||||||||||||||||||||||||||||||||||||||||||||||||||||||||||1011.5||1|FM15-METAR|223|ICAO-KFCH|||||||||||||||||||||||||||||||||||||||||||MET061METAR KFCH 050515Z AUTO 31012KT 10SM CLR 30/10 A2987 RMK A01=||F||223|ICAO-KFCH
USW00023167|FRESNO CHANDLER DWTN AP|2021|08|05|05|35|36.7333|-119.8167|84.1|29.0||1|FM15-METAR|223|ICAO-KFCH|10.0||1|FM15-METAR|223|ICAO-KFCH|||||||||||||310|N-Normal|1|FM15-METAR|223|ICAO-KFCH|5.1|N-Normal|1|FM15-METAR|223|ICAO-KFCH|8.8||1|FM15-METAR|223|ICAO-KFCH|||||||31|Derived||FM15-METAR|223|ICAO-KFCH|||||||||||||||||||||||||||||||||||||||||||||||||||||||||||||||||||||||||1011.5||1|FM15-METAR|223|ICAO-KFCH|||||||||||||||||||||||||||||||||||||||||||MET064METAR KFCH 050535Z AUTO 31010G17KT 10SM CLR 29/10 A2987 RMK A01=||F||223|ICAO-KFCH
USW00023167|FRESNO CHANDLER DWTN AP|2021|08|05|05|55|36.7333|-119.8167|84.1|28.0||1|FM15-METAR|223|ICAO-KFCH|12.0||1|FM15-METAR|223|ICAO-KFCH|||||||||||||300|N-Normal|1|FM15-METAR|223|ICAO-KFCH|4.6|N-Normal|1|FM15-METAR|223|ICAO-KFCH|||||||||||||37|Derived||FM15-METAR|223|ICAO-KFCH|||||||||||||||||||||||||||||||||||||||||||||||||||||||||||||||||||||||||1011.5||1|FM15-METAR|223|ICAO-KFCH|||||||||||||||||||||||||||||||||||||||||||MET061METAR KFCH 050555Z AUTO 30009KT 10SM CLR 28/12 A2987 RMK A01=||F||223|ICAO-KFCH
USW00023167|FRESNO CHANDLER DWTN AP|2021|08|05|06|15|36.7333|-119.8167|84.1|27.0||1|FM15-METAR|223|ICAO-KFCH|12.0||1|FM15-METAR|223|ICAO-KFCH|||||||||||||300|N-Normal|1|FM15-METAR|223|ICAO-KFCH|5.7|N-Normal|1|FM15-METAR|223|ICAO-KFCH|||||||||||||39|Derived||FM15-METAR|223|ICAO-KFCH|||||||||||||||||||||||||||||||||||||||||||||||||||||||||||||||||||||||||1011.5||1|FM15-METAR|223|ICAO-KFCH|||||||||||||||||||||||||||||||||||||||||||MET061METAR KFCH 050615Z AUTO 30011KT 10SM CLR 27/12 A2987 RMK A01=||F||223|ICAO-KFCH
USW00023167|FRESNO CHANDLER DWTN AP|2021|08|05|06|35|36.7333|-119.8167|84.1|26.0||1|FM15-METAR|223|ICAO-KFCH|11.0||1|FM15-METAR|223|ICAO-KFCH|||||||||||||300|N-Normal|1|FM15-METAR|223|ICAO-KFCH|5.7|N-Normal|1|FM15-METAR|223|ICAO-KFCH|||||||||||||39|Derived||FM15-METAR|223|ICAO-KFCH|||||||||||||||||||||||||||||||||||||||||||||||||||||||||||||||||||||||||1011.5||1|FM15-METAR|223|ICAO-KFCH|||||||||||||||||||||||||||||||||||||||||||MET061METAR KFCH 050635Z AUTO 30011KT 10SM CLR 26/11 A2987 RMK A01=||F||223|ICAO-KFCH
USW00023167|FRESNO CHANDLER DWTN AP|2021|08|05|06|55|36.7333|-119.8167|84.1|26.0||1|FM15-METAR|223|ICAO-KFCH|10.0||1|FM15-METAR|223|ICAO-KFCH|||||||||||||310|N-Normal|1|FM15-METAR|223|ICAO-KFCH|5.7|N-Normal|1|FM15-METAR|223|ICAO-KFCH|||||||||||||37|Derived||FM15-METAR|223|ICAO-KFCH|||||||||||||||||||||||||||||||||||||||||||||||||||||||||||||||||||||||||1011.5||1|FM15-METAR|223|ICAO-KFCH|||||||||||||||||||||||||||||||||||||||||||MET061METAR KFCH 050655Z AUTO 31011KT 10SM CLR 26/10 A2987 RMK A01=||F||223|ICAO-KFCH
USW00023167|FRESNO CHANDLER DWTN AP|2021|08|05|07|15|36.7333|-119.8167|84.1|25.0||1|FM15-METAR|223|ICAO-KFCH|10.0||1|FM15-METAR|223|ICAO-KFCH|||||||||||||310|N-Normal|1|FM15-METAR|223|ICAO-KFCH|4.1|N-Normal|1|FM15-METAR|223|ICAO-KFCH|||||||||||||39|Derived||FM15-METAR|223|ICAO-KFCH|||||||||||||||||||||||||||||||||||||||||||||||||||||||||||||||||||||||||1011.5||1|FM15-METAR|223|ICAO-KFCH|||||||||||||||||||||||||||||||||||||||||||MET061METAR KFCH 050715Z AUTO 31008KT 10SM CLR 25/10 A2987 RMK A01=||F||223|ICAO-KFCH
USW00023167|FRESNO CHANDLER DWTN AP|2021|08|05|07|35|36.7333|-119.8167|84.1|25.0||1|FM15-METAR|223|ICAO-KFCH|10.0||1|FM15-METAR|223|ICAO-KFCH|||||||||||||310|N-Normal|1|FM15-METAR|223|ICAO-KFCH|4.6|N-Normal|1|FM15-METAR|223|ICAO-KFCH|||||||||||||39|Derived||FM15-METAR|223|ICAO-KFCH|||||||||||||||||||||||||||||||||||||||||||||||||||||||||||||||||||||||||1011.5||1|FM15-METAR|223|ICAO-KFCH|||||||||||||||||||||||||||||||||||||||||||MET061METAR KFCH 050735Z AUTO 31009KT 10SM CLR 25/10 A2987 RMK A01=||F||223|ICAO-KFCH
USW00023167|FRESNO CHANDLER DWTN AP|2021|08|05|07|55|36.7333|-119.8167|84.1|24.0||1|FM15-METAR|223|ICAO-KFCH|10.0||1|FM15-METAR|223|ICAO-KFCH|||||||||||||310|N-Normal|1|FM15-METAR|223|ICAO-KFCH|4.1|N-Normal|1|FM15-METAR|223|ICAO-KFCH|||||||||||||41|Derived||FM15-METAR|223|ICAO-KFCH|||||||||||||||||||||||||||||||||||||||||||||||||||||||||||||||||||||||||1011.5||1|FM15-METAR|223|ICAO-KFCH|||||||||||||||||||||||||||||||||||||||||||MET061METAR KFCH 050755Z AUTO 31008KT 10SM CLR 24/10 A2987 RMK A01=||F||223|ICAO-KFCH
USW00023167|FRESNO CHANDLER DWTN AP|2021|08|05|08|15|36.7333|-119.8167|84.1|24.0||1|FM15-METAR|223|ICAO-KFCH|10.0||1|FM15-METAR|223|ICAO-KFCH|||||||||||||300|N-Normal|1|FM15-METAR|223|ICAO-KFCH|5.1|N-Normal|1|FM15-METAR|223|ICAO-KFCH|||||||||||||41|Derived||FM15-METAR|223|ICAO-KFCH|||||||||||||||||||||||||||||||||||||||||||||||||||||||||||||||||||||||||1011.8||1|FM15-METAR|223|ICAO-KFCH|||||||||||||||||||||||||||||||||||||||||||MET061METAR KFCH 050815Z AUTO 30010KT 10SM CLR 24/10 A2988 RMK A01=||F||223|ICAO-KFCH
USW00023167|FRESNO CHANDLER DWTN AP|2021|08|05|08|35|36.7333|-119.8167|84.1|23.0||1|FM15-METAR|223|ICAO-KFCH|9.0||1|FM15-METAR|223|ICAO-KFCH|||||||||||||320|N-Normal|1|FM15-METAR|223|ICAO-KFCH|4.1|N-Normal|1|FM15-METAR|223|ICAO-KFCH|||||||||||||41|Derived||FM15-METAR|223|ICAO-KFCH|||||||||||||||||||||||||||||||||||||||||||||||||||||||||||||||||||||||||1011.8||1|FM15-METAR|223|ICAO-KFCH|||||||||||||||||||||||||||||||||||||||||||MET061METAR KFCH 050835Z AUTO 32008KT 10SM CLR 23/09 A2988 RMK A01=||F||223|ICAO-KFCH
USW00023167|FRESNO CHANDLER DWTN AP|2021|08|05|08|55|36.7333|-119.8167|84.1|23.0||1|FM15-METAR|223|ICAO-KFCH|9.0||1|FM15-METAR|223|ICAO-KFCH|||||||||||||310|N-Normal|1|FM15-METAR|223|ICAO-KFCH|4.6|N-Normal|1|FM15-METAR|223|ICAO-KFCH|||||||||||||41|Derived||FM15-METAR|223|ICAO-KFCH|||||||||||||||||||||||||||||||||||||||||||||||||||||||||||||||||||||||||1011.8||1|FM15-METAR|223|ICAO-KFCH|||||||||||||||||||||||||||||||||||||||||||MET061METAR KFCH 050855Z AUTO 31009KT 10SM CLR 23/09 A2988 RMK A01=||F||223|ICAO-KFCH
USW00023167|FRESNO CHANDLER DWTN AP|2021|08|05|09|15|36.7333|-119.8167|84.1|23.0||1|FM15-METAR|223|ICAO-KFCH|9.0||1|FM15-METAR|223|ICAO-KFCH|||||||||||||320|N-Normal|1|FM15-METAR|223|ICAO-KFCH|5.1|N-Normal|1|FM15-METAR|223|ICAO-KFCH|||||||||||||41|Derived||FM15-METAR|223|ICAO-KFCH|||||||||||||||||||||||||||||||||||||||||||||||||||||||||||||||||||||||||1011.8||1|FM15-METAR|223|ICAO-KFCH|||||||||||||||||||||||||||||||||||||||||||MET061METAR KFCH 050915Z AUTO 32010KT 10SM CLR 23/09 A2988 RMK A01=||F||223|ICAO-KFCH
USW00023167|FRESNO CHANDLER DWTN AP|2021|08|05|09|35|36.7333|-119.8167|84.1|23.0||1|FM15-METAR|223|ICAO-KFCH|8.0||1|FM15-METAR|223|ICAO-KFCH|||||||||||||310|N-Normal|1|FM15-METAR|223|ICAO-KFCH|3.1|N-Normal|1|FM15-METAR|223|ICAO-KFCH|6.2||1|FM15-METAR|223|ICAO-KFCH|||||||38|Derived||FM15-METAR|223|ICAO-KFCH|||||||||||||||||||||||||||||||||||||||||||||||||||||||||||||||||||||||||1012.2||1|FM15-METAR|223|ICAO-KFCH|||||||||||||||||||||||||||||||||||||||||||MET064METAR KFCH 050935Z AUTO 31006G12KT 10SM CLR 23/08 A2989 RMK A01=||F||223|ICAO-KFCH
USW00023167|FRESNO CHANDLER DWTN AP|2021|08|05|09|55|36.7333|-119.8167|84.1|22.0||1|FM15-METAR|223|ICAO-KFCH|9.0||1|FM15-METAR|223|ICAO-KFCH|||||||||||||310|N-Normal|1|FM15-METAR|223|ICAO-KFCH|3.1|N-Normal|1|FM15-METAR|223|ICAO-KFCH|||||||||||||44|Derived||FM15-METAR|223|ICAO-KFCH|||||||||||||||||||||||||||||||||||||||||||||||||||||||||||||||||||||||||1012.2||1|FM15-METAR|223|ICAO-KFCH|||||||||||||||||||||||||||||||||||||||||||MET061METAR KFCH 050955Z AUTO 31006KT 10SM CLR 22/09 A2989 RMK A01=||F||223|ICAO-KFCH
USW00023167|FRESNO CHANDLER DWTN AP|2021|08|05|10|15|36.7333|-119.8167|84.1|22.0||1|FM15-METAR|223|ICAO-KFCH|9.0||1|FM15-METAR|223|ICAO-KFCH|||||||||||||300|N-Normal|1|FM15-METAR|223|ICAO-KFCH|4.1|N-Normal|1|FM15-METAR|223|ICAO-KFCH|||||||||||||44|Derived||FM15-METAR|223|ICAO-KFCH|||||||||||||||||||||||||||||||||||||||||||||||||||||||||||||||||||||||||1012.2||1|FM15-METAR|223|ICAO-KFCH|||||||||||||||||||||||||||||||||||||||||||MET061METAR KFCH 051015Z AUTO 30008KT 10SM CLR 22/09 A2989 RMK A01=||F||223|ICAO-KFCH
USW00023167|FRESNO CHANDLER DWTN AP|2021|08|05|10|35|36.7333|-119.8167|84.1|21.0||1|FM15-METAR|223|ICAO-KFCH|9.0||1|FM15-METAR|223|ICAO-KFCH|||||||||||||300|N-Normal|1|FM15-METAR|223|ICAO-KFCH|4.1|N-Normal|1|FM15-METAR|223|ICAO-KFCH|||||||||||||46|Derived||FM15-METAR|223|ICAO-KFCH|||||||||||||||||||||||||||||||||||||||||||||||||||||||||||||||||||||||||1012.2||1|FM15-METAR|223|ICAO-KFCH|||||||||||||||||||||||||||||||||||||||||||MET064METAR KFCH 051035Z AUTO 30008KT 10SM FEW055 21/09 A2989 RMK A01=||F||223|ICAO-KFCH
USW00023167|FRESNO CHANDLER DWTN AP|2021|08|05|10|55|36.7333|-119.8167|84.1|20.0||1|FM15-METAR|223|ICAO-KFCH|9.0||1|FM15-METAR|223|ICAO-KFCH|||||||||||||310|N-Normal|1|FM15-METAR|223|ICAO-KFCH|2.6|N-Normal|1|FM15-METAR|223|ICAO-KFCH|||||||||||||49|Derived||FM15-METAR|223|ICAO-KFCH|||||||||||||||||||||||||||||||||||||||||||||||||||||||||||||||||||||||||1012.5||1|FM15-METAR|223|ICAO-KFCH|||||||||||||||||||||||||||||||||||||||||||MET064METAR KFCH 051055Z AUTO 31005KT 10SM FEW055 20/09 A2990 RMK A01=||F||223|ICAO-KFCH
USW00023167|FRESNO CHANDLER DWTN AP|2021|08|05|11|15|36.7333|-119.8167|84.1|20.0||1|FM15-METAR|223|ICAO-KFCH|10.0||1|FM15-METAR|223|ICAO-KFCH|||||||||||||300|N-Normal|1|FM15-METAR|223|ICAO-KFCH|3.6|N-Normal|1|FM15-METAR|223|ICAO-KFCH|||||||||||||53|Derived||FM15-METAR|223|ICAO-KFCH|||||||||||||||||||||||||||||||||||||||||||||||||||||||||||||||||||||||||1012.5||1|FM15-METAR|223|ICAO-KFCH|||||||||||||||||||||||||||||||||||||||||||MET061METAR KFCH 051115Z AUTO 30007KT 10SM CLR 20/10 A2990 RMK A01=||F||223|ICAO-KFCH
USW00023167|FRESNO CHANDLER DWTN AP|2021|08|05|11|35|36.7333|-119.8167|84.1|20.0||1|FM15-METAR|223|ICAO-KFCH|10.0||1|FM15-METAR|223|ICAO-KFCH|||||||||||||310|N-Normal|1|FM15-METAR|223|ICAO-KFCH|2.1|N-Normal|1|FM15-METAR|223|ICAO-KFCH|||||||||||||53|Derived||FM15-METAR|223|ICAO-KFCH|||||||||||||||||||||||||||||||||||||||||||||||||||||||||||||||||||||||||1012.9||1|FM15-METAR|223|ICAO-KFCH|||||||||||||||||||||||||||||||||||||||||||MET061METAR KFCH 051135Z AUTO 31004KT 10SM CLR 20/10 A2991 RMK A01=||F||223|ICAO-KFCH
USW00023167|FRESNO CHANDLER DWTN AP|2021|08|05|11|55|36.7333|-119.8167|84.1|20.0||1|FM15-METAR|223|ICAO-KFCH|10.0||1|FM15-METAR|223|ICAO-KFCH|||||||||||||320|N-Normal|1|FM15-METAR|223|ICAO-KFCH|2.1|N-Normal|1|FM15-METAR|223|ICAO-KFCH|||||||||||||53|Derived||FM15-METAR|223|ICAO-KFCH|||||||||||||||||||||||||||||||||||||||||||||||||||||||||||||||||||||||||1012.9||1|FM15-METAR|223|ICAO-KFCH|||||||||||||||||||||||||||||||||||||||||||MET061METAR KFCH 051155Z AUTO 32004KT 10SM CLR 20/10 A2991 RMK A01=||F||223|ICAO-KFCH
USW00023167|FRESNO CHANDLER DWTN AP|2021|08|05|12|10|36.7333|-119.8167|84.1|20.0||1|FM15-METAR|223|ICAO-KFCH|10.0||1|FM15-METAR|223|ICAO-KFCH|||||||||||||320|N-Normal|1|FM15-METAR|223|ICAO-KFCH|3.1|N-Normal|1|FM15-METAR|223|ICAO-KFCH|||||||||||||53|Derived||FM15-METAR|223|ICAO-KFCH|||||||||||||||||||||||||||||||||||||||||||||||||||||||||||||||||||||||||1012.9||1|FM15-METAR|223|ICAO-KFCH|||||||||||||||||||||||||||||||||||||||||||MET064METAR KFCH 051210Z AUTO 32006KT 10SM FEW050 20/10 A2991 RMK A01=||F||223|ICAO-KFCH
USW00023167|FRESNO CHANDLER DWTN AP|2021|08|05|12|35|36.7333|-119.8167|84.1|20.0||1|FM15-METAR|223|ICAO-KFCH|10.0||1|FM15-METAR|223|ICAO-KFCH|||||||||||||310|N-Normal|1|FM15-METAR|223|ICAO-KFCH|3.1|N-Normal|1|FM15-METAR|223|ICAO-KFCH|||||||||||||53|Derived||FM15-METAR|223|ICAO-KFCH|||||||||||||||||||||||||||||||||||||||||||||||||||||||||||||||||||||||||1013.2||1|FM15-METAR|223|ICAO-KFCH|||||||||||||||||||||||||||||||||||||||||||MET064METAR KFCH 051235Z AUTO 31006KT 10SM SCT050 20/10 A2992 RMK A01=||F||223|ICAO-KFCH
USW00023167|FRESNO CHANDLER DWTN AP|2021|08|05|12|50|36.7333|-119.8167|84.1|19.0||1|FM15-METAR|223|ICAO-KFCH|10.0||1|FM15-METAR|223|ICAO-KFCH|||||||||||||300|N-Normal|1|FM15-METAR|223|ICAO-KFCH|2.6|N-Normal|1|FM15-METAR|223|ICAO-KFCH|||||||||||||56|Derived||FM15-METAR|223|ICAO-KFCH|||||||||||||||||||||||||||||||||||||||||||||||||||||||||||||||||||||||||1013.2||1|FM15-METAR|223|ICAO-KFCH|||||||||||||||||||||||||||||||||||||||||||MET064METAR KFCH 051250Z AUTO 30005KT 10SM SCT050 19/10 A2992 RMK A01=||F||223|ICAO-KFCH
USW00023167|FRESNO CHANDLER DWTN AP|2021|08|05|13|15|36.7333|-119.8167|84.1|19.0||1|FM15-METAR|223|ICAO-KFCH|10.0||1|FM15-METAR|223|ICAO-KFCH|||||||||||||300|N-Normal|1|FM15-METAR|223|ICAO-KFCH|2.1|N-Normal|1|FM15-METAR|223|ICAO-KFCH|||||||||||||56|Derived||FM15-METAR|223|ICAO-KFCH|||||||||||||||||||||||||||||||||||||||||||||||||||||||||||||||||||||||||1013.5||1|FM15-METAR|223|ICAO-KFCH|||||||||||||||||||||||||||||||||||||||||||MET061METAR KFCH 051315Z AUTO 30004KT 10SM CLR 19/10 A2993 RMK A01=||F||223|ICAO-KFCH
USW00023167|FRESNO CHANDLER DWTN AP|2021|08|05|13|35|36.7333|-119.8167|84.1|19.0||1|FM15-METAR|223|ICAO-KFCH|10.0||1|FM15-METAR|223|ICAO-KFCH|||||||||||||290|N-Normal|1|FM15-METAR|223|ICAO-KFCH|3.6|N-Normal|1|FM15-METAR|223|ICAO-KFCH|||||||||||||56|Derived||FM15-METAR|223|ICAO-KFCH|||||||||||||||||||||||||||||||||||||||||||||||||||||||||||||||||||||||||1013.9||1|FM15-METAR|223|ICAO-KFCH|||||||||||||||||||||||||||||||||||||||||||MET061METAR KFCH 051335Z AUTO 29007KT 10SM CLR 19/10 A2994 RMK A01=||F||223|ICAO-KFCH
USW00023167|FRESNO CHANDLER DWTN AP|2021|08|05|13|55|36.7333|-119.8167|84.1|19.0||1|FM15-METAR|223|ICAO-KFCH|10.0||1|FM15-METAR|223|ICAO-KFCH|||||||||||||300|N-Normal|1|FM15-METAR|223|ICAO-KFCH|3.6|N-Normal|1|FM15-METAR|223|ICAO-KFCH|||||||||||||56|Derived||FM15-METAR|223|ICAO-KFCH|||||||||||||||||||||||||||||||||||||||||||||||||||||||||||||||||||||||||1014.2||1|FM15-METAR|223|ICAO-KFCH|||||||||||||||||||||||||||||||||||||||||||MET061METAR KFCH 051355Z AUTO 30007KT 10SM CLR 19/10 A2995 RMK A01=||F||223|ICAO-KFCH
USW00023167|FRESNO CHANDLER DWTN AP|2021|08|05|14|15|36.7333|-119.8167|84.1|20.0||1|FM15-METAR|223|ICAO-KFCH|10.0||1|FM15-METAR|223|ICAO-KFCH|||||||||||||999|C-Calm|9|FM15-METAR|223|ICAO-KFCH|0.0|C-Calm|1|FM15-METAR|223|ICAO-KFCH|||||||||||||53|Derived||FM15-METAR|223|ICAO-KFCH|||||||||||||||||||||||||||||||||||||||||||||||||||||||||||||||||||||||||1014.2||1|FM15-METAR|223|ICAO-KFCH|||||||||||||||||||||||||||||||||||||||||||MET061METAR KFCH 051415Z AUTO 00000KT 10SM CLR 20/10 A2995 RMK A01=||F||223|ICAO-KFCH
USW00023167|FRESNO CHANDLER DWTN AP|2021|08|05|14|35|36.7333|-119.8167|84.1|21.0||1|FM15-METAR|223|ICAO-KFCH|10.0||1|FM15-METAR|223|ICAO-KFCH|||||||||||||320|N-Normal|1|FM15-METAR|223|ICAO-KFCH|2.1|N-Normal|1|FM15-METAR|223|ICAO-KFCH|||||||||||||50|Derived||FM15-METAR|223|ICAO-KFCH|||||||||||||||||||||||||||||||||||||||||||||||||||||||||||||||||||||||||1014.6||1|FM15-METAR|223|ICAO-KFCH|||||||||||||||||||||||||||||||||||||||||||MET061METAR KFCH 051435Z AUTO 32004KT 10SM CLR 21/10 A2996 RMK A01=||F||223|ICAO-KFCH
USW00023167|FRESNO CHANDLER DWTN AP|2021|08|05|14|55|36.7333|-119.8167|84.1|22.0||1|FM15-METAR|223|ICAO-KFCH|10.0||1|FM15-METAR|223|ICAO-KFCH|||||||||||||340|N-Normal|1|FM15-METAR|223|ICAO-KFCH|2.1|N-Normal|1|FM15-METAR|223|ICAO-KFCH|||||||||||||47|Derived||FM15-METAR|223|ICAO-KFCH|||||||||||||||||||||||||||||||||||||||||||||||||||||||||||||||||||||||||1014.6||1|FM15-METAR|223|ICAO-KFCH|||||||||||||||||||||||||||||||||||||||||||MET061METAR KFCH 051455Z AUTO 34004KT 10SM CLR 22/10 A2996 RMK A01=||F||223|ICAO-KFCH
USW00023167|FRESNO CHANDLER DWTN AP|2021|08|05|15|15|36.7333|-119.8167|84.1|23.0||1|FM15-METAR|223|ICAO-KFCH|10.0||1|FM15-METAR|223|ICAO-KFCH|||||||||||||310|N-Normal|1|FM15-METAR|223|ICAO-KFCH|2.6|N-Normal|1|FM15-METAR|223|ICAO-KFCH|||||||||||||44|Derived||FM15-METAR|223|ICAO-KFCH|||||||||||||||||||||||||||||||||||||||||||||||||||||||||||||||||||||||||1014.9||1|FM15-METAR|223|ICAO-KFCH|||||||||||||||||||||||||||||||||||||||||||MET061METAR KFCH 051515Z AUTO 31005KT 10SM CLR 23/10 A2997 RMK A01=||F||223|ICAO-KFCH
USW00023167|FRESNO CHANDLER DWTN AP|2021|08|05|15|30|36.7333|-119.8167|84.1|23.0||1|FM15-METAR|223|ICAO-KFCH|9.0||1|FM15-METAR|223|ICAO-KFCH|||||||||||||320|N-Normal|1|FM15-METAR|223|ICAO-KFCH|3.1|N-Normal|1|FM15-METAR|223|ICAO-KFCH|||||||||||||41|Derived||FM15-METAR|223|ICAO-KFCH|||||||||||||||||||||||||||||||||||||||||||||||||||||||||||||||||||||||||1014.9||1|FM15-METAR|223|ICAO-KFCH|||||||||||||||||||||||||||||||||||||||||||MET061METAR KFCH 051530Z AUTO 32006KT 10SM CLR 23/09 A2997 RMK A01=||F||223|ICAO-KFCH
USW00023167|FRESNO CHANDLER DWTN AP|2021|08|05|15|50|36.7333|-119.8167|84.1|24.0||1|FM15-METAR|223|ICAO-KFCH|10.0||1|FM15-METAR|223|ICAO-KFCH|||||||||||||300|N-Normal|1|FM15-METAR|223|ICAO-KFCH|3.1|N-Normal|1|FM15-METAR|223|ICAO-KFCH|||||||||||||41|Derived||FM15-METAR|223|ICAO-KFCH|||||||||||||||||||||||||||||||||||||||||||||||||||||||||||||||||||||||||1014.9||1|FM15-METAR|223|ICAO-KFCH|||||||||||||||||||||||||||||||||||||||||||MET061METAR KFCH 051550Z AUTO 30006KT 10SM CLR 24/10 A2997 RMK A01=||F||223|ICAO-KFCH
USW00023167|FRESNO CHANDLER DWTN AP|2021|08|05|16|15|36.7333|-119.8167|84.1|25.0||1|FM15-METAR|223|ICAO-KFCH|10.0||1|FM15-METAR|223|ICAO-KFCH|||||||||||||300|N-Normal|1|FM15-METAR|223|ICAO-KFCH|4.1|N-Normal|1|FM15-METAR|223|ICAO-KFCH|||||||||||||39|Derived||FM15-METAR|223|ICAO-KFCH|||||||||||||||||||||||||||||||||||||||||||||||||||||||||||||||||||||||||1015.2||1|FM15-METAR|223|ICAO-KFCH|||||||||||||||||||||||||||||||||||||||||||MET061METAR KFCH 051615Z AUTO 30008KT 10SM CLR 25/10 A2998 RMK A01=||F||223|ICAO-KFCH
USW00023167|FRESNO CHANDLER DWTN AP|2021|08|05|16|35|36.7333|-119.8167|84.1|25.0||1|FM15-METAR|223|ICAO-KFCH|10.0||1|FM15-METAR|223|ICAO-KFCH|||||||||||||340|N-Normal|1|FM15-METAR|223|ICAO-KFCH|3.6|N-Normal|1|FM15-METAR|223|ICAO-KFCH|||||||||||||39|Derived||FM15-METAR|223|ICAO-KFCH|||||||||||||||||||||||||||||||||||||||||||||||||||||||||||||||||||||||||1015.2||1|FM15-METAR|223|ICAO-KFCH|||||||||||||||||||||||||||||||||||||||||||MET061METAR KFCH 051635Z AUTO 34007KT 10SM CLR 25/10 A2998 RMK A01=||F||223|ICAO-KFCH
USW00023167|FRESNO CHANDLER DWTN AP|2021|08|05|16|55|36.7333|-119.8167|84.1|27.0||1|FM15-METAR|223|ICAO-KFCH|9.0||1|FM15-METAR|223|ICAO-KFCH|||||||||||||330|N-Normal|1|FM15-METAR|223|ICAO-KFCH|2.6|N-Normal|1|FM15-METAR|223|ICAO-KFCH|||||||||||||32|Derived||FM15-METAR|223|ICAO-KFCH|||||||||||||||||||||||||||||||||||||||||||||||||||||||||||||||||||||||||1014.9||1|FM15-METAR|223|ICAO-KFCH|||||||||||||||||||||||||||||||||||||||||||MET061METAR KFCH 051655Z AUTO 33005KT 10SM CLR 27/09 A2997 RMK A01=||F||223|ICAO-KFCH
USW00023167|FRESNO CHANDLER DWTN AP|2021|08|05|17|15|36.7333|-119.8167|84.1|27.0||1|FM15-METAR|223|ICAO-KFCH|9.0||1|FM15-METAR|223|ICAO-KFCH|||||||||||||999|V-Variable|9|FM15-METAR|223|ICAO-KFCH|3.1|V-Variable|1|FM15-METAR|223|ICAO-KFCH|5.7||1|FM15-METAR|223|ICAO-KFCH|||||||32|Derived||FM15-METAR|223|ICAO-KFCH|||||||||||||||||||||||||||||||||||||||||||||||||||||||||||||||||||||||||1014.9||1|FM15-METAR|223|ICAO-KFCH|||||||||||||||||||||||||||||||||||||||||||MET064METAR KFCH 051715Z AUTO VRB06G11KT 10SM CLR 27/09 A2997 RMK A01=||F||223|ICAO-KFCH
USW00023167|FRESNO CHANDLER DWTN AP|2021|08|05|17|35|36.7333|-119.8167|84.1|28.0||1|FM15-METAR|223|ICAO-KFCH|9.0||1|FM15-METAR|223|ICAO-KFCH|||||||||||||290|N-Normal|1|FM15-METAR|223|ICAO-KFCH|3.6|N-Normal|1|FM15-METAR|223|ICAO-KFCH|||||||||||||30|Derived||FM15-METAR|223|ICAO-KFCH|||||||||||||||||||||||||||||||||||||||||||||||||||||||||||||||||||||||||1014.9||1|FM15-METAR|223|ICAO-KFCH|||||||||||||||||||||||||||||||||||||||||||MET061METAR KFCH 051735Z AUTO 29007KT 10SM CLR 28/09 A2997 RMK A01=||F||223|ICAO-KFCH
USW00023167|FRESNO CHANDLER DWTN AP|2021|08|05|17|55|36.7333|-119.8167|84.1|29.0||1|FM15-METAR|223|ICAO-KFCH|9.0||1|FM15-METAR|223|ICAO-KFCH|||||||||||||310|V-Variable|1|FM15-METAR|223|ICAO-KFCH|3.6|V-Variable|1|FM15-METAR|223|ICAO-KFCH|||||||||||||29|Derived||FM15-METAR|223|ICAO-KFCH|||||||||||||||||||||||||||||||||||||||||||||||||||||||||||||||||||||||||1014.9||1|FM15-METAR|223|ICAO-KFCH|||||||||||||||||||||||||||||||||||||||||||MET069METAR KFCH 051755Z AUTO 31007KT 280V350 10SM CLR 29/09 A2997 RMK A01=||F||223|ICAO-KFCH
USW00023167|FRESNO CHANDLER DWTN AP|2021|08|05|18|15|36.7333|-119.8167|84.1|29.0||1|FM15-METAR|223|ICAO-KFCH|8.0||1|FM15-METAR|223|ICAO-KFCH|||||||||||||290|N-Normal|1|FM15-METAR|223|ICAO-KFCH|5.1|N-Normal|1|FM15-METAR|223|ICAO-KFCH|||||||||||||27|Derived||FM15-METAR|223|ICAO-KFCH|||||||||||||||||||||||||||||||||||||||||||||||||||||||||||||||||||||||||1014.9||1|FM15-METAR|223|ICAO-KFCH|||||||||||||||||||||||||||||||||||||||||||MET061METAR KFCH 051815Z AUTO 29010KT 10SM CLR 29/08 A2997 RMK A01=||F||223|ICAO-KFCH
USW00023167|FRESNO CHANDLER DWTN AP|2021|08|05|18|35|36.7333|-119.8167|84.1|30.0||1|FM15-METAR|223|ICAO-KFCH|9.0||1|FM15-METAR|223|ICAO-KFCH|||||||||||||320|N-Normal|1|FM15-METAR|223|ICAO-KFCH|4.1|N-Normal|1|FM15-METAR|223|ICAO-KFCH|||||||||||||27|Derived||FM15-METAR|223|ICAO-KFCH|||||||||||||||||||||||||||||||||||||||||||||||||||||||||||||||||||||||||1014.9||1|FM15-METAR|223|ICAO-KFCH|||||||||||||||||||||||||||||||||||||||||||MET061METAR KFCH 051835Z AUTO 32008KT 10SM CLR 30/09 A2997 RMK A01=||F||223|ICAO-KFCH
USW00023167|FRESNO CHANDLER DWTN AP|2021|08|05|18|55|36.7333|-119.8167|84.1|31.0||1|FM15-METAR|223|ICAO-KFCH|7.0||1|FM15-METAR|223|ICAO-KFCH|||||||||||||300|N-Normal|1|FM15-METAR|223|ICAO-KFCH|5.7|N-Normal|1|FM15-METAR|223|ICAO-KFCH|||||||||||||22|Derived||FM15-METAR|223|ICAO-KFCH|||||||||||||||||||||||||||||||||||||||||||||||||||||||||||||||||||||||||1014.9||1|FM15-METAR|223|ICAO-KFCH|||||||||||||||||||||||||||||||||||||||||||MET061METAR KFCH 051855Z AUTO 30011KT 10SM CLR 31/07 A2997 RMK A01=||F||223|ICAO-KFCH
USW00023167|FRESNO CHANDLER DWTN AP|2021|08|05|19|15|36.7333|-119.8167|84.1|31.0||1|FM15-METAR|223|ICAO-KFCH|8.0||1|FM15-METAR|223|ICAO-KFCH|||||||||||||310|N-Normal|1|FM15-METAR|223|ICAO-KFCH|2.6|N-Normal|1|FM15-METAR|223|ICAO-KFCH|||||||||||||24|Derived||FM15-METAR|223|ICAO-KFCH|||||||||||||||||||||||||||||||||||||||||||||||||||||||||||||||||||||||||1014.6||1|FM15-METAR|223|ICAO-KFCH|||||||||||||||||||||||||||||||||||||||||||MET061METAR KFCH 051915Z AUTO 31005KT 10SM CLR 31/08 A2996 RMK A01=||F||223|ICAO-KFCH
USW00023167|FRESNO CHANDLER DWTN AP|2021|08|05|19|35|36.7333|-119.8167|84.1|32.0||1|FM15-METAR|223|ICAO-KFCH|5.0||1|FM15-METAR|223|ICAO-KFCH|||||||||||||360|N-Normal|1|FM15-METAR|223|ICAO-KFCH|3.6|N-Normal|1|FM15-METAR|223|ICAO-KFCH|||||||||||||18|Derived||FM15-METAR|223|ICAO-KFCH|||||||||||||||||||||||||||||||||||||||||||||||||||||||||||||||||||||||||1014.6||1|FM15-METAR|223|ICAO-KFCH|||||||||||||||||||||||||||||||||||||||||||MET061METAR KFCH 051935Z AUTO 36007KT 10SM CLR 32/05 A2996 RMK A01=||F||223|ICAO-KFCH
USW00023167|FRESNO CHANDLER DWTN AP|2021|08|05|19|55|36.7333|-119.8167|84.1|33.0||1|FM15-METAR|223|ICAO-KFCH|3.0||1|FM15-METAR|223|ICAO-KFCH|||||||||||||310|N-Normal|1|FM15-METAR|223|ICAO-KFCH|3.1|N-Normal|1|FM15-METAR|223|ICAO-KFCH|||||||||||||15|Derived||FM15-METAR|223|ICAO-KFCH|||||||||||||||||||||||||||||||||||||||||||||||||||||||||||||||||||||||||1014.2||1|FM15-METAR|223|ICAO-KFCH|||||||||||||||||||||||||||||||||||||||||||MET061METAR KFCH 051955Z AUTO 31006KT 10SM CLR 33/03 A2995 RMK A01=||F||223|ICAO-KFCH
USW00023167|FRESNO CHANDLER DWTN AP|2021|08|05|20|10|36.7333|-119.8167|84.1|33.0||1|FM15-METAR|223|ICAO-KFCH|4.0||1|FM15-METAR|223|ICAO-KFCH|||||||||||||320|N-Normal|1|FM15-METAR|223|ICAO-KFCH|5.1|N-Normal|1|FM15-METAR|223|ICAO-KFCH|||||||||||||16|Derived||FM15-METAR|223|ICAO-KFCH|||||||||||||||||||||||||||||||||||||||||||||||||||||||||||||||||||||||||1014.2||1|FM15-METAR|223|ICAO-KFCH|||||||||||||||||||||||||||||||||||||||||||MET061METAR KFCH 052010Z AUTO 32010KT 10SM CLR 33/04 A2995 RMK A01=||F||223|ICAO-KFCH
USW00023167|FRESNO CHANDLER DWTN AP|2021|08|05|20|35|36.7333|-119.8167|84.1|34.0||1|FM15-METAR|223|ICAO-KFCH|5.0||1|FM15-METAR|223|ICAO-KFCH|||||||||||||260|N-Normal|1|FM15-METAR|223|ICAO-KFCH|4.1|N-Normal|1|FM15-METAR|223|ICAO-KFCH|||||||||||||16|Derived||FM15-METAR|223|ICAO-KFCH|||||||||||||||||||||||||||||||||||||||||||||||||||||||||||||||||||||||||1013.9||1|FM15-METAR|223|ICAO-KFCH|||||||||||||||||||||||||||||||||||||||||||MET061METAR KFCH 052035Z AUTO 26008KT 10SM CLR 34/05 A2994 RMK A01=||F||223|ICAO-KFCH
USW00023167|FRESNO CHANDLER DWTN AP|2021|08|05|20|55|36.7333|-119.8167|84.1|34.0||1|FM15-METAR|223|ICAO-KFCH|4.0||1|FM15-METAR|223|ICAO-KFCH|||||||||||||310|N-Normal|1|FM15-METAR|223|ICAO-KFCH|4.1|N-Normal|1|FM15-METAR|223|ICAO-KFCH|||||||||||||15|Derived||FM15-METAR|223|ICAO-KFCH|||||||||||||||||||||||||||||||||||||||||||||||||||||||||||||||||||||||||1013.5||1|FM15-METAR|223|ICAO-KFCH|||||||||||||||||||||||||||||||||||||||||||MET061METAR KFCH 052055Z AUTO 31008KT 10SM CLR 34/04 A2993 RMK A01=||F||223|ICAO-KFCH
USW00023167|FRESNO CHANDLER DWTN AP|2021|08|05|21|15|36.7333|-119.8167|84.1|35.0||1|FM15-METAR|223|ICAO-KFCH|6.0||1|FM15-METAR|223|ICAO-KFCH|||||||||||||300|N-Normal|1|FM15-METAR|223|ICAO-KFCH|5.7|N-Normal|1|FM15-METAR|223|ICAO-KFCH|||||||||||||16|Derived||FM15-METAR|223|ICAO-KFCH|||||||||||||||||||||||||||||||||||||||||||||||||||||||||||||||||||||||||1013.5||1|FM15-METAR|223|ICAO-KFCH|||||||||||||||||||||||||||||||||||||||||||MET061METAR KFCH 052115Z AUTO 30011KT 10SM CLR 35/06 A2993 RMK A01=||F||223|ICAO-KFCH
USW00023167|FRESNO CHANDLER DWTN AP|2021|08|05|21|35|36.7333|-119.8167|84.1|35.0||1|FM15-METAR|223|ICAO-KFCH|2.0||1|FM15-METAR|223|ICAO-KFCH|||||||||||||320|N-Normal|1|FM15-METAR|223|ICAO-KFCH|3.6|N-Normal|1|FM15-METAR|223|ICAO-KFCH|||||||||||||12|Derived||FM15-METAR|223|ICAO-KFCH|||||||||||||||||||||||||||||||||||||||||||||||||||||||||||||||||||||||||1013.2||1|FM15-METAR|223|ICAO-KFCH|||||||||||||||||||||||||||||||||||||||||||MET061METAR KFCH 052135Z AUTO 32007KT 10SM CLR 35/02 A2992 RMK A01=||F||223|ICAO-KFCH
USW00023167|FRESNO CHANDLER DWTN AP|2021|08|05|21|55|36.7333|-119.8167|84.1|35.0||1|FM15-METAR|223|ICAO-KFCH|4.0||1|FM15-METAR|223|ICAO-KFCH|||||||||||||999|V-Variable|9|FM15-METAR|223|ICAO-KFCH|2.6|V-Variable|1|FM15-METAR|223|ICAO-KFCH|5.7||1|FM15-METAR|223|ICAO-KFCH|||||||14|Derived||FM15-METAR|223|ICAO-KFCH|||||||||||||||||||||||||||||||||||||||||||||||||||||||||||||||||||||||||1012.9||1|FM15-METAR|223|ICAO-KFCH|||||||||||||||||||||||||||||||||||||||||||MET064METAR KFCH 052155Z AUTO VRB05G11KT 10SM CLR 35/04 A2991 RMK A01=||F||223|ICAO-KFCH
USW00023167|FRESNO CHANDLER DWTN AP|2021|08|05|22|15|36.7333|-119.8167|84.1|36.0||1|FM15-METAR|223|ICAO-KFCH|0.0||1|FM15-METAR|223|ICAO-KFCH|||||||||||||310|N-Normal|1|FM15-METAR|223|ICAO-KFCH|4.6|N-Normal|1|FM15-METAR|223|ICAO-KFCH|||||||||||||10|Derived||FM15-METAR|223|ICAO-KFCH|||||||||||||||||||||||||||||||||||||||||||||||||||||||||||||||||||||||||1012.5||1|FM15-METAR|223|ICAO-KFCH|||||||||||||||||||||||||||||||||||||||||||MET062METAR KFCH 052215Z AUTO 31009KT 10SM CLR 36/M00 A2990 RMK A01=||F||223|ICAO-KFCH
USW00023167|FRESNO CHANDLER DWTN AP|2021|08|05|22|35|36.7333|-119.8167|84.1|36.0||1|FM15-METAR|223|ICAO-KFCH|1.0||1|FM15-METAR|223|ICAO-KFCH|||||||||||||290|V-Variable|1|FM15-METAR|223|ICAO-KFCH|5.1|V-Variable|1|FM15-METAR|223|ICAO-KFCH|||||||||||||11|Derived||FM15-METAR|223|ICAO-KFCH|||||||||||||||||||||||||||||||||||||||||||||||||||||||||||||||||||||||||1012.2||1|FM15-METAR|223|ICAO-KFCH|||||||||||||||||||||||||||||||||||||||||||MET069METAR KFCH 052235Z AUTO 29010KT 270V330 10SM CLR 36/01 A2989 RMK A01=||F||223|ICAO-KFCH
USW00023167|FRESNO CHANDLER DWTN AP|2021|08|05|22|55|36.7333|-119.8167|84.1|36.0||1|FM15-METAR|223|ICAO-KFCH|0.0||1|FM15-METAR|223|ICAO-KFCH|||||||||||||320|N-Normal|1|FM15-METAR|223|ICAO-KFCH|3.6|N-Normal|1|FM15-METAR|223|ICAO-KFCH|7.2||1|FM15-METAR|223|ICAO-KFCH|||||||10|Derived||FM15-METAR|223|ICAO-KFCH|||||||||||||||||||||||||||||||||||||||||||||||||||||||||||||||||||||||||1011.8||1|FM15-METAR|223|ICAO-KFCH|||||||||||||||||||||||||||||||||||||||||||MET065METAR KFCH 052255Z AUTO 32007G14KT 10SM CLR 36/M00 A2988 RMK A01=||F||223|ICAO-KFCH
USW00023167|FRESNO CHANDLER DWTN AP|2021|08|05|23|15|36.7333|-119.8167|84.1|36.0||1|FM15-METAR|223|ICAO-KFCH|-1.0||1|FM15-METAR|223|ICAO-KFCH|||||||||||||310|N-Normal|1|FM15-METAR|223|ICAO-KFCH|5.7|N-Normal|1|FM15-METAR|223|ICAO-KFCH|||||||||||||9|Derived||FM15-METAR|223|ICAO-KFCH|||||||||||||||||||||||||||||||||||||||||||||||||||||||||||||||||||||||||1011.8||1|FM15-METAR|223|ICAO-KFCH|||||||||||||||||||||||||||||||||||||||||||MET062METAR KFCH 052315Z AUTO 31011KT 10SM CLR 36/M01 A2988 RMK A01=||F||223|ICAO-KFCH
USW00023167|FRESNO CHANDLER DWTN AP|2021|08|05|23|35|36.7333|-119.8167|84.1|36.0||1|FM15-METAR|223|ICAO-KFCH|1.0||1|FM15-METAR|223|ICAO-KFCH|||||||||||||280|N-Normal|1|FM15-METAR|223|ICAO-KFCH|6.2|N-Normal|1|FM15-METAR|223|ICAO-KFCH|||||||||||||11|Derived||FM15-METAR|223|ICAO-KFCH|||||||||||||||||||||||||||||||||||||||||||||||||||||||||||||||||||||||||1011.8||1|FM15-METAR|223|ICAO-KFCH|||||||||||||||||||||||||||||||||||||||||||MET061METAR KFCH 052335Z AUTO 28012KT 10SM CLR 36/01 A2988 RMK A01=||F||223|ICAO-KFCH
USW00023167|FRESNO CHANDLER DWTN AP|2021|08|05|23|55|36.7333|-119.8167|84.1|36.0||1|FM15-METAR|223|ICAO-KFCH|-5.0||1|FM15-METAR|223|ICAO-KFCH|||||||||||||310|N-Normal|1|FM15-METAR|223|ICAO-KFCH|5.1|N-Normal|1|FM15-METAR|223|ICAO-KFCH|||||||||||||7|Derived||FM15-METAR|223|ICAO-KFCH|||||||||||||||||||||||||||||||||||||||||||||||||||||||||||||||||||||||||1011.5||1|FM15-METAR|223|ICAO-KFCH|||||||||||||||||||||||||||||||||||||||||||MET062METAR KFCH 052355Z AUTO 31010KT 10SM CLR 36/M05 A2987 RMK A01=||F||223|ICAO-KFCH
USW00023167|FRESNO CHANDLER DWTN AP|2021|08|06|00|15|36.7333|-119.8167|84.1|36.0||1|FM15-METAR|223|ICAO-KFCH|-2.0||1|FM15-METAR|223|ICAO-KFCH|||||||||||||300|N-Normal|1|FM15-METAR|223|ICAO-KFCH|5.7|N-Normal|1|FM15-METAR|223|ICAO-KFCH|||||||||||||9|Derived||FM15-METAR|223|ICAO-KFCH|||||||||||||||||||||||||||||||||||||||||||||||||||||||||||||||||||||||||1011.5||1|FM15-METAR|223|ICAO-KFCH|||||||||||||||||||||||||||||||||||||||||||MET062METAR KFCH 060015Z AUTO 30011KT 10SM CLR 36/M02 A2987 RMK A01=||F||223|ICAO-KFCH
USW00023167|FRESNO CHANDLER DWTN AP|2021|08|06|00|35|36.7333|-119.8167|84.1|36.0||1|FM15-METAR|223|ICAO-KFCH|1.0||1|FM15-METAR|223|ICAO-KFCH|||||||||||||300|N-Normal|1|FM15-METAR|223|ICAO-KFCH|4.6|N-Normal|1|FM15-METAR|223|ICAO-KFCH|||||||||||||11|Derived||FM15-METAR|223|ICAO-KFCH|||||||||||||||||||||||||||||||||||||||||||||||||||||||||||||||||||||||||1011.5||1|FM15-METAR|223|ICAO-KFCH|||||||||||||||||||||||||||||||||||||||||||MET061METAR KFCH 060035Z AUTO 30009KT 10SM CLR 36/01 A2987 RMK A01=||F||223|ICAO-KFCH
USW00023167|FRESNO CHANDLER DWTN AP|2021|08|06|00|55|36.7333|-119.8167|84.1|36.0||1|FM15-METAR|223|ICAO-KFCH|1.0||1|FM15-METAR|223|ICAO-KFCH|||||||||||||310|N-Normal|1|FM15-METAR|223|ICAO-KFCH|6.2|N-Normal|1|FM15-METAR|223|ICAO-KFCH|||||||||||||11|Derived||FM15-METAR|223|ICAO-KFCH|||||||||||||||||||||||||||||||||||||||||||||||||||||||||||||||||||||||||1011.2||1|FM15-METAR|223|ICAO-KFCH|||||||||||||||||||||||||||||||||||||||||||MET061METAR KFCH 060055Z AUTO 31012KT 10SM CLR 36/01 A2986 RMK A01=||F||223|ICAO-KFCH
USW00023167|FRESNO CHANDLER DWTN AP|2021|08|06|01|15|36.7333|-119.8167|84.1|36.0||1|FM15-METAR|223|ICAO-KFCH|-1.0||1|FM15-METAR|223|ICAO-KFCH|||||||||||||310|N-Normal|1|FM15-METAR|223|ICAO-KFCH|5.7|N-Normal|1|FM15-METAR|223|ICAO-KFCH|||||||||||||9|Derived||FM15-METAR|223|ICAO-KFCH|||||||||||||||||||||||||||||||||||||||||||||||||||||||||||||||||||||||||1011.2||1|FM15-METAR|223|ICAO-KFCH|||||||||||||||||||||||||||||||||||||||||||MET062METAR KFCH 060115Z AUTO 31011KT 10SM CLR 36/M01 A2986 RMK A01=||F||223|ICAO-KFCH
USW00023167|FRESNO CHANDLER DWTN AP|2021|08|06|01|35|36.7333|-119.8167|84.1|35.0||1|FM15-METAR|223|ICAO-KFCH|-1.0||1|FM15-METAR|223|ICAO-KFCH|||||||||||||320|N-Normal|1|FM15-METAR|223|ICAO-KFCH|4.6|N-Normal|1|FM15-METAR|223|ICAO-KFCH|7.2||1|FM15-METAR|223|ICAO-KFCH|||||||10|Derived||FM15-METAR|223|ICAO-KFCH|||||||||||||||||||||||||||||||||||||||||||||||||||||||||||||||||||||||||1011.2||1|FM15-METAR|223|ICAO-KFCH|||||||||||||||||||||||||||||||||||||||||||MET065METAR KFCH 060135Z AUTO 32009G14KT 10SM CLR 35/M01 A2986 RMK A01=||F||223|ICAO-KFCH
USW00023167|FRESNO CHANDLER DWTN AP|2021|08|06|01|55|36.7333|-119.8167|84.1|34.0||1|FM15-METAR|223|ICAO-KFCH|3.0||1|FM15-METAR|223|ICAO-KFCH|||||||||||||310|N-Normal|1|FM15-METAR|223|ICAO-KFCH|5.7|N-Normal|1|FM15-METAR|223|ICAO-KFCH|||||||||||||14|Derived||FM15-METAR|223|ICAO-KFCH|||||||||||||||||||||||||||||||||||||||||||||||||||||||||||||||||||||||||1011.2||1|FM15-METAR|223|ICAO-KFCH|||||||||||||||||||||||||||||||||||||||||||MET061METAR KFCH 060155Z AUTO 31011KT 10SM CLR 34/03 A2986 RMK A01=||F||223|ICAO-KFCH
USW00023167|FRESNO CHANDLER DWTN AP|2021|08|06|02|15|36.7333|-119.8167|84.1|34.0||1|FM15-METAR|223|ICAO-KFCH|7.0||1|FM15-METAR|223|ICAO-KFCH|||||||||||||320|N-Normal|1|FM15-METAR|223|ICAO-KFCH|5.1|N-Normal|1|FM15-METAR|223|ICAO-KFCH|||||||||||||19|Derived||FM15-METAR|223|ICAO-KFCH|||||||||||||||||||||||||||||||||||||||||||||||||||||||||||||||||||||||||1011.2||1|FM15-METAR|223|ICAO-KFCH|||||||||||||||||||||||||||||||||||||||||||MET061METAR KFCH 060215Z AUTO 32010KT 10SM CLR 34/07 A2986 RMK A01=||F||223|ICAO-KFCH
USW00023167|FRESNO CHANDLER DWTN AP|2021|08|06|02|35|36.7333|-119.8167|84.1|33.0||1|FM15-METAR|223|ICAO-KFCH|8.0||1|FM15-METAR|223|ICAO-KFCH|||||||||||||320|N-Normal|1|FM15-METAR|223|ICAO-KFCH|3.1|N-Normal|1|FM15-METAR|223|ICAO-KFCH|||||||||||||21|Derived||FM15-METAR|223|ICAO-KFCH|||||||||||||||||||||||||||||||||||||||||||||||||||||||||||||||||||||||||1011.2||1|FM15-METAR|223|ICAO-KFCH|||||||||||||||||||||||||||||||||||||||||||MET061METAR KFCH 060235Z AUTO 32006KT 10SM CLR 33/08 A2986 RMK A01=||F||223|ICAO-KFCH
USW00023167|FRESNO CHANDLER DWTN AP|2021|08|06|02|55|36.7333|-119.8167|84.1|32.0||1|FM15-METAR|223|ICAO-KFCH|8.0||1|FM15-METAR|223|ICAO-KFCH|||||||||||||330|N-Normal|1|FM15-METAR|223|ICAO-KFCH|3.1|N-Normal|1|FM15-METAR|223|ICAO-KFCH|||||||||||||22|Derived||FM15-METAR|223|ICAO-KFCH|||||||||||||||||||||||||||||||||||||||||||||||||||||||||||||||||||||||||1011.5||1|FM15-METAR|223|ICAO-KFCH|||||||||||||||||||||||||||||||||||||||||||MET061METAR KFCH 060255Z AUTO 33006KT 10SM CLR 32/08 A2987 RMK A01=||F||223|ICAO-KFCH
USW00023167|FRESNO CHANDLER DWTN AP|2021|08|06|03|15|36.7333|-119.8167|84.1|31.0||1|FM15-METAR|223|ICAO-KFCH|8.0||1|FM15-METAR|223|ICAO-KFCH|||||||||||||||||||||||||||||||||||||24|Derived||FM15-METAR|223|ICAO-KFCH|||||||||||||||||||||||||||||||||||||||||||||||||||||||||||||||||||||||||1011.5||1|FM15-METAR|223|ICAO-KFCH|||||||||||||||||||||||||||||||||||||||||||MET069METAR KFCH 060315Z AUTO 7/54166708G13KT 10SM CLR 31/08 A2987 RMK A01=||F||223|ICAO-KFCH
USW00023167|FRESNO CHANDLER DWTN AP|2021|08|06|03|35|36.7333|-119.8167|84.1|31.0||1|FM15-METAR|223|ICAO-KFCH|9.0||1|FM15-METAR|223|ICAO-KFCH|||||||||||||320|N-Normal|1|FM15-METAR|223|ICAO-KFCH|3.6|N-Normal|1|FM15-METAR|223|ICAO-KFCH|||||||||||||25|Derived||FM15-METAR|223|ICAO-KFCH|||||||||||||||||||||||||||||||||||||||||||||||||||||||||||||||||||||||||1011.8||1|FM15-METAR|223|ICAO-KFCH|||||||||||||||||||||||||||||||||||||||||||MET061METAR KFCH 060335Z AUTO 32007KT 10SM CLR 31/09 A2988 RMK A01=||F||223|ICAO-KFCH
USW00023167|FRESNO CHANDLER DWTN AP|2021|08|06|03|55|36.7333|-119.8167|84.1|30.0||1|FM15-METAR|223|ICAO-KFCH|11.0||1|FM15-METAR|223|ICAO-KFCH|||||||||||||310|N-Normal|1|FM15-METAR|223|ICAO-KFCH|2.6|N-Normal|1|FM15-METAR|223|ICAO-KFCH|||||||||||||31|Derived||FM15-METAR|223|ICAO-KFCH|||||||||||||||||||||||||||||||||||||||||||||||||||||||||||||||||||||||||1012.2||1|FM15-METAR|223|ICAO-KFCH|||||||||||||||||||||||||||||||||||||||||||MET061METAR KFCH 060355Z AUTO 31005KT 10SM CLR 30/11 A2989 RMK A01=||F||223|ICAO-KFCH
USW00023167|FRESNO CHANDLER DWTN AP|2021|08|06|04|15|36.7333|-119.8167|84.1|29.0||1|FM15-METAR|223|ICAO-KFCH|11.0||1|FM15-METAR|223|ICAO-KFCH|||||||||||||310|N-Normal|1|FM15-METAR|223|ICAO-KFCH|3.6|N-Normal|1|FM15-METAR|223|ICAO-KFCH|||||||||||||33|Derived||FM15-METAR|223|ICAO-KFCH|||||||||||||||||||||||||||||||||||||||||||||||||||||||||||||||||||||||||1012.2||1|FM15-METAR|223|ICAO-KFCH|||||||||||||||||||||||||||||||||||||||||||MET061METAR KFCH 060415Z AUTO 31007KT 10SM CLR 29/11 A2989 RMK A01=||F||223|ICAO-KFCH
USW00023167|FRESNO CHANDLER DWTN AP|2021|08|06|04|35|36.7333|-119.8167|84.1|28.0||1|FM15-METAR|223|ICAO-KFCH|10.0||1|FM15-METAR|223|ICAO-KFCH|||||||||||||310|N-Normal|1|FM15-METAR|223|ICAO-KFCH|2.6|N-Normal|1|FM15-METAR|223|ICAO-KFCH|||||||||||||32|Derived||FM15-METAR|223|ICAO-KFCH|||||||||||||||||||||||||||||||||||||||||||||||||||||||||||||||||||||||||1012.2||1|FM15-METAR|223|ICAO-KFCH|||||||||||||||||||||||||||||||||||||||||||MET061METAR KFCH 060435Z AUTO 31005KT 10SM CLR 28/10 A2989 RMK A01=||F||223|ICAO-KFCH
USW00023167|FRESNO CHANDLER DWTN AP|2021|08|06|04|55|36.7333|-119.8167|84.1|27.0||1|FM15-METAR|223|ICAO-KFCH|11.0||1|FM15-METAR|223|ICAO-KFCH|||||||||||||310|N-Normal|1|FM15-METAR|223|ICAO-KFCH|2.6|N-Normal|1|FM15-METAR|223|ICAO-KFCH|||||||||||||37|Derived||FM15-METAR|223|ICAO-KFCH|||||||||||||||||||||||||||||||||||||||||||||||||||||||||||||||||||||||||1012.5||1|FM15-METAR|223|ICAO-KFCH|||||||||||||||||||||||||||||||||||||||||||MET061METAR KFCH 060455Z AUTO 31005KT 10SM CLR 27/11 A2990 RMK A01=||F||223|ICAO-KFCH
USW00023167|FRESNO CHANDLER DWTN AP|2021|08|06|05|15|36.7333|-119.8167|84.1|27.0||1|FM15-METAR|223|ICAO-KFCH|11.0||1|FM15-METAR|223|ICAO-KFCH|||||||||||||300|N-Normal|1|FM15-METAR|223|ICAO-KFCH|3.1|N-Normal|1|FM15-METAR|223|ICAO-KFCH|||||||||||||37|Derived||FM15-METAR|223|ICAO-KFCH|||||||||||||||||||||||||||||||||||||||||||||||||||||||||||||||||||||||||1012.5||1|FM15-METAR|223|ICAO-KFCH|||||||||||||||||||||||||||||||||||||||||||MET061METAR KFCH 060515Z AUTO 30006KT 10SM CLR 27/11 A2990 RMK A01=||F||223|ICAO-KFCH
USW00023167|FRESNO CHANDLER DWTN AP|2021|08|06|05|35|36.7333|-119.8167|84.1|26.0||1|FM15-METAR|223|ICAO-KFCH|12.0||1|FM15-METAR|223|ICAO-KFCH|||||||||||||300|N-Normal|1|FM15-METAR|223|ICAO-KFCH|3.1|N-Normal|1|FM15-METAR|223|ICAO-KFCH|||||||||||||42|Derived||FM15-METAR|223|ICAO-KFCH|||||||||||||||||||||||||||||||||||||||||||||||||||||||||||||||||||||||||1012.5||1|FM15-METAR|223|ICAO-KFCH|||||||||||||||||||||||||||||||||||||||||||MET061METAR KFCH 060535Z AUTO 30006KT 10SM CLR 26/12 A2990 RMK A01=||F||223|ICAO-KFCH
USW00023167|FRESNO CHANDLER DWTN AP|2021|08|06|05|55|36.7333|-119.8167|84.1|25.0||1|FM15-METAR|223|ICAO-KFCH|12.0||1|FM15-METAR|223|ICAO-KFCH|||||||||||||300|N-Normal|1|FM15-METAR|223|ICAO-KFCH|4.6|N-Normal|1|FM15-METAR|223|ICAO-KFCH|||||||||||||44|Derived||FM15-METAR|223|ICAO-KFCH|||||||||||||||||||||||||||||||||||||||||||||||||||||||||||||||||||||||||1012.5||1|FM15-METAR|223|ICAO-KFCH|||||||||||||||||||||||||||||||||||||||||||MET061METAR KFCH 060555Z AUTO 30009KT 10SM CLR 25/12 A2990 RMK A01=||F||223|ICAO-KFCH
USW00023167|FRESNO CHANDLER DWTN AP|2021|08|06|06|15|36.7333|-119.8167|84.1|25.0||1|FM15-METAR|223|ICAO-KFCH|12.0||1|FM15-METAR|223|ICAO-KFCH|||||||||||||300|N-Normal|1|FM15-METAR|223|ICAO-KFCH|5.1|N-Normal|1|FM15-METAR|223|ICAO-KFCH|||||||||||||44|Derived||FM15-METAR|223|ICAO-KFCH|||||||||||||||||||||||||||||||||||||||||||||||||||||||||||||||||||||||||1012.5||1|FM15-METAR|223|ICAO-KFCH|||||||||||||||||||||||||||||||||||||||||||MET061METAR KFCH 060615Z AUTO 30010KT 10SM CLR 25/12 A2990 RMK A01=||F||223|ICAO-KFCH
USW00023167|FRESNO CHANDLER DWTN AP|2021|08|06|06|35|36.7333|-119.8167|84.1|24.0||1|FM15-METAR|223|ICAO-KFCH|13.0||1|FM15-METAR|223|ICAO-KFCH|||||||||||||300|N-Normal|1|FM15-METAR|223|ICAO-KFCH|4.6|N-Normal|1|FM15-METAR|223|ICAO-KFCH|||||||||||||50|Derived||FM15-METAR|223|ICAO-KFCH|||||||||||||||||||||||||||||||||||||||||||||||||||||||||||||||||||||||||1012.5||1|FM15-METAR|223|ICAO-KFCH|||||||||||||||||||||||||||||||||||||||||||MET061METAR KFCH 060635Z AUTO 30009KT 10SM CLR 24/13 A2990 RMK A01=||F||223|ICAO-KFCH
USW00023167|FRESNO CHANDLER DWTN AP|2021|08|06|06|55|36.7333|-119.8167|84.1|23.0||1|FM15-METAR|223|ICAO-KFCH|13.0||1|FM15-METAR|223|ICAO-KFCH|||||||||||||310|N-Normal|1|FM15-METAR|223|ICAO-KFCH|4.6|N-Normal|1|FM15-METAR|223|ICAO-KFCH|||||||||||||53|Derived||FM15-METAR|223|ICAO-KFCH|||||||||||||||||||||||||||||||||||||||||||||||||||||||||||||||||||||||||1012.9||1|FM15-METAR|223|ICAO-KFCH|||||||||||||||||||||||||||||||||||||||||||MET061METAR KFCH 060655Z AUTO 31009KT 10SM CLR 23/13 A2991 RMK A01=||F||223|ICAO-KFCH
USW00023167|FRESNO CHANDLER DWTN AP|2021|08|06|07|15|36.7333|-119.8167|84.1|23.0||1|FM15-METAR|223|ICAO-KFCH|14.0||1|FM15-METAR|223|ICAO-KFCH|||||||||||||310|N-Normal|1|FM15-METAR|223|ICAO-KFCH|4.6|N-Normal|1|FM15-METAR|223|ICAO-KFCH|||||||||||||57|Derived||FM15-METAR|223|ICAO-KFCH|||||||||||||||||||||||||||||||||||||||||||||||||||||||||||||||||||||||||1012.9||1|FM15-METAR|223|ICAO-KFCH|||||||||||||||||||||||||||||||||||||||||||MET061METAR KFCH 060715Z AUTO 31009KT 10SM CLR 23/14 A2991 RMK A01=||F||223|ICAO-KFCH
USW00023167|FRESNO CHANDLER DWTN AP|2021|08|06|07|35|36.7333|-119.8167|84.1|22.0||1|FM15-METAR|223|ICAO-KFCH|14.0||1|FM15-METAR|223|ICAO-KFCH|||||||||||||310|N-Normal|1|FM15-METAR|223|ICAO-KFCH|4.1|N-Normal|1|FM15-METAR|223|ICAO-KFCH|||||||||||||61|Derived||FM15-METAR|223|ICAO-KFCH|||||||||||||||||||||||||||||||||||||||||||||||||||||||||||||||||||||||||1012.9||1|FM15-METAR|223|ICAO-KFCH|||||||||||||||||||||||||||||||||||||||||||MET057METAR KFCH 060735Z AUTO 31008KT 10SM 22/14 A2991 RMK A01=||F||223|ICAO-KFCH
USW00023167|FRESNO CHANDLER DWTN AP|2021|08|06|07|55|36.7333|-119.8167|84.1|22.0||1|FM15-METAR|223|ICAO-KFCH|14.0||1|FM15-METAR|223|ICAO-KFCH|||||||||||||300|N-Normal|1|FM15-METAR|223|ICAO-KFCH|4.1|N-Normal|1|FM15-METAR|223|ICAO-KFCH|||||||||||||61|Derived||FM15-METAR|223|ICAO-KFCH|||||||||||||||||||||||||||||||||||||||||||||||||||||||||||||||||||||||||1012.9||1|FM15-METAR|223|ICAO-KFCH|||||||||||||||||||||||||||||||||||||||||||MET057METAR KFCH 060755Z AUTO 30008KT 10SM 22/14 A2991 RMK A01=||F||223|ICAO-KFCH
USW00023167|FRESNO CHANDLER DWTN AP|2021|08|06|08|15|36.7333|-119.8167|84.1|22.0||1|FM15-METAR|223|ICAO-KFCH|14.0||1|FM15-METAR|223|ICAO-KFCH|||||||||||||310|N-Normal|1|FM15-METAR|223|ICAO-KFCH|4.1|N-Normal|1|FM15-METAR|223|ICAO-KFCH|||||||||||||61|Derived||FM15-METAR|223|ICAO-KFCH|||||||||||||||||||||||||||||||||||||||||||||||||||||||||||||||||||||||||1012.9||1|FM15-METAR|223|ICAO-KFCH|||||||||||||||||||||||||||||||||||||||||||MET061METAR KFCH 060815Z AUTO 31008KT 10SM CLR 22/14 A2991 RMK A01=||F||223|ICAO-KFCH
USW00023167|FRESNO CHANDLER DWTN AP|2021|08|06|08|35|36.7333|-119.8167|84.1|21.0||1|FM15-METAR|223|ICAO-KFCH|13.0||1|FM15-METAR|223|ICAO-KFCH|||||||||||||300|N-Normal|1|FM15-METAR|223|ICAO-KFCH|4.1|N-Normal|1|FM15-METAR|223|ICAO-KFCH|||||||||||||60|Derived||FM15-METAR|223|ICAO-KFCH|||||||||||||||||||||||||||||||||||||||||||||||||||||||||||||||||||||||||1012.9||1|FM15-METAR|223|ICAO-KFCH|||||||||||||||||||||||||||||||||||||||||||MET071METAR KFCH 060835Z AUTO 30008KT 10SM FEW026 SCT033 21/13 A2991 RMK A01=||F||223|ICAO-KFCH
USW00023167|FRESNO CHANDLER DWTN AP|2021|08|06|08|55|36.7333|-119.8167|84.1|21.0||1|FM15-METAR|223|ICAO-KFCH|13.0||1|FM15-METAR|223|ICAO-KFCH|||||||||||||300|N-Normal|1|FM15-METAR|223|ICAO-KFCH|2.6|N-Normal|1|FM15-METAR|223|ICAO-KFCH|||||||||||||60|Derived||FM15-METAR|223|ICAO-KFCH|||||||||||||||||||||||||||||||||||||||||||||||||||||||||||||||||||||||||1012.9||1|FM15-METAR|223|ICAO-KFCH|||||||||||||||||||||||||||||||||||||||||||MET071METAR KFCH 060855Z AUTO 30005KT 10SM SCT027 BKN033 21/13 A2991 RMK A01=||F||223|ICAO-KFCH
USW00023167|FRESNO CHANDLER DWTN AP|2021|08|06|09|15|36.7333|-119.8167|84.1|21.0||1|FM15-METAR|223|ICAO-KFCH|13.0||1|FM15-METAR|223|ICAO-KFCH|||||||||||||300|N-Normal|1|FM15-METAR|223|ICAO-KFCH|3.1|N-Normal|1|FM15-METAR|223|ICAO-KFCH|||||||||||||60|Derived||FM15-METAR|223|ICAO-KFCH|||||||||||||||||||||||||||||||||||||||||||||||||||||||||||||||||||||||||1012.9||1|FM15-METAR|223|ICAO-KFCH|||||||||||||||||||||||||||||||||||||||||||MET071METAR KFCH 060915Z AUTO 30006KT 10SM FEW025 SCT032 21/13 A2991 RMK A01=||F||223|ICAO-KFCH
USW00023167|FRESNO CHANDLER DWTN AP|2021|08|06|09|35|36.7333|-119.8167|84.1|20.0||1|FM15-METAR|223|ICAO-KFCH|13.0||1|FM15-METAR|223|ICAO-KFCH|||||||||||||300|N-Normal|1|FM15-METAR|223|ICAO-KFCH|3.6|N-Normal|1|FM15-METAR|223|ICAO-KFCH|||||||||||||64|Derived||FM15-METAR|223|ICAO-KFCH|||||||||||||||||||||||||||||||||||||||||||||||||||||||||||||||||||||||||1012.9||1|FM15-METAR|223|ICAO-KFCH|||||||||||||||||||||||||||||||||||||||||||MET064METAR KFCH 060935Z AUTO 30007KT 10SM FEW034 20/13 A2991 RMK A01=||F||223|ICAO-KFCH
USW00023167|FRESNO CHANDLER DWTN AP|2021|08|06|09|55|36.7333|-119.8167|84.1|20.0||1|FM15-METAR|223|ICAO-KFCH|12.0||1|FM15-METAR|223|ICAO-KFCH|||||||||||||300|N-Normal|1|FM15-METAR|223|ICAO-KFCH|3.6|N-Normal|1|FM15-METAR|223|ICAO-KFCH|||||||||||||60|Derived||FM15-METAR|223|ICAO-KFCH|||||||||||||||||||||||||||||||||||||||||||||||||||||||||||||||||||||||||1012.9||1|FM15-METAR|223|ICAO-KFCH|||||||||||||||||||||||||||||||||||||||||||MET064METAR KFCH 060955Z AUTO 30007KT 10SM FEW033 20/12 A2991 RMK A01=||F||223|ICAO-KFCH
USW00023167|FRESNO CHANDLER DWTN AP|2021|08|06|10|15|36.7333|-119.8167|84.1|20.0||1|FM15-METAR|223|ICAO-KFCH|12.0||1|FM15-METAR|223|ICAO-KFCH|||||||||||||300|N-Normal|1|FM15-METAR|223|ICAO-KFCH|3.1|N-Normal|1|FM15-METAR|223|ICAO-KFCH|||||||||||||60|Derived||FM15-METAR|223|ICAO-KFCH|||||||||||||||||||||||||||||||||||||||||||||||||||||||||||||||||||||||||1012.9||1|FM15-METAR|223|ICAO-KFCH|||||||||||||||||||||||||||||||||||||||||||MET064METAR KFCH 061015Z AUTO 30006KT 10SM FEW033 20/12 A2991 RMK A01=||F||223|ICAO-KFCH
USW00023167|FRESNO CHANDLER DWTN AP|2021|08|06|10|35|36.7333|-119.8167|84.1|19.0||1|FM15-METAR|223|ICAO-KFCH|12.0||1|FM15-METAR|223|ICAO-KFCH|||||||||||||300|N-Normal|1|FM15-METAR|223|ICAO-KFCH|3.1|N-Normal|1|FM15-METAR|223|ICAO-KFCH|||||||||||||64|Derived||FM15-METAR|223|ICAO-KFCH|||||||||||||||||||||||||||||||||||||||||||||||||||||||||||||||||||||||||1012.9||1|FM15-METAR|223|ICAO-KFCH|||||||||||||||||||||||||||||||||||||||||||MET061METAR KFCH 061035Z AUTO 30006KT 10SM CLR 19/12 A2991 RMK A01=||F||223|ICAO-KFCH
USW00023167|FRESNO CHANDLER DWTN AP|2021|08|06|10|55|36.7333|-119.8167|84.1|19.0||1|FM15-METAR|223|ICAO-KFCH|12.0||1|FM15-METAR|223|ICAO-KFCH|||||||||||||320|N-Normal|1|FM15-METAR|223|ICAO-KFCH|3.1|N-Normal|1|FM15-METAR|223|ICAO-KFCH|||||||||||||64|Derived||FM15-METAR|223|ICAO-KFCH|||||||||||||||||||||||||||||||||||||||||||||||||||||||||||||||||||||||||1012.9||1|FM15-METAR|223|ICAO-KFCH|||||||||||||||||||||||||||||||||||||||||||MET061METAR KFCH 061055Z AUTO 32006KT 10SM CLR 19/12 A2991 RMK A01=||F||223|ICAO-KFCH
USW00023167|FRESNO CHANDLER DWTN AP|2021|08|06|11|15|36.7333|-119.8167|84.1|19.0||1|FM15-METAR|223|ICAO-KFCH|12.0||1|FM15-METAR|223|ICAO-KFCH|||||||||||||320|N-Normal|1|FM15-METAR|223|ICAO-KFCH|2.6|N-Normal|1|FM15-METAR|223|ICAO-KFCH|||||||||||||64|Derived||FM15-METAR|223|ICAO-KFCH|||||||||||||||||||||||||||||||||||||||||||||||||||||||||||||||||||||||||1012.9||1|FM15-METAR|223|ICAO-KFCH|||||||||||||||||||||||||||||||||||||||||||MET061METAR KFCH 061115Z AUTO 32005KT 10SM CLR 19/12 A2991 RMK A01=||F||223|ICAO-KFCH
USW00023167|FRESNO CHANDLER DWTN AP|2021|08|06|11|35|36.7333|-119.8167|84.1|19.0||1|FM15-METAR|223|ICAO-KFCH|11.0||1|FM15-METAR|223|ICAO-KFCH|||||||||||||310|N-Normal|1|FM15-METAR|223|ICAO-KFCH|2.1|N-Normal|1|FM15-METAR|223|ICAO-KFCH|||||||||||||60|Derived||FM15-METAR|223|ICAO-KFCH|||||||||||||||||||||||||||||||||||||||||||||||||||||||||||||||||||||||||1012.9||1|FM15-METAR|223|ICAO-KFCH|||||||||||||||||||||||||||||||||||||||||||MET061METAR KFCH 061135Z AUTO 31004KT 10SM CLR 19/11 A2991 RMK A01=||F||223|ICAO-KFCH
USW00023167|FRESNO CHANDLER DWTN AP|2021|08|06|11|55|36.7333|-119.8167|84.1|18.0||1|FM15-METAR|223|ICAO-KFCH|11.0||1|FM15-METAR|223|ICAO-KFCH|||||||||||||310|N-Normal|1|FM15-METAR|223|ICAO-KFCH|2.1|N-Normal|1|FM15-METAR|223|ICAO-KFCH|||||||||||||64|Derived||FM15-METAR|223|ICAO-KFCH|||||||||||||||||||||||||||||||||||||||||||||||||||||||||||||||||||||||||1012.9||1|FM15-METAR|223|ICAO-KFCH|||||||||||||||||||||||||||||||||||||||||||MET061METAR KFCH 061155Z AUTO 31004KT 10SM CLR 18/11 A2991 RMK A01=||F||223|ICAO-KFCH
USW00023167|FRESNO CHANDLER DWTN AP|2021|08|06|12|15|36.7333|-119.8167|84.1|||||||||||||||||||||||||||||||||||||||||||||||||||||||||||||||||||||||||||||||||||||||||||||||||||||||||||||||||||||||||||||||1013.2||1|FM15-METAR|223|ICAO-KFCH|||||||||||||||||||||||||||||||||||||||||||MET038METAR KFCH 061215Z AUTO A2992 RMK A01=||F||223|ICAO-KFCH
USW00023167|FRESNO CHANDLER DWTN AP|2021|08|06|12|35|36.7333|-119.8167|84.1|||||||||||||||||||||||||||||||||||||||||||||||||||||||||||||||||||||||||||||||||||||||||||||||||||||||||||||||||||||||||||||||||||||||||||||||||||||||||||||||||||||||||||||||MET032METAR KFCH 061235Z AUTO RMK A01=||F||223|ICAO-KFCH
USW00023167|FRESNO CHANDLER DWTN AP|2021|08|06|12|55|36.7333|-119.8167|84.1|||||||||||||||||||||||||||||||||||||||||||||||||||||||||||||||||||||||||||||||||||||||||||||||||||||||||||||||||||||||||||||||||||||||||||||||||||||||||||||||||||||||||||||||MET032METAR KFCH 061255Z AUTO RMK A01=||F||223|ICAO-KFCH
USW00023167|FRESNO CHANDLER DWTN AP|2021|08|06|13|15|36.7333|-119.8167|84.1|||||||||||||||||||||||||||||||||||||||||||||||||||||||||||||||||||||||||||||||||||||||||||||||||||||||||||||||||||||||||||||||||||||||||||||||||||||||||||||||||||||||||||||||MET032METAR KFCH 061315Z AUTO RMK A01=||F||223|ICAO-KFCH
USW00023167|FRESNO CHANDLER DWTN AP|2021|08|06|13|35|36.7333|-119.8167|84.1|||||||||||||||||||||||||||||||||||||||||||||||||||||||||||||||||||||||||||||||||||||||||||||||||||||||||||||||||||||||||||||||||||||||||||||||||||||||||||||||||||||||||||||||MET032METAR KFCH 061335Z AUTO RMK A01=||F||223|ICAO-KFCH
USW00023167|FRESNO CHANDLER DWTN AP|2021|08|06|13|55|36.7333|-119.8167|84.1|19.0||1|FM15-METAR|223|ICAO-KFCH|11.0||1|FM15-METAR|223|ICAO-KFCH|||||||||||||999|C-Calm|9|FM15-METAR|223|ICAO-KFCH|0.0|C-Calm|1|FM15-METAR|223|ICAO-KFCH|||||||||||||60|Derived||FM15-METAR|223|ICAO-KFCH|||||||||||||||||||||||||||||||||||||||||||||||||||||||||||||||||||||||||1014.2||1|FM15-METAR|223|ICAO-KFCH|||||||||||||||||||||||||||||||||||||||||||MET057METAR KFCH 061355Z AUTO 00000KT 10SM 19/11 A2995 RMK A01=||F||223|ICAO-KFCH
USW00023167|FRESNO CHANDLER DWTN AP|2021|08|06|14|15|36.7333|-119.8167|84.1|18.0||1|FM15-METAR|223|ICAO-KFCH|11.0||1|FM15-METAR|223|ICAO-KFCH|||||||||||||240|N-Normal|1|FM15-METAR|223|ICAO-KFCH|1.5|N-Normal|1|FM15-METAR|223|ICAO-KFCH|||||||||||||64|Derived||FM15-METAR|223|ICAO-KFCH|||||||||||||||||||||||||||||||||||||||||||||||||||||||||||||||||||||||||1014.6||1|FM15-METAR|223|ICAO-KFCH|||||||||||||||||||||||||||||||||||||||||||MET061METAR KFCH 061415Z AUTO 24003KT 10SM CLR 18/11 A2996 RMK A01=||F||223|ICAO-KFCH
USW00023167|FRESNO CHANDLER DWTN AP|2021|08|06|14|35|36.7333|-119.8167|84.1|19.0||1|FM15-METAR|223|ICAO-KFCH|12.0||1|FM15-METAR|223|ICAO-KFCH|||||||||||||240|N-Normal|1|FM15-METAR|223|ICAO-KFCH|2.1|N-Normal|1|FM15-METAR|223|ICAO-KFCH|||||||||||||64|Derived||FM15-METAR|223|ICAO-KFCH|||||||||||||||||||||||||||||||||||||||||||||||||||||||||||||||||||||||||1014.6||1|FM15-METAR|223|ICAO-KFCH|||||||||||||||||||||||||||||||||||||||||||MET061METAR KFCH 061435Z AUTO 24004KT 10SM CLR 19/12 A2996 RMK A01=||F||223|ICAO-KFCH
USW00023167|FRESNO CHANDLER DWTN AP|2021|08|06|14|55|36.7333|-119.8167|84.1|19.0||1|FM15-METAR|223|ICAO-KFCH|12.0||1|FM15-METAR|223|ICAO-KFCH|||||||||||||260|N-Normal|1|FM15-METAR|223|ICAO-KFCH|2.1|N-Normal|1|FM15-METAR|223|ICAO-KFCH|||||||||||||64|Derived||FM15-METAR|223|ICAO-KFCH|||||||||||||||||||||||||||||||||||||||||||||||||||||||||||||||||||||||||1014.6||1|FM15-METAR|223|ICAO-KFCH|||||||||||||||||||||||||||||||||||||||||||MET061METAR KFCH 061455Z AUTO 26004KT 10SM CLR 19/12 A2996 RMK A01=||F||223|ICAO-KFCH
USW00023167|FRESNO CHANDLER DWTN AP|2021|08|06|15|15|36.7333|-119.8167|84.1|20.0||1|FM15-METAR|223|ICAO-KFCH|12.0||1|FM15-METAR|223|ICAO-KFCH|||||||||||||300|N-Normal|1|FM15-METAR|223|ICAO-KFCH|2.6|N-Normal|1|FM15-METAR|223|ICAO-KFCH|||||||||||||60|Derived||FM15-METAR|223|ICAO-KFCH|||||||||||||||||||||||||||||||||||||||||||||||||||||||||||||||||||||||||1014.9||1|FM15-METAR|223|ICAO-KFCH|||||||||||||||||||||||||||||||||||||||||||MET060METAR KFCH 061515Z AUTO 30005KT 8SM CLR 20/12 A2997 RMK A01=||F||223|ICAO-KFCH
USW00023167|FRESNO CHANDLER DWTN AP|2021|08|06|15|35|36.7333|-119.8167|84.1|21.0||1|FM15-METAR|223|ICAO-KFCH|12.0||1|FM15-METAR|223|ICAO-KFCH|||||||||||||310|N-Normal|1|FM15-METAR|223|ICAO-KFCH|2.6|N-Normal|1|FM15-METAR|223|ICAO-KFCH|||||||||||||57|Derived||FM15-METAR|223|ICAO-KFCH|||||||||||||||||||||||||||||||||||||||||||||||||||||||||||||||||||||||||1014.9||1|FM15-METAR|223|ICAO-KFCH|||||||||||||||||||||||||||||||||||||||||||MET061METAR KFCH 061535Z AUTO 31005KT 10SM CLR 21/12 A2997 RMK A01=||F||223|ICAO-KFCH
USW00023167|FRESNO CHANDLER DWTN AP|2021|08|06|15|55|36.7333|-119.8167|84.1|22.0||1|FM15-METAR|223|ICAO-KFCH|12.0||1|FM15-METAR|223|ICAO-KFCH|||||||||||||270|N-Normal|1|FM15-METAR|223|ICAO-KFCH|2.1|N-Normal|1|FM15-METAR|223|ICAO-KFCH|||||||||||||53|Derived||FM15-METAR|223|ICAO-KFCH|||||||||||||||||||||||||||||||||||||||||||||||||||||||||||||||||||||||||1014.9||1|FM15-METAR|223|ICAO-KFCH|||||||||||||||||||||||||||||||||||||||||||MET057METAR KFCH 061555Z AUTO 27004KT 10SM 22/12 A2997 RMK A01=||F||223|ICAO-KFCH
USW00023167|FRESNO CHANDLER DWTN AP|2021|08|06|16|15|36.7333|-119.8167|84.1|22.0||1|FM15-METAR|223|ICAO-KFCH|12.0||1|FM15-METAR|223|ICAO-KFCH|||||||||||||300|N-Normal|1|FM15-METAR|223|ICAO-KFCH|2.6|N-Normal|1|FM15-METAR|223|ICAO-KFCH|||||||||||||53|Derived||FM15-METAR|223|ICAO-KFCH|||||||||||||||||||||||||||||||||||||||||||||||||||||||||||||||||||||||||1014.9||1|FM15-METAR|223|ICAO-KFCH|||||||||||||||||||||||||||||||||||||||||||MET061METAR KFCH 061615Z AUTO 30005KT 10SM CLR 22/12 A2997 RMK A01=||F||223|ICAO-KFCH
USW00023167|FRESNO CHANDLER DWTN AP|2021|08|06|16|35|36.7333|-119.8167|84.1|23.0||1|FM15-METAR|223|ICAO-KFCH|12.0||1|FM15-METAR|223|ICAO-KFCH|||||||||||||999|V-Variable|9|FM15-METAR|223|ICAO-KFCH|1.5|V-Variable|1|FM15-METAR|223|ICAO-KFCH|||||||||||||50|Derived||FM15-METAR|223|ICAO-KFCH|||||||||||||||||||||||||||||||||||||||||||||||||||||||||||||||||||||||||1014.9||1|FM15-METAR|223|ICAO-KFCH|||||||||||||||||||||||||||||||||||||||||||MET061METAR KFCH 061635Z AUTO VRB03KT 10SM CLR 23/12 A2997 RMK A01=||F||223|ICAO-KFCH
USW00023167|FRESNO CHANDLER DWTN AP|2021|08|06|16|55|36.7333|-119.8167|84.1|24.0||1|FM15-METAR|223|ICAO-KFCH|12.0||1|FM15-METAR|223|ICAO-KFCH|||||||||||||290|N-Normal|1|FM15-METAR|223|ICAO-KFCH|3.1|N-Normal|1|FM15-METAR|223|ICAO-KFCH|||||||||||||47|Derived||FM15-METAR|223|ICAO-KFCH|||||||||||||||||||||||||||||||||||||||||||||||||||||||||||||||||||||||||1014.9||1|FM15-METAR|223|ICAO-KFCH|||||||||||||||||||||||||||||||||||||||||||MET061METAR KFCH 061655Z AUTO 29006KT 10SM CLR 24/12 A2997 RMK A01=||F||223|ICAO-KFCH
USW00023167|FRESNO CHANDLER DWTN AP|2021|08|06|17|15|36.7333|-119.8167|84.1|25.0||1|FM15-METAR|223|ICAO-KFCH|12.0||1|FM15-METAR|223|ICAO-KFCH|||||||||||||999|V-Variable|9|FM15-METAR|223|ICAO-KFCH|2.6|V-Variable|1|FM15-METAR|223|ICAO-KFCH|||||||||||||44|Derived||FM15-METAR|223|ICAO-KFCH|||||||||||||||||||||||||||||||||||||||||||||||||||||||||||||||||||||||||1014.9||1|FM15-METAR|223|ICAO-KFCH|||||||||||||||||||||||||||||||||||||||||||MET061METAR KFCH 061715Z AUTO VRB05KT 10SM CLR 25/12 A2997 RMK A01=||F||223|ICAO-KFCH
USW00023167|FRESNO CHANDLER DWTN AP|2021|08|06|17|35|36.7333|-119.8167|84.1|26.0||1|FM15-METAR|223|ICAO-KFCH|12.0||1|FM15-METAR|223|ICAO-KFCH|||||||||||||290|N-Normal|1|FM15-METAR|223|ICAO-KFCH|3.1|N-Normal|1|FM15-METAR|223|ICAO-KFCH|||||||||||||42|Derived||FM15-METAR|223|ICAO-KFCH|||||||||||||||||||||||||||||||||||||||||||||||||||||||||||||||||||||||||1014.9||1|FM15-METAR|223|ICAO-KFCH|||||||||||||||||||||||||||||||||||||||||||MET061METAR KFCH 061735Z AUTO 29006KT 10SM CLR 26/12 A2997 RMK A01=||F||223|ICAO-KFCH
USW00023167|FRESNO CHANDLER DWTN AP|2021|08|06|17|55|36.7333|-119.8167|84.1|27.0||1|FM15-METAR|223|ICAO-KFCH|12.0||1|FM15-METAR|223|ICAO-KFCH|||||||||||||270|N-Normal|1|FM15-METAR|223|ICAO-KFCH|3.1|N-Normal|1|FM15-METAR|223|ICAO-KFCH|||||||||||||39|Derived||FM15-METAR|223|ICAO-KFCH|||||||||||||||||||||||||||||||||||||||||||||||||||||||||||||||||||||||||1014.6||1|FM15-METAR|223|ICAO-KFCH|||||||||||||||||||||||||||||||||||||||||||MET061METAR KFCH 061755Z AUTO 27006KT 10SM CLR 27/12 A2996 RMK A01=||F||223|ICAO-KFCH
USW00023167|FRESNO CHANDLER DWTN AP|2021|08|06|18|15|36.7333|-119.8167|84.1|27.0||1|FM15-METAR|223|ICAO-KFCH|10.0||1|FM15-METAR|223|ICAO-KFCH|||||||||||||290|N-Normal|1|FM15-METAR|223|ICAO-KFCH|3.1|N-Normal|1|FM15-METAR|223|ICAO-KFCH|||||||||||||34|Derived||FM15-METAR|223|ICAO-KFCH|||||||||||||||||||||||||||||||||||||||||||||||||||||||||||||||||||||||||1014.6||1|FM15-METAR|223|ICAO-KFCH|||||||||||||||||||||||||||||||||||||||||||MET061METAR KFCH 061815Z AUTO 29006KT 10SM CLR 27/10 A2996 RMK A01=||F||223|ICAO-KFCH
USW00023167|FRESNO CHANDLER DWTN AP|2021|08|06|18|35|36.7333|-119.8167|84.1|28.0||1|FM15-METAR|223|ICAO-KFCH|11.0||1|FM15-METAR|223|ICAO-KFCH|||||||||||||290|V-Variable|1|FM15-METAR|223|ICAO-KFCH|3.6|V-Variable|1|FM15-METAR|223|ICAO-KFCH|||||||||||||35|Derived||FM15-METAR|223|ICAO-KFCH|||||||||||||||||||||||||||||||||||||||||||||||||||||||||||||||||||||||||1014.6||1|FM15-METAR|223|ICAO-KFCH|||||||||||||||||||||||||||||||||||||||||||MET069METAR KFCH 061835Z AUTO 29007KT 270V330 10SM CLR 28/11 A2996 RMK A01=||F||223|ICAO-KFCH
USW00023167|FRESNO CHANDLER DWTN AP|2021|08|06|18|55|36.7333|-119.8167|84.1|29.0||1|FM15-METAR|223|ICAO-KFCH|11.0||1|FM15-METAR|223|ICAO-KFCH|||||||||||||230|N-Normal|1|FM15-METAR|223|ICAO-KFCH|2.1|N-Normal|1|FM15-METAR|223|ICAO-KFCH|||||||||||||33|Derived||FM15-METAR|223|ICAO-KFCH|||||||||||||||||||||||||||||||||||||||||||||||||||||||||||||||||||||||||1014.2||1|FM15-METAR|223|ICAO-KFCH|||||||||||||||||||||||||||||||||||||||||||MET061METAR KFCH 061855Z AUTO 23004KT 10SM CLR 29/11 A2995 RMK A01=||F||223|ICAO-KFCH
USW00023167|FRESNO CHANDLER DWTN AP|2021|08|06|19|15|36.7333|-119.8167|84.1|30.0||1|FM15-METAR|223|ICAO-KFCH|10.0||1|FM15-METAR|223|ICAO-KFCH|||||||||||||220|N-Normal|1|FM15-METAR|223|ICAO-KFCH|3.1|N-Normal|1|FM15-METAR|223|ICAO-KFCH|||||||||||||29|Derived||FM15-METAR|223|ICAO-KFCH|||||||||||||||||||||||||||||||||||||||||||||||||||||||||||||||||||||||||1014.2||1|FM15-METAR|223|ICAO-KFCH|||||||||||||||||||||||||||||||||||||||||||MET061METAR KFCH 061915Z AUTO 22006KT 10SM CLR 30/10 A2995 RMK A01=||F||223|ICAO-KFCH
USW00023167|FRESNO CHANDLER DWTN AP|2021|08|06|19|35|36.7333|-119.8167|84.1|31.0||1|FM15-METAR|223|ICAO-KFCH|10.0||1|FM15-METAR|223|ICAO-KFCH|||||||||||||260|N-Normal|1|FM15-METAR|223|ICAO-KFCH|2.6|N-Normal|1|FM15-METAR|223|ICAO-KFCH|||||||||||||27|Derived||FM15-METAR|223|ICAO-KFCH|||||||||||||||||||||||||||||||||||||||||||||||||||||||||||||||||||||||||1013.9||1|FM15-METAR|223|ICAO-KFCH|||||||||||||||||||||||||||||||||||||||||||MET060METAR KFCH 061935Z AUTO 26005KT 9SM CLR 31/10 A2994 RMK A01=||F||223|ICAO-KFCH
USW00023167|FRESNO CHANDLER DWTN AP|2021|08|06|19|55|36.7333|-119.8167|84.1|31.0||1|FM15-METAR|223|ICAO-KFCH|9.0||1|FM15-METAR|223|ICAO-KFCH|||||||||||||300|N-Normal|1|FM15-METAR|223|ICAO-KFCH|3.1|N-Normal|1|FM15-METAR|223|ICAO-KFCH|||||||||||||25|Derived||FM15-METAR|223|ICAO-KFCH|||||||||||||||||||||||||||||||||||||||||||||||||||||||||||||||||||||||||1013.9||1|FM15-METAR|223|ICAO-KFCH|||||||||||||||||||||||||||||||||||||||||||MET061METAR KFCH 061955Z AUTO 30006KT 10SM CLR 31/09 A2994 RMK A01=||F||223|ICAO-KFCH
USW00023167|FRESNO CHANDLER DWTN AP|2021|08|06|20|15|36.7333|-119.8167|84.1|31.0||1|FM15-METAR|223|ICAO-KFCH|9.0||1|FM15-METAR|223|ICAO-KFCH|||||||||||||280|V-Variable|1|FM15-METAR|223|ICAO-KFCH|3.6|V-Variable|1|FM15-METAR|223|ICAO-KFCH|||||||||||||25|Derived||FM15-METAR|223|ICAO-KFCH|||||||||||||||||||||||||||||||||||||||||||||||||||||||||||||||||||||||||1013.5||1|FM15-METAR|223|ICAO-KFCH|||||||||||||||||||||||||||||||||||||||||||MET069METAR KFCH 062015Z AUTO 28007KT 210V290 10SM CLR 31/09 A2993 RMK A01=||F||223|ICAO-KFCH
USW00023167|FRESNO CHANDLER DWTN AP|2021|08|06|20|35|36.7333|-119.8167|84.1|32.0||1|FM15-METAR|223|ICAO-KFCH|10.0||1|FM15-METAR|223|ICAO-KFCH|||||||||||||230|N-Normal|1|FM15-METAR|223|ICAO-KFCH|3.1|N-Normal|1|FM15-METAR|223|ICAO-KFCH|||||||||||||26|Derived||FM15-METAR|223|ICAO-KFCH|||||||||||||||||||||||||||||||||||||||||||||||||||||||||||||||||||||||||1013.2||1|FM15-METAR|223|ICAO-KFCH|||||||||||||||||||||||||||||||||||||||||||MET061METAR KFCH 062035Z AUTO 23006KT 10SM CLR 32/10 A2992 RMK A01=||F||223|ICAO-KFCH
USW00023167|FRESNO CHANDLER DWTN AP|2021|08|06|20|55|36.7333|-119.8167|84.1|32.0||1|FM15-METAR|223|ICAO-KFCH|9.0||1|FM15-METAR|223|ICAO-KFCH|||||||||||||290|V-Variable|1|FM15-METAR|223|ICAO-KFCH|3.6|V-Variable|1|FM15-METAR|223|ICAO-KFCH|||||||||||||24|Derived||FM15-METAR|223|ICAO-KFCH|||||||||||||||||||||||||||||||||||||||||||||||||||||||||||||||||||||||||1012.9||1|FM15-METAR|223|ICAO-KFCH|||||||||||||||||||||||||||||||||||||||||||MET069METAR KFCH 062055Z AUTO 29007KT 240V310 10SM CLR 32/09 A2991 RMK A01=||F||223|ICAO-KFCH
USW00023167|FRESNO CHANDLER DWTN AP|2021|08|06|21|15|36.7333|-119.8167|84.1|33.0||1|FM15-METAR|223|ICAO-KFCH|9.0||1|FM15-METAR|223|ICAO-KFCH|||||||||||||310|N-Normal|1|FM15-METAR|223|ICAO-KFCH|3.1|N-Normal|1|FM15-METAR|223|ICAO-KFCH|||||||||||||23|Derived||FM15-METAR|223|ICAO-KFCH|||||||||||||||||||||||||||||||||||||||||||||||||||||||||||||||||||||||||1012.9||1|FM15-METAR|223|ICAO-KFCH|||||||||||||||||||||||||||||||||||||||||||MET061METAR KFCH 062115Z AUTO 31006KT 10SM CLR 33/09 A2991 RMK A01=||F||223|ICAO-KFCH
USW00023167|FRESNO CHANDLER DWTN AP|2021|08|06|21|35|36.7333|-119.8167|84.1|33.0||1|FM15-METAR|223|ICAO-KFCH|7.0||1|FM15-METAR|223|ICAO-KFCH|||||||||||||320|N-Normal|1|FM15-METAR|223|ICAO-KFCH|2.6|N-Normal|1|FM15-METAR|223|ICAO-KFCH|||||||||||||20|Derived||FM15-METAR|223|ICAO-KFCH|||||||||||||||||||||||||||||||||||||||||||||||||||||||||||||||||||||||||1012.5||1|FM15-METAR|223|ICAO-KFCH|||||||||||||||||||||||||||||||||||||||||||MET061METAR KFCH 062135Z AUTO 32005KT 10SM CLR 33/07 A2990 RMK A01=||F||223|ICAO-KFCH
USW00023167|FRESNO CHANDLER DWTN AP|2021|08|06|21|55|36.7333|-119.8167|84.1|34.0||1|FM15-METAR|223|ICAO-KFCH|7.0||1|FM15-METAR|223|ICAO-KFCH|||||||||||||290|N-Normal|1|FM15-METAR|223|ICAO-KFCH|4.1|N-Normal|1|FM15-METAR|223|ICAO-KFCH|||||||||||||19|Derived||FM15-METAR|223|ICAO-KFCH|||||||||||||||||||||||||||||||||||||||||||||||||||||||||||||||||||||||||1012.2||1|FM15-METAR|223|ICAO-KFCH|||||||||||||||||||||||||||||||||||||||||||MET061METAR KFCH 062155Z AUTO 29008KT 10SM CLR 34/07 A2989 RMK A01=||F||223|ICAO-KFCH
USW00023167|FRESNO CHANDLER DWTN AP|2021|08|06|22|15|36.7333|-119.8167|84.1|35.0||1|FM15-METAR|223|ICAO-KFCH|4.0||1|FM15-METAR|223|ICAO-KFCH|||||||||||||340|N-Normal|1|FM15-METAR|223|ICAO-KFCH|4.1|N-Normal|1|FM15-METAR|223|ICAO-KFCH|||||||||||||14|Derived||FM15-METAR|223|ICAO-KFCH|||||||||||||||||||||||||||||||||||||||||||||||||||||||||||||||||||||||||1011.8||1|FM15-METAR|223|ICAO-KFCH|||||||||||||||||||||||||||||||||||||||||||MET061METAR KFCH 062215Z AUTO 34008KT 10SM CLR 35/04 A2988 RMK A01=||F||223|ICAO-KFCH
USW00023167|FRESNO CHANDLER DWTN AP|2021|08|06|22|35|36.7333|-119.8167|84.1|35.0||1|FM15-METAR|223|ICAO-KFCH|5.0||1|FM15-METAR|223|ICAO-KFCH|||||||||||||300|N-Normal|1|FM15-METAR|223|ICAO-KFCH|3.6|N-Normal|1|FM15-METAR|223|ICAO-KFCH|||||||||||||15|Derived||FM15-METAR|223|ICAO-KFCH|||||||||||||||||||||||||||||||||||||||||||||||||||||||||||||||||||||||||1011.8||1|FM15-METAR|223|ICAO-KFCH|||||||||||||||||||||||||||||||||||||||||||MET061METAR KFCH 062235Z AUTO 30007KT 10SM CLR 35/05 A2988 RMK A01=||F||223|ICAO-KFCH
USW00023167|FRESNO CHANDLER DWTN AP|2021|08|06|22|55|36.7333|-119.8167|84.1|35.0||1|FM15-METAR|223|ICAO-KFCH|6.0||1|FM15-METAR|223|ICAO-KFCH|||||||||||||320|N-Normal|1|FM15-METAR|223|ICAO-KFCH|3.6|N-Normal|1|FM15-METAR|223|ICAO-KFCH|6.2||1|FM15-METAR|223|ICAO-KFCH|||||||16|Derived||FM15-METAR|223|ICAO-KFCH|||||||||||||||||||||||||||||||||||||||||||||||||||||||||||||||||||||||||1011.5||1|FM15-METAR|223|ICAO-KFCH|||||||||||||||||||||||||||||||||||||||||||MET064METAR KFCH 062255Z AUTO 32007G12KT 10SM CLR 35/06 A2987 RMK A01=||F||223|ICAO-KFCH
USW00023167|FRESNO CHANDLER DWTN AP|2021|08|06|23|15|36.7333|-119.8167|84.1|35.0||1|FM15-METAR|223|ICAO-KFCH|6.0||1|FM15-METAR|223|ICAO-KFCH|||||||||||||310|N-Normal|1|FM15-METAR|223|ICAO-KFCH|3.6|N-Normal|1|FM15-METAR|223|ICAO-KFCH|||||||||||||16|Derived||FM15-METAR|223|ICAO-KFCH|||||||||||||||||||||||||||||||||||||||||||||||||||||||||||||||||||||||||1011.2||1|FM15-METAR|223|ICAO-KFCH|||||||||||||||||||||||||||||||||||||||||||MET061METAR KFCH 062315Z AUTO 31007KT 10SM CLR 35/06 A2986 RMK A01=||F||223|ICAO-KFCH
USW00023167|FRESNO CHANDLER DWTN AP|2021|08|06|23|35|36.7333|-119.8167|84.1|35.0||1|FM15-METAR|223|ICAO-KFCH|7.0||1|FM15-METAR|223|ICAO-KFCH|||||||||||||340|N-Normal|1|FM15-METAR|223|ICAO-KFCH|2.6|N-Normal|1|FM15-METAR|223|ICAO-KFCH|5.7||1|FM15-METAR|223|ICAO-KFCH|||||||18|Derived||FM15-METAR|223|ICAO-KFCH|||||||||||||||||||||||||||||||||||||||||||||||||||||||||||||||||||||||||1011.2||1|FM15-METAR|223|ICAO-KFCH|||||||||||||||||||||||||||||||||||||||||||MET064METAR KFCH 062335Z AUTO 34005G11KT 10SM CLR 35/07 A2986 RMK A01=||F||223|ICAO-KFCH
USW00023167|FRESNO CHANDLER DWTN AP|2021|08|06|23|55|36.7333|-119.8167|84.1|35.0||1|FM15-METAR|223|ICAO-KFCH|5.0||1|FM15-METAR|223|ICAO-KFCH|||||||||||||300|N-Normal|1|FM15-METAR|223|ICAO-KFCH|4.1|N-Normal|1|FM15-METAR|223|ICAO-KFCH|||||||||||||15|Derived||FM15-METAR|223|ICAO-KFCH|||||||||||||||||||||||||||||||||||||||||||||||||||||||||||||||||||||||||1010.8||1|FM15-METAR|223|ICAO-KFCH|||||||||||||||||||||||||||||||||||||||||||MET061METAR KFCH 062355Z AUTO 30008KT 10SM CLR 35/05 A2985 RMK A01=||F||223|ICAO-KFCH
USW00023167|FRESNO CHANDLER DWTN AP|2021|08|07|00|15|36.7333|-119.8167|84.1|35.0||1|FM15-METAR|223|ICAO-KFCH|6.0||1|FM15-METAR|223|ICAO-KFCH|||||||||||||999|V-Variable|9|FM15-METAR|223|ICAO-KFCH|2.6|V-Variable|1|FM15-METAR|223|ICAO-KFCH|6.2||1|FM15-METAR|223|ICAO-KFCH|||||||16|Derived||FM15-METAR|223|ICAO-KFCH|||||||||||||||||||||||||||||||||||||||||||||||||||||||||||||||||||||||||1010.8||1|FM15-METAR|223|ICAO-KFCH|||||||||||||||||||||||||||||||||||||||||||MET064METAR KFCH 070015Z AUTO VRB05G12KT 10SM CLR 35/06 A2985 RMK A01=||F||223|ICAO-KFCH
USW00023167|FRESNO CHANDLER DWTN AP|2021|08|07|00|35|36.7333|-119.8167|84.1|36.0||1|FM15-METAR|223|ICAO-KFCH|3.0||1|FM15-METAR|223|ICAO-KFCH|||||||||||||320|N-Normal|1|FM15-METAR|223|ICAO-KFCH|3.1|N-Normal|1|FM15-METAR|223|ICAO-KFCH|||||||||||||13|Derived||FM15-METAR|223|ICAO-KFCH|||||||||||||||||||||||||||||||||||||||||||||||||||||||||||||||||||||||||1010.5||1|FM15-METAR|223|ICAO-KFCH|||||||||||||||||||||||||||||||||||||||||||MET061METAR KFCH 070035Z AUTO 32006KT 10SM CLR 36/03 A2984 RMK A01=||F||223|ICAO-KFCH
USW00023167|FRESNO CHANDLER DWTN AP|2021|08|07|00|55|36.7333|-119.8167|84.1|35.0||1|FM15-METAR|223|ICAO-KFCH|7.0||1|FM15-METAR|223|ICAO-KFCH|||||||||||||300|N-Normal|1|FM15-METAR|223|ICAO-KFCH|4.6|N-Normal|1|FM15-METAR|223|ICAO-KFCH|||||||||||||18|Derived||FM15-METAR|223|ICAO-KFCH|||||||||||||||||||||||||||||||||||||||||||||||||||||||||||||||||||||||||1010.5||1|FM15-METAR|223|ICAO-KFCH|||||||||||||||||||||||||||||||||||||||||||MET061METAR KFCH 070055Z AUTO 30009KT 10SM CLR 35/07 A2984 RMK A01=||F||223|ICAO-KFCH
USW00023167|FRESNO CHANDLER DWTN AP|2021|08|07|01|15|36.7333|-119.8167|84.1|35.0||1|FM15-METAR|223|ICAO-KFCH|8.0||1|FM15-METAR|223|ICAO-KFCH|||||||||||||290|N-Normal|1|FM15-METAR|223|ICAO-KFCH|4.6|N-Normal|1|FM15-METAR|223|ICAO-KFCH|||||||||||||19|Derived||FM15-METAR|223|ICAO-KFCH|||||||||||||||||||||||||||||||||||||||||||||||||||||||||||||||||||||||||1010.5||1|FM15-METAR|223|ICAO-KFCH|||||||||||||||||||||||||||||||||||||||||||MET061METAR KFCH 070115Z AUTO 29009KT 10SM CLR 35/08 A2984 RMK A01=||F||223|ICAO-KFCH
USW00023167|FRESNO CHANDLER DWTN AP|2021|08|07|01|35|36.7333|-119.8167|84.1|35.0||1|FM15-METAR|223|ICAO-KFCH|9.0||1|FM15-METAR|223|ICAO-KFCH|||||||||||||300|N-Normal|1|FM15-METAR|223|ICAO-KFCH|4.6|N-Normal|1|FM15-METAR|223|ICAO-KFCH|||||||||||||20|Derived||FM15-METAR|223|ICAO-KFCH|||||||||||||||||||||||||||||||||||||||||||||||||||||||||||||||||||||||||1010.5||1|FM15-METAR|223|ICAO-KFCH|||||||||||||||||||||||||||||||||||||||||||MET061METAR KFCH 070135Z AUTO 30009KT 10SM CLR 35/09 A2984 RMK A01=||F||223|ICAO-KFCH
USW00023167|FRESNO CHANDLER DWTN AP|2021|08|07|01|55|36.7333|-119.8167|84.1|34.0||1|FM15-METAR|223|ICAO-KFCH|9.0||1|FM15-METAR|223|ICAO-KFCH|||||||||||||300|N-Normal|1|FM15-METAR|223|ICAO-KFCH|5.7|N-Normal|1|FM15-METAR|223|ICAO-KFCH|||||||||||||21|Derived||FM15-METAR|223|ICAO-KFCH|||||||||||||||||||||||||||||||||||||||||||||||||||||||||||||||||||||||||1010.5||1|FM15-METAR|223|ICAO-KFCH|||||||||||||||||||||||||||||||||||||||||||MET061METAR KFCH 070155Z AUTO 30011KT 10SM CLR 34/09 A2984 RMK A01=||F||223|ICAO-KFCH
USW00023167|FRESNO CHANDLER DWTN AP|2021|08|07|02|15|36.7333|-119.8167|84.1|33.0||1|FM15-METAR|223|ICAO-KFCH|10.0||1|FM15-METAR|223|ICAO-KFCH|||||||||||||290|N-Normal|1|FM15-METAR|223|ICAO-KFCH|4.6|N-Normal|1|FM15-METAR|223|ICAO-KFCH|||||||||||||24|Derived||FM15-METAR|223|ICAO-KFCH|||||||||||||||||||||||||||||||||||||||||||||||||||||||||||||||||||||||||1010.5||1|FM15-METAR|223|ICAO-KFCH|||||||||||||||||||||||||||||||||||||||||||MET061METAR KFCH 070215Z AUTO 29009KT 10SM CLR 33/10 A2984 RMK A01=||F||223|ICAO-KFCH
USW00023167|FRESNO CHANDLER DWTN AP|2021|08|07|02|35|36.7333|-119.8167|84.1|32.0||1|FM15-METAR|223|ICAO-KFCH|9.0||1|FM15-METAR|223|ICAO-KFCH|||||||||||||310|N-Normal|1|FM15-METAR|223|ICAO-KFCH|5.1|N-Normal|1|FM15-METAR|223|ICAO-KFCH|||||||||||||24|Derived||FM15-METAR|223|ICAO-KFCH|||||||||||||||||||||||||||||||||||||||||||||||||||||||||||||||||||||||||1010.8||1|FM15-METAR|223|ICAO-KFCH|||||||||||||||||||||||||||||||||||||||||||MET070METAR KFCH 070235Z AUTO 31010KT 9SM FEW032 FEW038 32/09 A2985 RMK A01=||F||223|ICAO-KFCH
USW00023167|FRESNO CHANDLER DWTN AP|2021|08|07|02|55|36.7333|-119.8167|84.1|31.0||1|FM15-METAR|223|ICAO-KFCH|9.0||1|FM15-METAR|223|ICAO-KFCH|||||||||||||310|N-Normal|1|FM15-METAR|223|ICAO-KFCH|3.6|N-Normal|1|FM15-METAR|223|ICAO-KFCH|||||||||||||25|Derived||FM15-METAR|223|ICAO-KFCH|||||||||||||||||||||||||||||||||||||||||||||||||||||||||||||||||||||||||1010.8||1|FM15-METAR|223|ICAO-KFCH|||||||||||||||||||||||||||||||||||||||||||MET063METAR KFCH 070255Z AUTO 31007KT 9SM FEW034 31/09 A2985 RMK A01=||F||223|ICAO-KFCH
USW00023167|FRESNO CHANDLER DWTN AP|2021|08|07|03|15|36.7333|-119.8167|84.1|30.0||1|FM15-METAR|223|ICAO-KFCH|10.0||1|FM15-METAR|223|ICAO-KFCH|||||||||||||320|N-Normal|1|FM15-METAR|223|ICAO-KFCH|3.1|N-Normal|1|FM15-METAR|223|ICAO-KFCH|||||||||||||29|Derived||FM15-METAR|223|ICAO-KFCH|||||||||||||||||||||||||||||||||||||||||||||||||||||||||||||||||||||||||1011.2||1|FM15-METAR|223|ICAO-KFCH|||||||||||||||||||||||||||||||||||||||||||MET070METAR KFCH 070315Z AUTO 32006KT 8SM BKN034 BKN049 30/10 A2986 RMK A01=||F||223|ICAO-KFCH
USW00023167|FRESNO CHANDLER DWTN AP|2021|08|07|03|35|36.7333|-119.8167|84.1|30.0||1|FM15-METAR|223|ICAO-KFCH|10.0||1|FM15-METAR|223|ICAO-KFCH|||||||||||||300|N-Normal|1|FM15-METAR|223|ICAO-KFCH|3.1|N-Normal|1|FM15-METAR|223|ICAO-KFCH|||||||||||||29|Derived||FM15-METAR|223|ICAO-KFCH|||||||||||||||||||||||||||||||||||||||||||||||||||||||||||||||||||||||||1011.2||1|FM15-METAR|223|ICAO-KFCH|||||||||||||||||||||||||||||||||||||||||||MET070METAR KFCH 070335Z AUTO 30006KT 8SM SCT027 OVC033 30/10 A2986 RMK A01=||F||223|ICAO-KFCH
USW00023167|FRESNO CHANDLER DWTN AP|2021|08|07|03|55|36.7333|-119.8167|84.1|29.0||1|FM15-METAR|223|ICAO-KFCH|11.0||1|FM15-METAR|223|ICAO-KFCH|||||||||||||300|N-Normal|1|FM15-METAR|223|ICAO-KFCH|3.1|N-Normal|1|FM15-METAR|223|ICAO-KFCH|||||||||||||33|Derived||FM15-METAR|223|ICAO-KFCH|||||||||||||||||||||||||||||||||||||||||||||||||||||||||||||||||||||||||1011.5||1|FM15-METAR|223|ICAO-KFCH|||||||||||||||||||||||||||||||||||||||||||MET070METAR KFCH 070355Z AUTO 30006KT 9SM BKN023 OVC029 29/11 A2987 RMK A01=||F||223|ICAO-KFCH
USW00023167|FRESNO CHANDLER DWTN AP|2021|08|07|04|15|36.7333|-119.8167|84.1|29.0||1|FM15-METAR|223|ICAO-KFCH|11.0||1|FM15-METAR|223|ICAO-KFCH|||||||||||||300|N-Normal|1|FM15-METAR|223|ICAO-KFCH|3.1|N-Normal|1|FM15-METAR|223|ICAO-KFCH|||||||||||||33|Derived||FM15-METAR|223|ICAO-KFCH|||||||||||||||||||||||||||||||||||||||||||||||||||||||||||||||||||||||||1011.5||1|FM15-METAR|223|ICAO-KFCH|||||||||||||||||||||||||||||||||||||||||||MET071METAR KFCH 070415Z AUTO 30006KT 10SM FEW022 OVC060 29/11 A2987 RMK A01=||F||223|ICAO-KFCH
USW00023167|FRESNO CHANDLER DWTN AP|2021|08|07|04|35|36.7333|-119.8167|84.1|28.0||1|FM15-METAR|223|ICAO-KFCH|12.0||1|FM15-METAR|223|ICAO-KFCH|||||||||||||300|N-Normal|1|FM15-METAR|223|ICAO-KFCH|3.6|N-Normal|1|FM15-METAR|223|ICAO-KFCH|||||||||||||37|Derived||FM15-METAR|223|ICAO-KFCH|||||||||||||||||||||||||||||||||||||||||||||||||||||||||||||||||||||||||1011.8||1|FM15-METAR|223|ICAO-KFCH|||||||||||||||||||||||||||||||||||||||||||MET064METAR KFCH 070435Z AUTO 30007KT 10SM OVC065 28/12 A2988 RMK A01=||F||223|ICAO-KFCH
USW00023167|FRESNO CHANDLER DWTN AP|2021|08|07|04|55|36.7333|-119.8167|84.1|28.0||1|FM15-METAR|223|ICAO-KFCH|12.0||1|FM15-METAR|223|ICAO-KFCH|||||||||||||310|N-Normal|1|FM15-METAR|223|ICAO-KFCH|3.6|N-Normal|1|FM15-METAR|223|ICAO-KFCH|||||||||||||37|Derived||FM15-METAR|223|ICAO-KFCH|||||||||||||||||||||||||||||||||||||||||||||||||||||||||||||||||||||||||1011.8||1|FM15-METAR|223|ICAO-KFCH|||||||||||||||||||||||||||||||||||||||||||MET071METAR KFCH 070455Z AUTO 31007KT 10SM FEW034 OVC065 28/12 A2988 RMK A01=||F||223|ICAO-KFCH
USW00023167|FRESNO CHANDLER DWTN AP|2021|08|07|05|15|36.7333|-119.8167|84.1|27.0||1|FM15-METAR|223|ICAO-KFCH|12.0||1|FM15-METAR|223|ICAO-KFCH|||||||||||||320|N-Normal|1|FM15-METAR|223|ICAO-KFCH|3.1|N-Normal|1|FM15-METAR|223|ICAO-KFCH|||||||||||||39|Derived||FM15-METAR|223|ICAO-KFCH|||||||||||||||||||||||||||||||||||||||||||||||||||||||||||||||||||||||||1011.8||1|FM15-METAR|223|ICAO-KFCH|||||||||||||||||||||||||||||||||||||||||||MET071METAR KFCH 070515Z AUTO 32006KT 10SM BKN032 OVC065 27/12 A2988 RMK A01=||F||223|ICAO-KFCH
USW00023167|FRESNO CHANDLER DWTN AP|2021|08|07|05|35|36.7333|-119.8167|84.1|27.0||1|FM15-METAR|223|ICAO-KFCH|13.0||1|FM15-METAR|223|ICAO-KFCH|||||||||||||300|N-Normal|1|FM15-METAR|223|ICAO-KFCH|2.1|N-Normal|1|FM15-METAR|223|ICAO-KFCH|||||||||||||42|Derived||FM15-METAR|223|ICAO-KFCH|||||||||||||||||||||||||||||||||||||||||||||||||||||||||||||||||||||||||1011.8||1|FM15-METAR|223|ICAO-KFCH|||||||||||||||||||||||||||||||||||||||||||MET064METAR KFCH 070535Z AUTO 30004KT 10SM OVC033 27/13 A2988 RMK A01=||F||223|ICAO-KFCH
USW00023167|FRESNO CHANDLER DWTN AP|2021|08|07|05|55|36.7333|-119.8167|84.1|27.0||1|FM15-METAR|223|ICAO-KFCH|13.0||1|FM15-METAR|223|ICAO-KFCH|||||||||||||290|N-Normal|1|FM15-METAR|223|ICAO-KFCH|2.6|N-Normal|1|FM15-METAR|223|ICAO-KFCH|||||||||||||42|Derived||FM15-METAR|223|ICAO-KFCH|||||||||||||||||||||||||||||||||||||||||||||||||||||||||||||||||||||||||1011.8||1|FM15-METAR|223|ICAO-KFCH|||||||||||||||||||||||||||||||||||||||||||MET064METAR KFCH 070555Z AUTO 29005KT 10SM OVC037 27/13 A2988 RMK A01=||F||223|ICAO-KFCH
USW00023167|FRESNO CHANDLER DWTN AP|2021|08|07|06|15|36.7333|-119.8167|84.1|26.0||1|FM15-METAR|223|ICAO-KFCH|13.0||1|FM15-METAR|223|ICAO-KFCH|||||||||||||300|N-Normal|1|FM15-METAR|223|ICAO-KFCH|2.1|N-Normal|1|FM15-METAR|223|ICAO-KFCH|||||||||||||45|Derived||FM15-METAR|223|ICAO-KFCH|||||||||||||||||||||||||||||||||||||||||||||||||||||||||||||||||||||||||1011.5||1|FM15-METAR|223|ICAO-KFCH|||||||||||||||||||||||||||||||||||||||||||MET071METAR KFCH 070615Z AUTO 30004KT 10SM SCT031 OVC039 26/13 A2987 RMK A01=||F||223|ICAO-KFCH
USW00023167|FRESNO CHANDLER DWTN AP|2021|08|07|06|35|36.7333|-119.8167|84.1|26.0||1|FM15-METAR|223|ICAO-KFCH|14.0||1|FM15-METAR|223|ICAO-KFCH|||||||||||||999|C-Calm|9|FM15-METAR|223|ICAO-KFCH|0.0|C-Calm|1|FM15-METAR|223|ICAO-KFCH|||||||||||||48|Derived||FM15-METAR|223|ICAO-KFCH|||||||||||||||||||||||||||||||||||||||||||||||||||||||||||||||||||||||||1011.8||1|FM15-METAR|223|ICAO-KFCH|||||||||||||||||||||||||||||||||||||||||||MET064METAR KFCH 070635Z AUTO 00000KT 10SM OVC032 26/14 A2988 RMK A01=||F||223|ICAO-KFCH
USW00023167|FRESNO CHANDLER DWTN AP|2021|08|07|06|55|36.7333|-119.8167|84.1|26.0||1|FM15-METAR|223|ICAO-KFCH|14.0||1|FM15-METAR|223|ICAO-KFCH|||||||||||||320|N-Normal|1|FM15-METAR|223|ICAO-KFCH|1.5|N-Normal|1|FM15-METAR|223|ICAO-KFCH|||||||||||||48|Derived||FM15-METAR|223|ICAO-KFCH|||||||||||||||||||||||||||||||||||||||||||||||||||||||||||||||||||||||||1011.8||1|FM15-METAR|223|ICAO-KFCH|||||||||||||||||||||||||||||||||||||||||||MET064METAR KFCH 070655Z AUTO 32003KT 10SM OVC033 26/14 A2988 RMK A01=||F||223|ICAO-KFCH
USW00023167|FRESNO CHANDLER DWTN AP|2021|08|07|07|15|36.7333|-119.8167|84.1|26.0||1|FM15-METAR|223|ICAO-KFCH|14.0||1|FM15-METAR|223|ICAO-KFCH|||||||||||||999|C-Calm|9|FM15-METAR|223|ICAO-KFCH|0.0|C-Calm|1|FM15-METAR|223|ICAO-KFCH|||||||||||||48|Derived||FM15-METAR|223|ICAO-KFCH|||||||||||||||||||||||||||||||||||||||||||||||||||||||||||||||||||||||||1011.5||1|FM15-METAR|223|ICAO-KFCH|||||||||||||||||||||||||||||||||||||||||||MET064METAR KFCH 070715Z AUTO 00000KT 10SM OVC034 26/14 A2987 RMK A01=||F||223|ICAO-KFCH
USW00023167|FRESNO CHANDLER DWTN AP|2021|08|07|07|35|36.7333|-119.8167|84.1|26.0||1|FM15-METAR|223|ICAO-KFCH|14.0||1|FM15-METAR|223|ICAO-KFCH|||||||||||||999|C-Calm|9|FM15-METAR|223|ICAO-KFCH|0.0|C-Calm|1|FM15-METAR|223|ICAO-KFCH|||||||||||||48|Derived||FM15-METAR|223|ICAO-KFCH|||||||||||||||||||||||||||||||||||||||||||||||||||||||||||||||||||||||||1011.5||1|FM15-METAR|223|ICAO-KFCH|||||||||||||||||||||||||||||||||||||||||||MET064METAR KFCH 070735Z AUTO 00000KT 10SM OVC036 26/14 A2987 RMK A01=||F||223|ICAO-KFCH
USW00023167|FRESNO CHANDLER DWTN AP|2021|08|07|07|55|36.7333|-119.8167|84.1|24.0||1|FM15-METAR|223|ICAO-KFCH|14.0||1|FM15-METAR|223|ICAO-KFCH|||||||||||||999|C-Calm|9|FM15-METAR|223|ICAO-KFCH|0.0|C-Calm|1|FM15-METAR|223|ICAO-KFCH|||||||||||||54|Derived||FM15-METAR|223|ICAO-KFCH|||||||||||||||||||||||||||||||||||||||||||||||||||||||||||||||||||||||||1011.5||1|FM15-METAR|223|ICAO-KFCH|||||||||||||||||||||||||||||||||||||||||||MET064METAR KFCH 070755Z AUTO 00000KT 10SM OVC037 24/14 A2987 RMK A01=||F||223|ICAO-KFCH
USW00023167|FRESNO CHANDLER DWTN AP|2021|08|07|08|15|36.7333|-119.8167|84.1|25.0||1|FM15-METAR|223|ICAO-KFCH|14.0||1|FM15-METAR|223|ICAO-KFCH|||||||||||||999|C-Calm|9|FM15-METAR|223|ICAO-KFCH|0.0|C-Calm|1|FM15-METAR|223|ICAO-KFCH|||||||||||||51|Derived||FM15-METAR|223|ICAO-KFCH|||||||||||||||||||||||||||||||||||||||||||||||||||||||||||||||||||||||||1011.5||1|FM15-METAR|223|ICAO-KFCH|||||||||||||||||||||||||||||||||||||||||||MET064METAR KFCH 070815Z AUTO 00000KT 10SM OVC035 25/14 A2987 RMK A01=||F||223|ICAO-KFCH
USW00023167|FRESNO CHANDLER DWTN AP|2021|08|07|08|35|36.7333|-119.8167|84.1|25.0||1|FM15-METAR|223|ICAO-KFCH|14.0||1|FM15-METAR|223|ICAO-KFCH|||||||||||||999|C-Calm|9|FM15-METAR|223|ICAO-KFCH|0.0|C-Calm|1|FM15-METAR|223|ICAO-KFCH|||||||||||||51|Derived||FM15-METAR|223|ICAO-KFCH|||||||||||||||||||||||||||||||||||||||||||||||||||||||||||||||||||||||||1011.5||1|FM15-METAR|223|ICAO-KFCH|||||||||||||||||||||||||||||||||||||||||||MET071METAR KFCH 070835Z AUTO 00000KT 10SM SCT033 OVC045 25/14 A2987 RMK A01=||F||223|ICAO-KFCH
USW00023167|FRESNO CHANDLER DWTN AP|2021|08|07|08|55|36.7333|-119.8167|84.1|24.0||1|FM15-METAR|223|ICAO-KFCH|14.0||1|FM15-METAR|223|ICAO-KFCH|||||||||||||999|C-Calm|9|FM15-METAR|223|ICAO-KFCH|0.0|C-Calm|1|FM15-METAR|223|ICAO-KFCH|||||||||||||54|Derived||FM15-METAR|223|ICAO-KFCH|||||||||||||||||||||||||||||||||||||||||||||||||||||||||||||||||||||||||1011.2||1|FM15-METAR|223|ICAO-KFCH|||||||||||||||||||||||||||||||||||||||||||MET071METAR KFCH 070855Z AUTO 00000KT 10SM FEW034 OVC042 24/14 A2986 RMK A01=||F||223|ICAO-KFCH
USW00023167|FRESNO CHANDLER DWTN AP|2021|08|07|09|15|36.7333|-119.8167|84.1|24.0||1|FM15-METAR|223|ICAO-KFCH|14.0||1|FM15-METAR|223|ICAO-KFCH|||||||||||||999|C-Calm|9|FM15-METAR|223|ICAO-KFCH|0.0|C-Calm|1|FM15-METAR|223|ICAO-KFCH|||||||||||||54|Derived||FM15-METAR|223|ICAO-KFCH|||||||||||||||||||||||||||||||||||||||||||||||||||||||||||||||||||||||||1011.2||1|FM15-METAR|223|ICAO-KFCH|||||||||||||||||||||||||||||||||||||||||||MET071METAR KFCH 070915Z AUTO 00000KT 10SM FEW030 OVC040 24/14 A2986 RMK A01=||F||223|ICAO-KFCH
USW00023167|FRESNO CHANDLER DWTN AP|2021|08|07|09|35|36.7333|-119.8167|84.1|23.0||1|FM15-METAR|223|ICAO-KFCH|14.0||1|FM15-METAR|223|ICAO-KFCH|||||||||||||999|C-Calm|9|FM15-METAR|223|ICAO-KFCH|0.0|C-Calm|1|FM15-METAR|223|ICAO-KFCH|||||||||||||57|Derived||FM15-METAR|223|ICAO-KFCH|||||||||||||||||||||||||||||||||||||||||||||||||||||||||||||||||||||||||1011.2||1|FM15-METAR|223|ICAO-KFCH|||||||||||||||||||||||||||||||||||||||||||MET071METAR KFCH 070935Z AUTO 00000KT 10SM BKN041 OVC049 23/14 A2986 RMK A01=||F||223|ICAO-KFCH
USW00023167|FRESNO CHANDLER DWTN AP|2021|08|07|09|55|36.7333|-119.8167|84.1|22.0||1|FM15-METAR|223|ICAO-KFCH|14.0||1|FM15-METAR|223|ICAO-KFCH|||||||||||||999|C-Calm|9|FM15-METAR|223|ICAO-KFCH|0.0|C-Calm|1|FM15-METAR|223|ICAO-KFCH|||||||||||||61|Derived||FM15-METAR|223|ICAO-KFCH|||||||||||||||||||||||||||||||||||||||||||||||||||||||||||||||||||||||||1010.8||1|FM15-METAR|223|ICAO-KFCH|||||||||||||||||||||||||||||||||||||||||||MET071METAR KFCH 070955Z AUTO 00000KT 10SM FEW042 OVC049 22/14 A2985 RMK A01=||F||223|ICAO-KFCH
USW00023167|FRESNO CHANDLER DWTN AP|2021|08|07|10|15|36.7333|-119.8167|84.1|23.0||1|FM15-METAR|223|ICAO-KFCH|15.0||1|FM15-METAR|223|ICAO-KFCH|||||||||||||999|C-Calm|9|FM15-METAR|223|ICAO-KFCH|0.0|C-Calm|1|FM15-METAR|223|ICAO-KFCH|||||||||||||61|Derived||FM15-METAR|223|ICAO-KFCH|||||||||||||||||||||||||||||||||||||||||||||||||||||||||||||||||||||||||1010.8||1|FM15-METAR|223|ICAO-KFCH|||||||||||||||||||||||||||||||||||||||||||MET064METAR KFCH 071015Z AUTO 00000KT 10SM OVC047 23/15 A2985 RMK A01=||F||223|ICAO-KFCH
USW00023167|FRESNO CHANDLER DWTN AP|2021|08|07|10|35|36.7333|-119.8167|84.1|23.0||1|FM15-METAR|223|ICAO-KFCH|15.0||1|FM15-METAR|223|ICAO-KFCH|||||||||||||999|C-Calm|9|FM15-METAR|223|ICAO-KFCH|0.0|C-Calm|1|FM15-METAR|223|ICAO-KFCH|||||||||||||61|Derived||FM15-METAR|223|ICAO-KFCH|||||||||||||||||||||||||||||||||||||||||||||||||||||||||||||||||||||||||1010.8||1|FM15-METAR|223|ICAO-KFCH|||||||||||||||||||||||||||||||||||||||||||MET078METAR KFCH 071035Z AUTO 00000KT 10SM FEW031 BKN046 OVC055 23/15 A2985 RMK A01=||F||223|ICAO-KFCH
USW00023167|FRESNO CHANDLER DWTN AP|2021|08|07|10|55|36.7333|-119.8167|84.1|22.0||1|FM15-METAR|223|ICAO-KFCH|15.0||1|FM15-METAR|223|ICAO-KFCH|||||||||||||999|C-Calm|9|FM15-METAR|223|ICAO-KFCH|0.0|C-Calm|1|FM15-METAR|223|ICAO-KFCH|||||||||||||65|Derived||FM15-METAR|223|ICAO-KFCH|||||||||||||||||||||||||||||||||||||||||||||||||||||||||||||||||||||||||1010.8||1|FM15-METAR|223|ICAO-KFCH|||||||||||||||||||||||||||||||||||||||||||MET078METAR KFCH 071055Z AUTO 00000KT 10SM FEW032 BKN041 OVC055 22/15 A2985 RMK A01=||F||223|ICAO-KFCH
USW00023167|FRESNO CHANDLER DWTN AP|2021|08|07|11|15|36.7333|-119.8167|84.1|22.0||1|FM15-METAR|223|ICAO-KFCH|15.0||1|FM15-METAR|223|ICAO-KFCH|||||||||||||999|C-Calm|9|FM15-METAR|223|ICAO-KFCH|0.0|C-Calm|1|FM15-METAR|223|ICAO-KFCH|||||||||||||65|Derived||FM15-METAR|223|ICAO-KFCH|||||||||||||||||||||||||||||||||||||||||||||||||||||||||||||||||||||||||1010.8||1|FM15-METAR|223|ICAO-KFCH|||||||||||||||||||||||||||||||||||||||||||MET064METAR KFCH 071115Z AUTO 00000KT 10SM OVC042 22/15 A2985 RMK A01=||F||223|ICAO-KFCH
USW00023167|FRESNO CHANDLER DWTN AP|2021|08|07|11|35|36.7333|-119.8167|84.1|22.0||1|FM15-METAR|223|ICAO-KFCH|15.0||1|FM15-METAR|223|ICAO-KFCH|||||||||||||999|C-Calm|9|FM15-METAR|223|ICAO-KFCH|0.0|C-Calm|1|FM15-METAR|223|ICAO-KFCH|||||||||||||65|Derived||FM15-METAR|223|ICAO-KFCH|||||||||||||||||||||||||||||||||||||||||||||||||||||||||||||||||||||||||1010.8||1|FM15-METAR|223|ICAO-KFCH|||||||||||||||||||||||||||||||||||||||||||MET078METAR KFCH 071135Z AUTO 00000KT 10SM FEW036 BKN042 OVC050 22/15 A2985 RMK A01=||F||223|ICAO-KFCH
USW00023167|FRESNO CHANDLER DWTN AP|2021|08|07|11|55|36.7333|-119.8167|84.1|22.0||1|FM15-METAR|223|ICAO-KFCH|15.0||1|FM15-METAR|223|ICAO-KFCH|||||||||||||999|C-Calm|9|FM15-METAR|223|ICAO-KFCH|0.0|C-Calm|1|FM15-METAR|223|ICAO-KFCH|||||||||||||65|Derived||FM15-METAR|223|ICAO-KFCH|||||||||||||||||||||||||||||||||||||||||||||||||||||||||||||||||||||||||1010.8||1|FM15-METAR|223|ICAO-KFCH|||||||||||||||||||||||||||||||||||||||||||MET064METAR KFCH 071155Z AUTO 00000KT 10SM OVC042 22/15 A2985 RMK A01=||F||223|ICAO-KFCH
USW00023167|FRESNO CHANDLER DWTN AP|2021|08|07|12|15|36.7333|-119.8167|84.1|21.0||1|FM15-METAR|223|ICAO-KFCH|15.0||1|FM15-METAR|223|ICAO-KFCH|||||||||||||999|C-Calm|9|FM15-METAR|223|ICAO-KFCH|0.0|C-Calm|1|FM15-METAR|223|ICAO-KFCH|||||||||||||69|Derived||FM15-METAR|223|ICAO-KFCH|||||||||||||||||||||||||||||||||||||||||||||||||||||||||||||||||||||||||1010.8||1|FM15-METAR|223|ICAO-KFCH|||||||||||||||||||||||||||||||||||||||||||MET064METAR KFCH 071215Z AUTO 00000KT 10SM OVC041 21/15 A2985 RMK A01=||F||223|ICAO-KFCH
USW00023167|FRESNO CHANDLER DWTN AP|2021|08|07|12|35|36.7333|-119.8167|84.1|20.0||1|FM15-METAR|223|ICAO-KFCH|15.0||1|FM15-METAR|223|ICAO-KFCH|||||||||||||999|C-Calm|9|FM15-METAR|223|ICAO-KFCH|0.0|C-Calm|1|FM15-METAR|223|ICAO-KFCH|||||||||||||73|Derived||FM15-METAR|223|ICAO-KFCH|||||||||||||||||||||||||||||||||||||||||||||||||||||||||||||||||||||||||1011.2||1|FM15-METAR|223|ICAO-KFCH|||||||||||||||||||||||||||||||||||||||||||MET064METAR KFCH 071235Z AUTO 00000KT 10SM OVC041 20/15 A2986 RMK A01=||F||223|ICAO-KFCH
USW00023167|FRESNO CHANDLER DWTN AP|2021|08|07|12|55|36.7333|-119.8167|84.1|20.0||1|FM15-METAR|223|ICAO-KFCH|15.0||1|FM15-METAR|223|ICAO-KFCH|||||||||||||110|N-Normal|1|FM15-METAR|223|ICAO-KFCH|1.5|N-Normal|1|FM15-METAR|223|ICAO-KFCH|||||||||||||73|Derived||FM15-METAR|223|ICAO-KFCH|||||||||||||||||||||||||||||||||||||||||||||||||||||||||||||||||||||||||1011.2||1|FM15-METAR|223|ICAO-KFCH|||||||||||||||||||||||||||||||||||||||||||MET071METAR KFCH 071255Z AUTO 11003KT 10SM BKN040 OVC055 20/15 A2986 RMK A01=||F||223|ICAO-KFCH
USW00023167|FRESNO CHANDLER DWTN AP|2021|08|07|13|15|36.7333|-119.8167|84.1|21.0||1|FM15-METAR|223|ICAO-KFCH|15.0||1|FM15-METAR|223|ICAO-KFCH|||||||||||||999|C-Calm|9|FM15-METAR|223|ICAO-KFCH|0.0|C-Calm|1|FM15-METAR|223|ICAO-KFCH|||||||||||||69|Derived||FM15-METAR|223|ICAO-KFCH|||||||||||||||||||||||||||||||||||||||||||||||||||||||||||||||||||||||||1011.5||1|FM15-METAR|223|ICAO-KFCH|||||||||||||||||||||||||||||||||||||||||||MET077METAR KFCH 071315Z AUTO 00000KT 9SM SCT036 SCT041 BKN055 21/15 A2987 RMK A01=||F||223|ICAO-KFCH
USW00023167|FRESNO CHANDLER DWTN AP|2021|08|07|13|35|36.7333|-119.8167|84.1|21.0||1|FM15-METAR|223|ICAO-KFCH|15.0||1|FM15-METAR|223|ICAO-KFCH|||||||||||||999|C-Calm|9|FM15-METAR|223|ICAO-KFCH|0.0|C-Calm|1|FM15-METAR|223|ICAO-KFCH|||||||||||||69|Derived||FM15-METAR|223|ICAO-KFCH|||||||||||||||||||||||||||||||||||||||||||||||||||||||||||||||||||||||||1011.5||1|FM15-METAR|223|ICAO-KFCH|||||||||||||||||||||||||||||||||||||||||||MET060METAR KFCH 071335Z AUTO 00000KT 9SM CLR 21/15 A2987 RMK A01=||F||223|ICAO-KFCH
USW00023167|FRESNO CHANDLER DWTN AP|2021|08|07|13|55|36.7333|-119.8167|84.1|20.0||1|FM15-METAR|223|ICAO-KFCH|15.0||1|FM15-METAR|223|ICAO-KFCH|||||||||||||999|C-Calm|9|FM15-METAR|223|ICAO-KFCH|0.0|C-Calm|1|FM15-METAR|223|ICAO-KFCH|||||||||||||73|Derived||FM15-METAR|223|ICAO-KFCH|||||||||||||||||||||||||||||||||||||||||||||||||||||||||||||||||||||||||1011.5||1|FM15-METAR|223|ICAO-KFCH|||||||||||||||||||||||||||||||||||||||||||MET060METAR KFCH 071355Z AUTO 00000KT 8SM CLR 20/15 A2987 RMK A01=||F||223|ICAO-KFCH
USW00023167|FRESNO CHANDLER DWTN AP|2021|08|07|14|15|36.7333|-119.8167|84.1|21.0||1|FM15-METAR|223|ICAO-KFCH|15.0||1|FM15-METAR|223|ICAO-KFCH|||||||||||||999|C-Calm|9|FM15-METAR|223|ICAO-KFCH|0.0|C-Calm|1|FM15-METAR|223|ICAO-KFCH|||||||||||||69|Derived||FM15-METAR|223|ICAO-KFCH|||||||||||||||||||||||||||||||||||||||||||||||||||||||||||||||||||||||||1011.8||1|FM15-METAR|223|ICAO-KFCH|||||||||||||||||||||||||||||||||||||||||||MET060METAR KFCH 071415Z AUTO 00000KT 8SM CLR 21/15 A2988 RMK A01=||F||223|ICAO-KFCH
USW00023167|FRESNO CHANDLER DWTN AP|2021|08|07|14|35|36.7333|-119.8167|84.1|21.0||1|FM15-METAR|223|ICAO-KFCH|15.0||1|FM15-METAR|223|ICAO-KFCH|||||||||||||999|C-Calm|9|FM15-METAR|223|ICAO-KFCH|0.0|C-Calm|1|FM15-METAR|223|ICAO-KFCH|||||||||||||69|Derived||FM15-METAR|223|ICAO-KFCH|||||||||||||||||||||||||||||||||||||||||||||||||||||||||||||||||||||||||1011.8||1|FM15-METAR|223|ICAO-KFCH|||||||||||||||||||||||||||||||||||||||||||MET060METAR KFCH 071435Z AUTO 00000KT 7SM CLR 21/15 A2988 RMK A01=||F||223|ICAO-KFCH
USW00023167|FRESNO CHANDLER DWTN AP|2021|08|07|14|55|36.7333|-119.8167|84.1|22.0||1|FM15-METAR|223|ICAO-KFCH|15.0||1|FM15-METAR|223|ICAO-KFCH|||||||||||||130|N-Normal|1|FM15-METAR|223|ICAO-KFCH|1.5|N-Normal|1|FM15-METAR|223|ICAO-KFCH|||||||||||||65|Derived||FM15-METAR|223|ICAO-KFCH|||||||||||||||||||||||||||||||||||||||||||||||||||||||||||||||||||||||||1012.2||1|FM15-METAR|223|ICAO-KFCH|||||||||||||||||||||||||||||||||||||||||||MET060METAR KFCH 071455Z AUTO 13003KT 7SM CLR 22/15 A2989 RMK A01=||F||223|ICAO-KFCH
USW00023167|FRESNO CHANDLER DWTN AP|2021|08|07|15|15|36.7333|-119.8167|84.1|23.0||1|FM15-METAR|223|ICAO-KFCH|15.0||1|FM15-METAR|223|ICAO-KFCH|||||||||||||100|N-Normal|1|FM15-METAR|223|ICAO-KFCH|2.6|N-Normal|1|FM15-METAR|223|ICAO-KFCH|||||||||||||61|Derived||FM15-METAR|223|ICAO-KFCH|||||||||||||||||||||||||||||||||||||||||||||||||||||||||||||||||||||||||1012.2||1|FM15-METAR|223|ICAO-KFCH|||||||||||||||||||||||||||||||||||||||||||MET060METAR KFCH 071515Z AUTO 10005KT 7SM CLR 23/15 A2989 RMK A01=||F||223|ICAO-KFCH
USW00023167|FRESNO CHANDLER DWTN AP|2021|08|07|15|35|36.7333|-119.8167|84.1|23.0||1|FM15-METAR|223|ICAO-KFCH|14.0||1|FM15-METAR|223|ICAO-KFCH|||||||||||||130|N-Normal|1|FM15-METAR|223|ICAO-KFCH|1.5|N-Normal|1|FM15-METAR|223|ICAO-KFCH|||||||||||||57|Derived||FM15-METAR|223|ICAO-KFCH|||||||||||||||||||||||||||||||||||||||||||||||||||||||||||||||||||||||||1012.2||1|FM15-METAR|223|ICAO-KFCH|||||||||||||||||||||||||||||||||||||||||||MET060METAR KFCH 071535Z AUTO 13003KT 7SM CLR 23/14 A2989 RMK A01=||F||223|ICAO-KFCH
USW00023167|FRESNO CHANDLER DWTN AP|2021|08|07|15|55|36.7333|-119.8167|84.1|24.0||1|FM15-METAR|223|ICAO-KFCH|14.0||1|FM15-METAR|223|ICAO-KFCH|||||||||||||130|N-Normal|1|FM15-METAR|223|ICAO-KFCH|2.1|N-Normal|1|FM15-METAR|223|ICAO-KFCH|||||||||||||54|Derived||FM15-METAR|223|ICAO-KFCH|||||||||||||||||||||||||||||||||||||||||||||||||||||||||||||||||||||||||1012.5||1|FM15-METAR|223|ICAO-KFCH|||||||||||||||||||||||||||||||||||||||||||MET060METAR KFCH 071555Z AUTO 13004KT 8SM CLR 24/14 A2990 RMK A01=||F||223|ICAO-KFCH
USW00023167|FRESNO CHANDLER DWTN AP|2021|08|07|16|15|36.7333|-119.8167|84.1|25.0||1|FM15-METAR|223|ICAO-KFCH|14.0||1|FM15-METAR|223|ICAO-KFCH|||||||||||||160|N-Normal|1|FM15-METAR|223|ICAO-KFCH|2.1|N-Normal|1|FM15-METAR|223|ICAO-KFCH|||||||||||||51|Derived||FM15-METAR|223|ICAO-KFCH|||||||||||||||||||||||||||||||||||||||||||||||||||||||||||||||||||||||||1012.5||1|FM15-METAR|223|ICAO-KFCH|||||||||||||||||||||||||||||||||||||||||||MET060METAR KFCH 071615Z AUTO 16004KT 7SM CLR 25/14 A2990 RMK A01=||F||223|ICAO-KFCH
USW00023167|FRESNO CHANDLER DWTN AP|2021|08|07|16|35|36.7333|-119.8167|84.1|25.0||1|FM15-METAR|223|ICAO-KFCH|15.0||1|FM15-METAR|223|ICAO-KFCH|||||||||||||999|C-Calm|9|FM15-METAR|223|ICAO-KFCH|0.0|C-Calm|1|FM15-METAR|223|ICAO-KFCH|||||||||||||54|Derived||FM15-METAR|223|ICAO-KFCH|||||||||||||||||||||||||||||||||||||||||||||||||||||||||||||||||||||||||1012.5||1|FM15-METAR|223|ICAO-KFCH|||||||||||||||||||||||||||||||||||||||||||MET060METAR KFCH 071635Z AUTO 00000KT 8SM CLR 25/15 A2990 RMK A01=||F||223|ICAO-KFCH
USW00023167|FRESNO CHANDLER DWTN AP|2021|08|07|16|55|36.7333|-119.8167|84.1|26.0||1|FM15-METAR|223|ICAO-KFCH|15.0||1|FM15-METAR|223|ICAO-KFCH|||||||||||||140|N-Normal|1|FM15-METAR|223|ICAO-KFCH|2.1|N-Normal|1|FM15-METAR|223|ICAO-KFCH|||||||||||||51|Derived||FM15-METAR|223|ICAO-KFCH|||||||||||||||||||||||||||||||||||||||||||||||||||||||||||||||||||||||||1012.5||1|FM15-METAR|223|ICAO-KFCH|||||||||||||||||||||||||||||||||||||||||||MET060METAR KFCH 071655Z AUTO 14004KT 8SM CLR 26/15 A2990 RMK A01=||F||223|ICAO-KFCH
USW00023167|FRESNO CHANDLER DWTN AP|2021|08|07|17|15|36.7333|-119.8167|84.1|27.0||1|FM15-METAR|223|ICAO-KFCH|15.0||1|FM15-METAR|223|ICAO-KFCH|||||||||||||999|V-Variable|9|FM15-METAR|223|ICAO-KFCH|2.1|V-Variable|1|FM15-METAR|223|ICAO-KFCH|||||||||||||48|Derived||FM15-METAR|223|ICAO-KFCH|||||||||||||||||||||||||||||||||||||||||||||||||||||||||||||||||||||||||1012.5||1|FM15-METAR|223|ICAO-KFCH|||||||||||||||||||||||||||||||||||||||||||MET060METAR KFCH 071715Z AUTO VRB04KT 8SM CLR 27/15 A2990 RMK A01=||F||223|ICAO-KFCH
USW00023167|FRESNO CHANDLER DWTN AP|2021|08|07|17|35|36.7333|-119.8167|84.1|27.0||1|FM15-METAR|223|ICAO-KFCH|14.0||1|FM15-METAR|223|ICAO-KFCH|||||||||||||200|N-Normal|1|FM15-METAR|223|ICAO-KFCH|1.5|N-Normal|1|FM15-METAR|223|ICAO-KFCH|||||||||||||45|Derived||FM15-METAR|223|ICAO-KFCH|||||||||||||||||||||||||||||||||||||||||||||||||||||||||||||||||||||||||1012.5||1|FM15-METAR|223|ICAO-KFCH|||||||||||||||||||||||||||||||||||||||||||MET060METAR KFCH 071735Z AUTO 20003KT 8SM CLR 27/14 A2990 RMK A01=||F||223|ICAO-KFCH
USW00023167|FRESNO CHANDLER DWTN AP|2021|08|07|17|55|36.7333|-119.8167|84.1|28.0||1|FM15-METAR|223|ICAO-KFCH|14.0||1|FM15-METAR|223|ICAO-KFCH|||||||||||||999|C-Calm|9|FM15-METAR|223|ICAO-KFCH|0.0|C-Calm|1|FM15-METAR|223|ICAO-KFCH|||||||||||||42|Derived||FM15-METAR|223|ICAO-KFCH|||||||||||||||||||||||||||||||||||||||||||||||||||||||||||||||||||||||||1012.5||1|FM15-METAR|223|ICAO-KFCH|||||||||||||||||||||||||||||||||||||||||||MET060METAR KFCH 071755Z AUTO 00000KT 7SM CLR 28/14 A2990 RMK A01=||F||223|ICAO-KFCH
USW00023167|FRESNO CHANDLER DWTN AP|2021|08|07|18|15|36.7333|-119.8167|84.1|29.0||1|FM15-METAR|223|ICAO-KFCH|14.0||1|FM15-METAR|223|ICAO-KFCH|||||||||||||999|C-Calm|9|FM15-METAR|223|ICAO-KFCH|0.0|C-Calm|1|FM15-METAR|223|ICAO-KFCH|||||||||||||40|Derived||FM15-METAR|223|ICAO-KFCH|||||||||||||||||||||||||||||||||||||||||||||||||||||||||||||||||||||||||1012.2||1|FM15-METAR|223|ICAO-KFCH|||||||||||||||||||||||||||||||||||||||||||MET060METAR KFCH 071815Z AUTO 00000KT 7SM CLR 29/14 A2989 RMK A01=||F||223|ICAO-KFCH
USW00023167|FRESNO CHANDLER DWTN AP|2021|08|07|18|35|36.7333|-119.8167|84.1|30.0||1|FM15-METAR|223|ICAO-KFCH|14.0||1|FM15-METAR|223|ICAO-KFCH|||||||||||||210|N-Normal|1|FM15-METAR|223|ICAO-KFCH|3.1|N-Normal|1|FM15-METAR|223|ICAO-KFCH|||||||||||||38|Derived||FM15-METAR|223|ICAO-KFCH|||||||||||||||||||||||||||||||||||||||||||||||||||||||||||||||||||||||||1012.2||1|FM15-METAR|223|ICAO-KFCH|||||||||||||||||||||||||||||||||||||||||||MET060METAR KFCH 071835Z AUTO 21006KT 7SM CLR 30/14 A2989 RMK A01=||F||223|ICAO-KFCH
USW00023167|FRESNO CHANDLER DWTN AP|2021|08|07|18|55|36.7333|-119.8167|84.1|30.0||1|FM15-METAR|223|ICAO-KFCH|13.0||1|FM15-METAR|223|ICAO-KFCH|||||||||||||999|C-Calm|9|FM15-METAR|223|ICAO-KFCH|0.0|C-Calm|1|FM15-METAR|223|ICAO-KFCH|||||||||||||35|Derived||FM15-METAR|223|ICAO-KFCH|||||||||||||||||||||||||||||||||||||||||||||||||||||||||||||||||||||||||1012.2||1|FM15-METAR|223|ICAO-KFCH|||||||||||||||||||||||||||||||||||||||||||MET063METAR KFCH 071855Z AUTO 00000KT 6SM HZ CLR 30/13 A2989 RMK A01=||F||223|ICAO-KFCH
USW00023167|FRESNO CHANDLER DWTN AP|2021|08|07|19|15|36.7333|-119.8167|84.1|31.0||1|FM15-METAR|223|ICAO-KFCH|14.0||1|FM15-METAR|223|ICAO-KFCH|||||||||||||999|V-Variable|9|FM15-METAR|223|ICAO-KFCH|1.5|V-Variable|1|FM15-METAR|223|ICAO-KFCH|||||||||||||35|Derived||FM15-METAR|223|ICAO-KFCH|||||||||||||||||||||||||||||||||||||||||||||||||||||||||||||||||||||||||1011.8||1|FM15-METAR|223|ICAO-KFCH|||||||||||||||||||||||||||||||||||||||||||MET063METAR KFCH 071915Z AUTO VRB03KT 6SM HZ CLR 31/14 A2988 RMK A01=||F||223|ICAO-KFCH
USW00023167|FRESNO CHANDLER DWTN AP|2021|08|07|19|35|36.7333|-119.8167|84.1|32.0||1|FM15-METAR|223|ICAO-KFCH|13.0||1|FM15-METAR|223|ICAO-KFCH|||||||||||||999|V-Variable|9|FM15-METAR|223|ICAO-KFCH|2.1|V-Variable|1|FM15-METAR|223|ICAO-KFCH|||||||||||||31|Derived||FM15-METAR|223|ICAO-KFCH|||||||||||||||||||||||||||||||||||||||||||||||||||||||||||||||||||||||||1011.8||1|FM15-METAR|223|ICAO-KFCH|||||||||||||||||||||||||||||||||||||||||||MET063METAR KFCH 071935Z AUTO VRB04KT 5SM HZ CLR 32/13 A2988 RMK A01=||F||223|ICAO-KFCH
USW00023167|FRESNO CHANDLER DWTN AP|2021|08|07|19|55|36.7333|-119.8167|84.1|32.0||1|FM15-METAR|223|ICAO-KFCH|12.0||1|FM15-METAR|223|ICAO-KFCH|||||||||||||250|N-Normal|1|FM15-METAR|223|ICAO-KFCH|3.6|N-Normal|1|FM15-METAR|223|ICAO-KFCH|||||||||||||29|Derived||FM15-METAR|223|ICAO-KFCH|||||||||||||||||||||||||||||||||||||||||||||||||||||||||||||||||||||||||1011.5||1|FM15-METAR|223|ICAO-KFCH|||||||||||||||||||||||||||||||||||||||||||MET063METAR KFCH 071955Z AUTO 25007KT 5SM HZ CLR 32/12 A2987 RMK A01=||F||223|ICAO-KFCH
USW00023167|FRESNO CHANDLER DWTN AP|2021|08|07|20|15|36.7333|-119.8167|84.1|32.0||1|FM15-METAR|223|ICAO-KFCH|11.0||1|FM15-METAR|223|ICAO-KFCH|||||||||||||999|V-Variable|9|FM15-METAR|223|ICAO-KFCH|2.6|V-Variable|1|FM15-METAR|223|ICAO-KFCH|||||||||||||27|Derived||FM15-METAR|223|ICAO-KFCH|||||||||||||||||||||||||||||||||||||||||||||||||||||||||||||||||||||||||1011.5||1|FM15-METAR|223|ICAO-KFCH|||||||||||||||||||||||||||||||||||||||||||MET063METAR KFCH 072015Z AUTO VRB05KT 5SM HZ CLR 32/11 A2987 RMK A01=||F||223|ICAO-KFCH
USW00023167|FRESNO CHANDLER DWTN AP|2021|08|07|20|35|36.7333|-119.8167|84.1|33.0||1|FM15-METAR|223|ICAO-KFCH|11.0||1|FM15-METAR|223|ICAO-KFCH|||||||||||||999|V-Variable|9|FM15-METAR|223|ICAO-KFCH|1.5|V-Variable|1|FM15-METAR|223|ICAO-KFCH|||||||||||||26|Derived||FM15-METAR|223|ICAO-KFCH|||||||||||||||||||||||||||||||||||||||||||||||||||||||||||||||||||||||||1011.2||1|FM15-METAR|223|ICAO-KFCH|||||||||||||||||||||||||||||||||||||||||||MET063METAR KFCH 072035Z AUTO VRB03KT 5SM HZ CLR 33/11 A2986 RMK A01=||F||223|ICAO-KFCH
USW00023167|FRESNO CHANDLER DWTN AP|2021|08|07|20|55|36.7333|-119.8167|84.1|34.0||1|FM15-METAR|223|ICAO-KFCH|11.0||1|FM15-METAR|223|ICAO-KFCH|||||||||||||999|V-Variable|9|FM15-METAR|223|ICAO-KFCH|1.5|V-Variable|1|FM15-METAR|223|ICAO-KFCH|5.1||1|FM15-METAR|223|ICAO-KFCH|||||||24|Derived||FM15-METAR|223|ICAO-KFCH|||||||||||||||||||||||||||||||||||||||||||||||||||||||||||||||||||||||||1010.8||1|FM15-METAR|223|ICAO-KFCH|||||||||||||||||||||||||||||||||||||||||||MET066METAR KFCH 072055Z AUTO VRB03G10KT 5SM HZ CLR 34/11 A2985 RMK A01=||F||223|ICAO-KFCH
USW00023167|FRESNO CHANDLER DWTN AP|2021|08|07|21|15|36.7333|-119.8167|84.1|35.0||1|FM15-METAR|223|ICAO-KFCH|10.0||1|FM15-METAR|223|ICAO-KFCH|||||||||||||230|N-Normal|1|FM15-METAR|223|ICAO-KFCH|2.1|N-Normal|1|FM15-METAR|223|ICAO-KFCH|||||||||||||22|Derived||FM15-METAR|223|ICAO-KFCH|||||||||||||||||||||||||||||||||||||||||||||||||||||||||||||||||||||||||1010.8||1|FM15-METAR|223|ICAO-KFCH|||||||||||||||||||||||||||||||||||||||||||MET063METAR KFCH 072115Z AUTO 23004KT 5SM HZ CLR 35/10 A2985 RMK A01=||F||223|ICAO-KFCH
USW00023167|FRESNO CHANDLER DWTN AP|2021|08|07|21|35|36.7333|-119.8167|84.1|35.0||1|FM15-METAR|223|ICAO-KFCH|10.0||1|FM15-METAR|223|ICAO-KFCH|||||||||||||999|V-Variable|9|FM15-METAR|223|ICAO-KFCH|2.1|V-Variable|1|FM15-METAR|223|ICAO-KFCH|||||||||||||22|Derived||FM15-METAR|223|ICAO-KFCH|||||||||||||||||||||||||||||||||||||||||||||||||||||||||||||||||||||||||1010.5||1|FM15-METAR|223|ICAO-KFCH|||||||||||||||||||||||||||||||||||||||||||MET063METAR KFCH 072135Z AUTO VRB04KT 5SM HZ CLR 35/10 A2984 RMK A01=||F||223|ICAO-KFCH
USW00023167|FRESNO CHANDLER DWTN AP|2021|08|07|21|55|36.7333|-119.8167|84.1|36.0||1|FM15-METAR|223|ICAO-KFCH|8.0||1|FM15-METAR|223|ICAO-KFCH|||||||||||||320|N-Normal|1|FM15-METAR|223|ICAO-KFCH|2.6|N-Normal|1|FM15-METAR|223|ICAO-KFCH|||||||||||||18|Derived||FM15-METAR|223|ICAO-KFCH|||||||||||||||||||||||||||||||||||||||||||||||||||||||||||||||||||||||||1010.2||1|FM15-METAR|223|ICAO-KFCH|||||||||||||||||||||||||||||||||||||||||||MET063METAR KFCH 072155Z AUTO 32005KT 5SM HZ CLR 36/08 A2983 RMK A01=||F||223|ICAO-KFCH
USW00023167|FRESNO CHANDLER DWTN AP|2021|08|07|22|15|36.7333|-119.8167|84.1|36.0||1|FM15-METAR|223|ICAO-KFCH|8.0||1|FM15-METAR|223|ICAO-KFCH|||||||||||||999|V-Variable|9|FM15-METAR|223|ICAO-KFCH|2.1|V-Variable|1|FM15-METAR|223|ICAO-KFCH|||||||||||||18|Derived||FM15-METAR|223|ICAO-KFCH|||||||||||||||||||||||||||||||||||||||||||||||||||||||||||||||||||||||||1009.8||1|FM15-METAR|223|ICAO-KFCH|||||||||||||||||||||||||||||||||||||||||||MET063METAR KFCH 072215Z AUTO VRB04KT 6SM HZ CLR 36/08 A2982 RMK A01=||F||223|ICAO-KFCH
USW00023167|FRESNO CHANDLER DWTN AP|2021|08|07|22|35|36.7333|-119.8167|84.1|37.0||1|FM15-METAR|223|ICAO-KFCH|7.0||1|FM15-METAR|223|ICAO-KFCH|||||||||||||999|V-Variable|9|FM15-METAR|223|ICAO-KFCH|1.5|V-Variable|1|FM15-METAR|223|ICAO-KFCH|||||||||||||16|Derived||FM15-METAR|223|ICAO-KFCH|||||||||||||||||||||||||||||||||||||||||||||||||||||||||||||||||||||||||1009.8||1|FM15-METAR|223|ICAO-KFCH|||||||||||||||||||||||||||||||||||||||||||MET063METAR KFCH 072235Z AUTO VRB03KT 5SM HZ CLR 37/07 A2982 RMK A01=||F||223|ICAO-KFCH
USW00023167|FRESNO CHANDLER DWTN AP|2021|08|07|22|55|36.7333|-119.8167|84.1|37.0||1|FM15-METAR|223|ICAO-KFCH|7.0||1|FM15-METAR|223|ICAO-KFCH|||||||||||||360|N-Normal|1|FM15-METAR|223|ICAO-KFCH|2.6|N-Normal|1|FM15-METAR|223|ICAO-KFCH|||||||||||||16|Derived||FM15-METAR|223|ICAO-KFCH|||||||||||||||||||||||||||||||||||||||||||||||||||||||||||||||||||||||||1009.5||1|FM15-METAR|223|ICAO-KFCH|||||||||||||||||||||||||||||||||||||||||||MET063METAR KFCH 072255Z AUTO 36005KT 5SM HZ CLR 37/07 A2981 RMK A01=||F||223|ICAO-KFCH
USW00023167|FRESNO CHANDLER DWTN AP|2021|08|07|23|15|36.7333|-119.8167|84.1|37.0||1|FM15-METAR|223|ICAO-KFCH|6.0||1|FM15-METAR|223|ICAO-KFCH|||||||||||||310|N-Normal|1|FM15-METAR|223|ICAO-KFCH|3.6|N-Normal|1|FM15-METAR|223|ICAO-KFCH|||||||||||||15|Derived||FM15-METAR|223|ICAO-KFCH|||||||||||||||||||||||||||||||||||||||||||||||||||||||||||||||||||||||||1009.1||1|FM15-METAR|223|ICAO-KFCH|||||||||||||||||||||||||||||||||||||||||||MET063METAR KFCH 072315Z AUTO 31007KT 5SM HZ CLR 37/06 A2980 RMK A01=||F||223|ICAO-KFCH
USW00023167|FRESNO CHANDLER DWTN AP|2021|08|07|23|35|36.7333|-119.8167|84.1|37.0||1|FM15-METAR|223|ICAO-KFCH|6.0||1|FM15-METAR|223|ICAO-KFCH|||||||||||||340|N-Normal|1|FM15-METAR|223|ICAO-KFCH|3.6|N-Normal|1|FM15-METAR|223|ICAO-KFCH|||||||||||||15|Derived||FM15-METAR|223|ICAO-KFCH|||||||||||||||||||||||||||||||||||||||||||||||||||||||||||||||||||||||||1009.1||1|FM15-METAR|223|ICAO-KFCH|||||||||||||||||||||||||||||||||||||||||||MET063METAR KFCH 072335Z AUTO 34007KT 5SM HZ CLR 37/06 A2980 RMK A01=||F||223|ICAO-KFCH
USW00023167|FRESNO CHANDLER DWTN AP|2021|08|07|23|50|36.7333|-119.8167|84.1|37.0||1|FM15-METAR|223|ICAO-KFCH|6.0||1|FM15-METAR|223|ICAO-KFCH|||||||||||||310|N-Normal|1|FM15-METAR|223|ICAO-KFCH|3.6|N-Normal|1|FM15-METAR|223|ICAO-KFCH|||||||||||||15|Derived||FM15-METAR|223|ICAO-KFCH|||||||||||||||||||||||||||||||||||||||||||||||||||||||||||||||||||||||||1008.8||1|FM15-METAR|223|ICAO-KFCH|||||||||||||||||||||||||||||||||||||||||||MET063METAR KFCH 072350Z AUTO 31007KT 6SM HZ CLR 37/06 A2979 RMK A01=||F||223|ICAO-KFCH
USW00023167|FRESNO CHANDLER DWTN AP|2021|08|08|00|15|36.7333|-119.8167|84.1|37.0||1|FM15-METAR|223|ICAO-KFCH|6.0||1|FM15-METAR|223|ICAO-KFCH|||||||||||||340|N-Normal|1|FM15-METAR|223|ICAO-KFCH|3.6|N-Normal|1|FM15-METAR|223|ICAO-KFCH|||||||||||||15|Derived||FM15-METAR|223|ICAO-KFCH|||||||||||||||||||||||||||||||||||||||||||||||||||||||||||||||||||||||||1008.8||1|FM15-METAR|223|ICAO-KFCH|||||||||||||||||||||||||||||||||||||||||||MET063METAR KFCH 080015Z AUTO 34007KT 6SM HZ CLR 37/06 A2979 RMK A01=||F||223|ICAO-KFCH
USW00023167|FRESNO CHANDLER DWTN AP|2021|08|08|00|35|36.7333|-119.8167|84.1|37.0||1|FM15-METAR|223|ICAO-KFCH|6.0||1|FM15-METAR|223|ICAO-KFCH|||||||||||||330|N-Normal|1|FM15-METAR|223|ICAO-KFCH|3.1|N-Normal|1|FM15-METAR|223|ICAO-KFCH|||||||||||||15|Derived||FM15-METAR|223|ICAO-KFCH|||||||||||||||||||||||||||||||||||||||||||||||||||||||||||||||||||||||||1008.5||1|FM15-METAR|223|ICAO-KFCH|||||||||||||||||||||||||||||||||||||||||||MET063METAR KFCH 080035Z AUTO 33006KT 6SM HZ CLR 37/06 A2978 RMK A01=||F||223|ICAO-KFCH
USW00023167|FRESNO CHANDLER DWTN AP|2021|08|08|00|55|36.7333|-119.8167|84.1|37.0||1|FM15-METAR|223|ICAO-KFCH|7.0||1|FM15-METAR|223|ICAO-KFCH|||||||||||||320|N-Normal|1|FM15-METAR|223|ICAO-KFCH|4.1|N-Normal|1|FM15-METAR|223|ICAO-KFCH|7.2||1|FM15-METAR|223|ICAO-KFCH|||||||16|Derived||FM15-METAR|223|ICAO-KFCH|||||||||||||||||||||||||||||||||||||||||||||||||||||||||||||||||||||||||1008.5||1|FM15-METAR|223|ICAO-KFCH|||||||||||||||||||||||||||||||||||||||||||MET066METAR KFCH 080055Z AUTO 32008G14KT 6SM HZ CLR 37/07 A2978 RMK A01=||F||223|ICAO-KFCH
USW00023167|FRESNO CHANDLER DWTN AP|2021|08|08|01|15|36.7333|-119.8167|84.1|37.0||1|FM15-METAR|223|ICAO-KFCH|8.0||1|FM15-METAR|223|ICAO-KFCH|||||||||||||300|N-Normal|1|FM15-METAR|223|ICAO-KFCH|4.1|N-Normal|1|FM15-METAR|223|ICAO-KFCH|||||||||||||17|Derived||FM15-METAR|223|ICAO-KFCH|||||||||||||||||||||||||||||||||||||||||||||||||||||||||||||||||||||||||1008.5||1|FM15-METAR|223|ICAO-KFCH|||||||||||||||||||||||||||||||||||||||||||MET060METAR KFCH 080115Z AUTO 30008KT 8SM CLR 37/08 A2978 RMK A01=||F||223|ICAO-KFCH
USW00023167|FRESNO CHANDLER DWTN AP|2021|08|08|01|35|36.7333|-119.8167|84.1|36.0||1|FM15-METAR|223|ICAO-KFCH|7.0||1|FM15-METAR|223|ICAO-KFCH|||||||||||||300|N-Normal|1|FM15-METAR|223|ICAO-KFCH|4.6|N-Normal|1|FM15-METAR|223|ICAO-KFCH|||||||||||||17|Derived||FM15-METAR|223|ICAO-KFCH|||||||||||||||||||||||||||||||||||||||||||||||||||||||||||||||||||||||||1008.1||1|FM15-METAR|223|ICAO-KFCH|||||||||||||||||||||||||||||||||||||||||||MET060METAR KFCH 080135Z AUTO 30009KT 8SM CLR 36/07 A2977 RMK A01=||F||223|ICAO-KFCH
USW00023167|FRESNO CHANDLER DWTN AP|2021|08|08|01|55|36.7333|-119.8167|84.1|35.0||1|FM15-METAR|223|ICAO-KFCH|8.0||1|FM15-METAR|223|ICAO-KFCH|||||||||||||300|N-Normal|1|FM15-METAR|223|ICAO-KFCH|4.6|N-Normal|1|FM15-METAR|223|ICAO-KFCH|||||||||||||19|Derived||FM15-METAR|223|ICAO-KFCH|||||||||||||||||||||||||||||||||||||||||||||||||||||||||||||||||||||||||1008.1||1|FM15-METAR|223|ICAO-KFCH|||||||||||||||||||||||||||||||||||||||||||MET060METAR KFCH 080155Z AUTO 30009KT 8SM CLR 35/08 A2977 RMK A01=||F||223|ICAO-KFCH
USW00023167|FRESNO CHANDLER DWTN AP|2021|08|08|02|15|36.7333|-119.8167|84.1|35.0||1|FM15-METAR|223|ICAO-KFCH|9.0||1|FM15-METAR|223|ICAO-KFCH|||||||||||||310|N-Normal|1|FM15-METAR|223|ICAO-KFCH|3.6|N-Normal|1|FM15-METAR|223|ICAO-KFCH|||||||||||||20|Derived||FM15-METAR|223|ICAO-KFCH|||||||||||||||||||||||||||||||||||||||||||||||||||||||||||||||||||||||||1008.1||1|FM15-METAR|223|ICAO-KFCH|||||||||||||||||||||||||||||||||||||||||||MET060METAR KFCH 080215Z AUTO 31007KT 8SM CLR 35/09 A2977 RMK A01=||F||223|ICAO-KFCH
USW00023167|FRESNO CHANDLER DWTN AP|2021|08|08|02|35|36.7333|-119.8167|84.1|34.0||1|FM15-METAR|223|ICAO-KFCH|10.0||1|FM15-METAR|223|ICAO-KFCH|||||||||||||300|N-Normal|1|FM15-METAR|223|ICAO-KFCH|3.1|N-Normal|1|FM15-METAR|223|ICAO-KFCH|||||||||||||23|Derived||FM15-METAR|223|ICAO-KFCH|||||||||||||||||||||||||||||||||||||||||||||||||||||||||||||||||||||||||1008.1||1|FM15-METAR|223|ICAO-KFCH|||||||||||||||||||||||||||||||||||||||||||MET060METAR KFCH 080235Z AUTO 30006KT 8SM CLR 34/10 A2977 RMK A01=||F||223|ICAO-KFCH
USW00023167|FRESNO CHANDLER DWTN AP|2021|08|08|02|55|36.7333|-119.8167|84.1|33.0||1|FM15-METAR|223|ICAO-KFCH|12.0||1|FM15-METAR|223|ICAO-KFCH|||||||||||||300|N-Normal|1|FM15-METAR|223|ICAO-KFCH|3.6|N-Normal|1|FM15-METAR|223|ICAO-KFCH|||||||||||||28|Derived||FM15-METAR|223|ICAO-KFCH|||||||||||||||||||||||||||||||||||||||||||||||||||||||||||||||||||||||||1008.5||1|FM15-METAR|223|ICAO-KFCH|||||||||||||||||||||||||||||||||||||||||||MET060METAR KFCH 080255Z AUTO 30007KT 9SM CLR 33/12 A2978 RMK A01=||F||223|ICAO-KFCH
USW00023167|FRESNO CHANDLER DWTN AP|2021|08|08|03|15|36.7333|-119.8167|84.1|32.0||1|FM15-METAR|223|ICAO-KFCH|12.0||1|FM15-METAR|223|ICAO-KFCH|||||||||||||300|N-Normal|1|FM15-METAR|223|ICAO-KFCH|3.1|N-Normal|1|FM15-METAR|223|ICAO-KFCH|||||||||||||29|Derived||FM15-METAR|223|ICAO-KFCH|||||||||||||||||||||||||||||||||||||||||||||||||||||||||||||||||||||||||1008.5||1|FM15-METAR|223|ICAO-KFCH|||||||||||||||||||||||||||||||||||||||||||MET063METAR KFCH 080315Z AUTO 30006KT 8SM FEW047 32/12 A2978 RMK A01=||F||223|ICAO-KFCH
USW00023167|FRESNO CHANDLER DWTN AP|2021|08|08|03|35|36.7333|-119.8167|84.1|32.0||1|FM15-METAR|223|ICAO-KFCH|12.0||1|FM15-METAR|223|ICAO-KFCH|||||||||||||999|C-Calm|9|FM15-METAR|223|ICAO-KFCH|0.0|C-Calm|1|FM15-METAR|223|ICAO-KFCH|||||||||||||29|Derived||FM15-METAR|223|ICAO-KFCH|||||||||||||||||||||||||||||||||||||||||||||||||||||||||||||||||||||||||1008.5||1|FM15-METAR|223|ICAO-KFCH|||||||||||||||||||||||||||||||||||||||||||MET078METAR KFCH 080335Z AUTO 00000KT 10SM FEW034 BKN043 BKN048 32/12 A2978 RMK A01=||F||223|ICAO-KFCH
USW00023167|FRESNO CHANDLER DWTN AP|2021|08|08|03|55|36.7333|-119.8167|84.1|31.0||1|FM15-METAR|223|ICAO-KFCH|12.0||1|FM15-METAR|223|ICAO-KFCH|||||||||||||280|N-Normal|1|FM15-METAR|223|ICAO-KFCH|2.6|N-Normal|1|FM15-METAR|223|ICAO-KFCH|||||||||||||31|Derived||FM15-METAR|223|ICAO-KFCH|||||||||||||||||||||||||||||||||||||||||||||||||||||||||||||||||||||||||1008.8||1|FM15-METAR|223|ICAO-KFCH|||||||||||||||||||||||||||||||||||||||||||MET071METAR KFCH 080355Z AUTO 28005KT 10SM FEW036 OVC044 31/12 A2979 RMK A01=||F||223|ICAO-KFCH
USW00023167|FRESNO CHANDLER DWTN AP|2021|08|08|04|15|36.7333|-119.8167|84.1|30.0||1|FM15-METAR|223|ICAO-KFCH|12.0||1|FM15-METAR|223|ICAO-KFCH|||||||||||||300|N-Normal|1|FM15-METAR|223|ICAO-KFCH|2.6|N-Normal|1|FM15-METAR|223|ICAO-KFCH|||||||||||||33|Derived||FM15-METAR|223|ICAO-KFCH|||||||||||||||||||||||||||||||||||||||||||||||||||||||||||||||||||||||||1008.8||1|FM15-METAR|223|ICAO-KFCH|||||||||||||||||||||||||||||||||||||||||||MET064METAR KFCH 080415Z AUTO 30005KT 10SM OVC045 30/12 A2979 RMK A01=||F||223|ICAO-KFCH
USW00023167|FRESNO CHANDLER DWTN AP|2021|08|08|04|35|36.7333|-119.8167|84.1|30.0||1|FM15-METAR|223|ICAO-KFCH|12.0||1|FM15-METAR|223|ICAO-KFCH|||||||||||||300|N-Normal|1|FM15-METAR|223|ICAO-KFCH|4.1|N-Normal|1|FM15-METAR|223|ICAO-KFCH|||||||||||||33|Derived||FM15-METAR|223|ICAO-KFCH|||||||||||||||||||||||||||||||||||||||||||||||||||||||||||||||||||||||||1009.1||1|FM15-METAR|223|ICAO-KFCH|||||||||||||||||||||||||||||||||||||||||||MET064METAR KFCH 080435Z AUTO 30008KT 10SM OVC047 30/12 A2980 RMK A01=||F||223|ICAO-KFCH
USW00023167|FRESNO CHANDLER DWTN AP|2021|08|08|04|55|36.7333|-119.8167|84.1|29.0||1|FM15-METAR|223|ICAO-KFCH|13.0||1|FM15-METAR|223|ICAO-KFCH|||||||||||||310|N-Normal|1|FM15-METAR|223|ICAO-KFCH|3.1|N-Normal|1|FM15-METAR|223|ICAO-KFCH|||||||||||||37|Derived||FM15-METAR|223|ICAO-KFCH|||||||||||||||||||||||||||||||||||||||||||||||||||||||||||||||||||||||||1009.1||1|FM15-METAR|223|ICAO-KFCH|||||||||||||||||||||||||||||||||||||||||||MET063METAR KFCH 080455Z AUTO 31006KT 9SM OVC045 29/13 A2980 RMK A01=||F||223|ICAO-KFCH
USW00023167|FRESNO CHANDLER DWTN AP|2021|08|08|05|15|36.7333|-119.8167|84.1|28.0||1|FM15-METAR|223|ICAO-KFCH|13.0||1|FM15-METAR|223|ICAO-KFCH|||||||||||||310|N-Normal|1|FM15-METAR|223|ICAO-KFCH|2.6|N-Normal|1|FM15-METAR|223|ICAO-KFCH|||||||||||||40|Derived||FM15-METAR|223|ICAO-KFCH|||||||||||||||||||||||||||||||||||||||||||||||||||||||||||||||||||||||||1009.1||1|FM15-METAR|223|ICAO-KFCH|||||||||||||||||||||||||||||||||||||||||||MET063METAR KFCH 080515Z AUTO 31005KT 9SM OVC041 28/13 A2980 RMK A01=||F||223|ICAO-KFCH
USW00023167|FRESNO CHANDLER DWTN AP|2021|08|08|05|35|36.7333|-119.8167|84.1|28.0||1|FM15-METAR|223|ICAO-KFCH|14.0||1|FM15-METAR|223|ICAO-KFCH|||||||||||||310|N-Normal|1|FM15-METAR|223|ICAO-KFCH|2.1|N-Normal|1|FM15-METAR|223|ICAO-KFCH|||||||||||||42|Derived||FM15-METAR|223|ICAO-KFCH|||||||||||||||||||||||||||||||||||||||||||||||||||||||||||||||||||||||||1009.1||1|FM15-METAR|223|ICAO-KFCH|||||||||||||||||||||||||||||||||||||||||||MET077METAR KFCH 080535Z AUTO 31004KT 8SM FEW034 BKN041 OVC080 28/14 A2980 RMK A01=||F||223|ICAO-KFCH
USW00023167|FRESNO CHANDLER DWTN AP|2021|08|08|05|55|36.7333|-119.8167|84.1|27.0||1|FM15-METAR|223|ICAO-KFCH|14.0||1|FM15-METAR|223|ICAO-KFCH|||||||||||||290|N-Normal|1|FM15-METAR|223|ICAO-KFCH|2.1|N-Normal|1|FM15-METAR|223|ICAO-KFCH|||||||||||||45|Derived||FM15-METAR|223|ICAO-KFCH|||||||||||||||||||||||||||||||||||||||||||||||||||||||||||||||||||||||||1009.1||1|FM15-METAR|223|ICAO-KFCH|||||||||||||||||||||||||||||||||||||||||||MET070METAR KFCH 080555Z AUTO 29004KT 8SM SCT032 OVC080 27/14 A2980 RMK A01=||F||223|ICAO-KFCH
USW00023167|FRESNO CHANDLER DWTN AP|2021|08|08|06|15|36.7333|-119.8167|84.1|26.0||1|FM15-METAR|223|ICAO-KFCH|15.0||1|FM15-METAR|223|ICAO-KFCH|||||||||||||290|N-Normal|1|FM15-METAR|223|ICAO-KFCH|3.6|N-Normal|1|FM15-METAR|223|ICAO-KFCH|||||||||||||51|Derived||FM15-METAR|223|ICAO-KFCH|||||||||||||||||||||||||||||||||||||||||||||||||||||||||||||||||||||||||1009.5||1|FM15-METAR|223|ICAO-KFCH|||||||||||||||||||||||||||||||||||||||||||MET077METAR KFCH 080615Z AUTO 29007KT 8SM BKN033 BKN041 OVC080 26/15 A2981 RMK A01=||F||223|ICAO-KFCH
USW00023167|FRESNO CHANDLER DWTN AP|2021|08|08|06|35|36.7333|-119.8167|84.1|26.0||4|FM15-METAR|223|ICAO-KFCH|15.0||4|FM15-METAR|223|ICAO-KFCH|||||||||||||||||||||||||||||||||||||51|Derived||FM15-METAR|223|ICAO-KFCH|||||||||||||||||||||||||||||||||||||||||||||||||||||||||||||||||||||||||1009.1||4|FM15-METAR|223|ICAO-KFCH|||||||||||||||||||||||||||||||||||||||||||MET068METAR KFCH 080635Z AUTO 300KT 7SM BKN032 OVC043 26/15 A2980 RMK A01=||F||223|ICAO-KFCH
USW00023167|FRESNO CHANDLER DWTN AP|2021|08|08|06|55|36.7333|-119.8167|84.1|26.0||1|FM15-METAR|223|ICAO-KFCH|15.0||1|FM15-METAR|223|ICAO-KFCH|||||||||||||310|N-Normal|1|FM15-METAR|223|ICAO-KFCH|3.1|N-Normal|1|FM15-METAR|223|ICAO-KFCH|||||||||||||51|Derived||FM15-METAR|223|ICAO-KFCH|||||||||||||||||||||||||||||||||||||||||||||||||||||||||||||||||||||||||1009.1||1|FM15-METAR|223|ICAO-KFCH|||||||||||||||||||||||||||||||||||||||||||MET063METAR KFCH 080655Z AUTO 31006KT 7SM OVC033 26/15 A2980 RMK A01=||F||223|ICAO-KFCH
USW00023167|FRESNO CHANDLER DWTN AP|2021|08|08|07|15|36.7333|-119.8167|84.1|25.0||1|FM15-METAR|223|ICAO-KFCH|15.0||1|FM15-METAR|223|ICAO-KFCH|||||||||||||310|N-Normal|1|FM15-METAR|223|ICAO-KFCH|4.6|N-Normal|1|FM15-METAR|223|ICAO-KFCH|||||||||||||54|Derived||FM15-METAR|223|ICAO-KFCH|||||||||||||||||||||||||||||||||||||||||||||||||||||||||||||||||||||||||1009.5||1|FM15-METAR|223|ICAO-KFCH|||||||||||||||||||||||||||||||||||||||||||MET063METAR KFCH 080715Z AUTO 31009KT 8SM OVC032 25/15 A2981 RMK A01=||F||223|ICAO-KFCH
USW00023167|FRESNO CHANDLER DWTN AP|2021|08|08|07|35|36.7333|-119.8167|84.1|25.0||1|FM15-METAR|223|ICAO-KFCH|15.0||1|FM15-METAR|223|ICAO-KFCH|||||||||||||300|N-Normal|1|FM15-METAR|223|ICAO-KFCH|3.6|N-Normal|1|FM15-METAR|223|ICAO-KFCH|||||||||||||54|Derived||FM15-METAR|223|ICAO-KFCH|||||||||||||||||||||||||||||||||||||||||||||||||||||||||||||||||||||||||1009.5||1|FM15-METAR|223|ICAO-KFCH|||||||||||||||||||||||||||||||||||||||||||MET078METAR KFCH 080735Z AUTO 30007KT 10SM FEW018 FEW026 OVC032 25/15 A2981 RMK A01=||F||223|ICAO-KFCH
USW00023167|FRESNO CHANDLER DWTN AP|2021|08|08|07|55|36.7333|-119.8167|84.1|24.0||1|FM15-METAR|223|ICAO-KFCH|14.0||1|FM15-METAR|223|ICAO-KFCH|||||||||||||310|N-Normal|1|FM15-METAR|223|ICAO-KFCH|3.6|N-Normal|1|FM15-METAR|223|ICAO-KFCH|||||||||||||54|Derived||FM15-METAR|223|ICAO-KFCH|||||||||||||||||||||||||||||||||||||||||||||||||||||||||||||||||||||||||1009.5||1|FM15-METAR|223|ICAO-KFCH|||||||||||||||||||||||||||||||||||||||||||MET070METAR KFCH 080755Z AUTO 31007KT 9SM FEW018 OVC034 24/14 A2981 RMK A01=||F||223|ICAO-KFCH
USW00023167|FRESNO CHANDLER DWTN AP|2021|08|08|08|15|36.7333|-119.8167|84.1|24.0||1|FM15-METAR|223|ICAO-KFCH|14.0||1|FM15-METAR|223|ICAO-KFCH|||||||||||||320|N-Normal|1|FM15-METAR|223|ICAO-KFCH|3.1|N-Normal|1|FM15-METAR|223|ICAO-KFCH|||||||||||||54|Derived||FM15-METAR|223|ICAO-KFCH|||||||||||||||||||||||||||||||||||||||||||||||||||||||||||||||||||||||||1009.5||1|FM15-METAR|223|ICAO-KFCH|||||||||||||||||||||||||||||||||||||||||||MET064METAR KFCH 080815Z AUTO 32006KT 10SM OVC035 24/14 A2981 RMK A01=||F||223|ICAO-KFCH
USW00023167|FRESNO CHANDLER DWTN AP|2021|08|08|08|35|36.7333|-119.8167|84.1|24.0||1|FM15-METAR|223|ICAO-KFCH|13.0||1|FM15-METAR|223|ICAO-KFCH|||||||||||||310|N-Normal|1|FM15-METAR|223|ICAO-KFCH|3.1|N-Normal|1|FM15-METAR|223|ICAO-KFCH|||||||||||||50|Derived||FM15-METAR|223|ICAO-KFCH|||||||||||||||||||||||||||||||||||||||||||||||||||||||||||||||||||||||||1009.5||1|FM15-METAR|223|ICAO-KFCH|||||||||||||||||||||||||||||||||||||||||||MET071METAR KFCH 080835Z AUTO 31006KT 10SM FEW026 OVC033 24/13 A2981 RMK A01=||F||223|ICAO-KFCH
USW00023167|FRESNO CHANDLER DWTN AP|2021|08|08|08|55|36.7333|-119.8167|84.1|24.0||1|FM15-METAR|223|ICAO-KFCH|13.0||1|FM15-METAR|223|ICAO-KFCH|||||||||||||310|N-Normal|1|FM15-METAR|223|ICAO-KFCH|3.1|N-Normal|1|FM15-METAR|223|ICAO-KFCH|||||||||||||50|Derived||FM15-METAR|223|ICAO-KFCH|||||||||||||||||||||||||||||||||||||||||||||||||||||||||||||||||||||||||1009.1||1|FM15-METAR|223|ICAO-KFCH|||||||||||||||||||||||||||||||||||||||||||MET078METAR KFCH 080855Z AUTO 31006KT 10SM FEW024 BKN030 OVC037 24/13 A2980 RMK A01=||F||223|ICAO-KFCH
USW00023167|FRESNO CHANDLER DWTN AP|2021|08|08|09|15|36.7333|-119.8167|84.1|24.0||1|FM15-METAR|223|ICAO-KFCH|13.0||1|FM15-METAR|223|ICAO-KFCH|||||||||||||320|N-Normal|1|FM15-METAR|223|ICAO-KFCH|2.6|N-Normal|1|FM15-METAR|223|ICAO-KFCH|||||||||||||50|Derived||FM15-METAR|223|ICAO-KFCH|||||||||||||||||||||||||||||||||||||||||||||||||||||||||||||||||||||||||1009.1||1|FM15-METAR|223|ICAO-KFCH|||||||||||||||||||||||||||||||||||||||||||MET078METAR KFCH 080915Z AUTO 32005KT 10SM FEW022 SCT029 OVC037 24/13 A2980 RMK A01=||F||223|ICAO-KFCH
USW00023167|FRESNO CHANDLER DWTN AP|2021|08|08|09|35|36.7333|-119.8167|84.1|23.0||1|FM15-METAR|223|ICAO-KFCH|13.0||1|FM15-METAR|223|ICAO-KFCH|||||||||||||310|N-Normal|1|FM15-METAR|223|ICAO-KFCH|2.6|N-Normal|1|FM15-METAR|223|ICAO-KFCH|||||||||||||53|Derived||FM15-METAR|223|ICAO-KFCH|||||||||||||||||||||||||||||||||||||||||||||||||||||||||||||||||||||||||1009.1||1|FM15-METAR|223|ICAO-KFCH|||||||||||||||||||||||||||||||||||||||||||MET078METAR KFCH 080935Z AUTO 31005KT 10SM FEW023 SCT028 OVC037 23/13 A2980 RMK A01=||F||223|ICAO-KFCH
USW00023167|FRESNO CHANDLER DWTN AP|2021|08|08|09|55|36.7333|-119.8167|84.1|23.0||1|FM15-METAR|223|ICAO-KFCH|13.0||1|FM15-METAR|223|ICAO-KFCH|||||||||||||330|N-Normal|1|FM15-METAR|223|ICAO-KFCH|2.1|N-Normal|1|FM15-METAR|223|ICAO-KFCH|||||||||||||53|Derived||FM15-METAR|223|ICAO-KFCH|||||||||||||||||||||||||||||||||||||||||||||||||||||||||||||||||||||||||1009.1||1|FM15-METAR|223|ICAO-KFCH|||||||||||||||||||||||||||||||||||||||||||MET071METAR KFCH 080955Z AUTO 33004KT 10SM FEW030 OVC037 23/13 A2980 RMK A01=||F||223|ICAO-KFCH
USW00023167|FRESNO CHANDLER DWTN AP|2021|08|08|10|15|36.7333|-119.8167|84.1|23.0||1|FM15-METAR|223|ICAO-KFCH|13.0||1|FM15-METAR|223|ICAO-KFCH|||||||||||||340|N-Normal|1|FM15-METAR|223|ICAO-KFCH|1.5|N-Normal|1|FM15-METAR|223|ICAO-KFCH|||||||||||||53|Derived||FM15-METAR|223|ICAO-KFCH|||||||||||||||||||||||||||||||||||||||||||||||||||||||||||||||||||||||||1009.1||1|FM15-METAR|223|ICAO-KFCH|||||||||||||||||||||||||||||||||||||||||||MET078METAR KFCH 081015Z AUTO 34003KT 10SM FEW024 SCT030 OVC038 23/13 A2980 RMK A01=||F||223|ICAO-KFCH
USW00023167|FRESNO CHANDLER DWTN AP|2021|08|08|10|35|36.7333|-119.8167|84.1|23.0||1|FM15-METAR|223|ICAO-KFCH|13.0||1|FM15-METAR|223|ICAO-KFCH|||||||||||||320|N-Normal|1|FM15-METAR|223|ICAO-KFCH|2.1|N-Normal|1|FM15-METAR|223|ICAO-KFCH|||||||||||||53|Derived||FM15-METAR|223|ICAO-KFCH|||||||||||||||||||||||||||||||||||||||||||||||||||||||||||||||||||||||||1009.1||1|FM15-METAR|223|ICAO-KFCH|||||||||||||||||||||||||||||||||||||||||||MET078METAR KFCH 081035Z AUTO 32004KT 10SM SCT025 BKN031 OVC043 23/13 A2980 RMK A01=||F||223|ICAO-KFCH
USW00023167|FRESNO CHANDLER DWTN AP|2021|08|08|10|55|36.7333|-119.8167|84.1|23.0||1|FM15-METAR|223|ICAO-KFCH|13.0||1|FM15-METAR|223|ICAO-KFCH|||||||||||||999|C-Calm|9|FM15-METAR|223|ICAO-KFCH|0.0|C-Calm|1|FM15-METAR|223|ICAO-KFCH|||||||||||||53|Derived||FM15-METAR|223|ICAO-KFCH|||||||||||||||||||||||||||||||||||||||||||||||||||||||||||||||||||||||||1009.1||1|FM15-METAR|223|ICAO-KFCH|||||||||||||||||||||||||||||||||||||||||||MET078METAR KFCH 081055Z AUTO 00000KT 10SM SCT026 SCT037 OVC044 23/13 A2980 RMK A01=||F||223|ICAO-KFCH
USW00023167|FRESNO CHANDLER DWTN AP|2021|08|08|11|15|36.7333|-119.8167|84.1|23.0||1|FM15-METAR|223|ICAO-KFCH|13.0||1|FM15-METAR|223|ICAO-KFCH|||||||||||||340|N-Normal|1|FM15-METAR|223|ICAO-KFCH|2.1|N-Normal|1|FM15-METAR|223|ICAO-KFCH|||||||||||||53|Derived||FM15-METAR|223|ICAO-KFCH|||||||||||||||||||||||||||||||||||||||||||||||||||||||||||||||||||||||||1009.5||1|FM15-METAR|223|ICAO-KFCH|||||||||||||||||||||||||||||||||||||||||||MET078METAR KFCH 081115Z AUTO 34004KT 10SM FEW025 SCT032 OVC042 23/13 A2981 RMK A01=||F||223|ICAO-KFCH
USW00023167|FRESNO CHANDLER DWTN AP|2021|08|08|11|35|36.7333|-119.8167|84.1|22.0||1|FM15-METAR|223|ICAO-KFCH|13.0||1|FM15-METAR|223|ICAO-KFCH|||||||||||||999|C-Calm|9|FM15-METAR|223|ICAO-KFCH|0.0|C-Calm|1|FM15-METAR|223|ICAO-KFCH|||||||||||||57|Derived||FM15-METAR|223|ICAO-KFCH|||||||||||||||||||||||||||||||||||||||||||||||||||||||||||||||||||||||||1009.5||1|FM15-METAR|223|ICAO-KFCH|||||||||||||||||||||||||||||||||||||||||||MET078METAR KFCH 081135Z AUTO 00000KT 10SM BKN025 BKN029 OVC041 22/13 A2981 RMK A01=||F||223|ICAO-KFCH
USW00023167|FRESNO CHANDLER DWTN AP|2021|08|08|11|50|36.7333|-119.8167|84.1|22.0||1|FM15-METAR|223|ICAO-KFCH|13.0||1|FM15-METAR|223|ICAO-KFCH|||||||||||||290|N-Normal|1|FM15-METAR|223|ICAO-KFCH|1.5|N-Normal|1|FM15-METAR|223|ICAO-KFCH|||||||||||||57|Derived||FM15-METAR|223|ICAO-KFCH|||||||||||||||||||||||||||||||||||||||||||||||||||||||||||||||||||||||||1009.5||1|FM15-METAR|223|ICAO-KFCH|||||||||||||||||||||||||||||||||||||||||||MET057METAR KFCH 081150Z AUTO 29003KT 10SM 22/13 A2981 RMK A01=||F||223|ICAO-KFCH
USW00023167|FRESNO CHANDLER DWTN AP|2021|08|08|12|15|36.7333|-119.8167|84.1|21.0||1|FM15-METAR|223|ICAO-KFCH|13.0||1|FM15-METAR|223|ICAO-KFCH|||||||||||||999|C-Calm|9|FM15-METAR|223|ICAO-KFCH|0.0|C-Calm|1|FM15-METAR|223|ICAO-KFCH|||||||||||||60|Derived||FM15-METAR|223|ICAO-KFCH|||||||||||||||||||||||||||||||||||||||||||||||||||||||||||||||||||||||||1009.8||1|FM15-METAR|223|ICAO-KFCH|||||||||||||||||||||||||||||||||||||||||||MET064METAR KFCH 081215Z AUTO 00000KT 10SM OVC055 21/13 A2982 RMK A01=||F||223|ICAO-KFCH
USW00023167|FRESNO CHANDLER DWTN AP|2021|08|08|12|35|36.7333|-119.8167|84.1|20.0||1|FM15-METAR|223|ICAO-KFCH|13.0||1|FM15-METAR|223|ICAO-KFCH|||||||||||||999|C-Calm|9|FM15-METAR|223|ICAO-KFCH|0.0|C-Calm|1|FM15-METAR|223|ICAO-KFCH|||||||||||||64|Derived||FM15-METAR|223|ICAO-KFCH|||||||||||||||||||||||||||||||||||||||||||||||||||||||||||||||||||||||||1009.8||1|FM15-METAR|223|ICAO-KFCH|||||||||||||||||||||||||||||||||||||||||||MET064METAR KFCH 081235Z AUTO 00000KT 10SM OVC055 20/13 A2982 RMK A01=||F||223|ICAO-KFCH
USW00023167|FRESNO CHANDLER DWTN AP|2021|08|08|12|55|36.7333|-119.8167|84.1|20.0||1|FM15-METAR|223|ICAO-KFCH|13.0||1|FM15-METAR|223|ICAO-KFCH|||||||||||||999|C-Calm|9|FM15-METAR|223|ICAO-KFCH|0.0|C-Calm|1|FM15-METAR|223|ICAO-KFCH|||||||||||||64|Derived||FM15-METAR|223|ICAO-KFCH|||||||||||||||||||||||||||||||||||||||||||||||||||||||||||||||||||||||||1009.8||1|FM15-METAR|223|ICAO-KFCH|||||||||||||||||||||||||||||||||||||||||||MET064METAR KFCH 081255Z AUTO 00000KT 10SM OVC055 20/13 A2982 RMK A01=||F||223|ICAO-KFCH
USW00023167|FRESNO CHANDLER DWTN AP|2021|08|08|13|15|36.7333|-119.8167|84.1|20.0||1|FM15-METAR|223|ICAO-KFCH|13.0||1|FM15-METAR|223|ICAO-KFCH|||||||||||||999|C-Calm|9|FM15-METAR|223|ICAO-KFCH|0.0|C-Calm|1|FM15-METAR|223|ICAO-KFCH|||||||||||||64|Derived||FM15-METAR|223|ICAO-KFCH|||||||||||||||||||||||||||||||||||||||||||||||||||||||||||||||||||||||||1010.2||1|FM15-METAR|223|ICAO-KFCH|||||||||||||||||||||||||||||||||||||||||||MET078METAR KFCH 081315Z AUTO 00000KT 10SM FEW022 BKN028 OVC055 20/13 A2983 RMK A01=||F||223|ICAO-KFCH
USW00023167|FRESNO CHANDLER DWTN AP|2021|08|08|13|35|36.7333|-119.8167|84.1|20.0||1|FM15-METAR|223|ICAO-KFCH|13.0||1|FM15-METAR|223|ICAO-KFCH|||||||||||||999|C-Calm|9|FM15-METAR|223|ICAO-KFCH|0.0|C-Calm|1|FM15-METAR|223|ICAO-KFCH|||||||||||||64|Derived||FM15-METAR|223|ICAO-KFCH|||||||||||||||||||||||||||||||||||||||||||||||||||||||||||||||||||||||||1010.2||1|FM15-METAR|223|ICAO-KFCH|||||||||||||||||||||||||||||||||||||||||||MET071METAR KFCH 081335Z AUTO 00000KT 10SM FEW022 SCT028 20/13 A2983 RMK A01=||F||223|ICAO-KFCH
USW00023167|FRESNO CHANDLER DWTN AP|2021|08|08|13|55|36.7333|-119.8167|84.1|21.0||1|FM15-METAR|223|ICAO-KFCH|13.0||1|FM15-METAR|223|ICAO-KFCH|||||||||||||999|C-Calm|9|FM15-METAR|223|ICAO-KFCH|0.0|C-Calm|1|FM15-METAR|223|ICAO-KFCH|||||||||||||60|Derived||FM15-METAR|223|ICAO-KFCH|||||||||||||||||||||||||||||||||||||||||||||||||||||||||||||||||||||||||1010.2||1|FM15-METAR|223|ICAO-KFCH|||||||||||||||||||||||||||||||||||||||||||MET061METAR KFCH 081355Z AUTO 00000KT 10SM CLR 21/13 A2983 RMK A01=||F||223|ICAO-KFCH
USW00023167|FRESNO CHANDLER DWTN AP|2021|08|08|14|15|36.7333|-119.8167|84.1|21.0||1|FM15-METAR|223|ICAO-KFCH|13.0||1|FM15-METAR|223|ICAO-KFCH|||||||||||||999|C-Calm|9|FM15-METAR|223|ICAO-KFCH|0.0|C-Calm|1|FM15-METAR|223|ICAO-KFCH|||||||||||||60|Derived||FM15-METAR|223|ICAO-KFCH|||||||||||||||||||||||||||||||||||||||||||||||||||||||||||||||||||||||||1010.5||1|FM15-METAR|223|ICAO-KFCH|||||||||||||||||||||||||||||||||||||||||||MET061METAR KFCH 081415Z AUTO 00000KT 10SM CLR 21/13 A2984 RMK A01=||F||223|ICAO-KFCH
USW00023167|FRESNO CHANDLER DWTN AP|2021|08|08|14|35|36.7333|-119.8167|84.1|22.0||1|FM15-METAR|223|ICAO-KFCH|14.0||1|FM15-METAR|223|ICAO-KFCH|||||||||||||999|C-Calm|9|FM15-METAR|223|ICAO-KFCH|0.0|C-Calm|1|FM15-METAR|223|ICAO-KFCH|||||||||||||61|Derived||FM15-METAR|223|ICAO-KFCH|||||||||||||||||||||||||||||||||||||||||||||||||||||||||||||||||||||||||1010.5||1|FM15-METAR|223|ICAO-KFCH|||||||||||||||||||||||||||||||||||||||||||MET061METAR KFCH 081435Z AUTO 00000KT 10SM CLR 22/14 A2984 RMK A01=||F||223|ICAO-KFCH
USW00023167|FRESNO CHANDLER DWTN AP|2021|08|08|14|55|36.7333|-119.8167|84.1|22.0||1|FM15-METAR|223|ICAO-KFCH|14.0||1|FM15-METAR|223|ICAO-KFCH|||||||||||||999|C-Calm|9|FM15-METAR|223|ICAO-KFCH|0.0|C-Calm|1|FM15-METAR|223|ICAO-KFCH|||||||||||||61|Derived||FM15-METAR|223|ICAO-KFCH|||||||||||||||||||||||||||||||||||||||||||||||||||||||||||||||||||||||||1010.8||1|FM15-METAR|223|ICAO-KFCH|||||||||||||||||||||||||||||||||||||||||||MET060METAR KFCH 081455Z AUTO 00000KT 9SM CLR 22/14 A2985 RMK A01=||F||223|ICAO-KFCH
USW00023167|FRESNO CHANDLER DWTN AP|2021|08|08|15|15|36.7333|-119.8167|84.1|23.0||1|FM15-METAR|223|ICAO-KFCH|14.0||1|FM15-METAR|223|ICAO-KFCH|||||||||||||999|C-Calm|9|FM15-METAR|223|ICAO-KFCH|0.0|C-Calm|1|FM15-METAR|223|ICAO-KFCH|||||||||||||57|Derived||FM15-METAR|223|ICAO-KFCH|||||||||||||||||||||||||||||||||||||||||||||||||||||||||||||||||||||||||1010.8||1|FM15-METAR|223|ICAO-KFCH|||||||||||||||||||||||||||||||||||||||||||MET060METAR KFCH 081515Z AUTO 00000KT 8SM CLR 23/14 A2985 RMK A01=||F||223|ICAO-KFCH
USW00023167|FRESNO CHANDLER DWTN AP|2021|08|08|15|35|36.7333|-119.8167|84.1|24.0||1|FM15-METAR|223|ICAO-KFCH|14.0||1|FM15-METAR|223|ICAO-KFCH|||||||||||||999|C-Calm|9|FM15-METAR|223|ICAO-KFCH|0.0|C-Calm|1|FM15-METAR|223|ICAO-KFCH|||||||||||||54|Derived||FM15-METAR|223|ICAO-KFCH|||||||||||||||||||||||||||||||||||||||||||||||||||||||||||||||||||||||||1011.2||1|FM15-METAR|223|ICAO-KFCH|||||||||||||||||||||||||||||||||||||||||||MET060METAR KFCH 081535Z AUTO 00000KT 9SM CLR 24/14 A2986 RMK A01=||F||223|ICAO-KFCH
USW00023167|FRESNO CHANDLER DWTN AP|2021|08|08|15|55|36.7333|-119.8167|84.1|25.0||1|FM15-METAR|223|ICAO-KFCH|14.0||1|FM15-METAR|223|ICAO-KFCH|||||||||||||190|N-Normal|1|FM15-METAR|223|ICAO-KFCH|2.6|N-Normal|1|FM15-METAR|223|ICAO-KFCH|||||||||||||51|Derived||FM15-METAR|223|ICAO-KFCH|||||||||||||||||||||||||||||||||||||||||||||||||||||||||||||||||||||||||1011.2||1|FM15-METAR|223|ICAO-KFCH|||||||||||||||||||||||||||||||||||||||||||MET060METAR KFCH 081555Z AUTO 19005KT 8SM CLR 25/14 A2986 RMK A01=||F||223|ICAO-KFCH
USW00023167|FRESNO CHANDLER DWTN AP|2021|08|08|16|15|36.7333|-119.8167|84.1|25.0||1|FM15-METAR|223|ICAO-KFCH|14.0||1|FM15-METAR|223|ICAO-KFCH|||||||||||||999|C-Calm|9|FM15-METAR|223|ICAO-KFCH|0.0|C-Calm|1|FM15-METAR|223|ICAO-KFCH|||||||||||||51|Derived||FM15-METAR|223|ICAO-KFCH|||||||||||||||||||||||||||||||||||||||||||||||||||||||||||||||||||||||||1011.2||1|FM15-METAR|223|ICAO-KFCH|||||||||||||||||||||||||||||||||||||||||||MET060METAR KFCH 081615Z AUTO 00000KT 9SM CLR 25/14 A2986 RMK A01=||F||223|ICAO-KFCH
USW00023167|FRESNO CHANDLER DWTN AP|2021|08|08|16|35|36.7333|-119.8167|84.1|26.0||1|FM15-METAR|223|ICAO-KFCH|15.0||1|FM15-METAR|223|ICAO-KFCH|||||||||||||999|C-Calm|9|FM15-METAR|223|ICAO-KFCH|0.0|C-Calm|1|FM15-METAR|223|ICAO-KFCH|||||||||||||51|Derived||FM15-METAR|223|ICAO-KFCH|||||||||||||||||||||||||||||||||||||||||||||||||||||||||||||||||||||||||1011.2||1|FM15-METAR|223|ICAO-KFCH|||||||||||||||||||||||||||||||||||||||||||MET060METAR KFCH 081635Z AUTO 00000KT 8SM CLR 26/15 A2986 RMK A01=||F||223|ICAO-KFCH
USW00023167|FRESNO CHANDLER DWTN AP|2021|08|08|16|55|36.7333|-119.8167|84.1|26.0||1|FM15-METAR|223|ICAO-KFCH|15.0||1|FM15-METAR|223|ICAO-KFCH|||||||||||||180|N-Normal|1|FM15-METAR|223|ICAO-KFCH|2.1|N-Normal|1|FM15-METAR|223|ICAO-KFCH|||||||||||||51|Derived||FM15-METAR|223|ICAO-KFCH|||||||||||||||||||||||||||||||||||||||||||||||||||||||||||||||||||||||||1011.2||1|FM15-METAR|223|ICAO-KFCH|||||||||||||||||||||||||||||||||||||||||||MET060METAR KFCH 081655Z AUTO 18004KT 8SM CLR 26/15 A2986 RMK A01=||F||223|ICAO-KFCH
USW00023167|FRESNO CHANDLER DWTN AP|2021|08|08|17|15|36.7333|-119.8167|84.1|27.0||1|FM15-METAR|223|ICAO-KFCH|15.0||1|FM15-METAR|223|ICAO-KFCH|||||||||||||140|N-Normal|1|FM15-METAR|223|ICAO-KFCH|2.1|N-Normal|1|FM15-METAR|223|ICAO-KFCH|||||||||||||48|Derived||FM15-METAR|223|ICAO-KFCH|||||||||||||||||||||||||||||||||||||||||||||||||||||||||||||||||||||||||1011.2||1|FM15-METAR|223|ICAO-KFCH|||||||||||||||||||||||||||||||||||||||||||MET060METAR KFCH 081715Z AUTO 14004KT 7SM CLR 27/15 A2986 RMK A01=||F||223|ICAO-KFCH
USW00023167|FRESNO CHANDLER DWTN AP|2021|08|08|17|35|36.7333|-119.8167|84.1|28.0||1|FM15-METAR|223|ICAO-KFCH|15.0||1|FM15-METAR|223|ICAO-KFCH|||||||||||||999|C-Calm|9|FM15-METAR|223|ICAO-KFCH|0.0|C-Calm|1|FM15-METAR|223|ICAO-KFCH|||||||||||||45|Derived||FM15-METAR|223|ICAO-KFCH|||||||||||||||||||||||||||||||||||||||||||||||||||||||||||||||||||||||||1011.2||1|FM15-METAR|223|ICAO-KFCH|||||||||||||||||||||||||||||||||||||||||||MET060METAR KFCH 081735Z AUTO 00000KT 8SM CLR 28/15 A2986 RMK A01=||F||223|ICAO-KFCH
USW00023167|FRESNO CHANDLER DWTN AP|2021|08|08|17|55|36.7333|-119.8167|84.1|28.0||1|FM15-METAR|223|ICAO-KFCH|14.0||1|FM15-METAR|223|ICAO-KFCH|||||||||||||999|V-Variable|9|FM15-METAR|223|ICAO-KFCH|1.5|V-Variable|1|FM15-METAR|223|ICAO-KFCH|||||||||||||42|Derived||FM15-METAR|223|ICAO-KFCH|||||||||||||||||||||||||||||||||||||||||||||||||||||||||||||||||||||||||1011.5||1|FM15-METAR|223|ICAO-KFCH|||||||||||||||||||||||||||||||||||||||||||MET060METAR KFCH 081755Z AUTO VRB03KT 7SM CLR 28/14 A2987 RMK A01=||F||223|ICAO-KFCH
USW00023167|FRESNO CHANDLER DWTN AP|2021|08|08|18|10|36.7333|-119.8167|84.1|29.0||1|FM15-METAR|223|ICAO-KFCH|14.0||1|FM15-METAR|223|ICAO-KFCH|||||||||||||999|C-Calm|9|FM15-METAR|223|ICAO-KFCH|0.0|C-Calm|1|FM15-METAR|223|ICAO-KFCH|||||||||||||40|Derived||FM15-METAR|223|ICAO-KFCH|||||||||||||||||||||||||||||||||||||||||||||||||||||||||||||||||||||||||1011.2||1|FM15-METAR|223|ICAO-KFCH|||||||||||||||||||||||||||||||||||||||||||MET060METAR KFCH 081810Z AUTO 00000KT 7SM CLR 29/14 A2986 RMK A01=||F||223|ICAO-KFCH
USW00023167|FRESNO CHANDLER DWTN AP|2021|08|08|18|35|36.7333|-119.8167|84.1|30.0||1|FM15-METAR|223|ICAO-KFCH|14.0||1|FM15-METAR|223|ICAO-KFCH|||||||||||||999|V-Variable|9|FM15-METAR|223|ICAO-KFCH|2.1|V-Variable|1|FM15-METAR|223|ICAO-KFCH|||||||||||||38|Derived||FM15-METAR|223|ICAO-KFCH|||||||||||||||||||||||||||||||||||||||||||||||||||||||||||||||||||||||||1011.2||1|FM15-METAR|223|ICAO-KFCH|||||||||||||||||||||||||||||||||||||||||||MET060METAR KFCH 081835Z AUTO VRB04KT 7SM CLR 30/14 A2986 RMK A01=||F||223|ICAO-KFCH
USW00023167|FRESNO CHANDLER DWTN AP|2021|08|08|18|55|36.7333|-119.8167|84.1|31.0||1|FM15-METAR|223|ICAO-KFCH|14.0||1|FM15-METAR|223|ICAO-KFCH|||||||||||||999|C-Calm|9|FM15-METAR|223|ICAO-KFCH|0.0|C-Calm|1|FM15-METAR|223|ICAO-KFCH|||||||||||||35|Derived||FM15-METAR|223|ICAO-KFCH|||||||||||||||||||||||||||||||||||||||||||||||||||||||||||||||||||||||||1011.2||1|FM15-METAR|223|ICAO-KFCH|||||||||||||||||||||||||||||||||||||||||||MET060METAR KFCH 081855Z AUTO 00000KT 7SM CLR 31/14 A2986 RMK A01=||F||223|ICAO-KFCH
USW00023167|FRESNO CHANDLER DWTN AP|2021|08|08|19|15|36.7333|-119.8167|84.1|32.0||1|FM15-METAR|223|ICAO-KFCH|13.0||1|FM15-METAR|223|ICAO-KFCH|||||||||||||999|C-Calm|9|FM15-METAR|223|ICAO-KFCH|0.0|C-Calm|1|FM15-METAR|223|ICAO-KFCH|||||||||||||31|Derived||FM15-METAR|223|ICAO-KFCH|||||||||||||||||||||||||||||||||||||||||||||||||||||||||||||||||||||||||1011.2||1|FM15-METAR|223|ICAO-KFCH|||||||||||||||||||||||||||||||||||||||||||MET060METAR KFCH 081915Z AUTO 00000KT 9SM CLR 32/13 A2986 RMK A01=||F||223|ICAO-KFCH
USW00023167|FRESNO CHANDLER DWTN AP|2021|08|08|19|35|36.7333|-119.8167|84.1|33.0||1|FM15-METAR|223|ICAO-KFCH|13.0||1|FM15-METAR|223|ICAO-KFCH|||||||||||||240|N-Normal|1|FM15-METAR|223|ICAO-KFCH|3.1|N-Normal|1|FM15-METAR|223|ICAO-KFCH|||||||||||||30|Derived||FM15-METAR|223|ICAO-KFCH|||||||||||||||||||||||||||||||||||||||||||||||||||||||||||||||||||||||||1010.8||1|FM15-METAR|223|ICAO-KFCH|||||||||||||||||||||||||||||||||||||||||||MET060METAR KFCH 081935Z AUTO 24006KT 8SM CLR 33/13 A2985 RMK A01=||F||223|ICAO-KFCH
USW00023167|FRESNO CHANDLER DWTN AP|2021|08|08|19|55|36.7333|-119.8167|84.1|34.0||1|FM15-METAR|223|ICAO-KFCH|11.0||1|FM15-METAR|223|ICAO-KFCH|||||||||||||250|N-Normal|1|FM15-METAR|223|ICAO-KFCH|2.6|N-Normal|1|FM15-METAR|223|ICAO-KFCH|||||||||||||24|Derived||FM15-METAR|223|ICAO-KFCH|||||||||||||||||||||||||||||||||||||||||||||||||||||||||||||||||||||||||1010.8||1|FM15-METAR|223|ICAO-KFCH|||||||||||||||||||||||||||||||||||||||||||MET060METAR KFCH 081955Z AUTO 25005KT 9SM CLR 34/11 A2985 RMK A01=||F||223|ICAO-KFCH
USW00023167|FRESNO CHANDLER DWTN AP|2021|08|08|20|15|36.7333|-119.8167|84.1|34.0||1|FM15-METAR|223|ICAO-KFCH|11.0||1|FM15-METAR|223|ICAO-KFCH|||||||||||||240|N-Normal|1|FM15-METAR|223|ICAO-KFCH|3.1|N-Normal|1|FM15-METAR|223|ICAO-KFCH|||||||||||||24|Derived||FM15-METAR|223|ICAO-KFCH|||||||||||||||||||||||||||||||||||||||||||||||||||||||||||||||||||||||||1010.5||1|FM15-METAR|223|ICAO-KFCH|||||||||||||||||||||||||||||||||||||||||||MET060METAR KFCH 082015Z AUTO 24006KT 9SM CLR 34/11 A2984 RMK A01=||F||223|ICAO-KFCH
USW00023167|FRESNO CHANDLER DWTN AP|2021|08|08|20|35|36.7333|-119.8167|84.1|35.0||1|FM15-METAR|223|ICAO-KFCH|11.0||1|FM15-METAR|223|ICAO-KFCH|||||||||||||999|V-Variable|9|FM15-METAR|223|ICAO-KFCH|1.5|V-Variable|1|FM15-METAR|223|ICAO-KFCH|||||||||||||23|Derived||FM15-METAR|223|ICAO-KFCH|||||||||||||||||||||||||||||||||||||||||||||||||||||||||||||||||||||||||1010.5||1|FM15-METAR|223|ICAO-KFCH|||||||||||||||||||||||||||||||||||||||||||MET060METAR KFCH 082035Z AUTO VRB03KT 9SM CLR 35/11 A2984 RMK A01=||F||223|ICAO-KFCH
USW00023167|FRESNO CHANDLER DWTN AP|2021|08|08|20|55|36.7333|-119.8167|84.1|35.0||1|FM15-METAR|223|ICAO-KFCH|9.0||1|FM15-METAR|223|ICAO-KFCH|||||||||||||230|N-Normal|1|FM15-METAR|223|ICAO-KFCH|2.1|N-Normal|1|FM15-METAR|223|ICAO-KFCH|||||||||||||20|Derived||FM15-METAR|223|ICAO-KFCH|||||||||||||||||||||||||||||||||||||||||||||||||||||||||||||||||||||||||1010.2||1|FM15-METAR|223|ICAO-KFCH|||||||||||||||||||||||||||||||||||||||||||MET060METAR KFCH 082055Z AUTO 23004KT 9SM CLR 35/09 A2983 RMK A01=||F||223|ICAO-KFCH
USW00023167|FRESNO CHANDLER DWTN AP|2021|08|08|21|15|36.7333|-119.8167|84.1|36.0||1|FM15-METAR|223|ICAO-KFCH|9.0||1|FM15-METAR|223|ICAO-KFCH|||||||||||||280|N-Normal|1|FM15-METAR|223|ICAO-KFCH|2.6|N-Normal|1|FM15-METAR|223|ICAO-KFCH|||||||||||||19|Derived||FM15-METAR|223|ICAO-KFCH|||||||||||||||||||||||||||||||||||||||||||||||||||||||||||||||||||||||||1009.8||1|FM15-METAR|223|ICAO-KFCH|||||||||||||||||||||||||||||||||||||||||||MET060METAR KFCH 082115Z AUTO 28005KT 9SM CLR 36/09 A2982 RMK A01=||F||223|ICAO-KFCH
USW00023167|FRESNO CHANDLER DWTN AP|2021|08|08|21|30|36.7333|-119.8167|84.1|36.0||1|FM15-METAR|223|ICAO-KFCH|9.0||1|FM15-METAR|223|ICAO-KFCH|||||||||||||240|N-Normal|1|FM15-METAR|223|ICAO-KFCH|2.6|N-Normal|1|FM15-METAR|223|ICAO-KFCH|||||||||||||19|Derived||FM15-METAR|223|ICAO-KFCH|||||||||||||||||||||||||||||||||||||||||||||||||||||||||||||||||||||||||1009.8||1|FM15-METAR|223|ICAO-KFCH|||||||||||||||||||||||||||||||||||||||||||MET060METAR KFCH 082130Z AUTO 24005KT 8SM CLR 36/09 A2982 RMK A01=||F||223|ICAO-KFCH
USW00023167|FRESNO CHANDLER DWTN AP|2021|08|08|21|55|36.7333|-119.8167|84.1|36.0||1|FM15-METAR|223|ICAO-KFCH|9.0||1|FM15-METAR|223|ICAO-KFCH|||||||||||||999|V-Variable|9|FM15-METAR|223|ICAO-KFCH|2.1|V-Variable|1|FM15-METAR|223|ICAO-KFCH|||||||||||||19|Derived||FM15-METAR|223|ICAO-KFCH|||||||||||||||||||||||||||||||||||||||||||||||||||||||||||||||||||||||||1009.5||1|FM15-METAR|223|ICAO-KFCH|||||||||||||||||||||||||||||||||||||||||||MET060METAR KFCH 082155Z AUTO VRB04KT 9SM CLR 36/09 A2981 RMK A01=||F||223|ICAO-KFCH
USW00023167|FRESNO CHANDLER DWTN AP|2021|08|08|22|15|36.7333|-119.8167|84.1|37.0||1|FM15-METAR|223|ICAO-KFCH|10.0||1|FM15-METAR|223|ICAO-KFCH|||||||||||||260|N-Normal|1|FM15-METAR|223|ICAO-KFCH|2.6|N-Normal|1|FM15-METAR|223|ICAO-KFCH|5.1||1|FM15-METAR|223|ICAO-KFCH|||||||19|Derived||FM15-METAR|223|ICAO-KFCH|||||||||||||||||||||||||||||||||||||||||||||||||||||||||||||||||||||||||1009.1||1|FM15-METAR|223|ICAO-KFCH|||||||||||||||||||||||||||||||||||||||||||MET063METAR KFCH 082215Z AUTO 26005G10KT 8SM CLR 37/10 A2980 RMK A01=||F||223|ICAO-KFCH
USW00023167|FRESNO CHANDLER DWTN AP|2021|08|08|22|35|36.7333|-119.8167|84.1|37.0||1|FM15-METAR|223|ICAO-KFCH|9.0||1|FM15-METAR|223|ICAO-KFCH|||||||||||||260|N-Normal|1|FM15-METAR|223|ICAO-KFCH|2.6|N-Normal|1|FM15-METAR|223|ICAO-KFCH|||||||||||||18|Derived||FM15-METAR|223|ICAO-KFCH|||||||||||||||||||||||||||||||||||||||||||||||||||||||||||||||||||||||||1009.1||1|FM15-METAR|223|ICAO-KFCH|||||||||||||||||||||||||||||||||||||||||||MET060METAR KFCH 082235Z AUTO 26005KT 9SM CLR 37/09 A2980 RMK A01=||F||223|ICAO-KFCH
USW00023167|FRESNO CHANDLER DWTN AP|2021|08|08|22|55|36.7333|-119.8167|84.1|37.0||1|FM15-METAR|223|ICAO-KFCH|9.0||1|FM15-METAR|223|ICAO-KFCH|||||||||||||999|V-Variable|9|FM15-METAR|223|ICAO-KFCH|2.1|V-Variable|1|FM15-METAR|223|ICAO-KFCH|||||||||||||18|Derived||FM15-METAR|223|ICAO-KFCH|||||||||||||||||||||||||||||||||||||||||||||||||||||||||||||||||||||||||1008.8||1|FM15-METAR|223|ICAO-KFCH|||||||||||||||||||||||||||||||||||||||||||MET060METAR KFCH 082255Z AUTO VRB04KT 9SM CLR 37/09 A2979 RMK A01=||F||223|ICAO-KFCH
USW00023167|FRESNO CHANDLER DWTN AP|2021|08|08|23|15|36.7333|-119.8167|84.1|37.0||1|FM15-METAR|223|ICAO-KFCH|10.0||1|FM15-METAR|223|ICAO-KFCH|||||||||||||999|V-Variable|9|FM15-METAR|223|ICAO-KFCH|3.1|V-Variable|1|FM15-METAR|223|ICAO-KFCH|||||||||||||19|Derived||FM15-METAR|223|ICAO-KFCH|||||||||||||||||||||||||||||||||||||||||||||||||||||||||||||||||||||||||1008.5||1|FM15-METAR|223|ICAO-KFCH|||||||||||||||||||||||||||||||||||||||||||MET060METAR KFCH 082315Z AUTO VRB06KT 9SM CLR 37/10 A2978 RMK A01=||F||223|ICAO-KFCH
USW00023167|FRESNO CHANDLER DWTN AP|2021|08|08|23|35|36.7333|-119.8167|84.1|37.0||1|FM15-METAR|223|ICAO-KFCH|10.0||1|FM15-METAR|223|ICAO-KFCH|||||||||||||280|N-Normal|1|FM15-METAR|223|ICAO-KFCH|3.1|N-Normal|1|FM15-METAR|223|ICAO-KFCH|||||||||||||19|Derived||FM15-METAR|223|ICAO-KFCH|||||||||||||||||||||||||||||||||||||||||||||||||||||||||||||||||||||||||1008.5||1|FM15-METAR|223|ICAO-KFCH|||||||||||||||||||||||||||||||||||||||||||MET060METAR KFCH 082335Z AUTO 28006KT 8SM CLR 37/10 A2978 RMK A01=||F||223|ICAO-KFCH
USW00023167|FRESNO CHANDLER DWTN AP|2021|08|08|23|55|36.7333|-119.8167|84.1|37.0||1|FM15-METAR|223|ICAO-KFCH|10.0||1|FM15-METAR|223|ICAO-KFCH|||||||||||||999|V-Variable|9|FM15-METAR|223|ICAO-KFCH|3.1|V-Variable|1|FM15-METAR|223|ICAO-KFCH|||||||||||||19|Derived||FM15-METAR|223|ICAO-KFCH|||||||||||||||||||||||||||||||||||||||||||||||||||||||||||||||||||||||||1008.1||1|FM15-METAR|223|ICAO-KFCH|||||||||||||||||||||||||||||||||||||||||||MET060METAR KFCH 082355Z AUTO VRB06KT 8SM CLR 37/10 A2977 RMK A01=||F||223|ICAO-KFCH
USW00023167|FRESNO CHANDLER DWTN AP|2021|08|09|00|15|36.7333|-119.8167|84.1|37.0||1|FM15-METAR|223|ICAO-KFCH|10.0||1|FM15-METAR|223|ICAO-KFCH|||||||||||||320|N-Normal|1|FM15-METAR|223|ICAO-KFCH|3.1|N-Normal|1|FM15-METAR|223|ICAO-KFCH|||||||||||||19|Derived||FM15-METAR|223|ICAO-KFCH|||||||||||||||||||||||||||||||||||||||||||||||||||||||||||||||||||||||||1008.1||1|FM15-METAR|223|ICAO-KFCH|||||||||||||||||||||||||||||||||||||||||||MET060METAR KFCH 090015Z AUTO 32006KT 7SM CLR 37/10 A2977 RMK A01=||F||223|ICAO-KFCH
USW00023167|FRESNO CHANDLER DWTN AP|2021|08|09|00|35|36.7333|-119.8167|84.1|37.0||1|FM15-METAR|223|ICAO-KFCH|9.0||1|FM15-METAR|223|ICAO-KFCH|||||||||||||340|N-Normal|1|FM15-METAR|223|ICAO-KFCH|3.1|N-Normal|1|FM15-METAR|223|ICAO-KFCH|||||||||||||18|Derived||FM15-METAR|223|ICAO-KFCH|||||||||||||||||||||||||||||||||||||||||||||||||||||||||||||||||||||||||1008.1||1|FM15-METAR|223|ICAO-KFCH|||||||||||||||||||||||||||||||||||||||||||MET060METAR KFCH 090035Z AUTO 34006KT 8SM CLR 37/09 A2977 RMK A01=||F||223|ICAO-KFCH
USW00023167|FRESNO CHANDLER DWTN AP|2021|08|09|00|55|36.7333|-119.8167|84.1|37.0||1|FM15-METAR|223|ICAO-KFCH|9.0||1|FM15-METAR|223|ICAO-KFCH|||||||||||||320|N-Normal|1|FM15-METAR|223|ICAO-KFCH|4.6|N-Normal|1|FM15-METAR|223|ICAO-KFCH|||||||||||||18|Derived||FM15-METAR|223|ICAO-KFCH|||||||||||||||||||||||||||||||||||||||||||||||||||||||||||||||||||||||||1007.8||1|FM15-METAR|223|ICAO-KFCH|||||||||||||||||||||||||||||||||||||||||||MET060METAR KFCH 090055Z AUTO 32009KT 9SM CLR 37/09 A2976 RMK A01=||F||223|ICAO-KFCH
USW00023167|FRESNO CHANDLER DWTN AP|2021|08|09|01|15|36.7333|-119.8167|84.1|37.0||1|FM15-METAR|223|ICAO-KFCH|10.0||1|FM15-METAR|223|ICAO-KFCH|||||||||||||310|N-Normal|1|FM15-METAR|223|ICAO-KFCH|4.1|N-Normal|1|FM15-METAR|223|ICAO-KFCH|||||||||||||19|Derived||FM15-METAR|223|ICAO-KFCH|||||||||||||||||||||||||||||||||||||||||||||||||||||||||||||||||||||||||1007.8||1|FM15-METAR|223|ICAO-KFCH|||||||||||||||||||||||||||||||||||||||||||MET060METAR KFCH 090115Z AUTO 31008KT 9SM CLR 37/10 A2976 RMK A01=||F||223|ICAO-KFCH
USW00023167|FRESNO CHANDLER DWTN AP|2021|08|09|01|35|36.7333|-119.8167|84.1|37.0||1|FM15-METAR|223|ICAO-KFCH|10.0||1|FM15-METAR|223|ICAO-KFCH|||||||||||||300|N-Normal|1|FM15-METAR|223|ICAO-KFCH|4.6|N-Normal|1|FM15-METAR|223|ICAO-KFCH|||||||||||||19|Derived||FM15-METAR|223|ICAO-KFCH|||||||||||||||||||||||||||||||||||||||||||||||||||||||||||||||||||||||||1007.8||1|FM15-METAR|223|ICAO-KFCH|||||||||||||||||||||||||||||||||||||||||||MET060METAR KFCH 090135Z AUTO 30009KT 9SM CLR 37/10 A2976 RMK A01=||F||223|ICAO-KFCH
USW00023167|FRESNO CHANDLER DWTN AP|2021|08|09|01|55|36.7333|-119.8167|84.1|36.0||1|FM15-METAR|223|ICAO-KFCH|11.0||1|FM15-METAR|223|ICAO-KFCH|||||||||||||300|N-Normal|1|FM15-METAR|223|ICAO-KFCH|4.6|N-Normal|1|FM15-METAR|223|ICAO-KFCH|||||||||||||22|Derived||FM15-METAR|223|ICAO-KFCH|||||||||||||||||||||||||||||||||||||||||||||||||||||||||||||||||||||||||1007.8||1|FM15-METAR|223|ICAO-KFCH|||||||||||||||||||||||||||||||||||||||||||MET060METAR KFCH 090155Z AUTO 30009KT 9SM CLR 36/11 A2976 RMK A01=||F||223|ICAO-KFCH
USW00023167|FRESNO CHANDLER DWTN AP|2021|08|09|02|10|36.7333|-119.8167|84.1|36.0||1|FM15-METAR|223|ICAO-KFCH|11.0||1|FM15-METAR|223|ICAO-KFCH|||||||||||||300|N-Normal|1|FM15-METAR|223|ICAO-KFCH|4.6|N-Normal|1|FM15-METAR|223|ICAO-KFCH|||||||||||||22|Derived||FM15-METAR|223|ICAO-KFCH|||||||||||||||||||||||||||||||||||||||||||||||||||||||||||||||||||||||||1007.8||1|FM15-METAR|223|ICAO-KFCH|||||||||||||||||||||||||||||||||||||||||||MET060METAR KFCH 090210Z AUTO 30009KT 9SM CLR 36/11 A2976 RMK A01=||F||223|ICAO-KFCH
USW00023167|FRESNO CHANDLER DWTN AP|2021|08|09|02|35|36.7333|-119.8167|84.1|35.0||1|FM15-METAR|223|ICAO-KFCH|11.0||1|FM15-METAR|223|ICAO-KFCH|||||||||||||310|N-Normal|1|FM15-METAR|223|ICAO-KFCH|3.1|N-Normal|1|FM15-METAR|223|ICAO-KFCH|||||||||||||23|Derived||FM15-METAR|223|ICAO-KFCH|||||||||||||||||||||||||||||||||||||||||||||||||||||||||||||||||||||||||1007.4||1|FM15-METAR|223|ICAO-KFCH|||||||||||||||||||||||||||||||||||||||||||MET061METAR KFCH 090235Z AUTO 31006KT 10SM CLR 35/11 A2975 RMK A01=||F||223|ICAO-KFCH
USW00023167|FRESNO CHANDLER DWTN AP|2021|08|09|02|55|36.7333|-119.8167|84.1|34.0||1|FM15-METAR|223|ICAO-KFCH|11.0||1|FM15-METAR|223|ICAO-KFCH|||||||||||||320|N-Normal|1|FM15-METAR|223|ICAO-KFCH|2.6|N-Normal|1|FM15-METAR|223|ICAO-KFCH|||||||||||||24|Derived||FM15-METAR|223|ICAO-KFCH|||||||||||||||||||||||||||||||||||||||||||||||||||||||||||||||||||||||||1007.8||1|FM15-METAR|223|ICAO-KFCH|||||||||||||||||||||||||||||||||||||||||||MET061METAR KFCH 090255Z AUTO 32005KT 10SM CLR 34/11 A2976 RMK A01=||F||223|ICAO-KFCH
USW00023167|FRESNO CHANDLER DWTN AP|2021|08|09|03|15|36.7333|-119.8167|84.1|34.0||1|FM15-METAR|223|ICAO-KFCH|11.0||1|FM15-METAR|223|ICAO-KFCH|||||||||||||300|N-Normal|1|FM15-METAR|223|ICAO-KFCH|2.6|N-Normal|1|FM15-METAR|223|ICAO-KFCH|||||||||||||24|Derived||FM15-METAR|223|ICAO-KFCH|||||||||||||||||||||||||||||||||||||||||||||||||||||||||||||||||||||||||1007.8||1|FM15-METAR|223|ICAO-KFCH|||||||||||||||||||||||||||||||||||||||||||MET061METAR KFCH 090315Z AUTO 30005KT 10SM CLR 34/11 A2976 RMK A01=||F||223|ICAO-KFCH
USW00023167|FRESNO CHANDLER DWTN AP|2021|08|09|03|35|36.7333|-119.8167|84.1|32.0||1|FM15-METAR|223|ICAO-KFCH|12.0||1|FM15-METAR|223|ICAO-KFCH|||||||||||||300|N-Normal|1|FM15-METAR|223|ICAO-KFCH|4.1|N-Normal|1|FM15-METAR|223|ICAO-KFCH|||||||||||||29|Derived||FM15-METAR|223|ICAO-KFCH|||||||||||||||||||||||||||||||||||||||||||||||||||||||||||||||||||||||||1007.8||1|FM15-METAR|223|ICAO-KFCH|||||||||||||||||||||||||||||||||||||||||||MET071METAR KFCH 090335Z AUTO 30008KT 10SM FEW038 SCT048 32/12 A2976 RMK A01=||F||223|ICAO-KFCH
USW00023167|FRESNO CHANDLER DWTN AP|2021|08|09|03|55|36.7333|-119.8167|84.1|31.0||1|FM15-METAR|223|ICAO-KFCH|12.0||1|FM15-METAR|223|ICAO-KFCH|||||||||||||310|N-Normal|1|FM15-METAR|223|ICAO-KFCH|3.6|N-Normal|1|FM15-METAR|223|ICAO-KFCH|||||||||||||31|Derived||FM15-METAR|223|ICAO-KFCH|||||||||||||||||||||||||||||||||||||||||||||||||||||||||||||||||||||||||1008.1||1|FM15-METAR|223|ICAO-KFCH|||||||||||||||||||||||||||||||||||||||||||MET071METAR KFCH 090355Z AUTO 31007KT 10SM SCT038 BKN046 31/12 A2977 RMK A01=||F||223|ICAO-KFCH
USW00023167|FRESNO CHANDLER DWTN AP|2021|08|09|04|15|36.7333|-119.8167|84.1|31.0||1|FM15-METAR|223|ICAO-KFCH|10.0||1|FM15-METAR|223|ICAO-KFCH|||||||||||||310|N-Normal|1|FM15-METAR|223|ICAO-KFCH|4.6|N-Normal|1|FM15-METAR|223|ICAO-KFCH|||||||||||||27|Derived||FM15-METAR|223|ICAO-KFCH|||||||||||||||||||||||||||||||||||||||||||||||||||||||||||||||||||||||||1008.5||1|FM15-METAR|223|ICAO-KFCH|||||||||||||||||||||||||||||||||||||||||||MET071METAR KFCH 090415Z AUTO 31009KT 10SM BKN039 OVC047 31/10 A2978 RMK A01=||F||223|ICAO-KFCH
USW00023167|FRESNO CHANDLER DWTN AP|2021|08|09|04|35|36.7333|-119.8167|84.1|30.0||1|FM15-METAR|223|ICAO-KFCH|12.0||1|FM15-METAR|223|ICAO-KFCH|||||||||||||310|N-Normal|1|FM15-METAR|223|ICAO-KFCH|4.1|N-Normal|1|FM15-METAR|223|ICAO-KFCH|||||||||||||33|Derived||FM15-METAR|223|ICAO-KFCH|||||||||||||||||||||||||||||||||||||||||||||||||||||||||||||||||||||||||1008.8||1|FM15-METAR|223|ICAO-KFCH|||||||||||||||||||||||||||||||||||||||||||MET078METAR KFCH 090435Z AUTO 31008KT 10SM SCT040 BKN047 OVC050 30/12 A2979 RMK A01=||F||223|ICAO-KFCH
USW00023167|FRESNO CHANDLER DWTN AP|2021|08|09|04|50|36.7333|-119.8167|84.1|29.0||1|FM15-METAR|223|ICAO-KFCH|12.0||1|FM15-METAR|223|ICAO-KFCH|||||||||||||310|N-Normal|1|FM15-METAR|223|ICAO-KFCH|4.1|N-Normal|1|FM15-METAR|223|ICAO-KFCH|||||||||||||35|Derived||FM15-METAR|223|ICAO-KFCH|||||||||||||||||||||||||||||||||||||||||||||||||||||||||||||||||||||||||1008.8||1|FM15-METAR|223|ICAO-KFCH|||||||||||||||||||||||||||||||||||||||||||MET071METAR KFCH 090450Z AUTO 31008KT 10SM SCT041 BKN049 29/12 A2979 RMK A01=||F||223|ICAO-KFCH
USW00023167|FRESNO CHANDLER DWTN AP|2021|08|09|05|15|36.7333|-119.8167|84.1|29.0||1|FM15-METAR|223|ICAO-KFCH|12.0||1|FM15-METAR|223|ICAO-KFCH|||||||||||||320|N-Normal|1|FM15-METAR|223|ICAO-KFCH|4.6|N-Normal|1|FM15-METAR|223|ICAO-KFCH|7.2||1|FM15-METAR|223|ICAO-KFCH|||||||35|Derived||FM15-METAR|223|ICAO-KFCH|||||||||||||||||||||||||||||||||||||||||||||||||||||||||||||||||||||||||1008.8||1|FM15-METAR|223|ICAO-KFCH|||||||||||||||||||||||||||||||||||||||||||MET081METAR KFCH 090515Z AUTO 32009G14KT 10SM FEW042 BKN049 BKN060 29/12 A2979 RMK A01=||F||223|ICAO-KFCH
USW00023167|FRESNO CHANDLER DWTN AP|2021|08|09|05|30|36.7333|-119.8167|84.1|28.0||1|FM15-METAR|223|ICAO-KFCH|12.0||1|FM15-METAR|223|ICAO-KFCH|||||||||||||320|N-Normal|1|FM15-METAR|223|ICAO-KFCH|3.6|N-Normal|1|FM15-METAR|223|ICAO-KFCH|||||||||||||37|Derived||FM15-METAR|223|ICAO-KFCH|||||||||||||||||||||||||||||||||||||||||||||||||||||||||||||||||||||||||1009.1||1|FM15-METAR|223|ICAO-KFCH|||||||||||||||||||||||||||||||||||||||||||MET078METAR KFCH 090530Z AUTO 32007KT 10SM FEW045 SCT050 SCT065 28/12 A2980 RMK A01=||F||223|ICAO-KFCH
USW00023167|FRESNO CHANDLER DWTN AP|2021|08|09|05|55|36.7333|-119.8167|84.1|28.0||1|FM15-METAR|223|ICAO-KFCH|12.0||1|FM15-METAR|223|ICAO-KFCH|||||||||||||310|N-Normal|1|FM15-METAR|223|ICAO-KFCH|3.6|N-Normal|1|FM15-METAR|223|ICAO-KFCH|7.2||1|FM15-METAR|223|ICAO-KFCH|||||||37|Derived||FM15-METAR|223|ICAO-KFCH|||||||||||||||||||||||||||||||||||||||||||||||||||||||||||||||||||||||||1009.1||1|FM15-METAR|223|ICAO-KFCH|||||||||||||||||||||||||||||||||||||||||||MET064METAR KFCH 090555Z AUTO 31007G14KT 10SM CLR 28/12 A2980 RMK A01=||F||223|ICAO-KFCH
USW00023167|FRESNO CHANDLER DWTN AP|2021|08|09|06|15|36.7333|-119.8167|84.1|27.0||1|FM15-METAR|223|ICAO-KFCH|12.0||1|FM15-METAR|223|ICAO-KFCH|||||||||||||310|N-Normal|1|FM15-METAR|223|ICAO-KFCH|4.1|N-Normal|1|FM15-METAR|223|ICAO-KFCH|||||||||||||39|Derived||FM15-METAR|223|ICAO-KFCH|||||||||||||||||||||||||||||||||||||||||||||||||||||||||||||||||||||||||1009.1||1|FM15-METAR|223|ICAO-KFCH|||||||||||||||||||||||||||||||||||||||||||MET071METAR KFCH 090615Z AUTO 31008KT 10SM FEW050 FEW070 27/12 A2980 RMK A01=||F||223|ICAO-KFCH
USW00023167|FRESNO CHANDLER DWTN AP|2021|08|09|06|35|36.7333|-119.8167|84.1|27.0||1|FM15-METAR|223|ICAO-KFCH|13.0||1|FM15-METAR|223|ICAO-KFCH|||||||||||||310|N-Normal|1|FM15-METAR|223|ICAO-KFCH|4.6|N-Normal|1|FM15-METAR|223|ICAO-KFCH|||||||||||||42|Derived||FM15-METAR|223|ICAO-KFCH|||||||||||||||||||||||||||||||||||||||||||||||||||||||||||||||||||||||||1009.5||1|FM15-METAR|223|ICAO-KFCH|||||||||||||||||||||||||||||||||||||||||||MET078METAR KFCH 090635Z AUTO 31009KT 10SM FEW042 FEW050 SCT060 27/13 A2981 RMK A01=||F||223|ICAO-KFCH
USW00023167|FRESNO CHANDLER DWTN AP|2021|08|09|06|55|36.7333|-119.8167|84.1|26.0||1|FM15-METAR|223|ICAO-KFCH|13.0||1|FM15-METAR|223|ICAO-KFCH|||||||||||||310|N-Normal|1|FM15-METAR|223|ICAO-KFCH|4.1|N-Normal|1|FM15-METAR|223|ICAO-KFCH|||||||||||||45|Derived||FM15-METAR|223|ICAO-KFCH|||||||||||||||||||||||||||||||||||||||||||||||||||||||||||||||||||||||||1009.5||1|FM15-METAR|223|ICAO-KFCH|||||||||||||||||||||||||||||||||||||||||||MET078METAR KFCH 090655Z AUTO 31008KT 10SM FEW043 SCT060 SCT075 26/13 A2981 RMK A01=||F||223|ICAO-KFCH
USW00023167|FRESNO CHANDLER DWTN AP|2021|08|09|07|15|36.7333|-119.8167|84.1|26.0||1|FM15-METAR|223|ICAO-KFCH|13.0||1|FM15-METAR|223|ICAO-KFCH|||||||||||||300|N-Normal|1|FM15-METAR|223|ICAO-KFCH|3.6|N-Normal|1|FM15-METAR|223|ICAO-KFCH|||||||||||||45|Derived||FM15-METAR|223|ICAO-KFCH|||||||||||||||||||||||||||||||||||||||||||||||||||||||||||||||||||||||||1009.8||1|FM15-METAR|223|ICAO-KFCH|||||||||||||||||||||||||||||||||||||||||||MET071METAR KFCH 090715Z AUTO 30007KT 10SM FEW060 SCT070 26/13 A2982 RMK A01=||F||223|ICAO-KFCH
USW00023167|FRESNO CHANDLER DWTN AP|2021|08|09|07|35|36.7333|-119.8167|84.1|25.0||1|FM15-METAR|223|ICAO-KFCH|13.0||1|FM15-METAR|223|ICAO-KFCH|||||||||||||310|N-Normal|1|FM15-METAR|223|ICAO-KFCH|4.6|N-Normal|1|FM15-METAR|223|ICAO-KFCH|||||||||||||47|Derived||FM15-METAR|223|ICAO-KFCH|||||||||||||||||||||||||||||||||||||||||||||||||||||||||||||||||||||||||1009.8||1|FM15-METAR|223|ICAO-KFCH|||||||||||||||||||||||||||||||||||||||||||MET071METAR KFCH 090735Z AUTO 31009KT 10SM FEW055 BKN065 25/13 A2982 RMK A01=||F||223|ICAO-KFCH
USW00023167|FRESNO CHANDLER DWTN AP|2021|08|09|07|55|36.7333|-119.8167|84.1|24.0||1|FM15-METAR|223|ICAO-KFCH|13.0||1|FM15-METAR|223|ICAO-KFCH|||||||||||||310|N-Normal|1|FM15-METAR|223|ICAO-KFCH|3.6|N-Normal|1|FM15-METAR|223|ICAO-KFCH|||||||||||||50|Derived||FM15-METAR|223|ICAO-KFCH|||||||||||||||||||||||||||||||||||||||||||||||||||||||||||||||||||||||||1009.8||1|FM15-METAR|223|ICAO-KFCH|||||||||||||||||||||||||||||||||||||||||||MET071METAR KFCH 090755Z AUTO 31007KT 10SM BKN060 BKN070 24/13 A2982 RMK A01=||F||223|ICAO-KFCH
USW00023167|FRESNO CHANDLER DWTN AP|2021|08|09|08|15|36.7333|-119.8167|84.1|24.0||1|FM15-METAR|223|ICAO-KFCH|13.0||1|FM15-METAR|223|ICAO-KFCH|||||||||||||310|N-Normal|1|FM15-METAR|223|ICAO-KFCH|4.6|N-Normal|1|FM15-METAR|223|ICAO-KFCH|||||||||||||50|Derived||FM15-METAR|223|ICAO-KFCH|||||||||||||||||||||||||||||||||||||||||||||||||||||||||||||||||||||||||1009.8||1|FM15-METAR|223|ICAO-KFCH|||||||||||||||||||||||||||||||||||||||||||MET064METAR KFCH 090815Z AUTO 31009KT 10SM OVC060 24/13 A2982 RMK A01=||F||223|ICAO-KFCH
USW00023167|FRESNO CHANDLER DWTN AP|2021|08|09|08|30|36.7333|-119.8167|84.1|24.0||1|FM15-METAR|223|ICAO-KFCH|14.0||1|FM15-METAR|223|ICAO-KFCH|||||||||||||310|N-Normal|1|FM15-METAR|223|ICAO-KFCH|4.1|N-Normal|1|FM15-METAR|223|ICAO-KFCH|||||||||||||54|Derived||FM15-METAR|223|ICAO-KFCH|||||||||||||||||||||||||||||||||||||||||||||||||||||||||||||||||||||||||1009.8||1|FM15-METAR|223|ICAO-KFCH|||||||||||||||||||||||||||||||||||||||||||MET064METAR KFCH 090830Z AUTO 31008KT 10SM OVC055 24/14 A2982 RMK A01=||F||223|ICAO-KFCH
USW00023167|FRESNO CHANDLER DWTN AP|2021|08|09|08|55|36.7333|-119.8167|84.1|23.0||1|FM15-METAR|223|ICAO-KFCH|14.0||1|FM15-METAR|223|ICAO-KFCH|||||||||||||310|N-Normal|1|FM15-METAR|223|ICAO-KFCH|3.1|N-Normal|1|FM15-METAR|223|ICAO-KFCH|||||||||||||57|Derived||FM15-METAR|223|ICAO-KFCH|||||||||||||||||||||||||||||||||||||||||||||||||||||||||||||||||||||||||1010.2||1|FM15-METAR|223|ICAO-KFCH|||||||||||||||||||||||||||||||||||||||||||MET064METAR KFCH 090855Z AUTO 31006KT 10SM OVC060 23/14 A2983 RMK A01=||F||223|ICAO-KFCH
USW00023167|FRESNO CHANDLER DWTN AP|2021|08|09|09|10|36.7333|-119.8167|84.1|23.0||1|FM15-METAR|223|ICAO-KFCH|14.0||1|FM15-METAR|223|ICAO-KFCH|||||||||||||300|N-Normal|1|FM15-METAR|223|ICAO-KFCH|3.1|N-Normal|1|FM15-METAR|223|ICAO-KFCH|||||||||||||57|Derived||FM15-METAR|223|ICAO-KFCH|||||||||||||||||||||||||||||||||||||||||||||||||||||||||||||||||||||||||1010.2||1|FM15-METAR|223|ICAO-KFCH|||||||||||||||||||||||||||||||||||||||||||MET064METAR KFCH 090910Z AUTO 30006KT 10SM OVC055 23/14 A2983 RMK A01=||F||223|ICAO-KFCH
USW00023167|FRESNO CHANDLER DWTN AP|2021|08|09|09|35|36.7333|-119.8167|84.1|23.0||1|FM15-METAR|223|ICAO-KFCH|14.0||1|FM15-METAR|223|ICAO-KFCH|||||||||||||320|N-Normal|1|FM15-METAR|223|ICAO-KFCH|1.5|N-Normal|1|FM15-METAR|223|ICAO-KFCH|||||||||||||57|Derived||FM15-METAR|223|ICAO-KFCH|||||||||||||||||||||||||||||||||||||||||||||||||||||||||||||||||||||||||1010.2||1|FM15-METAR|223|ICAO-KFCH|||||||||||||||||||||||||||||||||||||||||||MET057METAR KFCH 090935Z AUTO 32003KT 10SM 23/14 A2983 RMK A01=||F||223|ICAO-KFCH
USW00023167|FRESNO CHANDLER DWTN AP|2021|08|09|09|55|36.7333|-119.8167|84.1|23.0||1|FM15-METAR|223|ICAO-KFCH|14.0||1|FM15-METAR|223|ICAO-KFCH|||||||||||||320|N-Normal|1|FM15-METAR|223|ICAO-KFCH|3.1|N-Normal|1|FM15-METAR|223|ICAO-KFCH|||||||||||||57|Derived||FM15-METAR|223|ICAO-KFCH|||||||||||||||||||||||||||||||||||||||||||||||||||||||||||||||||||||||||1010.2||1|FM15-METAR|223|ICAO-KFCH|||||||||||||||||||||||||||||||||||||||||||MET057METAR KFCH 090955Z AUTO 32006KT 10SM 23/14 A2983 RMK A01=||F||223|ICAO-KFCH
USW00023167|FRESNO CHANDLER DWTN AP|2021|08|09|10|15|36.7333|-119.8167|84.1|22.0||1|FM15-METAR|223|ICAO-KFCH|14.0||1|FM15-METAR|223|ICAO-KFCH|||||||||||||320|N-Normal|1|FM15-METAR|223|ICAO-KFCH|2.6|N-Normal|1|FM15-METAR|223|ICAO-KFCH|||||||||||||61|Derived||FM15-METAR|223|ICAO-KFCH|||||||||||||||||||||||||||||||||||||||||||||||||||||||||||||||||||||||||1010.5||1|FM15-METAR|223|ICAO-KFCH|||||||||||||||||||||||||||||||||||||||||||MET064METAR KFCH 091015Z AUTO 32005KT 10SM OVC055 22/14 A2984 RMK A01=||F||223|ICAO-KFCH
USW00023167|FRESNO CHANDLER DWTN AP|2021|08|09|10|35|36.7333|-119.8167|84.1|22.0||1|FM15-METAR|223|ICAO-KFCH|14.0||1|FM15-METAR|223|ICAO-KFCH|||||||||||||340|N-Normal|1|FM15-METAR|223|ICAO-KFCH|2.1|N-Normal|1|FM15-METAR|223|ICAO-KFCH|||||||||||||61|Derived||FM15-METAR|223|ICAO-KFCH|||||||||||||||||||||||||||||||||||||||||||||||||||||||||||||||||||||||||1010.5||1|FM15-METAR|223|ICAO-KFCH|||||||||||||||||||||||||||||||||||||||||||MET064METAR KFCH 091035Z AUTO 34004KT 10SM OVC055 22/14 A2984 RMK A01=||F||223|ICAO-KFCH
USW00023167|FRESNO CHANDLER DWTN AP|2021|08|09|10|55|36.7333|-119.8167|84.1|22.0||1|FM15-METAR|223|ICAO-KFCH|14.0||1|FM15-METAR|223|ICAO-KFCH|||||||||||||350|N-Normal|1|FM15-METAR|223|ICAO-KFCH|2.1|N-Normal|1|FM15-METAR|223|ICAO-KFCH|||||||||||||61|Derived||FM15-METAR|223|ICAO-KFCH|||||||||||||||||||||||||||||||||||||||||||||||||||||||||||||||||||||||||1010.5||1|FM15-METAR|223|ICAO-KFCH|||||||||||||||||||||||||||||||||||||||||||MET064METAR KFCH 091055Z AUTO 35004KT 10SM OVC055 22/14 A2984 RMK A01=||F||223|ICAO-KFCH
USW00023167|FRESNO CHANDLER DWTN AP|2021|08|09|11|15|36.7333|-119.8167|84.1|22.0||1|FM15-METAR|223|ICAO-KFCH|14.0||1|FM15-METAR|223|ICAO-KFCH|||||||||||||020|N-Normal|1|FM15-METAR|223|ICAO-KFCH|1.5|N-Normal|1|FM15-METAR|223|ICAO-KFCH|||||||||||||61|Derived||FM15-METAR|223|ICAO-KFCH|||||||||||||||||||||||||||||||||||||||||||||||||||||||||||||||||||||||||1010.5||1|FM15-METAR|223|ICAO-KFCH|||||||||||||||||||||||||||||||||||||||||||MET064METAR KFCH 091115Z AUTO 02003KT 10SM OVC055 22/14 A2984 RMK A01=||F||223|ICAO-KFCH
USW00023167|FRESNO CHANDLER DWTN AP|2021|08|09|11|35|36.7333|-119.8167|84.1|22.0||1|FM15-METAR|223|ICAO-KFCH|14.0||1|FM15-METAR|223|ICAO-KFCH|||||||||||||280|N-Normal|1|FM15-METAR|223|ICAO-KFCH|1.5|N-Normal|1|FM15-METAR|223|ICAO-KFCH|||||||||||||61|Derived||FM15-METAR|223|ICAO-KFCH|||||||||||||||||||||||||||||||||||||||||||||||||||||||||||||||||||||||||1010.5||1|FM15-METAR|223|ICAO-KFCH|||||||||||||||||||||||||||||||||||||||||||MET064METAR KFCH 091135Z AUTO 28003KT 10SM OVC055 22/14 A2984 RMK A01=||F||223|ICAO-KFCH
USW00023167|FRESNO CHANDLER DWTN AP|2021|08|09|11|55|36.7333|-119.8167|84.1|22.0||1|FM15-METAR|223|ICAO-KFCH|14.0||1|FM15-METAR|223|ICAO-KFCH|||||||||||||999|C-Calm|9|FM15-METAR|223|ICAO-KFCH|0.0|C-Calm|1|FM15-METAR|223|ICAO-KFCH|||||||||||||61|Derived||FM15-METAR|223|ICAO-KFCH|||||||||||||||||||||||||||||||||||||||||||||||||||||||||||||||||||||||||1010.5||1|FM15-METAR|223|ICAO-KFCH|||||||||||||||||||||||||||||||||||||||||||MET064METAR KFCH 091155Z AUTO 00000KT 10SM OVC055 22/14 A2984 RMK A01=||F||223|ICAO-KFCH
USW00023167|FRESNO CHANDLER DWTN AP|2021|08|09|12|15|36.7333|-119.8167|84.1|22.0||1|FM15-METAR|223|ICAO-KFCH|14.0||1|FM15-METAR|223|ICAO-KFCH|||||||||||||999|C-Calm|9|FM15-METAR|223|ICAO-KFCH|0.0|C-Calm|1|FM15-METAR|223|ICAO-KFCH|||||||||||||61|Derived||FM15-METAR|223|ICAO-KFCH|||||||||||||||||||||||||||||||||||||||||||||||||||||||||||||||||||||||||1010.5||1|FM15-METAR|223|ICAO-KFCH|||||||||||||||||||||||||||||||||||||||||||MET064METAR KFCH 091215Z AUTO 00000KT 10SM OVC055 22/14 A2984 RMK A01=||F||223|ICAO-KFCH
USW00023167|FRESNO CHANDLER DWTN AP|2021|08|09|12|30|36.7333|-119.8167|84.1|22.0||1|FM15-METAR|223|ICAO-KFCH|14.0||1|FM15-METAR|223|ICAO-KFCH|||||||||||||999|C-Calm|9|FM15-METAR|223|ICAO-KFCH|0.0|C-Calm|1|FM15-METAR|223|ICAO-KFCH|||||||||||||61|Derived||FM15-METAR|223|ICAO-KFCH|||||||||||||||||||||||||||||||||||||||||||||||||||||||||||||||||||||||||1010.5||1|FM15-METAR|223|ICAO-KFCH|||||||||||||||||||||||||||||||||||||||||||MET064METAR KFCH 091230Z AUTO 00000KT 10SM OVC055 22/14 A2984 RMK A01=||F||223|ICAO-KFCH
USW00023167|FRESNO CHANDLER DWTN AP|2021|08|09|12|55|36.7333|-119.8167|84.1|21.0||1|FM15-METAR|223|ICAO-KFCH|14.0||1|FM15-METAR|223|ICAO-KFCH|||||||||||||030|N-Normal|1|FM15-METAR|223|ICAO-KFCH|1.5|N-Normal|1|FM15-METAR|223|ICAO-KFCH|||||||||||||64|Derived||FM15-METAR|223|ICAO-KFCH|||||||||||||||||||||||||||||||||||||||||||||||||||||||||||||||||||||||||1010.8||1|FM15-METAR|223|ICAO-KFCH|||||||||||||||||||||||||||||||||||||||||||MET064METAR KFCH 091255Z AUTO 03003KT 10SM OVC055 21/14 A2985 RMK A01=||F||223|ICAO-KFCH
USW00023167|FRESNO CHANDLER DWTN AP|2021|08|09|13|15|36.7333|-119.8167|84.1|21.0||1|FM15-METAR|223|ICAO-KFCH|15.0||1|FM15-METAR|223|ICAO-KFCH|||||||||||||360|N-Normal|1|FM15-METAR|223|ICAO-KFCH|2.1|N-Normal|1|FM15-METAR|223|ICAO-KFCH|||||||||||||69|Derived||FM15-METAR|223|ICAO-KFCH|||||||||||||||||||||||||||||||||||||||||||||||||||||||||||||||||||||||||1010.8||1|FM15-METAR|223|ICAO-KFCH|||||||||||||||||||||||||||||||||||||||||||MET063METAR KFCH 091315Z AUTO 36004KT 9SM FEW055 21/15 A2985 RMK A01=||F||223|ICAO-KFCH
USW00023167|FRESNO CHANDLER DWTN AP|2021|08|09|13|35|36.7333|-119.8167|84.1|21.0||1|FM15-METAR|223|ICAO-KFCH|15.0||1|FM15-METAR|223|ICAO-KFCH|||||||||||||999|C-Calm|9|FM15-METAR|223|ICAO-KFCH|0.0|C-Calm|1|FM15-METAR|223|ICAO-KFCH|||||||||||||69|Derived||FM15-METAR|223|ICAO-KFCH|||||||||||||||||||||||||||||||||||||||||||||||||||||||||||||||||||||||||1011.2||1|FM15-METAR|223|ICAO-KFCH|||||||||||||||||||||||||||||||||||||||||||MET061METAR KFCH 091335Z AUTO 00000KT 10SM CLR 21/15 A2986 RMK A01=||F||223|ICAO-KFCH
USW00023167|FRESNO CHANDLER DWTN AP|2021|08|09|13|50|36.7333|-119.8167|84.1|22.0||1|FM15-METAR|223|ICAO-KFCH|15.0||1|FM15-METAR|223|ICAO-KFCH|||||||||||||999|C-Calm|9|FM15-METAR|223|ICAO-KFCH|0.0|C-Calm|1|FM15-METAR|223|ICAO-KFCH|||||||||||||65|Derived||FM15-METAR|223|ICAO-KFCH|||||||||||||||||||||||||||||||||||||||||||||||||||||||||||||||||||||||||1011.5||1|FM15-METAR|223|ICAO-KFCH|||||||||||||||||||||||||||||||||||||||||||MET061METAR KFCH 091350Z AUTO 00000KT 10SM CLR 22/15 A2987 RMK A01=||F||223|ICAO-KFCH
USW00023167|FRESNO CHANDLER DWTN AP|2021|08|09|14|15|36.7333|-119.8167|84.1|21.0||1|FM15-METAR|223|ICAO-KFCH|15.0||1|FM15-METAR|223|ICAO-KFCH|||||||||||||230|N-Normal|1|FM15-METAR|223|ICAO-KFCH|1.5|N-Normal|1|FM15-METAR|223|ICAO-KFCH|||||||||||||69|Derived||FM15-METAR|223|ICAO-KFCH|||||||||||||||||||||||||||||||||||||||||||||||||||||||||||||||||||||||||1011.2||1|FM15-METAR|223|ICAO-KFCH|||||||||||||||||||||||||||||||||||||||||||MET061METAR KFCH 091415Z AUTO 23003KT 10SM CLR 21/15 A2986 RMK A01=||F||223|ICAO-KFCH
USW00023167|FRESNO CHANDLER DWTN AP|2021|08|09|14|35|36.7333|-119.8167|84.1|21.0||1|FM15-METAR|223|ICAO-KFCH|15.0||1|FM15-METAR|223|ICAO-KFCH|||||||||||||999|C-Calm|9|FM15-METAR|223|ICAO-KFCH|0.0|C-Calm|1|FM15-METAR|223|ICAO-KFCH|||||||||||||69|Derived||FM15-METAR|223|ICAO-KFCH|||||||||||||||||||||||||||||||||||||||||||||||||||||||||||||||||||||||||1011.5||1|FM15-METAR|223|ICAO-KFCH|||||||||||||||||||||||||||||||||||||||||||MET061METAR KFCH 091435Z AUTO 00000KT 10SM CLR 21/15 A2987 RMK A01=||F||223|ICAO-KFCH
USW00023167|FRESNO CHANDLER DWTN AP|2021|08|09|14|55|36.7333|-119.8167|84.1|22.0||1|FM15-METAR|223|ICAO-KFCH|15.0||1|FM15-METAR|223|ICAO-KFCH|||||||||||||999|C-Calm|9|FM15-METAR|223|ICAO-KFCH|0.0|C-Calm|1|FM15-METAR|223|ICAO-KFCH|||||||||||||65|Derived||FM15-METAR|223|ICAO-KFCH|||||||||||||||||||||||||||||||||||||||||||||||||||||||||||||||||||||||||1011.5||1|FM15-METAR|223|ICAO-KFCH|||||||||||||||||||||||||||||||||||||||||||MET060METAR KFCH 091455Z AUTO 00000KT 9SM CLR 22/15 A2987 RMK A01=||F||223|ICAO-KFCH
USW00023167|FRESNO CHANDLER DWTN AP|2021|08|09|15|15|36.7333|-119.8167|84.1|23.0||1|FM15-METAR|223|ICAO-KFCH|15.0||1|FM15-METAR|223|ICAO-KFCH|||||||||||||999|C-Calm|9|FM15-METAR|223|ICAO-KFCH|0.0|C-Calm|1|FM15-METAR|223|ICAO-KFCH|||||||||||||61|Derived||FM15-METAR|223|ICAO-KFCH|||||||||||||||||||||||||||||||||||||||||||||||||||||||||||||||||||||||||1011.8||1|FM15-METAR|223|ICAO-KFCH|||||||||||||||||||||||||||||||||||||||||||MET061METAR KFCH 091515Z AUTO 00000KT 10SM CLR 23/15 A2988 RMK A01=||F||223|ICAO-KFCH
USW00023167|FRESNO CHANDLER DWTN AP|2021|08|09|15|35|36.7333|-119.8167|84.1|24.0||1|FM15-METAR|223|ICAO-KFCH|15.0||1|FM15-METAR|223|ICAO-KFCH|||||||||||||999|C-Calm|9|FM15-METAR|223|ICAO-KFCH|0.0|C-Calm|1|FM15-METAR|223|ICAO-KFCH|||||||||||||57|Derived||FM15-METAR|223|ICAO-KFCH|||||||||||||||||||||||||||||||||||||||||||||||||||||||||||||||||||||||||1011.8||1|FM15-METAR|223|ICAO-KFCH|||||||||||||||||||||||||||||||||||||||||||MET061METAR KFCH 091535Z AUTO 00000KT 10SM CLR 24/15 A2988 RMK A01=||F||223|ICAO-KFCH
USW00023167|FRESNO CHANDLER DWTN AP|2021|08|09|15|50|36.7333|-119.8167|84.1|24.0||1|FM15-METAR|223|ICAO-KFCH|15.0||1|FM15-METAR|223|ICAO-KFCH|||||||||||||999|C-Calm|9|FM15-METAR|223|ICAO-KFCH|0.0|C-Calm|1|FM15-METAR|223|ICAO-KFCH|||||||||||||57|Derived||FM15-METAR|223|ICAO-KFCH|||||||||||||||||||||||||||||||||||||||||||||||||||||||||||||||||||||||||1011.8||1|FM15-METAR|223|ICAO-KFCH|||||||||||||||||||||||||||||||||||||||||||MET060METAR KFCH 091550Z AUTO 00000KT 9SM CLR 24/15 A2988 RMK A01=||F||223|ICAO-KFCH
USW00023167|FRESNO CHANDLER DWTN AP|2021|08|09|16|15|36.7333|-119.8167|84.1|26.0||1|FM15-METAR|223|ICAO-KFCH|15.0||1|FM15-METAR|223|ICAO-KFCH|||||||||||||140|N-Normal|1|FM15-METAR|223|ICAO-KFCH|2.1|N-Normal|1|FM15-METAR|223|ICAO-KFCH|||||||||||||51|Derived||FM15-METAR|223|ICAO-KFCH|||||||||||||||||||||||||||||||||||||||||||||||||||||||||||||||||||||||||1011.8||1|FM15-METAR|223|ICAO-KFCH|||||||||||||||||||||||||||||||||||||||||||MET060METAR KFCH 091615Z AUTO 14004KT 9SM CLR 26/15 A2988 RMK A01=||F||223|ICAO-KFCH
USW00023167|FRESNO CHANDLER DWTN AP|2021|08|09|16|35|36.7333|-119.8167|84.1|26.0||1|FM15-METAR|223|ICAO-KFCH|15.0||1|FM15-METAR|223|ICAO-KFCH|||||||||||||190|N-Normal|1|FM15-METAR|223|ICAO-KFCH|2.1|N-Normal|1|FM15-METAR|223|ICAO-KFCH|||||||||||||51|Derived||FM15-METAR|223|ICAO-KFCH|||||||||||||||||||||||||||||||||||||||||||||||||||||||||||||||||||||||||1011.5||1|FM15-METAR|223|ICAO-KFCH|||||||||||||||||||||||||||||||||||||||||||MET061METAR KFCH 091635Z AUTO 19004KT 10SM CLR 26/15 A2987 RMK A01=||F||223|ICAO-KFCH
USW00023167|FRESNO CHANDLER DWTN AP|2021|08|09|16|55|36.7333|-119.8167|84.1|27.0||1|FM15-METAR|223|ICAO-KFCH|15.0||1|FM15-METAR|223|ICAO-KFCH|||||||||||||999|V-Variable|9|FM15-METAR|223|ICAO-KFCH|1.5|V-Variable|1|FM15-METAR|223|ICAO-KFCH|||||||||||||48|Derived||FM15-METAR|223|ICAO-KFCH|||||||||||||||||||||||||||||||||||||||||||||||||||||||||||||||||||||||||1011.8||1|FM15-METAR|223|ICAO-KFCH|||||||||||||||||||||||||||||||||||||||||||MET060METAR KFCH 091655Z AUTO VRB03KT 9SM CLR 27/15 A2988 RMK A01=||F||223|ICAO-KFCH
USW00023167|FRESNO CHANDLER DWTN AP|2021|08|09|17|15|36.7333|-119.8167|84.1|28.0||1|FM15-METAR|223|ICAO-KFCH|15.0||1|FM15-METAR|223|ICAO-KFCH|||||||||||||999|C-Calm|9|FM15-METAR|223|ICAO-KFCH|0.0|C-Calm|1|FM15-METAR|223|ICAO-KFCH|||||||||||||45|Derived||FM15-METAR|223|ICAO-KFCH|||||||||||||||||||||||||||||||||||||||||||||||||||||||||||||||||||||||||1011.8||1|FM15-METAR|223|ICAO-KFCH|||||||||||||||||||||||||||||||||||||||||||MET061METAR KFCH 091715Z AUTO 00000KT 10SM CLR 28/15 A2988 RMK A01=||F||223|ICAO-KFCH
USW00023167|FRESNO CHANDLER DWTN AP|2021|08|09|17|35|36.7333|-119.8167|84.1|29.0||1|FM15-METAR|223|ICAO-KFCH|14.0||1|FM15-METAR|223|ICAO-KFCH|||||||||||||999|C-Calm|9|FM15-METAR|223|ICAO-KFCH|0.0|C-Calm|1|FM15-METAR|223|ICAO-KFCH|||||||||||||40|Derived||FM15-METAR|223|ICAO-KFCH|||||||||||||||||||||||||||||||||||||||||||||||||||||||||||||||||||||||||1011.8||1|FM15-METAR|223|ICAO-KFCH|||||||||||||||||||||||||||||||||||||||||||MET061METAR KFCH 091735Z AUTO 00000KT 10SM CLR 29/14 A2988 RMK A01=||F||223|ICAO-KFCH
USW00023167|FRESNO CHANDLER DWTN AP|2021|08|09|17|55|36.7333|-119.8167|84.1|30.0||1|FM15-METAR|223|ICAO-KFCH|13.0||1|FM15-METAR|223|ICAO-KFCH|||||||||||||260|N-Normal|1|FM15-METAR|223|ICAO-KFCH|2.1|N-Normal|1|FM15-METAR|223|ICAO-KFCH|||||||||||||35|Derived||FM15-METAR|223|ICAO-KFCH|||||||||||||||||||||||||||||||||||||||||||||||||||||||||||||||||||||||||1011.5||1|FM15-METAR|223|ICAO-KFCH|||||||||||||||||||||||||||||||||||||||||||MET060METAR KFCH 091755Z AUTO 26004KT 9SM CLR 30/13 A2987 RMK A01=||F||223|ICAO-KFCH
USW00023167|FRESNO CHANDLER DWTN AP|2021|08|09|18|10|36.7333|-119.8167|84.1|30.0||1|FM15-METAR|223|ICAO-KFCH|14.0||1|FM15-METAR|223|ICAO-KFCH|||||||||||||999|C-Calm|9|FM15-METAR|223|ICAO-KFCH|0.0|C-Calm|1|FM15-METAR|223|ICAO-KFCH|||||||||||||38|Derived||FM15-METAR|223|ICAO-KFCH|||||||||||||||||||||||||||||||||||||||||||||||||||||||||||||||||||||||||1011.5||1|FM15-METAR|223|ICAO-KFCH|||||||||||||||||||||||||||||||||||||||||||MET060METAR KFCH 091810Z AUTO 00000KT 9SM CLR 30/14 A2987 RMK A01=||F||223|ICAO-KFCH
USW00023167|FRESNO CHANDLER DWTN AP|2021|08|09|18|35|36.7333|-119.8167|84.1|31.0||1|FM15-METAR|223|ICAO-KFCH|14.0||1|FM15-METAR|223|ICAO-KFCH|||||||||||||999|C-Calm|9|FM15-METAR|223|ICAO-KFCH|0.0|C-Calm|1|FM15-METAR|223|ICAO-KFCH|||||||||||||35|Derived||FM15-METAR|223|ICAO-KFCH|||||||||||||||||||||||||||||||||||||||||||||||||||||||||||||||||||||||||1011.2||1|FM15-METAR|223|ICAO-KFCH|||||||||||||||||||||||||||||||||||||||||||MET060METAR KFCH 091835Z AUTO 00000KT 9SM CLR 31/14 A2986 RMK A01=||F||223|ICAO-KFCH
USW00023167|FRESNO CHANDLER DWTN AP|2021|08|09|18|50|36.7333|-119.8167|84.1|32.0||1|FM15-METAR|223|ICAO-KFCH|14.0||1|FM15-METAR|223|ICAO-KFCH|||||||||||||999|C-Calm|9|FM15-METAR|223|ICAO-KFCH|0.0|C-Calm|1|FM15-METAR|223|ICAO-KFCH|||||||||||||33|Derived||FM15-METAR|223|ICAO-KFCH|||||||||||||||||||||||||||||||||||||||||||||||||||||||||||||||||||||||||1011.2||1|FM15-METAR|223|ICAO-KFCH|||||||||||||||||||||||||||||||||||||||||||MET060METAR KFCH 091850Z AUTO 00000KT 9SM CLR 32/14 A2986 RMK A01=||F||223|ICAO-KFCH
USW00023167|FRESNO CHANDLER DWTN AP|2021|08|09|19|10|36.7333|-119.8167|84.1|33.0||1|FM15-METAR|223|ICAO-KFCH|14.0||1|FM15-METAR|223|ICAO-KFCH|||||||||||||220|N-Normal|1|FM15-METAR|223|ICAO-KFCH|3.1|N-Normal|1|FM15-METAR|223|ICAO-KFCH|||||||||||||32|Derived||FM15-METAR|223|ICAO-KFCH|||||||||||||||||||||||||||||||||||||||||||||||||||||||||||||||||||||||||1011.2||1|FM15-METAR|223|ICAO-KFCH|||||||||||||||||||||||||||||||||||||||||||MET060METAR KFCH 091910Z AUTO 22006KT 9SM CLR 33/14 A2986 RMK A01=||F||223|ICAO-KFCH
USW00023167|FRESNO CHANDLER DWTN AP|2021|08|09|19|35|36.7333|-119.8167|84.1|33.0||1|FM15-METAR|223|ICAO-KFCH|14.0||1|FM15-METAR|223|ICAO-KFCH|||||||||||||999|V-Variable|9|FM15-METAR|223|ICAO-KFCH|2.1|V-Variable|1|FM15-METAR|223|ICAO-KFCH|||||||||||||32|Derived||FM15-METAR|223|ICAO-KFCH|||||||||||||||||||||||||||||||||||||||||||||||||||||||||||||||||||||||||1010.8||1|FM15-METAR|223|ICAO-KFCH|||||||||||||||||||||||||||||||||||||||||||MET060METAR KFCH 091935Z AUTO VRB04KT 9SM CLR 33/14 A2985 RMK A01=||F||223|ICAO-KFCH
USW00023167|FRESNO CHANDLER DWTN AP|2021|08|09|19|55|36.7333|-119.8167|84.1|34.0||1|FM15-METAR|223|ICAO-KFCH|13.0||1|FM15-METAR|223|ICAO-KFCH|||||||||||||999|V-Variable|9|FM15-METAR|223|ICAO-KFCH|1.5|V-Variable|1|FM15-METAR|223|ICAO-KFCH|||||||||||||28|Derived||FM15-METAR|223|ICAO-KFCH|||||||||||||||||||||||||||||||||||||||||||||||||||||||||||||||||||||||||1010.5||1|FM15-METAR|223|ICAO-KFCH|||||||||||||||||||||||||||||||||||||||||||MET061METAR KFCH 091955Z AUTO VRB03KT 10SM CLR 34/13 A2984 RMK A01=||F||223|ICAO-KFCH
USW00023167|FRESNO CHANDLER DWTN AP|2021|08|09|20|15|36.7333|-119.8167|84.1|34.0||1|FM15-METAR|223|ICAO-KFCH|11.0||1|FM15-METAR|223|ICAO-KFCH|||||||||||||999|V-Variable|9|FM15-METAR|223|ICAO-KFCH|2.6|V-Variable|1|FM15-METAR|223|ICAO-KFCH|||||||||||||24|Derived||FM15-METAR|223|ICAO-KFCH|||||||||||||||||||||||||||||||||||||||||||||||||||||||||||||||||||||||||1010.5||1|FM15-METAR|223|ICAO-KFCH|||||||||||||||||||||||||||||||||||||||||||MET061METAR KFCH 092015Z AUTO VRB05KT 10SM CLR 34/11 A2984 RMK A01=||F||223|ICAO-KFCH
USW00023167|FRESNO CHANDLER DWTN AP|2021|08|09|20|35|36.7333|-119.8167|84.1|35.0||1|FM15-METAR|223|ICAO-KFCH|10.0||1|FM15-METAR|223|ICAO-KFCH|||||||||||||999|V-Variable|9|FM15-METAR|223|ICAO-KFCH|3.1|V-Variable|1|FM15-METAR|223|ICAO-KFCH|||||||||||||22|Derived||FM15-METAR|223|ICAO-KFCH|||||||||||||||||||||||||||||||||||||||||||||||||||||||||||||||||||||||||1010.2||1|FM15-METAR|223|ICAO-KFCH|||||||||||||||||||||||||||||||||||||||||||MET060METAR KFCH 092035Z AUTO VRB06KT 9SM CLR 35/10 A2983 RMK A01=||F||223|ICAO-KFCH
USW00023167|FRESNO CHANDLER DWTN AP|2021|08|09|20|55|36.7333|-119.8167|84.1|35.0||1|FM15-METAR|223|ICAO-KFCH|11.0||1|FM15-METAR|223|ICAO-KFCH|||||||||||||999|V-Variable|9|FM15-METAR|223|ICAO-KFCH|2.1|V-Variable|1|FM15-METAR|223|ICAO-KFCH|||||||||||||23|Derived||FM15-METAR|223|ICAO-KFCH|||||||||||||||||||||||||||||||||||||||||||||||||||||||||||||||||||||||||1010.2||1|FM15-METAR|223|ICAO-KFCH|||||||||||||||||||||||||||||||||||||||||||MET061METAR KFCH 092055Z AUTO VRB04KT 10SM CLR 35/11 A2983 RMK A01=||F||223|ICAO-KFCH
USW00023167|FRESNO CHANDLER DWTN AP|2021|08|09|21|15|36.7333|-119.8167|84.1|36.0||1|FM15-METAR|223|ICAO-KFCH|12.0||1|FM15-METAR|223|ICAO-KFCH|||||||||||||999|C-Calm|9|FM15-METAR|223|ICAO-KFCH|0.0|C-Calm|1|FM15-METAR|223|ICAO-KFCH|||||||||||||23|Derived||FM15-METAR|223|ICAO-KFCH|||||||||||||||||||||||||||||||||||||||||||||||||||||||||||||||||||||||||1009.8||1|FM15-METAR|223|ICAO-KFCH|||||||||||||||||||||||||||||||||||||||||||MET061METAR KFCH 092115Z AUTO 00000KT 10SM CLR 36/12 A2982 RMK A01=||F||223|ICAO-KFCH
USW00023167|FRESNO CHANDLER DWTN AP|2021|08|09|21|35|36.7333|-119.8167|84.1|36.0||1|FM15-METAR|223|ICAO-KFCH|12.0||1|FM15-METAR|223|ICAO-KFCH|||||||||||||999|V-Variable|9|FM15-METAR|223|ICAO-KFCH|2.1|V-Variable|1|FM15-METAR|223|ICAO-KFCH|5.7||1|FM15-METAR|223|ICAO-KFCH|||||||23|Derived||FM15-METAR|223|ICAO-KFCH|||||||||||||||||||||||||||||||||||||||||||||||||||||||||||||||||||||||||1009.5||1|FM15-METAR|223|ICAO-KFCH|||||||||||||||||||||||||||||||||||||||||||MET064METAR KFCH 092135Z AUTO VRB04G11KT 10SM CLR 36/12 A2981 RMK A01=||F||223|ICAO-KFCH
USW00023167|FRESNO CHANDLER DWTN AP|2021|08|09|21|55|36.7333|-119.8167|84.1|36.0||1|FM15-METAR|223|ICAO-KFCH|11.0||1|FM15-METAR|223|ICAO-KFCH|||||||||||||280|N-Normal|1|FM15-METAR|223|ICAO-KFCH|3.1|N-Normal|1|FM15-METAR|223|ICAO-KFCH|||||||||||||22|Derived||FM15-METAR|223|ICAO-KFCH|||||||||||||||||||||||||||||||||||||||||||||||||||||||||||||||||||||||||1009.5||1|FM15-METAR|223|ICAO-KFCH|||||||||||||||||||||||||||||||||||||||||||MET061METAR KFCH 092155Z AUTO 28006KT 10SM CLR 36/11 A2981 RMK A01=||F||223|ICAO-KFCH
USW00023167|FRESNO CHANDLER DWTN AP|2021|08|09|22|15|36.7333|-119.8167|84.1|37.0||1|FM15-METAR|223|ICAO-KFCH|9.0||1|FM15-METAR|223|ICAO-KFCH|||||||||||||280|N-Normal|1|FM15-METAR|223|ICAO-KFCH|2.6|N-Normal|1|FM15-METAR|223|ICAO-KFCH|||||||||||||18|Derived||FM15-METAR|223|ICAO-KFCH|||||||||||||||||||||||||||||||||||||||||||||||||||||||||||||||||||||||||1009.1||1|FM15-METAR|223|ICAO-KFCH|||||||||||||||||||||||||||||||||||||||||||MET060METAR KFCH 092215Z AUTO 28005KT 9SM CLR 37/09 A2980 RMK A01=||F||223|ICAO-KFCH
USW00023167|FRESNO CHANDLER DWTN AP|2021|08|09|22|35|36.7333|-119.8167|84.1|37.0||1|FM15-METAR|223|ICAO-KFCH|10.0||1|FM15-METAR|223|ICAO-KFCH|||||||||||||999|V-Variable|9|FM15-METAR|223|ICAO-KFCH|3.1|V-Variable|1|FM15-METAR|223|ICAO-KFCH|||||||||||||19|Derived||FM15-METAR|223|ICAO-KFCH|||||||||||||||||||||||||||||||||||||||||||||||||||||||||||||||||||||||||1008.8||1|FM15-METAR|223|ICAO-KFCH|||||||||||||||||||||||||||||||||||||||||||MET060METAR KFCH 092235Z AUTO VRB06KT 9SM CLR 37/10 A2979 RMK A01=||F||223|ICAO-KFCH
USW00023167|FRESNO CHANDLER DWTN AP|2021|08|09|22|55|36.7333|-119.8167|84.1|38.0||1|FM15-METAR|223|ICAO-KFCH|10.0||1|FM15-METAR|223|ICAO-KFCH|||||||||||||290|N-Normal|1|FM15-METAR|223|ICAO-KFCH|4.1|N-Normal|1|FM15-METAR|223|ICAO-KFCH|||||||||||||18|Derived||FM15-METAR|223|ICAO-KFCH|||||||||||||||||||||||||||||||||||||||||||||||||||||||||||||||||||||||||1008.5||1|FM15-METAR|223|ICAO-KFCH|||||||||||||||||||||||||||||||||||||||||||MET061METAR KFCH 092255Z AUTO 29008KT 10SM CLR 38/10 A2978 RMK A01=||F||223|ICAO-KFCH
USW00023167|FRESNO CHANDLER DWTN AP|2021|08|09|23|15|36.7333|-119.8167|84.1|38.0||1|FM15-METAR|223|ICAO-KFCH|10.0||1|FM15-METAR|223|ICAO-KFCH|||||||||||||240|N-Normal|1|FM15-METAR|223|ICAO-KFCH|2.6|N-Normal|1|FM15-METAR|223|ICAO-KFCH|||||||||||||18|Derived||FM15-METAR|223|ICAO-KFCH|||||||||||||||||||||||||||||||||||||||||||||||||||||||||||||||||||||||||1008.5||1|FM15-METAR|223|ICAO-KFCH|||||||||||||||||||||||||||||||||||||||||||MET061METAR KFCH 092315Z AUTO 24005KT 10SM CLR 38/10 A2978 RMK A01=||F||223|ICAO-KFCH
USW00023167|FRESNO CHANDLER DWTN AP|2021|08|09|23|35|36.7333|-119.8167|84.1|38.0||1|FM15-METAR|223|ICAO-KFCH|10.0||1|FM15-METAR|223|ICAO-KFCH|||||||||||||999|V-Variable|9|FM15-METAR|223|ICAO-KFCH|3.1|V-Variable|1|FM15-METAR|223|ICAO-KFCH|5.7||1|FM15-METAR|223|ICAO-KFCH|||||||18|Derived||FM15-METAR|223|ICAO-KFCH|||||||||||||||||||||||||||||||||||||||||||||||||||||||||||||||||||||||||1008.5||1|FM15-METAR|223|ICAO-KFCH|||||||||||||||||||||||||||||||||||||||||||MET063METAR KFCH 092335Z AUTO VRB06G11KT 9SM CLR 38/10 A2978 RMK A01=||F||223|ICAO-KFCH
USW00023167|FRESNO CHANDLER DWTN AP|2021|08|09|23|55|36.7333|-119.8167|84.1|38.0||1|FM15-METAR|223|ICAO-KFCH|11.0||1|FM15-METAR|223|ICAO-KFCH|||||||||||||999|V-Variable|9|FM15-METAR|223|ICAO-KFCH|2.6|V-Variable|1|FM15-METAR|223|ICAO-KFCH|||||||||||||20|Derived||FM15-METAR|223|ICAO-KFCH|||||||||||||||||||||||||||||||||||||||||||||||||||||||||||||||||||||||||1008.1||1|FM15-METAR|223|ICAO-KFCH|||||||||||||||||||||||||||||||||||||||||||MET060METAR KFCH 092355Z AUTO VRB05KT 9SM CLR 38/11 A2977 RMK A01=||F||223|ICAO-KFCH
USW00023167|FRESNO CHANDLER DWTN AP|2021|08|10|00|15|36.7333|-119.8167|84.1|38.0||1|FM15-METAR|223|ICAO-KFCH|11.0||1|FM15-METAR|223|ICAO-KFCH|||||||||||||230|N-Normal|1|FM15-METAR|223|ICAO-KFCH|2.1|N-Normal|1|FM15-METAR|223|ICAO-KFCH|5.1||1|FM15-METAR|223|ICAO-KFCH|||||||20|Derived||FM15-METAR|223|ICAO-KFCH|||||||||||||||||||||||||||||||||||||||||||||||||||||||||||||||||||||||||1008.1||1|FM15-METAR|223|ICAO-KFCH|||||||||||||||||||||||||||||||||||||||||||MET063METAR KFCH 100015Z AUTO 23004G10KT 9SM CLR 38/11 A2977 RMK A01=||F||223|ICAO-KFCH
USW00023167|FRESNO CHANDLER DWTN AP|2021|08|10|00|35|36.7333|-119.8167|84.1|38.0||1|FM15-METAR|223|ICAO-KFCH|10.0||1|FM15-METAR|223|ICAO-KFCH|||||||||||||280|V-Variable|1|FM15-METAR|223|ICAO-KFCH|4.1|V-Variable|1|FM15-METAR|223|ICAO-KFCH|||||||||||||18|Derived||FM15-METAR|223|ICAO-KFCH|||||||||||||||||||||||||||||||||||||||||||||||||||||||||||||||||||||||||1008.1||1|FM15-METAR|223|ICAO-KFCH|||||||||||||||||||||||||||||||||||||||||||MET068METAR KFCH 100035Z AUTO 28008KT 240V300 9SM CLR 38/10 A2977 RMK A01=||F||223|ICAO-KFCH
USW00023167|FRESNO CHANDLER DWTN AP|2021|08|10|00|55|36.7333|-119.8167|84.1|38.0||1|FM15-METAR|223|ICAO-KFCH|10.0||1|FM15-METAR|223|ICAO-KFCH|||||||||||||300|N-Normal|1|FM15-METAR|223|ICAO-KFCH|3.6|N-Normal|1|FM15-METAR|223|ICAO-KFCH|||||||||||||18|Derived||FM15-METAR|223|ICAO-KFCH|||||||||||||||||||||||||||||||||||||||||||||||||||||||||||||||||||||||||1008.1||1|FM15-METAR|223|ICAO-KFCH|||||||||||||||||||||||||||||||||||||||||||MET060METAR KFCH 100055Z AUTO 30007KT 9SM CLR 38/10 A2977 RMK A01=||F||223|ICAO-KFCH
USW00023167|FRESNO CHANDLER DWTN AP|2021|08|10|01|15|36.7333|-119.8167|84.1|38.0||1|FM15-METAR|223|ICAO-KFCH|9.0||1|FM15-METAR|223|ICAO-KFCH|||||||||||||300|N-Normal|1|FM15-METAR|223|ICAO-KFCH|2.6|N-Normal|1|FM15-METAR|223|ICAO-KFCH|||||||||||||17|Derived||FM15-METAR|223|ICAO-KFCH|||||||||||||||||||||||||||||||||||||||||||||||||||||||||||||||||||||||||1007.8||1|FM15-METAR|223|ICAO-KFCH|||||||||||||||||||||||||||||||||||||||||||MET061METAR KFCH 100115Z AUTO 30005KT 10SM CLR 38/09 A2976 RMK A01=||F||223|ICAO-KFCH
USW00023167|FRESNO CHANDLER DWTN AP|2021|08|10|01|35|36.7333|-119.8167|84.1|37.0||1|FM15-METAR|223|ICAO-KFCH|9.0||1|FM15-METAR|223|ICAO-KFCH|||||||||||||300|N-Normal|1|FM15-METAR|223|ICAO-KFCH|3.6|N-Normal|1|FM15-METAR|223|ICAO-KFCH|||||||||||||18|Derived||FM15-METAR|223|ICAO-KFCH|||||||||||||||||||||||||||||||||||||||||||||||||||||||||||||||||||||||||1007.8||1|FM15-METAR|223|ICAO-KFCH|||||||||||||||||||||||||||||||||||||||||||MET061METAR KFCH 100135Z AUTO 30007KT 10SM CLR 37/09 A2976 RMK A01=||F||223|ICAO-KFCH
USW00023167|FRESNO CHANDLER DWTN AP|2021|08|10|01|55|36.7333|-119.8167|84.1|37.0||1|FM15-METAR|223|ICAO-KFCH|11.0||1|FM15-METAR|223|ICAO-KFCH|||||||||||||300|N-Normal|1|FM15-METAR|223|ICAO-KFCH|3.6|N-Normal|1|FM15-METAR|223|ICAO-KFCH|||||||||||||21|Derived||FM15-METAR|223|ICAO-KFCH|||||||||||||||||||||||||||||||||||||||||||||||||||||||||||||||||||||||||1007.8||1|FM15-METAR|223|ICAO-KFCH|||||||||||||||||||||||||||||||||||||||||||MET061METAR KFCH 100155Z AUTO 30007KT 10SM CLR 37/11 A2976 RMK A01=||F||223|ICAO-KFCH
USW00023167|FRESNO CHANDLER DWTN AP|2021|08|10|02|15|36.7333|-119.8167|84.1|36.0||1|FM15-METAR|223|ICAO-KFCH|11.0||1|FM15-METAR|223|ICAO-KFCH|||||||||||||300|N-Normal|1|FM15-METAR|223|ICAO-KFCH|4.6|N-Normal|1|FM15-METAR|223|ICAO-KFCH|||||||||||||22|Derived||FM15-METAR|223|ICAO-KFCH|||||||||||||||||||||||||||||||||||||||||||||||||||||||||||||||||||||||||1008.1||1|FM15-METAR|223|ICAO-KFCH|||||||||||||||||||||||||||||||||||||||||||MET061METAR KFCH 100215Z AUTO 30009KT 10SM CLR 36/11 A2977 RMK A01=||F||223|ICAO-KFCH
USW00023167|FRESNO CHANDLER DWTN AP|2021|08|10|02|35|36.7333|-119.8167|84.1|35.0||1|FM15-METAR|223|ICAO-KFCH|12.0||1|FM15-METAR|223|ICAO-KFCH|||||||||||||310|N-Normal|1|FM15-METAR|223|ICAO-KFCH|5.1|N-Normal|1|FM15-METAR|223|ICAO-KFCH|||||||||||||25|Derived||FM15-METAR|223|ICAO-KFCH|||||||||||||||||||||||||||||||||||||||||||||||||||||||||||||||||||||||||1008.1||1|FM15-METAR|223|ICAO-KFCH|||||||||||||||||||||||||||||||||||||||||||MET061METAR KFCH 100235Z AUTO 31010KT 10SM CLR 35/12 A2977 RMK A01=||F||223|ICAO-KFCH
USW00023167|FRESNO CHANDLER DWTN AP|2021|08|10|02|55|36.7333|-119.8167|84.1|34.0||1|FM15-METAR|223|ICAO-KFCH|13.0||1|FM15-METAR|223|ICAO-KFCH|||||||||||||310|N-Normal|1|FM15-METAR|223|ICAO-KFCH|4.1|N-Normal|1|FM15-METAR|223|ICAO-KFCH|||||||||||||28|Derived||FM15-METAR|223|ICAO-KFCH|||||||||||||||||||||||||||||||||||||||||||||||||||||||||||||||||||||||||1008.5||1|FM15-METAR|223|ICAO-KFCH|||||||||||||||||||||||||||||||||||||||||||MET061METAR KFCH 100255Z AUTO 31008KT 10SM CLR 34/13 A2978 RMK A01=||F||223|ICAO-KFCH
USW00023167|FRESNO CHANDLER DWTN AP|2021|08|10|03|15|36.7333|-119.8167|84.1|34.0||1|FM15-METAR|223|ICAO-KFCH|13.0||1|FM15-METAR|223|ICAO-KFCH|||||||||||||310|N-Normal|1|FM15-METAR|223|ICAO-KFCH|3.6|N-Normal|1|FM15-METAR|223|ICAO-KFCH|||||||||||||28|Derived||FM15-METAR|223|ICAO-KFCH|||||||||||||||||||||||||||||||||||||||||||||||||||||||||||||||||||||||||1008.5||1|FM15-METAR|223|ICAO-KFCH|||||||||||||||||||||||||||||||||||||||||||MET061METAR KFCH 100315Z AUTO 31007KT 10SM CLR 34/13 A2978 RMK A01=||F||223|ICAO-KFCH
USW00023167|FRESNO CHANDLER DWTN AP|2021|08|10|03|35|36.7333|-119.8167|84.1|33.0||1|FM15-METAR|223|ICAO-KFCH|12.0||1|FM15-METAR|223|ICAO-KFCH|||||||||||||320|N-Normal|1|FM15-METAR|223|ICAO-KFCH|4.1|N-Normal|1|FM15-METAR|223|ICAO-KFCH|||||||||||||28|Derived||FM15-METAR|223|ICAO-KFCH|||||||||||||||||||||||||||||||||||||||||||||||||||||||||||||||||||||||||1008.5||1|FM15-METAR|223|ICAO-KFCH|||||||||||||||||||||||||||||||||||||||||||MET061METAR KFCH 100335Z AUTO 32008KT 10SM CLR 33/12 A2978 RMK A01=||F||223|ICAO-KFCH
USW00023167|FRESNO CHANDLER DWTN AP|2021|08|10|03|55|36.7333|-119.8167|84.1|33.0||1|FM15-METAR|223|ICAO-KFCH|12.0||1|FM15-METAR|223|ICAO-KFCH|||||||||||||320|N-Normal|1|FM15-METAR|223|ICAO-KFCH|2.6|N-Normal|1|FM15-METAR|223|ICAO-KFCH|||||||||||||28|Derived||FM15-METAR|223|ICAO-KFCH|||||||||||||||||||||||||||||||||||||||||||||||||||||||||||||||||||||||||1008.8||1|FM15-METAR|223|ICAO-KFCH|||||||||||||||||||||||||||||||||||||||||||MET061METAR KFCH 100355Z AUTO 32005KT 10SM CLR 33/12 A2979 RMK A01=||F||223|ICAO-KFCH
USW00023167|FRESNO CHANDLER DWTN AP|2021|08|10|04|15|36.7333|-119.8167|84.1|32.0||1|FM15-METAR|223|ICAO-KFCH|12.0||1|FM15-METAR|223|ICAO-KFCH|||||||||||||330|N-Normal|1|FM15-METAR|223|ICAO-KFCH|3.1|N-Normal|1|FM15-METAR|223|ICAO-KFCH|||||||||||||29|Derived||FM15-METAR|223|ICAO-KFCH|||||||||||||||||||||||||||||||||||||||||||||||||||||||||||||||||||||||||1009.1||1|FM15-METAR|223|ICAO-KFCH|||||||||||||||||||||||||||||||||||||||||||MET061METAR KFCH 100415Z AUTO 33006KT 10SM CLR 32/12 A2980 RMK A01=||F||223|ICAO-KFCH
USW00023167|FRESNO CHANDLER DWTN AP|2021|08|10|04|35|36.7333|-119.8167|84.1|32.0||1|FM15-METAR|223|ICAO-KFCH|12.0||1|FM15-METAR|223|ICAO-KFCH|||||||||||||330|N-Normal|1|FM15-METAR|223|ICAO-KFCH|2.6|N-Normal|1|FM15-METAR|223|ICAO-KFCH|||||||||||||29|Derived||FM15-METAR|223|ICAO-KFCH|||||||||||||||||||||||||||||||||||||||||||||||||||||||||||||||||||||||||1009.5||1|FM15-METAR|223|ICAO-KFCH|||||||||||||||||||||||||||||||||||||||||||MET061METAR KFCH 100435Z AUTO 33005KT 10SM CLR 32/12 A2981 RMK A01=||F||223|ICAO-KFCH
USW00023167|FRESNO CHANDLER DWTN AP|2021|08|10|04|55|36.7333|-119.8167|84.1|32.0||1|FM15-METAR|223|ICAO-KFCH|11.0||1|FM15-METAR|223|ICAO-KFCH|||||||||||||330|N-Normal|1|FM15-METAR|223|ICAO-KFCH|2.6|N-Normal|1|FM15-METAR|223|ICAO-KFCH|||||||||||||27|Derived||FM15-METAR|223|ICAO-KFCH|||||||||||||||||||||||||||||||||||||||||||||||||||||||||||||||||||||||||1009.5||1|FM15-METAR|223|ICAO-KFCH|||||||||||||||||||||||||||||||||||||||||||MET064METAR KFCH 100455Z AUTO 33005KT 10SM FEW039 32/11 A2981 RMK A01=||F||223|ICAO-KFCH
USW00023167|FRESNO CHANDLER DWTN AP|2021|08|10|05|15|36.7333|-119.8167|84.1|31.0||1|FM15-METAR|223|ICAO-KFCH|12.0||1|FM15-METAR|223|ICAO-KFCH|||||||||||||320|N-Normal|1|FM15-METAR|223|ICAO-KFCH|4.1|N-Normal|1|FM15-METAR|223|ICAO-KFCH|||||||||||||31|Derived||FM15-METAR|223|ICAO-KFCH|||||||||||||||||||||||||||||||||||||||||||||||||||||||||||||||||||||||||1009.8||1|FM15-METAR|223|ICAO-KFCH|||||||||||||||||||||||||||||||||||||||||||MET061METAR KFCH 100515Z AUTO 32008KT 10SM CLR 31/12 A2982 RMK A01=||F||223|ICAO-KFCH
USW00023167|FRESNO CHANDLER DWTN AP|2021|08|10|05|30|36.7333|-119.8167|84.1|31.0||1|FM15-METAR|223|ICAO-KFCH|12.0||1|FM15-METAR|223|ICAO-KFCH|||||||||||||320|N-Normal|1|FM15-METAR|223|ICAO-KFCH|4.1|N-Normal|1|FM15-METAR|223|ICAO-KFCH|||||||||||||31|Derived||FM15-METAR|223|ICAO-KFCH|||||||||||||||||||||||||||||||||||||||||||||||||||||||||||||||||||||||||1009.8||1|FM15-METAR|223|ICAO-KFCH|||||||||||||||||||||||||||||||||||||||||||MET061METAR KFCH 100530Z AUTO 32008KT 10SM CLR 31/12 A2982 RMK A01=||F||223|ICAO-KFCH
USW00023167|FRESNO CHANDLER DWTN AP|2021|08|10|05|55|36.7333|-119.8167|84.1|29.0||1|FM15-METAR|223|ICAO-KFCH|13.0||1|FM15-METAR|223|ICAO-KFCH|||||||||||||270|N-Normal|1|FM15-METAR|223|ICAO-KFCH|2.1|N-Normal|1|FM15-METAR|223|ICAO-KFCH|||||||||||||37|Derived||FM15-METAR|223|ICAO-KFCH|||||||||||||||||||||||||||||||||||||||||||||||||||||||||||||||||||||||||1010.2||1|FM15-METAR|223|ICAO-KFCH|||||||||||||||||||||||||||||||||||||||||||MET061METAR KFCH 100555Z AUTO 27004KT 10SM CLR 29/13 A2983 RMK A01=||F||223|ICAO-KFCH
USW00023167|FRESNO CHANDLER DWTN AP|2021|08|10|06|15|36.7333|-119.8167|84.1|28.0||1|FM15-METAR|223|ICAO-KFCH|14.0||1|FM15-METAR|223|ICAO-KFCH|||||||||||||300|N-Normal|1|FM15-METAR|223|ICAO-KFCH|2.6|N-Normal|1|FM15-METAR|223|ICAO-KFCH|||||||||||||42|Derived||FM15-METAR|223|ICAO-KFCH|||||||||||||||||||||||||||||||||||||||||||||||||||||||||||||||||||||||||1010.2||1|FM15-METAR|223|ICAO-KFCH|||||||||||||||||||||||||||||||||||||||||||MET061METAR KFCH 100615Z AUTO 30005KT 10SM CLR 28/14 A2983 RMK A01=||F||223|ICAO-KFCH
USW00023167|FRESNO CHANDLER DWTN AP|2021|08|10|06|35|36.7333|-119.8167|84.1|27.0||1|FM15-METAR|223|ICAO-KFCH|15.0||1|FM15-METAR|223|ICAO-KFCH|||||||||||||290|N-Normal|1|FM15-METAR|223|ICAO-KFCH|3.1|N-Normal|1|FM15-METAR|223|ICAO-KFCH|||||||||||||48|Derived||FM15-METAR|223|ICAO-KFCH|||||||||||||||||||||||||||||||||||||||||||||||||||||||||||||||||||||||||1010.5||1|FM15-METAR|223|ICAO-KFCH|||||||||||||||||||||||||||||||||||||||||||MET064METAR KFCH 100635Z AUTO 29006KT 10SM FEW047 27/15 A2984 RMK A01=||F||223|ICAO-KFCH
USW00023167|FRESNO CHANDLER DWTN AP|2021|08|10|06|55|36.7333|-119.8167|84.1|27.0||1|FM15-METAR|223|ICAO-KFCH|15.0||1|FM15-METAR|223|ICAO-KFCH|||||||||||||290|N-Normal|1|FM15-METAR|223|ICAO-KFCH|3.1|N-Normal|1|FM15-METAR|223|ICAO-KFCH|||||||||||||48|Derived||FM15-METAR|223|ICAO-KFCH|||||||||||||||||||||||||||||||||||||||||||||||||||||||||||||||||||||||||1010.5||1|FM15-METAR|223|ICAO-KFCH|||||||||||||||||||||||||||||||||||||||||||MET064METAR KFCH 100655Z AUTO 29006KT 10SM FEW047 27/15 A2984 RMK A01=||F||223|ICAO-KFCH
USW00023167|FRESNO CHANDLER DWTN AP|2021|08|10|07|15|36.7333|-119.8167|84.1|26.0||1|FM15-METAR|223|ICAO-KFCH|13.0||1|FM15-METAR|223|ICAO-KFCH|||||||||||||300|N-Normal|1|FM15-METAR|223|ICAO-KFCH|4.1|N-Normal|1|FM15-METAR|223|ICAO-KFCH|||||||||||||45|Derived||FM15-METAR|223|ICAO-KFCH|||||||||||||||||||||||||||||||||||||||||||||||||||||||||||||||||||||||||1010.8||1|FM15-METAR|223|ICAO-KFCH|||||||||||||||||||||||||||||||||||||||||||MET064METAR KFCH 100715Z AUTO 30008KT 10SM SCT044 26/13 A2985 RMK A01=||F||223|ICAO-KFCH
USW00023167|FRESNO CHANDLER DWTN AP|2021|08|10|07|35|36.7333|-119.8167|84.1|26.0||1|FM15-METAR|223|ICAO-KFCH|12.0||1|FM15-METAR|223|ICAO-KFCH|||||||||||||300|N-Normal|1|FM15-METAR|223|ICAO-KFCH|5.1|N-Normal|1|FM15-METAR|223|ICAO-KFCH|||||||||||||42|Derived||FM15-METAR|223|ICAO-KFCH|||||||||||||||||||||||||||||||||||||||||||||||||||||||||||||||||||||||||1010.8||1|FM15-METAR|223|ICAO-KFCH|||||||||||||||||||||||||||||||||||||||||||MET064METAR KFCH 100735Z AUTO 30010KT 10SM SCT043 26/12 A2985 RMK A01=||F||223|ICAO-KFCH
USW00023167|FRESNO CHANDLER DWTN AP|2021|08|10|07|55|36.7333|-119.8167|84.1|25.0||1|FM15-METAR|223|ICAO-KFCH|11.0||1|FM15-METAR|223|ICAO-KFCH|||||||||||||310|N-Normal|1|FM15-METAR|223|ICAO-KFCH|3.6|N-Normal|1|FM15-METAR|223|ICAO-KFCH|6.7||1|FM15-METAR|223|ICAO-KFCH|||||||42|Derived||FM15-METAR|223|ICAO-KFCH|||||||||||||||||||||||||||||||||||||||||||||||||||||||||||||||||||||||||1010.8||1|FM15-METAR|223|ICAO-KFCH|||||||||||||||||||||||||||||||||||||||||||MET067METAR KFCH 100755Z AUTO 31007G13KT 10SM SCT045 25/11 A2985 RMK A01=||F||223|ICAO-KFCH
USW00023167|FRESNO CHANDLER DWTN AP|2021|08|10|08|15|36.7333|-119.8167|84.1|25.0||1|FM15-METAR|223|ICAO-KFCH|11.0||1|FM15-METAR|223|ICAO-KFCH|||||||||||||310|N-Normal|1|FM15-METAR|223|ICAO-KFCH|3.1|N-Normal|1|FM15-METAR|223|ICAO-KFCH|5.7||1|FM15-METAR|223|ICAO-KFCH|||||||42|Derived||FM15-METAR|223|ICAO-KFCH|||||||||||||||||||||||||||||||||||||||||||||||||||||||||||||||||||||||||1011.2||1|FM15-METAR|223|ICAO-KFCH|||||||||||||||||||||||||||||||||||||||||||MET067METAR KFCH 100815Z AUTO 31006G11KT 10SM FEW046 25/11 A2986 RMK A01=||F||223|ICAO-KFCH
USW00023167|FRESNO CHANDLER DWTN AP|2021|08|10|08|35|36.7333|-119.8167|84.1|24.0||1|FM15-METAR|223|ICAO-KFCH|11.0||1|FM15-METAR|223|ICAO-KFCH|||||||||||||310|N-Normal|1|FM15-METAR|223|ICAO-KFCH|4.1|N-Normal|1|FM15-METAR|223|ICAO-KFCH|||||||||||||44|Derived||FM15-METAR|223|ICAO-KFCH|||||||||||||||||||||||||||||||||||||||||||||||||||||||||||||||||||||||||1010.8||1|FM15-METAR|223|ICAO-KFCH|||||||||||||||||||||||||||||||||||||||||||MET064METAR KFCH 100835Z AUTO 31008KT 10SM FEW050 24/11 A2985 RMK A01=||F||223|ICAO-KFCH
USW00023167|FRESNO CHANDLER DWTN AP|2021|08|10|08|55|36.7333|-119.8167|84.1|24.0||1|FM15-METAR|223|ICAO-KFCH|10.0||1|FM15-METAR|223|ICAO-KFCH|||||||||||||310|N-Normal|1|FM15-METAR|223|ICAO-KFCH|3.6|N-Normal|1|FM15-METAR|223|ICAO-KFCH|||||||||||||41|Derived||FM15-METAR|223|ICAO-KFCH|||||||||||||||||||||||||||||||||||||||||||||||||||||||||||||||||||||||||1011.2||1|FM15-METAR|223|ICAO-KFCH|||||||||||||||||||||||||||||||||||||||||||MET064METAR KFCH 100855Z AUTO 31007KT 10SM FEW048 24/10 A2986 RMK A01=||F||223|ICAO-KFCH
USW00023167|FRESNO CHANDLER DWTN AP|2021|08|10|09|15|36.7333|-119.8167|84.1|24.0||1|FM15-METAR|223|ICAO-KFCH|10.0||1|FM15-METAR|223|ICAO-KFCH|||||||||||||310|N-Normal|1|FM15-METAR|223|ICAO-KFCH|2.1|N-Normal|1|FM15-METAR|223|ICAO-KFCH|||||||||||||41|Derived||FM15-METAR|223|ICAO-KFCH|||||||||||||||||||||||||||||||||||||||||||||||||||||||||||||||||||||||||1011.2||1|FM15-METAR|223|ICAO-KFCH|||||||||||||||||||||||||||||||||||||||||||MET061METAR KFCH 100915Z AUTO 31004KT 10SM CLR 24/10 A2986 RMK A01=||F||223|ICAO-KFCH
USW00023167|FRESNO CHANDLER DWTN AP|2021|08|10|09|35|36.7333|-119.8167|84.1|23.0||1|FM15-METAR|223|ICAO-KFCH|10.0||1|FM15-METAR|223|ICAO-KFCH|||||||||||||330|N-Normal|1|FM15-METAR|223|ICAO-KFCH|2.1|N-Normal|1|FM15-METAR|223|ICAO-KFCH|||||||||||||44|Derived||FM15-METAR|223|ICAO-KFCH|||||||||||||||||||||||||||||||||||||||||||||||||||||||||||||||||||||||||1011.2||1|FM15-METAR|223|ICAO-KFCH|||||||||||||||||||||||||||||||||||||||||||MET061METAR KFCH 100935Z AUTO 33004KT 10SM CLR 23/10 A2986 RMK A01=||F||223|ICAO-KFCH
USW00023167|FRESNO CHANDLER DWTN AP|2021|08|10|09|55|36.7333|-119.8167|84.1|23.0||1|FM15-METAR|223|ICAO-KFCH|9.0||1|FM15-METAR|223|ICAO-KFCH|||||||||||||320|N-Normal|1|FM15-METAR|223|ICAO-KFCH|2.1|N-Normal|1|FM15-METAR|223|ICAO-KFCH|||||||||||||41|Derived||FM15-METAR|223|ICAO-KFCH|||||||||||||||||||||||||||||||||||||||||||||||||||||||||||||||||||||||||1011.2||1|FM15-METAR|223|ICAO-KFCH|||||||||||||||||||||||||||||||||||||||||||MET057METAR KFCH 100955Z AUTO 32004KT 10SM 23/09 A2986 RMK A01=||F||223|ICAO-KFCH
USW00023167|FRESNO CHANDLER DWTN AP|2021|08|10|10|10|36.7333|-119.8167|84.1|23.0||1|FM15-METAR|223|ICAO-KFCH|9.0||1|FM15-METAR|223|ICAO-KFCH|||||||||||||310|N-Normal|1|FM15-METAR|223|ICAO-KFCH|3.1|N-Normal|1|FM15-METAR|223|ICAO-KFCH|||||||||||||41|Derived||FM15-METAR|223|ICAO-KFCH|||||||||||||||||||||||||||||||||||||||||||||||||||||||||||||||||||||||||1011.2||1|FM15-METAR|223|ICAO-KFCH|||||||||||||||||||||||||||||||||||||||||||MET061METAR KFCH 101010Z AUTO 31006KT 10SM CLR 23/09 A2986 RMK A01=||F||223|ICAO-KFCH
USW00023167|FRESNO CHANDLER DWTN AP|2021|08|10|10|35|36.7333|-119.8167|84.1|23.0||1|FM15-METAR|223|ICAO-KFCH|9.0||1|FM15-METAR|223|ICAO-KFCH|||||||||||||320|N-Normal|1|FM15-METAR|223|ICAO-KFCH|1.5|N-Normal|1|FM15-METAR|223|ICAO-KFCH|||||||||||||41|Derived||FM15-METAR|223|ICAO-KFCH|||||||||||||||||||||||||||||||||||||||||||||||||||||||||||||||||||||||||1011.5||1|FM15-METAR|223|ICAO-KFCH|||||||||||||||||||||||||||||||||||||||||||MET057METAR KFCH 101035Z AUTO 32003KT 10SM 23/09 A2987 RMK A01=||F||223|ICAO-KFCH
USW00023167|FRESNO CHANDLER DWTN AP|2021|08|10|10|55|36.7333|-119.8167|84.1|23.0||1|FM15-METAR|223|ICAO-KFCH|9.0||1|FM15-METAR|223|ICAO-KFCH|||||||||||||330|N-Normal|1|FM15-METAR|223|ICAO-KFCH|1.5|N-Normal|1|FM15-METAR|223|ICAO-KFCH|||||||||||||41|Derived||FM15-METAR|223|ICAO-KFCH|||||||||||||||||||||||||||||||||||||||||||||||||||||||||||||||||||||||||1011.5||1|FM15-METAR|223|ICAO-KFCH|||||||||||||||||||||||||||||||||||||||||||MET057METAR KFCH 101055Z AUTO 33003KT 10SM 23/09 A2987 RMK A01=||F||223|ICAO-KFCH
USW00023167|FRESNO CHANDLER DWTN AP|2021|08|10|11|15|36.7333|-119.8167|84.1|23.0||1|FM15-METAR|223|ICAO-KFCH|9.0||1|FM15-METAR|223|ICAO-KFCH|||||||||||||999|C-Calm|9|FM15-METAR|223|ICAO-KFCH|0.0|C-Calm|1|FM15-METAR|223|ICAO-KFCH|||||||||||||41|Derived||FM15-METAR|223|ICAO-KFCH|||||||||||||||||||||||||||||||||||||||||||||||||||||||||||||||||||||||||1011.5||1|FM15-METAR|223|ICAO-KFCH|||||||||||||||||||||||||||||||||||||||||||MET071METAR KFCH 101115Z AUTO 00000KT 10SM FEW050 SCT055 23/09 A2987 RMK A01=||F||223|ICAO-KFCH
USW00023167|FRESNO CHANDLER DWTN AP|2021|08|10|11|35|36.7333|-119.8167|84.1|23.0||1|FM15-METAR|223|ICAO-KFCH|10.0||1|FM15-METAR|223|ICAO-KFCH|||||||||||||999|C-Calm|9|FM15-METAR|223|ICAO-KFCH|0.0|C-Calm|1|FM15-METAR|223|ICAO-KFCH|||||||||||||44|Derived||FM15-METAR|223|ICAO-KFCH|||||||||||||||||||||||||||||||||||||||||||||||||||||||||||||||||||||||||1011.2||1|FM15-METAR|223|ICAO-KFCH|||||||||||||||||||||||||||||||||||||||||||MET071METAR KFCH 101135Z AUTO 00000KT 10SM FEW050 SCT055 23/10 A2986 RMK A01=||F||223|ICAO-KFCH
USW00023167|FRESNO CHANDLER DWTN AP|2021|08|10|11|55|36.7333|-119.8167|84.1|22.0||1|FM15-METAR|223|ICAO-KFCH|10.0||1|FM15-METAR|223|ICAO-KFCH|||||||||||||260|N-Normal|1|FM15-METAR|223|ICAO-KFCH|1.5|N-Normal|1|FM15-METAR|223|ICAO-KFCH|||||||||||||47|Derived||FM15-METAR|223|ICAO-KFCH|||||||||||||||||||||||||||||||||||||||||||||||||||||||||||||||||||||||||1011.5||1|FM15-METAR|223|ICAO-KFCH|||||||||||||||||||||||||||||||||||||||||||MET071METAR KFCH 101155Z AUTO 26003KT 10SM FEW050 FEW055 22/10 A2987 RMK A01=||F||223|ICAO-KFCH
USW00023167|FRESNO CHANDLER DWTN AP|2021|08|10|12|15|36.7333|-119.8167|84.1|21.0||1|FM15-METAR|223|ICAO-KFCH|10.0||1|FM15-METAR|223|ICAO-KFCH|||||||||||||280|N-Normal|1|FM15-METAR|223|ICAO-KFCH|1.5|N-Normal|1|FM15-METAR|223|ICAO-KFCH|||||||||||||50|Derived||FM15-METAR|223|ICAO-KFCH|||||||||||||||||||||||||||||||||||||||||||||||||||||||||||||||||||||||||1011.5||1|FM15-METAR|223|ICAO-KFCH|||||||||||||||||||||||||||||||||||||||||||MET071METAR KFCH 101215Z AUTO 28003KT 10SM FEW050 FEW055 21/10 A2987 RMK A01=||F||223|ICAO-KFCH
USW00023167|FRESNO CHANDLER DWTN AP|2021|08|10|12|30|36.7333|-119.8167|84.1|21.0||1|FM15-METAR|223|ICAO-KFCH|10.0||1|FM15-METAR|223|ICAO-KFCH|||||||||||||999|C-Calm|9|FM15-METAR|223|ICAO-KFCH|0.0|C-Calm|1|FM15-METAR|223|ICAO-KFCH|||||||||||||50|Derived||FM15-METAR|223|ICAO-KFCH|||||||||||||||||||||||||||||||||||||||||||||||||||||||||||||||||||||||||1011.8||1|FM15-METAR|223|ICAO-KFCH|||||||||||||||||||||||||||||||||||||||||||MET064METAR KFCH 101230Z AUTO 00000KT 10SM FEW050 21/10 A2988 RMK A01=||F||223|ICAO-KFCH
USW00023167|FRESNO CHANDLER DWTN AP|2021|08|10|12|55|36.7333|-119.8167|84.1|21.0||1|FM15-METAR|223|ICAO-KFCH|10.0||1|FM15-METAR|223|ICAO-KFCH|||||||||||||999|C-Calm|9|FM15-METAR|223|ICAO-KFCH|0.0|C-Calm|1|FM15-METAR|223|ICAO-KFCH|||||||||||||50|Derived||FM15-METAR|223|ICAO-KFCH|||||||||||||||||||||||||||||||||||||||||||||||||||||||||||||||||||||||||1011.8||1|FM15-METAR|223|ICAO-KFCH|||||||||||||||||||||||||||||||||||||||||||MET064METAR KFCH 101255Z AUTO 00000KT 10SM FEW050 21/10 A2988 RMK A01=||F||223|ICAO-KFCH
USW00023167|FRESNO CHANDLER DWTN AP|2021|08|10|13|15|36.7333|-119.8167|84.1|21.0||1|FM15-METAR|223|ICAO-KFCH|11.0||1|FM15-METAR|223|ICAO-KFCH|||||||||||||999|C-Calm|9|FM15-METAR|223|ICAO-KFCH|0.0|C-Calm|1|FM15-METAR|223|ICAO-KFCH|||||||||||||53|Derived||FM15-METAR|223|ICAO-KFCH|||||||||||||||||||||||||||||||||||||||||||||||||||||||||||||||||||||||||1012.2||1|FM15-METAR|223|ICAO-KFCH|||||||||||||||||||||||||||||||||||||||||||MET061METAR KFCH 101315Z AUTO 00000KT 10SM CLR 21/11 A2989 RMK A01=||F||223|ICAO-KFCH
USW00023167|FRESNO CHANDLER DWTN AP|2021|08|10|13|35|36.7333|-119.8167|84.1|20.0||1|FM15-METAR|223|ICAO-KFCH|11.0||1|FM15-METAR|223|ICAO-KFCH|||||||||||||999|C-Calm|9|FM15-METAR|223|ICAO-KFCH|0.0|C-Calm|1|FM15-METAR|223|ICAO-KFCH|||||||||||||56|Derived||FM15-METAR|223|ICAO-KFCH|||||||||||||||||||||||||||||||||||||||||||||||||||||||||||||||||||||||||1012.5||1|FM15-METAR|223|ICAO-KFCH|||||||||||||||||||||||||||||||||||||||||||MET061METAR KFCH 101335Z AUTO 00000KT 10SM CLR 20/11 A2990 RMK A01=||F||223|ICAO-KFCH
USW00023167|FRESNO CHANDLER DWTN AP|2021|08|10|13|55|36.7333|-119.8167|84.1|20.0||1|FM15-METAR|223|ICAO-KFCH|11.0||1|FM15-METAR|223|ICAO-KFCH|||||||||||||999|C-Calm|9|FM15-METAR|223|ICAO-KFCH|0.0|C-Calm|1|FM15-METAR|223|ICAO-KFCH|||||||||||||56|Derived||FM15-METAR|223|ICAO-KFCH|||||||||||||||||||||||||||||||||||||||||||||||||||||||||||||||||||||||||1012.5||1|FM15-METAR|223|ICAO-KFCH|||||||||||||||||||||||||||||||||||||||||||MET061METAR KFCH 101355Z AUTO 00000KT 10SM CLR 20/11 A2990 RMK A01=||F||223|ICAO-KFCH
USW00023167|FRESNO CHANDLER DWTN AP|2021|08|10|14|15|36.7333|-119.8167|84.1|21.0||1|FM15-METAR|223|ICAO-KFCH|11.0||1|FM15-METAR|223|ICAO-KFCH|||||||||||||999|C-Calm|9|FM15-METAR|223|ICAO-KFCH|0.0|C-Calm|1|FM15-METAR|223|ICAO-KFCH|||||||||||||53|Derived||FM15-METAR|223|ICAO-KFCH|||||||||||||||||||||||||||||||||||||||||||||||||||||||||||||||||||||||||1012.9||1|FM15-METAR|223|ICAO-KFCH|||||||||||||||||||||||||||||||||||||||||||MET061METAR KFCH 101415Z AUTO 00000KT 10SM CLR 21/11 A2991 RMK A01=||F||223|ICAO-KFCH
USW00023167|FRESNO CHANDLER DWTN AP|2021|08|10|14|35|36.7333|-119.8167|84.1|21.0||1|FM15-METAR|223|ICAO-KFCH|11.0||1|FM15-METAR|223|ICAO-KFCH|||||||||||||999|C-Calm|9|FM15-METAR|223|ICAO-KFCH|0.0|C-Calm|1|FM15-METAR|223|ICAO-KFCH|||||||||||||53|Derived||FM15-METAR|223|ICAO-KFCH|||||||||||||||||||||||||||||||||||||||||||||||||||||||||||||||||||||||||1012.9||1|FM15-METAR|223|ICAO-KFCH|||||||||||||||||||||||||||||||||||||||||||MET061METAR KFCH 101435Z AUTO 00000KT 10SM CLR 21/11 A2991 RMK A01=||F||223|ICAO-KFCH
USW00023167|FRESNO CHANDLER DWTN AP|2021|08|10|14|55|36.7333|-119.8167|84.1|23.0||1|FM15-METAR|223|ICAO-KFCH|11.0||1|FM15-METAR|223|ICAO-KFCH|||||||||||||999|C-Calm|9|FM15-METAR|223|ICAO-KFCH|0.0|C-Calm|1|FM15-METAR|223|ICAO-KFCH|||||||||||||47|Derived||FM15-METAR|223|ICAO-KFCH|||||||||||||||||||||||||||||||||||||||||||||||||||||||||||||||||||||||||1012.9||1|FM15-METAR|223|ICAO-KFCH|||||||||||||||||||||||||||||||||||||||||||MET061METAR KFCH 101455Z AUTO 00000KT 10SM CLR 23/11 A2991 RMK A01=||F||223|ICAO-KFCH
USW00023167|FRESNO CHANDLER DWTN AP|2021|08|10|15|15|36.7333|-119.8167|84.1|23.0||1|FM15-METAR|223|ICAO-KFCH|11.0||1|FM15-METAR|223|ICAO-KFCH|||||||||||||999|C-Calm|9|FM15-METAR|223|ICAO-KFCH|0.0|C-Calm|1|FM15-METAR|223|ICAO-KFCH|||||||||||||47|Derived||FM15-METAR|223|ICAO-KFCH|||||||||||||||||||||||||||||||||||||||||||||||||||||||||||||||||||||||||1013.2||1|FM15-METAR|223|ICAO-KFCH|||||||||||||||||||||||||||||||||||||||||||MET060METAR KFCH 101515Z AUTO 00000KT 9SM CLR 23/11 A2992 RMK A01=||F||223|ICAO-KFCH
USW00023167|FRESNO CHANDLER DWTN AP|2021|08|10|15|35|36.7333|-119.8167|84.1|25.0||1|FM15-METAR|223|ICAO-KFCH|11.0||1|FM15-METAR|223|ICAO-KFCH|||||||||||||999|C-Calm|9|FM15-METAR|223|ICAO-KFCH|0.0|C-Calm|1|FM15-METAR|223|ICAO-KFCH|||||||||||||42|Derived||FM15-METAR|223|ICAO-KFCH|||||||||||||||||||||||||||||||||||||||||||||||||||||||||||||||||||||||||1012.9||1|FM15-METAR|223|ICAO-KFCH|||||||||||||||||||||||||||||||||||||||||||MET061METAR KFCH 101535Z AUTO 00000KT 10SM CLR 25/11 A2991 RMK A01=||F||223|ICAO-KFCH
USW00023167|FRESNO CHANDLER DWTN AP|2021|08|10|15|55|36.7333|-119.8167|84.1|26.0||1|FM15-METAR|223|ICAO-KFCH|11.0||1|FM15-METAR|223|ICAO-KFCH|||||||||||||999|C-Calm|9|FM15-METAR|223|ICAO-KFCH|0.0|C-Calm|1|FM15-METAR|223|ICAO-KFCH|||||||||||||39|Derived||FM15-METAR|223|ICAO-KFCH|||||||||||||||||||||||||||||||||||||||||||||||||||||||||||||||||||||||||1013.2||1|FM15-METAR|223|ICAO-KFCH|||||||||||||||||||||||||||||||||||||||||||MET060METAR KFCH 101555Z AUTO 00000KT 9SM CLR 26/11 A2992 RMK A01=||F||223|ICAO-KFCH
USW00023167|FRESNO CHANDLER DWTN AP|2021|08|10|16|15|36.7333|-119.8167|84.1|26.0||1|FM15-METAR|223|ICAO-KFCH|11.0||1|FM15-METAR|223|ICAO-KFCH|||||||||||||999|C-Calm|9|FM15-METAR|223|ICAO-KFCH|0.0|C-Calm|1|FM15-METAR|223|ICAO-KFCH|||||||||||||39|Derived||FM15-METAR|223|ICAO-KFCH|||||||||||||||||||||||||||||||||||||||||||||||||||||||||||||||||||||||||1012.9||1|FM15-METAR|223|ICAO-KFCH|||||||||||||||||||||||||||||||||||||||||||MET060METAR KFCH 101615Z AUTO 00000KT 9SM CLR 26/11 A2991 RMK A01=||F||223|ICAO-KFCH
USW00023167|FRESNO CHANDLER DWTN AP|2021|08|10|16|35|36.7333|-119.8167|84.1|27.0||1|FM15-METAR|223|ICAO-KFCH|11.0||1|FM15-METAR|223|ICAO-KFCH|||||||||||||999|C-Calm|9|FM15-METAR|223|ICAO-KFCH|0.0|C-Calm|1|FM15-METAR|223|ICAO-KFCH|||||||||||||37|Derived||FM15-METAR|223|ICAO-KFCH|||||||||||||||||||||||||||||||||||||||||||||||||||||||||||||||||||||||||1012.9||1|FM15-METAR|223|ICAO-KFCH|||||||||||||||||||||||||||||||||||||||||||MET060METAR KFCH 101635Z AUTO 00000KT 9SM CLR 27/11 A2991 RMK A01=||F||223|ICAO-KFCH
USW00023167|FRESNO CHANDLER DWTN AP|2021|08|10|16|55|36.7333|-119.8167|84.1|28.0||1|FM15-METAR|223|ICAO-KFCH|11.0||1|FM15-METAR|223|ICAO-KFCH|||||||||||||999|C-Calm|9|FM15-METAR|223|ICAO-KFCH|0.0|C-Calm|1|FM15-METAR|223|ICAO-KFCH|||||||||||||35|Derived||FM15-METAR|223|ICAO-KFCH|||||||||||||||||||||||||||||||||||||||||||||||||||||||||||||||||||||||||1012.9||1|FM15-METAR|223|ICAO-KFCH|||||||||||||||||||||||||||||||||||||||||||MET060METAR KFCH 101655Z AUTO 00000KT 9SM CLR 28/11 A2991 RMK A01=||F||223|ICAO-KFCH
USW00023167|FRESNO CHANDLER DWTN AP|2021|08|10|17|15|36.7333|-119.8167|84.1|29.0||1|FM15-METAR|223|ICAO-KFCH|11.0||1|FM15-METAR|223|ICAO-KFCH|||||||||||||999|C-Calm|9|FM15-METAR|223|ICAO-KFCH|0.0|C-Calm|1|FM15-METAR|223|ICAO-KFCH|||||||||||||33|Derived||FM15-METAR|223|ICAO-KFCH|||||||||||||||||||||||||||||||||||||||||||||||||||||||||||||||||||||||||1012.9||1|FM15-METAR|223|ICAO-KFCH|||||||||||||||||||||||||||||||||||||||||||MET061METAR KFCH 101715Z AUTO 00000KT 10SM CLR 29/11 A2991 RMK A01=||F||223|ICAO-KFCH
USW00023167|FRESNO CHANDLER DWTN AP|2021|08|10|17|35|36.7333|-119.8167|84.1|30.0||1|FM15-METAR|223|ICAO-KFCH|11.0||1|FM15-METAR|223|ICAO-KFCH|||||||||||||200|N-Normal|1|FM15-METAR|223|ICAO-KFCH|1.5|N-Normal|1|FM15-METAR|223|ICAO-KFCH|||||||||||||31|Derived||FM15-METAR|223|ICAO-KFCH|||||||||||||||||||||||||||||||||||||||||||||||||||||||||||||||||||||||||1012.9||1|FM15-METAR|223|ICAO-KFCH|||||||||||||||||||||||||||||||||||||||||||MET061METAR KFCH 101735Z AUTO 20003KT 10SM CLR 30/11 A2991 RMK A01=||F||223|ICAO-KFCH
USW00023167|FRESNO CHANDLER DWTN AP|2021|08|10|17|55|36.7333|-119.8167|84.1|30.0||1|FM15-METAR|223|ICAO-KFCH|11.0||1|FM15-METAR|223|ICAO-KFCH|||||||||||||999|V-Variable|9|FM15-METAR|223|ICAO-KFCH|1.5|V-Variable|1|FM15-METAR|223|ICAO-KFCH|||||||||||||31|Derived||FM15-METAR|223|ICAO-KFCH|||||||||||||||||||||||||||||||||||||||||||||||||||||||||||||||||||||||||1012.9||1|FM15-METAR|223|ICAO-KFCH|||||||||||||||||||||||||||||||||||||||||||MET060METAR KFCH 101755Z AUTO VRB03KT 9SM CLR 30/11 A2991 RMK A01=||F||223|ICAO-KFCH
USW00023167|FRESNO CHANDLER DWTN AP|2021|08|10|18|15|36.7333|-119.8167|84.1|31.0||1|FM15-METAR|223|ICAO-KFCH|11.0||1|FM15-METAR|223|ICAO-KFCH|||||||||||||999|C-Calm|9|FM15-METAR|223|ICAO-KFCH|0.0|C-Calm|1|FM15-METAR|223|ICAO-KFCH|||||||||||||29|Derived||FM15-METAR|223|ICAO-KFCH|||||||||||||||||||||||||||||||||||||||||||||||||||||||||||||||||||||||||1012.9||1|FM15-METAR|223|ICAO-KFCH|||||||||||||||||||||||||||||||||||||||||||MET060METAR KFCH 101815Z AUTO 00000KT 9SM CLR 31/11 A2991 RMK A01=||F||223|ICAO-KFCH
USW00023167|FRESNO CHANDLER DWTN AP|2021|08|10|18|30|36.7333|-119.8167|84.1|31.0||1|FM15-METAR|223|ICAO-KFCH|11.0||1|FM15-METAR|223|ICAO-KFCH|||||||||||||999|V-Variable|9|FM15-METAR|223|ICAO-KFCH|2.1|V-Variable|1|FM15-METAR|223|ICAO-KFCH|||||||||||||29|Derived||FM15-METAR|223|ICAO-KFCH|||||||||||||||||||||||||||||||||||||||||||||||||||||||||||||||||||||||||1012.9||1|FM15-METAR|223|ICAO-KFCH|||||||||||||||||||||||||||||||||||||||||||MET060METAR KFCH 101830Z AUTO VRB04KT 9SM CLR 31/11 A2991 RMK A01=||F||223|ICAO-KFCH
USW00023167|FRESNO CHANDLER DWTN AP|2021|08|10|18|55|36.7333|-119.8167|84.1|32.0||1|FM15-METAR|223|ICAO-KFCH|11.0||1|FM15-METAR|223|ICAO-KFCH|||||||||||||999|V-Variable|9|FM15-METAR|223|ICAO-KFCH|2.1|V-Variable|1|FM15-METAR|223|ICAO-KFCH|||||||||||||27|Derived||FM15-METAR|223|ICAO-KFCH|||||||||||||||||||||||||||||||||||||||||||||||||||||||||||||||||||||||||1012.5||1|FM15-METAR|223|ICAO-KFCH|||||||||||||||||||||||||||||||||||||||||||MET060METAR KFCH 101855Z AUTO VRB04KT 9SM CLR 32/11 A2990 RMK A01=||F||223|ICAO-KFCH
USW00023167|FRESNO CHANDLER DWTN AP|2021|08|10|19|15|36.7333|-119.8167|84.1|34.0||1|FM15-METAR|223|ICAO-KFCH|10.0||1|FM15-METAR|223|ICAO-KFCH|||||||||||||999|V-Variable|9|FM15-METAR|223|ICAO-KFCH|2.1|V-Variable|1|FM15-METAR|223|ICAO-KFCH|||||||||||||23|Derived||FM15-METAR|223|ICAO-KFCH|||||||||||||||||||||||||||||||||||||||||||||||||||||||||||||||||||||||||1012.5||1|FM15-METAR|223|ICAO-KFCH|||||||||||||||||||||||||||||||||||||||||||MET060METAR KFCH 101915Z AUTO VRB04KT 9SM CLR 34/10 A2990 RMK A01=||F||223|ICAO-KFCH
USW00023167|FRESNO CHANDLER DWTN AP|2021|08|10|19|35|36.7333|-119.8167|84.1|34.0||1|FM15-METAR|223|ICAO-KFCH|10.0||1|FM15-METAR|223|ICAO-KFCH|||||||||||||999|V-Variable|9|FM15-METAR|223|ICAO-KFCH|3.1|V-Variable|1|FM15-METAR|223|ICAO-KFCH|||||||||||||23|Derived||FM15-METAR|223|ICAO-KFCH|||||||||||||||||||||||||||||||||||||||||||||||||||||||||||||||||||||||||1012.2||1|FM15-METAR|223|ICAO-KFCH|||||||||||||||||||||||||||||||||||||||||||MET061METAR KFCH 101935Z AUTO VRB06KT 10SM CLR 34/10 A2989 RMK A01=||F||223|ICAO-KFCH
USW00023167|FRESNO CHANDLER DWTN AP|2021|08|10|19|55|36.7333|-119.8167|84.1|34.0||1|FM15-METAR|223|ICAO-KFCH|10.0||1|FM15-METAR|223|ICAO-KFCH|||||||||||||230|N-Normal|1|FM15-METAR|223|ICAO-KFCH|3.6|N-Normal|1|FM15-METAR|223|ICAO-KFCH|||||||||||||23|Derived||FM15-METAR|223|ICAO-KFCH|||||||||||||||||||||||||||||||||||||||||||||||||||||||||||||||||||||||||1012.2||1|FM15-METAR|223|ICAO-KFCH|||||||||||||||||||||||||||||||||||||||||||MET060METAR KFCH 101955Z AUTO 23007KT 9SM CLR 34/10 A2989 RMK A01=||F||223|ICAO-KFCH
USW00023167|FRESNO CHANDLER DWTN AP|2021|08|10|20|15|36.7333|-119.8167|84.1|35.0||1|FM15-METAR|223|ICAO-KFCH|10.0||1|FM15-METAR|223|ICAO-KFCH|||||||||||||300|N-Normal|1|FM15-METAR|223|ICAO-KFCH|3.6|N-Normal|1|FM15-METAR|223|ICAO-KFCH|||||||||||||22|Derived||FM15-METAR|223|ICAO-KFCH|||||||||||||||||||||||||||||||||||||||||||||||||||||||||||||||||||||||||1011.8||1|FM15-METAR|223|ICAO-KFCH|||||||||||||||||||||||||||||||||||||||||||MET060METAR KFCH 102015Z AUTO 30007KT 9SM CLR 35/10 A2988 RMK A01=||F||223|ICAO-KFCH
USW00023167|FRESNO CHANDLER DWTN AP|2021|08|10|20|35|36.7333|-119.8167|84.1|36.0||1|FM15-METAR|223|ICAO-KFCH|9.0||1|FM15-METAR|223|ICAO-KFCH|||||||||||||290|N-Normal|1|FM15-METAR|223|ICAO-KFCH|2.6|N-Normal|1|FM15-METAR|223|ICAO-KFCH|||||||||||||19|Derived||FM15-METAR|223|ICAO-KFCH|||||||||||||||||||||||||||||||||||||||||||||||||||||||||||||||||||||||||1011.8||1|FM15-METAR|223|ICAO-KFCH|||||||||||||||||||||||||||||||||||||||||||MET061METAR KFCH 102035Z AUTO 29005KT 10SM CLR 36/09 A2988 RMK A01=||F||223|ICAO-KFCH
USW00023167|FRESNO CHANDLER DWTN AP|2021|08|10|20|55|36.7333|-119.8167|84.1|36.0||1|FM15-METAR|223|ICAO-KFCH|10.0||1|FM15-METAR|223|ICAO-KFCH|||||||||||||270|V-Variable|1|FM15-METAR|223|ICAO-KFCH|3.6|V-Variable|1|FM15-METAR|223|ICAO-KFCH|||||||||||||20|Derived||FM15-METAR|223|ICAO-KFCH|||||||||||||||||||||||||||||||||||||||||||||||||||||||||||||||||||||||||1011.5||1|FM15-METAR|223|ICAO-KFCH|||||||||||||||||||||||||||||||||||||||||||MET068METAR KFCH 102055Z AUTO 27007KT 230V290 9SM CLR 36/10 A2987 RMK A01=||F||223|ICAO-KFCH
USW00023167|FRESNO CHANDLER DWTN AP|2021|08|10|21|15|36.7333|-119.8167|84.1|37.0||1|FM15-METAR|223|ICAO-KFCH|10.0||1|FM15-METAR|223|ICAO-KFCH|||||||||||||290|V-Variable|1|FM15-METAR|223|ICAO-KFCH|3.6|V-Variable|1|FM15-METAR|223|ICAO-KFCH|||||||||||||19|Derived||FM15-METAR|223|ICAO-KFCH|||||||||||||||||||||||||||||||||||||||||||||||||||||||||||||||||||||||||1011.2||1|FM15-METAR|223|ICAO-KFCH|||||||||||||||||||||||||||||||||||||||||||MET068METAR KFCH 102115Z AUTO 29007KT 240V310 9SM CLR 37/10 A2986 RMK A01=||F||223|ICAO-KFCH
USW00023167|FRESNO CHANDLER DWTN AP|2021|08|10|21|35|36.7333|-119.8167|84.1|37.0||1|FM15-METAR|223|ICAO-KFCH|10.0||1|FM15-METAR|223|ICAO-KFCH|||||||||||||999|V-Variable|9|FM15-METAR|223|ICAO-KFCH|2.6|V-Variable|1|FM15-METAR|223|ICAO-KFCH|||||||||||||19|Derived||FM15-METAR|223|ICAO-KFCH|||||||||||||||||||||||||||||||||||||||||||||||||||||||||||||||||||||||||1011.2||1|FM15-METAR|223|ICAO-KFCH|||||||||||||||||||||||||||||||||||||||||||MET060METAR KFCH 102135Z AUTO VRB05KT 9SM CLR 37/10 A2986 RMK A01=||F||223|ICAO-KFCH
USW00023167|FRESNO CHANDLER DWTN AP|2021|08|10|21|55|36.7333|-119.8167|84.1|37.0||1|FM15-METAR|223|ICAO-KFCH|10.0||1|FM15-METAR|223|ICAO-KFCH|||||||||||||240|N-Normal|1|FM15-METAR|223|ICAO-KFCH|3.1|N-Normal|1|FM15-METAR|223|ICAO-KFCH|||||||||||||19|Derived||FM15-METAR|223|ICAO-KFCH|||||||||||||||||||||||||||||||||||||||||||||||||||||||||||||||||||||||||1010.8||1|FM15-METAR|223|ICAO-KFCH|||||||||||||||||||||||||||||||||||||||||||MET061METAR KFCH 102155Z AUTO 24006KT 10SM CLR 37/10 A2985 RMK A01=||F||223|ICAO-KFCH
USW00023167|FRESNO CHANDLER DWTN AP|2021|08|10|22|15|36.7333|-119.8167|84.1|38.0||1|FM15-METAR|223|ICAO-KFCH|10.0||1|FM15-METAR|223|ICAO-KFCH|||||||||||||230|N-Normal|1|FM15-METAR|223|ICAO-KFCH|3.6|N-Normal|1|FM15-METAR|223|ICAO-KFCH|||||||||||||18|Derived||FM15-METAR|223|ICAO-KFCH|||||||||||||||||||||||||||||||||||||||||||||||||||||||||||||||||||||||||1010.8||1|FM15-METAR|223|ICAO-KFCH|||||||||||||||||||||||||||||||||||||||||||MET060METAR KFCH 102215Z AUTO 23007KT 9SM CLR 38/10 A2985 RMK A01=||F||223|ICAO-KFCH
USW00023167|FRESNO CHANDLER DWTN AP|2021|08|10|22|35|36.7333|-119.8167|84.1|38.0||1|FM15-METAR|223|ICAO-KFCH|8.0||1|FM15-METAR|223|ICAO-KFCH|||||||||||||270|N-Normal|1|FM15-METAR|223|ICAO-KFCH|3.1|N-Normal|1|FM15-METAR|223|ICAO-KFCH|||||||||||||16|Derived||FM15-METAR|223|ICAO-KFCH|||||||||||||||||||||||||||||||||||||||||||||||||||||||||||||||||||||||||1010.5||1|FM15-METAR|223|ICAO-KFCH|||||||||||||||||||||||||||||||||||||||||||MET061METAR KFCH 102235Z AUTO 27006KT 10SM CLR 38/08 A2984 RMK A01=||F||223|ICAO-KFCH
USW00023167|FRESNO CHANDLER DWTN AP|2021|08|10|22|55|36.7333|-119.8167|84.1|39.0||1|FM15-METAR|223|ICAO-KFCH|8.0||1|FM15-METAR|223|ICAO-KFCH|||||||||||||300|V-Variable|1|FM15-METAR|223|ICAO-KFCH|3.6|V-Variable|1|FM15-METAR|223|ICAO-KFCH|||||||||||||15|Derived||FM15-METAR|223|ICAO-KFCH|||||||||||||||||||||||||||||||||||||||||||||||||||||||||||||||||||||||||1010.2||1|FM15-METAR|223|ICAO-KFCH|||||||||||||||||||||||||||||||||||||||||||MET069METAR KFCH 102255Z AUTO 30007KT 250V320 10SM CLR 39/08 A2983 RMK A01=||F||223|ICAO-KFCH
USW00023167|FRESNO CHANDLER DWTN AP|2021|08|10|23|15|36.7333|-119.8167|84.1|39.0||1|FM15-METAR|223|ICAO-KFCH|8.0||1|FM15-METAR|223|ICAO-KFCH|||||||||||||999|V-Variable|9|FM15-METAR|223|ICAO-KFCH|1.5|V-Variable|1|FM15-METAR|223|ICAO-KFCH|||||||||||||15|Derived||FM15-METAR|223|ICAO-KFCH|||||||||||||||||||||||||||||||||||||||||||||||||||||||||||||||||||||||||1010.2||1|FM15-METAR|223|ICAO-KFCH|||||||||||||||||||||||||||||||||||||||||||MET061METAR KFCH 102315Z AUTO VRB03KT 10SM CLR 39/08 A2983 RMK A01=||F||223|ICAO-KFCH
USW00023167|FRESNO CHANDLER DWTN AP|2021|08|10|23|35|36.7333|-119.8167|84.1|39.0||1|FM15-METAR|223|ICAO-KFCH|8.0||1|FM15-METAR|223|ICAO-KFCH|||||||||||||280|N-Normal|1|FM15-METAR|223|ICAO-KFCH|3.1|N-Normal|1|FM15-METAR|223|ICAO-KFCH|5.7||1|FM15-METAR|223|ICAO-KFCH|||||||15|Derived||FM15-METAR|223|ICAO-KFCH|||||||||||||||||||||||||||||||||||||||||||||||||||||||||||||||||||||||||1010.2||1|FM15-METAR|223|ICAO-KFCH|||||||||||||||||||||||||||||||||||||||||||MET064METAR KFCH 102335Z AUTO 28006G11KT 10SM CLR 39/08 A2983 RMK A01=||F||223|ICAO-KFCH
USW00023167|FRESNO CHANDLER DWTN AP|2021|08|10|23|55|36.7333|-119.8167|84.1|39.0||1|FM15-METAR|223|ICAO-KFCH|8.0||1|FM15-METAR|223|ICAO-KFCH|||||||||||||270|N-Normal|1|FM15-METAR|223|ICAO-KFCH|2.6|N-Normal|1|FM15-METAR|223|ICAO-KFCH|||||||||||||15|Derived||FM15-METAR|223|ICAO-KFCH|||||||||||||||||||||||||||||||||||||||||||||||||||||||||||||||||||||||||1009.8||1|FM15-METAR|223|ICAO-KFCH|||||||||||||||||||||||||||||||||||||||||||MET060METAR KFCH 102355Z AUTO 27005KT 9SM CLR 39/08 A2982 RMK A01=||F||223|ICAO-KFCH
USW00023167|FRESNO CHANDLER DWTN AP|2021|08|11|00|15|36.7333|-119.8167|84.1|39.0||1|FM15-METAR|223|ICAO-KFCH|7.0||1|FM15-METAR|223|ICAO-KFCH|||||||||||||290|N-Normal|1|FM15-METAR|223|ICAO-KFCH|2.6|N-Normal|1|FM15-METAR|223|ICAO-KFCH|5.1||1|FM15-METAR|223|ICAO-KFCH|||||||14|Derived||FM15-METAR|223|ICAO-KFCH|||||||||||||||||||||||||||||||||||||||||||||||||||||||||||||||||||||||||1009.8||1|FM15-METAR|223|ICAO-KFCH|||||||||||||||||||||||||||||||||||||||||||MET064METAR KFCH 110015Z AUTO 29005G10KT 10SM CLR 39/07 A2982 RMK A01=||F||223|ICAO-KFCH
USW00023167|FRESNO CHANDLER DWTN AP|2021|08|11|00|35|36.7333|-119.8167|84.1|39.0||1|FM15-METAR|223|ICAO-KFCH|7.0||1|FM15-METAR|223|ICAO-KFCH|||||||||||||290|N-Normal|1|FM15-METAR|223|ICAO-KFCH|3.1|N-Normal|1|FM15-METAR|223|ICAO-KFCH|||||||||||||14|Derived||FM15-METAR|223|ICAO-KFCH|||||||||||||||||||||||||||||||||||||||||||||||||||||||||||||||||||||||||1009.8||1|FM15-METAR|223|ICAO-KFCH|||||||||||||||||||||||||||||||||||||||||||MET061METAR KFCH 110035Z AUTO 29006KT 10SM CLR 39/07 A2982 RMK A01=||F||223|ICAO-KFCH
USW00023167|FRESNO CHANDLER DWTN AP|2021|08|11|00|55|36.7333|-119.8167|84.1|39.0||1|FM15-METAR|223|ICAO-KFCH|6.0||1|FM15-METAR|223|ICAO-KFCH|||||||||||||999|V-Variable|9|FM15-METAR|223|ICAO-KFCH|2.6|V-Variable|1|FM15-METAR|223|ICAO-KFCH|||||||||||||13|Derived||FM15-METAR|223|ICAO-KFCH|||||||||||||||||||||||||||||||||||||||||||||||||||||||||||||||||||||||||1009.5||1|FM15-METAR|223|ICAO-KFCH|||||||||||||||||||||||||||||||||||||||||||MET061METAR KFCH 110055Z AUTO VRB05KT 10SM CLR 39/06 A2981 RMK A01=||F||223|ICAO-KFCH
USW00023167|FRESNO CHANDLER DWTN AP|2021|08|11|01|15|36.7333|-119.8167|84.1|39.0||1|FM15-METAR|223|ICAO-KFCH|6.0||1|FM15-METAR|223|ICAO-KFCH|||||||||||||320|N-Normal|1|FM15-METAR|223|ICAO-KFCH|2.6|N-Normal|1|FM15-METAR|223|ICAO-KFCH|||||||||||||13|Derived||FM15-METAR|223|ICAO-KFCH|||||||||||||||||||||||||||||||||||||||||||||||||||||||||||||||||||||||||1009.5||1|FM15-METAR|223|ICAO-KFCH|||||||||||||||||||||||||||||||||||||||||||MET061METAR KFCH 110115Z AUTO 32005KT 10SM CLR 39/06 A2981 RMK A01=||F||223|ICAO-KFCH
USW00023167|FRESNO CHANDLER DWTN AP|2021|08|11|01|35|36.7333|-119.8167|84.1|39.0||1|FM15-METAR|223|ICAO-KFCH|7.0||1|FM15-METAR|223|ICAO-KFCH|||||||||||||310|N-Normal|1|FM15-METAR|223|ICAO-KFCH|3.6|N-Normal|1|FM15-METAR|223|ICAO-KFCH|||||||||||||14|Derived||FM15-METAR|223|ICAO-KFCH|||||||||||||||||||||||||||||||||||||||||||||||||||||||||||||||||||||||||1009.5||1|FM15-METAR|223|ICAO-KFCH|||||||||||||||||||||||||||||||||||||||||||MET061METAR KFCH 110135Z AUTO 31007KT 10SM CLR 39/07 A2981 RMK A01=||F||223|ICAO-KFCH
USW00023167|FRESNO CHANDLER DWTN AP|2021|08|11|01|55|36.7333|-119.8167|84.1|38.0||1|FM15-METAR|223|ICAO-KFCH|8.0||1|FM15-METAR|223|ICAO-KFCH|||||||||||||340|N-Normal|1|FM15-METAR|223|ICAO-KFCH|3.6|N-Normal|1|FM15-METAR|223|ICAO-KFCH|||||||||||||16|Derived||FM15-METAR|223|ICAO-KFCH|||||||||||||||||||||||||||||||||||||||||||||||||||||||||||||||||||||||||1009.5||1|FM15-METAR|223|ICAO-KFCH|||||||||||||||||||||||||||||||||||||||||||MET060METAR KFCH 110155Z AUTO 34007KT 9SM CLR 38/08 A2981 RMK A01=||F||223|ICAO-KFCH
USW00023167|FRESNO CHANDLER DWTN AP|2021|08|11|02|10|36.7333|-119.8167|84.1|38.0||1|FM15-METAR|223|ICAO-KFCH|8.0||1|FM15-METAR|223|ICAO-KFCH|||||||||||||320|V-Variable|1|FM15-METAR|223|ICAO-KFCH|3.6|V-Variable|1|FM15-METAR|223|ICAO-KFCH|||||||||||||16|Derived||FM15-METAR|223|ICAO-KFCH|||||||||||||||||||||||||||||||||||||||||||||||||||||||||||||||||||||||||1009.5||1|FM15-METAR|223|ICAO-KFCH|||||||||||||||||||||||||||||||||||||||||||MET069METAR KFCH 110210Z AUTO 32007KT 290V350 10SM CLR 38/08 A2981 RMK A01=||F||223|ICAO-KFCH
USW00023167|FRESNO CHANDLER DWTN AP|2021|08|11|02|35|36.7333|-119.8167|84.1|37.0||1|FM15-METAR|223|ICAO-KFCH|9.0||1|FM15-METAR|223|ICAO-KFCH|||||||||||||320|N-Normal|1|FM15-METAR|223|ICAO-KFCH|2.1|N-Normal|1|FM15-METAR|223|ICAO-KFCH|||||||||||||18|Derived||FM15-METAR|223|ICAO-KFCH|||||||||||||||||||||||||||||||||||||||||||||||||||||||||||||||||||||||||1009.5||1|FM15-METAR|223|ICAO-KFCH|||||||||||||||||||||||||||||||||||||||||||MET061METAR KFCH 110235Z AUTO 32004KT 10SM CLR 37/09 A2981 RMK A01=||F||223|ICAO-KFCH
USW00023167|FRESNO CHANDLER DWTN AP|2021|08|11|02|55|36.7333|-119.8167|84.1|36.0||1|FM15-METAR|223|ICAO-KFCH|11.0||1|FM15-METAR|223|ICAO-KFCH|||||||||||||300|N-Normal|1|FM15-METAR|223|ICAO-KFCH|3.1|N-Normal|1|FM15-METAR|223|ICAO-KFCH|||||||||||||22|Derived||FM15-METAR|223|ICAO-KFCH|||||||||||||||||||||||||||||||||||||||||||||||||||||||||||||||||||||||||1009.8||1|FM15-METAR|223|ICAO-KFCH|||||||||||||||||||||||||||||||||||||||||||MET061METAR KFCH 110255Z AUTO 30006KT 10SM CLR 36/11 A2982 RMK A01=||F||223|ICAO-KFCH
USW00023167|FRESNO CHANDLER DWTN AP|2021|08|11|03|15|36.7333|-119.8167|84.1|35.0||1|FM15-METAR|223|ICAO-KFCH|12.0||1|FM15-METAR|223|ICAO-KFCH|||||||||||||300|N-Normal|1|FM15-METAR|223|ICAO-KFCH|3.1|N-Normal|1|FM15-METAR|223|ICAO-KFCH|||||||||||||25|Derived||FM15-METAR|223|ICAO-KFCH|||||||||||||||||||||||||||||||||||||||||||||||||||||||||||||||||||||||||1009.8||1|FM15-METAR|223|ICAO-KFCH|||||||||||||||||||||||||||||||||||||||||||MET060METAR KFCH 110315Z AUTO 30006KT 9SM CLR 35/12 A2982 RMK A01=||F||223|ICAO-KFCH
USW00023167|FRESNO CHANDLER DWTN AP|2021|08|11|03|35|36.7333|-119.8167|84.1|35.0||1|FM15-METAR|223|ICAO-KFCH|12.0||1|FM15-METAR|223|ICAO-KFCH|||||||||||||300|N-Normal|1|FM15-METAR|223|ICAO-KFCH|3.1|N-Normal|1|FM15-METAR|223|ICAO-KFCH|||||||||||||25|Derived||FM15-METAR|223|ICAO-KFCH|||||||||||||||||||||||||||||||||||||||||||||||||||||||||||||||||||||||||1010.2||1|FM15-METAR|223|ICAO-KFCH|||||||||||||||||||||||||||||||||||||||||||MET061METAR KFCH 110335Z AUTO 30006KT 10SM CLR 35/12 A2983 RMK A01=||F||223|ICAO-KFCH
USW00023167|FRESNO CHANDLER DWTN AP|2021|08|11|03|55|36.7333|-119.8167|84.1|34.0||1|FM15-METAR|223|ICAO-KFCH|13.0||1|FM15-METAR|223|ICAO-KFCH|||||||||||||310|N-Normal|1|FM15-METAR|223|ICAO-KFCH|3.1|N-Normal|1|FM15-METAR|223|ICAO-KFCH|||||||||||||28|Derived||FM15-METAR|223|ICAO-KFCH|||||||||||||||||||||||||||||||||||||||||||||||||||||||||||||||||||||||||1010.2||1|FM15-METAR|223|ICAO-KFCH|||||||||||||||||||||||||||||||||||||||||||MET061METAR KFCH 110355Z AUTO 31006KT 10SM CLR 34/13 A2983 RMK A01=||F||223|ICAO-KFCH
USW00023167|FRESNO CHANDLER DWTN AP|2021|08|11|04|15|36.7333|-119.8167|84.1|33.0||1|FM15-METAR|223|ICAO-KFCH|13.0||1|FM15-METAR|223|ICAO-KFCH|||||||||||||300|N-Normal|1|FM15-METAR|223|ICAO-KFCH|3.1|N-Normal|1|FM15-METAR|223|ICAO-KFCH|||||||||||||30|Derived||FM15-METAR|223|ICAO-KFCH|||||||||||||||||||||||||||||||||||||||||||||||||||||||||||||||||||||||||1010.5||1|FM15-METAR|223|ICAO-KFCH|||||||||||||||||||||||||||||||||||||||||||MET061METAR KFCH 110415Z AUTO 30006KT 10SM CLR 33/13 A2984 RMK A01=||F||223|ICAO-KFCH
USW00023167|FRESNO CHANDLER DWTN AP|2021|08|11|04|35|36.7333|-119.8167|84.1|32.0||1|FM15-METAR|223|ICAO-KFCH|13.0||1|FM15-METAR|223|ICAO-KFCH|||||||||||||300|N-Normal|1|FM15-METAR|223|ICAO-KFCH|3.6|N-Normal|1|FM15-METAR|223|ICAO-KFCH|||||||||||||31|Derived||FM15-METAR|223|ICAO-KFCH|||||||||||||||||||||||||||||||||||||||||||||||||||||||||||||||||||||||||1010.8||1|FM15-METAR|223|ICAO-KFCH|||||||||||||||||||||||||||||||||||||||||||MET061METAR KFCH 110435Z AUTO 30007KT 10SM CLR 32/13 A2985 RMK A01=||F||223|ICAO-KFCH
USW00023167|FRESNO CHANDLER DWTN AP|2021|08|11|04|55|36.7333|-119.8167|84.1|32.0||1|FM15-METAR|223|ICAO-KFCH|13.0||1|FM15-METAR|223|ICAO-KFCH|||||||||||||310|N-Normal|1|FM15-METAR|223|ICAO-KFCH|3.6|N-Normal|1|FM15-METAR|223|ICAO-KFCH|||||||||||||31|Derived||FM15-METAR|223|ICAO-KFCH|||||||||||||||||||||||||||||||||||||||||||||||||||||||||||||||||||||||||1011.2||1|FM15-METAR|223|ICAO-KFCH|||||||||||||||||||||||||||||||||||||||||||MET061METAR KFCH 110455Z AUTO 31007KT 10SM CLR 32/13 A2986 RMK A01=||F||223|ICAO-KFCH
USW00023167|FRESNO CHANDLER DWTN AP|2021|08|11|05|15|36.7333|-119.8167|84.1|31.0||1|FM15-METAR|223|ICAO-KFCH|13.0||1|FM15-METAR|223|ICAO-KFCH|||||||||||||320|N-Normal|1|FM15-METAR|223|ICAO-KFCH|3.6|N-Normal|1|FM15-METAR|223|ICAO-KFCH|||||||||||||33|Derived||FM15-METAR|223|ICAO-KFCH|||||||||||||||||||||||||||||||||||||||||||||||||||||||||||||||||||||||||1011.2||1|FM15-METAR|223|ICAO-KFCH|||||||||||||||||||||||||||||||||||||||||||MET061METAR KFCH 110515Z AUTO 32007KT 10SM CLR 31/13 A2986 RMK A01=||F||223|ICAO-KFCH
USW00023167|FRESNO CHANDLER DWTN AP|2021|08|11|05|35|36.7333|-119.8167|84.1|31.0||1|FM15-METAR|223|ICAO-KFCH|14.0||1|FM15-METAR|223|ICAO-KFCH|||||||||||||320|N-Normal|1|FM15-METAR|223|ICAO-KFCH|3.1|N-Normal|1|FM15-METAR|223|ICAO-KFCH|||||||||||||35|Derived||FM15-METAR|223|ICAO-KFCH|||||||||||||||||||||||||||||||||||||||||||||||||||||||||||||||||||||||||1011.2||1|FM15-METAR|223|ICAO-KFCH|||||||||||||||||||||||||||||||||||||||||||MET061METAR KFCH 110535Z AUTO 32006KT 10SM CLR 31/14 A2986 RMK A01=||F||223|ICAO-KFCH
USW00023167|FRESNO CHANDLER DWTN AP|2021|08|11|05|55|36.7333|-119.8167|84.1|31.0||1|FM15-METAR|223|ICAO-KFCH|13.0||1|FM15-METAR|223|ICAO-KFCH|||||||||||||320|N-Normal|1|FM15-METAR|223|ICAO-KFCH|3.1|N-Normal|1|FM15-METAR|223|ICAO-KFCH|||||||||||||33|Derived||FM15-METAR|223|ICAO-KFCH|||||||||||||||||||||||||||||||||||||||||||||||||||||||||||||||||||||||||1011.2||1|FM15-METAR|223|ICAO-KFCH|||||||||||||||||||||||||||||||||||||||||||MET061METAR KFCH 110555Z AUTO 32006KT 10SM CLR 31/13 A2986 RMK A01=||F||223|ICAO-KFCH
USW00023167|FRESNO CHANDLER DWTN AP|2021|08|11|06|15|36.7333|-119.8167|84.1|30.0||1|FM15-METAR|223|ICAO-KFCH|14.0||1|FM15-METAR|223|ICAO-KFCH|||||||||||||300|N-Normal|1|FM15-METAR|223|ICAO-KFCH|3.6|N-Normal|1|FM15-METAR|223|ICAO-KFCH|||||||||||||38|Derived||FM15-METAR|223|ICAO-KFCH|||||||||||||||||||||||||||||||||||||||||||||||||||||||||||||||||||||||||1011.5||1|FM15-METAR|223|ICAO-KFCH|||||||||||||||||||||||||||||||||||||||||||MET061METAR KFCH 110615Z AUTO 30007KT 10SM CLR 30/14 A2987 RMK A01=||F||223|ICAO-KFCH
USW00023167|FRESNO CHANDLER DWTN AP|2021|08|11|06|35|36.7333|-119.8167|84.1|29.0||1|FM15-METAR|223|ICAO-KFCH|15.0||1|FM15-METAR|223|ICAO-KFCH|||||||||||||310|N-Normal|1|FM15-METAR|223|ICAO-KFCH|3.1|N-Normal|1|FM15-METAR|223|ICAO-KFCH|||||||||||||43|Derived||FM15-METAR|223|ICAO-KFCH|||||||||||||||||||||||||||||||||||||||||||||||||||||||||||||||||||||||||1011.5||1|FM15-METAR|223|ICAO-KFCH|||||||||||||||||||||||||||||||||||||||||||MET061METAR KFCH 110635Z AUTO 31006KT 10SM CLR 29/15 A2987 RMK A01=||F||223|ICAO-KFCH
USW00023167|FRESNO CHANDLER DWTN AP|2021|08|11|06|55|36.7333|-119.8167|84.1|28.0||1|FM15-METAR|223|ICAO-KFCH|15.0||1|FM15-METAR|223|ICAO-KFCH|||||||||||||320|N-Normal|1|FM15-METAR|223|ICAO-KFCH|3.1|N-Normal|1|FM15-METAR|223|ICAO-KFCH|||||||||||||45|Derived||FM15-METAR|223|ICAO-KFCH|||||||||||||||||||||||||||||||||||||||||||||||||||||||||||||||||||||||||1011.5||1|FM15-METAR|223|ICAO-KFCH|||||||||||||||||||||||||||||||||||||||||||MET061METAR KFCH 110655Z AUTO 32006KT 10SM CLR 28/15 A2987 RMK A01=||F||223|ICAO-KFCH
USW00023167|FRESNO CHANDLER DWTN AP|2021|08|11|07|15|36.7333|-119.8167|84.1|28.0||1|FM15-METAR|223|ICAO-KFCH|14.0||1|FM15-METAR|223|ICAO-KFCH|||||||||||||310|N-Normal|1|FM15-METAR|223|ICAO-KFCH|3.1|N-Normal|1|FM15-METAR|223|ICAO-KFCH|||||||||||||42|Derived||FM15-METAR|223|ICAO-KFCH|||||||||||||||||||||||||||||||||||||||||||||||||||||||||||||||||||||||||1011.5||1|FM15-METAR|223|ICAO-KFCH|||||||||||||||||||||||||||||||||||||||||||MET061METAR KFCH 110715Z AUTO 31006KT 10SM CLR 28/14 A2987 RMK A01=||F||223|ICAO-KFCH
USW00023167|FRESNO CHANDLER DWTN AP|2021|08|11|07|35|36.7333|-119.8167|84.1|28.0||1|FM15-METAR|223|ICAO-KFCH|13.0||1|FM15-METAR|223|ICAO-KFCH|||||||||||||300|N-Normal|1|FM15-METAR|223|ICAO-KFCH|4.1|N-Normal|1|FM15-METAR|223|ICAO-KFCH|||||||||||||40|Derived||FM15-METAR|223|ICAO-KFCH|||||||||||||||||||||||||||||||||||||||||||||||||||||||||||||||||||||||||1011.5||1|FM15-METAR|223|ICAO-KFCH|||||||||||||||||||||||||||||||||||||||||||MET061METAR KFCH 110735Z AUTO 30008KT 10SM CLR 28/13 A2987 RMK A01=||F||223|ICAO-KFCH
USW00023167|FRESNO CHANDLER DWTN AP|2021|08|11|07|55|36.7333|-119.8167|84.1|28.0||1|FM15-METAR|223|ICAO-KFCH|12.0||1|FM15-METAR|223|ICAO-KFCH|||||||||||||290|N-Normal|1|FM15-METAR|223|ICAO-KFCH|3.6|N-Normal|1|FM15-METAR|223|ICAO-KFCH|||||||||||||37|Derived||FM15-METAR|223|ICAO-KFCH|||||||||||||||||||||||||||||||||||||||||||||||||||||||||||||||||||||||||1011.5||1|FM15-METAR|223|ICAO-KFCH|||||||||||||||||||||||||||||||||||||||||||MET061METAR KFCH 110755Z AUTO 29007KT 10SM CLR 28/12 A2987 RMK A01=||F||223|ICAO-KFCH
USW00023167|FRESNO CHANDLER DWTN AP|2021|08|11|08|15|36.7333|-119.8167|84.1|27.0||1|FM15-METAR|223|ICAO-KFCH|12.0||1|FM15-METAR|223|ICAO-KFCH|||||||||||||300|N-Normal|1|FM15-METAR|223|ICAO-KFCH|2.6|N-Normal|1|FM15-METAR|223|ICAO-KFCH|||||||||||||39|Derived||FM15-METAR|223|ICAO-KFCH|||||||||||||||||||||||||||||||||||||||||||||||||||||||||||||||||||||||||1011.5||1|FM15-METAR|223|ICAO-KFCH|||||||||||||||||||||||||||||||||||||||||||MET061METAR KFCH 110815Z AUTO 30005KT 10SM CLR 27/12 A2987 RMK A01=||F||223|ICAO-KFCH
USW00023167|FRESNO CHANDLER DWTN AP|2021|08|11|08|35|36.7333|-119.8167|84.1|27.0||1|FM15-METAR|223|ICAO-KFCH|12.0||1|FM15-METAR|223|ICAO-KFCH|||||||||||||310|N-Normal|1|FM15-METAR|223|ICAO-KFCH|3.6|N-Normal|1|FM15-METAR|223|ICAO-KFCH|||||||||||||39|Derived||FM15-METAR|223|ICAO-KFCH|||||||||||||||||||||||||||||||||||||||||||||||||||||||||||||||||||||||||1011.5||1|FM15-METAR|223|ICAO-KFCH|||||||||||||||||||||||||||||||||||||||||||MET061METAR KFCH 110835Z AUTO 31007KT 10SM CLR 27/12 A2987 RMK A01=||F||223|ICAO-KFCH
USW00023167|FRESNO CHANDLER DWTN AP|2021|08|11|08|55|36.7333|-119.8167|84.1|26.0||1|FM15-METAR|223|ICAO-KFCH|12.0||1|FM15-METAR|223|ICAO-KFCH|||||||||||||300|N-Normal|1|FM15-METAR|223|ICAO-KFCH|3.6|N-Normal|1|FM15-METAR|223|ICAO-KFCH|||||||||||||42|Derived||FM15-METAR|223|ICAO-KFCH|||||||||||||||||||||||||||||||||||||||||||||||||||||||||||||||||||||||||1011.5||1|FM15-METAR|223|ICAO-KFCH|||||||||||||||||||||||||||||||||||||||||||MET061METAR KFCH 110855Z AUTO 30007KT 10SM CLR 26/12 A2987 RMK A01=||F||223|ICAO-KFCH
USW00023167|FRESNO CHANDLER DWTN AP|2021|08|11|09|10|36.7333|-119.8167|84.1|26.0||1|FM15-METAR|223|ICAO-KFCH|12.0||1|FM15-METAR|223|ICAO-KFCH|||||||||||||310|N-Normal|1|FM15-METAR|223|ICAO-KFCH|3.1|N-Normal|1|FM15-METAR|223|ICAO-KFCH|||||||||||||42|Derived||FM15-METAR|223|ICAO-KFCH|||||||||||||||||||||||||||||||||||||||||||||||||||||||||||||||||||||||||1011.5||1|FM15-METAR|223|ICAO-KFCH|||||||||||||||||||||||||||||||||||||||||||MET061METAR KFCH 110910Z AUTO 31006KT 10SM CLR 26/12 A2987 RMK A01=||F||223|ICAO-KFCH
USW00023167|FRESNO CHANDLER DWTN AP|2021|08|11|09|35|36.7333|-119.8167|84.1|25.0||1|FM15-METAR|223|ICAO-KFCH|12.0||1|FM15-METAR|223|ICAO-KFCH|||||||||||||310|N-Normal|1|FM15-METAR|223|ICAO-KFCH|2.6|N-Normal|1|FM15-METAR|223|ICAO-KFCH|||||||||||||44|Derived||FM15-METAR|223|ICAO-KFCH|||||||||||||||||||||||||||||||||||||||||||||||||||||||||||||||||||||||||1011.5||1|FM15-METAR|223|ICAO-KFCH|||||||||||||||||||||||||||||||||||||||||||MET061METAR KFCH 110935Z AUTO 31005KT 10SM CLR 25/12 A2987 RMK A01=||F||223|ICAO-KFCH
USW00023167|FRESNO CHANDLER DWTN AP|2021|08|11|09|55|36.7333|-119.8167|84.1|25.0||1|FM15-METAR|223|ICAO-KFCH|12.0||1|FM15-METAR|223|ICAO-KFCH|||||||||||||310|N-Normal|1|FM15-METAR|223|ICAO-KFCH|3.1|N-Normal|1|FM15-METAR|223|ICAO-KFCH|||||||||||||44|Derived||FM15-METAR|223|ICAO-KFCH|||||||||||||||||||||||||||||||||||||||||||||||||||||||||||||||||||||||||1011.5||1|FM15-METAR|223|ICAO-KFCH|||||||||||||||||||||||||||||||||||||||||||MET061METAR KFCH 110955Z AUTO 31006KT 10SM CLR 25/12 A2987 RMK A01=||F||223|ICAO-KFCH
USW00023167|FRESNO CHANDLER DWTN AP|2021|08|11|10|15|36.7333|-119.8167|84.1|25.0||1|FM15-METAR|223|ICAO-KFCH|12.0||1|FM15-METAR|223|ICAO-KFCH|||||||||||||310|N-Normal|1|FM15-METAR|223|ICAO-KFCH|2.6|N-Normal|1|FM15-METAR|223|ICAO-KFCH|||||||||||||44|Derived||FM15-METAR|223|ICAO-KFCH|||||||||||||||||||||||||||||||||||||||||||||||||||||||||||||||||||||||||1011.5||1|FM15-METAR|223|ICAO-KFCH|||||||||||||||||||||||||||||||||||||||||||MET061METAR KFCH 111015Z AUTO 31005KT 10SM CLR 25/12 A2987 RMK A01=||F||223|ICAO-KFCH
USW00023167|FRESNO CHANDLER DWTN AP|2021|08|11|10|35|36.7333|-119.8167|84.1|25.0||1|FM15-METAR|223|ICAO-KFCH|11.0||1|FM15-METAR|223|ICAO-KFCH|||||||||||||300|N-Normal|1|FM15-METAR|223|ICAO-KFCH|4.1|N-Normal|1|FM15-METAR|223|ICAO-KFCH|||||||||||||42|Derived||FM15-METAR|223|ICAO-KFCH|||||||||||||||||||||||||||||||||||||||||||||||||||||||||||||||||||||||||1011.5||1|FM15-METAR|223|ICAO-KFCH|||||||||||||||||||||||||||||||||||||||||||MET061METAR KFCH 111035Z AUTO 30008KT 10SM CLR 25/11 A2987 RMK A01=||F||223|ICAO-KFCH
USW00023167|FRESNO CHANDLER DWTN AP|2021|08|11|10|55|36.7333|-119.8167|84.1|24.0||1|FM15-METAR|223|ICAO-KFCH|10.0||1|FM15-METAR|223|ICAO-KFCH|||||||||||||320|N-Normal|1|FM15-METAR|223|ICAO-KFCH|3.1|N-Normal|1|FM15-METAR|223|ICAO-KFCH|||||||||||||41|Derived||FM15-METAR|223|ICAO-KFCH|||||||||||||||||||||||||||||||||||||||||||||||||||||||||||||||||||||||||1011.5||1|FM15-METAR|223|ICAO-KFCH|||||||||||||||||||||||||||||||||||||||||||MET061METAR KFCH 111055Z AUTO 32006KT 10SM CLR 24/10 A2987 RMK A01=||F||223|ICAO-KFCH
USW00023167|FRESNO CHANDLER DWTN AP|2021|08|11|11|15|36.7333|-119.8167|84.1|24.0||1|FM15-METAR|223|ICAO-KFCH|10.0||1|FM15-METAR|223|ICAO-KFCH|||||||||||||999|C-Calm|9|FM15-METAR|223|ICAO-KFCH|0.0|C-Calm|1|FM15-METAR|223|ICAO-KFCH|||||||||||||41|Derived||FM15-METAR|223|ICAO-KFCH|||||||||||||||||||||||||||||||||||||||||||||||||||||||||||||||||||||||||1011.5||1|FM15-METAR|223|ICAO-KFCH|||||||||||||||||||||||||||||||||||||||||||MET061METAR KFCH 111115Z AUTO 00000KT 10SM CLR 24/10 A2987 RMK A01=||F||223|ICAO-KFCH
USW00023167|FRESNO CHANDLER DWTN AP|2021|08|11|11|35|36.7333|-119.8167|84.1|24.0||1|FM15-METAR|223|ICAO-KFCH|10.0||1|FM15-METAR|223|ICAO-KFCH|||||||||||||999|C-Calm|9|FM15-METAR|223|ICAO-KFCH|0.0|C-Calm|1|FM15-METAR|223|ICAO-KFCH|||||||||||||41|Derived||FM15-METAR|223|ICAO-KFCH|||||||||||||||||||||||||||||||||||||||||||||||||||||||||||||||||||||||||1011.8||1|FM15-METAR|223|ICAO-KFCH|||||||||||||||||||||||||||||||||||||||||||MET061METAR KFCH 111135Z AUTO 00000KT 10SM CLR 24/10 A2988 RMK A01=||F||223|ICAO-KFCH
USW00023167|FRESNO CHANDLER DWTN AP|2021|08|11|11|55|36.7333|-119.8167|84.1|24.0||1|FM15-METAR|223|ICAO-KFCH|10.0||1|FM15-METAR|223|ICAO-KFCH|||||||||||||340|N-Normal|1|FM15-METAR|223|ICAO-KFCH|2.1|N-Normal|1|FM15-METAR|223|ICAO-KFCH|||||||||||||41|Derived||FM15-METAR|223|ICAO-KFCH|||||||||||||||||||||||||||||||||||||||||||||||||||||||||||||||||||||||||1011.8||1|FM15-METAR|223|ICAO-KFCH|||||||||||||||||||||||||||||||||||||||||||MET061METAR KFCH 111155Z AUTO 34004KT 10SM CLR 24/10 A2988 RMK A01=||F||223|ICAO-KFCH
USW00023167|FRESNO CHANDLER DWTN AP|2021|08|11|12|15|36.7333|-119.8167|84.1|24.0||1|FM15-METAR|223|ICAO-KFCH|10.0||1|FM15-METAR|223|ICAO-KFCH|||||||||||||320|N-Normal|1|FM15-METAR|223|ICAO-KFCH|1.5|N-Normal|1|FM15-METAR|223|ICAO-KFCH|||||||||||||41|Derived||FM15-METAR|223|ICAO-KFCH|||||||||||||||||||||||||||||||||||||||||||||||||||||||||||||||||||||||||1012.2||1|FM15-METAR|223|ICAO-KFCH|||||||||||||||||||||||||||||||||||||||||||MET061METAR KFCH 111215Z AUTO 32003KT 10SM CLR 24/10 A2989 RMK A01=||F||223|ICAO-KFCH
USW00023167|FRESNO CHANDLER DWTN AP|2021|08|11|12|55|36.7333|-119.8167|84.1|24.0||1|FM15-METAR|223|ICAO-KFCH|10.0||1|FM15-METAR|223|ICAO-KFCH|||||||||||||999|C-Calm|9|FM15-METAR|223|ICAO-KFCH|0.0|C-Calm|1|FM15-METAR|223|ICAO-KFCH|||||||||||||41|Derived||FM15-METAR|223|ICAO-KFCH|||||||||||||||||||||||||||||||||||||||||||||||||||||||||||||||||||||||||1012.5||1|FM15-METAR|223|ICAO-KFCH|||||||||||||||||||||||||||||||||||||||||||MET061METAR KFCH 111255Z AUTO 00000KT 10SM CLR 24/10 A2990 RMK A01=||F||223|ICAO-KFCH
USW00023167|FRESNO CHANDLER DWTN AP|2021|08|11|13|15|36.7333|-119.8167|84.1|23.0||1|FM15-METAR|223|ICAO-KFCH|10.0||1|FM15-METAR|223|ICAO-KFCH|||||||||||||999|C-Calm|9|FM15-METAR|223|ICAO-KFCH|0.0|C-Calm|1|FM15-METAR|223|ICAO-KFCH|||||||||||||44|Derived||FM15-METAR|223|ICAO-KFCH|||||||||||||||||||||||||||||||||||||||||||||||||||||||||||||||||||||||||1012.5||1|FM15-METAR|223|ICAO-KFCH|||||||||||||||||||||||||||||||||||||||||||MET057METAR KFCH 111315Z AUTO 00000KT 10SM 23/10 A2990 RMK A01=||F||223|ICAO-KFCH
USW00023167|FRESNO CHANDLER DWTN AP|2021|08|11|13|30|36.7333|-119.8167|84.1|23.0||1|FM15-METAR|223|ICAO-KFCH|10.0||1|FM15-METAR|223|ICAO-KFCH|||||||||||||999|C-Calm|9|FM15-METAR|223|ICAO-KFCH|0.0|C-Calm|1|FM15-METAR|223|ICAO-KFCH|||||||||||||44|Derived||FM15-METAR|223|ICAO-KFCH|||||||||||||||||||||||||||||||||||||||||||||||||||||||||||||||||||||||||1012.9||1|FM15-METAR|223|ICAO-KFCH|||||||||||||||||||||||||||||||||||||||||||MET057METAR KFCH 111330Z AUTO 00000KT 10SM 23/10 A2991 RMK A01=||F||223|ICAO-KFCH
USW00023167|FRESNO CHANDLER DWTN AP|2021|08|11|13|50|36.7333|-119.8167|84.1|23.0||1|FM15-METAR|223|ICAO-KFCH|10.0||1|FM15-METAR|223|ICAO-KFCH|||||||||||||999|C-Calm|9|FM15-METAR|223|ICAO-KFCH|0.0|C-Calm|1|FM15-METAR|223|ICAO-KFCH|||||||||||||44|Derived||FM15-METAR|223|ICAO-KFCH|||||||||||||||||||||||||||||||||||||||||||||||||||||||||||||||||||||||||1013.2||1|FM15-METAR|223|ICAO-KFCH|||||||||||||||||||||||||||||||||||||||||||MET061METAR KFCH 111350Z AUTO 00000KT 10SM CLR 23/10 A2992 RMK A01=||F||223|ICAO-KFCH
USW00023167|FRESNO CHANDLER DWTN AP|2021|08|11|14|15|36.7333|-119.8167|84.1|23.0||1|FM15-METAR|223|ICAO-KFCH|10.0||1|FM15-METAR|223|ICAO-KFCH|||||||||||||280|N-Normal|1|FM15-METAR|223|ICAO-KFCH|2.1|N-Normal|1|FM15-METAR|223|ICAO-KFCH|||||||||||||44|Derived||FM15-METAR|223|ICAO-KFCH|||||||||||||||||||||||||||||||||||||||||||||||||||||||||||||||||||||||||1013.2||1|FM15-METAR|223|ICAO-KFCH|||||||||||||||||||||||||||||||||||||||||||MET061METAR KFCH 111415Z AUTO 28004KT 10SM CLR 23/10 A2992 RMK A01=||F||223|ICAO-KFCH
USW00023167|FRESNO CHANDLER DWTN AP|2021|08|11|14|35|36.7333|-119.8167|84.1|24.0||1|FM15-METAR|223|ICAO-KFCH|10.0||1|FM15-METAR|223|ICAO-KFCH|||||||||||||280|N-Normal|1|FM15-METAR|223|ICAO-KFCH|2.1|N-Normal|1|FM15-METAR|223|ICAO-KFCH|||||||||||||41|Derived||FM15-METAR|223|ICAO-KFCH|||||||||||||||||||||||||||||||||||||||||||||||||||||||||||||||||||||||||1013.2||1|FM15-METAR|223|ICAO-KFCH|||||||||||||||||||||||||||||||||||||||||||MET061METAR KFCH 111435Z AUTO 28004KT 10SM CLR 24/10 A2992 RMK A01=||F||223|ICAO-KFCH
USW00023167|FRESNO CHANDLER DWTN AP|2021|08|11|14|55|36.7333|-119.8167|84.1|24.0||1|FM15-METAR|223|ICAO-KFCH|10.0||1|FM15-METAR|223|ICAO-KFCH|||||||||||||310|N-Normal|1|FM15-METAR|223|ICAO-KFCH|2.1|N-Normal|1|FM15-METAR|223|ICAO-KFCH|||||||||||||41|Derived||FM15-METAR|223|ICAO-KFCH|||||||||||||||||||||||||||||||||||||||||||||||||||||||||||||||||||||||||1013.5||1|FM15-METAR|223|ICAO-KFCH|||||||||||||||||||||||||||||||||||||||||||MET061METAR KFCH 111455Z AUTO 31004KT 10SM CLR 24/10 A2993 RMK A01=||F||223|ICAO-KFCH
USW00023167|FRESNO CHANDLER DWTN AP|2021|08|11|15|15|36.7333|-119.8167|84.1|25.0||1|FM15-METAR|223|ICAO-KFCH|10.0||1|FM15-METAR|223|ICAO-KFCH|||||||||||||999|C-Calm|9|FM15-METAR|223|ICAO-KFCH|0.0|C-Calm|1|FM15-METAR|223|ICAO-KFCH|||||||||||||39|Derived||FM15-METAR|223|ICAO-KFCH|||||||||||||||||||||||||||||||||||||||||||||||||||||||||||||||||||||||||1013.5||1|FM15-METAR|223|ICAO-KFCH|||||||||||||||||||||||||||||||||||||||||||MET060METAR KFCH 111515Z AUTO 00000KT 9SM CLR 25/10 A2993 RMK A01=||F||223|ICAO-KFCH
USW00023167|FRESNO CHANDLER DWTN AP|2021|08|11|15|35|36.7333|-119.8167|84.1|27.0||1|FM15-METAR|223|ICAO-KFCH|10.0||1|FM15-METAR|223|ICAO-KFCH|||||||||||||999|C-Calm|9|FM15-METAR|223|ICAO-KFCH|0.0|C-Calm|1|FM15-METAR|223|ICAO-KFCH|||||||||||||34|Derived||FM15-METAR|223|ICAO-KFCH|||||||||||||||||||||||||||||||||||||||||||||||||||||||||||||||||||||||||1013.5||1|FM15-METAR|223|ICAO-KFCH|||||||||||||||||||||||||||||||||||||||||||MET061METAR KFCH 111535Z AUTO 00000KT 10SM CLR 27/10 A2993 RMK A01=||F||223|ICAO-KFCH
USW00023167|FRESNO CHANDLER DWTN AP|2021|08|11|15|55|36.7333|-119.8167|84.1|28.0||1|FM15-METAR|223|ICAO-KFCH|10.0||1|FM15-METAR|223|ICAO-KFCH|||||||||||||999|C-Calm|9|FM15-METAR|223|ICAO-KFCH|0.0|C-Calm|1|FM15-METAR|223|ICAO-KFCH|||||||||||||32|Derived||FM15-METAR|223|ICAO-KFCH|||||||||||||||||||||||||||||||||||||||||||||||||||||||||||||||||||||||||1013.5||1|FM15-METAR|223|ICAO-KFCH|||||||||||||||||||||||||||||||||||||||||||MET061METAR KFCH 111555Z AUTO 00000KT 10SM CLR 28/10 A2993 RMK A01=||F||223|ICAO-KFCH
USW00023167|FRESNO CHANDLER DWTN AP|2021|08|11|16|15|36.7333|-119.8167|84.1|28.0||1|FM15-METAR|223|ICAO-KFCH|10.0||1|FM15-METAR|223|ICAO-KFCH|||||||||||||999|C-Calm|9|FM15-METAR|223|ICAO-KFCH|0.0|C-Calm|1|FM15-METAR|223|ICAO-KFCH|||||||||||||32|Derived||FM15-METAR|223|ICAO-KFCH|||||||||||||||||||||||||||||||||||||||||||||||||||||||||||||||||||||||||1013.5||1|FM15-METAR|223|ICAO-KFCH|||||||||||||||||||||||||||||||||||||||||||MET060METAR KFCH 111615Z AUTO 00000KT 9SM CLR 28/10 A2993 RMK A01=||F||223|ICAO-KFCH
USW00023167|FRESNO CHANDLER DWTN AP|2021|08|11|16|35|36.7333|-119.8167|84.1|29.0||1|FM15-METAR|223|ICAO-KFCH|11.0||1|FM15-METAR|223|ICAO-KFCH|||||||||||||999|C-Calm|9|FM15-METAR|223|ICAO-KFCH|0.0|C-Calm|1|FM15-METAR|223|ICAO-KFCH|||||||||||||33|Derived||FM15-METAR|223|ICAO-KFCH|||||||||||||||||||||||||||||||||||||||||||||||||||||||||||||||||||||||||1013.5||1|FM15-METAR|223|ICAO-KFCH|||||||||||||||||||||||||||||||||||||||||||MET060METAR KFCH 111635Z AUTO 00000KT 9SM CLR 29/11 A2993 RMK A01=||F||223|ICAO-KFCH
USW00023167|FRESNO CHANDLER DWTN AP|2021|08|11|16|55|36.7333|-119.8167|84.1|29.0||1|FM15-METAR|223|ICAO-KFCH|11.0||1|FM15-METAR|223|ICAO-KFCH|||||||||||||999|C-Calm|9|FM15-METAR|223|ICAO-KFCH|0.0|C-Calm|1|FM15-METAR|223|ICAO-KFCH|||||||||||||33|Derived||FM15-METAR|223|ICAO-KFCH|||||||||||||||||||||||||||||||||||||||||||||||||||||||||||||||||||||||||1013.5||1|FM15-METAR|223|ICAO-KFCH|||||||||||||||||||||||||||||||||||||||||||MET061METAR KFCH 111655Z AUTO 00000KT 10SM CLR 29/11 A2993 RMK A01=||F||223|ICAO-KFCH
USW00023167|FRESNO CHANDLER DWTN AP|2021|08|11|17|15|36.7333|-119.8167|84.1|30.0||1|FM15-METAR|223|ICAO-KFCH|11.0||1|FM15-METAR|223|ICAO-KFCH|||||||||||||999|V-Variable|9|FM15-METAR|223|ICAO-KFCH|2.1|V-Variable|1|FM15-METAR|223|ICAO-KFCH|||||||||||||31|Derived||FM15-METAR|223|ICAO-KFCH|||||||||||||||||||||||||||||||||||||||||||||||||||||||||||||||||||||||||1013.5||1|FM15-METAR|223|ICAO-KFCH|||||||||||||||||||||||||||||||||||||||||||MET060METAR KFCH 111715Z AUTO VRB04KT 9SM CLR 30/11 A2993 RMK A01=||F||223|ICAO-KFCH
USW00023167|FRESNO CHANDLER DWTN AP|2021|08|11|17|35|36.7333|-119.8167|84.1|31.0||1|FM15-METAR|223|ICAO-KFCH|11.0||1|FM15-METAR|223|ICAO-KFCH|||||||||||||999|C-Calm|9|FM15-METAR|223|ICAO-KFCH|0.0|C-Calm|1|FM15-METAR|223|ICAO-KFCH|||||||||||||29|Derived||FM15-METAR|223|ICAO-KFCH|||||||||||||||||||||||||||||||||||||||||||||||||||||||||||||||||||||||||1013.5||1|FM15-METAR|223|ICAO-KFCH|||||||||||||||||||||||||||||||||||||||||||MET060METAR KFCH 111735Z AUTO 00000KT 9SM CLR 31/11 A2993 RMK A01=||F||223|ICAO-KFCH
USW00023167|FRESNO CHANDLER DWTN AP|2021|08|11|17|55|36.7333|-119.8167|84.1|31.0||1|FM15-METAR|223|ICAO-KFCH|11.0||1|FM15-METAR|223|ICAO-KFCH|||||||||||||999|V-Variable|9|FM15-METAR|223|ICAO-KFCH|1.5|V-Variable|1|FM15-METAR|223|ICAO-KFCH|||||||||||||29|Derived||FM15-METAR|223|ICAO-KFCH|||||||||||||||||||||||||||||||||||||||||||||||||||||||||||||||||||||||||1013.5||1|FM15-METAR|223|ICAO-KFCH|||||||||||||||||||||||||||||||||||||||||||MET060METAR KFCH 111755Z AUTO VRB03KT 9SM CLR 31/11 A2993 RMK A01=||F||223|ICAO-KFCH
USW00023167|FRESNO CHANDLER DWTN AP|2021|08|11|18|10|36.7333|-119.8167|84.1|32.0||1|FM15-METAR|223|ICAO-KFCH|11.0||1|FM15-METAR|223|ICAO-KFCH|||||||||||||200|N-Normal|1|FM15-METAR|223|ICAO-KFCH|2.6|N-Normal|1|FM15-METAR|223|ICAO-KFCH|||||||||||||27|Derived||FM15-METAR|223|ICAO-KFCH|||||||||||||||||||||||||||||||||||||||||||||||||||||||||||||||||||||||||1013.2||1|FM15-METAR|223|ICAO-KFCH|||||||||||||||||||||||||||||||||||||||||||MET061METAR KFCH 111810Z AUTO 20005KT 10SM CLR 32/11 A2992 RMK A01=||F||223|ICAO-KFCH
USW00023167|FRESNO CHANDLER DWTN AP|2021|08|11|18|35|36.7333|-119.8167|84.1|32.0||1|FM15-METAR|223|ICAO-KFCH|11.0||1|FM15-METAR|223|ICAO-KFCH|||||||||||||999|V-Variable|9|FM15-METAR|223|ICAO-KFCH|1.5|V-Variable|1|FM15-METAR|223|ICAO-KFCH|||||||||||||27|Derived||FM15-METAR|223|ICAO-KFCH|||||||||||||||||||||||||||||||||||||||||||||||||||||||||||||||||||||||||1013.2||1|FM15-METAR|223|ICAO-KFCH|||||||||||||||||||||||||||||||||||||||||||MET060METAR KFCH 111835Z AUTO VRB03KT 9SM CLR 32/11 A2992 RMK A01=||F||223|ICAO-KFCH
USW00023167|FRESNO CHANDLER DWTN AP|2021|08|11|18|55|36.7333|-119.8167|84.1|33.0||1|FM15-METAR|223|ICAO-KFCH|10.0||1|FM15-METAR|223|ICAO-KFCH|||||||||||||999|V-Variable|9|FM15-METAR|223|ICAO-KFCH|1.5|V-Variable|1|FM15-METAR|223|ICAO-KFCH|||||||||||||24|Derived||FM15-METAR|223|ICAO-KFCH|||||||||||||||||||||||||||||||||||||||||||||||||||||||||||||||||||||||||1013.2||1|FM15-METAR|223|ICAO-KFCH|||||||||||||||||||||||||||||||||||||||||||MET060METAR KFCH 111855Z AUTO VRB03KT 9SM CLR 33/10 A2992 RMK A01=||F||223|ICAO-KFCH
USW00023167|FRESNO CHANDLER DWTN AP|2021|08|11|19|15|36.7333|-119.8167|84.1|34.0||1|FM15-METAR|223|ICAO-KFCH|10.0||1|FM15-METAR|223|ICAO-KFCH|||||||||||||270|N-Normal|1|FM15-METAR|223|ICAO-KFCH|3.1|N-Normal|1|FM15-METAR|223|ICAO-KFCH|||||||||||||23|Derived||FM15-METAR|223|ICAO-KFCH|||||||||||||||||||||||||||||||||||||||||||||||||||||||||||||||||||||||||1012.9||1|FM15-METAR|223|ICAO-KFCH|||||||||||||||||||||||||||||||||||||||||||MET060METAR KFCH 111915Z AUTO 27006KT 9SM CLR 34/10 A2991 RMK A01=||F||223|ICAO-KFCH
USW00023167|FRESNO CHANDLER DWTN AP|2021|08|11|19|35|36.7333|-119.8167|84.1|35.0||1|FM15-METAR|223|ICAO-KFCH|9.0||1|FM15-METAR|223|ICAO-KFCH|||||||||||||999|V-Variable|9|FM15-METAR|223|ICAO-KFCH|2.1|V-Variable|1|FM15-METAR|223|ICAO-KFCH|||||||||||||20|Derived||FM15-METAR|223|ICAO-KFCH|||||||||||||||||||||||||||||||||||||||||||||||||||||||||||||||||||||||||1012.5||1|FM15-METAR|223|ICAO-KFCH|||||||||||||||||||||||||||||||||||||||||||MET061METAR KFCH 111935Z AUTO VRB04KT 10SM CLR 35/09 A2990 RMK A01=||F||223|ICAO-KFCH
USW00023167|FRESNO CHANDLER DWTN AP|2021|08|11|19|55|36.7333|-119.8167|84.1|35.0||1|FM15-METAR|223|ICAO-KFCH|10.0||1|FM15-METAR|223|ICAO-KFCH|||||||||||||999|V-Variable|9|FM15-METAR|223|ICAO-KFCH|1.5|V-Variable|1|FM15-METAR|223|ICAO-KFCH|5.1||1|FM15-METAR|223|ICAO-KFCH|||||||22|Derived||FM15-METAR|223|ICAO-KFCH|||||||||||||||||||||||||||||||||||||||||||||||||||||||||||||||||||||||||1012.5||1|FM15-METAR|223|ICAO-KFCH|||||||||||||||||||||||||||||||||||||||||||MET064METAR KFCH 111955Z AUTO VRB03G10KT 10SM CLR 35/10 A2990 RMK A01=||F||223|ICAO-KFCH
USW00023167|FRESNO CHANDLER DWTN AP|2021|08|11|20|15|36.7333|-119.8167|84.1|36.0||1|FM15-METAR|223|ICAO-KFCH|9.0||1|FM15-METAR|223|ICAO-KFCH|||||||||||||260|N-Normal|1|FM15-METAR|223|ICAO-KFCH|4.1|N-Normal|1|FM15-METAR|223|ICAO-KFCH|||||||||||||19|Derived||FM15-METAR|223|ICAO-KFCH|||||||||||||||||||||||||||||||||||||||||||||||||||||||||||||||||||||||||1012.2||1|FM15-METAR|223|ICAO-KFCH|||||||||||||||||||||||||||||||||||||||||||MET060METAR KFCH 112015Z AUTO 26008KT 9SM CLR 36/09 A2989 RMK A01=||F||223|ICAO-KFCH
USW00023167|FRESNO CHANDLER DWTN AP|2021|08|11|20|35|36.7333|-119.8167|84.1|37.0||1|FM15-METAR|223|ICAO-KFCH|10.0||1|FM15-METAR|223|ICAO-KFCH|||||||||||||310|N-Normal|1|FM15-METAR|223|ICAO-KFCH|3.1|N-Normal|1|FM15-METAR|223|ICAO-KFCH|6.7||1|FM15-METAR|223|ICAO-KFCH|||||||19|Derived||FM15-METAR|223|ICAO-KFCH|||||||||||||||||||||||||||||||||||||||||||||||||||||||||||||||||||||||||1012.2||1|FM15-METAR|223|ICAO-KFCH|||||||||||||||||||||||||||||||||||||||||||MET064METAR KFCH 112035Z AUTO 31006G13KT 10SM CLR 37/10 A2989 RMK A01=||F||223|ICAO-KFCH
USW00023167|FRESNO CHANDLER DWTN AP|2021|08|11|20|50|36.7333|-119.8167|84.1|37.0||1|FM15-METAR|223|ICAO-KFCH|10.0||1|FM15-METAR|223|ICAO-KFCH|||||||||||||310|N-Normal|1|FM15-METAR|223|ICAO-KFCH|5.1|N-Normal|1|FM15-METAR|223|ICAO-KFCH|||||||||||||19|Derived||FM15-METAR|223|ICAO-KFCH|||||||||||||||||||||||||||||||||||||||||||||||||||||||||||||||||||||||||1011.8||1|FM15-METAR|223|ICAO-KFCH|||||||||||||||||||||||||||||||||||||||||||MET060METAR KFCH 112050Z AUTO 31010KT 9SM CLR 37/10 A2988 RMK A01=||F||223|ICAO-KFCH
USW00023167|FRESNO CHANDLER DWTN AP|2021|08|11|21|15|36.7333|-119.8167|84.1|38.0||1|FM15-METAR|223|ICAO-KFCH|10.0||1|FM15-METAR|223|ICAO-KFCH|||||||||||||280|N-Normal|1|FM15-METAR|223|ICAO-KFCH|3.6|N-Normal|1|FM15-METAR|223|ICAO-KFCH|||||||||||||18|Derived||FM15-METAR|223|ICAO-KFCH|||||||||||||||||||||||||||||||||||||||||||||||||||||||||||||||||||||||||1011.5||1|FM15-METAR|223|ICAO-KFCH|||||||||||||||||||||||||||||||||||||||||||MET061METAR KFCH 112115Z AUTO 28007KT 10SM CLR 38/10 A2987 RMK A01=||F||223|ICAO-KFCH
USW00023167|FRESNO CHANDLER DWTN AP|2021|08|11|21|35|36.7333|-119.8167|84.1|39.0||1|FM15-METAR|223|ICAO-KFCH|9.0||1|FM15-METAR|223|ICAO-KFCH|||||||||||||300|N-Normal|1|FM15-METAR|223|ICAO-KFCH|4.1|N-Normal|1|FM15-METAR|223|ICAO-KFCH|||||||||||||16|Derived||FM15-METAR|223|ICAO-KFCH|||||||||||||||||||||||||||||||||||||||||||||||||||||||||||||||||||||||||1011.5||1|FM15-METAR|223|ICAO-KFCH|||||||||||||||||||||||||||||||||||||||||||MET060METAR KFCH 112135Z AUTO 30008KT 9SM CLR 39/09 A2987 RMK A01=||F||223|ICAO-KFCH
USW00023167|FRESNO CHANDLER DWTN AP|2021|08|11|21|55|36.7333|-119.8167|84.1|39.0||1|FM15-METAR|223|ICAO-KFCH|9.0||1|FM15-METAR|223|ICAO-KFCH|||||||||||||320|N-Normal|1|FM15-METAR|223|ICAO-KFCH|3.6|N-Normal|1|FM15-METAR|223|ICAO-KFCH|6.2||1|FM15-METAR|223|ICAO-KFCH|||||||16|Derived||FM15-METAR|223|ICAO-KFCH|||||||||||||||||||||||||||||||||||||||||||||||||||||||||||||||||||||||||1011.2||1|FM15-METAR|223|ICAO-KFCH|||||||||||||||||||||||||||||||||||||||||||MET064METAR KFCH 112155Z AUTO 32007G12KT 10SM CLR 39/09 A2986 RMK A01=||F||223|ICAO-KFCH
USW00023167|FRESNO CHANDLER DWTN AP|2021|08|11|22|15|36.7333|-119.8167|84.1|39.0||1|FM15-METAR|223|ICAO-KFCH|9.0||1|FM15-METAR|223|ICAO-KFCH|||||||||||||310|N-Normal|1|FM15-METAR|223|ICAO-KFCH|4.1|N-Normal|1|FM15-METAR|223|ICAO-KFCH|||||||||||||16|Derived||FM15-METAR|223|ICAO-KFCH|||||||||||||||||||||||||||||||||||||||||||||||||||||||||||||||||||||||||1010.8||1|FM15-METAR|223|ICAO-KFCH|||||||||||||||||||||||||||||||||||||||||||MET061METAR KFCH 112215Z AUTO 31008KT 10SM CLR 39/09 A2985 RMK A01=||F||223|ICAO-KFCH
USW00023167|FRESNO CHANDLER DWTN AP|2021|08|11|22|35|36.7333|-119.8167|84.1|39.0||1|FM15-METAR|223|ICAO-KFCH|9.0||1|FM15-METAR|223|ICAO-KFCH|||||||||||||999|C-Calm|9|FM15-METAR|223|ICAO-KFCH|0.0|C-Calm|1|FM15-METAR|223|ICAO-KFCH|||||||||||||16|Derived||FM15-METAR|223|ICAO-KFCH|||||||||||||||||||||||||||||||||||||||||||||||||||||||||||||||||||||||||1010.8||1|FM15-METAR|223|ICAO-KFCH|||||||||||||||||||||||||||||||||||||||||||MET061METAR KFCH 112235Z AUTO 00000KT 10SM CLR 39/09 A2985 RMK A01=||F||223|ICAO-KFCH
USW00023167|FRESNO CHANDLER DWTN AP|2021|08|11|22|55|36.7333|-119.8167|84.1|40.0||1|FM15-METAR|223|ICAO-KFCH|8.0||1|FM15-METAR|223|ICAO-KFCH|||||||||||||280|N-Normal|1|FM15-METAR|223|ICAO-KFCH|4.6|N-Normal|1|FM15-METAR|223|ICAO-KFCH|||||||||||||14|Derived||FM15-METAR|223|ICAO-KFCH|||||||||||||||||||||||||||||||||||||||||||||||||||||||||||||||||||||||||1010.5||1|FM15-METAR|223|ICAO-KFCH|||||||||||||||||||||||||||||||||||||||||||MET061METAR KFCH 112255Z AUTO 28009KT 10SM CLR 40/08 A2984 RMK A01=||F||223|ICAO-KFCH
USW00023167|FRESNO CHANDLER DWTN AP|2021|08|11|23|15|36.7333|-119.8167|84.1|40.0||1|FM15-METAR|223|ICAO-KFCH|8.0||1|FM15-METAR|223|ICAO-KFCH|||||||||||||280|V-Variable|1|FM15-METAR|223|ICAO-KFCH|4.6|V-Variable|1|FM15-METAR|223|ICAO-KFCH|7.7||1|FM15-METAR|223|ICAO-KFCH|||||||14|Derived||FM15-METAR|223|ICAO-KFCH|||||||||||||||||||||||||||||||||||||||||||||||||||||||||||||||||||||||||1010.5||1|FM15-METAR|223|ICAO-KFCH|||||||||||||||||||||||||||||||||||||||||||MET071METAR KFCH 112315Z AUTO 28009G15KT 250V310 9SM CLR 40/08 A2984 RMK A01=||F||223|ICAO-KFCH
USW00023167|FRESNO CHANDLER DWTN AP|2021|08|11|23|30|36.7333|-119.8167|84.1|40.0||1|FM15-METAR|223|ICAO-KFCH|8.0||1|FM15-METAR|223|ICAO-KFCH|||||||||||||270|N-Normal|1|FM15-METAR|223|ICAO-KFCH|4.6|N-Normal|1|FM15-METAR|223|ICAO-KFCH|||||||||||||14|Derived||FM15-METAR|223|ICAO-KFCH|||||||||||||||||||||||||||||||||||||||||||||||||||||||||||||||||||||||||1010.2||1|FM15-METAR|223|ICAO-KFCH|||||||||||||||||||||||||||||||||||||||||||MET061METAR KFCH 112330Z AUTO 27009KT 10SM CLR 40/08 A2983 RMK A01=||F||223|ICAO-KFCH
USW00023167|FRESNO CHANDLER DWTN AP|2021|08|11|23|55|36.7333|-119.8167|84.1|40.0||1|FM15-METAR|223|ICAO-KFCH|7.0||1|FM15-METAR|223|ICAO-KFCH|||||||||||||300|N-Normal|1|FM15-METAR|223|ICAO-KFCH|5.1|N-Normal|1|FM15-METAR|223|ICAO-KFCH|7.7||1|FM15-METAR|223|ICAO-KFCH|||||||13|Derived||FM15-METAR|223|ICAO-KFCH|||||||||||||||||||||||||||||||||||||||||||||||||||||||||||||||||||||||||1010.2||1|FM15-METAR|223|ICAO-KFCH|||||||||||||||||||||||||||||||||||||||||||MET063METAR KFCH 112355Z AUTO 30010G15KT 9SM CLR 40/07 A2983 RMK A01=||F||223|ICAO-KFCH
USW00023167|FRESNO CHANDLER DWTN AP|2021|08|12|00|15|36.7333|-119.8167|84.1|40.0||1|FM15-METAR|223|ICAO-KFCH|9.0||1|FM15-METAR|223|ICAO-KFCH|||||||||||||300|N-Normal|1|FM15-METAR|223|ICAO-KFCH|5.7|N-Normal|1|FM15-METAR|223|ICAO-KFCH|||||||||||||15|Derived||FM15-METAR|223|ICAO-KFCH|||||||||||||||||||||||||||||||||||||||||||||||||||||||||||||||||||||||||1010.2||1|FM15-METAR|223|ICAO-KFCH|||||||||||||||||||||||||||||||||||||||||||MET061METAR KFCH 120015Z AUTO 30011KT 10SM CLR 40/09 A2983 RMK A01=||F||223|ICAO-KFCH
USW00023167|FRESNO CHANDLER DWTN AP|2021|08|12|00|35|36.7333|-119.8167|84.1|40.0||1|FM15-METAR|223|ICAO-KFCH|9.0||1|FM15-METAR|223|ICAO-KFCH|||||||||||||999|V-Variable|9|FM15-METAR|223|ICAO-KFCH|2.6|V-Variable|1|FM15-METAR|223|ICAO-KFCH|6.7||1|FM15-METAR|223|ICAO-KFCH|||||||15|Derived||FM15-METAR|223|ICAO-KFCH|||||||||||||||||||||||||||||||||||||||||||||||||||||||||||||||||||||||||1010.2||1|FM15-METAR|223|ICAO-KFCH|||||||||||||||||||||||||||||||||||||||||||MET064METAR KFCH 120035Z AUTO VRB05G13KT 10SM CLR 40/09 A2983 RMK A01=||F||223|ICAO-KFCH
USW00023167|FRESNO CHANDLER DWTN AP|2021|08|12|00|55|36.7333|-119.8167|84.1|39.0||1|FM15-METAR|223|ICAO-KFCH|8.0||1|FM15-METAR|223|ICAO-KFCH|||||||||||||350|N-Normal|1|FM15-METAR|223|ICAO-KFCH|3.6|N-Normal|1|FM15-METAR|223|ICAO-KFCH|6.2||1|FM15-METAR|223|ICAO-KFCH|||||||15|Derived||FM15-METAR|223|ICAO-KFCH|||||||||||||||||||||||||||||||||||||||||||||||||||||||||||||||||||||||||1010.2||1|FM15-METAR|223|ICAO-KFCH|||||||||||||||||||||||||||||||||||||||||||MET064METAR KFCH 120055Z AUTO 35007G12KT 10SM CLR 39/08 A2983 RMK A01=||F||223|ICAO-KFCH
USW00023167|FRESNO CHANDLER DWTN AP|2021|08|12|01|10|36.7333|-119.8167|84.1|39.0||1|FM15-METAR|223|ICAO-KFCH|8.0||1|FM15-METAR|223|ICAO-KFCH|||||||||||||330|N-Normal|1|FM15-METAR|223|ICAO-KFCH|3.1|N-Normal|1|FM15-METAR|223|ICAO-KFCH|||||||||||||15|Derived||FM15-METAR|223|ICAO-KFCH|||||||||||||||||||||||||||||||||||||||||||||||||||||||||||||||||||||||||1010.2||1|FM15-METAR|223|ICAO-KFCH|||||||||||||||||||||||||||||||||||||||||||MET061METAR KFCH 120110Z AUTO 33006KT 10SM CLR 39/08 A2983 RMK A01=||F||223|ICAO-KFCH
USW00023167|FRESNO CHANDLER DWTN AP|2021|08|12|01|35|36.7333|-119.8167|84.1|39.0||1|FM15-METAR|223|ICAO-KFCH|6.0||1|FM15-METAR|223|ICAO-KFCH|||||||||||||330|N-Normal|1|FM15-METAR|223|ICAO-KFCH|3.6|N-Normal|1|FM15-METAR|223|ICAO-KFCH|||||||||||||13|Derived||FM15-METAR|223|ICAO-KFCH|||||||||||||||||||||||||||||||||||||||||||||||||||||||||||||||||||||||||1010.2||1|FM15-METAR|223|ICAO-KFCH|||||||||||||||||||||||||||||||||||||||||||MET061METAR KFCH 120135Z AUTO 33007KT 10SM CLR 39/06 A2983 RMK A01=||F||223|ICAO-KFCH
USW00023167|FRESNO CHANDLER DWTN AP|2021|08|12|01|55|36.7333|-119.8167|84.1|38.0||1|FM15-METAR|223|ICAO-KFCH|7.0||1|FM15-METAR|223|ICAO-KFCH|||||||||||||330|N-Normal|1|FM15-METAR|223|ICAO-KFCH|2.6|N-Normal|1|FM15-METAR|223|ICAO-KFCH|||||||||||||15|Derived||FM15-METAR|223|ICAO-KFCH|||||||||||||||||||||||||||||||||||||||||||||||||||||||||||||||||||||||||1010.2||1|FM15-METAR|223|ICAO-KFCH|||||||||||||||||||||||||||||||||||||||||||MET061METAR KFCH 120155Z AUTO 33005KT 10SM CLR 38/07 A2983 RMK A01=||F||223|ICAO-KFCH
USW00023167|FRESNO CHANDLER DWTN AP|2021|08|12|02|15|36.7333|-119.8167|84.1|38.0||1|FM15-METAR|223|ICAO-KFCH|9.0||1|FM15-METAR|223|ICAO-KFCH|||||||||||||999|V-Variable|9|FM15-METAR|223|ICAO-KFCH|3.1|V-Variable|1|FM15-METAR|223|ICAO-KFCH|||||||||||||17|Derived||FM15-METAR|223|ICAO-KFCH|||||||||||||||||||||||||||||||||||||||||||||||||||||||||||||||||||||||||1010.2||1|FM15-METAR|223|ICAO-KFCH|||||||||||||||||||||||||||||||||||||||||||MET061METAR KFCH 120215Z AUTO VRB06KT 10SM CLR 38/09 A2983 RMK A01=||F||223|ICAO-KFCH
USW00023167|FRESNO CHANDLER DWTN AP|2021|08|12|02|35|36.7333|-119.8167|84.1|37.0||1|FM15-METAR|223|ICAO-KFCH|10.0||1|FM15-METAR|223|ICAO-KFCH|||||||||||||360|N-Normal|1|FM15-METAR|223|ICAO-KFCH|3.1|N-Normal|1|FM15-METAR|223|ICAO-KFCH|||||||||||||19|Derived||FM15-METAR|223|ICAO-KFCH|||||||||||||||||||||||||||||||||||||||||||||||||||||||||||||||||||||||||1010.2||1|FM15-METAR|223|ICAO-KFCH|||||||||||||||||||||||||||||||||||||||||||MET061METAR KFCH 120235Z AUTO 36006KT 10SM CLR 37/10 A2983 RMK A01=||F||223|ICAO-KFCH
USW00023167|FRESNO CHANDLER DWTN AP|2021|08|12|02|55|36.7333|-119.8167|84.1|37.0||1|FM15-METAR|223|ICAO-KFCH|9.0||1|FM15-METAR|223|ICAO-KFCH|||||||||||||340|N-Normal|1|FM15-METAR|223|ICAO-KFCH|3.1|N-Normal|1|FM15-METAR|223|ICAO-KFCH|||||||||||||18|Derived||FM15-METAR|223|ICAO-KFCH|||||||||||||||||||||||||||||||||||||||||||||||||||||||||||||||||||||||||1010.2||1|FM15-METAR|223|ICAO-KFCH|||||||||||||||||||||||||||||||||||||||||||MET061METAR KFCH 120255Z AUTO 34006KT 10SM CLR 37/09 A2983 RMK A01=||F||223|ICAO-KFCH
USW00023167|FRESNO CHANDLER DWTN AP|2021|08|12|03|10|36.7333|-119.8167|84.1|36.0||1|FM15-METAR|223|ICAO-KFCH|9.0||1|FM15-METAR|223|ICAO-KFCH|||||||||||||340|N-Normal|1|FM15-METAR|223|ICAO-KFCH|2.6|N-Normal|1|FM15-METAR|223|ICAO-KFCH|||||||||||||19|Derived||FM15-METAR|223|ICAO-KFCH|||||||||||||||||||||||||||||||||||||||||||||||||||||||||||||||||||||||||1010.2||1|FM15-METAR|223|ICAO-KFCH|||||||||||||||||||||||||||||||||||||||||||MET061METAR KFCH 120310Z AUTO 34005KT 10SM CLR 36/09 A2983 RMK A01=||F||223|ICAO-KFCH
USW00023167|FRESNO CHANDLER DWTN AP|2021|08|12|03|35|36.7333|-119.8167|84.1|35.0||1|FM15-METAR|223|ICAO-KFCH|11.0||1|FM15-METAR|223|ICAO-KFCH|||||||||||||999|C-Calm|9|FM15-METAR|223|ICAO-KFCH|0.0|C-Calm|1|FM15-METAR|223|ICAO-KFCH|||||||||||||23|Derived||FM15-METAR|223|ICAO-KFCH|||||||||||||||||||||||||||||||||||||||||||||||||||||||||||||||||||||||||1010.8||1|FM15-METAR|223|ICAO-KFCH|||||||||||||||||||||||||||||||||||||||||||MET061METAR KFCH 120335Z AUTO 00000KT 10SM CLR 35/11 A2985 RMK A01=||F||223|ICAO-KFCH
USW00023167|FRESNO CHANDLER DWTN AP|2021|08|12|03|55|36.7333|-119.8167|84.1|33.0||1|FM15-METAR|223|ICAO-KFCH|12.0||1|FM15-METAR|223|ICAO-KFCH|||||||||||||270|N-Normal|1|FM15-METAR|223|ICAO-KFCH|2.1|N-Normal|1|FM15-METAR|223|ICAO-KFCH|||||||||||||28|Derived||FM15-METAR|223|ICAO-KFCH|||||||||||||||||||||||||||||||||||||||||||||||||||||||||||||||||||||||||1011.2||1|FM15-METAR|223|ICAO-KFCH|||||||||||||||||||||||||||||||||||||||||||MET061METAR KFCH 120355Z AUTO 27004KT 10SM CLR 33/12 A2986 RMK A01=||F||223|ICAO-KFCH
USW00023167|FRESNO CHANDLER DWTN AP|2021|08|12|04|15|36.7333|-119.8167|84.1|32.0||1|FM15-METAR|223|ICAO-KFCH|13.0||1|FM15-METAR|223|ICAO-KFCH|||||||||||||280|N-Normal|1|FM15-METAR|223|ICAO-KFCH|2.6|N-Normal|1|FM15-METAR|223|ICAO-KFCH|||||||||||||31|Derived||FM15-METAR|223|ICAO-KFCH|||||||||||||||||||||||||||||||||||||||||||||||||||||||||||||||||||||||||1011.2||1|FM15-METAR|223|ICAO-KFCH|||||||||||||||||||||||||||||||||||||||||||MET061METAR KFCH 120415Z AUTO 28005KT 10SM CLR 32/13 A2986 RMK A01=||F||223|ICAO-KFCH
USW00023167|FRESNO CHANDLER DWTN AP|2021|08|12|04|35|36.7333|-119.8167|84.1|32.0||1|FM15-METAR|223|ICAO-KFCH|14.0||1|FM15-METAR|223|ICAO-KFCH|||||||||||||290|N-Normal|1|FM15-METAR|223|ICAO-KFCH|3.1|N-Normal|1|FM15-METAR|223|ICAO-KFCH|||||||||||||33|Derived||FM15-METAR|223|ICAO-KFCH|||||||||||||||||||||||||||||||||||||||||||||||||||||||||||||||||||||||||1011.2||1|FM15-METAR|223|ICAO-KFCH|||||||||||||||||||||||||||||||||||||||||||MET061METAR KFCH 120435Z AUTO 29006KT 10SM CLR 32/14 A2986 RMK A01=||F||223|ICAO-KFCH
USW00023167|FRESNO CHANDLER DWTN AP|2021|08|12|04|55|36.7333|-119.8167|84.1|32.0||1|FM15-METAR|223|ICAO-KFCH|14.0||1|FM15-METAR|223|ICAO-KFCH|||||||||||||270|N-Normal|1|FM15-METAR|223|ICAO-KFCH|2.1|N-Normal|1|FM15-METAR|223|ICAO-KFCH|||||||||||||33|Derived||FM15-METAR|223|ICAO-KFCH|||||||||||||||||||||||||||||||||||||||||||||||||||||||||||||||||||||||||1011.5||1|FM15-METAR|223|ICAO-KFCH|||||||||||||||||||||||||||||||||||||||||||MET061METAR KFCH 120455Z AUTO 27004KT 10SM CLR 32/14 A2987 RMK A01=||F||223|ICAO-KFCH
USW00023167|FRESNO CHANDLER DWTN AP|2021|08|12|05|15|36.7333|-119.8167|84.1|31.0||1|FM15-METAR|223|ICAO-KFCH|13.0||1|FM15-METAR|223|ICAO-KFCH|||||||||||||310|N-Normal|1|FM15-METAR|223|ICAO-KFCH|3.1|N-Normal|1|FM15-METAR|223|ICAO-KFCH|||||||||||||33|Derived||FM15-METAR|223|ICAO-KFCH|||||||||||||||||||||||||||||||||||||||||||||||||||||||||||||||||||||||||1011.5||1|FM15-METAR|223|ICAO-KFCH|||||||||||||||||||||||||||||||||||||||||||MET061METAR KFCH 120515Z AUTO 31006KT 10SM CLR 31/13 A2987 RMK A01=||F||223|ICAO-KFCH
USW00023167|FRESNO CHANDLER DWTN AP|2021|08|12|05|35|36.7333|-119.8167|84.1|31.0||1|FM15-METAR|223|ICAO-KFCH|13.0||1|FM15-METAR|223|ICAO-KFCH|||||||||||||310|N-Normal|1|FM15-METAR|223|ICAO-KFCH|5.1|N-Normal|1|FM15-METAR|223|ICAO-KFCH|||||||||||||33|Derived||FM15-METAR|223|ICAO-KFCH|||||||||||||||||||||||||||||||||||||||||||||||||||||||||||||||||||||||||1011.2||1|FM15-METAR|223|ICAO-KFCH|||||||||||||||||||||||||||||||||||||||||||MET061METAR KFCH 120535Z AUTO 31010KT 10SM CLR 31/13 A2986 RMK A01=||F||223|ICAO-KFCH
USW00023167|FRESNO CHANDLER DWTN AP|2021|08|12|05|55|36.7333|-119.8167|84.1|30.0||1|FM15-METAR|223|ICAO-KFCH|13.0||1|FM15-METAR|223|ICAO-KFCH|||||||||||||310|N-Normal|1|FM15-METAR|223|ICAO-KFCH|5.1|N-Normal|1|FM15-METAR|223|ICAO-KFCH|||||||||||||35|Derived||FM15-METAR|223|ICAO-KFCH|||||||||||||||||||||||||||||||||||||||||||||||||||||||||||||||||||||||||1011.2||1|FM15-METAR|223|ICAO-KFCH|||||||||||||||||||||||||||||||||||||||||||MET061METAR KFCH 120555Z AUTO 31010KT 10SM CLR 30/13 A2986 RMK A01=||F||223|ICAO-KFCH
USW00023167|FRESNO CHANDLER DWTN AP|2021|08|12|06|15|36.7333|-119.8167|84.1|30.0||1|FM15-METAR|223|ICAO-KFCH|13.0||1|FM15-METAR|223|ICAO-KFCH|||||||||||||300|N-Normal|1|FM15-METAR|223|ICAO-KFCH|3.6|N-Normal|1|FM15-METAR|223|ICAO-KFCH|||||||||||||35|Derived||FM15-METAR|223|ICAO-KFCH|||||||||||||||||||||||||||||||||||||||||||||||||||||||||||||||||||||||||1011.2||1|FM15-METAR|223|ICAO-KFCH|||||||||||||||||||||||||||||||||||||||||||MET061METAR KFCH 120615Z AUTO 30007KT 10SM CLR 30/13 A2986 RMK A01=||F||223|ICAO-KFCH
USW00023167|FRESNO CHANDLER DWTN AP|2021|08|12|06|30|36.7333|-119.8167|84.1|30.0||1|FM15-METAR|223|ICAO-KFCH|13.0||1|FM15-METAR|223|ICAO-KFCH|||||||||||||300|N-Normal|1|FM15-METAR|223|ICAO-KFCH|4.1|N-Normal|1|FM15-METAR|223|ICAO-KFCH|||||||||||||35|Derived||FM15-METAR|223|ICAO-KFCH|||||||||||||||||||||||||||||||||||||||||||||||||||||||||||||||||||||||||1011.5||1|FM15-METAR|223|ICAO-KFCH|||||||||||||||||||||||||||||||||||||||||||MET061METAR KFCH 120630Z AUTO 30008KT 10SM CLR 30/13 A2987 RMK A01=||F||223|ICAO-KFCH
USW00023167|FRESNO CHANDLER DWTN AP|2021|08|12|06|55|36.7333|-119.8167|84.1|29.0||1|FM15-METAR|223|ICAO-KFCH|13.0||1|FM15-METAR|223|ICAO-KFCH|||||||||||||300|N-Normal|1|FM15-METAR|223|ICAO-KFCH|4.6|N-Normal|1|FM15-METAR|223|ICAO-KFCH|||||||||||||37|Derived||FM15-METAR|223|ICAO-KFCH|||||||||||||||||||||||||||||||||||||||||||||||||||||||||||||||||||||||||1011.5||1|FM15-METAR|223|ICAO-KFCH|||||||||||||||||||||||||||||||||||||||||||MET061METAR KFCH 120655Z AUTO 30009KT 10SM CLR 29/13 A2987 RMK A01=||F||223|ICAO-KFCH
USW00023167|FRESNO CHANDLER DWTN AP|2021|08|12|07|15|36.7333|-119.8167|84.1|29.0||1|FM15-METAR|223|ICAO-KFCH|13.0||1|FM15-METAR|223|ICAO-KFCH|||||||||||||300|N-Normal|1|FM15-METAR|223|ICAO-KFCH|4.6|N-Normal|1|FM15-METAR|223|ICAO-KFCH|||||||||||||37|Derived||FM15-METAR|223|ICAO-KFCH|||||||||||||||||||||||||||||||||||||||||||||||||||||||||||||||||||||||||1011.5||1|FM15-METAR|223|ICAO-KFCH|||||||||||||||||||||||||||||||||||||||||||MET061METAR KFCH 120715Z AUTO 30009KT 10SM CLR 29/13 A2987 RMK A01=||F||223|ICAO-KFCH
USW00023167|FRESNO CHANDLER DWTN AP|2021|08|12|07|35|36.7333|-119.8167|84.1|29.0||1|FM15-METAR|223|ICAO-KFCH|13.0||1|FM15-METAR|223|ICAO-KFCH|||||||||||||300|N-Normal|1|FM15-METAR|223|ICAO-KFCH|5.1|N-Normal|1|FM15-METAR|223|ICAO-KFCH|7.7||1|FM15-METAR|223|ICAO-KFCH|||||||37|Derived||FM15-METAR|223|ICAO-KFCH|||||||||||||||||||||||||||||||||||||||||||||||||||||||||||||||||||||||||1011.5||1|FM15-METAR|223|ICAO-KFCH|||||||||||||||||||||||||||||||||||||||||||MET064METAR KFCH 120735Z AUTO 30010G15KT 10SM CLR 29/13 A2987 RMK A01=||F||223|ICAO-KFCH
USW00023167|FRESNO CHANDLER DWTN AP|2021|08|12|07|55|36.7333|-119.8167|84.1|29.0||1|FM15-METAR|223|ICAO-KFCH|12.0||1|FM15-METAR|223|ICAO-KFCH|||||||||||||300|N-Normal|1|FM15-METAR|223|ICAO-KFCH|4.6|N-Normal|1|FM15-METAR|223|ICAO-KFCH|||||||||||||35|Derived||FM15-METAR|223|ICAO-KFCH|||||||||||||||||||||||||||||||||||||||||||||||||||||||||||||||||||||||||1011.5||1|FM15-METAR|223|ICAO-KFCH|||||||||||||||||||||||||||||||||||||||||||MET061METAR KFCH 120755Z AUTO 30009KT 10SM CLR 29/12 A2987 RMK A01=||F||223|ICAO-KFCH
USW00023167|FRESNO CHANDLER DWTN AP|2021|08|12|08|15|36.7333|-119.8167|84.1|28.0||1|FM15-METAR|223|ICAO-KFCH|11.0||1|FM15-METAR|223|ICAO-KFCH|||||||||||||310|N-Normal|1|FM15-METAR|223|ICAO-KFCH|5.1|N-Normal|1|FM15-METAR|223|ICAO-KFCH|8.8||1|FM15-METAR|223|ICAO-KFCH|||||||35|Derived||FM15-METAR|223|ICAO-KFCH|||||||||||||||||||||||||||||||||||||||||||||||||||||||||||||||||||||||||1011.5||1|FM15-METAR|223|ICAO-KFCH|||||||||||||||||||||||||||||||||||||||||||MET064METAR KFCH 120815Z AUTO 31010G17KT 10SM CLR 28/11 A2987 RMK A01=||F||223|ICAO-KFCH
USW00023167|FRESNO CHANDLER DWTN AP|2021|08|12|08|35|36.7333|-119.8167|84.1|28.0||1|FM15-METAR|223|ICAO-KFCH|11.0||1|FM15-METAR|223|ICAO-KFCH|||||||||||||300|N-Normal|1|FM15-METAR|223|ICAO-KFCH|4.6|N-Normal|1|FM15-METAR|223|ICAO-KFCH|||||||||||||35|Derived||FM15-METAR|223|ICAO-KFCH|||||||||||||||||||||||||||||||||||||||||||||||||||||||||||||||||||||||||1011.5||1|FM15-METAR|223|ICAO-KFCH|||||||||||||||||||||||||||||||||||||||||||MET061METAR KFCH 120835Z AUTO 30009KT 10SM CLR 28/11 A2987 RMK A01=||F||223|ICAO-KFCH
USW00023167|FRESNO CHANDLER DWTN AP|2021|08|12|08|55|36.7333|-119.8167|84.1|28.0||1|FM15-METAR|223|ICAO-KFCH|11.0||1|FM15-METAR|223|ICAO-KFCH|||||||||||||300|N-Normal|1|FM15-METAR|223|ICAO-KFCH|5.7|N-Normal|1|FM15-METAR|223|ICAO-KFCH|||||||||||||35|Derived||FM15-METAR|223|ICAO-KFCH|||||||||||||||||||||||||||||||||||||||||||||||||||||||||||||||||||||||||1011.5||1|FM15-METAR|223|ICAO-KFCH|||||||||||||||||||||||||||||||||||||||||||MET061METAR KFCH 120855Z AUTO 30011KT 10SM CLR 28/11 A2987 RMK A01=||F||223|ICAO-KFCH
USW00023167|FRESNO CHANDLER DWTN AP|2021|08|12|09|15|36.7333|-119.8167|84.1|28.0||1|FM15-METAR|223|ICAO-KFCH|11.0||1|FM15-METAR|223|ICAO-KFCH|||||||||||||260|N-Normal|1|FM15-METAR|223|ICAO-KFCH|3.6|N-Normal|1|FM15-METAR|223|ICAO-KFCH|||||||||||||35|Derived||FM15-METAR|223|ICAO-KFCH|||||||||||||||||||||||||||||||||||||||||||||||||||||||||||||||||||||||||1011.8||1|FM15-METAR|223|ICAO-KFCH|||||||||||||||||||||||||||||||||||||||||||MET061METAR KFCH 120915Z AUTO 26007KT 10SM CLR 28/11 A2988 RMK A01=||F||223|ICAO-KFCH
USW00023167|FRESNO CHANDLER DWTN AP|2021|08|12|09|35|36.7333|-119.8167|84.1|27.0||1|FM15-METAR|223|ICAO-KFCH|11.0||1|FM15-METAR|223|ICAO-KFCH|||||||||||||290|N-Normal|1|FM15-METAR|223|ICAO-KFCH|4.1|N-Normal|1|FM15-METAR|223|ICAO-KFCH|||||||||||||37|Derived||FM15-METAR|223|ICAO-KFCH|||||||||||||||||||||||||||||||||||||||||||||||||||||||||||||||||||||||||1011.8||1|FM15-METAR|223|ICAO-KFCH|||||||||||||||||||||||||||||||||||||||||||MET061METAR KFCH 120935Z AUTO 29008KT 10SM CLR 27/11 A2988 RMK A01=||F||223|ICAO-KFCH
USW00023167|FRESNO CHANDLER DWTN AP|2021|08|12|09|50|36.7333|-119.8167|84.1|27.0||1|FM15-METAR|223|ICAO-KFCH|10.0||1|FM15-METAR|223|ICAO-KFCH|||||||||||||290|N-Normal|1|FM15-METAR|223|ICAO-KFCH|5.1|N-Normal|1|FM15-METAR|223|ICAO-KFCH|||||||||||||34|Derived||FM15-METAR|223|ICAO-KFCH|||||||||||||||||||||||||||||||||||||||||||||||||||||||||||||||||||||||||1011.8||1|FM15-METAR|223|ICAO-KFCH|||||||||||||||||||||||||||||||||||||||||||MET061METAR KFCH 120950Z AUTO 29010KT 10SM CLR 27/10 A2988 RMK A01=||F||223|ICAO-KFCH
USW00023167|FRESNO CHANDLER DWTN AP|2021|08|12|10|15|36.7333|-119.8167|84.1|27.0||1|FM15-METAR|223|ICAO-KFCH|9.0||1|FM15-METAR|223|ICAO-KFCH|||||||||||||290|N-Normal|1|FM15-METAR|223|ICAO-KFCH|4.6|N-Normal|1|FM15-METAR|223|ICAO-KFCH|||||||||||||32|Derived||FM15-METAR|223|ICAO-KFCH|||||||||||||||||||||||||||||||||||||||||||||||||||||||||||||||||||||||||1011.8||1|FM15-METAR|223|ICAO-KFCH|||||||||||||||||||||||||||||||||||||||||||MET061METAR KFCH 121015Z AUTO 29009KT 10SM CLR 27/09 A2988 RMK A01=||F||223|ICAO-KFCH
USW00023167|FRESNO CHANDLER DWTN AP|2021|08|12|10|30|36.7333|-119.8167|84.1|26.0||1|FM15-METAR|223|ICAO-KFCH|9.0||1|FM15-METAR|223|ICAO-KFCH|||||||||||||310|N-Normal|1|FM15-METAR|223|ICAO-KFCH|4.1|N-Normal|1|FM15-METAR|223|ICAO-KFCH|||||||||||||34|Derived||FM15-METAR|223|ICAO-KFCH|||||||||||||||||||||||||||||||||||||||||||||||||||||||||||||||||||||||||1011.8||1|FM15-METAR|223|ICAO-KFCH|||||||||||||||||||||||||||||||||||||||||||MET061METAR KFCH 121030Z AUTO 31008KT 10SM CLR 26/09 A2988 RMK A01=||F||223|ICAO-KFCH
USW00023167|FRESNO CHANDLER DWTN AP|2021|08|12|10|50|36.7333|-119.8167|84.1|26.0||1|FM15-METAR|223|ICAO-KFCH|9.0||1|FM15-METAR|223|ICAO-KFCH|||||||||||||320|N-Normal|1|FM15-METAR|223|ICAO-KFCH|4.6|N-Normal|1|FM15-METAR|223|ICAO-KFCH|||||||||||||34|Derived||FM15-METAR|223|ICAO-KFCH|||||||||||||||||||||||||||||||||||||||||||||||||||||||||||||||||||||||||1011.8||1|FM15-METAR|223|ICAO-KFCH|||||||||||||||||||||||||||||||||||||||||||MET061METAR KFCH 121050Z AUTO 32009KT 10SM CLR 26/09 A2988 RMK A01=||F||223|ICAO-KFCH
USW00023167|FRESNO CHANDLER DWTN AP|2021|08|12|11|10|36.7333|-119.8167|84.1|26.0||1|FM15-METAR|223|ICAO-KFCH|8.0||1|FM15-METAR|223|ICAO-KFCH|||||||||||||350|N-Normal|1|FM15-METAR|223|ICAO-KFCH|4.1|N-Normal|1|FM15-METAR|223|ICAO-KFCH|||||||||||||32|Derived||FM15-METAR|223|ICAO-KFCH|||||||||||||||||||||||||||||||||||||||||||||||||||||||||||||||||||||||||1011.5||1|FM15-METAR|223|ICAO-KFCH|||||||||||||||||||||||||||||||||||||||||||MET057METAR KFCH 121110Z AUTO 35008KT 10SM 26/08 A2987 RMK A01=||F||223|ICAO-KFCH
USW00023167|FRESNO CHANDLER DWTN AP|2021|08|12|11|35|36.7333|-119.8167|84.1|26.0||1|FM15-METAR|223|ICAO-KFCH|8.0||1|FM15-METAR|223|ICAO-KFCH|||||||||||||040|N-Normal|1|FM15-METAR|223|ICAO-KFCH|2.6|N-Normal|1|FM15-METAR|223|ICAO-KFCH|||||||||||||32|Derived||FM15-METAR|223|ICAO-KFCH|||||||||||||||||||||||||||||||||||||||||||||||||||||||||||||||||||||||||1012.2||1|FM15-METAR|223|ICAO-KFCH|||||||||||||||||||||||||||||||||||||||||||MET057METAR KFCH 121135Z AUTO 04005KT 10SM 26/08 A2989 RMK A01=||F||223|ICAO-KFCH
USW00023167|FRESNO CHANDLER DWTN AP|2021|08|12|11|55|36.7333|-119.8167|84.1|26.0||1|FM15-METAR|223|ICAO-KFCH|8.0||1|FM15-METAR|223|ICAO-KFCH|||||||||||||350|N-Normal|1|FM15-METAR|223|ICAO-KFCH|2.1|N-Normal|1|FM15-METAR|223|ICAO-KFCH|||||||||||||32|Derived||FM15-METAR|223|ICAO-KFCH|||||||||||||||||||||||||||||||||||||||||||||||||||||||||||||||||||||||||1012.2||1|FM15-METAR|223|ICAO-KFCH|||||||||||||||||||||||||||||||||||||||||||MET061METAR KFCH 121155Z AUTO 35004KT 10SM CLR 26/08 A2989 RMK A01=||F||223|ICAO-KFCH
USW00023167|FRESNO CHANDLER DWTN AP|2021|08|12|12|15|36.7333|-119.8167|84.1|26.0||1|FM15-METAR|223|ICAO-KFCH|9.0||1|FM15-METAR|223|ICAO-KFCH|||||||||||||360|N-Normal|1|FM15-METAR|223|ICAO-KFCH|2.1|N-Normal|1|FM15-METAR|223|ICAO-KFCH|||||||||||||34|Derived||FM15-METAR|223|ICAO-KFCH|||||||||||||||||||||||||||||||||||||||||||||||||||||||||||||||||||||||||1012.2||1|FM15-METAR|223|ICAO-KFCH|||||||||||||||||||||||||||||||||||||||||||MET061METAR KFCH 121215Z AUTO 36004KT 10SM CLR 26/09 A2989 RMK A01=||F||223|ICAO-KFCH
USW00023167|FRESNO CHANDLER DWTN AP|2021|08|12|12|35|36.7333|-119.8167|84.1|26.0||1|FM15-METAR|223|ICAO-KFCH|9.0||1|FM15-METAR|223|ICAO-KFCH|||||||||||||260|N-Normal|1|FM15-METAR|223|ICAO-KFCH|2.6|N-Normal|1|FM15-METAR|223|ICAO-KFCH|||||||||||||34|Derived||FM15-METAR|223|ICAO-KFCH|||||||||||||||||||||||||||||||||||||||||||||||||||||||||||||||||||||||||1012.5||1|FM15-METAR|223|ICAO-KFCH|||||||||||||||||||||||||||||||||||||||||||MET061METAR KFCH 121235Z AUTO 26005KT 10SM CLR 26/09 A2990 RMK A01=||F||223|ICAO-KFCH
USW00023167|FRESNO CHANDLER DWTN AP|2021|08|12|12|55|36.7333|-119.8167|84.1|25.0||1|FM15-METAR|223|ICAO-KFCH|9.0||1|FM15-METAR|223|ICAO-KFCH|||||||||||||260|N-Normal|1|FM15-METAR|223|ICAO-KFCH|2.6|N-Normal|1|FM15-METAR|223|ICAO-KFCH|||||||||||||36|Derived||FM15-METAR|223|ICAO-KFCH|||||||||||||||||||||||||||||||||||||||||||||||||||||||||||||||||||||||||1012.9||1|FM15-METAR|223|ICAO-KFCH|||||||||||||||||||||||||||||||||||||||||||MET061METAR KFCH 121255Z AUTO 26005KT 10SM CLR 25/09 A2991 RMK A01=||F||223|ICAO-KFCH
USW00023167|FRESNO CHANDLER DWTN AP|2021|08|12|13|15|36.7333|-119.8167|84.1|25.0||1|FM15-METAR|223|ICAO-KFCH|10.0||1|FM15-METAR|223|ICAO-KFCH|||||||||||||280|N-Normal|1|FM15-METAR|223|ICAO-KFCH|4.1|N-Normal|1|FM15-METAR|223|ICAO-KFCH|||||||||||||39|Derived||FM15-METAR|223|ICAO-KFCH|||||||||||||||||||||||||||||||||||||||||||||||||||||||||||||||||||||||||1012.2||1|FM15-METAR|223|ICAO-KFCH|||||||||||||||||||||||||||||||||||||||||||MET061METAR KFCH 121315Z AUTO 28008KT 10SM CLR 25/10 A2989 RMK A01=||F||223|ICAO-KFCH
USW00023167|FRESNO CHANDLER DWTN AP|2021|08|12|13|35|36.7333|-119.8167|84.1|25.0||1|FM15-METAR|223|ICAO-KFCH|9.0||1|FM15-METAR|223|ICAO-KFCH|||||||||||||110|N-Normal|1|FM15-METAR|223|ICAO-KFCH|2.1|N-Normal|1|FM15-METAR|223|ICAO-KFCH|||||||||||||36|Derived||FM15-METAR|223|ICAO-KFCH|||||||||||||||||||||||||||||||||||||||||||||||||||||||||||||||||||||||||1012.9||1|FM15-METAR|223|ICAO-KFCH|||||||||||||||||||||||||||||||||||||||||||MET061METAR KFCH 121335Z AUTO 11004KT 10SM CLR 25/09 A2991 RMK A01=||F||223|ICAO-KFCH
USW00023167|FRESNO CHANDLER DWTN AP|2021|08|12|13|55|36.7333|-119.8167|84.1|26.0||1|FM15-METAR|223|ICAO-KFCH|9.0||1|FM15-METAR|223|ICAO-KFCH|||||||||||||290|N-Normal|1|FM15-METAR|223|ICAO-KFCH|2.1|N-Normal|1|FM15-METAR|223|ICAO-KFCH|||||||||||||34|Derived||FM15-METAR|223|ICAO-KFCH|||||||||||||||||||||||||||||||||||||||||||||||||||||||||||||||||||||||||1012.9||1|FM15-METAR|223|ICAO-KFCH|||||||||||||||||||||||||||||||||||||||||||MET061METAR KFCH 121355Z AUTO 29004KT 10SM CLR 26/09 A2991 RMK A01=||F||223|ICAO-KFCH
USW00023167|FRESNO CHANDLER DWTN AP|2021|08|12|14|15|36.7333|-119.8167|84.1|26.0||1|FM15-METAR|223|ICAO-KFCH|9.0||1|FM15-METAR|223|ICAO-KFCH|||||||||||||300|N-Normal|1|FM15-METAR|223|ICAO-KFCH|2.6|N-Normal|1|FM15-METAR|223|ICAO-KFCH|||||||||||||34|Derived||FM15-METAR|223|ICAO-KFCH|||||||||||||||||||||||||||||||||||||||||||||||||||||||||||||||||||||||||1013.2||1|FM15-METAR|223|ICAO-KFCH|||||||||||||||||||||||||||||||||||||||||||MET061METAR KFCH 121415Z AUTO 30005KT 10SM CLR 26/09 A2992 RMK A01=||F||223|ICAO-KFCH
USW00023167|FRESNO CHANDLER DWTN AP|2021|08|12|14|35|36.7333|-119.8167|84.1|26.0||1|FM15-METAR|223|ICAO-KFCH|9.0||1|FM15-METAR|223|ICAO-KFCH|||||||||||||310|N-Normal|1|FM15-METAR|223|ICAO-KFCH|2.1|N-Normal|1|FM15-METAR|223|ICAO-KFCH|||||||||||||34|Derived||FM15-METAR|223|ICAO-KFCH|||||||||||||||||||||||||||||||||||||||||||||||||||||||||||||||||||||||||1013.2||1|FM15-METAR|223|ICAO-KFCH|||||||||||||||||||||||||||||||||||||||||||MET061METAR KFCH 121435Z AUTO 31004KT 10SM CLR 26/09 A2992 RMK A01=||F||223|ICAO-KFCH
USW00023167|FRESNO CHANDLER DWTN AP|2021|08|12|14|55|36.7333|-119.8167|84.1|27.0||1|FM15-METAR|223|ICAO-KFCH|9.0||1|FM15-METAR|223|ICAO-KFCH|||||||||||||300|N-Normal|1|FM15-METAR|223|ICAO-KFCH|3.1|N-Normal|1|FM15-METAR|223|ICAO-KFCH|||||||||||||32|Derived||FM15-METAR|223|ICAO-KFCH|||||||||||||||||||||||||||||||||||||||||||||||||||||||||||||||||||||||||1013.2||1|FM15-METAR|223|ICAO-KFCH|||||||||||||||||||||||||||||||||||||||||||MET061METAR KFCH 121455Z AUTO 30006KT 10SM CLR 27/09 A2992 RMK A01=||F||223|ICAO-KFCH
USW00023167|FRESNO CHANDLER DWTN AP|2021|08|12|15|15|36.7333|-119.8167|84.1|28.0||1|FM15-METAR|223|ICAO-KFCH|9.0||1|FM15-METAR|223|ICAO-KFCH|||||||||||||310|N-Normal|1|FM15-METAR|223|ICAO-KFCH|2.6|N-Normal|1|FM15-METAR|223|ICAO-KFCH|||||||||||||30|Derived||FM15-METAR|223|ICAO-KFCH|||||||||||||||||||||||||||||||||||||||||||||||||||||||||||||||||||||||||1013.2||1|FM15-METAR|223|ICAO-KFCH|||||||||||||||||||||||||||||||||||||||||||MET061METAR KFCH 121515Z AUTO 31005KT 10SM CLR 28/09 A2992 RMK A01=||F||223|ICAO-KFCH
USW00023167|FRESNO CHANDLER DWTN AP|2021|08|12|15|35|36.7333|-119.8167|84.1|29.0||1|FM15-METAR|223|ICAO-KFCH|8.0||1|FM15-METAR|223|ICAO-KFCH|||||||||||||320|N-Normal|1|FM15-METAR|223|ICAO-KFCH|3.1|N-Normal|1|FM15-METAR|223|ICAO-KFCH|||||||||||||27|Derived||FM15-METAR|223|ICAO-KFCH|||||||||||||||||||||||||||||||||||||||||||||||||||||||||||||||||||||||||1013.2||1|FM15-METAR|223|ICAO-KFCH|||||||||||||||||||||||||||||||||||||||||||MET061METAR KFCH 121535Z AUTO 32006KT 10SM CLR 29/08 A2992 RMK A01=||F||223|ICAO-KFCH
USW00023167|FRESNO CHANDLER DWTN AP|2021|08|12|15|55|36.7333|-119.8167|84.1|30.0||1|FM15-METAR|223|ICAO-KFCH|8.0||1|FM15-METAR|223|ICAO-KFCH|||||||||||||320|N-Normal|1|FM15-METAR|223|ICAO-KFCH|2.1|N-Normal|1|FM15-METAR|223|ICAO-KFCH|||||||||||||25|Derived||FM15-METAR|223|ICAO-KFCH|||||||||||||||||||||||||||||||||||||||||||||||||||||||||||||||||||||||||1013.5||1|FM15-METAR|223|ICAO-KFCH|||||||||||||||||||||||||||||||||||||||||||MET061METAR KFCH 121555Z AUTO 32004KT 10SM CLR 30/08 A2993 RMK A01=||F||223|ICAO-KFCH
USW00023167|FRESNO CHANDLER DWTN AP|2021|08|12|16|15|36.7333|-119.8167|84.1|30.0||1|FM15-METAR|223|ICAO-KFCH|7.0||1|FM15-METAR|223|ICAO-KFCH|||||||||||||310|N-Normal|1|FM15-METAR|223|ICAO-KFCH|4.1|N-Normal|1|FM15-METAR|223|ICAO-KFCH|||||||||||||24|Derived||FM15-METAR|223|ICAO-KFCH|||||||||||||||||||||||||||||||||||||||||||||||||||||||||||||||||||||||||1013.5||1|FM15-METAR|223|ICAO-KFCH|||||||||||||||||||||||||||||||||||||||||||MET061METAR KFCH 121615Z AUTO 31008KT 10SM CLR 30/07 A2993 RMK A01=||F||223|ICAO-KFCH
USW00023167|FRESNO CHANDLER DWTN AP|2021|08|12|16|35|36.7333|-119.8167|84.1|31.0||1|FM15-METAR|223|ICAO-KFCH|7.0||1|FM15-METAR|223|ICAO-KFCH|||||||||||||320|N-Normal|1|FM15-METAR|223|ICAO-KFCH|3.6|N-Normal|1|FM15-METAR|223|ICAO-KFCH|||||||||||||22|Derived||FM15-METAR|223|ICAO-KFCH|||||||||||||||||||||||||||||||||||||||||||||||||||||||||||||||||||||||||1013.5||1|FM15-METAR|223|ICAO-KFCH|||||||||||||||||||||||||||||||||||||||||||MET061METAR KFCH 121635Z AUTO 32007KT 10SM CLR 31/07 A2993 RMK A01=||F||223|ICAO-KFCH
USW00023167|FRESNO CHANDLER DWTN AP|2021|08|12|16|50|36.7333|-119.8167|84.1|31.0||1|FM15-METAR|223|ICAO-KFCH|8.0||1|FM15-METAR|223|ICAO-KFCH|||||||||||||330|N-Normal|1|FM15-METAR|223|ICAO-KFCH|2.1|N-Normal|1|FM15-METAR|223|ICAO-KFCH|||||||||||||24|Derived||FM15-METAR|223|ICAO-KFCH|||||||||||||||||||||||||||||||||||||||||||||||||||||||||||||||||||||||||1013.5||1|FM15-METAR|223|ICAO-KFCH|||||||||||||||||||||||||||||||||||||||||||MET061METAR KFCH 121650Z AUTO 33004KT 10SM CLR 31/08 A2993 RMK A01=||F||223|ICAO-KFCH
USW00023167|FRESNO CHANDLER DWTN AP|2021|08|12|17|15|36.7333|-119.8167|84.1|32.0||1|FM15-METAR|223|ICAO-KFCH|8.0||1|FM15-METAR|223|ICAO-KFCH|||||||||||||340|N-Normal|1|FM15-METAR|223|ICAO-KFCH|3.1|N-Normal|1|FM15-METAR|223|ICAO-KFCH|||||||||||||22|Derived||FM15-METAR|223|ICAO-KFCH|||||||||||||||||||||||||||||||||||||||||||||||||||||||||||||||||||||||||1013.5||1|FM15-METAR|223|ICAO-KFCH|||||||||||||||||||||||||||||||||||||||||||MET061METAR KFCH 121715Z AUTO 34006KT 10SM CLR 32/08 A2993 RMK A01=||F||223|ICAO-KFCH
USW00023167|FRESNO CHANDLER DWTN AP|2021|08|12|17|30|36.7333|-119.8167|84.1|32.0||1|FM15-METAR|223|ICAO-KFCH|9.0||1|FM15-METAR|223|ICAO-KFCH|||||||||||||290|N-Normal|1|FM15-METAR|223|ICAO-KFCH|3.6|N-Normal|1|FM15-METAR|223|ICAO-KFCH|||||||||||||24|Derived||FM15-METAR|223|ICAO-KFCH|||||||||||||||||||||||||||||||||||||||||||||||||||||||||||||||||||||||||1013.9||1|FM15-METAR|223|ICAO-KFCH|||||||||||||||||||||||||||||||||||||||||||MET061METAR KFCH 121730Z AUTO 29007KT 10SM CLR 32/09 A2994 RMK A01=||F||223|ICAO-KFCH
USW00023167|FRESNO CHANDLER DWTN AP|2021|08|12|17|50|36.7333|-119.8167|84.1|32.0||1|FM15-METAR|223|ICAO-KFCH|10.0||1|FM15-METAR|223|ICAO-KFCH|||||||||||||290|N-Normal|1|FM15-METAR|223|ICAO-KFCH|2.6|N-Normal|1|FM15-METAR|223|ICAO-KFCH|||||||||||||26|Derived||FM15-METAR|223|ICAO-KFCH|||||||||||||||||||||||||||||||||||||||||||||||||||||||||||||||||||||||||1013.9||1|FM15-METAR|223|ICAO-KFCH|||||||||||||||||||||||||||||||||||||||||||MET060METAR KFCH 121750Z AUTO 29005KT 9SM CLR 32/10 A2994 RMK A01=||F||223|ICAO-KFCH
USW00023167|FRESNO CHANDLER DWTN AP|2021|08|12|18|10|36.7333|-119.8167|84.1|33.0||1|FM15-METAR|223|ICAO-KFCH|10.0||1|FM15-METAR|223|ICAO-KFCH|||||||||||||300|N-Normal|1|FM15-METAR|223|ICAO-KFCH|4.1|N-Normal|1|FM15-METAR|223|ICAO-KFCH|||||||||||||24|Derived||FM15-METAR|223|ICAO-KFCH|||||||||||||||||||||||||||||||||||||||||||||||||||||||||||||||||||||||||1013.9||1|FM15-METAR|223|ICAO-KFCH|||||||||||||||||||||||||||||||||||||||||||MET060METAR KFCH 121810Z AUTO 30008KT 9SM CLR 33/10 A2994 RMK A01=||F||223|ICAO-KFCH
USW00023167|FRESNO CHANDLER DWTN AP|2021|08|12|18|30|36.7333|-119.8167|84.1|33.0||1|FM15-METAR|223|ICAO-KFCH|10.0||1|FM15-METAR|223|ICAO-KFCH|||||||||||||999|V-Variable|9|FM15-METAR|223|ICAO-KFCH|2.1|V-Variable|1|FM15-METAR|223|ICAO-KFCH|5.1||1|FM15-METAR|223|ICAO-KFCH|||||||24|Derived||FM15-METAR|223|ICAO-KFCH|||||||||||||||||||||||||||||||||||||||||||||||||||||||||||||||||||||||||1013.5||1|FM15-METAR|223|ICAO-KFCH|||||||||||||||||||||||||||||||||||||||||||MET063METAR KFCH 121830Z AUTO VRB04G10KT 9SM CLR 33/10 A2993 RMK A01=||F||223|ICAO-KFCH
USW00023167|FRESNO CHANDLER DWTN AP|2021|08|12|18|50|36.7333|-119.8167|84.1|34.0||1|FM15-METAR|223|ICAO-KFCH|10.0||1|FM15-METAR|223|ICAO-KFCH|||||||||||||280|N-Normal|1|FM15-METAR|223|ICAO-KFCH|3.1|N-Normal|1|FM15-METAR|223|ICAO-KFCH|||||||||||||23|Derived||FM15-METAR|223|ICAO-KFCH|||||||||||||||||||||||||||||||||||||||||||||||||||||||||||||||||||||||||1013.5||1|FM15-METAR|223|ICAO-KFCH|||||||||||||||||||||||||||||||||||||||||||MET060METAR KFCH 121850Z AUTO 28006KT 9SM CLR 34/10 A2993 RMK A01=||F||223|ICAO-KFCH
USW00023167|FRESNO CHANDLER DWTN AP|2021|08|12|19|10|36.7333|-119.8167|84.1|35.0||1|FM15-METAR|223|ICAO-KFCH|10.0||1|FM15-METAR|223|ICAO-KFCH|||||||||||||999|V-Variable|9|FM15-METAR|223|ICAO-KFCH|3.1|V-Variable|1|FM15-METAR|223|ICAO-KFCH|5.7||1|FM15-METAR|223|ICAO-KFCH|||||||22|Derived||FM15-METAR|223|ICAO-KFCH|||||||||||||||||||||||||||||||||||||||||||||||||||||||||||||||||||||||||1013.2||1|FM15-METAR|223|ICAO-KFCH|||||||||||||||||||||||||||||||||||||||||||MET064METAR KFCH 121910Z AUTO VRB06G11KT 10SM CLR 35/10 A2992 RMK A01=||F||223|ICAO-KFCH
USW00023167|FRESNO CHANDLER DWTN AP|2021|08|12|19|30|36.7333|-119.8167|84.1|35.0||1|FM15-METAR|223|ICAO-KFCH|10.0||1|FM15-METAR|223|ICAO-KFCH|||||||||||||330|N-Normal|1|FM15-METAR|223|ICAO-KFCH|2.6|N-Normal|1|FM15-METAR|223|ICAO-KFCH|||||||||||||22|Derived||FM15-METAR|223|ICAO-KFCH|||||||||||||||||||||||||||||||||||||||||||||||||||||||||||||||||||||||||1013.2||1|FM15-METAR|223|ICAO-KFCH|||||||||||||||||||||||||||||||||||||||||||MET060METAR KFCH 121930Z AUTO 33005KT 9SM CLR 35/10 A2992 RMK A01=||F||223|ICAO-KFCH
USW00023167|FRESNO CHANDLER DWTN AP|2021|08|12|19|50|36.7333|-119.8167|84.1|36.0||1|FM15-METAR|223|ICAO-KFCH|9.0||1|FM15-METAR|223|ICAO-KFCH|||||||||||||290|N-Normal|1|FM15-METAR|223|ICAO-KFCH|5.1|N-Normal|1|FM15-METAR|223|ICAO-KFCH|||||||||||||19|Derived||FM15-METAR|223|ICAO-KFCH|||||||||||||||||||||||||||||||||||||||||||||||||||||||||||||||||||||||||1012.9||1|FM15-METAR|223|ICAO-KFCH|||||||||||||||||||||||||||||||||||||||||||MET060METAR KFCH 121950Z AUTO 29010KT 9SM CLR 36/09 A2991 RMK A01=||F||223|ICAO-KFCH
USW00023167|FRESNO CHANDLER DWTN AP|2021|08|12|20|10|36.7333|-119.8167|84.1|37.0||1|FM15-METAR|223|ICAO-KFCH|9.0||1|FM15-METAR|223|ICAO-KFCH|||||||||||||330|N-Normal|1|FM15-METAR|223|ICAO-KFCH|4.1|N-Normal|1|FM15-METAR|223|ICAO-KFCH|||||||||||||18|Derived||FM15-METAR|223|ICAO-KFCH|||||||||||||||||||||||||||||||||||||||||||||||||||||||||||||||||||||||||1012.9||1|FM15-METAR|223|ICAO-KFCH|||||||||||||||||||||||||||||||||||||||||||MET061METAR KFCH 122010Z AUTO 33008KT 10SM CLR 37/09 A2991 RMK A01=||F||223|ICAO-KFCH
USW00023167|FRESNO CHANDLER DWTN AP|2021|08|12|20|30|36.7333|-119.8167|84.1|37.0||1|FM15-METAR|223|ICAO-KFCH|9.0||1|FM15-METAR|223|ICAO-KFCH|||||||||||||270|V-Variable|1|FM15-METAR|223|ICAO-KFCH|4.6|V-Variable|1|FM15-METAR|223|ICAO-KFCH|||||||||||||18|Derived||FM15-METAR|223|ICAO-KFCH|||||||||||||||||||||||||||||||||||||||||||||||||||||||||||||||||||||||||1012.5||1|FM15-METAR|223|ICAO-KFCH|||||||||||||||||||||||||||||||||||||||||||MET068METAR KFCH 122030Z AUTO 27009KT 260V320 9SM CLR 37/09 A2990 RMK A01=||F||223|ICAO-KFCH
USW00023167|FRESNO CHANDLER DWTN AP|2021|08|12|20|50|36.7333|-119.8167|84.1|38.0||1|FM15-METAR|223|ICAO-KFCH|9.0||1|FM15-METAR|223|ICAO-KFCH|||||||||||||320|N-Normal|1|FM15-METAR|223|ICAO-KFCH|4.6|N-Normal|1|FM15-METAR|223|ICAO-KFCH|9.3||1|FM15-METAR|223|ICAO-KFCH|||||||17|Derived||FM15-METAR|223|ICAO-KFCH|||||||||||||||||||||||||||||||||||||||||||||||||||||||||||||||||||||||||1012.2||1|FM15-METAR|223|ICAO-KFCH|||||||||||||||||||||||||||||||||||||||||||MET064METAR KFCH 122050Z AUTO 32009G18KT 10SM CLR 38/09 A2989 RMK A01=||F||223|ICAO-KFCH
USW00023167|FRESNO CHANDLER DWTN AP|2021|08|12|21|15|36.7333|-119.8167|84.1|38.0||1|FM15-METAR|223|ICAO-KFCH|8.0||1|FM15-METAR|223|ICAO-KFCH|||||||||||||320|N-Normal|1|FM15-METAR|223|ICAO-KFCH|4.6|N-Normal|1|FM15-METAR|223|ICAO-KFCH|||||||||||||16|Derived||FM15-METAR|223|ICAO-KFCH|||||||||||||||||||||||||||||||||||||||||||||||||||||||||||||||||||||||||1012.2||1|FM15-METAR|223|ICAO-KFCH|||||||||||||||||||||||||||||||||||||||||||MET060METAR KFCH 122115Z AUTO 32009KT 9SM CLR 38/08 A2989 RMK A01=||F||223|ICAO-KFCH
USW00023167|FRESNO CHANDLER DWTN AP|2021|08|12|21|35|36.7333|-119.8167|84.1|38.0||1|FM15-METAR|223|ICAO-KFCH|7.0||1|FM15-METAR|223|ICAO-KFCH|||||||||||||340|N-Normal|1|FM15-METAR|223|ICAO-KFCH|4.1|N-Normal|1|FM15-METAR|223|ICAO-KFCH|8.8||1|FM15-METAR|223|ICAO-KFCH|||||||15|Derived||FM15-METAR|223|ICAO-KFCH|||||||||||||||||||||||||||||||||||||||||||||||||||||||||||||||||||||||||1011.8||1|FM15-METAR|223|ICAO-KFCH|||||||||||||||||||||||||||||||||||||||||||MET063METAR KFCH 122135Z AUTO 34008G17KT 9SM CLR 38/07 A2988 RMK A01=||F||223|ICAO-KFCH
USW00023167|FRESNO CHANDLER DWTN AP|2021|08|12|21|55|36.7333|-119.8167|84.1|39.0||1|FM15-METAR|223|ICAO-KFCH|7.0||1|FM15-METAR|223|ICAO-KFCH|||||||||||||310|N-Normal|1|FM15-METAR|223|ICAO-KFCH|3.6|N-Normal|1|FM15-METAR|223|ICAO-KFCH|7.2||1|FM15-METAR|223|ICAO-KFCH|||||||14|Derived||FM15-METAR|223|ICAO-KFCH|||||||||||||||||||||||||||||||||||||||||||||||||||||||||||||||||||||||||1011.8||1|FM15-METAR|223|ICAO-KFCH|||||||||||||||||||||||||||||||||||||||||||MET064METAR KFCH 122155Z AUTO 31007G14KT 10SM CLR 39/07 A2988 RMK A01=||F||223|ICAO-KFCH
USW00023167|FRESNO CHANDLER DWTN AP|2021|08|12|22|15|36.7333|-119.8167|84.1|39.0||1|FM15-METAR|223|ICAO-KFCH|8.0||1|FM15-METAR|223|ICAO-KFCH|||||||||||||360|N-Normal|1|FM15-METAR|223|ICAO-KFCH|3.1|N-Normal|1|FM15-METAR|223|ICAO-KFCH|6.7||1|FM15-METAR|223|ICAO-KFCH|||||||15|Derived||FM15-METAR|223|ICAO-KFCH|||||||||||||||||||||||||||||||||||||||||||||||||||||||||||||||||||||||||1011.5||1|FM15-METAR|223|ICAO-KFCH|||||||||||||||||||||||||||||||||||||||||||MET064METAR KFCH 122215Z AUTO 36006G13KT 10SM CLR 39/08 A2987 RMK A01=||F||223|ICAO-KFCH
USW00023167|FRESNO CHANDLER DWTN AP|2021|08|12|22|35|36.7333|-119.8167|84.1|39.0||1|FM15-METAR|223|ICAO-KFCH|8.0||1|FM15-METAR|223|ICAO-KFCH|||||||||||||320|V-Variable|1|FM15-METAR|223|ICAO-KFCH|5.1|V-Variable|1|FM15-METAR|223|ICAO-KFCH|||||||||||||15|Derived||FM15-METAR|223|ICAO-KFCH|||||||||||||||||||||||||||||||||||||||||||||||||||||||||||||||||||||||||1011.5||1|FM15-METAR|223|ICAO-KFCH|||||||||||||||||||||||||||||||||||||||||||MET069METAR KFCH 122235Z AUTO 32010KT 300V010 10SM CLR 39/08 A2987 RMK A01=||F||223|ICAO-KFCH
USW00023167|FRESNO CHANDLER DWTN AP|2021|08|12|22|55|36.7333|-119.8167|84.1|39.0||1|FM15-METAR|223|ICAO-KFCH|7.0||1|FM15-METAR|223|ICAO-KFCH|||||||||||||360|N-Normal|1|FM15-METAR|223|ICAO-KFCH|5.7|N-Normal|1|FM15-METAR|223|ICAO-KFCH|8.2||1|FM15-METAR|223|ICAO-KFCH|||||||14|Derived||FM15-METAR|223|ICAO-KFCH|||||||||||||||||||||||||||||||||||||||||||||||||||||||||||||||||||||||||1011.2||1|FM15-METAR|223|ICAO-KFCH|||||||||||||||||||||||||||||||||||||||||||MET063METAR KFCH 122255Z AUTO 36011G16KT 9SM CLR 39/07 A2986 RMK A01=||F||223|ICAO-KFCH
USW00023167|FRESNO CHANDLER DWTN AP|2021|08|12|23|15|36.7333|-119.8167|84.1|39.0||1|FM15-METAR|223|ICAO-KFCH|8.0||1|FM15-METAR|223|ICAO-KFCH|||||||||||||330|N-Normal|1|FM15-METAR|223|ICAO-KFCH|4.1|N-Normal|1|FM15-METAR|223|ICAO-KFCH|6.7||1|FM15-METAR|223|ICAO-KFCH|||||||15|Derived||FM15-METAR|223|ICAO-KFCH|||||||||||||||||||||||||||||||||||||||||||||||||||||||||||||||||||||||||1011.2||1|FM15-METAR|223|ICAO-KFCH|||||||||||||||||||||||||||||||||||||||||||MET064METAR KFCH 122315Z AUTO 33008G13KT 10SM CLR 39/08 A2986 RMK A01=||F||223|ICAO-KFCH
USW00023167|FRESNO CHANDLER DWTN AP|2021|08|12|23|35|36.7333|-119.8167|84.1|39.0||1|FM15-METAR|223|ICAO-KFCH|8.0||1|FM15-METAR|223|ICAO-KFCH|||||||||||||290|N-Normal|1|FM15-METAR|223|ICAO-KFCH|5.7|N-Normal|1|FM15-METAR|223|ICAO-KFCH|||||||||||||15|Derived||FM15-METAR|223|ICAO-KFCH|||||||||||||||||||||||||||||||||||||||||||||||||||||||||||||||||||||||||1010.8||1|FM15-METAR|223|ICAO-KFCH|||||||||||||||||||||||||||||||||||||||||||MET061METAR KFCH 122335Z AUTO 29011KT 10SM CLR 39/08 A2985 RMK A01=||F||223|ICAO-KFCH
USW00023167|FRESNO CHANDLER DWTN AP|2021|08|12|23|55|36.7333|-119.8167|84.1|39.0||1|FM15-METAR|223|ICAO-KFCH|9.0||1|FM15-METAR|223|ICAO-KFCH|||||||||||||310|N-Normal|1|FM15-METAR|223|ICAO-KFCH|4.1|N-Normal|1|FM15-METAR|223|ICAO-KFCH|6.7||1|FM15-METAR|223|ICAO-KFCH|||||||16|Derived||FM15-METAR|223|ICAO-KFCH|||||||||||||||||||||||||||||||||||||||||||||||||||||||||||||||||||||||||1010.8||1|FM15-METAR|223|ICAO-KFCH|||||||||||||||||||||||||||||||||||||||||||MET064METAR KFCH 122355Z AUTO 31008G13KT 10SM CLR 39/09 A2985 RMK A01=||F||223|ICAO-KFCH
USW00023167|FRESNO CHANDLER DWTN AP|2021|08|13|00|10|36.7333|-119.8167|84.1|39.0||1|FM15-METAR|223|ICAO-KFCH|9.0||1|FM15-METAR|223|ICAO-KFCH|||||||||||||340|N-Normal|1|FM15-METAR|223|ICAO-KFCH|3.6|N-Normal|1|FM15-METAR|223|ICAO-KFCH|||||||||||||16|Derived||FM15-METAR|223|ICAO-KFCH|||||||||||||||||||||||||||||||||||||||||||||||||||||||||||||||||||||||||1010.8||1|FM15-METAR|223|ICAO-KFCH|||||||||||||||||||||||||||||||||||||||||||MET061METAR KFCH 130010Z AUTO 34007KT 10SM CLR 39/09 A2985 RMK A01=||F||223|ICAO-KFCH
USW00023167|FRESNO CHANDLER DWTN AP|2021|08|13|00|35|36.7333|-119.8167|84.1|39.0||1|FM15-METAR|223|ICAO-KFCH|9.0||1|FM15-METAR|223|ICAO-KFCH|||||||||||||350|N-Normal|1|FM15-METAR|223|ICAO-KFCH|4.6|N-Normal|1|FM15-METAR|223|ICAO-KFCH|7.7||1|FM15-METAR|223|ICAO-KFCH|||||||16|Derived||FM15-METAR|223|ICAO-KFCH|||||||||||||||||||||||||||||||||||||||||||||||||||||||||||||||||||||||||1010.8||1|FM15-METAR|223|ICAO-KFCH|||||||||||||||||||||||||||||||||||||||||||MET064METAR KFCH 130035Z AUTO 35009G15KT 10SM CLR 39/09 A2985 RMK A01=||F||223|ICAO-KFCH
USW00023167|FRESNO CHANDLER DWTN AP|2021|08|13|00|55|36.7333|-119.8167|84.1|39.0||1|FM15-METAR|223|ICAO-KFCH|9.0||1|FM15-METAR|223|ICAO-KFCH|||||||||||||320|N-Normal|1|FM15-METAR|223|ICAO-KFCH|5.7|N-Normal|1|FM15-METAR|223|ICAO-KFCH|||||||||||||16|Derived||FM15-METAR|223|ICAO-KFCH|||||||||||||||||||||||||||||||||||||||||||||||||||||||||||||||||||||||||1010.8||1|FM15-METAR|223|ICAO-KFCH|||||||||||||||||||||||||||||||||||||||||||MET061METAR KFCH 130055Z AUTO 32011KT 10SM CLR 39/09 A2985 RMK A01=||F||223|ICAO-KFCH
USW00023167|FRESNO CHANDLER DWTN AP|2021|08|13|01|10|36.7333|-119.8167|84.1|38.0||1|FM15-METAR|223|ICAO-KFCH|9.0||1|FM15-METAR|223|ICAO-KFCH|||||||||||||330|N-Normal|1|FM15-METAR|223|ICAO-KFCH|4.6|N-Normal|1|FM15-METAR|223|ICAO-KFCH|||||||||||||17|Derived||FM15-METAR|223|ICAO-KFCH|||||||||||||||||||||||||||||||||||||||||||||||||||||||||||||||||||||||||1010.8||1|FM15-METAR|223|ICAO-KFCH|||||||||||||||||||||||||||||||||||||||||||MET061METAR KFCH 130110Z AUTO 33009KT 10SM CLR 38/09 A2985 RMK A01=||F||223|ICAO-KFCH
USW00023167|FRESNO CHANDLER DWTN AP|2021|08|13|01|35|36.7333|-119.8167|84.1|38.0||1|FM15-METAR|223|ICAO-KFCH|10.0||1|FM15-METAR|223|ICAO-KFCH|||||||||||||320|N-Normal|1|FM15-METAR|223|ICAO-KFCH|7.2|N-Normal|1|FM15-METAR|223|ICAO-KFCH|||||||||||||18|Derived||FM15-METAR|223|ICAO-KFCH|||||||||||||||||||||||||||||||||||||||||||||||||||||||||||||||||||||||||1010.5||1|FM15-METAR|223|ICAO-KFCH|||||||||||||||||||||||||||||||||||||||||||MET061METAR KFCH 130135Z AUTO 32014KT 10SM CLR 38/10 A2984 RMK A01=||F||223|ICAO-KFCH
USW00023167|FRESNO CHANDLER DWTN AP|2021|08|13|01|50|36.7333|-119.8167|84.1|37.0||1|FM15-METAR|223|ICAO-KFCH|10.0||1|FM15-METAR|223|ICAO-KFCH|||||||||||||320|N-Normal|1|FM15-METAR|223|ICAO-KFCH|6.2|N-Normal|1|FM15-METAR|223|ICAO-KFCH|||||||||||||19|Derived||FM15-METAR|223|ICAO-KFCH|||||||||||||||||||||||||||||||||||||||||||||||||||||||||||||||||||||||||1010.8||1|FM15-METAR|223|ICAO-KFCH|||||||||||||||||||||||||||||||||||||||||||MET061METAR KFCH 130150Z AUTO 32012KT 10SM CLR 37/10 A2985 RMK A01=||F||223|ICAO-KFCH
USW00023167|FRESNO CHANDLER DWTN AP|2021|08|13|02|10|36.7333|-119.8167|84.1|37.0||1|FM15-METAR|223|ICAO-KFCH|10.0||1|FM15-METAR|223|ICAO-KFCH|||||||||||||320|N-Normal|1|FM15-METAR|223|ICAO-KFCH|5.7|N-Normal|1|FM15-METAR|223|ICAO-KFCH|||||||||||||19|Derived||FM15-METAR|223|ICAO-KFCH|||||||||||||||||||||||||||||||||||||||||||||||||||||||||||||||||||||||||1010.8||1|FM15-METAR|223|ICAO-KFCH|||||||||||||||||||||||||||||||||||||||||||MET061METAR KFCH 130210Z AUTO 32011KT 10SM CLR 37/10 A2985 RMK A01=||F||223|ICAO-KFCH
USW00023167|FRESNO CHANDLER DWTN AP|2021|08|13|02|35|36.7333|-119.8167|84.1|36.0||1|FM15-METAR|223|ICAO-KFCH|10.0||1|FM15-METAR|223|ICAO-KFCH|||||||||||||320|N-Normal|1|FM15-METAR|223|ICAO-KFCH|4.1|N-Normal|1|FM15-METAR|223|ICAO-KFCH|||||||||||||20|Derived||FM15-METAR|223|ICAO-KFCH|||||||||||||||||||||||||||||||||||||||||||||||||||||||||||||||||||||||||1011.2||1|FM15-METAR|223|ICAO-KFCH|||||||||||||||||||||||||||||||||||||||||||MET061METAR KFCH 130235Z AUTO 32008KT 10SM CLR 36/10 A2986 RMK A01=||F||223|ICAO-KFCH
USW00023167|FRESNO CHANDLER DWTN AP|2021|08|13|02|55|36.7333|-119.8167|84.1|35.0||1|FM15-METAR|223|ICAO-KFCH|10.0||1|FM15-METAR|223|ICAO-KFCH|||||||||||||330|N-Normal|1|FM15-METAR|223|ICAO-KFCH|4.6|N-Normal|1|FM15-METAR|223|ICAO-KFCH|||||||||||||22|Derived||FM15-METAR|223|ICAO-KFCH|||||||||||||||||||||||||||||||||||||||||||||||||||||||||||||||||||||||||1011.2||1|FM15-METAR|223|ICAO-KFCH|||||||||||||||||||||||||||||||||||||||||||MET061METAR KFCH 130255Z AUTO 33009KT 10SM CLR 35/10 A2986 RMK A01=||F||223|ICAO-KFCH
USW00023167|FRESNO CHANDLER DWTN AP|2021|08|13|03|15|36.7333|-119.8167|84.1|35.0||1|FM15-METAR|223|ICAO-KFCH|10.0||1|FM15-METAR|223|ICAO-KFCH|||||||||||||320|N-Normal|1|FM15-METAR|223|ICAO-KFCH|4.6|N-Normal|1|FM15-METAR|223|ICAO-KFCH|||||||||||||22|Derived||FM15-METAR|223|ICAO-KFCH|||||||||||||||||||||||||||||||||||||||||||||||||||||||||||||||||||||||||1010.8||1|FM15-METAR|223|ICAO-KFCH|||||||||||||||||||||||||||||||||||||||||||MET061METAR KFCH 130315Z AUTO 32009KT 10SM CLR 35/10 A2985 RMK A01=||F||223|ICAO-KFCH
USW00023167|FRESNO CHANDLER DWTN AP|2021|08|13|03|35|36.7333|-119.8167|84.1|34.0||1|FM15-METAR|223|ICAO-KFCH|10.0||1|FM15-METAR|223|ICAO-KFCH|||||||||||||330|N-Normal|1|FM15-METAR|223|ICAO-KFCH|3.6|N-Normal|1|FM15-METAR|223|ICAO-KFCH|6.7||1|FM15-METAR|223|ICAO-KFCH|||||||23|Derived||FM15-METAR|223|ICAO-KFCH|||||||||||||||||||||||||||||||||||||||||||||||||||||||||||||||||||||||||1011.5||1|FM15-METAR|223|ICAO-KFCH|||||||||||||||||||||||||||||||||||||||||||MET064METAR KFCH 130335Z AUTO 33007G13KT 10SM CLR 34/10 A2987 RMK A01=||F||223|ICAO-KFCH
USW00023167|FRESNO CHANDLER DWTN AP|2021|08|13|03|55|36.7333|-119.8167|84.1|34.0||1|FM15-METAR|223|ICAO-KFCH|10.0||1|FM15-METAR|223|ICAO-KFCH|||||||||||||320|N-Normal|1|FM15-METAR|223|ICAO-KFCH|4.6|N-Normal|1|FM15-METAR|223|ICAO-KFCH|||||||||||||23|Derived||FM15-METAR|223|ICAO-KFCH|||||||||||||||||||||||||||||||||||||||||||||||||||||||||||||||||||||||||1011.8||1|FM15-METAR|223|ICAO-KFCH|||||||||||||||||||||||||||||||||||||||||||MET061METAR KFCH 130355Z AUTO 32009KT 10SM CLR 34/10 A2988 RMK A01=||F||223|ICAO-KFCH
USW00023167|FRESNO CHANDLER DWTN AP|2021|08|13|04|15|36.7333|-119.8167|84.1|33.0||1|FM15-METAR|223|ICAO-KFCH|10.0||1|FM15-METAR|223|ICAO-KFCH|||||||||||||310|N-Normal|1|FM15-METAR|223|ICAO-KFCH|3.1|N-Normal|1|FM15-METAR|223|ICAO-KFCH|||||||||||||24|Derived||FM15-METAR|223|ICAO-KFCH|||||||||||||||||||||||||||||||||||||||||||||||||||||||||||||||||||||||||1012.2||1|FM15-METAR|223|ICAO-KFCH|||||||||||||||||||||||||||||||||||||||||||MET061METAR KFCH 130415Z AUTO 31006KT 10SM CLR 33/10 A2989 RMK A01=||F||223|ICAO-KFCH
USW00023167|FRESNO CHANDLER DWTN AP|2021|08|13|04|35|36.7333|-119.8167|84.1|32.0||1|FM15-METAR|223|ICAO-KFCH|10.0||1|FM15-METAR|223|ICAO-KFCH|||||||||||||340|N-Normal|1|FM15-METAR|223|ICAO-KFCH|3.6|N-Normal|1|FM15-METAR|223|ICAO-KFCH|||||||||||||26|Derived||FM15-METAR|223|ICAO-KFCH|||||||||||||||||||||||||||||||||||||||||||||||||||||||||||||||||||||||||1012.2||1|FM15-METAR|223|ICAO-KFCH|||||||||||||||||||||||||||||||||||||||||||MET061METAR KFCH 130435Z AUTO 34007KT 10SM CLR 32/10 A2989 RMK A01=||F||223|ICAO-KFCH
USW00023167|FRESNO CHANDLER DWTN AP|2021|08|13|04|55|36.7333|-119.8167|84.1|33.0||1|FM15-METAR|223|ICAO-KFCH|10.0||1|FM15-METAR|223|ICAO-KFCH|||||||||||||320|N-Normal|1|FM15-METAR|223|ICAO-KFCH|4.6|N-Normal|1|FM15-METAR|223|ICAO-KFCH|||||||||||||24|Derived||FM15-METAR|223|ICAO-KFCH|||||||||||||||||||||||||||||||||||||||||||||||||||||||||||||||||||||||||1012.5||1|FM15-METAR|223|ICAO-KFCH|||||||||||||||||||||||||||||||||||||||||||MET061METAR KFCH 130455Z AUTO 32009KT 10SM CLR 33/10 A2990 RMK A01=||F||223|ICAO-KFCH
USW00023167|FRESNO CHANDLER DWTN AP|2021|08|13|05|15|36.7333|-119.8167|84.1|32.0||1|FM15-METAR|223|ICAO-KFCH|11.0||1|FM15-METAR|223|ICAO-KFCH|||||||||||||320|N-Normal|1|FM15-METAR|223|ICAO-KFCH|2.6|N-Normal|1|FM15-METAR|223|ICAO-KFCH|6.7||1|FM15-METAR|223|ICAO-KFCH|||||||27|Derived||FM15-METAR|223|ICAO-KFCH|||||||||||||||||||||||||||||||||||||||||||||||||||||||||||||||||||||||||1012.5||1|FM15-METAR|223|ICAO-KFCH|||||||||||||||||||||||||||||||||||||||||||MET067METAR KFCH 130515Z AUTO 32005G13KT 10SM SCT070 32/11 A2990 RMK A01=||F||223|ICAO-KFCH
USW00023167|FRESNO CHANDLER DWTN AP|2021|08|13|05|35|36.7333|-119.8167|84.1|32.0||1|FM15-METAR|223|ICAO-KFCH|11.0||1|FM15-METAR|223|ICAO-KFCH|||||||||||||310|N-Normal|1|FM15-METAR|223|ICAO-KFCH|4.1|N-Normal|1|FM15-METAR|223|ICAO-KFCH|||||||||||||27|Derived||FM15-METAR|223|ICAO-KFCH|||||||||||||||||||||||||||||||||||||||||||||||||||||||||||||||||||||||||1012.5||1|FM15-METAR|223|ICAO-KFCH|||||||||||||||||||||||||||||||||||||||||||MET064METAR KFCH 130535Z AUTO 31008KT 10SM BKN070 32/11 A2990 RMK A01=||F||223|ICAO-KFCH
USW00023167|FRESNO CHANDLER DWTN AP|2021|08|13|05|50|36.7333|-119.8167|84.1|31.0||1|FM15-METAR|223|ICAO-KFCH|11.0||1|FM15-METAR|223|ICAO-KFCH|||||||||||||290|N-Normal|1|FM15-METAR|223|ICAO-KFCH|3.1|N-Normal|1|FM15-METAR|223|ICAO-KFCH|||||||||||||29|Derived||FM15-METAR|223|ICAO-KFCH|||||||||||||||||||||||||||||||||||||||||||||||||||||||||||||||||||||||||1012.5||1|FM15-METAR|223|ICAO-KFCH|||||||||||||||||||||||||||||||||||||||||||MET064METAR KFCH 130550Z AUTO 29006KT 10SM BKN070 31/11 A2990 RMK A01=||F||223|ICAO-KFCH
USW00023167|FRESNO CHANDLER DWTN AP|2021|08|13|06|15|36.7333|-119.8167|84.1|30.0||1|FM15-METAR|223|ICAO-KFCH|12.0||1|FM15-METAR|223|ICAO-KFCH|||||||||||||300|N-Normal|1|FM15-METAR|223|ICAO-KFCH|4.1|N-Normal|1|FM15-METAR|223|ICAO-KFCH|||||||||||||33|Derived||FM15-METAR|223|ICAO-KFCH|||||||||||||||||||||||||||||||||||||||||||||||||||||||||||||||||||||||||1012.9||1|FM15-METAR|223|ICAO-KFCH|||||||||||||||||||||||||||||||||||||||||||MET064METAR KFCH 130615Z AUTO 30008KT 10SM SCT075 30/12 A2991 RMK A01=||F||223|ICAO-KFCH
USW00023167|FRESNO CHANDLER DWTN AP|2021|08|13|06|35|36.7333|-119.8167|84.1|30.0||1|FM15-METAR|223|ICAO-KFCH|12.0||1|FM15-METAR|223|ICAO-KFCH|||||||||||||300|N-Normal|1|FM15-METAR|223|ICAO-KFCH|4.6|N-Normal|1|FM15-METAR|223|ICAO-KFCH|||||||||||||33|Derived||FM15-METAR|223|ICAO-KFCH|||||||||||||||||||||||||||||||||||||||||||||||||||||||||||||||||||||||||1012.9||1|FM15-METAR|223|ICAO-KFCH|||||||||||||||||||||||||||||||||||||||||||MET064METAR KFCH 130635Z AUTO 30009KT 10SM BKN075 30/12 A2991 RMK A01=||F||223|ICAO-KFCH
USW00023167|FRESNO CHANDLER DWTN AP|2021|08|13|06|55|36.7333|-119.8167|84.1|29.0||1|FM15-METAR|223|ICAO-KFCH|12.0||1|FM15-METAR|223|ICAO-KFCH|||||||||||||310|N-Normal|1|FM15-METAR|223|ICAO-KFCH|4.6|N-Normal|1|FM15-METAR|223|ICAO-KFCH|||||||||||||35|Derived||FM15-METAR|223|ICAO-KFCH|||||||||||||||||||||||||||||||||||||||||||||||||||||||||||||||||||||||||1012.9||1|FM15-METAR|223|ICAO-KFCH|||||||||||||||||||||||||||||||||||||||||||MET064METAR KFCH 130655Z AUTO 31009KT 10SM BKN075 29/12 A2991 RMK A01=||F||223|ICAO-KFCH
USW00023167|FRESNO CHANDLER DWTN AP|2021|08|13|07|15|36.7333|-119.8167|84.1|29.0||1|FM15-METAR|223|ICAO-KFCH|12.0||1|FM15-METAR|223|ICAO-KFCH|||||||||||||320|N-Normal|1|FM15-METAR|223|ICAO-KFCH|4.6|N-Normal|1|FM15-METAR|223|ICAO-KFCH|||||||||||||35|Derived||FM15-METAR|223|ICAO-KFCH|||||||||||||||||||||||||||||||||||||||||||||||||||||||||||||||||||||||||1012.9||1|FM15-METAR|223|ICAO-KFCH|||||||||||||||||||||||||||||||||||||||||||MET064METAR KFCH 130715Z AUTO 32009KT 10SM BKN075 29/12 A2991 RMK A01=||F||223|ICAO-KFCH
USW00023167|FRESNO CHANDLER DWTN AP|2021|08|13|07|35|36.7333|-119.8167|84.1|29.0||1|FM15-METAR|223|ICAO-KFCH|11.0||1|FM15-METAR|223|ICAO-KFCH|||||||||||||310|N-Normal|1|FM15-METAR|223|ICAO-KFCH|4.1|N-Normal|1|FM15-METAR|223|ICAO-KFCH|||||||||||||33|Derived||FM15-METAR|223|ICAO-KFCH|||||||||||||||||||||||||||||||||||||||||||||||||||||||||||||||||||||||||1013.2||1|FM15-METAR|223|ICAO-KFCH|||||||||||||||||||||||||||||||||||||||||||MET064METAR KFCH 130735Z AUTO 31008KT 10SM BKN080 29/11 A2992 RMK A01=||F||223|ICAO-KFCH
USW00023167|FRESNO CHANDLER DWTN AP|2021|08|13|07|55|36.7333|-119.8167|84.1|29.0||1|FM15-METAR|223|ICAO-KFCH|11.0||1|FM15-METAR|223|ICAO-KFCH|||||||||||||300|N-Normal|1|FM15-METAR|223|ICAO-KFCH|4.1|N-Normal|1|FM15-METAR|223|ICAO-KFCH|||||||||||||33|Derived||FM15-METAR|223|ICAO-KFCH|||||||||||||||||||||||||||||||||||||||||||||||||||||||||||||||||||||||||1013.2||1|FM15-METAR|223|ICAO-KFCH|||||||||||||||||||||||||||||||||||||||||||MET064METAR KFCH 130755Z AUTO 30008KT 10SM BKN080 29/11 A2992 RMK A01=||F||223|ICAO-KFCH
USW00023167|FRESNO CHANDLER DWTN AP|2021|08|13|08|15|36.7333|-119.8167|84.1|28.0||1|FM15-METAR|223|ICAO-KFCH|11.0||1|FM15-METAR|223|ICAO-KFCH|||||||||||||320|N-Normal|1|FM15-METAR|223|ICAO-KFCH|3.6|N-Normal|1|FM15-METAR|223|ICAO-KFCH|||||||||||||35|Derived||FM15-METAR|223|ICAO-KFCH|||||||||||||||||||||||||||||||||||||||||||||||||||||||||||||||||||||||||1013.5||1|FM15-METAR|223|ICAO-KFCH|||||||||||||||||||||||||||||||||||||||||||MET064METAR KFCH 130815Z AUTO 32007KT 10SM OVC080 28/11 A2993 RMK A01=||F||223|ICAO-KFCH
USW00023167|FRESNO CHANDLER DWTN AP|2021|08|13|08|30|36.7333|-119.8167|84.1|27.0||1|FM15-METAR|223|ICAO-KFCH|11.0||1|FM15-METAR|223|ICAO-KFCH|||||||||||||320|N-Normal|1|FM15-METAR|223|ICAO-KFCH|2.6|N-Normal|1|FM15-METAR|223|ICAO-KFCH|5.7||1|FM15-METAR|223|ICAO-KFCH|||||||37|Derived||FM15-METAR|223|ICAO-KFCH|||||||||||||||||||||||||||||||||||||||||||||||||||||||||||||||||||||||||1013.5||1|FM15-METAR|223|ICAO-KFCH|||||||||||||||||||||||||||||||||||||||||||MET067METAR KFCH 130830Z AUTO 32005G11KT 10SM BKN085 27/11 A2993 RMK A01=||F||223|ICAO-KFCH
USW00023167|FRESNO CHANDLER DWTN AP|2021|08|13|08|55|36.7333|-119.8167|84.1|26.0||1|FM15-METAR|223|ICAO-KFCH|11.0||1|FM15-METAR|223|ICAO-KFCH|||||||||||||310|N-Normal|1|FM15-METAR|223|ICAO-KFCH|2.1|N-Normal|1|FM15-METAR|223|ICAO-KFCH|||||||||||||39|Derived||FM15-METAR|223|ICAO-KFCH|||||||||||||||||||||||||||||||||||||||||||||||||||||||||||||||||||||||||1013.5||1|FM15-METAR|223|ICAO-KFCH|||||||||||||||||||||||||||||||||||||||||||MET064METAR KFCH 130855Z AUTO 31004KT 10SM BKN085 26/11 A2993 RMK A01=||F||223|ICAO-KFCH
USW00023167|FRESNO CHANDLER DWTN AP|2021|08|13|09|15|36.7333|-119.8167|84.1|26.0||1|FM15-METAR|223|ICAO-KFCH|11.0||1|FM15-METAR|223|ICAO-KFCH|||||||||||||340|N-Normal|1|FM15-METAR|223|ICAO-KFCH|2.1|N-Normal|1|FM15-METAR|223|ICAO-KFCH|||||||||||||39|Derived||FM15-METAR|223|ICAO-KFCH|||||||||||||||||||||||||||||||||||||||||||||||||||||||||||||||||||||||||1013.5||1|FM15-METAR|223|ICAO-KFCH|||||||||||||||||||||||||||||||||||||||||||MET064METAR KFCH 130915Z AUTO 34004KT 10SM OVC085 26/11 A2993 RMK A01=||F||223|ICAO-KFCH
USW00023167|FRESNO CHANDLER DWTN AP|2021|08|13|09|35|36.7333|-119.8167|84.1|26.0||1|FM15-METAR|223|ICAO-KFCH|10.0||1|FM15-METAR|223|ICAO-KFCH|||||||||||||330|N-Normal|1|FM15-METAR|223|ICAO-KFCH|2.1|N-Normal|1|FM15-METAR|223|ICAO-KFCH|||||||||||||37|Derived||FM15-METAR|223|ICAO-KFCH|||||||||||||||||||||||||||||||||||||||||||||||||||||||||||||||||||||||||1013.5||1|FM15-METAR|223|ICAO-KFCH|||||||||||||||||||||||||||||||||||||||||||MET064METAR KFCH 130935Z AUTO 33004KT 10SM OVC085 26/10 A2993 RMK A01=||F||223|ICAO-KFCH
USW00023167|FRESNO CHANDLER DWTN AP|2021|08|13|09|55|36.7333|-119.8167|84.1|26.0||1|FM15-METAR|223|ICAO-KFCH|10.0||1|FM15-METAR|223|ICAO-KFCH|||||||||||||330|N-Normal|1|FM15-METAR|223|ICAO-KFCH|2.6|N-Normal|1|FM15-METAR|223|ICAO-KFCH|||||||||||||37|Derived||FM15-METAR|223|ICAO-KFCH|||||||||||||||||||||||||||||||||||||||||||||||||||||||||||||||||||||||||1013.5||1|FM15-METAR|223|ICAO-KFCH|||||||||||||||||||||||||||||||||||||||||||MET064METAR KFCH 130955Z AUTO 33005KT 10SM OVC085 26/10 A2993 RMK A01=||F||223|ICAO-KFCH
USW00023167|FRESNO CHANDLER DWTN AP|2021|08|13|10|15|36.7333|-119.8167|84.1|26.0||1|FM15-METAR|223|ICAO-KFCH|9.0||1|FM15-METAR|223|ICAO-KFCH|||||||||||||330|N-Normal|1|FM15-METAR|223|ICAO-KFCH|1.5|N-Normal|1|FM15-METAR|223|ICAO-KFCH|||||||||||||34|Derived||FM15-METAR|223|ICAO-KFCH|||||||||||||||||||||||||||||||||||||||||||||||||||||||||||||||||||||||||1013.9||1|FM15-METAR|223|ICAO-KFCH|||||||||||||||||||||||||||||||||||||||||||MET064METAR KFCH 131015Z AUTO 33003KT 10SM OVC085 26/09 A2994 RMK A01=||F||223|ICAO-KFCH
USW00023167|FRESNO CHANDLER DWTN AP|2021|08|13|10|35|36.7333|-119.8167|84.1|26.0||1|FM15-METAR|223|ICAO-KFCH|9.0||1|FM15-METAR|223|ICAO-KFCH|||||||||||||320|N-Normal|1|FM15-METAR|223|ICAO-KFCH|3.1|N-Normal|1|FM15-METAR|223|ICAO-KFCH|||||||||||||34|Derived||FM15-METAR|223|ICAO-KFCH|||||||||||||||||||||||||||||||||||||||||||||||||||||||||||||||||||||||||1013.5||1|FM15-METAR|223|ICAO-KFCH|||||||||||||||||||||||||||||||||||||||||||MET064METAR KFCH 131035Z AUTO 32006KT 10SM OVC085 26/09 A2993 RMK A01=||F||223|ICAO-KFCH
USW00023167|FRESNO CHANDLER DWTN AP|2021|08|13|10|55|36.7333|-119.8167|84.1|26.0||1|FM15-METAR|223|ICAO-KFCH|10.0||1|FM15-METAR|223|ICAO-KFCH|||||||||||||310|N-Normal|1|FM15-METAR|223|ICAO-KFCH|2.1|N-Normal|1|FM15-METAR|223|ICAO-KFCH|||||||||||||37|Derived||FM15-METAR|223|ICAO-KFCH|||||||||||||||||||||||||||||||||||||||||||||||||||||||||||||||||||||||||1013.5||1|FM15-METAR|223|ICAO-KFCH|||||||||||||||||||||||||||||||||||||||||||MET064METAR KFCH 131055Z AUTO 31004KT 10SM OVC085 26/10 A2993 RMK A01=||F||223|ICAO-KFCH
USW00023167|FRESNO CHANDLER DWTN AP|2021|08|13|11|15|36.7333|-119.8167|84.1|26.0||1|FM15-METAR|223|ICAO-KFCH|9.0||1|FM15-METAR|223|ICAO-KFCH|||||||||||||290|N-Normal|1|FM15-METAR|223|ICAO-KFCH|3.1|N-Normal|1|FM15-METAR|223|ICAO-KFCH|||||||||||||34|Derived||FM15-METAR|223|ICAO-KFCH|||||||||||||||||||||||||||||||||||||||||||||||||||||||||||||||||||||||||1013.9||1|FM15-METAR|223|ICAO-KFCH|||||||||||||||||||||||||||||||||||||||||||MET064METAR KFCH 131115Z AUTO 29006KT 10SM OVC090 26/09 A2994 RMK A01=||F||223|ICAO-KFCH
USW00023167|FRESNO CHANDLER DWTN AP|2021|08|13|11|35|36.7333|-119.8167|84.1|25.0||1|FM15-METAR|223|ICAO-KFCH|9.0||1|FM15-METAR|223|ICAO-KFCH|||||||||||||310|N-Normal|1|FM15-METAR|223|ICAO-KFCH|3.1|N-Normal|1|FM15-METAR|223|ICAO-KFCH|||||||||||||36|Derived||FM15-METAR|223|ICAO-KFCH|||||||||||||||||||||||||||||||||||||||||||||||||||||||||||||||||||||||||1013.9||1|FM15-METAR|223|ICAO-KFCH|||||||||||||||||||||||||||||||||||||||||||MET064METAR KFCH 131135Z AUTO 31006KT 10SM BKN090 25/09 A2994 RMK A01=||F||223|ICAO-KFCH
USW00023167|FRESNO CHANDLER DWTN AP|2021|08|13|11|55|36.7333|-119.8167|84.1|25.0||1|FM15-METAR|223|ICAO-KFCH|9.0||1|FM15-METAR|223|ICAO-KFCH|||||||||||||320|N-Normal|1|FM15-METAR|223|ICAO-KFCH|1.5|N-Normal|1|FM15-METAR|223|ICAO-KFCH|||||||||||||36|Derived||FM15-METAR|223|ICAO-KFCH|||||||||||||||||||||||||||||||||||||||||||||||||||||||||||||||||||||||||1013.9||1|FM15-METAR|223|ICAO-KFCH|||||||||||||||||||||||||||||||||||||||||||MET064METAR KFCH 131155Z AUTO 32003KT 10SM BKN090 25/09 A2994 RMK A01=||F||223|ICAO-KFCH
USW00023167|FRESNO CHANDLER DWTN AP|2021|08|13|12|15|36.7333|-119.8167|84.1|25.0||1|FM15-METAR|223|ICAO-KFCH|9.0||1|FM15-METAR|223|ICAO-KFCH|||||||||||||999|C-Calm|9|FM15-METAR|223|ICAO-KFCH|0.0|C-Calm|1|FM15-METAR|223|ICAO-KFCH|||||||||||||36|Derived||FM15-METAR|223|ICAO-KFCH|||||||||||||||||||||||||||||||||||||||||||||||||||||||||||||||||||||||||1013.9||1|FM15-METAR|223|ICAO-KFCH|||||||||||||||||||||||||||||||||||||||||||MET064METAR KFCH 131215Z AUTO 00000KT 10SM SCT090 25/09 A2994 RMK A01=||F||223|ICAO-KFCH
USW00023167|FRESNO CHANDLER DWTN AP|2021|08|13|12|30|36.7333|-119.8167|84.1|25.0||1|FM15-METAR|223|ICAO-KFCH|9.0||1|FM15-METAR|223|ICAO-KFCH|||||||||||||330|N-Normal|1|FM15-METAR|223|ICAO-KFCH|2.1|N-Normal|1|FM15-METAR|223|ICAO-KFCH|||||||||||||36|Derived||FM15-METAR|223|ICAO-KFCH|||||||||||||||||||||||||||||||||||||||||||||||||||||||||||||||||||||||||1013.9||1|FM15-METAR|223|ICAO-KFCH|||||||||||||||||||||||||||||||||||||||||||MET064METAR KFCH 131230Z AUTO 33004KT 10SM FEW090 25/09 A2994 RMK A01=||F||223|ICAO-KFCH
USW00023167|FRESNO CHANDLER DWTN AP|2021|08|13|12|55|36.7333|-119.8167|84.1|24.0||1|FM15-METAR|223|ICAO-KFCH|9.0||1|FM15-METAR|223|ICAO-KFCH|||||||||||||340|N-Normal|1|FM15-METAR|223|ICAO-KFCH|1.5|N-Normal|1|FM15-METAR|223|ICAO-KFCH|||||||||||||39|Derived||FM15-METAR|223|ICAO-KFCH|||||||||||||||||||||||||||||||||||||||||||||||||||||||||||||||||||||||||1014.2||1|FM15-METAR|223|ICAO-KFCH|||||||||||||||||||||||||||||||||||||||||||MET061METAR KFCH 131255Z AUTO 34003KT 10SM CLR 24/09 A2995 RMK A01=||F||223|ICAO-KFCH
USW00023167|FRESNO CHANDLER DWTN AP|2021|08|13|13|15|36.7333|-119.8167|84.1|24.0||1|FM15-METAR|223|ICAO-KFCH|9.0||1|FM15-METAR|223|ICAO-KFCH|||||||||||||020|N-Normal|1|FM15-METAR|223|ICAO-KFCH|1.5|N-Normal|1|FM15-METAR|223|ICAO-KFCH|||||||||||||39|Derived||FM15-METAR|223|ICAO-KFCH|||||||||||||||||||||||||||||||||||||||||||||||||||||||||||||||||||||||||1014.6||1|FM15-METAR|223|ICAO-KFCH|||||||||||||||||||||||||||||||||||||||||||MET060METAR KFCH 131315Z AUTO 02003KT 7SM CLR 24/09 A2996 RMK A01=||F||223|ICAO-KFCH
USW00023167|FRESNO CHANDLER DWTN AP|2021|08|13|13|35|36.7333|-119.8167|84.1|24.0||1|FM15-METAR|223|ICAO-KFCH|9.0||1|FM15-METAR|223|ICAO-KFCH|||||||||||||999|C-Calm|9|FM15-METAR|223|ICAO-KFCH|0.0|C-Calm|1|FM15-METAR|223|ICAO-KFCH|||||||||||||39|Derived||FM15-METAR|223|ICAO-KFCH|||||||||||||||||||||||||||||||||||||||||||||||||||||||||||||||||||||||||1014.6||1|FM15-METAR|223|ICAO-KFCH|||||||||||||||||||||||||||||||||||||||||||MET061METAR KFCH 131335Z AUTO 00000KT 10SM CLR 24/09 A2996 RMK A01=||F||223|ICAO-KFCH
USW00023167|FRESNO CHANDLER DWTN AP|2021|08|13|13|55|36.7333|-119.8167|84.1|24.0||1|FM15-METAR|223|ICAO-KFCH|10.0||1|FM15-METAR|223|ICAO-KFCH|||||||||||||999|C-Calm|9|FM15-METAR|223|ICAO-KFCH|0.0|C-Calm|1|FM15-METAR|223|ICAO-KFCH|||||||||||||41|Derived||FM15-METAR|223|ICAO-KFCH|||||||||||||||||||||||||||||||||||||||||||||||||||||||||||||||||||||||||1014.9||1|FM15-METAR|223|ICAO-KFCH|||||||||||||||||||||||||||||||||||||||||||MET063METAR KFCH 131355Z AUTO 00000KT 6SM HZ CLR 24/10 A2997 RMK A01=||F||223|ICAO-KFCH
USW00023167|FRESNO CHANDLER DWTN AP|2021|08|13|14|15|36.7333|-119.8167|84.1|25.0||1|FM15-METAR|223|ICAO-KFCH|10.0||1|FM15-METAR|223|ICAO-KFCH|||||||||||||999|C-Calm|9|FM15-METAR|223|ICAO-KFCH|0.0|C-Calm|1|FM15-METAR|223|ICAO-KFCH|||||||||||||39|Derived||FM15-METAR|223|ICAO-KFCH|||||||||||||||||||||||||||||||||||||||||||||||||||||||||||||||||||||||||1015.2||1|FM15-METAR|223|ICAO-KFCH|||||||||||||||||||||||||||||||||||||||||||MET061METAR KFCH 131415Z AUTO 00000KT 10SM CLR 25/10 A2998 RMK A01=||F||223|ICAO-KFCH
USW00023167|FRESNO CHANDLER DWTN AP|2021|08|13|14|35|36.7333|-119.8167|84.1|25.0||1|FM15-METAR|223|ICAO-KFCH|10.0||1|FM15-METAR|223|ICAO-KFCH|||||||||||||999|C-Calm|9|FM15-METAR|223|ICAO-KFCH|0.0|C-Calm|1|FM15-METAR|223|ICAO-KFCH|||||||||||||39|Derived||FM15-METAR|223|ICAO-KFCH|||||||||||||||||||||||||||||||||||||||||||||||||||||||||||||||||||||||||1015.6||1|FM15-METAR|223|ICAO-KFCH|||||||||||||||||||||||||||||||||||||||||||MET061METAR KFCH 131435Z AUTO 00000KT 10SM CLR 25/10 A2999 RMK A01=||F||223|ICAO-KFCH
USW00023167|FRESNO CHANDLER DWTN AP|2021|08|13|14|55|36.7333|-119.8167|84.1|25.0||1|FM15-METAR|223|ICAO-KFCH|10.0||1|FM15-METAR|223|ICAO-KFCH|||||||||||||300|N-Normal|1|FM15-METAR|223|ICAO-KFCH|2.1|N-Normal|1|FM15-METAR|223|ICAO-KFCH|||||||||||||39|Derived||FM15-METAR|223|ICAO-KFCH|||||||||||||||||||||||||||||||||||||||||||||||||||||||||||||||||||||||||1015.2||1|FM15-METAR|223|ICAO-KFCH|||||||||||||||||||||||||||||||||||||||||||MET060METAR KFCH 131455Z AUTO 30004KT 9SM CLR 25/10 A2998 RMK A01=||F||223|ICAO-KFCH
USW00023167|FRESNO CHANDLER DWTN AP|2021|08|13|15|15|36.7333|-119.8167|84.1|26.0||1|FM15-METAR|223|ICAO-KFCH|10.0||1|FM15-METAR|223|ICAO-KFCH|||||||||||||300|N-Normal|1|FM15-METAR|223|ICAO-KFCH|1.5|N-Normal|1|FM15-METAR|223|ICAO-KFCH|||||||||||||37|Derived||FM15-METAR|223|ICAO-KFCH|||||||||||||||||||||||||||||||||||||||||||||||||||||||||||||||||||||||||1015.6||1|FM15-METAR|223|ICAO-KFCH|||||||||||||||||||||||||||||||||||||||||||MET061METAR KFCH 131515Z AUTO 30003KT 10SM CLR 26/10 A2999 RMK A01=||F||223|ICAO-KFCH
USW00023167|FRESNO CHANDLER DWTN AP|2021|08|13|15|30|36.7333|-119.8167|84.1|26.0||1|FM15-METAR|223|ICAO-KFCH|11.0||1|FM15-METAR|223|ICAO-KFCH|||||||||||||300|N-Normal|1|FM15-METAR|223|ICAO-KFCH|2.6|N-Normal|1|FM15-METAR|223|ICAO-KFCH|||||||||||||39|Derived||FM15-METAR|223|ICAO-KFCH|||||||||||||||||||||||||||||||||||||||||||||||||||||||||||||||||||||||||1015.6||1|FM15-METAR|223|ICAO-KFCH|||||||||||||||||||||||||||||||||||||||||||MET061METAR KFCH 131530Z AUTO 30005KT 10SM CLR 26/11 A2999 RMK A01=||F||223|ICAO-KFCH
USW00023167|FRESNO CHANDLER DWTN AP|2021|08|13|15|55|36.7333|-119.8167|84.1|27.0||1|FM15-METAR|223|ICAO-KFCH|11.0||1|FM15-METAR|223|ICAO-KFCH|||||||||||||999|C-Calm|9|FM15-METAR|223|ICAO-KFCH|0.0|C-Calm|1|FM15-METAR|223|ICAO-KFCH|||||||||||||37|Derived||FM15-METAR|223|ICAO-KFCH|||||||||||||||||||||||||||||||||||||||||||||||||||||||||||||||||||||||||1015.6||1|FM15-METAR|223|ICAO-KFCH|||||||||||||||||||||||||||||||||||||||||||MET060METAR KFCH 131555Z AUTO 00000KT 9SM CLR 27/11 A2999 RMK A01=||F||223|ICAO-KFCH
USW00023167|FRESNO CHANDLER DWTN AP|2021|08|13|16|15|36.7333|-119.8167|84.1|28.0||1|FM15-METAR|223|ICAO-KFCH|11.0||1|FM15-METAR|223|ICAO-KFCH|||||||||||||290|N-Normal|1|FM15-METAR|223|ICAO-KFCH|1.5|N-Normal|1|FM15-METAR|223|ICAO-KFCH|||||||||||||35|Derived||FM15-METAR|223|ICAO-KFCH|||||||||||||||||||||||||||||||||||||||||||||||||||||||||||||||||||||||||1015.6||1|FM15-METAR|223|ICAO-KFCH|||||||||||||||||||||||||||||||||||||||||||MET061METAR KFCH 131615Z AUTO 29003KT 10SM CLR 28/11 A2999 RMK A01=||F||223|ICAO-KFCH
USW00023167|FRESNO CHANDLER DWTN AP|2021|08|13|16|35|36.7333|-119.8167|84.1|30.0||1|FM15-METAR|223|ICAO-KFCH|11.0||1|FM15-METAR|223|ICAO-KFCH|||||||||||||330|N-Normal|1|FM15-METAR|223|ICAO-KFCH|2.1|N-Normal|1|FM15-METAR|223|ICAO-KFCH|||||||||||||31|Derived||FM15-METAR|223|ICAO-KFCH|||||||||||||||||||||||||||||||||||||||||||||||||||||||||||||||||||||||||1015.6||1|FM15-METAR|223|ICAO-KFCH|||||||||||||||||||||||||||||||||||||||||||MET061METAR KFCH 131635Z AUTO 33004KT 10SM CLR 30/11 A2999 RMK A01=||F||223|ICAO-KFCH
USW00023167|FRESNO CHANDLER DWTN AP|2021|08|13|16|55|36.7333|-119.8167|84.1|31.0||1|FM15-METAR|223|ICAO-KFCH|11.0||1|FM15-METAR|223|ICAO-KFCH|||||||||||||999|V-Variable|9|FM15-METAR|223|ICAO-KFCH|2.1|V-Variable|1|FM15-METAR|223|ICAO-KFCH|||||||||||||29|Derived||FM15-METAR|223|ICAO-KFCH|||||||||||||||||||||||||||||||||||||||||||||||||||||||||||||||||||||||||1015.6||1|FM15-METAR|223|ICAO-KFCH|||||||||||||||||||||||||||||||||||||||||||MET061METAR KFCH 131655Z AUTO VRB04KT 10SM CLR 31/11 A2999 RMK A01=||F||223|ICAO-KFCH
USW00023167|FRESNO CHANDLER DWTN AP|2021|08|13|17|15|36.7333|-119.8167|84.1|31.0||1|FM15-METAR|223|ICAO-KFCH|10.0||1|FM15-METAR|223|ICAO-KFCH|||||||||||||330|N-Normal|1|FM15-METAR|223|ICAO-KFCH|2.6|N-Normal|1|FM15-METAR|223|ICAO-KFCH|||||||||||||27|Derived||FM15-METAR|223|ICAO-KFCH|||||||||||||||||||||||||||||||||||||||||||||||||||||||||||||||||||||||||1015.6||1|FM15-METAR|223|ICAO-KFCH|||||||||||||||||||||||||||||||||||||||||||MET061METAR KFCH 131715Z AUTO 33005KT 10SM CLR 31/10 A2999 RMK A01=||F||223|ICAO-KFCH
USW00023167|FRESNO CHANDLER DWTN AP|2021|08|13|17|35|36.7333|-119.8167|84.1|32.0||1|FM15-METAR|223|ICAO-KFCH|10.0||1|FM15-METAR|223|ICAO-KFCH|||||||||||||340|N-Normal|1|FM15-METAR|223|ICAO-KFCH|3.1|N-Normal|1|FM15-METAR|223|ICAO-KFCH|||||||||||||26|Derived||FM15-METAR|223|ICAO-KFCH|||||||||||||||||||||||||||||||||||||||||||||||||||||||||||||||||||||||||1015.6||1|FM15-METAR|223|ICAO-KFCH|||||||||||||||||||||||||||||||||||||||||||MET061METAR KFCH 131735Z AUTO 34006KT 10SM CLR 32/10 A2999 RMK A01=||F||223|ICAO-KFCH
USW00023167|FRESNO CHANDLER DWTN AP|2021|08|13|17|55|36.7333|-119.8167|84.1|33.0||1|FM15-METAR|223|ICAO-KFCH|10.0||1|FM15-METAR|223|ICAO-KFCH|||||||||||||310|N-Normal|1|FM15-METAR|223|ICAO-KFCH|3.6|N-Normal|1|FM15-METAR|223|ICAO-KFCH|6.7||1|FM15-METAR|223|ICAO-KFCH|||||||24|Derived||FM15-METAR|223|ICAO-KFCH|||||||||||||||||||||||||||||||||||||||||||||||||||||||||||||||||||||||||1015.6||1|FM15-METAR|223|ICAO-KFCH|||||||||||||||||||||||||||||||||||||||||||MET063METAR KFCH 131755Z AUTO 31007G13KT 9SM CLR 33/10 A2999 RMK A01=||F||223|ICAO-KFCH
USW00023167|FRESNO CHANDLER DWTN AP|2021|08|13|18|15|36.7333|-119.8167|84.1|33.0||1|FM15-METAR|223|ICAO-KFCH|9.0||1|FM15-METAR|223|ICAO-KFCH|||||||||||||340|N-Normal|1|FM15-METAR|223|ICAO-KFCH|2.6|N-Normal|1|FM15-METAR|223|ICAO-KFCH|||||||||||||23|Derived||FM15-METAR|223|ICAO-KFCH|||||||||||||||||||||||||||||||||||||||||||||||||||||||||||||||||||||||||1015.9||1|FM15-METAR|223|ICAO-KFCH|||||||||||||||||||||||||||||||||||||||||||MET061METAR KFCH 131815Z AUTO 34005KT 10SM CLR 33/09 A3000 RMK A01=||F||223|ICAO-KFCH
USW00023167|FRESNO CHANDLER DWTN AP|2021|08|13|18|30|36.7333|-119.8167|84.1|34.0||1|FM15-METAR|223|ICAO-KFCH|10.0||1|FM15-METAR|223|ICAO-KFCH|||||||||||||300|N-Normal|1|FM15-METAR|223|ICAO-KFCH|3.1|N-Normal|1|FM15-METAR|223|ICAO-KFCH|||||||||||||23|Derived||FM15-METAR|223|ICAO-KFCH|||||||||||||||||||||||||||||||||||||||||||||||||||||||||||||||||||||||||1015.6||1|FM15-METAR|223|ICAO-KFCH|||||||||||||||||||||||||||||||||||||||||||MET060METAR KFCH 131830Z AUTO 30006KT 9SM CLR 34/10 A2999 RMK A01=||F||223|ICAO-KFCH
USW00023167|FRESNO CHANDLER DWTN AP|2021|08|13|18|55|36.7333|-119.8167|84.1|35.0||1|FM15-METAR|223|ICAO-KFCH|9.0||1|FM15-METAR|223|ICAO-KFCH|||||||||||||300|V-Variable|1|FM15-METAR|223|ICAO-KFCH|4.1|V-Variable|1|FM15-METAR|223|ICAO-KFCH|||||||||||||20|Derived||FM15-METAR|223|ICAO-KFCH|||||||||||||||||||||||||||||||||||||||||||||||||||||||||||||||||||||||||1015.2||1|FM15-METAR|223|ICAO-KFCH|||||||||||||||||||||||||||||||||||||||||||MET068METAR KFCH 131855Z AUTO 30008KT 280V340 9SM CLR 35/09 A2998 RMK A01=||F||223|ICAO-KFCH
USW00023167|FRESNO CHANDLER DWTN AP|2021|08|13|19|15|36.7333|-119.8167|84.1|35.0||1|FM15-METAR|223|ICAO-KFCH|8.0||1|FM15-METAR|223|ICAO-KFCH|||||||||||||999|V-Variable|9|FM15-METAR|223|ICAO-KFCH|2.1|V-Variable|1|FM15-METAR|223|ICAO-KFCH|6.2||1|FM15-METAR|223|ICAO-KFCH|||||||19|Derived||FM15-METAR|223|ICAO-KFCH|||||||||||||||||||||||||||||||||||||||||||||||||||||||||||||||||||||||||1015.2||1|FM15-METAR|223|ICAO-KFCH|||||||||||||||||||||||||||||||||||||||||||MET064METAR KFCH 131915Z AUTO VRB04G12KT 10SM CLR 35/08 A2998 RMK A01=||F||223|ICAO-KFCH
USW00023167|FRESNO CHANDLER DWTN AP|2021|08|13|19|35|36.7333|-119.8167|84.1|35.0||1|FM15-METAR|223|ICAO-KFCH|9.0||1|FM15-METAR|223|ICAO-KFCH|||||||||||||290|V-Variable|1|FM15-METAR|223|ICAO-KFCH|4.6|V-Variable|1|FM15-METAR|223|ICAO-KFCH|||||||||||||20|Derived||FM15-METAR|223|ICAO-KFCH|||||||||||||||||||||||||||||||||||||||||||||||||||||||||||||||||||||||||1014.9||1|FM15-METAR|223|ICAO-KFCH|||||||||||||||||||||||||||||||||||||||||||MET068METAR KFCH 131935Z AUTO 29009KT 250V310 9SM CLR 35/09 A2997 RMK A01=||F||223|ICAO-KFCH
USW00023167|FRESNO CHANDLER DWTN AP|2021|08|13|19|55|36.7333|-119.8167|84.1|36.0||1|FM15-METAR|223|ICAO-KFCH|9.0||1|FM15-METAR|223|ICAO-KFCH|||||||||||||310|N-Normal|1|FM15-METAR|223|ICAO-KFCH|4.1|N-Normal|1|FM15-METAR|223|ICAO-KFCH|||||||||||||19|Derived||FM15-METAR|223|ICAO-KFCH|||||||||||||||||||||||||||||||||||||||||||||||||||||||||||||||||||||||||1014.9||1|FM15-METAR|223|ICAO-KFCH|||||||||||||||||||||||||||||||||||||||||||MET060METAR KFCH 131955Z AUTO 31008KT 9SM CLR 36/09 A2997 RMK A01=||F||223|ICAO-KFCH
USW00023167|FRESNO CHANDLER DWTN AP|2021|08|13|20|15|36.7333|-119.8167|84.1|36.0||1|FM15-METAR|223|ICAO-KFCH|8.0||1|FM15-METAR|223|ICAO-KFCH|||||||||||||280|N-Normal|1|FM15-METAR|223|ICAO-KFCH|4.1|N-Normal|1|FM15-METAR|223|ICAO-KFCH|||||||||||||18|Derived||FM15-METAR|223|ICAO-KFCH|||||||||||||||||||||||||||||||||||||||||||||||||||||||||||||||||||||||||1014.9||1|FM15-METAR|223|ICAO-KFCH|||||||||||||||||||||||||||||||||||||||||||MET061METAR KFCH 132015Z AUTO 28008KT 10SM CLR 36/08 A2997 RMK A01=||F||223|ICAO-KFCH
USW00023167|FRESNO CHANDLER DWTN AP|2021|08|13|20|35|36.7333|-119.8167|84.1|37.0||1|FM15-METAR|223|ICAO-KFCH|9.0||1|FM15-METAR|223|ICAO-KFCH|||||||||||||300|N-Normal|1|FM15-METAR|223|ICAO-KFCH|4.1|N-Normal|1|FM15-METAR|223|ICAO-KFCH|||||||||||||18|Derived||FM15-METAR|223|ICAO-KFCH|||||||||||||||||||||||||||||||||||||||||||||||||||||||||||||||||||||||||1014.6||1|FM15-METAR|223|ICAO-KFCH|||||||||||||||||||||||||||||||||||||||||||MET061METAR KFCH 132035Z AUTO 30008KT 10SM CLR 37/09 A2996 RMK A01=||F||223|ICAO-KFCH
USW00023167|FRESNO CHANDLER DWTN AP|2021|08|13|20|55|36.7333|-119.8167|84.1|37.0||1|FM15-METAR|223|ICAO-KFCH|9.0||1|FM15-METAR|223|ICAO-KFCH|||||||||||||999|C-Calm|9|FM15-METAR|223|ICAO-KFCH|0.0|C-Calm|1|FM15-METAR|223|ICAO-KFCH|6.2||1|FM15-METAR|223|ICAO-KFCH|||||||18|Derived||FM15-METAR|223|ICAO-KFCH|||||||||||||||||||||||||||||||||||||||||||||||||||||||||||||||||||||||||1014.6||1|FM15-METAR|223|ICAO-KFCH|||||||||||||||||||||||||||||||||||||||||||MET063METAR KFCH 132055Z AUTO 00000G12KT 9SM CLR 37/09 A2996 RMK A01=||F||223|ICAO-KFCH
USW00023167|FRESNO CHANDLER DWTN AP|2021|08|13|21|10|36.7333|-119.8167|84.1|37.0||1|FM15-METAR|223|ICAO-KFCH|9.0||1|FM15-METAR|223|ICAO-KFCH|||||||||||||999|C-Calm|9|FM15-METAR|223|ICAO-KFCH|0.0|C-Calm|1|FM15-METAR|223|ICAO-KFCH|||||||||||||18|Derived||FM15-METAR|223|ICAO-KFCH|||||||||||||||||||||||||||||||||||||||||||||||||||||||||||||||||||||||||1014.6||1|FM15-METAR|223|ICAO-KFCH|||||||||||||||||||||||||||||||||||||||||||MET061METAR KFCH 132110Z AUTO 00000KT 10SM CLR 37/09 A2996 RMK A01=||F||223|ICAO-KFCH
USW00023167|FRESNO CHANDLER DWTN AP|2021|08|13|21|35|36.7333|-119.8167|84.1|38.0||1|FM15-METAR|223|ICAO-KFCH|8.0||1|FM15-METAR|223|ICAO-KFCH|||||||||||||999|V-Variable|9|FM15-METAR|223|ICAO-KFCH|3.1|V-Variable|1|FM15-METAR|223|ICAO-KFCH|||||||||||||16|Derived||FM15-METAR|223|ICAO-KFCH|||||||||||||||||||||||||||||||||||||||||||||||||||||||||||||||||||||||||1014.2||1|FM15-METAR|223|ICAO-KFCH|||||||||||||||||||||||||||||||||||||||||||MET061METAR KFCH 132135Z AUTO VRB06KT 10SM CLR 38/08 A2995 RMK A01=||F||223|ICAO-KFCH
USW00023167|FRESNO CHANDLER DWTN AP|2021|08|13|21|55|36.7333|-119.8167|84.1|37.0||1|FM15-METAR|223|ICAO-KFCH|8.0||1|FM15-METAR|223|ICAO-KFCH|||||||||||||999|V-Variable|9|FM15-METAR|223|ICAO-KFCH|3.1|V-Variable|1|FM15-METAR|223|ICAO-KFCH|5.7||1|FM15-METAR|223|ICAO-KFCH|||||||17|Derived||FM15-METAR|223|ICAO-KFCH|||||||||||||||||||||||||||||||||||||||||||||||||||||||||||||||||||||||||1014.2||1|FM15-METAR|223|ICAO-KFCH|||||||||||||||||||||||||||||||||||||||||||MET064METAR KFCH 132155Z AUTO VRB06G11KT 10SM CLR 37/08 A2995 RMK A01=||F||223|ICAO-KFCH
USW00023167|FRESNO CHANDLER DWTN AP|2021|08|13|22|35|36.7333|-119.8167|84.1|38.0||1|FM15-METAR|223|ICAO-KFCH|9.0||1|FM15-METAR|223|ICAO-KFCH|||||||||||||290|N-Normal|1|FM15-METAR|223|ICAO-KFCH|2.6|N-Normal|1|FM15-METAR|223|ICAO-KFCH|5.7||1|FM15-METAR|223|ICAO-KFCH|||||||17|Derived||FM15-METAR|223|ICAO-KFCH|||||||||||||||||||||||||||||||||||||||||||||||||||||||||||||||||||||||||1013.9||1|FM15-METAR|223|ICAO-KFCH|||||||||||||||||||||||||||||||||||||||||||MET064METAR KFCH 132235Z AUTO 29005G11KT 10SM CLR 38/09 A2994 RMK A01=||F||223|ICAO-KFCH
USW00023167|FRESNO CHANDLER DWTN AP|2021|08|13|22|55|36.7333|-119.8167|84.1|38.0||1|FM15-METAR|223|ICAO-KFCH|10.0||1|FM15-METAR|223|ICAO-KFCH|||||||||||||300|N-Normal|1|FM15-METAR|223|ICAO-KFCH|3.6|N-Normal|1|FM15-METAR|223|ICAO-KFCH|6.2||1|FM15-METAR|223|ICAO-KFCH|||||||18|Derived||FM15-METAR|223|ICAO-KFCH|||||||||||||||||||||||||||||||||||||||||||||||||||||||||||||||||||||||||1013.9||1|FM15-METAR|223|ICAO-KFCH|||||||||||||||||||||||||||||||||||||||||||MET064METAR KFCH 132255Z AUTO 30007G12KT 10SM CLR 38/10 A2994 RMK A01=||F||223|ICAO-KFCH
USW00023167|FRESNO CHANDLER DWTN AP|2021|08|13|23|15|36.7333|-119.8167|84.1|39.0||1|FM15-METAR|223|ICAO-KFCH|10.0||1|FM15-METAR|223|ICAO-KFCH|||||||||||||320|N-Normal|1|FM15-METAR|223|ICAO-KFCH|5.1|N-Normal|1|FM15-METAR|223|ICAO-KFCH|8.2||1|FM15-METAR|223|ICAO-KFCH|||||||17|Derived||FM15-METAR|223|ICAO-KFCH|||||||||||||||||||||||||||||||||||||||||||||||||||||||||||||||||||||||||1013.5||1|FM15-METAR|223|ICAO-KFCH|||||||||||||||||||||||||||||||||||||||||||MET064METAR KFCH 132315Z AUTO 32010G16KT 10SM CLR 39/10 A2993 RMK A01=||F||223|ICAO-KFCH
USW00023167|FRESNO CHANDLER DWTN AP|2021|08|13|23|35|36.7333|-119.8167|84.1|39.0||1|FM15-METAR|223|ICAO-KFCH|10.0||1|FM15-METAR|223|ICAO-KFCH|||||||||||||310|N-Normal|1|FM15-METAR|223|ICAO-KFCH|4.1|N-Normal|1|FM15-METAR|223|ICAO-KFCH|||||||||||||17|Derived||FM15-METAR|223|ICAO-KFCH|||||||||||||||||||||||||||||||||||||||||||||||||||||||||||||||||||||||||1013.5||1|FM15-METAR|223|ICAO-KFCH|||||||||||||||||||||||||||||||||||||||||||MET061METAR KFCH 132335Z AUTO 31008KT 10SM CLR 39/10 A2993 RMK A01=||F||223|ICAO-KFCH
USW00023167|FRESNO CHANDLER DWTN AP|2021|08|13|23|50|36.7333|-119.8167|84.1|39.0||1|FM15-METAR|223|ICAO-KFCH|10.0||1|FM15-METAR|223|ICAO-KFCH|||||||||||||310|N-Normal|1|FM15-METAR|223|ICAO-KFCH|6.2|N-Normal|1|FM15-METAR|223|ICAO-KFCH|||||||||||||17|Derived||FM15-METAR|223|ICAO-KFCH|||||||||||||||||||||||||||||||||||||||||||||||||||||||||||||||||||||||||1013.5||1|FM15-METAR|223|ICAO-KFCH|||||||||||||||||||||||||||||||||||||||||||MET061METAR KFCH 132350Z AUTO 31012KT 10SM CLR 39/10 A2993 RMK A01=||F||223|ICAO-KFCH
USW00023167|FRESNO CHANDLER DWTN AP|2021|08|14|00|15|36.7333|-119.8167|84.1|39.0||1|FM15-METAR|223|ICAO-KFCH|9.0||1|FM15-METAR|223|ICAO-KFCH|||||||||||||300|N-Normal|1|FM15-METAR|223|ICAO-KFCH|7.2|N-Normal|1|FM15-METAR|223|ICAO-KFCH|||||||||||||16|Derived||FM15-METAR|223|ICAO-KFCH|||||||||||||||||||||||||||||||||||||||||||||||||||||||||||||||||||||||||1013.2||1|FM15-METAR|223|ICAO-KFCH|||||||||||||||||||||||||||||||||||||||||||MET061METAR KFCH 140015Z AUTO 30014KT 10SM CLR 39/09 A2992 RMK A01=||F||223|ICAO-KFCH
USW00023167|FRESNO CHANDLER DWTN AP|2021|08|14|00|35|36.7333|-119.8167|84.1|38.0||1|FM15-METAR|223|ICAO-KFCH|9.0||1|FM15-METAR|223|ICAO-KFCH|||||||||||||300|N-Normal|1|FM15-METAR|223|ICAO-KFCH|6.2|N-Normal|1|FM15-METAR|223|ICAO-KFCH|||||||||||||17|Derived||FM15-METAR|223|ICAO-KFCH|||||||||||||||||||||||||||||||||||||||||||||||||||||||||||||||||||||||||1013.2||1|FM15-METAR|223|ICAO-KFCH|||||||||||||||||||||||||||||||||||||||||||MET061METAR KFCH 140035Z AUTO 30012KT 10SM CLR 38/09 A2992 RMK A01=||F||223|ICAO-KFCH
USW00023167|FRESNO CHANDLER DWTN AP|2021|08|14|00|55|36.7333|-119.8167|84.1|38.0||1|FM15-METAR|223|ICAO-KFCH|9.0||1|FM15-METAR|223|ICAO-KFCH|||||||||||||300|N-Normal|1|FM15-METAR|223|ICAO-KFCH|5.1|N-Normal|1|FM15-METAR|223|ICAO-KFCH|||||||||||||17|Derived||FM15-METAR|223|ICAO-KFCH|||||||||||||||||||||||||||||||||||||||||||||||||||||||||||||||||||||||||1013.2||1|FM15-METAR|223|ICAO-KFCH|||||||||||||||||||||||||||||||||||||||||||MET061METAR KFCH 140055Z AUTO 30010KT 10SM CLR 38/09 A2992 RMK A01=||F||223|ICAO-KFCH
USW00023167|FRESNO CHANDLER DWTN AP|2021|08|14|01|15|36.7333|-119.8167|84.1|37.0||1|FM15-METAR|223|ICAO-KFCH|10.0||1|FM15-METAR|223|ICAO-KFCH|||||||||||||310|N-Normal|1|FM15-METAR|223|ICAO-KFCH|6.2|N-Normal|1|FM15-METAR|223|ICAO-KFCH|||||||||||||19|Derived||FM15-METAR|223|ICAO-KFCH|||||||||||||||||||||||||||||||||||||||||||||||||||||||||||||||||||||||||1013.5||1|FM15-METAR|223|ICAO-KFCH|||||||||||||||||||||||||||||||||||||||||||MET061METAR KFCH 140115Z AUTO 31012KT 10SM CLR 37/10 A2993 RMK A01=||F||223|ICAO-KFCH
USW00023167|FRESNO CHANDLER DWTN AP|2021|08|14|01|35|36.7333|-119.8167|84.1|37.0||1|FM15-METAR|223|ICAO-KFCH|9.0||1|FM15-METAR|223|ICAO-KFCH|||||||||||||320|N-Normal|1|FM15-METAR|223|ICAO-KFCH|5.7|N-Normal|1|FM15-METAR|223|ICAO-KFCH|8.8||1|FM15-METAR|223|ICAO-KFCH|||||||18|Derived||FM15-METAR|223|ICAO-KFCH|||||||||||||||||||||||||||||||||||||||||||||||||||||||||||||||||||||||||1013.5||1|FM15-METAR|223|ICAO-KFCH|||||||||||||||||||||||||||||||||||||||||||MET063METAR KFCH 140135Z AUTO 32011G17KT 9SM CLR 37/09 A2993 RMK A01=||F||223|ICAO-KFCH
USW00023167|FRESNO CHANDLER DWTN AP|2021|08|14|01|55|36.7333|-119.8167|84.1|36.0||1|FM15-METAR|223|ICAO-KFCH|9.0||1|FM15-METAR|223|ICAO-KFCH|||||||||||||310|N-Normal|1|FM15-METAR|223|ICAO-KFCH|7.2|N-Normal|1|FM15-METAR|223|ICAO-KFCH|||||||||||||19|Derived||FM15-METAR|223|ICAO-KFCH|||||||||||||||||||||||||||||||||||||||||||||||||||||||||||||||||||||||||1013.5||1|FM15-METAR|223|ICAO-KFCH|||||||||||||||||||||||||||||||||||||||||||MET061METAR KFCH 140155Z AUTO 31014KT 10SM CLR 36/09 A2993 RMK A01=||F||223|ICAO-KFCH
USW00023167|FRESNO CHANDLER DWTN AP|2021|08|14|02|15|36.7333|-119.8167|84.1|35.0||1|FM15-METAR|223|ICAO-KFCH|11.0||1|FM15-METAR|223|ICAO-KFCH|||||||||||||310|N-Normal|1|FM15-METAR|223|ICAO-KFCH|6.2|N-Normal|1|FM15-METAR|223|ICAO-KFCH|||||||||||||23|Derived||FM15-METAR|223|ICAO-KFCH|||||||||||||||||||||||||||||||||||||||||||||||||||||||||||||||||||||||||1013.5||1|FM15-METAR|223|ICAO-KFCH|||||||||||||||||||||||||||||||||||||||||||MET060METAR KFCH 140215Z AUTO 31012KT 9SM CLR 35/11 A2993 RMK A01=||F||223|ICAO-KFCH
USW00023167|FRESNO CHANDLER DWTN AP|2021|08|14|02|35|36.7333|-119.8167|84.1|35.0||1|FM15-METAR|223|ICAO-KFCH|12.0||1|FM15-METAR|223|ICAO-KFCH|||||||||||||320|N-Normal|1|FM15-METAR|223|ICAO-KFCH|5.7|N-Normal|1|FM15-METAR|223|ICAO-KFCH|||||||||||||25|Derived||FM15-METAR|223|ICAO-KFCH|||||||||||||||||||||||||||||||||||||||||||||||||||||||||||||||||||||||||1013.5||1|FM15-METAR|223|ICAO-KFCH|||||||||||||||||||||||||||||||||||||||||||MET061METAR KFCH 140235Z AUTO 32011KT 10SM CLR 35/12 A2993 RMK A01=||F||223|ICAO-KFCH
USW00023167|FRESNO CHANDLER DWTN AP|2021|08|14|02|55|36.7333|-119.8167|84.1|34.0||1|FM15-METAR|223|ICAO-KFCH|13.0||1|FM15-METAR|223|ICAO-KFCH|||||||||||||330|N-Normal|1|FM15-METAR|223|ICAO-KFCH|3.1|N-Normal|1|FM15-METAR|223|ICAO-KFCH|5.7||1|FM15-METAR|223|ICAO-KFCH|||||||28|Derived||FM15-METAR|223|ICAO-KFCH|||||||||||||||||||||||||||||||||||||||||||||||||||||||||||||||||||||||||1013.9||1|FM15-METAR|223|ICAO-KFCH|||||||||||||||||||||||||||||||||||||||||||MET064METAR KFCH 140255Z AUTO 33006G11KT 10SM CLR 34/13 A2994 RMK A01=||F||223|ICAO-KFCH
USW00023167|FRESNO CHANDLER DWTN AP|2021|08|14|03|15|36.7333|-119.8167|84.1|33.0||1|FM15-METAR|223|ICAO-KFCH|13.0||1|FM15-METAR|223|ICAO-KFCH|||||||||||||320|N-Normal|1|FM15-METAR|223|ICAO-KFCH|3.1|N-Normal|1|FM15-METAR|223|ICAO-KFCH|||||||||||||30|Derived||FM15-METAR|223|ICAO-KFCH|||||||||||||||||||||||||||||||||||||||||||||||||||||||||||||||||||||||||1014.2||1|FM15-METAR|223|ICAO-KFCH|||||||||||||||||||||||||||||||||||||||||||MET061METAR KFCH 140315Z AUTO 32006KT 10SM CLR 33/13 A2995 RMK A01=||F||223|ICAO-KFCH
USW00023167|FRESNO CHANDLER DWTN AP|2021|08|14|03|35|36.7333|-119.8167|84.1|33.0||1|FM15-METAR|223|ICAO-KFCH|13.0||1|FM15-METAR|223|ICAO-KFCH|||||||||||||320|N-Normal|1|FM15-METAR|223|ICAO-KFCH|4.6|N-Normal|1|FM15-METAR|223|ICAO-KFCH|7.7||1|FM15-METAR|223|ICAO-KFCH|||||||30|Derived||FM15-METAR|223|ICAO-KFCH|||||||||||||||||||||||||||||||||||||||||||||||||||||||||||||||||||||||||1014.2||1|FM15-METAR|223|ICAO-KFCH|||||||||||||||||||||||||||||||||||||||||||MET067METAR KFCH 140335Z AUTO 32009G15KT 10SM FEW032 33/13 A2995 RMK A01=||F||223|ICAO-KFCH
USW00023167|FRESNO CHANDLER DWTN AP|2021|08|14|03|50|36.7333|-119.8167|84.1|32.0||1|FM15-METAR|223|ICAO-KFCH|13.0||1|FM15-METAR|223|ICAO-KFCH|||||||||||||310|N-Normal|1|FM15-METAR|223|ICAO-KFCH|5.1|N-Normal|1|FM15-METAR|223|ICAO-KFCH|||||||||||||31|Derived||FM15-METAR|223|ICAO-KFCH|||||||||||||||||||||||||||||||||||||||||||||||||||||||||||||||||||||||||1014.6||1|FM15-METAR|223|ICAO-KFCH|||||||||||||||||||||||||||||||||||||||||||MET064METAR KFCH 140350Z AUTO 31010KT 10SM FEW031 32/13 A2996 RMK A01=||F||223|ICAO-KFCH
USW00023167|FRESNO CHANDLER DWTN AP|2021|08|14|04|15|36.7333|-119.8167|84.1|32.0||1|FM15-METAR|223|ICAO-KFCH|13.0||1|FM15-METAR|223|ICAO-KFCH|||||||||||||310|N-Normal|1|FM15-METAR|223|ICAO-KFCH|3.6|N-Normal|1|FM15-METAR|223|ICAO-KFCH|||||||||||||31|Derived||FM15-METAR|223|ICAO-KFCH|||||||||||||||||||||||||||||||||||||||||||||||||||||||||||||||||||||||||1014.9||1|FM15-METAR|223|ICAO-KFCH|||||||||||||||||||||||||||||||||||||||||||MET064METAR KFCH 140415Z AUTO 31007KT 10SM SCT032 32/13 A2997 RMK A01=||F||223|ICAO-KFCH
USW00023167|FRESNO CHANDLER DWTN AP|2021|08|14|04|35|36.7333|-119.8167|84.1|31.0||1|FM15-METAR|223|ICAO-KFCH|13.0||1|FM15-METAR|223|ICAO-KFCH|||||||||||||310|N-Normal|1|FM15-METAR|223|ICAO-KFCH|3.6|N-Normal|1|FM15-METAR|223|ICAO-KFCH|||||||||||||33|Derived||FM15-METAR|223|ICAO-KFCH|||||||||||||||||||||||||||||||||||||||||||||||||||||||||||||||||||||||||1015.2||1|FM15-METAR|223|ICAO-KFCH|||||||||||||||||||||||||||||||||||||||||||MET078METAR KFCH 140435Z AUTO 31007KT 10SM BKN033 BKN040 BKN046 31/13 A2998 RMK A01=||F||223|ICAO-KFCH
USW00023167|FRESNO CHANDLER DWTN AP|2021|08|14|04|55|36.7333|-119.8167|84.1|31.0||1|FM15-METAR|223|ICAO-KFCH|13.0||1|FM15-METAR|223|ICAO-KFCH|||||||||||||300|N-Normal|1|FM15-METAR|223|ICAO-KFCH|4.1|N-Normal|1|FM15-METAR|223|ICAO-KFCH|||||||||||||33|Derived||FM15-METAR|223|ICAO-KFCH|||||||||||||||||||||||||||||||||||||||||||||||||||||||||||||||||||||||||1015.2||1|FM15-METAR|223|ICAO-KFCH|||||||||||||||||||||||||||||||||||||||||||MET071METAR KFCH 140455Z AUTO 30008KT 10SM BKN034 OVC040 31/13 A2998 RMK A01=||F||223|ICAO-KFCH
USW00023167|FRESNO CHANDLER DWTN AP|2021|08|14|05|15|36.7333|-119.8167|84.1|30.0||1|FM15-METAR|223|ICAO-KFCH|14.0||1|FM15-METAR|223|ICAO-KFCH|||||||||||||290|N-Normal|1|FM15-METAR|223|ICAO-KFCH|3.6|N-Normal|1|FM15-METAR|223|ICAO-KFCH|||||||||||||38|Derived||FM15-METAR|223|ICAO-KFCH|||||||||||||||||||||||||||||||||||||||||||||||||||||||||||||||||||||||||1015.2||1|FM15-METAR|223|ICAO-KFCH|||||||||||||||||||||||||||||||||||||||||||MET071METAR KFCH 140515Z AUTO 29007KT 10SM BKN039 BKN048 30/14 A2998 RMK A01=||F||223|ICAO-KFCH
USW00023167|FRESNO CHANDLER DWTN AP|2021|08|14|05|35|36.7333|-119.8167|84.1|29.0||1|FM15-METAR|223|ICAO-KFCH|15.0||1|FM15-METAR|223|ICAO-KFCH|||||||||||||290|N-Normal|1|FM15-METAR|223|ICAO-KFCH|3.6|N-Normal|1|FM15-METAR|223|ICAO-KFCH|||||||||||||43|Derived||FM15-METAR|223|ICAO-KFCH|||||||||||||||||||||||||||||||||||||||||||||||||||||||||||||||||||||||||1015.2||1|FM15-METAR|223|ICAO-KFCH|||||||||||||||||||||||||||||||||||||||||||MET071METAR KFCH 140535Z AUTO 29007KT 10SM SCT042 BKN049 29/15 A2998 RMK A01=||F||223|ICAO-KFCH
USW00023167|FRESNO CHANDLER DWTN AP|2021|08|14|05|50|36.7333|-119.8167|84.1|28.0||1|FM15-METAR|223|ICAO-KFCH|15.0||1|FM15-METAR|223|ICAO-KFCH|||||||||||||300|N-Normal|1|FM15-METAR|223|ICAO-KFCH|4.6|N-Normal|1|FM15-METAR|223|ICAO-KFCH|||||||||||||45|Derived||FM15-METAR|223|ICAO-KFCH|||||||||||||||||||||||||||||||||||||||||||||||||||||||||||||||||||||||||1015.2||1|FM15-METAR|223|ICAO-KFCH|||||||||||||||||||||||||||||||||||||||||||MET071METAR KFCH 140550Z AUTO 30009KT 10SM BKN045 OVC050 28/15 A2998 RMK A01=||F||223|ICAO-KFCH
USW00023167|FRESNO CHANDLER DWTN AP|2021|08|14|06|15|36.7333|-119.8167|84.1|28.0||1|FM15-METAR|223|ICAO-KFCH|14.0||1|FM15-METAR|223|ICAO-KFCH|||||||||||||320|N-Normal|1|FM15-METAR|223|ICAO-KFCH|4.1|N-Normal|1|FM15-METAR|223|ICAO-KFCH|||||||||||||42|Derived||FM15-METAR|223|ICAO-KFCH|||||||||||||||||||||||||||||||||||||||||||||||||||||||||||||||||||||||||1015.6||1|FM15-METAR|223|ICAO-KFCH|||||||||||||||||||||||||||||||||||||||||||MET064METAR KFCH 140615Z AUTO 32008KT 10SM OVC045 28/14 A2999 RMK A01=||F||223|ICAO-KFCH
USW00023167|FRESNO CHANDLER DWTN AP|2021|08|14|06|35|36.7333|-119.8167|84.1|28.0||1|FM15-METAR|223|ICAO-KFCH|14.0||1|FM15-METAR|223|ICAO-KFCH|||||||||||||310|N-Normal|1|FM15-METAR|223|ICAO-KFCH|3.6|N-Normal|1|FM15-METAR|223|ICAO-KFCH|||||||||||||42|Derived||FM15-METAR|223|ICAO-KFCH|||||||||||||||||||||||||||||||||||||||||||||||||||||||||||||||||||||||||1015.6||1|FM15-METAR|223|ICAO-KFCH|||||||||||||||||||||||||||||||||||||||||||MET064METAR KFCH 140635Z AUTO 31007KT 10SM OVC046 28/14 A2999 RMK A01=||F||223|ICAO-KFCH
USW00023167|FRESNO CHANDLER DWTN AP|2021|08|14|06|55|36.7333|-119.8167|84.1|28.0||1|FM15-METAR|223|ICAO-KFCH|14.0||1|FM15-METAR|223|ICAO-KFCH|||||||||||||340|N-Normal|1|FM15-METAR|223|ICAO-KFCH|2.1|N-Normal|1|FM15-METAR|223|ICAO-KFCH|||||||||||||42|Derived||FM15-METAR|223|ICAO-KFCH|||||||||||||||||||||||||||||||||||||||||||||||||||||||||||||||||||||||||1015.6||1|FM15-METAR|223|ICAO-KFCH|||||||||||||||||||||||||||||||||||||||||||MET064METAR KFCH 140655Z AUTO 34004KT 10SM BKN049 28/14 A2999 RMK A01=||F||223|ICAO-KFCH
USW00023167|FRESNO CHANDLER DWTN AP|2021|08|14|07|15|36.7333|-119.8167|84.1|28.0||1|FM15-METAR|223|ICAO-KFCH|14.0||1|FM15-METAR|223|ICAO-KFCH|||||||||||||310|N-Normal|1|FM15-METAR|223|ICAO-KFCH|3.1|N-Normal|1|FM15-METAR|223|ICAO-KFCH|||||||||||||42|Derived||FM15-METAR|223|ICAO-KFCH|||||||||||||||||||||||||||||||||||||||||||||||||||||||||||||||||||||||||1015.9||1|FM15-METAR|223|ICAO-KFCH|||||||||||||||||||||||||||||||||||||||||||MET071METAR KFCH 140715Z AUTO 31006KT 10SM BKN044 OVC050 28/14 A3000 RMK A01=||F||223|ICAO-KFCH
USW00023167|FRESNO CHANDLER DWTN AP|2021|08|14|07|35|36.7333|-119.8167|84.1|27.0||1|FM15-METAR|223|ICAO-KFCH|14.0||1|FM15-METAR|223|ICAO-KFCH|||||||||||||300|N-Normal|1|FM15-METAR|223|ICAO-KFCH|3.1|N-Normal|1|FM15-METAR|223|ICAO-KFCH|||||||||||||45|Derived||FM15-METAR|223|ICAO-KFCH|||||||||||||||||||||||||||||||||||||||||||||||||||||||||||||||||||||||||1015.9||1|FM15-METAR|223|ICAO-KFCH|||||||||||||||||||||||||||||||||||||||||||MET064METAR KFCH 140735Z AUTO 30006KT 10SM OVC047 27/14 A3000 RMK A01=||F||223|ICAO-KFCH
USW00023167|FRESNO CHANDLER DWTN AP|2021|08|14|07|55|36.7333|-119.8167|84.1|26.0||1|FM15-METAR|223|ICAO-KFCH|14.0||1|FM15-METAR|223|ICAO-KFCH|||||||||||||330|N-Normal|1|FM15-METAR|223|ICAO-KFCH|2.1|N-Normal|1|FM15-METAR|223|ICAO-KFCH|||||||||||||48|Derived||FM15-METAR|223|ICAO-KFCH|||||||||||||||||||||||||||||||||||||||||||||||||||||||||||||||||||||||||1015.6||1|FM15-METAR|223|ICAO-KFCH|||||||||||||||||||||||||||||||||||||||||||MET064METAR KFCH 140755Z AUTO 33004KT 10SM OVC044 26/14 A2999 RMK A01=||F||223|ICAO-KFCH
USW00023167|FRESNO CHANDLER DWTN AP|2021|08|14|08|15|36.7333|-119.8167|84.1|26.0||1|FM15-METAR|223|ICAO-KFCH|15.0||1|FM15-METAR|223|ICAO-KFCH|||||||||||||310|N-Normal|1|FM15-METAR|223|ICAO-KFCH|2.6|N-Normal|1|FM15-METAR|223|ICAO-KFCH|||||||||||||51|Derived||FM15-METAR|223|ICAO-KFCH|||||||||||||||||||||||||||||||||||||||||||||||||||||||||||||||||||||||||1015.6||1|FM15-METAR|223|ICAO-KFCH|||||||||||||||||||||||||||||||||||||||||||MET064METAR KFCH 140815Z AUTO 31005KT 10SM OVC041 26/15 A2999 RMK A01=||F||223|ICAO-KFCH
USW00023167|FRESNO CHANDLER DWTN AP|2021|08|14|08|35|36.7333|-119.8167|84.1|26.0||1|FM15-METAR|223|ICAO-KFCH|15.0||1|FM15-METAR|223|ICAO-KFCH|||||||||||||999|C-Calm|9|FM15-METAR|223|ICAO-KFCH|0.0|C-Calm|1|FM15-METAR|223|ICAO-KFCH|||||||||||||51|Derived||FM15-METAR|223|ICAO-KFCH|||||||||||||||||||||||||||||||||||||||||||||||||||||||||||||||||||||||||1015.6||1|FM15-METAR|223|ICAO-KFCH|||||||||||||||||||||||||||||||||||||||||||MET064METAR KFCH 140835Z AUTO 00000KT 10SM OVC042 26/15 A2999 RMK A01=||F||223|ICAO-KFCH
USW00023167|FRESNO CHANDLER DWTN AP|2021|08|14|08|55|36.7333|-119.8167|84.1|26.0||1|FM15-METAR|223|ICAO-KFCH|15.0||1|FM15-METAR|223|ICAO-KFCH|||||||||||||999|C-Calm|9|FM15-METAR|223|ICAO-KFCH|0.0|C-Calm|1|FM15-METAR|223|ICAO-KFCH|||||||||||||51|Derived||FM15-METAR|223|ICAO-KFCH|||||||||||||||||||||||||||||||||||||||||||||||||||||||||||||||||||||||||1015.6||1|FM15-METAR|223|ICAO-KFCH|||||||||||||||||||||||||||||||||||||||||||MET064METAR KFCH 140855Z AUTO 00000KT 10SM OVC043 26/15 A2999 RMK A01=||F||223|ICAO-KFCH
USW00023167|FRESNO CHANDLER DWTN AP|2021|08|14|09|10|36.7333|-119.8167|84.1|25.0||1|FM15-METAR|223|ICAO-KFCH|15.0||1|FM15-METAR|223|ICAO-KFCH|||||||||||||999|C-Calm|9|FM15-METAR|223|ICAO-KFCH|0.0|C-Calm|1|FM15-METAR|223|ICAO-KFCH|||||||||||||54|Derived||FM15-METAR|223|ICAO-KFCH|||||||||||||||||||||||||||||||||||||||||||||||||||||||||||||||||||||||||1015.6||1|FM15-METAR|223|ICAO-KFCH|||||||||||||||||||||||||||||||||||||||||||MET071METAR KFCH 140910Z AUTO 00000KT 10SM BKN041 OVC046 25/15 A2999 RMK A01=||F||223|ICAO-KFCH
USW00023167|FRESNO CHANDLER DWTN AP|2021|08|14|09|35|36.7333|-119.8167|84.1|25.0||1|FM15-METAR|223|ICAO-KFCH|15.0||1|FM15-METAR|223|ICAO-KFCH|||||||||||||999|C-Calm|9|FM15-METAR|223|ICAO-KFCH|0.0|C-Calm|1|FM15-METAR|223|ICAO-KFCH|||||||||||||54|Derived||FM15-METAR|223|ICAO-KFCH|||||||||||||||||||||||||||||||||||||||||||||||||||||||||||||||||||||||||1015.6||1|FM15-METAR|223|ICAO-KFCH|||||||||||||||||||||||||||||||||||||||||||MET071METAR KFCH 140935Z AUTO 00000KT 10SM BKN038 OVC046 25/15 A2999 RMK A01=||F||223|ICAO-KFCH
USW00023167|FRESNO CHANDLER DWTN AP|2021|08|14|09|55|36.7333|-119.8167|84.1|25.0||1|FM15-METAR|223|ICAO-KFCH|15.0||1|FM15-METAR|223|ICAO-KFCH|||||||||||||999|C-Calm|9|FM15-METAR|223|ICAO-KFCH|0.0|C-Calm|1|FM15-METAR|223|ICAO-KFCH|||||||||||||54|Derived||FM15-METAR|223|ICAO-KFCH|||||||||||||||||||||||||||||||||||||||||||||||||||||||||||||||||||||||||1015.6||1|FM15-METAR|223|ICAO-KFCH|||||||||||||||||||||||||||||||||||||||||||MET078METAR KFCH 140955Z AUTO 00000KT 10SM BKN039 BKN047 OVC060 25/15 A2999 RMK A01=||F||223|ICAO-KFCH
USW00023167|FRESNO CHANDLER DWTN AP|2021|08|14|10|15|36.7333|-119.8167|84.1|24.0||1|FM15-METAR|223|ICAO-KFCH|15.0||1|FM15-METAR|223|ICAO-KFCH|||||||||||||999|C-Calm|9|FM15-METAR|223|ICAO-KFCH|0.0|C-Calm|1|FM15-METAR|223|ICAO-KFCH|||||||||||||57|Derived||FM15-METAR|223|ICAO-KFCH|||||||||||||||||||||||||||||||||||||||||||||||||||||||||||||||||||||||||1015.6||1|FM15-METAR|223|ICAO-KFCH|||||||||||||||||||||||||||||||||||||||||||MET071METAR KFCH 141015Z AUTO 00000KT 10SM BKN043 OVC060 24/15 A2999 RMK A01=||F||223|ICAO-KFCH
USW00023167|FRESNO CHANDLER DWTN AP|2021|08|14|10|35|36.7333|-119.8167|84.1|24.0||1|FM15-METAR|223|ICAO-KFCH|14.0||1|FM15-METAR|223|ICAO-KFCH|||||||||||||999|C-Calm|9|FM15-METAR|223|ICAO-KFCH|0.0|C-Calm|1|FM15-METAR|223|ICAO-KFCH|||||||||||||54|Derived||FM15-METAR|223|ICAO-KFCH|||||||||||||||||||||||||||||||||||||||||||||||||||||||||||||||||||||||||1015.6||1|FM15-METAR|223|ICAO-KFCH|||||||||||||||||||||||||||||||||||||||||||MET071METAR KFCH 141035Z AUTO 00000KT 10SM BKN043 OVC060 24/14 A2999 RMK A01=||F||223|ICAO-KFCH
USW00023167|FRESNO CHANDLER DWTN AP|2021|08|14|10|50|36.7333|-119.8167|84.1|24.0||1|FM15-METAR|223|ICAO-KFCH|14.0||1|FM15-METAR|223|ICAO-KFCH|||||||||||||999|C-Calm|9|FM15-METAR|223|ICAO-KFCH|0.0|C-Calm|1|FM15-METAR|223|ICAO-KFCH|||||||||||||54|Derived||FM15-METAR|223|ICAO-KFCH|||||||||||||||||||||||||||||||||||||||||||||||||||||||||||||||||||||||||1015.6||1|FM15-METAR|223|ICAO-KFCH|||||||||||||||||||||||||||||||||||||||||||MET071METAR KFCH 141050Z AUTO 00000KT 10SM BKN044 OVC060 24/14 A2999 RMK A01=||F||223|ICAO-KFCH
USW00023167|FRESNO CHANDLER DWTN AP|2021|08|14|11|15|36.7333|-119.8167|84.1|24.0||1|FM15-METAR|223|ICAO-KFCH|14.0||1|FM15-METAR|223|ICAO-KFCH|||||||||||||230|N-Normal|1|FM15-METAR|223|ICAO-KFCH|1.5|N-Normal|1|FM15-METAR|223|ICAO-KFCH|||||||||||||54|Derived||FM15-METAR|223|ICAO-KFCH|||||||||||||||||||||||||||||||||||||||||||||||||||||||||||||||||||||||||1015.9||1|FM15-METAR|223|ICAO-KFCH|||||||||||||||||||||||||||||||||||||||||||MET064METAR KFCH 141115Z AUTO 23003KT 10SM OVC044 24/14 A3000 RMK A01=||F||223|ICAO-KFCH
USW00023167|FRESNO CHANDLER DWTN AP|2021|08|14|11|35|36.7333|-119.8167|84.1|23.0||1|FM15-METAR|223|ICAO-KFCH|14.0||1|FM15-METAR|223|ICAO-KFCH|||||||||||||210|N-Normal|1|FM15-METAR|223|ICAO-KFCH|1.5|N-Normal|1|FM15-METAR|223|ICAO-KFCH|||||||||||||57|Derived||FM15-METAR|223|ICAO-KFCH|||||||||||||||||||||||||||||||||||||||||||||||||||||||||||||||||||||||||1015.6||1|FM15-METAR|223|ICAO-KFCH|||||||||||||||||||||||||||||||||||||||||||MET064METAR KFCH 141135Z AUTO 21003KT 10SM OVC043 23/14 A2999 RMK A01=||F||223|ICAO-KFCH
USW00023167|FRESNO CHANDLER DWTN AP|2021|08|14|11|55|36.7333|-119.8167|84.1|23.0||1|FM15-METAR|223|ICAO-KFCH|15.0||1|FM15-METAR|223|ICAO-KFCH|||||||||||||210|N-Normal|1|FM15-METAR|223|ICAO-KFCH|2.1|N-Normal|1|FM15-METAR|223|ICAO-KFCH|||||||||||||61|Derived||FM15-METAR|223|ICAO-KFCH|||||||||||||||||||||||||||||||||||||||||||||||||||||||||||||||||||||||||1015.9||1|FM15-METAR|223|ICAO-KFCH|||||||||||||||||||||||||||||||||||||||||||MET064METAR KFCH 141155Z AUTO 21004KT 10SM OVC044 23/15 A3000 RMK A01=||F||223|ICAO-KFCH
USW00023167|FRESNO CHANDLER DWTN AP|2021|08|14|12|15|36.7333|-119.8167|84.1|22.0||1|FM15-METAR|223|ICAO-KFCH|15.0||1|FM15-METAR|223|ICAO-KFCH|||||||||||||240|N-Normal|1|FM15-METAR|223|ICAO-KFCH|2.1|N-Normal|1|FM15-METAR|223|ICAO-KFCH|||||||||||||65|Derived||FM15-METAR|223|ICAO-KFCH|||||||||||||||||||||||||||||||||||||||||||||||||||||||||||||||||||||||||1015.9||1|FM15-METAR|223|ICAO-KFCH|||||||||||||||||||||||||||||||||||||||||||MET064METAR KFCH 141215Z AUTO 24004KT 10SM OVC045 22/15 A3000 RMK A01=||F||223|ICAO-KFCH
USW00023167|FRESNO CHANDLER DWTN AP|2021|08|14|12|35|36.7333|-119.8167|84.1|22.0||1|FM15-METAR|223|ICAO-KFCH|15.0||1|FM15-METAR|223|ICAO-KFCH|||||||||||||999|C-Calm|9|FM15-METAR|223|ICAO-KFCH|0.0|C-Calm|1|FM15-METAR|223|ICAO-KFCH|||||||||||||65|Derived||FM15-METAR|223|ICAO-KFCH|||||||||||||||||||||||||||||||||||||||||||||||||||||||||||||||||||||||||1015.9||1|FM15-METAR|223|ICAO-KFCH|||||||||||||||||||||||||||||||||||||||||||MET064METAR KFCH 141235Z AUTO 00000KT 10SM OVC045 22/15 A3000 RMK A01=||F||223|ICAO-KFCH
USW00023167|FRESNO CHANDLER DWTN AP|2021|08|14|12|55|36.7333|-119.8167|84.1|21.0||1|FM15-METAR|223|ICAO-KFCH|15.0||1|FM15-METAR|223|ICAO-KFCH|||||||||||||999|C-Calm|9|FM15-METAR|223|ICAO-KFCH|0.0|C-Calm|1|FM15-METAR|223|ICAO-KFCH|||||||||||||69|Derived||FM15-METAR|223|ICAO-KFCH|||||||||||||||||||||||||||||||||||||||||||||||||||||||||||||||||||||||||1016.3||1|FM15-METAR|223|ICAO-KFCH|||||||||||||||||||||||||||||||||||||||||||MET071METAR KFCH 141255Z AUTO 00000KT 10SM BKN045 BKN050 21/15 A3001 RMK A01=||F||223|ICAO-KFCH
USW00023167|FRESNO CHANDLER DWTN AP|2021|08|14|13|15|36.7333|-119.8167|84.1|22.0||1|FM15-METAR|223|ICAO-KFCH|15.0||1|FM15-METAR|223|ICAO-KFCH|||||||||||||999|C-Calm|9|FM15-METAR|223|ICAO-KFCH|0.0|C-Calm|1|FM15-METAR|223|ICAO-KFCH|||||||||||||65|Derived||FM15-METAR|223|ICAO-KFCH|||||||||||||||||||||||||||||||||||||||||||||||||||||||||||||||||||||||||1016.3||1|FM15-METAR|223|ICAO-KFCH|||||||||||||||||||||||||||||||||||||||||||MET071METAR KFCH 141315Z AUTO 00000KT 10SM SCT045 SCT055 22/15 A3001 RMK A01=||F||223|ICAO-KFCH
USW00023167|FRESNO CHANDLER DWTN AP|2021|08|14|13|35|36.7333|-119.8167|84.1|21.0||1|FM15-METAR|223|ICAO-KFCH|15.0||1|FM15-METAR|223|ICAO-KFCH|||||||||||||999|C-Calm|9|FM15-METAR|223|ICAO-KFCH|0.0|C-Calm|1|FM15-METAR|223|ICAO-KFCH|||||||||||||69|Derived||FM15-METAR|223|ICAO-KFCH|||||||||||||||||||||||||||||||||||||||||||||||||||||||||||||||||||||||||1016.6||1|FM15-METAR|223|ICAO-KFCH|||||||||||||||||||||||||||||||||||||||||||MET061METAR KFCH 141335Z AUTO 00000KT 10SM CLR 21/15 A3002 RMK A01=||F||223|ICAO-KFCH
USW00023167|FRESNO CHANDLER DWTN AP|2021|08|14|13|55|36.7333|-119.8167|84.1|21.0||1|FM15-METAR|223|ICAO-KFCH|14.0||1|FM15-METAR|223|ICAO-KFCH|||||||||||||999|C-Calm|9|FM15-METAR|223|ICAO-KFCH|0.0|C-Calm|1|FM15-METAR|223|ICAO-KFCH|||||||||||||64|Derived||FM15-METAR|223|ICAO-KFCH|||||||||||||||||||||||||||||||||||||||||||||||||||||||||||||||||||||||||1016.6||1|FM15-METAR|223|ICAO-KFCH|||||||||||||||||||||||||||||||||||||||||||MET061METAR KFCH 141355Z AUTO 00000KT 10SM CLR 21/14 A3002 RMK A01=||F||223|ICAO-KFCH
USW00023167|FRESNO CHANDLER DWTN AP|2021|08|14|14|15|36.7333|-119.8167|84.1|22.0||1|FM15-METAR|223|ICAO-KFCH|13.0||1|FM15-METAR|223|ICAO-KFCH|||||||||||||999|C-Calm|9|FM15-METAR|223|ICAO-KFCH|0.0|C-Calm|1|FM15-METAR|223|ICAO-KFCH|||||||||||||57|Derived||FM15-METAR|223|ICAO-KFCH|||||||||||||||||||||||||||||||||||||||||||||||||||||||||||||||||||||||||1016.9||1|FM15-METAR|223|ICAO-KFCH|||||||||||||||||||||||||||||||||||||||||||MET057METAR KFCH 141415Z AUTO 00000KT 10SM 22/13 A3003 RMK A01=||F||223|ICAO-KFCH
USW00023167|FRESNO CHANDLER DWTN AP|2021|08|14|14|35|36.7333|-119.8167|84.1|22.0||1|FM15-METAR|223|ICAO-KFCH|13.0||1|FM15-METAR|223|ICAO-KFCH|||||||||||||280|N-Normal|1|FM15-METAR|223|ICAO-KFCH|2.6|N-Normal|1|FM15-METAR|223|ICAO-KFCH|||||||||||||57|Derived||FM15-METAR|223|ICAO-KFCH|||||||||||||||||||||||||||||||||||||||||||||||||||||||||||||||||||||||||1016.9||1|FM15-METAR|223|ICAO-KFCH|||||||||||||||||||||||||||||||||||||||||||MET061METAR KFCH 141435Z AUTO 28005KT 10SM CLR 22/13 A3003 RMK A01=||F||223|ICAO-KFCH
USW00023167|FRESNO CHANDLER DWTN AP|2021|08|14|14|55|36.7333|-119.8167|84.1|23.0||1|FM15-METAR|223|ICAO-KFCH|12.0||1|FM15-METAR|223|ICAO-KFCH|||||||||||||290|N-Normal|1|FM15-METAR|223|ICAO-KFCH|3.6|N-Normal|1|FM15-METAR|223|ICAO-KFCH|||||||||||||50|Derived||FM15-METAR|223|ICAO-KFCH|||||||||||||||||||||||||||||||||||||||||||||||||||||||||||||||||||||||||1016.9||1|FM15-METAR|223|ICAO-KFCH|||||||||||||||||||||||||||||||||||||||||||MET061METAR KFCH 141455Z AUTO 29007KT 10SM CLR 23/12 A3003 RMK A01=||F||223|ICAO-KFCH
USW00023167|FRESNO CHANDLER DWTN AP|2021|08|14|15|15|36.7333|-119.8167|84.1|24.0||1|FM15-METAR|223|ICAO-KFCH|12.0||1|FM15-METAR|223|ICAO-KFCH|||||||||||||320|N-Normal|1|FM15-METAR|223|ICAO-KFCH|2.1|N-Normal|1|FM15-METAR|223|ICAO-KFCH|||||||||||||47|Derived||FM15-METAR|223|ICAO-KFCH|||||||||||||||||||||||||||||||||||||||||||||||||||||||||||||||||||||||||1017.3||1|FM15-METAR|223|ICAO-KFCH|||||||||||||||||||||||||||||||||||||||||||MET060METAR KFCH 141515Z AUTO 32004KT 9SM CLR 24/12 A3004 RMK A01=||F||223|ICAO-KFCH
USW00023167|FRESNO CHANDLER DWTN AP|2021|08|14|15|35|36.7333|-119.8167|84.1|25.0||1|FM15-METAR|223|ICAO-KFCH|13.0||1|FM15-METAR|223|ICAO-KFCH|||||||||||||999|C-Calm|9|FM15-METAR|223|ICAO-KFCH|0.0|C-Calm|1|FM15-METAR|223|ICAO-KFCH|||||||||||||47|Derived||FM15-METAR|223|ICAO-KFCH|||||||||||||||||||||||||||||||||||||||||||||||||||||||||||||||||||||||||1017.3||1|FM15-METAR|223|ICAO-KFCH|||||||||||||||||||||||||||||||||||||||||||MET061METAR KFCH 141535Z AUTO 00000KT 10SM CLR 25/13 A3004 RMK A01=||F||223|ICAO-KFCH
USW00023167|FRESNO CHANDLER DWTN AP|2021|08|14|15|55|36.7333|-119.8167|84.1|26.0||1|FM15-METAR|223|ICAO-KFCH|12.0||1|FM15-METAR|223|ICAO-KFCH|||||||||||||999|C-Calm|9|FM15-METAR|223|ICAO-KFCH|0.0|C-Calm|1|FM15-METAR|223|ICAO-KFCH|||||||||||||42|Derived||FM15-METAR|223|ICAO-KFCH|||||||||||||||||||||||||||||||||||||||||||||||||||||||||||||||||||||||||1017.3||1|FM15-METAR|223|ICAO-KFCH|||||||||||||||||||||||||||||||||||||||||||MET061METAR KFCH 141555Z AUTO 00000KT 10SM CLR 26/12 A3004 RMK A01=||F||223|ICAO-KFCH
USW00023167|FRESNO CHANDLER DWTN AP|2021|08|14|16|15|36.7333|-119.8167|84.1|27.0||1|FM15-METAR|223|ICAO-KFCH|12.0||1|FM15-METAR|223|ICAO-KFCH|||||||||||||280|N-Normal|1|FM15-METAR|223|ICAO-KFCH|2.1|N-Normal|1|FM15-METAR|223|ICAO-KFCH|||||||||||||39|Derived||FM15-METAR|223|ICAO-KFCH|||||||||||||||||||||||||||||||||||||||||||||||||||||||||||||||||||||||||1017.3||1|FM15-METAR|223|ICAO-KFCH|||||||||||||||||||||||||||||||||||||||||||MET061METAR KFCH 141615Z AUTO 28004KT 10SM CLR 27/12 A3004 RMK A01=||F||223|ICAO-KFCH
USW00023167|FRESNO CHANDLER DWTN AP|2021|08|14|16|35|36.7333|-119.8167|84.1|27.0||1|FM15-METAR|223|ICAO-KFCH|12.0||1|FM15-METAR|223|ICAO-KFCH|||||||||||||290|N-Normal|1|FM15-METAR|223|ICAO-KFCH|2.1|N-Normal|1|FM15-METAR|223|ICAO-KFCH|||||||||||||39|Derived||FM15-METAR|223|ICAO-KFCH|||||||||||||||||||||||||||||||||||||||||||||||||||||||||||||||||||||||||1016.9||1|FM15-METAR|223|ICAO-KFCH|||||||||||||||||||||||||||||||||||||||||||MET061METAR KFCH 141635Z AUTO 29004KT 10SM CLR 27/12 A3003 RMK A01=||F||223|ICAO-KFCH
USW00023167|FRESNO CHANDLER DWTN AP|2021|08|14|16|50|36.7333|-119.8167|84.1|28.0||1|FM15-METAR|223|ICAO-KFCH|12.0||1|FM15-METAR|223|ICAO-KFCH|||||||||||||300|N-Normal|1|FM15-METAR|223|ICAO-KFCH|2.1|N-Normal|1|FM15-METAR|223|ICAO-KFCH|||||||||||||37|Derived||FM15-METAR|223|ICAO-KFCH|||||||||||||||||||||||||||||||||||||||||||||||||||||||||||||||||||||||||1017.3||1|FM15-METAR|223|ICAO-KFCH|||||||||||||||||||||||||||||||||||||||||||MET061METAR KFCH 141650Z AUTO 30004KT 10SM CLR 28/12 A3004 RMK A01=||F||223|ICAO-KFCH
USW00023167|FRESNO CHANDLER DWTN AP|2021|08|14|17|15|36.7333|-119.8167|84.1|28.0||1|FM15-METAR|223|ICAO-KFCH|12.0||1|FM15-METAR|223|ICAO-KFCH|||||||||||||999|C-Calm|9|FM15-METAR|223|ICAO-KFCH|0.0|C-Calm|1|FM15-METAR|223|ICAO-KFCH|||||||||||||37|Derived||FM15-METAR|223|ICAO-KFCH|||||||||||||||||||||||||||||||||||||||||||||||||||||||||||||||||||||||||1017.3||1|FM15-METAR|223|ICAO-KFCH|||||||||||||||||||||||||||||||||||||||||||MET061METAR KFCH 141715Z AUTO 00000KT 10SM CLR 28/12 A3004 RMK A01=||F||223|ICAO-KFCH
USW00023167|FRESNO CHANDLER DWTN AP|2021|08|14|17|35|36.7333|-119.8167|84.1|30.0||1|FM15-METAR|223|ICAO-KFCH|12.0||1|FM15-METAR|223|ICAO-KFCH|||||||||||||999|C-Calm|9|FM15-METAR|223|ICAO-KFCH|0.0|C-Calm|1|FM15-METAR|223|ICAO-KFCH|||||||||||||33|Derived||FM15-METAR|223|ICAO-KFCH|||||||||||||||||||||||||||||||||||||||||||||||||||||||||||||||||||||||||1017.3||1|FM15-METAR|223|ICAO-KFCH|||||||||||||||||||||||||||||||||||||||||||MET061METAR KFCH 141735Z AUTO 00000KT 10SM CLR 30/12 A3004 RMK A01=||F||223|ICAO-KFCH
USW00023167|FRESNO CHANDLER DWTN AP|2021|08|14|17|55|36.7333|-119.8167|84.1|30.0||1|FM15-METAR|223|ICAO-KFCH|12.0||1|FM15-METAR|223|ICAO-KFCH|||||||||||||330|N-Normal|1|FM15-METAR|223|ICAO-KFCH|2.1|N-Normal|1|FM15-METAR|223|ICAO-KFCH|||||||||||||33|Derived||FM15-METAR|223|ICAO-KFCH|||||||||||||||||||||||||||||||||||||||||||||||||||||||||||||||||||||||||1016.9||1|FM15-METAR|223|ICAO-KFCH|||||||||||||||||||||||||||||||||||||||||||MET061METAR KFCH 141755Z AUTO 33004KT 10SM CLR 30/12 A3003 RMK A01=||F||223|ICAO-KFCH
USW00023167|FRESNO CHANDLER DWTN AP|2021|08|14|18|15|36.7333|-119.8167|84.1|31.0||1|FM15-METAR|223|ICAO-KFCH|12.0||1|FM15-METAR|223|ICAO-KFCH|||||||||||||290|N-Normal|1|FM15-METAR|223|ICAO-KFCH|2.6|N-Normal|1|FM15-METAR|223|ICAO-KFCH|||||||||||||31|Derived||FM15-METAR|223|ICAO-KFCH|||||||||||||||||||||||||||||||||||||||||||||||||||||||||||||||||||||||||1016.9||1|FM15-METAR|223|ICAO-KFCH|||||||||||||||||||||||||||||||||||||||||||MET061METAR KFCH 141815Z AUTO 29005KT 10SM CLR 31/12 A3003 RMK A01=||F||223|ICAO-KFCH
USW00023167|FRESNO CHANDLER DWTN AP|2021|08|14|18|35|36.7333|-119.8167|84.1|32.0||1|FM15-METAR|223|ICAO-KFCH|12.0||1|FM15-METAR|223|ICAO-KFCH|||||||||||||300|N-Normal|1|FM15-METAR|223|ICAO-KFCH|3.6|N-Normal|1|FM15-METAR|223|ICAO-KFCH|||||||||||||29|Derived||FM15-METAR|223|ICAO-KFCH|||||||||||||||||||||||||||||||||||||||||||||||||||||||||||||||||||||||||1016.9||1|FM15-METAR|223|ICAO-KFCH|||||||||||||||||||||||||||||||||||||||||||MET060METAR KFCH 141835Z AUTO 30007KT 9SM CLR 32/12 A3003 RMK A01=||F||223|ICAO-KFCH
USW00023167|FRESNO CHANDLER DWTN AP|2021|08|14|18|50|36.7333|-119.8167|84.1|32.0||1|FM15-METAR|223|ICAO-KFCH|13.0||1|FM15-METAR|223|ICAO-KFCH|||||||||||||260|N-Normal|1|FM15-METAR|223|ICAO-KFCH|3.6|N-Normal|1|FM15-METAR|223|ICAO-KFCH|||||||||||||31|Derived||FM15-METAR|223|ICAO-KFCH|||||||||||||||||||||||||||||||||||||||||||||||||||||||||||||||||||||||||1016.6||1|FM15-METAR|223|ICAO-KFCH|||||||||||||||||||||||||||||||||||||||||||MET060METAR KFCH 141850Z AUTO 26007KT 9SM CLR 32/13 A3002 RMK A01=||F||223|ICAO-KFCH
USW00023167|FRESNO CHANDLER DWTN AP|2021|08|14|19|15|36.7333|-119.8167|84.1|32.0||1|FM15-METAR|223|ICAO-KFCH|13.0||1|FM15-METAR|223|ICAO-KFCH|||||||||||||999|C-Calm|9|FM15-METAR|223|ICAO-KFCH|0.0|C-Calm|1|FM15-METAR|223|ICAO-KFCH|||||||||||||31|Derived||FM15-METAR|223|ICAO-KFCH|||||||||||||||||||||||||||||||||||||||||||||||||||||||||||||||||||||||||1016.3||1|FM15-METAR|223|ICAO-KFCH|||||||||||||||||||||||||||||||||||||||||||MET060METAR KFCH 141915Z AUTO 00000KT 8SM CLR 32/13 A3001 RMK A01=||F||223|ICAO-KFCH
USW00023167|FRESNO CHANDLER DWTN AP|2021|08|14|19|35|36.7333|-119.8167|84.1|33.0||1|FM15-METAR|223|ICAO-KFCH|13.0||1|FM15-METAR|223|ICAO-KFCH|||||||||||||999|V-Variable|9|FM15-METAR|223|ICAO-KFCH|2.6|V-Variable|1|FM15-METAR|223|ICAO-KFCH|||||||||||||30|Derived||FM15-METAR|223|ICAO-KFCH|||||||||||||||||||||||||||||||||||||||||||||||||||||||||||||||||||||||||1016.3||1|FM15-METAR|223|ICAO-KFCH|||||||||||||||||||||||||||||||||||||||||||MET060METAR KFCH 141935Z AUTO VRB05KT 8SM CLR 33/13 A3001 RMK A01=||F||223|ICAO-KFCH
USW00023167|FRESNO CHANDLER DWTN AP|2021|08|14|19|55|36.7333|-119.8167|84.1|33.0||1|FM15-METAR|223|ICAO-KFCH|13.0||1|FM15-METAR|223|ICAO-KFCH|||||||||||||250|N-Normal|1|FM15-METAR|223|ICAO-KFCH|2.6|N-Normal|1|FM15-METAR|223|ICAO-KFCH|||||||||||||30|Derived||FM15-METAR|223|ICAO-KFCH|||||||||||||||||||||||||||||||||||||||||||||||||||||||||||||||||||||||||1016.3||1|FM15-METAR|223|ICAO-KFCH|||||||||||||||||||||||||||||||||||||||||||MET060METAR KFCH 141955Z AUTO 25005KT 8SM CLR 33/13 A3001 RMK A01=||F||223|ICAO-KFCH
USW00023167|FRESNO CHANDLER DWTN AP|2021|08|14|20|15|36.7333|-119.8167|84.1|34.0||1|FM15-METAR|223|ICAO-KFCH|12.0||1|FM15-METAR|223|ICAO-KFCH|||||||||||||250|N-Normal|1|FM15-METAR|223|ICAO-KFCH|2.6|N-Normal|1|FM15-METAR|223|ICAO-KFCH|||||||||||||26|Derived||FM15-METAR|223|ICAO-KFCH|||||||||||||||||||||||||||||||||||||||||||||||||||||||||||||||||||||||||1015.9||1|FM15-METAR|223|ICAO-KFCH|||||||||||||||||||||||||||||||||||||||||||MET060METAR KFCH 142015Z AUTO 25005KT 8SM CLR 34/12 A3000 RMK A01=||F||223|ICAO-KFCH
USW00023167|FRESNO CHANDLER DWTN AP|2021|08|14|20|35|36.7333|-119.8167|84.1|34.0||1|FM15-METAR|223|ICAO-KFCH|13.0||1|FM15-METAR|223|ICAO-KFCH|||||||||||||999|C-Calm|9|FM15-METAR|223|ICAO-KFCH|0.0|C-Calm|1|FM15-METAR|223|ICAO-KFCH|||||||||||||28|Derived||FM15-METAR|223|ICAO-KFCH|||||||||||||||||||||||||||||||||||||||||||||||||||||||||||||||||||||||||1015.9||1|FM15-METAR|223|ICAO-KFCH|||||||||||||||||||||||||||||||||||||||||||MET060METAR KFCH 142035Z AUTO 00000KT 9SM CLR 34/13 A3000 RMK A01=||F||223|ICAO-KFCH
USW00023167|FRESNO CHANDLER DWTN AP|2021|08|14|20|55|36.7333|-119.8167|84.1|35.0||1|FM15-METAR|223|ICAO-KFCH|12.0||1|FM15-METAR|223|ICAO-KFCH|||||||||||||300|N-Normal|1|FM15-METAR|223|ICAO-KFCH|3.1|N-Normal|1|FM15-METAR|223|ICAO-KFCH|||||||||||||25|Derived||FM15-METAR|223|ICAO-KFCH|||||||||||||||||||||||||||||||||||||||||||||||||||||||||||||||||||||||||1015.6||1|FM15-METAR|223|ICAO-KFCH|||||||||||||||||||||||||||||||||||||||||||MET060METAR KFCH 142055Z AUTO 30006KT 9SM CLR 35/12 A2999 RMK A01=||F||223|ICAO-KFCH
USW00023167|FRESNO CHANDLER DWTN AP|2021|08|14|21|15|36.7333|-119.8167|84.1|36.0||1|FM15-METAR|223|ICAO-KFCH|12.0||1|FM15-METAR|223|ICAO-KFCH|||||||||||||260|V-Variable|1|FM15-METAR|223|ICAO-KFCH|3.6|V-Variable|1|FM15-METAR|223|ICAO-KFCH|||||||||||||23|Derived||FM15-METAR|223|ICAO-KFCH|||||||||||||||||||||||||||||||||||||||||||||||||||||||||||||||||||||||||1015.6||1|FM15-METAR|223|ICAO-KFCH|||||||||||||||||||||||||||||||||||||||||||MET068METAR KFCH 142115Z AUTO 26007KT 200V280 9SM CLR 36/12 A2999 RMK A01=||F||223|ICAO-KFCH
USW00023167|FRESNO CHANDLER DWTN AP|2021|08|14|21|35|36.7333|-119.8167|84.1|36.0||1|FM15-METAR|223|ICAO-KFCH|12.0||1|FM15-METAR|223|ICAO-KFCH|||||||||||||210|N-Normal|1|FM15-METAR|223|ICAO-KFCH|3.6|N-Normal|1|FM15-METAR|223|ICAO-KFCH|||||||||||||23|Derived||FM15-METAR|223|ICAO-KFCH|||||||||||||||||||||||||||||||||||||||||||||||||||||||||||||||||||||||||1015.2||1|FM15-METAR|223|ICAO-KFCH|||||||||||||||||||||||||||||||||||||||||||MET060METAR KFCH 142135Z AUTO 21007KT 8SM CLR 36/12 A2998 RMK A01=||F||223|ICAO-KFCH
USW00023167|FRESNO CHANDLER DWTN AP|2021|08|14|21|55|36.7333|-119.8167|84.1|36.0||1|FM15-METAR|223|ICAO-KFCH|11.0||1|FM15-METAR|223|ICAO-KFCH|||||||||||||210|N-Normal|1|FM15-METAR|223|ICAO-KFCH|3.1|N-Normal|1|FM15-METAR|223|ICAO-KFCH|||||||||||||22|Derived||FM15-METAR|223|ICAO-KFCH|||||||||||||||||||||||||||||||||||||||||||||||||||||||||||||||||||||||||1015.2||1|FM15-METAR|223|ICAO-KFCH|||||||||||||||||||||||||||||||||||||||||||MET060METAR KFCH 142155Z AUTO 21006KT 9SM CLR 36/11 A2998 RMK A01=||F||223|ICAO-KFCH
USW00023167|FRESNO CHANDLER DWTN AP|2021|08|14|22|15|36.7333|-119.8167|84.1|36.0||1|FM15-METAR|223|ICAO-KFCH|11.0||1|FM15-METAR|223|ICAO-KFCH|||||||||||||260|N-Normal|1|FM15-METAR|223|ICAO-KFCH|2.6|N-Normal|1|FM15-METAR|223|ICAO-KFCH|||||||||||||22|Derived||FM15-METAR|223|ICAO-KFCH|||||||||||||||||||||||||||||||||||||||||||||||||||||||||||||||||||||||||1014.9||1|FM15-METAR|223|ICAO-KFCH|||||||||||||||||||||||||||||||||||||||||||MET060METAR KFCH 142215Z AUTO 26005KT 9SM CLR 36/11 A2997 RMK A01=||F||223|ICAO-KFCH
USW00023167|FRESNO CHANDLER DWTN AP|2021|08|14|22|35|36.7333|-119.8167|84.1|37.0||1|FM15-METAR|223|ICAO-KFCH|11.0||1|FM15-METAR|223|ICAO-KFCH|||||||||||||230|N-Normal|1|FM15-METAR|223|ICAO-KFCH|2.6|N-Normal|1|FM15-METAR|223|ICAO-KFCH|||||||||||||21|Derived||FM15-METAR|223|ICAO-KFCH|||||||||||||||||||||||||||||||||||||||||||||||||||||||||||||||||||||||||1014.6||1|FM15-METAR|223|ICAO-KFCH|||||||||||||||||||||||||||||||||||||||||||MET060METAR KFCH 142235Z AUTO 23005KT 9SM CLR 37/11 A2996 RMK A01=||F||223|ICAO-KFCH
USW00023167|FRESNO CHANDLER DWTN AP|2021|08|14|22|50|36.7333|-119.8167|84.1|37.0||1|FM15-METAR|223|ICAO-KFCH|12.0||1|FM15-METAR|223|ICAO-KFCH|||||||||||||310|N-Normal|1|FM15-METAR|223|ICAO-KFCH|3.1|N-Normal|1|FM15-METAR|223|ICAO-KFCH|||||||||||||22|Derived||FM15-METAR|223|ICAO-KFCH|||||||||||||||||||||||||||||||||||||||||||||||||||||||||||||||||||||||||1014.6||1|FM15-METAR|223|ICAO-KFCH|||||||||||||||||||||||||||||||||||||||||||MET060METAR KFCH 142250Z AUTO 31006KT 9SM CLR 37/12 A2996 RMK A01=||F||223|ICAO-KFCH
USW00023167|FRESNO CHANDLER DWTN AP|2021|08|14|23|15|36.7333|-119.8167|84.1|37.0||1|FM15-METAR|223|ICAO-KFCH|11.0||1|FM15-METAR|223|ICAO-KFCH|||||||||||||230|N-Normal|1|FM15-METAR|223|ICAO-KFCH|4.1|N-Normal|1|FM15-METAR|223|ICAO-KFCH|||||||||||||21|Derived||FM15-METAR|223|ICAO-KFCH|||||||||||||||||||||||||||||||||||||||||||||||||||||||||||||||||||||||||1014.2||1|FM15-METAR|223|ICAO-KFCH|||||||||||||||||||||||||||||||||||||||||||MET060METAR KFCH 142315Z AUTO 23008KT 9SM CLR 37/11 A2995 RMK A01=||F||223|ICAO-KFCH
USW00023167|FRESNO CHANDLER DWTN AP|2021|08|14|23|35|36.7333|-119.8167|84.1|38.0||1|FM15-METAR|223|ICAO-KFCH|11.0||1|FM15-METAR|223|ICAO-KFCH|||||||||||||999|V-Variable|9|FM15-METAR|223|ICAO-KFCH|2.6|V-Variable|1|FM15-METAR|223|ICAO-KFCH|||||||||||||20|Derived||FM15-METAR|223|ICAO-KFCH|||||||||||||||||||||||||||||||||||||||||||||||||||||||||||||||||||||||||1014.2||1|FM15-METAR|223|ICAO-KFCH|||||||||||||||||||||||||||||||||||||||||||MET060METAR KFCH 142335Z AUTO VRB05KT 9SM CLR 38/11 A2995 RMK A01=||F||223|ICAO-KFCH
USW00023167|FRESNO CHANDLER DWTN AP|2021|08|14|23|55|36.7333|-119.8167|84.1|38.0||1|FM15-METAR|223|ICAO-KFCH|11.0||1|FM15-METAR|223|ICAO-KFCH|||||||||||||290|N-Normal|1|FM15-METAR|223|ICAO-KFCH|3.6|N-Normal|1|FM15-METAR|223|ICAO-KFCH|||||||||||||20|Derived||FM15-METAR|223|ICAO-KFCH|||||||||||||||||||||||||||||||||||||||||||||||||||||||||||||||||||||||||1013.9||1|FM15-METAR|223|ICAO-KFCH|||||||||||||||||||||||||||||||||||||||||||MET060METAR KFCH 142355Z AUTO 29007KT 9SM CLR 38/11 A2994 RMK A01=||F||223|ICAO-KFCH
USW00023167|FRESNO CHANDLER DWTN AP|2021|08|15|00|15|36.7333|-119.8167|84.1|38.0||1|FM15-METAR|223|ICAO-KFCH|11.0||1|FM15-METAR|223|ICAO-KFCH|||||||||||||999|V-Variable|9|FM15-METAR|223|ICAO-KFCH|2.6|V-Variable|1|FM15-METAR|223|ICAO-KFCH|5.7||1|FM15-METAR|223|ICAO-KFCH|||||||20|Derived||FM15-METAR|223|ICAO-KFCH|||||||||||||||||||||||||||||||||||||||||||||||||||||||||||||||||||||||||1013.9||1|FM15-METAR|223|ICAO-KFCH|||||||||||||||||||||||||||||||||||||||||||MET063METAR KFCH 150015Z AUTO VRB05G11KT 9SM CLR 38/11 A2994 RMK A01=||F||223|ICAO-KFCH
USW00023167|FRESNO CHANDLER DWTN AP|2021|08|15|00|35|36.7333|-119.8167|84.1|37.0||1|FM15-METAR|223|ICAO-KFCH|11.0||1|FM15-METAR|223|ICAO-KFCH|||||||||||||330|N-Normal|1|FM15-METAR|223|ICAO-KFCH|3.6|N-Normal|1|FM15-METAR|223|ICAO-KFCH|||||||||||||21|Derived||FM15-METAR|223|ICAO-KFCH|||||||||||||||||||||||||||||||||||||||||||||||||||||||||||||||||||||||||1013.9||1|FM15-METAR|223|ICAO-KFCH|||||||||||||||||||||||||||||||||||||||||||MET060METAR KFCH 150035Z AUTO 33007KT 9SM CLR 37/11 A2994 RMK A01=||F||223|ICAO-KFCH
USW00023167|FRESNO CHANDLER DWTN AP|2021|08|15|00|55|36.7333|-119.8167|84.1|37.0||1|FM15-METAR|223|ICAO-KFCH|11.0||1|FM15-METAR|223|ICAO-KFCH|||||||||||||300|N-Normal|1|FM15-METAR|223|ICAO-KFCH|3.1|N-Normal|1|FM15-METAR|223|ICAO-KFCH|||||||||||||21|Derived||FM15-METAR|223|ICAO-KFCH|||||||||||||||||||||||||||||||||||||||||||||||||||||||||||||||||||||||||1013.5||1|FM15-METAR|223|ICAO-KFCH|||||||||||||||||||||||||||||||||||||||||||MET060METAR KFCH 150055Z AUTO 30006KT 9SM CLR 37/11 A2993 RMK A01=||F||223|ICAO-KFCH
USW00023167|FRESNO CHANDLER DWTN AP|2021|08|15|01|15|36.7333|-119.8167|84.1|37.0||1|FM15-METAR|223|ICAO-KFCH|11.0||1|FM15-METAR|223|ICAO-KFCH|||||||||||||310|N-Normal|1|FM15-METAR|223|ICAO-KFCH|3.6|N-Normal|1|FM15-METAR|223|ICAO-KFCH|||||||||||||21|Derived||FM15-METAR|223|ICAO-KFCH|||||||||||||||||||||||||||||||||||||||||||||||||||||||||||||||||||||||||1013.5||1|FM15-METAR|223|ICAO-KFCH|||||||||||||||||||||||||||||||||||||||||||MET060METAR KFCH 150115Z AUTO 31007KT 8SM CLR 37/11 A2993 RMK A01=||F||223|ICAO-KFCH
USW00023167|FRESNO CHANDLER DWTN AP|2021|08|15|01|35|36.7333|-119.8167|84.1|37.0||1|FM15-METAR|223|ICAO-KFCH|12.0||1|FM15-METAR|223|ICAO-KFCH|||||||||||||290|N-Normal|1|FM15-METAR|223|ICAO-KFCH|4.1|N-Normal|1|FM15-METAR|223|ICAO-KFCH|||||||||||||22|Derived||FM15-METAR|223|ICAO-KFCH|||||||||||||||||||||||||||||||||||||||||||||||||||||||||||||||||||||||||1013.2||1|FM15-METAR|223|ICAO-KFCH|||||||||||||||||||||||||||||||||||||||||||MET060METAR KFCH 150135Z AUTO 29008KT 8SM CLR 37/12 A2992 RMK A01=||F||223|ICAO-KFCH
USW00023167|FRESNO CHANDLER DWTN AP|2021|08|15|01|55|36.7333|-119.8167|84.1|36.0||1|FM15-METAR|223|ICAO-KFCH|12.0||1|FM15-METAR|223|ICAO-KFCH|||||||||||||300|N-Normal|1|FM15-METAR|223|ICAO-KFCH|4.6|N-Normal|1|FM15-METAR|223|ICAO-KFCH|||||||||||||23|Derived||FM15-METAR|223|ICAO-KFCH|||||||||||||||||||||||||||||||||||||||||||||||||||||||||||||||||||||||||1013.2||1|FM15-METAR|223|ICAO-KFCH|||||||||||||||||||||||||||||||||||||||||||MET060METAR KFCH 150155Z AUTO 30009KT 8SM CLR 36/12 A2992 RMK A01=||F||223|ICAO-KFCH
USW00023167|FRESNO CHANDLER DWTN AP|2021|08|15|02|15|36.7333|-119.8167|84.1|36.0||1|FM15-METAR|223|ICAO-KFCH|12.0||1|FM15-METAR|223|ICAO-KFCH|||||||||||||300|N-Normal|1|FM15-METAR|223|ICAO-KFCH|3.6|N-Normal|1|FM15-METAR|223|ICAO-KFCH|||||||||||||23|Derived||FM15-METAR|223|ICAO-KFCH|||||||||||||||||||||||||||||||||||||||||||||||||||||||||||||||||||||||||1013.2||1|FM15-METAR|223|ICAO-KFCH|||||||||||||||||||||||||||||||||||||||||||MET060METAR KFCH 150215Z AUTO 30007KT 9SM CLR 36/12 A2992 RMK A01=||F||223|ICAO-KFCH
USW00023167|FRESNO CHANDLER DWTN AP|2021|08|15|02|30|36.7333|-119.8167|84.1|36.0||1|FM15-METAR|223|ICAO-KFCH|12.0||1|FM15-METAR|223|ICAO-KFCH|||||||||||||300|N-Normal|1|FM15-METAR|223|ICAO-KFCH|3.6|N-Normal|1|FM15-METAR|223|ICAO-KFCH|||||||||||||23|Derived||FM15-METAR|223|ICAO-KFCH|||||||||||||||||||||||||||||||||||||||||||||||||||||||||||||||||||||||||1013.5||1|FM15-METAR|223|ICAO-KFCH|||||||||||||||||||||||||||||||||||||||||||MET060METAR KFCH 150230Z AUTO 30007KT 9SM CLR 36/12 A2993 RMK A01=||F||223|ICAO-KFCH
USW00023167|FRESNO CHANDLER DWTN AP|2021|08|15|02|55|36.7333|-119.8167|84.1|35.0||1|FM15-METAR|223|ICAO-KFCH|13.0||1|FM15-METAR|223|ICAO-KFCH|||||||||||||300|N-Normal|1|FM15-METAR|223|ICAO-KFCH|3.1|N-Normal|1|FM15-METAR|223|ICAO-KFCH|||||||||||||26|Derived||FM15-METAR|223|ICAO-KFCH|||||||||||||||||||||||||||||||||||||||||||||||||||||||||||||||||||||||||1013.5||1|FM15-METAR|223|ICAO-KFCH|||||||||||||||||||||||||||||||||||||||||||MET060METAR KFCH 150255Z AUTO 30006KT 8SM CLR 35/13 A2993 RMK A01=||F||223|ICAO-KFCH
USW00023167|FRESNO CHANDLER DWTN AP|2021|08|15|03|15|36.7333|-119.8167|84.1|34.0||1|FM15-METAR|223|ICAO-KFCH|13.0||1|FM15-METAR|223|ICAO-KFCH|||||||||||||310|N-Normal|1|FM15-METAR|223|ICAO-KFCH|2.6|N-Normal|1|FM15-METAR|223|ICAO-KFCH|||||||||||||28|Derived||FM15-METAR|223|ICAO-KFCH|||||||||||||||||||||||||||||||||||||||||||||||||||||||||||||||||||||||||1013.9||1|FM15-METAR|223|ICAO-KFCH|||||||||||||||||||||||||||||||||||||||||||MET071METAR KFCH 150315Z AUTO 31005KT 10SM FEW043 SCT049 34/13 A2994 RMK A01=||F||223|ICAO-KFCH
USW00023167|FRESNO CHANDLER DWTN AP|2021|08|15|03|35|36.7333|-119.8167|84.1|34.0||1|FM15-METAR|223|ICAO-KFCH|13.0||1|FM15-METAR|223|ICAO-KFCH|||||||||||||300|N-Normal|1|FM15-METAR|223|ICAO-KFCH|2.6|N-Normal|1|FM15-METAR|223|ICAO-KFCH|||||||||||||28|Derived||FM15-METAR|223|ICAO-KFCH|||||||||||||||||||||||||||||||||||||||||||||||||||||||||||||||||||||||||1013.9||1|FM15-METAR|223|ICAO-KFCH|||||||||||||||||||||||||||||||||||||||||||MET078METAR KFCH 150335Z AUTO 30005KT 10SM SCT041 BKN049 BKN055 34/13 A2994 RMK A01=||F||223|ICAO-KFCH
USW00023167|FRESNO CHANDLER DWTN AP|2021|08|15|03|55|36.7333|-119.8167|84.1|33.0||1|FM15-METAR|223|ICAO-KFCH|13.0||1|FM15-METAR|223|ICAO-KFCH|||||||||||||310|N-Normal|1|FM15-METAR|223|ICAO-KFCH|3.6|N-Normal|1|FM15-METAR|223|ICAO-KFCH|||||||||||||30|Derived||FM15-METAR|223|ICAO-KFCH|||||||||||||||||||||||||||||||||||||||||||||||||||||||||||||||||||||||||1013.9||1|FM15-METAR|223|ICAO-KFCH|||||||||||||||||||||||||||||||||||||||||||MET078METAR KFCH 150355Z AUTO 31007KT 10SM SCT041 BKN048 OVC055 33/13 A2994 RMK A01=||F||223|ICAO-KFCH
USW00023167|FRESNO CHANDLER DWTN AP|2021|08|15|04|15|36.7333|-119.8167|84.1|33.0||1|FM15-METAR|223|ICAO-KFCH|14.0||1|FM15-METAR|223|ICAO-KFCH|||||||||||||310|N-Normal|1|FM15-METAR|223|ICAO-KFCH|2.6|N-Normal|1|FM15-METAR|223|ICAO-KFCH|||||||||||||32|Derived||FM15-METAR|223|ICAO-KFCH|||||||||||||||||||||||||||||||||||||||||||||||||||||||||||||||||||||||||1013.9||1|FM15-METAR|223|ICAO-KFCH|||||||||||||||||||||||||||||||||||||||||||MET071METAR KFCH 150415Z AUTO 31005KT 10SM BKN048 OVC055 33/14 A2994 RMK A01=||F||223|ICAO-KFCH
USW00023167|FRESNO CHANDLER DWTN AP|2021|08|15|04|35|36.7333|-119.8167|84.1|33.0||1|FM15-METAR|223|ICAO-KFCH|14.0||1|FM15-METAR|223|ICAO-KFCH|||||||||||||310|N-Normal|1|FM15-METAR|223|ICAO-KFCH|2.1|N-Normal|1|FM15-METAR|223|ICAO-KFCH|||||||||||||32|Derived||FM15-METAR|223|ICAO-KFCH|||||||||||||||||||||||||||||||||||||||||||||||||||||||||||||||||||||||||1014.2||1|FM15-METAR|223|ICAO-KFCH|||||||||||||||||||||||||||||||||||||||||||MET071METAR KFCH 150435Z AUTO 31004KT 10SM SCT041 OVC049 33/14 A2995 RMK A01=||F||223|ICAO-KFCH
USW00023167|FRESNO CHANDLER DWTN AP|2021|08|15|04|55|36.7333|-119.8167|84.1|32.0||1|FM15-METAR|223|ICAO-KFCH|14.0||1|FM15-METAR|223|ICAO-KFCH|||||||||||||999|C-Calm|9|FM15-METAR|223|ICAO-KFCH|0.0|C-Calm|1|FM15-METAR|223|ICAO-KFCH|||||||||||||33|Derived||FM15-METAR|223|ICAO-KFCH|||||||||||||||||||||||||||||||||||||||||||||||||||||||||||||||||||||||||1014.6||1|FM15-METAR|223|ICAO-KFCH|||||||||||||||||||||||||||||||||||||||||||MET078METAR KFCH 150455Z AUTO 00000KT 10SM FEW043 BKN050 OVC055 32/14 A2996 RMK A01=||F||223|ICAO-KFCH
USW00023167|FRESNO CHANDLER DWTN AP|2021|08|15|05|15|36.7333|-119.8167|84.1|32.0||1|FM15-METAR|223|ICAO-KFCH|14.0||1|FM15-METAR|223|ICAO-KFCH|||||||||||||320|N-Normal|1|FM15-METAR|223|ICAO-KFCH|2.6|N-Normal|1|FM15-METAR|223|ICAO-KFCH|||||||||||||33|Derived||FM15-METAR|223|ICAO-KFCH|||||||||||||||||||||||||||||||||||||||||||||||||||||||||||||||||||||||||1014.6||1|FM15-METAR|223|ICAO-KFCH|||||||||||||||||||||||||||||||||||||||||||MET071METAR KFCH 150515Z AUTO 32005KT 10SM FEW050 SCT055 32/14 A2996 RMK A01=||F||223|ICAO-KFCH
USW00023167|FRESNO CHANDLER DWTN AP|2021|08|15|05|35|36.7333|-119.8167|84.1|31.0||1|FM15-METAR|223|ICAO-KFCH|15.0||1|FM15-METAR|223|ICAO-KFCH|||||||||||||310|N-Normal|1|FM15-METAR|223|ICAO-KFCH|3.1|N-Normal|1|FM15-METAR|223|ICAO-KFCH|||||||||||||38|Derived||FM15-METAR|223|ICAO-KFCH|||||||||||||||||||||||||||||||||||||||||||||||||||||||||||||||||||||||||1014.6||1|FM15-METAR|223|ICAO-KFCH|||||||||||||||||||||||||||||||||||||||||||MET061METAR KFCH 150535Z AUTO 31006KT 10SM CLR 31/15 A2996 RMK A01=||F||223|ICAO-KFCH
USW00023167|FRESNO CHANDLER DWTN AP|2021|08|15|05|50|36.7333|-119.8167|84.1|31.0||1|FM15-METAR|223|ICAO-KFCH|15.0||1|FM15-METAR|223|ICAO-KFCH|||||||||||||310|N-Normal|1|FM15-METAR|223|ICAO-KFCH|4.6|N-Normal|1|FM15-METAR|223|ICAO-KFCH|||||||||||||38|Derived||FM15-METAR|223|ICAO-KFCH|||||||||||||||||||||||||||||||||||||||||||||||||||||||||||||||||||||||||1014.6||1|FM15-METAR|223|ICAO-KFCH|||||||||||||||||||||||||||||||||||||||||||MET061METAR KFCH 150550Z AUTO 31009KT 10SM CLR 31/15 A2996 RMK A01=||F||223|ICAO-KFCH
USW00023167|FRESNO CHANDLER DWTN AP|2021|08|15|06|15|36.7333|-119.8167|84.1|31.0||1|FM15-METAR|223|ICAO-KFCH|15.0||1|FM15-METAR|223|ICAO-KFCH|||||||||||||320|N-Normal|1|FM15-METAR|223|ICAO-KFCH|4.6|N-Normal|1|FM15-METAR|223|ICAO-KFCH|||||||||||||38|Derived||FM15-METAR|223|ICAO-KFCH|||||||||||||||||||||||||||||||||||||||||||||||||||||||||||||||||||||||||1014.2||1|FM15-METAR|223|ICAO-KFCH|||||||||||||||||||||||||||||||||||||||||||MET071METAR KFCH 150615Z AUTO 32009KT 10SM FEW036 FEW050 31/15 A2995 RMK A01=||F||223|ICAO-KFCH
USW00023167|FRESNO CHANDLER DWTN AP|2021|08|15|06|30|36.7333|-119.8167|84.1|31.0||1|FM15-METAR|223|ICAO-KFCH|15.0||1|FM15-METAR|223|ICAO-KFCH|||||||||||||330|N-Normal|1|FM15-METAR|223|ICAO-KFCH|3.6|N-Normal|1|FM15-METAR|223|ICAO-KFCH|||||||||||||38|Derived||FM15-METAR|223|ICAO-KFCH|||||||||||||||||||||||||||||||||||||||||||||||||||||||||||||||||||||||||1014.2||1|FM15-METAR|223|ICAO-KFCH|||||||||||||||||||||||||||||||||||||||||||MET061METAR KFCH 150630Z AUTO 33007KT 10SM CLR 31/15 A2995 RMK A01=||F||223|ICAO-KFCH
USW00023167|FRESNO CHANDLER DWTN AP|2021|08|15|06|55|36.7333|-119.8167|84.1|30.0||1|FM15-METAR|223|ICAO-KFCH|15.0||1|FM15-METAR|223|ICAO-KFCH|||||||||||||330|N-Normal|1|FM15-METAR|223|ICAO-KFCH|3.6|N-Normal|1|FM15-METAR|223|ICAO-KFCH|||||||||||||40|Derived||FM15-METAR|223|ICAO-KFCH|||||||||||||||||||||||||||||||||||||||||||||||||||||||||||||||||||||||||1014.2||1|FM15-METAR|223|ICAO-KFCH|||||||||||||||||||||||||||||||||||||||||||MET061METAR KFCH 150655Z AUTO 33007KT 10SM CLR 30/15 A2995 RMK A01=||F||223|ICAO-KFCH
USW00023167|FRESNO CHANDLER DWTN AP|2021|08|15|07|15|36.7333|-119.8167|84.1|30.0||1|FM15-METAR|223|ICAO-KFCH|15.0||1|FM15-METAR|223|ICAO-KFCH|||||||||||||330|N-Normal|1|FM15-METAR|223|ICAO-KFCH|3.6|N-Normal|1|FM15-METAR|223|ICAO-KFCH|||||||||||||40|Derived||FM15-METAR|223|ICAO-KFCH|||||||||||||||||||||||||||||||||||||||||||||||||||||||||||||||||||||||||1013.9||1|FM15-METAR|223|ICAO-KFCH|||||||||||||||||||||||||||||||||||||||||||MET061METAR KFCH 150715Z AUTO 33007KT 10SM CLR 30/15 A2994 RMK A01=||F||223|ICAO-KFCH
USW00023167|FRESNO CHANDLER DWTN AP|2021|08|15|07|35|36.7333|-119.8167|84.1|30.0||1|FM15-METAR|223|ICAO-KFCH|15.0||1|FM15-METAR|223|ICAO-KFCH|||||||||||||310|N-Normal|1|FM15-METAR|223|ICAO-KFCH|2.1|N-Normal|1|FM15-METAR|223|ICAO-KFCH|||||||||||||40|Derived||FM15-METAR|223|ICAO-KFCH|||||||||||||||||||||||||||||||||||||||||||||||||||||||||||||||||||||||||1013.9||1|FM15-METAR|223|ICAO-KFCH|||||||||||||||||||||||||||||||||||||||||||MET061METAR KFCH 150735Z AUTO 31004KT 10SM CLR 30/15 A2994 RMK A01=||F||223|ICAO-KFCH
USW00023167|FRESNO CHANDLER DWTN AP|2021|08|15|07|55|36.7333|-119.8167|84.1|30.0||1|FM15-METAR|223|ICAO-KFCH|15.0||1|FM15-METAR|223|ICAO-KFCH|||||||||||||310|N-Normal|1|FM15-METAR|223|ICAO-KFCH|3.1|N-Normal|1|FM15-METAR|223|ICAO-KFCH|||||||||||||40|Derived||FM15-METAR|223|ICAO-KFCH|||||||||||||||||||||||||||||||||||||||||||||||||||||||||||||||||||||||||1013.9||1|FM15-METAR|223|ICAO-KFCH|||||||||||||||||||||||||||||||||||||||||||MET061METAR KFCH 150755Z AUTO 31006KT 10SM CLR 30/15 A2994 RMK A01=||F||223|ICAO-KFCH
USW00023167|FRESNO CHANDLER DWTN AP|2021|08|15|08|15|36.7333|-119.8167|84.1|29.0||1|FM15-METAR|223|ICAO-KFCH|15.0||1|FM15-METAR|223|ICAO-KFCH|||||||||||||320|N-Normal|1|FM15-METAR|223|ICAO-KFCH|3.1|N-Normal|1|FM15-METAR|223|ICAO-KFCH|||||||||||||43|Derived||FM15-METAR|223|ICAO-KFCH|||||||||||||||||||||||||||||||||||||||||||||||||||||||||||||||||||||||||1013.9||1|FM15-METAR|223|ICAO-KFCH|||||||||||||||||||||||||||||||||||||||||||MET061METAR KFCH 150815Z AUTO 32006KT 10SM CLR 29/15 A2994 RMK A01=||F||223|ICAO-KFCH
USW00023167|FRESNO CHANDLER DWTN AP|2021|08|15|08|30|36.7333|-119.8167|84.1|29.0||1|FM15-METAR|223|ICAO-KFCH|15.0||1|FM15-METAR|223|ICAO-KFCH|||||||||||||300|N-Normal|1|FM15-METAR|223|ICAO-KFCH|2.6|N-Normal|1|FM15-METAR|223|ICAO-KFCH|||||||||||||43|Derived||FM15-METAR|223|ICAO-KFCH|||||||||||||||||||||||||||||||||||||||||||||||||||||||||||||||||||||||||1013.9||1|FM15-METAR|223|ICAO-KFCH|||||||||||||||||||||||||||||||||||||||||||MET061METAR KFCH 150830Z AUTO 30005KT 10SM CLR 29/15 A2994 RMK A01=||F||223|ICAO-KFCH
USW00023167|FRESNO CHANDLER DWTN AP|2021|08|15|08|55|36.7333|-119.8167|84.1|28.0||1|FM15-METAR|223|ICAO-KFCH|15.0||1|FM15-METAR|223|ICAO-KFCH|||||||||||||290|N-Normal|1|FM15-METAR|223|ICAO-KFCH|2.6|N-Normal|1|FM15-METAR|223|ICAO-KFCH|||||||||||||45|Derived||FM15-METAR|223|ICAO-KFCH|||||||||||||||||||||||||||||||||||||||||||||||||||||||||||||||||||||||||1013.5||1|FM15-METAR|223|ICAO-KFCH|||||||||||||||||||||||||||||||||||||||||||MET061METAR KFCH 150855Z AUTO 29005KT 10SM CLR 28/15 A2993 RMK A01=||F||223|ICAO-KFCH
USW00023167|FRESNO CHANDLER DWTN AP|2021|08|15|09|15|36.7333|-119.8167|84.1|27.0||1|FM15-METAR|223|ICAO-KFCH|15.0||1|FM15-METAR|223|ICAO-KFCH|||||||||||||260|N-Normal|1|FM15-METAR|223|ICAO-KFCH|2.1|N-Normal|1|FM15-METAR|223|ICAO-KFCH|||||||||||||48|Derived||FM15-METAR|223|ICAO-KFCH|||||||||||||||||||||||||||||||||||||||||||||||||||||||||||||||||||||||||1013.5||1|FM15-METAR|223|ICAO-KFCH|||||||||||||||||||||||||||||||||||||||||||MET061METAR KFCH 150915Z AUTO 26004KT 10SM CLR 27/15 A2993 RMK A01=||F||223|ICAO-KFCH
USW00023167|FRESNO CHANDLER DWTN AP|2021|08|15|09|35|36.7333|-119.8167|84.1|27.0||1|FM15-METAR|223|ICAO-KFCH|15.0||1|FM15-METAR|223|ICAO-KFCH|||||||||||||999|C-Calm|9|FM15-METAR|223|ICAO-KFCH|0.0|C-Calm|1|FM15-METAR|223|ICAO-KFCH|||||||||||||48|Derived||FM15-METAR|223|ICAO-KFCH|||||||||||||||||||||||||||||||||||||||||||||||||||||||||||||||||||||||||1013.5||1|FM15-METAR|223|ICAO-KFCH|||||||||||||||||||||||||||||||||||||||||||MET061METAR KFCH 150935Z AUTO 00000KT 10SM CLR 27/15 A2993 RMK A01=||F||223|ICAO-KFCH
USW00023167|FRESNO CHANDLER DWTN AP|2021|08|15|09|55|36.7333|-119.8167|84.1|27.0||1|FM15-METAR|223|ICAO-KFCH|15.0||1|FM15-METAR|223|ICAO-KFCH|||||||||||||270|N-Normal|1|FM15-METAR|223|ICAO-KFCH|1.5|N-Normal|1|FM15-METAR|223|ICAO-KFCH|||||||||||||48|Derived||FM15-METAR|223|ICAO-KFCH|||||||||||||||||||||||||||||||||||||||||||||||||||||||||||||||||||||||||1013.2||1|FM15-METAR|223|ICAO-KFCH|||||||||||||||||||||||||||||||||||||||||||MET064METAR KFCH 150955Z AUTO 27003KT 10SM FEW045 27/15 A2992 RMK A01=||F||223|ICAO-KFCH
USW00023167|FRESNO CHANDLER DWTN AP|2021|08|15|10|15|36.7333|-119.8167|84.1|27.0||1|FM15-METAR|223|ICAO-KFCH|15.0||1|FM15-METAR|223|ICAO-KFCH|||||||||||||250|N-Normal|1|FM15-METAR|223|ICAO-KFCH|2.1|N-Normal|1|FM15-METAR|223|ICAO-KFCH|||||||||||||48|Derived||FM15-METAR|223|ICAO-KFCH|||||||||||||||||||||||||||||||||||||||||||||||||||||||||||||||||||||||||1013.5||1|FM15-METAR|223|ICAO-KFCH|||||||||||||||||||||||||||||||||||||||||||MET061METAR KFCH 151015Z AUTO 25004KT 10SM CLR 27/15 A2993 RMK A01=||F||223|ICAO-KFCH
USW00023167|FRESNO CHANDLER DWTN AP|2021|08|15|10|35|36.7333|-119.8167|84.1|26.0||1|FM15-METAR|223|ICAO-KFCH|15.0||1|FM15-METAR|223|ICAO-KFCH|||||||||||||280|N-Normal|1|FM15-METAR|223|ICAO-KFCH|2.6|N-Normal|1|FM15-METAR|223|ICAO-KFCH|||||||||||||51|Derived||FM15-METAR|223|ICAO-KFCH|||||||||||||||||||||||||||||||||||||||||||||||||||||||||||||||||||||||||1013.5||1|FM15-METAR|223|ICAO-KFCH|||||||||||||||||||||||||||||||||||||||||||MET061METAR KFCH 151035Z AUTO 28005KT 10SM CLR 26/15 A2993 RMK A01=||F||223|ICAO-KFCH
USW00023167|FRESNO CHANDLER DWTN AP|2021|08|15|10|55|36.7333|-119.8167|84.1|26.0||1|FM15-METAR|223|ICAO-KFCH|15.0||1|FM15-METAR|223|ICAO-KFCH|||||||||||||270|N-Normal|1|FM15-METAR|223|ICAO-KFCH|2.1|N-Normal|1|FM15-METAR|223|ICAO-KFCH|||||||||||||51|Derived||FM15-METAR|223|ICAO-KFCH|||||||||||||||||||||||||||||||||||||||||||||||||||||||||||||||||||||||||1013.5||1|FM15-METAR|223|ICAO-KFCH|||||||||||||||||||||||||||||||||||||||||||MET061METAR KFCH 151055Z AUTO 27004KT 10SM CLR 26/15 A2993 RMK A01=||F||223|ICAO-KFCH
USW00023167|FRESNO CHANDLER DWTN AP|2021|08|15|11|15|36.7333|-119.8167|84.1|25.0||1|FM15-METAR|223|ICAO-KFCH|15.0||1|FM15-METAR|223|ICAO-KFCH|||||||||||||300|N-Normal|1|FM15-METAR|223|ICAO-KFCH|2.6|N-Normal|1|FM15-METAR|223|ICAO-KFCH|||||||||||||54|Derived||FM15-METAR|223|ICAO-KFCH|||||||||||||||||||||||||||||||||||||||||||||||||||||||||||||||||||||||||1013.5||1|FM15-METAR|223|ICAO-KFCH|||||||||||||||||||||||||||||||||||||||||||MET061METAR KFCH 151115Z AUTO 30005KT 10SM CLR 25/15 A2993 RMK A01=||F||223|ICAO-KFCH
USW00023167|FRESNO CHANDLER DWTN AP|2021|08|15|11|35|36.7333|-119.8167|84.1|25.0||1|FM15-METAR|223|ICAO-KFCH|14.0||1|FM15-METAR|223|ICAO-KFCH|||||||||||||999|C-Calm|9|FM15-METAR|223|ICAO-KFCH|0.0|C-Calm|1|FM15-METAR|223|ICAO-KFCH|||||||||||||51|Derived||FM15-METAR|223|ICAO-KFCH|||||||||||||||||||||||||||||||||||||||||||||||||||||||||||||||||||||||||1013.5||1|FM15-METAR|223|ICAO-KFCH|||||||||||||||||||||||||||||||||||||||||||MET064METAR KFCH 151135Z AUTO 00000KT 10SM FEW060 25/14 A2993 RMK A01=||F||223|ICAO-KFCH
USW00023167|FRESNO CHANDLER DWTN AP|2021|08|15|11|55|36.7333|-119.8167|84.1|25.0||1|FM15-METAR|223|ICAO-KFCH|14.0||1|FM15-METAR|223|ICAO-KFCH|||||||||||||999|C-Calm|9|FM15-METAR|223|ICAO-KFCH|0.0|C-Calm|1|FM15-METAR|223|ICAO-KFCH|||||||||||||51|Derived||FM15-METAR|223|ICAO-KFCH|||||||||||||||||||||||||||||||||||||||||||||||||||||||||||||||||||||||||1013.9||1|FM15-METAR|223|ICAO-KFCH|||||||||||||||||||||||||||||||||||||||||||MET064METAR KFCH 151155Z AUTO 00000KT 10SM FEW060 25/14 A2994 RMK A01=||F||223|ICAO-KFCH
USW00023167|FRESNO CHANDLER DWTN AP|2021|08|15|12|15|36.7333|-119.8167|84.1|25.0||1|FM15-METAR|223|ICAO-KFCH|14.0||1|FM15-METAR|223|ICAO-KFCH|||||||||||||320|N-Normal|1|FM15-METAR|223|ICAO-KFCH|2.1|N-Normal|1|FM15-METAR|223|ICAO-KFCH|||||||||||||51|Derived||FM15-METAR|223|ICAO-KFCH|||||||||||||||||||||||||||||||||||||||||||||||||||||||||||||||||||||||||1013.5||1|FM15-METAR|223|ICAO-KFCH|||||||||||||||||||||||||||||||||||||||||||MET064METAR KFCH 151215Z AUTO 32004KT 10SM SCT055 25/14 A2993 RMK A01=||F||223|ICAO-KFCH
USW00023167|FRESNO CHANDLER DWTN AP|2021|08|15|12|35|36.7333|-119.8167|84.1|25.0||1|FM15-METAR|223|ICAO-KFCH|14.0||1|FM15-METAR|223|ICAO-KFCH|||||||||||||290|N-Normal|1|FM15-METAR|223|ICAO-KFCH|2.6|N-Normal|1|FM15-METAR|223|ICAO-KFCH|||||||||||||51|Derived||FM15-METAR|223|ICAO-KFCH|||||||||||||||||||||||||||||||||||||||||||||||||||||||||||||||||||||||||1013.5||1|FM15-METAR|223|ICAO-KFCH|||||||||||||||||||||||||||||||||||||||||||MET064METAR KFCH 151235Z AUTO 29005KT 10SM FEW055 25/14 A2993 RMK A01=||F||223|ICAO-KFCH
USW00023167|FRESNO CHANDLER DWTN AP|2021|08|15|12|55|36.7333|-119.8167|84.1|25.0||1|FM15-METAR|223|ICAO-KFCH|14.0||1|FM15-METAR|223|ICAO-KFCH|||||||||||||300|N-Normal|1|FM15-METAR|223|ICAO-KFCH|2.6|N-Normal|1|FM15-METAR|223|ICAO-KFCH|||||||||||||51|Derived||FM15-METAR|223|ICAO-KFCH|||||||||||||||||||||||||||||||||||||||||||||||||||||||||||||||||||||||||1013.5||1|FM15-METAR|223|ICAO-KFCH|||||||||||||||||||||||||||||||||||||||||||MET064METAR KFCH 151255Z AUTO 30005KT 10SM FEW060 25/14 A2993 RMK A01=||F||223|ICAO-KFCH
USW00023167|FRESNO CHANDLER DWTN AP|2021|08|15|13|15|36.7333|-119.8167|84.1|24.0||1|FM15-METAR|223|ICAO-KFCH|14.0||1|FM15-METAR|223|ICAO-KFCH|||||||||||||999|C-Calm|9|FM15-METAR|223|ICAO-KFCH|0.0|C-Calm|1|FM15-METAR|223|ICAO-KFCH|||||||||||||54|Derived||FM15-METAR|223|ICAO-KFCH|||||||||||||||||||||||||||||||||||||||||||||||||||||||||||||||||||||||||1013.9||1|FM15-METAR|223|ICAO-KFCH|||||||||||||||||||||||||||||||||||||||||||MET061METAR KFCH 151315Z AUTO 00000KT 10SM CLR 24/14 A2994 RMK A01=||F||223|ICAO-KFCH
USW00023167|FRESNO CHANDLER DWTN AP|2021|08|15|13|30|36.7333|-119.8167|84.1|24.0||1|FM15-METAR|223|ICAO-KFCH|14.0||1|FM15-METAR|223|ICAO-KFCH|||||||||||||999|C-Calm|9|FM15-METAR|223|ICAO-KFCH|0.0|C-Calm|1|FM15-METAR|223|ICAO-KFCH|||||||||||||54|Derived||FM15-METAR|223|ICAO-KFCH|||||||||||||||||||||||||||||||||||||||||||||||||||||||||||||||||||||||||1014.2||1|FM15-METAR|223|ICAO-KFCH|||||||||||||||||||||||||||||||||||||||||||MET061METAR KFCH 151330Z AUTO 00000KT 10SM CLR 24/14 A2995 RMK A01=||F||223|ICAO-KFCH
USW00023167|FRESNO CHANDLER DWTN AP|2021|08|15|13|55|36.7333|-119.8167|84.1|25.0||1|FM15-METAR|223|ICAO-KFCH|14.0||1|FM15-METAR|223|ICAO-KFCH|||||||||||||999|C-Calm|9|FM15-METAR|223|ICAO-KFCH|0.0|C-Calm|1|FM15-METAR|223|ICAO-KFCH|||||||||||||51|Derived||FM15-METAR|223|ICAO-KFCH|||||||||||||||||||||||||||||||||||||||||||||||||||||||||||||||||||||||||1014.2||1|FM15-METAR|223|ICAO-KFCH|||||||||||||||||||||||||||||||||||||||||||MET060METAR KFCH 151355Z AUTO 00000KT 9SM CLR 25/14 A2995 RMK A01=||F||223|ICAO-KFCH
USW00023167|FRESNO CHANDLER DWTN AP|2021|08|15|14|15|36.7333|-119.8167|84.1|25.0||1|FM15-METAR|223|ICAO-KFCH|14.0||1|FM15-METAR|223|ICAO-KFCH|||||||||||||999|C-Calm|9|FM15-METAR|223|ICAO-KFCH|0.0|C-Calm|1|FM15-METAR|223|ICAO-KFCH|||||||||||||51|Derived||FM15-METAR|223|ICAO-KFCH|||||||||||||||||||||||||||||||||||||||||||||||||||||||||||||||||||||||||1014.2||1|FM15-METAR|223|ICAO-KFCH|||||||||||||||||||||||||||||||||||||||||||MET060METAR KFCH 151415Z AUTO 00000KT 9SM CLR 25/14 A2995 RMK A01=||F||223|ICAO-KFCH
USW00023167|FRESNO CHANDLER DWTN AP|2021|08|15|14|35|36.7333|-119.8167|84.1|26.0||1|FM15-METAR|223|ICAO-KFCH|14.0||1|FM15-METAR|223|ICAO-KFCH|||||||||||||020|N-Normal|1|FM15-METAR|223|ICAO-KFCH|2.6|N-Normal|1|FM15-METAR|223|ICAO-KFCH|||||||||||||48|Derived||FM15-METAR|223|ICAO-KFCH|||||||||||||||||||||||||||||||||||||||||||||||||||||||||||||||||||||||||1014.2||1|FM15-METAR|223|ICAO-KFCH|||||||||||||||||||||||||||||||||||||||||||MET061METAR KFCH 151435Z AUTO 02005KT 10SM CLR 26/14 A2995 RMK A01=||F||223|ICAO-KFCH
USW00023167|FRESNO CHANDLER DWTN AP|2021|08|15|14|55|36.7333|-119.8167|84.1|26.0||1|FM15-METAR|223|ICAO-KFCH|14.0||1|FM15-METAR|223|ICAO-KFCH|||||||||||||999|C-Calm|9|FM15-METAR|223|ICAO-KFCH|0.0|C-Calm|1|FM15-METAR|223|ICAO-KFCH|||||||||||||48|Derived||FM15-METAR|223|ICAO-KFCH|||||||||||||||||||||||||||||||||||||||||||||||||||||||||||||||||||||||||1014.6||1|FM15-METAR|223|ICAO-KFCH|||||||||||||||||||||||||||||||||||||||||||MET061METAR KFCH 151455Z AUTO 00000KT 10SM CLR 26/14 A2996 RMK A01=||F||223|ICAO-KFCH
USW00023167|FRESNO CHANDLER DWTN AP|2021|08|15|15|15|36.7333|-119.8167|84.1|27.0||1|FM15-METAR|223|ICAO-KFCH|14.0||1|FM15-METAR|223|ICAO-KFCH|||||||||||||999|C-Calm|9|FM15-METAR|223|ICAO-KFCH|0.0|C-Calm|1|FM15-METAR|223|ICAO-KFCH|||||||||||||45|Derived||FM15-METAR|223|ICAO-KFCH|||||||||||||||||||||||||||||||||||||||||||||||||||||||||||||||||||||||||1014.6||1|FM15-METAR|223|ICAO-KFCH|||||||||||||||||||||||||||||||||||||||||||MET061METAR KFCH 151515Z AUTO 00000KT 10SM CLR 27/14 A2996 RMK A01=||F||223|ICAO-KFCH
USW00023167|FRESNO CHANDLER DWTN AP|2021|08|15|15|35|36.7333|-119.8167|84.1|28.0||1|FM15-METAR|223|ICAO-KFCH|14.0||1|FM15-METAR|223|ICAO-KFCH|||||||||||||999|C-Calm|9|FM15-METAR|223|ICAO-KFCH|0.0|C-Calm|1|FM15-METAR|223|ICAO-KFCH|||||||||||||42|Derived||FM15-METAR|223|ICAO-KFCH|||||||||||||||||||||||||||||||||||||||||||||||||||||||||||||||||||||||||1014.6||1|FM15-METAR|223|ICAO-KFCH|||||||||||||||||||||||||||||||||||||||||||MET061METAR KFCH 151535Z AUTO 00000KT 10SM CLR 28/14 A2996 RMK A01=||F||223|ICAO-KFCH
USW00023167|FRESNO CHANDLER DWTN AP|2021|08|15|15|55|36.7333|-119.8167|84.1|28.0||1|FM15-METAR|223|ICAO-KFCH|14.0||1|FM15-METAR|223|ICAO-KFCH|||||||||||||999|C-Calm|9|FM15-METAR|223|ICAO-KFCH|0.0|C-Calm|1|FM15-METAR|223|ICAO-KFCH|||||||||||||42|Derived||FM15-METAR|223|ICAO-KFCH|||||||||||||||||||||||||||||||||||||||||||||||||||||||||||||||||||||||||1014.6||1|FM15-METAR|223|ICAO-KFCH|||||||||||||||||||||||||||||||||||||||||||MET060METAR KFCH 151555Z AUTO 00000KT 9SM CLR 28/14 A2996 RMK A01=||F||223|ICAO-KFCH
USW00023167|FRESNO CHANDLER DWTN AP|2021|08|15|16|15|36.7333|-119.8167|84.1|29.0||1|FM15-METAR|223|ICAO-KFCH|14.0||1|FM15-METAR|223|ICAO-KFCH|||||||||||||999|C-Calm|9|FM15-METAR|223|ICAO-KFCH|0.0|C-Calm|1|FM15-METAR|223|ICAO-KFCH|||||||||||||40|Derived||FM15-METAR|223|ICAO-KFCH|||||||||||||||||||||||||||||||||||||||||||||||||||||||||||||||||||||||||1014.6||1|FM15-METAR|223|ICAO-KFCH|||||||||||||||||||||||||||||||||||||||||||MET060METAR KFCH 151615Z AUTO 00000KT 9SM CLR 29/14 A2996 RMK A01=||F||223|ICAO-KFCH
USW00023167|FRESNO CHANDLER DWTN AP|2021|08|15|16|30|36.7333|-119.8167|84.1|29.0||1|FM15-METAR|223|ICAO-KFCH|15.0||1|FM15-METAR|223|ICAO-KFCH|||||||||||||250|N-Normal|1|FM15-METAR|223|ICAO-KFCH|1.5|N-Normal|1|FM15-METAR|223|ICAO-KFCH|||||||||||||43|Derived||FM15-METAR|223|ICAO-KFCH|||||||||||||||||||||||||||||||||||||||||||||||||||||||||||||||||||||||||1014.6||1|FM15-METAR|223|ICAO-KFCH|||||||||||||||||||||||||||||||||||||||||||MET060METAR KFCH 151630Z AUTO 25003KT 9SM CLR 29/15 A2996 RMK A01=||F||223|ICAO-KFCH
USW00023167|FRESNO CHANDLER DWTN AP|2021|08|15|16|55|36.7333|-119.8167|84.1|30.0||1|FM15-METAR|223|ICAO-KFCH|16.0||1|FM15-METAR|223|ICAO-KFCH|||||||||||||220|N-Normal|1|FM15-METAR|223|ICAO-KFCH|2.6|N-Normal|1|FM15-METAR|223|ICAO-KFCH|||||||||||||43|Derived||FM15-METAR|223|ICAO-KFCH|||||||||||||||||||||||||||||||||||||||||||||||||||||||||||||||||||||||||1014.2||1|FM15-METAR|223|ICAO-KFCH|||||||||||||||||||||||||||||||||||||||||||MET060METAR KFCH 151655Z AUTO 22005KT 9SM CLR 30/16 A2995 RMK A01=||F||223|ICAO-KFCH
USW00023167|FRESNO CHANDLER DWTN AP|2021|08|15|17|15|36.7333|-119.8167|84.1|30.0||1|FM15-METAR|223|ICAO-KFCH|16.0||1|FM15-METAR|223|ICAO-KFCH|||||||||||||240|N-Normal|1|FM15-METAR|223|ICAO-KFCH|3.1|N-Normal|1|FM15-METAR|223|ICAO-KFCH|||||||||||||43|Derived||FM15-METAR|223|ICAO-KFCH|||||||||||||||||||||||||||||||||||||||||||||||||||||||||||||||||||||||||1014.2||1|FM15-METAR|223|ICAO-KFCH|||||||||||||||||||||||||||||||||||||||||||MET060METAR KFCH 151715Z AUTO 24006KT 9SM CLR 30/16 A2995 RMK A01=||F||223|ICAO-KFCH
USW00023167|FRESNO CHANDLER DWTN AP|2021|08|15|17|35|36.7333|-119.8167|84.1|31.0||1|FM15-METAR|223|ICAO-KFCH|14.0||1|FM15-METAR|223|ICAO-KFCH|||||||||||||290|N-Normal|1|FM15-METAR|223|ICAO-KFCH|2.1|N-Normal|1|FM15-METAR|223|ICAO-KFCH|||||||||||||35|Derived||FM15-METAR|223|ICAO-KFCH|||||||||||||||||||||||||||||||||||||||||||||||||||||||||||||||||||||||||1014.2||1|FM15-METAR|223|ICAO-KFCH|||||||||||||||||||||||||||||||||||||||||||MET060METAR KFCH 151735Z AUTO 29004KT 9SM CLR 31/14 A2995 RMK A01=||F||223|ICAO-KFCH
USW00023167|FRESNO CHANDLER DWTN AP|2021|08|15|17|55|36.7333|-119.8167|84.1|32.0||1|FM15-METAR|223|ICAO-KFCH|14.0||1|FM15-METAR|223|ICAO-KFCH|||||||||||||270|N-Normal|1|FM15-METAR|223|ICAO-KFCH|2.1|N-Normal|1|FM15-METAR|223|ICAO-KFCH|||||||||||||33|Derived||FM15-METAR|223|ICAO-KFCH|||||||||||||||||||||||||||||||||||||||||||||||||||||||||||||||||||||||||1014.2||1|FM15-METAR|223|ICAO-KFCH|||||||||||||||||||||||||||||||||||||||||||MET060METAR KFCH 151755Z AUTO 27004KT 9SM CLR 32/14 A2995 RMK A01=||F||223|ICAO-KFCH
USW00023167|FRESNO CHANDLER DWTN AP|2021|08|15|18|15|36.7333|-119.8167|84.1|33.0||1|FM15-METAR|223|ICAO-KFCH|14.0||1|FM15-METAR|223|ICAO-KFCH|||||||||||||260|N-Normal|1|FM15-METAR|223|ICAO-KFCH|2.6|N-Normal|1|FM15-METAR|223|ICAO-KFCH|||||||||||||32|Derived||FM15-METAR|223|ICAO-KFCH|||||||||||||||||||||||||||||||||||||||||||||||||||||||||||||||||||||||||1013.9||1|FM15-METAR|223|ICAO-KFCH|||||||||||||||||||||||||||||||||||||||||||MET060METAR KFCH 151815Z AUTO 26005KT 9SM CLR 33/14 A2994 RMK A01=||F||223|ICAO-KFCH
USW00023167|FRESNO CHANDLER DWTN AP|2021|08|15|18|35|36.7333|-119.8167|84.1|33.0||1|FM15-METAR|223|ICAO-KFCH|14.0||1|FM15-METAR|223|ICAO-KFCH|||||||||||||999|V-Variable|9|FM15-METAR|223|ICAO-KFCH|2.6|V-Variable|1|FM15-METAR|223|ICAO-KFCH|||||||||||||32|Derived||FM15-METAR|223|ICAO-KFCH|||||||||||||||||||||||||||||||||||||||||||||||||||||||||||||||||||||||||1013.9||1|FM15-METAR|223|ICAO-KFCH|||||||||||||||||||||||||||||||||||||||||||MET060METAR KFCH 151835Z AUTO VRB05KT 9SM CLR 33/14 A2994 RMK A01=||F||223|ICAO-KFCH
USW00023167|FRESNO CHANDLER DWTN AP|2021|08|15|18|55|36.7333|-119.8167|84.1|33.0||1|FM15-METAR|223|ICAO-KFCH|14.0||1|FM15-METAR|223|ICAO-KFCH|||||||||||||300|N-Normal|1|FM15-METAR|223|ICAO-KFCH|3.6|N-Normal|1|FM15-METAR|223|ICAO-KFCH|||||||||||||32|Derived||FM15-METAR|223|ICAO-KFCH|||||||||||||||||||||||||||||||||||||||||||||||||||||||||||||||||||||||||1013.5||1|FM15-METAR|223|ICAO-KFCH|||||||||||||||||||||||||||||||||||||||||||MET060METAR KFCH 151855Z AUTO 30007KT 9SM CLR 33/14 A2993 RMK A01=||F||223|ICAO-KFCH
USW00023167|FRESNO CHANDLER DWTN AP|2021|08|15|19|15|36.7333|-119.8167|84.1|34.0||1|FM15-METAR|223|ICAO-KFCH|14.0||1|FM15-METAR|223|ICAO-KFCH|||||||||||||290|V-Variable|1|FM15-METAR|223|ICAO-KFCH|4.1|V-Variable|1|FM15-METAR|223|ICAO-KFCH|||||||||||||30|Derived||FM15-METAR|223|ICAO-KFCH|||||||||||||||||||||||||||||||||||||||||||||||||||||||||||||||||||||||||1013.2||1|FM15-METAR|223|ICAO-KFCH|||||||||||||||||||||||||||||||||||||||||||MET068METAR KFCH 151915Z AUTO 29008KT 250V310 9SM CLR 34/14 A2992 RMK A01=||F||223|ICAO-KFCH
USW00023167|FRESNO CHANDLER DWTN AP|2021|08|15|19|35|36.7333|-119.8167|84.1|35.0||1|FM15-METAR|223|ICAO-KFCH|13.0||1|FM15-METAR|223|ICAO-KFCH|||||||||||||290|N-Normal|1|FM15-METAR|223|ICAO-KFCH|4.6|N-Normal|1|FM15-METAR|223|ICAO-KFCH|||||||||||||26|Derived||FM15-METAR|223|ICAO-KFCH|||||||||||||||||||||||||||||||||||||||||||||||||||||||||||||||||||||||||1012.9||1|FM15-METAR|223|ICAO-KFCH|||||||||||||||||||||||||||||||||||||||||||MET060METAR KFCH 151935Z AUTO 29009KT 9SM CLR 35/13 A2991 RMK A01=||F||223|ICAO-KFCH
USW00023167|FRESNO CHANDLER DWTN AP|2021|08|15|19|55|36.7333|-119.8167|84.1|35.0||1|FM15-METAR|223|ICAO-KFCH|13.0||1|FM15-METAR|223|ICAO-KFCH|||||||||||||300|N-Normal|1|FM15-METAR|223|ICAO-KFCH|4.1|N-Normal|1|FM15-METAR|223|ICAO-KFCH|||||||||||||26|Derived||FM15-METAR|223|ICAO-KFCH|||||||||||||||||||||||||||||||||||||||||||||||||||||||||||||||||||||||||1012.9||1|FM15-METAR|223|ICAO-KFCH|||||||||||||||||||||||||||||||||||||||||||MET061METAR KFCH 151955Z AUTO 30008KT 10SM CLR 35/13 A2991 RMK A01=||F||223|ICAO-KFCH
USW00023167|FRESNO CHANDLER DWTN AP|2021|08|15|20|15|36.7333|-119.8167|84.1|36.0||1|FM15-METAR|223|ICAO-KFCH|11.0||1|FM15-METAR|223|ICAO-KFCH|||||||||||||240|N-Normal|1|FM15-METAR|223|ICAO-KFCH|3.1|N-Normal|1|FM15-METAR|223|ICAO-KFCH|||||||||||||22|Derived||FM15-METAR|223|ICAO-KFCH|||||||||||||||||||||||||||||||||||||||||||||||||||||||||||||||||||||||||1012.5||1|FM15-METAR|223|ICAO-KFCH|||||||||||||||||||||||||||||||||||||||||||MET060METAR KFCH 152015Z AUTO 24006KT 9SM CLR 36/11 A2990 RMK A01=||F||223|ICAO-KFCH
USW00023167|FRESNO CHANDLER DWTN AP|2021|08|15|20|35|36.7333|-119.8167|84.1|36.0||1|FM15-METAR|223|ICAO-KFCH|13.0||1|FM15-METAR|223|ICAO-KFCH|||||||||||||999|V-Variable|9|FM15-METAR|223|ICAO-KFCH|2.6|V-Variable|1|FM15-METAR|223|ICAO-KFCH|5.1||1|FM15-METAR|223|ICAO-KFCH|||||||25|Derived||FM15-METAR|223|ICAO-KFCH|||||||||||||||||||||||||||||||||||||||||||||||||||||||||||||||||||||||||1012.2||1|FM15-METAR|223|ICAO-KFCH|||||||||||||||||||||||||||||||||||||||||||MET063METAR KFCH 152035Z AUTO VRB05G10KT 9SM CLR 36/13 A2989 RMK A01=||F||223|ICAO-KFCH
USW00023167|FRESNO CHANDLER DWTN AP|2021|08|15|20|55|36.7333|-119.8167|84.1|36.0||1|FM15-METAR|223|ICAO-KFCH|11.0||1|FM15-METAR|223|ICAO-KFCH|||||||||||||270|V-Variable|1|FM15-METAR|223|ICAO-KFCH|3.6|V-Variable|1|FM15-METAR|223|ICAO-KFCH|||||||||||||22|Derived||FM15-METAR|223|ICAO-KFCH|||||||||||||||||||||||||||||||||||||||||||||||||||||||||||||||||||||||||1011.8||1|FM15-METAR|223|ICAO-KFCH|||||||||||||||||||||||||||||||||||||||||||MET069METAR KFCH 152055Z AUTO 27007KT 220V280 10SM CLR 36/11 A2988 RMK A01=||F||223|ICAO-KFCH
USW00023167|FRESNO CHANDLER DWTN AP|2021|08|15|21|15|36.7333|-119.8167|84.1|36.0||1|FM15-METAR|223|ICAO-KFCH|12.0||1|FM15-METAR|223|ICAO-KFCH|||||||||||||260|N-Normal|1|FM15-METAR|223|ICAO-KFCH|2.1|N-Normal|1|FM15-METAR|223|ICAO-KFCH|||||||||||||23|Derived||FM15-METAR|223|ICAO-KFCH|||||||||||||||||||||||||||||||||||||||||||||||||||||||||||||||||||||||||1011.8||1|FM15-METAR|223|ICAO-KFCH|||||||||||||||||||||||||||||||||||||||||||MET060METAR KFCH 152115Z AUTO 26004KT 9SM CLR 36/12 A2988 RMK A01=||F||223|ICAO-KFCH
USW00023167|FRESNO CHANDLER DWTN AP|2021|08|15|21|35|36.7333|-119.8167|84.1|37.0||1|FM15-METAR|223|ICAO-KFCH|13.0||1|FM15-METAR|223|ICAO-KFCH|||||||||||||999|V-Variable|9|FM15-METAR|223|ICAO-KFCH|2.6|V-Variable|1|FM15-METAR|223|ICAO-KFCH|||||||||||||24|Derived||FM15-METAR|223|ICAO-KFCH|||||||||||||||||||||||||||||||||||||||||||||||||||||||||||||||||||||||||1011.5||1|FM15-METAR|223|ICAO-KFCH|||||||||||||||||||||||||||||||||||||||||||MET060METAR KFCH 152135Z AUTO VRB05KT 9SM CLR 37/13 A2987 RMK A01=||F||223|ICAO-KFCH
USW00023167|FRESNO CHANDLER DWTN AP|2021|08|15|21|55|36.7333|-119.8167|84.1|37.0||1|FM15-METAR|223|ICAO-KFCH|13.0||1|FM15-METAR|223|ICAO-KFCH|||||||||||||250|N-Normal|1|FM15-METAR|223|ICAO-KFCH|3.1|N-Normal|1|FM15-METAR|223|ICAO-KFCH|||||||||||||24|Derived||FM15-METAR|223|ICAO-KFCH|||||||||||||||||||||||||||||||||||||||||||||||||||||||||||||||||||||||||1011.2||1|FM15-METAR|223|ICAO-KFCH|||||||||||||||||||||||||||||||||||||||||||MET060METAR KFCH 152155Z AUTO 25006KT 9SM CLR 37/13 A2986 RMK A01=||F||223|ICAO-KFCH
USW00023167|FRESNO CHANDLER DWTN AP|2021|08|15|22|15|36.7333|-119.8167|84.1|38.0||1|FM15-METAR|223|ICAO-KFCH|13.0||1|FM15-METAR|223|ICAO-KFCH|||||||||||||999|V-Variable|9|FM15-METAR|223|ICAO-KFCH|2.1|V-Variable|1|FM15-METAR|223|ICAO-KFCH|||||||||||||22|Derived||FM15-METAR|223|ICAO-KFCH|||||||||||||||||||||||||||||||||||||||||||||||||||||||||||||||||||||||||1010.8||1|FM15-METAR|223|ICAO-KFCH|||||||||||||||||||||||||||||||||||||||||||MET060METAR KFCH 152215Z AUTO VRB04KT 9SM CLR 38/13 A2985 RMK A01=||F||223|ICAO-KFCH
USW00023167|FRESNO CHANDLER DWTN AP|2021|08|15|22|35|36.7333|-119.8167|84.1|38.0||1|FM15-METAR|223|ICAO-KFCH|13.0||1|FM15-METAR|223|ICAO-KFCH|||||||||||||999|V-Variable|9|FM15-METAR|223|ICAO-KFCH|3.1|V-Variable|1|FM15-METAR|223|ICAO-KFCH|5.7||1|FM15-METAR|223|ICAO-KFCH|||||||22|Derived||FM15-METAR|223|ICAO-KFCH|||||||||||||||||||||||||||||||||||||||||||||||||||||||||||||||||||||||||1010.5||1|FM15-METAR|223|ICAO-KFCH|||||||||||||||||||||||||||||||||||||||||||MET063METAR KFCH 152235Z AUTO VRB06G11KT 9SM CLR 38/13 A2984 RMK A01=||F||223|ICAO-KFCH
USW00023167|FRESNO CHANDLER DWTN AP|2021|08|15|22|55|36.7333|-119.8167|84.1|38.0||1|FM15-METAR|223|ICAO-KFCH|14.0||1|FM15-METAR|223|ICAO-KFCH|||||||||||||280|N-Normal|1|FM15-METAR|223|ICAO-KFCH|3.1|N-Normal|1|FM15-METAR|223|ICAO-KFCH|5.7||1|FM15-METAR|223|ICAO-KFCH|||||||24|Derived||FM15-METAR|223|ICAO-KFCH|||||||||||||||||||||||||||||||||||||||||||||||||||||||||||||||||||||||||1010.5||1|FM15-METAR|223|ICAO-KFCH|||||||||||||||||||||||||||||||||||||||||||MET063METAR KFCH 152255Z AUTO 28006G11KT 9SM CLR 38/14 A2984 RMK A01=||F||223|ICAO-KFCH
USW00023167|FRESNO CHANDLER DWTN AP|2021|08|15|23|15|36.7333|-119.8167|84.1|38.0||1|FM15-METAR|223|ICAO-KFCH|12.0||1|FM15-METAR|223|ICAO-KFCH|||||||||||||290|N-Normal|1|FM15-METAR|223|ICAO-KFCH|3.6|N-Normal|1|FM15-METAR|223|ICAO-KFCH|||||||||||||21|Derived||FM15-METAR|223|ICAO-KFCH|||||||||||||||||||||||||||||||||||||||||||||||||||||||||||||||||||||||||1010.2||1|FM15-METAR|223|ICAO-KFCH|||||||||||||||||||||||||||||||||||||||||||MET060METAR KFCH 152315Z AUTO 29007KT 9SM CLR 38/12 A2983 RMK A01=||F||223|ICAO-KFCH
USW00023167|FRESNO CHANDLER DWTN AP|2021|08|15|23|30|36.7333|-119.8167|84.1|39.0||1|FM15-METAR|223|ICAO-KFCH|12.0||1|FM15-METAR|223|ICAO-KFCH|||||||||||||300|N-Normal|1|FM15-METAR|223|ICAO-KFCH|3.6|N-Normal|1|FM15-METAR|223|ICAO-KFCH|6.7||1|FM15-METAR|223|ICAO-KFCH|||||||20|Derived||FM15-METAR|223|ICAO-KFCH|||||||||||||||||||||||||||||||||||||||||||||||||||||||||||||||||||||||||1010.2||1|FM15-METAR|223|ICAO-KFCH|||||||||||||||||||||||||||||||||||||||||||MET064METAR KFCH 152330Z AUTO 30007G13KT 10SM CLR 39/12 A2983 RMK A01=||F||223|ICAO-KFCH
USW00023167|FRESNO CHANDLER DWTN AP|2021|08|15|23|50|36.7333|-119.8167|84.1|39.0||1|FM15-METAR|223|ICAO-KFCH|13.0||1|FM15-METAR|223|ICAO-KFCH|||||||||||||320|N-Normal|1|FM15-METAR|223|ICAO-KFCH|3.6|N-Normal|1|FM15-METAR|223|ICAO-KFCH|||||||||||||21|Derived||FM15-METAR|223|ICAO-KFCH|||||||||||||||||||||||||||||||||||||||||||||||||||||||||||||||||||||||||1009.8||1|FM15-METAR|223|ICAO-KFCH|||||||||||||||||||||||||||||||||||||||||||MET060METAR KFCH 152350Z AUTO 32007KT 9SM CLR 39/13 A2982 RMK A01=||F||223|ICAO-KFCH
USW00023167|FRESNO CHANDLER DWTN AP|2021|08|16|00|10|36.7333|-119.8167|84.1|38.0||1|FM15-METAR|223|ICAO-KFCH|14.0||1|FM15-METAR|223|ICAO-KFCH|||||||||||||300|N-Normal|1|FM15-METAR|223|ICAO-KFCH|5.1|N-Normal|1|FM15-METAR|223|ICAO-KFCH|||||||||||||24|Derived||FM15-METAR|223|ICAO-KFCH|||||||||||||||||||||||||||||||||||||||||||||||||||||||||||||||||||||||||1009.5||1|FM15-METAR|223|ICAO-KFCH|||||||||||||||||||||||||||||||||||||||||||MET060METAR KFCH 160010Z AUTO 30010KT 9SM CLR 38/14 A2981 RMK A01=||F||223|ICAO-KFCH
USW00023167|FRESNO CHANDLER DWTN AP|2021|08|16|00|35|36.7333|-119.8167|84.1|38.0||1|FM15-METAR|223|ICAO-KFCH|15.0||1|FM15-METAR|223|ICAO-KFCH|||||||||||||300|N-Normal|1|FM15-METAR|223|ICAO-KFCH|5.1|N-Normal|1|FM15-METAR|223|ICAO-KFCH|||||||||||||25|Derived||FM15-METAR|223|ICAO-KFCH|||||||||||||||||||||||||||||||||||||||||||||||||||||||||||||||||||||||||1009.5||1|FM15-METAR|223|ICAO-KFCH|||||||||||||||||||||||||||||||||||||||||||MET060METAR KFCH 160035Z AUTO 30010KT 9SM CLR 38/15 A2981 RMK A01=||F||223|ICAO-KFCH
USW00023167|FRESNO CHANDLER DWTN AP|2021|08|16|00|50|36.7333|-119.8167|84.1|38.0||1|FM15-METAR|223|ICAO-KFCH|15.0||1|FM15-METAR|223|ICAO-KFCH|||||||||||||300|N-Normal|1|FM15-METAR|223|ICAO-KFCH|4.1|N-Normal|1|FM15-METAR|223|ICAO-KFCH|||||||||||||25|Derived||FM15-METAR|223|ICAO-KFCH|||||||||||||||||||||||||||||||||||||||||||||||||||||||||||||||||||||||||1009.5||1|FM15-METAR|223|ICAO-KFCH|||||||||||||||||||||||||||||||||||||||||||MET060METAR KFCH 160050Z AUTO 30008KT 9SM CLR 38/15 A2981 RMK A01=||F||223|ICAO-KFCH
USW00023167|FRESNO CHANDLER DWTN AP|2021|08|16|01|15|36.7333|-119.8167|84.1|37.0||1|FM15-METAR|223|ICAO-KFCH|14.0||1|FM15-METAR|223|ICAO-KFCH|||||||||||||310|N-Normal|1|FM15-METAR|223|ICAO-KFCH|4.6|N-Normal|1|FM15-METAR|223|ICAO-KFCH|||||||||||||25|Derived||FM15-METAR|223|ICAO-KFCH|||||||||||||||||||||||||||||||||||||||||||||||||||||||||||||||||||||||||1009.1||1|FM15-METAR|223|ICAO-KFCH|||||||||||||||||||||||||||||||||||||||||||MET060METAR KFCH 160115Z AUTO 31009KT 9SM CLR 37/14 A2980 RMK A01=||F||223|ICAO-KFCH
USW00023167|FRESNO CHANDLER DWTN AP|2021|08|16|01|35|36.7333|-119.8167|84.1|37.0||1|FM15-METAR|223|ICAO-KFCH|15.0||1|FM15-METAR|223|ICAO-KFCH|||||||||||||310|N-Normal|1|FM15-METAR|223|ICAO-KFCH|5.1|N-Normal|1|FM15-METAR|223|ICAO-KFCH|||||||||||||27|Derived||FM15-METAR|223|ICAO-KFCH|||||||||||||||||||||||||||||||||||||||||||||||||||||||||||||||||||||||||1009.1||1|FM15-METAR|223|ICAO-KFCH|||||||||||||||||||||||||||||||||||||||||||MET060METAR KFCH 160135Z AUTO 31010KT 9SM CLR 37/15 A2980 RMK A01=||F||223|ICAO-KFCH
USW00023167|FRESNO CHANDLER DWTN AP|2021|08|16|01|55|36.7333|-119.8167|84.1|37.0||1|FM15-METAR|223|ICAO-KFCH|14.0||1|FM15-METAR|223|ICAO-KFCH|||||||||||||300|N-Normal|1|FM15-METAR|223|ICAO-KFCH|4.6|N-Normal|1|FM15-METAR|223|ICAO-KFCH|||||||||||||25|Derived||FM15-METAR|223|ICAO-KFCH|||||||||||||||||||||||||||||||||||||||||||||||||||||||||||||||||||||||||1009.1||1|FM15-METAR|223|ICAO-KFCH|||||||||||||||||||||||||||||||||||||||||||MET061METAR KFCH 160155Z AUTO 30009KT 10SM CLR 37/14 A2980 RMK A01=||F||223|ICAO-KFCH
USW00023167|FRESNO CHANDLER DWTN AP|2021|08|16|02|10|36.7333|-119.8167|84.1|36.0||1|FM15-METAR|223|ICAO-KFCH|15.0||1|FM15-METAR|223|ICAO-KFCH|||||||||||||310|N-Normal|1|FM15-METAR|223|ICAO-KFCH|4.1|N-Normal|1|FM15-METAR|223|ICAO-KFCH|||||||||||||28|Derived||FM15-METAR|223|ICAO-KFCH|||||||||||||||||||||||||||||||||||||||||||||||||||||||||||||||||||||||||1009.1||1|FM15-METAR|223|ICAO-KFCH|||||||||||||||||||||||||||||||||||||||||||MET060METAR KFCH 160210Z AUTO 31008KT 9SM CLR 36/15 A2980 RMK A01=||F||223|ICAO-KFCH
USW00023167|FRESNO CHANDLER DWTN AP|2021|08|16|02|35|36.7333|-119.8167|84.1|35.0||1|FM15-METAR|223|ICAO-KFCH|16.0||1|FM15-METAR|223|ICAO-KFCH|||||||||||||320|N-Normal|1|FM15-METAR|223|ICAO-KFCH|2.6|N-Normal|1|FM15-METAR|223|ICAO-KFCH|||||||||||||32|Derived||FM15-METAR|223|ICAO-KFCH|||||||||||||||||||||||||||||||||||||||||||||||||||||||||||||||||||||||||1009.1||1|FM15-METAR|223|ICAO-KFCH|||||||||||||||||||||||||||||||||||||||||||MET060METAR KFCH 160235Z AUTO 32005KT 9SM CLR 35/16 A2980 RMK A01=||F||223|ICAO-KFCH
USW00023167|FRESNO CHANDLER DWTN AP|2021|08|16|02|55|36.7333|-119.8167|84.1|35.0||1|FM15-METAR|223|ICAO-KFCH|16.0||1|FM15-METAR|223|ICAO-KFCH|||||||||||||300|N-Normal|1|FM15-METAR|223|ICAO-KFCH|3.1|N-Normal|1|FM15-METAR|223|ICAO-KFCH|||||||||||||32|Derived||FM15-METAR|223|ICAO-KFCH|||||||||||||||||||||||||||||||||||||||||||||||||||||||||||||||||||||||||1009.5||1|FM15-METAR|223|ICAO-KFCH|||||||||||||||||||||||||||||||||||||||||||MET060METAR KFCH 160255Z AUTO 30006KT 9SM CLR 35/16 A2981 RMK A01=||F||223|ICAO-KFCH
USW00023167|FRESNO CHANDLER DWTN AP|2021|08|16|03|15|36.7333|-119.8167|84.1|34.0||1|FM15-METAR|223|ICAO-KFCH|17.0||1|FM15-METAR|223|ICAO-KFCH|||||||||||||290|N-Normal|1|FM15-METAR|223|ICAO-KFCH|2.6|N-Normal|1|FM15-METAR|223|ICAO-KFCH|||||||||||||36|Derived||FM15-METAR|223|ICAO-KFCH|||||||||||||||||||||||||||||||||||||||||||||||||||||||||||||||||||||||||1009.5||1|FM15-METAR|223|ICAO-KFCH|||||||||||||||||||||||||||||||||||||||||||MET064METAR KFCH 160315Z AUTO 29005KT 10SM SCT035 34/17 A2981 RMK A01=||F||223|ICAO-KFCH
USW00023167|FRESNO CHANDLER DWTN AP|2021|08|16|03|35|36.7333|-119.8167|84.1|34.0||1|FM15-METAR|223|ICAO-KFCH|17.0||1|FM15-METAR|223|ICAO-KFCH|||||||||||||300|N-Normal|1|FM15-METAR|223|ICAO-KFCH|3.1|N-Normal|1|FM15-METAR|223|ICAO-KFCH|||||||||||||36|Derived||FM15-METAR|223|ICAO-KFCH|||||||||||||||||||||||||||||||||||||||||||||||||||||||||||||||||||||||||1009.5||1|FM15-METAR|223|ICAO-KFCH|||||||||||||||||||||||||||||||||||||||||||MET071METAR KFCH 160335Z AUTO 30006KT 10SM BKN033 OVC042 34/17 A2981 RMK A01=||F||223|ICAO-KFCH
USW00023167|FRESNO CHANDLER DWTN AP|2021|08|16|03|55|36.7333|-119.8167|84.1|33.0||1|FM15-METAR|223|ICAO-KFCH|16.0||1|FM15-METAR|223|ICAO-KFCH|||||||||||||310|N-Normal|1|FM15-METAR|223|ICAO-KFCH|2.6|N-Normal|1|FM15-METAR|223|ICAO-KFCH|||||||||||||36|Derived||FM15-METAR|223|ICAO-KFCH|||||||||||||||||||||||||||||||||||||||||||||||||||||||||||||||||||||||||1009.5||1|FM15-METAR|223|ICAO-KFCH|||||||||||||||||||||||||||||||||||||||||||MET064METAR KFCH 160355Z AUTO 31005KT 10SM OVC035 33/16 A2981 RMK A01=||F||223|ICAO-KFCH
USW00023167|FRESNO CHANDLER DWTN AP|2021|08|16|04|15|36.7333|-119.8167|84.1|33.0||1|FM15-METAR|223|ICAO-KFCH|16.0||1|FM15-METAR|223|ICAO-KFCH|||||||||||||300|N-Normal|1|FM15-METAR|223|ICAO-KFCH|2.6|N-Normal|1|FM15-METAR|223|ICAO-KFCH|||||||||||||36|Derived||FM15-METAR|223|ICAO-KFCH|||||||||||||||||||||||||||||||||||||||||||||||||||||||||||||||||||||||||1009.5||1|FM15-METAR|223|ICAO-KFCH|||||||||||||||||||||||||||||||||||||||||||MET078METAR KFCH 160415Z AUTO 30005KT 10SM FEW020 FEW026 OVC035 33/16 A2981 RMK A01=||F||223|ICAO-KFCH
USW00023167|FRESNO CHANDLER DWTN AP|2021|08|16|04|35|36.7333|-119.8167|84.1|33.0||1|FM15-METAR|223|ICAO-KFCH|17.0||1|FM15-METAR|223|ICAO-KFCH|||||||||||||290|N-Normal|1|FM15-METAR|223|ICAO-KFCH|2.1|N-Normal|1|FM15-METAR|223|ICAO-KFCH|||||||||||||38|Derived||FM15-METAR|223|ICAO-KFCH|||||||||||||||||||||||||||||||||||||||||||||||||||||||||||||||||||||||||1009.1||1|FM15-METAR|223|ICAO-KFCH|||||||||||||||||||||||||||||||||||||||||||MET078METAR KFCH 160435Z AUTO 29004KT 10SM FEW021 BKN039 OVC065 33/17 A2980 RMK A01=||F||223|ICAO-KFCH
USW00023167|FRESNO CHANDLER DWTN AP|2021|08|16|04|55|36.7333|-119.8167|84.1|32.0||1|FM15-METAR|223|ICAO-KFCH|17.0||1|FM15-METAR|223|ICAO-KFCH|||||||||||||280|N-Normal|1|FM15-METAR|223|ICAO-KFCH|3.1|N-Normal|1|FM15-METAR|223|ICAO-KFCH|||||||||||||41|Derived||FM15-METAR|223|ICAO-KFCH|||||||||||||||||||||||||||||||||||||||||||||||||||||||||||||||||||||||||1009.5||1|FM15-METAR|223|ICAO-KFCH|||||||||||||||||||||||||||||||||||||||||||MET071METAR KFCH 160455Z AUTO 28006KT 10SM SCT040 OVC065 32/17 A2981 RMK A01=||F||223|ICAO-KFCH
USW00023167|FRESNO CHANDLER DWTN AP|2021|08|16|05|15|36.7333|-119.8167|84.1|32.0||1|FM15-METAR|223|ICAO-KFCH|17.0||1|FM15-METAR|223|ICAO-KFCH|||||||||||||300|N-Normal|1|FM15-METAR|223|ICAO-KFCH|2.1|N-Normal|1|FM15-METAR|223|ICAO-KFCH|||||||||||||41|Derived||FM15-METAR|223|ICAO-KFCH|||||||||||||||||||||||||||||||||||||||||||||||||||||||||||||||||||||||||1009.5||1|FM15-METAR|223|ICAO-KFCH|||||||||||||||||||||||||||||||||||||||||||MET071METAR KFCH 160515Z AUTO 30004KT 10SM SCT043 OVC065 32/17 A2981 RMK A01=||F||223|ICAO-KFCH
USW00023167|FRESNO CHANDLER DWTN AP|2021|08|16|05|35|36.7333|-119.8167|84.1|32.0||1|FM15-METAR|223|ICAO-KFCH|17.0||1|FM15-METAR|223|ICAO-KFCH|||||||||||||999|C-Calm|9|FM15-METAR|223|ICAO-KFCH|0.0|C-Calm|1|FM15-METAR|223|ICAO-KFCH|||||||||||||41|Derived||FM15-METAR|223|ICAO-KFCH|||||||||||||||||||||||||||||||||||||||||||||||||||||||||||||||||||||||||1009.5||1|FM15-METAR|223|ICAO-KFCH|||||||||||||||||||||||||||||||||||||||||||MET071METAR KFCH 160535Z AUTO 00000KT 10SM BKN043 OVC065 32/17 A2981 RMK A01=||F||223|ICAO-KFCH
USW00023167|FRESNO CHANDLER DWTN AP|2021|08|16|05|50|36.7333|-119.8167|84.1|31.0||1|FM15-METAR|223|ICAO-KFCH|17.0||1|FM15-METAR|223|ICAO-KFCH|||||||||||||999|C-Calm|9|FM15-METAR|223|ICAO-KFCH|0.0|C-Calm|1|FM15-METAR|223|ICAO-KFCH|||||||||||||43|Derived||FM15-METAR|223|ICAO-KFCH|||||||||||||||||||||||||||||||||||||||||||||||||||||||||||||||||||||||||1009.5||1|FM15-METAR|223|ICAO-KFCH|||||||||||||||||||||||||||||||||||||||||||MET071METAR KFCH 160550Z AUTO 00000KT 10SM BKN044 OVC055 31/17 A2981 RMK A01=||F||223|ICAO-KFCH
USW00023167|FRESNO CHANDLER DWTN AP|2021|08|16|06|15|36.7333|-119.8167|84.1|31.0||1|FM15-METAR|223|ICAO-KFCH|18.0||1|FM15-METAR|223|ICAO-KFCH|||||||||||||200|N-Normal|1|FM15-METAR|223|ICAO-KFCH|1.5|N-Normal|1|FM15-METAR|223|ICAO-KFCH|||||||||||||46|Derived||FM15-METAR|223|ICAO-KFCH|||||||||||||||||||||||||||||||||||||||||||||||||||||||||||||||||||||||||1009.5||1|FM15-METAR|223|ICAO-KFCH|||||||||||||||||||||||||||||||||||||||||||MET078METAR KFCH 160615Z AUTO 20003KT 10SM SCT048 BKN055 OVC070 31/18 A2981 RMK A01=||F||223|ICAO-KFCH
USW00023167|FRESNO CHANDLER DWTN AP|2021|08|16|06|35|36.7333|-119.8167|84.1|30.0||1|FM15-METAR|223|ICAO-KFCH|18.0||1|FM15-METAR|223|ICAO-KFCH|||||||||||||999|C-Calm|9|FM15-METAR|223|ICAO-KFCH|0.0|C-Calm|1|FM15-METAR|223|ICAO-KFCH|||||||||||||49|Derived||FM15-METAR|223|ICAO-KFCH|||||||||||||||||||||||||||||||||||||||||||||||||||||||||||||||||||||||||1009.5||1|FM15-METAR|223|ICAO-KFCH|||||||||||||||||||||||||||||||||||||||||||MET071METAR KFCH 160635Z AUTO 00000KT 10SM FEW050 OVC070 30/18 A2981 RMK A01=||F||223|ICAO-KFCH
USW00023167|FRESNO CHANDLER DWTN AP|2021|08|16|06|55|36.7333|-119.8167|84.1|30.0||1|FM15-METAR|223|ICAO-KFCH|18.0||1|FM15-METAR|223|ICAO-KFCH|||||||||||||999|C-Calm|9|FM15-METAR|223|ICAO-KFCH|0.0|C-Calm|1|FM15-METAR|223|ICAO-KFCH|||||||||||||49|Derived||FM15-METAR|223|ICAO-KFCH|||||||||||||||||||||||||||||||||||||||||||||||||||||||||||||||||||||||||1009.1||1|FM15-METAR|223|ICAO-KFCH|||||||||||||||||||||||||||||||||||||||||||MET071METAR KFCH 160655Z AUTO 00000KT 10SM FEW043 OVC070 30/18 A2980 RMK A01=||F||223|ICAO-KFCH
USW00023167|FRESNO CHANDLER DWTN AP|2021|08|16|07|15|36.7333|-119.8167|84.1|30.0||1|FM15-METAR|223|ICAO-KFCH|18.0||1|FM15-METAR|223|ICAO-KFCH|||||||||||||999|C-Calm|9|FM15-METAR|223|ICAO-KFCH|0.0|C-Calm|1|FM15-METAR|223|ICAO-KFCH|||||||||||||49|Derived||FM15-METAR|223|ICAO-KFCH|||||||||||||||||||||||||||||||||||||||||||||||||||||||||||||||||||||||||1009.1||1|FM15-METAR|223|ICAO-KFCH|||||||||||||||||||||||||||||||||||||||||||MET064METAR KFCH 160715Z AUTO 00000KT 10SM OVC065 30/18 A2980 RMK A01=||F||223|ICAO-KFCH
USW00023167|FRESNO CHANDLER DWTN AP|2021|08|16|07|35|36.7333|-119.8167|84.1|29.0||1|FM15-METAR|223|ICAO-KFCH|18.0||1|FM15-METAR|223|ICAO-KFCH|||||||||||||260|N-Normal|1|FM15-METAR|223|ICAO-KFCH|2.1|N-Normal|1|FM15-METAR|223|ICAO-KFCH|||||||||||||51|Derived||FM15-METAR|223|ICAO-KFCH|||||||||||||||||||||||||||||||||||||||||||||||||||||||||||||||||||||||||1009.1||1|FM15-METAR|223|ICAO-KFCH|||||||||||||||||||||||||||||||||||||||||||MET071METAR KFCH 160735Z AUTO 26004KT 10SM FEW045 OVC065 29/18 A2980 RMK A01=||F||223|ICAO-KFCH
USW00023167|FRESNO CHANDLER DWTN AP|2021|08|16|07|55|36.7333|-119.8167|84.1|29.0||1|FM15-METAR|223|ICAO-KFCH|18.0||1|FM15-METAR|223|ICAO-KFCH|||||||||||||999|C-Calm|9|FM15-METAR|223|ICAO-KFCH|0.0|C-Calm|1|FM15-METAR|223|ICAO-KFCH|||||||||||||51|Derived||FM15-METAR|223|ICAO-KFCH|||||||||||||||||||||||||||||||||||||||||||||||||||||||||||||||||||||||||1008.8||1|FM15-METAR|223|ICAO-KFCH|||||||||||||||||||||||||||||||||||||||||||MET071METAR KFCH 160755Z AUTO 00000KT 10SM SCT049 OVC060 29/18 A2979 RMK A01=||F||223|ICAO-KFCH
USW00023167|FRESNO CHANDLER DWTN AP|2021|08|16|08|15|36.7333|-119.8167|84.1|29.0||1|FM15-METAR|223|ICAO-KFCH|18.0||1|FM15-METAR|223|ICAO-KFCH|||||||||||||999|C-Calm|9|FM15-METAR|223|ICAO-KFCH|0.0|C-Calm|1|FM15-METAR|223|ICAO-KFCH|||||||||||||51|Derived||FM15-METAR|223|ICAO-KFCH|||||||||||||||||||||||||||||||||||||||||||||||||||||||||||||||||||||||||1008.8||1|FM15-METAR|223|ICAO-KFCH|||||||||||||||||||||||||||||||||||||||||||MET064METAR KFCH 160815Z AUTO 00000KT 10SM OVC050 29/18 A2979 RMK A01=||F||223|ICAO-KFCH
USW00023167|FRESNO CHANDLER DWTN AP|2021|08|16|08|35|36.7333|-119.8167|84.1|29.0||1|FM15-METAR|223|ICAO-KFCH|18.0||1|FM15-METAR|223|ICAO-KFCH|||||||||||||999|C-Calm|9|FM15-METAR|223|ICAO-KFCH|0.0|C-Calm|1|FM15-METAR|223|ICAO-KFCH|||||||||||||51|Derived||FM15-METAR|223|ICAO-KFCH|||||||||||||||||||||||||||||||||||||||||||||||||||||||||||||||||||||||||1008.8||1|FM15-METAR|223|ICAO-KFCH|||||||||||||||||||||||||||||||||||||||||||MET064METAR KFCH 160835Z AUTO 00000KT 10SM OVC050 29/18 A2979 RMK A01=||F||223|ICAO-KFCH
USW00023167|FRESNO CHANDLER DWTN AP|2021|08|16|08|55|36.7333|-119.8167|84.1|29.0||1|FM15-METAR|223|ICAO-KFCH|18.0||1|FM15-METAR|223|ICAO-KFCH|||||||||||||999|C-Calm|9|FM15-METAR|223|ICAO-KFCH|0.0|C-Calm|1|FM15-METAR|223|ICAO-KFCH|||||||||||||51|Derived||FM15-METAR|223|ICAO-KFCH|||||||||||||||||||||||||||||||||||||||||||||||||||||||||||||||||||||||||1008.8||1|FM15-METAR|223|ICAO-KFCH|||||||||||||||||||||||||||||||||||||||||||MET071METAR KFCH 160855Z AUTO 00000KT 10SM BKN050 OVC055 29/18 A2979 RMK A01=||F||223|ICAO-KFCH
USW00023167|FRESNO CHANDLER DWTN AP|2021|08|16|09|15|36.7333|-119.8167|84.1|28.0||1|FM15-METAR|223|ICAO-KFCH|18.0||1|FM15-METAR|223|ICAO-KFCH|||||||||||||999|C-Calm|9|FM15-METAR|223|ICAO-KFCH|0.0|C-Calm|1|FM15-METAR|223|ICAO-KFCH|||||||||||||55|Derived||FM15-METAR|223|ICAO-KFCH|||||||||||||||||||||||||||||||||||||||||||||||||||||||||||||||||||||||||1008.5||1|FM15-METAR|223|ICAO-KFCH|||||||||||||||||||||||||||||||||||||||||||MET064METAR KFCH 160915Z AUTO 00000KT 10SM OVC055 28/18 A2978 RMK A01=||F||223|ICAO-KFCH
USW00023167|FRESNO CHANDLER DWTN AP|2021|08|16|09|35|36.7333|-119.8167|84.1|28.0||1|FM15-METAR|223|ICAO-KFCH|18.0||1|FM15-METAR|223|ICAO-KFCH|||||||||||||300|N-Normal|1|FM15-METAR|223|ICAO-KFCH|1.5|N-Normal|1|FM15-METAR|223|ICAO-KFCH|||||||||||||55|Derived||FM15-METAR|223|ICAO-KFCH|||||||||||||||||||||||||||||||||||||||||||||||||||||||||||||||||||||||||1008.5||1|FM15-METAR|223|ICAO-KFCH|||||||||||||||||||||||||||||||||||||||||||MET064METAR KFCH 160935Z AUTO 30003KT 10SM OVC055 28/18 A2978 RMK A01=||F||223|ICAO-KFCH
USW00023167|FRESNO CHANDLER DWTN AP|2021|08|16|09|55|36.7333|-119.8167|84.1|28.0||1|FM15-METAR|223|ICAO-KFCH|18.0||1|FM15-METAR|223|ICAO-KFCH|||||||||||||320|N-Normal|1|FM15-METAR|223|ICAO-KFCH|1.5|N-Normal|1|FM15-METAR|223|ICAO-KFCH|||||||||||||55|Derived||FM15-METAR|223|ICAO-KFCH|||||||||||||||||||||||||||||||||||||||||||||||||||||||||||||||||||||||||1008.1||1|FM15-METAR|223|ICAO-KFCH|||||||||||||||||||||||||||||||||||||||||||MET064METAR KFCH 160955Z AUTO 32003KT 10SM OVC055 28/18 A2977 RMK A01=||F||223|ICAO-KFCH
USW00023167|FRESNO CHANDLER DWTN AP|2021|08|16|10|10|36.7333|-119.8167|84.1|27.0||1|FM15-METAR|223|ICAO-KFCH|18.0||1|FM15-METAR|223|ICAO-KFCH|||||||||||||260|N-Normal|1|FM15-METAR|223|ICAO-KFCH|1.5|N-Normal|1|FM15-METAR|223|ICAO-KFCH|||||||||||||58|Derived||FM15-METAR|223|ICAO-KFCH|||||||||||||||||||||||||||||||||||||||||||||||||||||||||||||||||||||||||1008.1||1|FM15-METAR|223|ICAO-KFCH|||||||||||||||||||||||||||||||||||||||||||MET064METAR KFCH 161010Z AUTO 26003KT 10SM OVC060 27/18 A2977 RMK A01=||F||223|ICAO-KFCH
USW00023167|FRESNO CHANDLER DWTN AP|2021|08|16|10|35|36.7333|-119.8167|84.1|27.0||1|FM15-METAR|223|ICAO-KFCH|18.0||1|FM15-METAR|223|ICAO-KFCH|||||||||||||999|C-Calm|9|FM15-METAR|223|ICAO-KFCH|0.0|C-Calm|1|FM15-METAR|223|ICAO-KFCH|||||||||||||58|Derived||FM15-METAR|223|ICAO-KFCH|||||||||||||||||||||||||||||||||||||||||||||||||||||||||||||||||||||||||1007.8||1|FM15-METAR|223|ICAO-KFCH|||||||||||||||||||||||||||||||||||||||||||MET064METAR KFCH 161035Z AUTO 00000KT 10SM OVC065 27/18 A2976 RMK A01=||F||223|ICAO-KFCH
USW00023167|FRESNO CHANDLER DWTN AP|2021|08|16|10|50|36.7333|-119.8167|84.1|27.0||1|FM15-METAR|223|ICAO-KFCH|18.0||1|FM15-METAR|223|ICAO-KFCH|||||||||||||999|C-Calm|9|FM15-METAR|223|ICAO-KFCH|0.0|C-Calm|1|FM15-METAR|223|ICAO-KFCH|||||||||||||58|Derived||FM15-METAR|223|ICAO-KFCH|||||||||||||||||||||||||||||||||||||||||||||||||||||||||||||||||||||||||1007.8||1|FM15-METAR|223|ICAO-KFCH|||||||||||||||||||||||||||||||||||||||||||MET064METAR KFCH 161050Z AUTO 00000KT 10SM OVC070 27/18 A2976 RMK A01=||F||223|ICAO-KFCH
USW00023167|FRESNO CHANDLER DWTN AP|2021|08|16|11|15|36.7333|-119.8167|84.1|27.0||1|FM15-METAR|223|ICAO-KFCH|18.0||1|FM15-METAR|223|ICAO-KFCH|||||||||||||999|C-Calm|9|FM15-METAR|223|ICAO-KFCH|0.0|C-Calm|1|FM15-METAR|223|ICAO-KFCH|||||||||||||58|Derived||FM15-METAR|223|ICAO-KFCH|||||||||||||||||||||||||||||||||||||||||||||||||||||||||||||||||||||||||1007.8||1|FM15-METAR|223|ICAO-KFCH|||||||||||||||||||||||||||||||||||||||||||MET063METAR KFCH 161115Z AUTO 00000KT 9SM OVC070 27/18 A2976 RMK A01=||F||223|ICAO-KFCH
USW00023167|FRESNO CHANDLER DWTN AP|2021|08|16|11|35|36.7333|-119.8167|84.1|27.0||1|FM15-METAR|223|ICAO-KFCH|17.0||1|FM15-METAR|223|ICAO-KFCH|||||||||||||999|C-Calm|9|FM15-METAR|223|ICAO-KFCH|0.0|C-Calm|1|FM15-METAR|223|ICAO-KFCH|||||||||||||54|Derived||FM15-METAR|223|ICAO-KFCH|||||||||||||||||||||||||||||||||||||||||||||||||||||||||||||||||||||||||1007.8||1|FM15-METAR|223|ICAO-KFCH|||||||||||||||||||||||||||||||||||||||||||MET064METAR KFCH 161135Z AUTO 00000KT 10SM OVC065 27/17 A2976 RMK A01=||F||223|ICAO-KFCH
USW00023167|FRESNO CHANDLER DWTN AP|2021|08|16|11|55|36.7333|-119.8167|84.1|27.0||1|FM15-METAR|223|ICAO-KFCH|17.0||1|FM15-METAR|223|ICAO-KFCH|||||||||||||999|C-Calm|9|FM15-METAR|223|ICAO-KFCH|0.0|C-Calm|1|FM15-METAR|223|ICAO-KFCH|||||||||||||54|Derived||FM15-METAR|223|ICAO-KFCH|||||||||||||||||||||||||||||||||||||||||||||||||||||||||||||||||||||||||1007.8||1|FM15-METAR|223|ICAO-KFCH|||||||||||||||||||||||||||||||||||||||||||MET071METAR KFCH 161155Z AUTO 00000KT 10SM FEW047 OVC065 27/17 A2976 RMK A01=||F||223|ICAO-KFCH
USW00023167|FRESNO CHANDLER DWTN AP|2021|08|16|12|15|36.7333|-119.8167|84.1|26.0||1|FM15-METAR|223|ICAO-KFCH|17.0||1|FM15-METAR|223|ICAO-KFCH|||||||||||||999|C-Calm|9|FM15-METAR|223|ICAO-KFCH|0.0|C-Calm|1|FM15-METAR|223|ICAO-KFCH|||||||||||||58|Derived||FM15-METAR|223|ICAO-KFCH|||||||||||||||||||||||||||||||||||||||||||||||||||||||||||||||||||||||||1007.8||1|FM15-METAR|223|ICAO-KFCH|||||||||||||||||||||||||||||||||||||||||||MET070METAR KFCH 161215Z AUTO 00000KT 9SM FEW046 OVC065 26/17 A2976 RMK A01=||F||223|ICAO-KFCH
USW00023167|FRESNO CHANDLER DWTN AP|2021|08|16|12|35|36.7333|-119.8167|84.1|25.0||4|FM15-METAR|223|ICAO-KFCH|17.0||4|FM15-METAR|223|ICAO-KFCH|||||||||||||||||||||||||||||||||||||61|Derived||FM15-METAR|223|ICAO-KFCH|||||||||||||||||||||||||||||||||||||||||||||||||||||||||||||||||||||||||1008.1||4|FM15-METAR|223|ICAO-KFCH|||||||||||||||||||||||||||||||||||||||||||MET068METAR KFCH 161235Z AUTO 000KT 9SM BKN044 OVC065 25/17 A2977 RMK A01=||F||223|ICAO-KFCH
USW00023167|FRESNO CHANDLER DWTN AP|2021|08|16|12|55|36.7333|-119.8167|84.1|25.0||1|FM15-METAR|223|ICAO-KFCH|17.0||1|FM15-METAR|223|ICAO-KFCH|||||||||||||999|C-Calm|9|FM15-METAR|223|ICAO-KFCH|0.0|C-Calm|1|FM15-METAR|223|ICAO-KFCH|||||||||||||61|Derived||FM15-METAR|223|ICAO-KFCH|||||||||||||||||||||||||||||||||||||||||||||||||||||||||||||||||||||||||1008.1||1|FM15-METAR|223|ICAO-KFCH|||||||||||||||||||||||||||||||||||||||||||MET070METAR KFCH 161255Z AUTO 00000KT 9SM BKN044 OVC065 25/17 A2977 RMK A01=||F||223|ICAO-KFCH
USW00023167|FRESNO CHANDLER DWTN AP|2021|08|16|13|15|36.7333|-119.8167|84.1|25.0||1|FM15-METAR|223|ICAO-KFCH|17.0||1|FM15-METAR|223|ICAO-KFCH|||||||||||||999|C-Calm|9|FM15-METAR|223|ICAO-KFCH|0.0|C-Calm|1|FM15-METAR|223|ICAO-KFCH|||||||||||||61|Derived||FM15-METAR|223|ICAO-KFCH|||||||||||||||||||||||||||||||||||||||||||||||||||||||||||||||||||||||||1008.1||1|FM15-METAR|223|ICAO-KFCH|||||||||||||||||||||||||||||||||||||||||||MET070METAR KFCH 161315Z AUTO 00000KT 9SM BKN046 BKN065 25/17 A2977 RMK A01=||F||223|ICAO-KFCH
USW00023167|FRESNO CHANDLER DWTN AP|2021|08|16|13|35|36.7333|-119.8167|84.1|24.0||1|FM15-METAR|223|ICAO-KFCH|17.0||1|FM15-METAR|223|ICAO-KFCH|||||||||||||999|C-Calm|9|FM15-METAR|223|ICAO-KFCH|0.0|C-Calm|1|FM15-METAR|223|ICAO-KFCH|||||||||||||65|Derived||FM15-METAR|223|ICAO-KFCH|||||||||||||||||||||||||||||||||||||||||||||||||||||||||||||||||||||||||1008.5||1|FM15-METAR|223|ICAO-KFCH|||||||||||||||||||||||||||||||||||||||||||MET063METAR KFCH 161335Z AUTO 00000KT 7SM FEW047 24/17 A2978 RMK A01=||F||223|ICAO-KFCH
USW00023167|FRESNO CHANDLER DWTN AP|2021|08|16|13|55|36.7333|-119.8167|84.1|24.0||1|FM15-METAR|223|ICAO-KFCH|17.0||1|FM15-METAR|223|ICAO-KFCH|||||||||||||999|C-Calm|9|FM15-METAR|223|ICAO-KFCH|0.0|C-Calm|1|FM15-METAR|223|ICAO-KFCH|||||||||||||65|Derived||FM15-METAR|223|ICAO-KFCH|||||||||||||||||||||||||||||||||||||||||||||||||||||||||||||||||||||||||1008.5||1|FM15-METAR|223|ICAO-KFCH|||||||||||||||||||||||||||||||||||||||||||MET060METAR KFCH 161355Z AUTO 00000KT 7SM CLR 24/17 A2978 RMK A01=||F||223|ICAO-KFCH
USW00023167|FRESNO CHANDLER DWTN AP|2021|08|16|14|15|36.7333|-119.8167|84.1|24.0||1|FM15-METAR|223|ICAO-KFCH|16.0||1|FM15-METAR|223|ICAO-KFCH|||||||||||||999|C-Calm|9|FM15-METAR|223|ICAO-KFCH|0.0|C-Calm|1|FM15-METAR|223|ICAO-KFCH|||||||||||||61|Derived||FM15-METAR|223|ICAO-KFCH|||||||||||||||||||||||||||||||||||||||||||||||||||||||||||||||||||||||||1008.5||1|FM15-METAR|223|ICAO-KFCH|||||||||||||||||||||||||||||||||||||||||||MET060METAR KFCH 161415Z AUTO 00000KT 7SM CLR 24/16 A2978 RMK A01=||F||223|ICAO-KFCH
USW00023167|FRESNO CHANDLER DWTN AP|2021|08|16|14|35|36.7333|-119.8167|84.1|24.0||1|FM15-METAR|223|ICAO-KFCH|17.0||1|FM15-METAR|223|ICAO-KFCH|||||||||||||999|C-Calm|9|FM15-METAR|223|ICAO-KFCH|0.0|C-Calm|1|FM15-METAR|223|ICAO-KFCH|||||||||||||65|Derived||FM15-METAR|223|ICAO-KFCH|||||||||||||||||||||||||||||||||||||||||||||||||||||||||||||||||||||||||1008.5||1|FM15-METAR|223|ICAO-KFCH|||||||||||||||||||||||||||||||||||||||||||MET060METAR KFCH 161435Z AUTO 00000KT 7SM CLR 24/17 A2978 RMK A01=||F||223|ICAO-KFCH
USW00023167|FRESNO CHANDLER DWTN AP|2021|08|16|14|55|36.7333|-119.8167|84.1|26.0||1|FM15-METAR|223|ICAO-KFCH|17.0||1|FM15-METAR|223|ICAO-KFCH|||||||||||||999|C-Calm|9|FM15-METAR|223|ICAO-KFCH|0.0|C-Calm|1|FM15-METAR|223|ICAO-KFCH|||||||||||||58|Derived||FM15-METAR|223|ICAO-KFCH|||||||||||||||||||||||||||||||||||||||||||||||||||||||||||||||||||||||||1008.8||1|FM15-METAR|223|ICAO-KFCH|||||||||||||||||||||||||||||||||||||||||||MET063METAR KFCH 161455Z AUTO 00000KT 6SM HZ CLR 26/17 A2979 RMK A01=||F||223|ICAO-KFCH
USW00023167|FRESNO CHANDLER DWTN AP|2021|08|16|15|15|36.7333|-119.8167|84.1|26.0||1|FM15-METAR|223|ICAO-KFCH|17.0||1|FM15-METAR|223|ICAO-KFCH|||||||||||||999|C-Calm|9|FM15-METAR|223|ICAO-KFCH|0.0|C-Calm|1|FM15-METAR|223|ICAO-KFCH|||||||||||||58|Derived||FM15-METAR|223|ICAO-KFCH|||||||||||||||||||||||||||||||||||||||||||||||||||||||||||||||||||||||||1008.8||1|FM15-METAR|223|ICAO-KFCH|||||||||||||||||||||||||||||||||||||||||||MET063METAR KFCH 161515Z AUTO 00000KT 6SM HZ CLR 26/17 A2979 RMK A01=||F||223|ICAO-KFCH
USW00023167|FRESNO CHANDLER DWTN AP|2021|08|16|15|35|36.7333|-119.8167|84.1|27.0||1|FM15-METAR|223|ICAO-KFCH|17.0||1|FM15-METAR|223|ICAO-KFCH|||||||||||||999|C-Calm|9|FM15-METAR|223|ICAO-KFCH|0.0|C-Calm|1|FM15-METAR|223|ICAO-KFCH|||||||||||||54|Derived||FM15-METAR|223|ICAO-KFCH|||||||||||||||||||||||||||||||||||||||||||||||||||||||||||||||||||||||||1008.8||1|FM15-METAR|223|ICAO-KFCH|||||||||||||||||||||||||||||||||||||||||||MET063METAR KFCH 161535Z AUTO 00000KT 6SM HZ CLR 27/17 A2979 RMK A01=||F||223|ICAO-KFCH
USW00023167|FRESNO CHANDLER DWTN AP|2021|08|16|15|55|36.7333|-119.8167|84.1|28.0||1|FM15-METAR|223|ICAO-KFCH|17.0||1|FM15-METAR|223|ICAO-KFCH|||||||||||||250|N-Normal|1|FM15-METAR|223|ICAO-KFCH|1.5|N-Normal|1|FM15-METAR|223|ICAO-KFCH|||||||||||||51|Derived||FM15-METAR|223|ICAO-KFCH|||||||||||||||||||||||||||||||||||||||||||||||||||||||||||||||||||||||||1008.8||1|FM15-METAR|223|ICAO-KFCH|||||||||||||||||||||||||||||||||||||||||||MET063METAR KFCH 161555Z AUTO 25003KT 6SM HZ CLR 28/17 A2979 RMK A01=||F||223|ICAO-KFCH
USW00023167|FRESNO CHANDLER DWTN AP|2021|08|16|16|10|36.7333|-119.8167|84.1|29.0||1|FM15-METAR|223|ICAO-KFCH|17.0||1|FM15-METAR|223|ICAO-KFCH|||||||||||||999|C-Calm|9|FM15-METAR|223|ICAO-KFCH|0.0|C-Calm|1|FM15-METAR|223|ICAO-KFCH|||||||||||||48|Derived||FM15-METAR|223|ICAO-KFCH|||||||||||||||||||||||||||||||||||||||||||||||||||||||||||||||||||||||||1008.8||1|FM15-METAR|223|ICAO-KFCH|||||||||||||||||||||||||||||||||||||||||||MET063METAR KFCH 161610Z AUTO 00000KT 5SM HZ CLR 29/17 A2979 RMK A01=||F||223|ICAO-KFCH
USW00023167|FRESNO CHANDLER DWTN AP|2021|08|16|16|35|36.7333|-119.8167|84.1|30.0||1|FM15-METAR|223|ICAO-KFCH|17.0||1|FM15-METAR|223|ICAO-KFCH|||||||||||||999|C-Calm|9|FM15-METAR|223|ICAO-KFCH|0.0|C-Calm|1|FM15-METAR|223|ICAO-KFCH|||||||||||||46|Derived||FM15-METAR|223|ICAO-KFCH|||||||||||||||||||||||||||||||||||||||||||||||||||||||||||||||||||||||||1008.8||1|FM15-METAR|223|ICAO-KFCH|||||||||||||||||||||||||||||||||||||||||||MET063METAR KFCH 161635Z AUTO 00000KT 6SM HZ CLR 30/17 A2979 RMK A01=||F||223|ICAO-KFCH
USW00023167|FRESNO CHANDLER DWTN AP|2021|08|16|16|55|36.7333|-119.8167|84.1|30.0||1|FM15-METAR|223|ICAO-KFCH|17.0||1|FM15-METAR|223|ICAO-KFCH|||||||||||||280|N-Normal|1|FM15-METAR|223|ICAO-KFCH|2.1|N-Normal|1|FM15-METAR|223|ICAO-KFCH|||||||||||||46|Derived||FM15-METAR|223|ICAO-KFCH|||||||||||||||||||||||||||||||||||||||||||||||||||||||||||||||||||||||||1008.8||1|FM15-METAR|223|ICAO-KFCH|||||||||||||||||||||||||||||||||||||||||||MET063METAR KFCH 161655Z AUTO 28004KT 5SM HZ CLR 30/17 A2979 RMK A01=||F||223|ICAO-KFCH
USW00023167|FRESNO CHANDLER DWTN AP|2021|08|16|17|15|36.7333|-119.8167|84.1|31.0||1|FM15-METAR|223|ICAO-KFCH|17.0||1|FM15-METAR|223|ICAO-KFCH|||||||||||||250|N-Normal|1|FM15-METAR|223|ICAO-KFCH|2.1|N-Normal|1|FM15-METAR|223|ICAO-KFCH|||||||||||||43|Derived||FM15-METAR|223|ICAO-KFCH|||||||||||||||||||||||||||||||||||||||||||||||||||||||||||||||||||||||||1008.8||1|FM15-METAR|223|ICAO-KFCH|||||||||||||||||||||||||||||||||||||||||||MET063METAR KFCH 161715Z AUTO 25004KT 5SM HZ CLR 31/17 A2979 RMK A01=||F||223|ICAO-KFCH
USW00023167|FRESNO CHANDLER DWTN AP|2021|08|16|17|35|36.7333|-119.8167|84.1|31.0||1|FM15-METAR|223|ICAO-KFCH|17.0||1|FM15-METAR|223|ICAO-KFCH|||||||||||||260|N-Normal|1|FM15-METAR|223|ICAO-KFCH|2.1|N-Normal|1|FM15-METAR|223|ICAO-KFCH|||||||||||||43|Derived||FM15-METAR|223|ICAO-KFCH|||||||||||||||||||||||||||||||||||||||||||||||||||||||||||||||||||||||||1008.8||1|FM15-METAR|223|ICAO-KFCH|||||||||||||||||||||||||||||||||||||||||||MET063METAR KFCH 161735Z AUTO 26004KT 5SM HZ CLR 31/17 A2979 RMK A01=||F||223|ICAO-KFCH
USW00023167|FRESNO CHANDLER DWTN AP|2021|08|16|17|55|36.7333|-119.8167|84.1|32.0||1|FM15-METAR|223|ICAO-KFCH|17.0||1|FM15-METAR|223|ICAO-KFCH|||||||||||||999|V-Variable|9|FM15-METAR|223|ICAO-KFCH|2.1|V-Variable|1|FM15-METAR|223|ICAO-KFCH|||||||||||||41|Derived||FM15-METAR|223|ICAO-KFCH|||||||||||||||||||||||||||||||||||||||||||||||||||||||||||||||||||||||||1008.8||1|FM15-METAR|223|ICAO-KFCH|||||||||||||||||||||||||||||||||||||||||||MET063METAR KFCH 161755Z AUTO VRB04KT 6SM HZ CLR 32/17 A2979 RMK A01=||F||223|ICAO-KFCH
USW00023167|FRESNO CHANDLER DWTN AP|2021|08|16|18|15|36.7333|-119.8167|84.1|33.0||1|FM15-METAR|223|ICAO-KFCH|17.0||1|FM15-METAR|223|ICAO-KFCH|||||||||||||999|V-Variable|9|FM15-METAR|223|ICAO-KFCH|2.1|V-Variable|1|FM15-METAR|223|ICAO-KFCH|||||||||||||38|Derived||FM15-METAR|223|ICAO-KFCH|||||||||||||||||||||||||||||||||||||||||||||||||||||||||||||||||||||||||1008.5||1|FM15-METAR|223|ICAO-KFCH|||||||||||||||||||||||||||||||||||||||||||MET063METAR KFCH 161815Z AUTO VRB04KT 6SM HZ CLR 33/17 A2978 RMK A01=||F||223|ICAO-KFCH
USW00023167|FRESNO CHANDLER DWTN AP|2021|08|16|18|35|36.7333|-119.8167|84.1|34.0||1|FM15-METAR|223|ICAO-KFCH|16.0||1|FM15-METAR|223|ICAO-KFCH|||||||||||||999|V-Variable|9|FM15-METAR|223|ICAO-KFCH|2.1|V-Variable|1|FM15-METAR|223|ICAO-KFCH|||||||||||||34|Derived||FM15-METAR|223|ICAO-KFCH|||||||||||||||||||||||||||||||||||||||||||||||||||||||||||||||||||||||||1008.5||1|FM15-METAR|223|ICAO-KFCH|||||||||||||||||||||||||||||||||||||||||||MET060METAR KFCH 161835Z AUTO VRB04KT 7SM CLR 34/16 A2978 RMK A01=||F||223|ICAO-KFCH
USW00023167|FRESNO CHANDLER DWTN AP|2021|08|16|18|55|36.7333|-119.8167|84.1|34.0||1|FM15-METAR|223|ICAO-KFCH|16.0||1|FM15-METAR|223|ICAO-KFCH|||||||||||||999|V-Variable|9|FM15-METAR|223|ICAO-KFCH|2.1|V-Variable|1|FM15-METAR|223|ICAO-KFCH|||||||||||||34|Derived||FM15-METAR|223|ICAO-KFCH|||||||||||||||||||||||||||||||||||||||||||||||||||||||||||||||||||||||||1008.1||1|FM15-METAR|223|ICAO-KFCH|||||||||||||||||||||||||||||||||||||||||||MET063METAR KFCH 161855Z AUTO VRB04KT 6SM HZ CLR 34/16 A2977 RMK A01=||F||223|ICAO-KFCH
USW00023167|FRESNO CHANDLER DWTN AP|2021|08|16|19|15|36.7333|-119.8167|84.1|35.0||1|FM15-METAR|223|ICAO-KFCH|16.0||1|FM15-METAR|223|ICAO-KFCH|||||||||||||999|C-Calm|9|FM15-METAR|223|ICAO-KFCH|0.0|C-Calm|1|FM15-METAR|223|ICAO-KFCH|||||||||||||32|Derived||FM15-METAR|223|ICAO-KFCH|||||||||||||||||||||||||||||||||||||||||||||||||||||||||||||||||||||||||1008.1||1|FM15-METAR|223|ICAO-KFCH|||||||||||||||||||||||||||||||||||||||||||MET060METAR KFCH 161915Z AUTO 00000KT 7SM CLR 35/16 A2977 RMK A01=||F||223|ICAO-KFCH
USW00023167|FRESNO CHANDLER DWTN AP|2021|08|16|19|35|36.7333|-119.8167|84.1|36.0||1|FM15-METAR|223|ICAO-KFCH|15.0||1|FM15-METAR|223|ICAO-KFCH|||||||||||||999|V-Variable|9|FM15-METAR|223|ICAO-KFCH|2.6|V-Variable|1|FM15-METAR|223|ICAO-KFCH|||||||||||||28|Derived||FM15-METAR|223|ICAO-KFCH|||||||||||||||||||||||||||||||||||||||||||||||||||||||||||||||||||||||||1007.8||1|FM15-METAR|223|ICAO-KFCH|||||||||||||||||||||||||||||||||||||||||||MET060METAR KFCH 161935Z AUTO VRB05KT 7SM CLR 36/15 A2976 RMK A01=||F||223|ICAO-KFCH
USW00023167|FRESNO CHANDLER DWTN AP|2021|08|16|19|55|36.7333|-119.8167|84.1|36.0||1|FM15-METAR|223|ICAO-KFCH|14.0||1|FM15-METAR|223|ICAO-KFCH|||||||||||||300|N-Normal|1|FM15-METAR|223|ICAO-KFCH|4.1|N-Normal|1|FM15-METAR|223|ICAO-KFCH|||||||||||||27|Derived||FM15-METAR|223|ICAO-KFCH|||||||||||||||||||||||||||||||||||||||||||||||||||||||||||||||||||||||||1007.4||1|FM15-METAR|223|ICAO-KFCH|||||||||||||||||||||||||||||||||||||||||||MET063METAR KFCH 161955Z AUTO 30008KT 6SM HZ CLR 36/14 A2975 RMK A01=||F||223|ICAO-KFCH
USW00023167|FRESNO CHANDLER DWTN AP|2021|08|16|20|15|36.7333|-119.8167|84.1|37.0||1|FM15-METAR|223|ICAO-KFCH|14.0||1|FM15-METAR|223|ICAO-KFCH|||||||||||||999|V-Variable|9|FM15-METAR|223|ICAO-KFCH|3.1|V-Variable|1|FM15-METAR|223|ICAO-KFCH|5.7||1|FM15-METAR|223|ICAO-KFCH|||||||25|Derived||FM15-METAR|223|ICAO-KFCH|||||||||||||||||||||||||||||||||||||||||||||||||||||||||||||||||||||||||1007.1||1|FM15-METAR|223|ICAO-KFCH|||||||||||||||||||||||||||||||||||||||||||MET066METAR KFCH 162015Z AUTO VRB06G11KT 6SM HZ CLR 37/14 A2974 RMK A01=||F||223|ICAO-KFCH
USW00023167|FRESNO CHANDLER DWTN AP|2021|08|16|20|35|36.7333|-119.8167|84.1|37.0||1|FM15-METAR|223|ICAO-KFCH|15.0||1|FM15-METAR|223|ICAO-KFCH|||||||||||||999|V-Variable|9|FM15-METAR|223|ICAO-KFCH|2.6|V-Variable|1|FM15-METAR|223|ICAO-KFCH|||||||||||||27|Derived||FM15-METAR|223|ICAO-KFCH|||||||||||||||||||||||||||||||||||||||||||||||||||||||||||||||||||||||||1007.1||1|FM15-METAR|223|ICAO-KFCH|||||||||||||||||||||||||||||||||||||||||||MET060METAR KFCH 162035Z AUTO VRB05KT 7SM CLR 37/15 A2974 RMK A01=||F||223|ICAO-KFCH
USW00023167|FRESNO CHANDLER DWTN AP|2021|08|16|20|55|36.7333|-119.8167|84.1|37.0||1|FM15-METAR|223|ICAO-KFCH|15.0||1|FM15-METAR|223|ICAO-KFCH|||||||||||||330|V-Variable|1|FM15-METAR|223|ICAO-KFCH|3.6|V-Variable|1|FM15-METAR|223|ICAO-KFCH|||||||||||||27|Derived||FM15-METAR|223|ICAO-KFCH|||||||||||||||||||||||||||||||||||||||||||||||||||||||||||||||||||||||||1006.8||1|FM15-METAR|223|ICAO-KFCH|||||||||||||||||||||||||||||||||||||||||||MET071METAR KFCH 162055Z AUTO 33007KT 270V360 6SM HZ CLR 37/15 A2973 RMK A01=||F||223|ICAO-KFCH
USW00023167|FRESNO CHANDLER DWTN AP|2021|08|16|21|15|36.7333|-119.8167|84.1|37.0||1|FM15-METAR|223|ICAO-KFCH|15.0||1|FM15-METAR|223|ICAO-KFCH|||||||||||||999|V-Variable|9|FM15-METAR|223|ICAO-KFCH|2.1|V-Variable|1|FM15-METAR|223|ICAO-KFCH|5.1||1|FM15-METAR|223|ICAO-KFCH|||||||27|Derived||FM15-METAR|223|ICAO-KFCH|||||||||||||||||||||||||||||||||||||||||||||||||||||||||||||||||||||||||1006.8||1|FM15-METAR|223|ICAO-KFCH|||||||||||||||||||||||||||||||||||||||||||MET066METAR KFCH 162115Z AUTO VRB04G10KT 6SM HZ CLR 37/15 A2973 RMK A01=||F||223|ICAO-KFCH
USW00023167|FRESNO CHANDLER DWTN AP|2021|08|16|21|35|36.7333|-119.8167|84.1|37.0||1|FM15-METAR|223|ICAO-KFCH|14.0||1|FM15-METAR|223|ICAO-KFCH|||||||||||||260|N-Normal|1|FM15-METAR|223|ICAO-KFCH|4.1|N-Normal|1|FM15-METAR|223|ICAO-KFCH|||||||||||||25|Derived||FM15-METAR|223|ICAO-KFCH|||||||||||||||||||||||||||||||||||||||||||||||||||||||||||||||||||||||||1006.4||1|FM15-METAR|223|ICAO-KFCH|||||||||||||||||||||||||||||||||||||||||||MET060METAR KFCH 162135Z AUTO 26008KT 7SM CLR 37/14 A2972 RMK A01=||F||223|ICAO-KFCH
USW00023167|FRESNO CHANDLER DWTN AP|2021|08|16|21|55|36.7333|-119.8167|84.1|37.0||1|FM15-METAR|223|ICAO-KFCH|14.0||1|FM15-METAR|223|ICAO-KFCH|||||||||||||270|N-Normal|1|FM15-METAR|223|ICAO-KFCH|4.1|N-Normal|1|FM15-METAR|223|ICAO-KFCH|||||||||||||25|Derived||FM15-METAR|223|ICAO-KFCH|||||||||||||||||||||||||||||||||||||||||||||||||||||||||||||||||||||||||1006.1||1|FM15-METAR|223|ICAO-KFCH|||||||||||||||||||||||||||||||||||||||||||MET060METAR KFCH 162155Z AUTO 27008KT 7SM CLR 37/14 A2971 RMK A01=||F||223|ICAO-KFCH
USW00023167|FRESNO CHANDLER DWTN AP|2021|08|16|22|15|36.7333|-119.8167|84.1|38.0||1|FM15-METAR|223|ICAO-KFCH|14.0||1|FM15-METAR|223|ICAO-KFCH|||||||||||||270|N-Normal|1|FM15-METAR|223|ICAO-KFCH|5.1|N-Normal|1|FM15-METAR|223|ICAO-KFCH|||||||||||||24|Derived||FM15-METAR|223|ICAO-KFCH|||||||||||||||||||||||||||||||||||||||||||||||||||||||||||||||||||||||||1006.1||1|FM15-METAR|223|ICAO-KFCH|||||||||||||||||||||||||||||||||||||||||||MET060METAR KFCH 162215Z AUTO 27010KT 7SM CLR 38/14 A2971 RMK A01=||F||223|ICAO-KFCH
USW00023167|FRESNO CHANDLER DWTN AP|2021|08|16|22|30|36.7333|-119.8167|84.1|38.0||1|FM15-METAR|223|ICAO-KFCH|14.0||1|FM15-METAR|223|ICAO-KFCH|||||||||||||300|N-Normal|1|FM15-METAR|223|ICAO-KFCH|4.1|N-Normal|1|FM15-METAR|223|ICAO-KFCH|6.7||1|FM15-METAR|223|ICAO-KFCH|||||||24|Derived||FM15-METAR|223|ICAO-KFCH|||||||||||||||||||||||||||||||||||||||||||||||||||||||||||||||||||||||||1005.8||1|FM15-METAR|223|ICAO-KFCH|||||||||||||||||||||||||||||||||||||||||||MET063METAR KFCH 162230Z AUTO 30008G13KT 7SM CLR 38/14 A2970 RMK A01=||F||223|ICAO-KFCH
USW00023167|FRESNO CHANDLER DWTN AP|2021|08|16|22|55|36.7333|-119.8167|84.1|38.0||1|FM15-METAR|223|ICAO-KFCH|14.0||1|FM15-METAR|223|ICAO-KFCH|||||||||||||300|N-Normal|1|FM15-METAR|223|ICAO-KFCH|4.1|N-Normal|1|FM15-METAR|223|ICAO-KFCH|||||||||||||24|Derived||FM15-METAR|223|ICAO-KFCH|||||||||||||||||||||||||||||||||||||||||||||||||||||||||||||||||||||||||1005.4||1|FM15-METAR|223|ICAO-KFCH|||||||||||||||||||||||||||||||||||||||||||MET060METAR KFCH 162255Z AUTO 30008KT 7SM CLR 38/14 A2969 RMK A01=||F||223|ICAO-KFCH
USW00023167|FRESNO CHANDLER DWTN AP|2021|08|16|23|15|36.7333|-119.8167|84.1|38.0||1|FM15-METAR|223|ICAO-KFCH|12.0||1|FM15-METAR|223|ICAO-KFCH|||||||||||||300|N-Normal|1|FM15-METAR|223|ICAO-KFCH|4.1|N-Normal|1|FM15-METAR|223|ICAO-KFCH|||||||||||||21|Derived||FM15-METAR|223|ICAO-KFCH|||||||||||||||||||||||||||||||||||||||||||||||||||||||||||||||||||||||||1005.4||1|FM15-METAR|223|ICAO-KFCH|||||||||||||||||||||||||||||||||||||||||||MET060METAR KFCH 162315Z AUTO 30008KT 8SM CLR 38/12 A2969 RMK A01=||F||223|ICAO-KFCH
USW00023167|FRESNO CHANDLER DWTN AP|2021|08|16|23|35|36.7333|-119.8167|84.1|38.0||1|FM15-METAR|223|ICAO-KFCH|12.0||1|FM15-METAR|223|ICAO-KFCH|||||||||||||310|N-Normal|1|FM15-METAR|223|ICAO-KFCH|3.6|N-Normal|1|FM15-METAR|223|ICAO-KFCH|||||||||||||21|Derived||FM15-METAR|223|ICAO-KFCH|||||||||||||||||||||||||||||||||||||||||||||||||||||||||||||||||||||||||1005.4||1|FM15-METAR|223|ICAO-KFCH|||||||||||||||||||||||||||||||||||||||||||MET060METAR KFCH 162335Z AUTO 31007KT 8SM CLR 38/12 A2969 RMK A01=||F||223|ICAO-KFCH
USW00023167|FRESNO CHANDLER DWTN AP|2021|08|16|23|55|36.7333|-119.8167|84.1|37.0||1|FM15-METAR|223|ICAO-KFCH|13.0||1|FM15-METAR|223|ICAO-KFCH|||||||||||||310|N-Normal|1|FM15-METAR|223|ICAO-KFCH|3.6|N-Normal|1|FM15-METAR|223|ICAO-KFCH|||||||||||||24|Derived||FM15-METAR|223|ICAO-KFCH|||||||||||||||||||||||||||||||||||||||||||||||||||||||||||||||||||||||||1005.4||1|FM15-METAR|223|ICAO-KFCH|||||||||||||||||||||||||||||||||||||||||||MET060METAR KFCH 162355Z AUTO 31007KT 8SM CLR 37/13 A2969 RMK A01=||F||223|ICAO-KFCH
USW00023167|FRESNO CHANDLER DWTN AP|2021|08|17|00|15|36.7333|-119.8167|84.1|37.0||1|FM15-METAR|223|ICAO-KFCH|15.0||1|FM15-METAR|223|ICAO-KFCH|||||||||||||290|N-Normal|1|FM15-METAR|223|ICAO-KFCH|4.6|N-Normal|1|FM15-METAR|223|ICAO-KFCH|||||||||||||27|Derived||FM15-METAR|223|ICAO-KFCH|||||||||||||||||||||||||||||||||||||||||||||||||||||||||||||||||||||||||1005.1||1|FM15-METAR|223|ICAO-KFCH|||||||||||||||||||||||||||||||||||||||||||MET060METAR KFCH 170015Z AUTO 29009KT 8SM CLR 37/15 A2968 RMK A01=||F||223|ICAO-KFCH
USW00023167|FRESNO CHANDLER DWTN AP|2021|08|17|00|35|36.7333|-119.8167|84.1|37.0||1|FM15-METAR|223|ICAO-KFCH|14.0||1|FM15-METAR|223|ICAO-KFCH|||||||||||||290|N-Normal|1|FM15-METAR|223|ICAO-KFCH|4.6|N-Normal|1|FM15-METAR|223|ICAO-KFCH|||||||||||||25|Derived||FM15-METAR|223|ICAO-KFCH|||||||||||||||||||||||||||||||||||||||||||||||||||||||||||||||||||||||||1005.1||1|FM15-METAR|223|ICAO-KFCH|||||||||||||||||||||||||||||||||||||||||||MET060METAR KFCH 170035Z AUTO 29009KT 7SM CLR 37/14 A2968 RMK A01=||F||223|ICAO-KFCH
USW00023167|FRESNO CHANDLER DWTN AP|2021|08|17|00|55|36.7333|-119.8167|84.1|37.0||1|FM15-METAR|223|ICAO-KFCH|15.0||1|FM15-METAR|223|ICAO-KFCH|||||||||||||300|N-Normal|1|FM15-METAR|223|ICAO-KFCH|5.1|N-Normal|1|FM15-METAR|223|ICAO-KFCH|||||||||||||27|Derived||FM15-METAR|223|ICAO-KFCH|||||||||||||||||||||||||||||||||||||||||||||||||||||||||||||||||||||||||1005.1||1|FM15-METAR|223|ICAO-KFCH|||||||||||||||||||||||||||||||||||||||||||MET060METAR KFCH 170055Z AUTO 30010KT 7SM CLR 37/15 A2968 RMK A01=||F||223|ICAO-KFCH
USW00023167|FRESNO CHANDLER DWTN AP|2021|08|17|01|15|36.7333|-119.8167|84.1|37.0||1|FM15-METAR|223|ICAO-KFCH|15.0||1|FM15-METAR|223|ICAO-KFCH|||||||||||||320|N-Normal|1|FM15-METAR|223|ICAO-KFCH|3.6|N-Normal|1|FM15-METAR|223|ICAO-KFCH|||||||||||||27|Derived||FM15-METAR|223|ICAO-KFCH|||||||||||||||||||||||||||||||||||||||||||||||||||||||||||||||||||||||||1005.1||1|FM15-METAR|223|ICAO-KFCH|||||||||||||||||||||||||||||||||||||||||||MET060METAR KFCH 170115Z AUTO 32007KT 7SM CLR 37/15 A2968 RMK A01=||F||223|ICAO-KFCH
USW00023167|FRESNO CHANDLER DWTN AP|2021|08|17|01|35|36.7333|-119.8167|84.1|36.0||1|FM15-METAR|223|ICAO-KFCH|16.0||1|FM15-METAR|223|ICAO-KFCH|||||||||||||300|N-Normal|1|FM15-METAR|223|ICAO-KFCH|4.1|N-Normal|1|FM15-METAR|223|ICAO-KFCH|||||||||||||30|Derived||FM15-METAR|223|ICAO-KFCH|||||||||||||||||||||||||||||||||||||||||||||||||||||||||||||||||||||||||1005.1||1|FM15-METAR|223|ICAO-KFCH|||||||||||||||||||||||||||||||||||||||||||MET060METAR KFCH 170135Z AUTO 30008KT 7SM CLR 36/16 A2968 RMK A01=||F||223|ICAO-KFCH
USW00023167|FRESNO CHANDLER DWTN AP|2021|08|17|01|55|36.7333|-119.8167|84.1|36.0||1|FM15-METAR|223|ICAO-KFCH|16.0||1|FM15-METAR|223|ICAO-KFCH|||||||||||||310|N-Normal|1|FM15-METAR|223|ICAO-KFCH|3.6|N-Normal|1|FM15-METAR|223|ICAO-KFCH|||||||||||||30|Derived||FM15-METAR|223|ICAO-KFCH|||||||||||||||||||||||||||||||||||||||||||||||||||||||||||||||||||||||||1005.1||1|FM15-METAR|223|ICAO-KFCH|||||||||||||||||||||||||||||||||||||||||||MET060METAR KFCH 170155Z AUTO 31007KT 7SM CLR 36/16 A2968 RMK A01=||F||223|ICAO-KFCH
USW00023167|FRESNO CHANDLER DWTN AP|2021|08|17|02|15|36.7333|-119.8167|84.1|36.0||1|FM15-METAR|223|ICAO-KFCH|16.0||1|FM15-METAR|223|ICAO-KFCH|||||||||||||320|N-Normal|1|FM15-METAR|223|ICAO-KFCH|4.1|N-Normal|1|FM15-METAR|223|ICAO-KFCH|||||||||||||30|Derived||FM15-METAR|223|ICAO-KFCH|||||||||||||||||||||||||||||||||||||||||||||||||||||||||||||||||||||||||1005.1||1|FM15-METAR|223|ICAO-KFCH|||||||||||||||||||||||||||||||||||||||||||MET060METAR KFCH 170215Z AUTO 32008KT 7SM CLR 36/16 A2968 RMK A01=||F||223|ICAO-KFCH
USW00023167|FRESNO CHANDLER DWTN AP|2021|08|17|02|35|36.7333|-119.8167|84.1|35.0||1|FM15-METAR|223|ICAO-KFCH|16.0||1|FM15-METAR|223|ICAO-KFCH|||||||||||||320|N-Normal|1|FM15-METAR|223|ICAO-KFCH|2.6|N-Normal|1|FM15-METAR|223|ICAO-KFCH|||||||||||||32|Derived||FM15-METAR|223|ICAO-KFCH|||||||||||||||||||||||||||||||||||||||||||||||||||||||||||||||||||||||||1005.1||1|FM15-METAR|223|ICAO-KFCH|||||||||||||||||||||||||||||||||||||||||||MET063METAR KFCH 170235Z AUTO 32005KT 6SM HZ CLR 35/16 A2968 RMK A01=||F||223|ICAO-KFCH
USW00023167|FRESNO CHANDLER DWTN AP|2021|08|17|02|55|36.7333|-119.8167|84.1|35.0||1|FM15-METAR|223|ICAO-KFCH|16.0||1|FM15-METAR|223|ICAO-KFCH|||||||||||||290|N-Normal|1|FM15-METAR|223|ICAO-KFCH|2.6|N-Normal|1|FM15-METAR|223|ICAO-KFCH|||||||||||||32|Derived||FM15-METAR|223|ICAO-KFCH|||||||||||||||||||||||||||||||||||||||||||||||||||||||||||||||||||||||||1005.4||1|FM15-METAR|223|ICAO-KFCH|||||||||||||||||||||||||||||||||||||||||||MET060METAR KFCH 170255Z AUTO 29005KT 7SM CLR 35/16 A2969 RMK A01=||F||223|ICAO-KFCH
USW00023167|FRESNO CHANDLER DWTN AP|2021|08|17|03|15|36.7333|-119.8167|84.1|34.0||1|FM15-METAR|223|ICAO-KFCH|17.0||1|FM15-METAR|223|ICAO-KFCH|||||||||||||310|N-Normal|1|FM15-METAR|223|ICAO-KFCH|2.6|N-Normal|1|FM15-METAR|223|ICAO-KFCH|||||||||||||36|Derived||FM15-METAR|223|ICAO-KFCH|||||||||||||||||||||||||||||||||||||||||||||||||||||||||||||||||||||||||1005.4||1|FM15-METAR|223|ICAO-KFCH|||||||||||||||||||||||||||||||||||||||||||MET063METAR KFCH 170315Z AUTO 31005KT 7SM FEW040 34/17 A2969 RMK A01=||F||223|ICAO-KFCH
USW00023167|FRESNO CHANDLER DWTN AP|2021|08|17|03|35|36.7333|-119.8167|84.1|33.0||1|FM15-METAR|223|ICAO-KFCH|18.0||1|FM15-METAR|223|ICAO-KFCH|||||||||||||300|N-Normal|1|FM15-METAR|223|ICAO-KFCH|2.1|N-Normal|1|FM15-METAR|223|ICAO-KFCH|||||||||||||41|Derived||FM15-METAR|223|ICAO-KFCH|||||||||||||||||||||||||||||||||||||||||||||||||||||||||||||||||||||||||1005.4||1|FM15-METAR|223|ICAO-KFCH|||||||||||||||||||||||||||||||||||||||||||MET063METAR KFCH 170335Z AUTO 30004KT 7SM BKN041 33/18 A2969 RMK A01=||F||223|ICAO-KFCH
USW00023167|FRESNO CHANDLER DWTN AP|2021|08|17|03|55|36.7333|-119.8167|84.1|32.0||1|FM15-METAR|223|ICAO-KFCH|17.0||1|FM15-METAR|223|ICAO-KFCH|||||||||||||310|N-Normal|1|FM15-METAR|223|ICAO-KFCH|3.1|N-Normal|1|FM15-METAR|223|ICAO-KFCH|||||||||||||41|Derived||FM15-METAR|223|ICAO-KFCH|||||||||||||||||||||||||||||||||||||||||||||||||||||||||||||||||||||||||1005.8||1|FM15-METAR|223|ICAO-KFCH|||||||||||||||||||||||||||||||||||||||||||MET063METAR KFCH 170355Z AUTO 31006KT 7SM BKN043 32/17 A2970 RMK A01=||F||223|ICAO-KFCH
USW00023167|FRESNO CHANDLER DWTN AP|2021|08|17|04|15|36.7333|-119.8167|84.1|32.0||1|FM15-METAR|223|ICAO-KFCH|17.0||1|FM15-METAR|223|ICAO-KFCH|||||||||||||320|N-Normal|1|FM15-METAR|223|ICAO-KFCH|2.6|N-Normal|1|FM15-METAR|223|ICAO-KFCH|||||||||||||41|Derived||FM15-METAR|223|ICAO-KFCH|||||||||||||||||||||||||||||||||||||||||||||||||||||||||||||||||||||||||1006.1||1|FM15-METAR|223|ICAO-KFCH|||||||||||||||||||||||||||||||||||||||||||MET063METAR KFCH 170415Z AUTO 32005KT 8SM OVC042 32/17 A2971 RMK A01=||F||223|ICAO-KFCH
USW00023167|FRESNO CHANDLER DWTN AP|2021|08|17|04|35|36.7333|-119.8167|84.1|32.0||1|FM15-METAR|223|ICAO-KFCH|16.0||1|FM15-METAR|223|ICAO-KFCH|||||||||||||320|N-Normal|1|FM15-METAR|223|ICAO-KFCH|4.6|N-Normal|1|FM15-METAR|223|ICAO-KFCH|||||||||||||38|Derived||FM15-METAR|223|ICAO-KFCH|||||||||||||||||||||||||||||||||||||||||||||||||||||||||||||||||||||||||1006.1||1|FM15-METAR|223|ICAO-KFCH|||||||||||||||||||||||||||||||||||||||||||MET070METAR KFCH 170435Z AUTO 32009KT 9SM SCT033 OVC042 32/16 A2971 RMK A01=||F||223|ICAO-KFCH
USW00023167|FRESNO CHANDLER DWTN AP|2021|08|17|04|55|36.7333|-119.8167|84.1|31.0||1|FM15-METAR|223|ICAO-KFCH|16.0||1|FM15-METAR|223|ICAO-KFCH|||||||||||||300|N-Normal|1|FM15-METAR|223|ICAO-KFCH|4.6|N-Normal|1|FM15-METAR|223|ICAO-KFCH|||||||||||||40|Derived||FM15-METAR|223|ICAO-KFCH|||||||||||||||||||||||||||||||||||||||||||||||||||||||||||||||||||||||||1006.4||1|FM15-METAR|223|ICAO-KFCH|||||||||||||||||||||||||||||||||||||||||||MET077METAR KFCH 170455Z AUTO 30009KT 9SM FEW020 BKN035 OVC042 31/16 A2972 RMK A01=||F||223|ICAO-KFCH
USW00023167|FRESNO CHANDLER DWTN AP|2021|08|17|05|15|36.7333|-119.8167|84.1|31.0||1|FM15-METAR|223|ICAO-KFCH|13.0||1|FM15-METAR|223|ICAO-KFCH|||||||||||||310|N-Normal|1|FM15-METAR|223|ICAO-KFCH|4.6|N-Normal|1|FM15-METAR|223|ICAO-KFCH|||||||||||||33|Derived||FM15-METAR|223|ICAO-KFCH|||||||||||||||||||||||||||||||||||||||||||||||||||||||||||||||||||||||||1006.4||1|FM15-METAR|223|ICAO-KFCH|||||||||||||||||||||||||||||||||||||||||||MET078METAR KFCH 170515Z AUTO 31009KT 10SM BKN020 BKN036 OVC042 31/13 A2972 RMK A01=||F||223|ICAO-KFCH
USW00023167|FRESNO CHANDLER DWTN AP|2021|08|17|05|35|36.7333|-119.8167|84.1|31.0||1|FM15-METAR|223|ICAO-KFCH|11.0||1|FM15-METAR|223|ICAO-KFCH|||||||||||||300|N-Normal|1|FM15-METAR|223|ICAO-KFCH|5.7|N-Normal|1|FM15-METAR|223|ICAO-KFCH|||||||||||||29|Derived||FM15-METAR|223|ICAO-KFCH|||||||||||||||||||||||||||||||||||||||||||||||||||||||||||||||||||||||||1006.1||1|FM15-METAR|223|ICAO-KFCH|||||||||||||||||||||||||||||||||||||||||||MET078METAR KFCH 170535Z AUTO 30011KT 10SM BKN016 BKN021 OVC041 31/11 A2971 RMK A01=||F||223|ICAO-KFCH
USW00023167|FRESNO CHANDLER DWTN AP|2021|08|17|05|55|36.7333|-119.8167|84.1|30.0||1|FM15-METAR|223|ICAO-KFCH|9.0||1|FM15-METAR|223|ICAO-KFCH|||||||||||||300|N-Normal|1|FM15-METAR|223|ICAO-KFCH|6.7|N-Normal|1|FM15-METAR|223|ICAO-KFCH|||||||||||||27|Derived||FM15-METAR|223|ICAO-KFCH|||||||||||||||||||||||||||||||||||||||||||||||||||||||||||||||||||||||||1006.4||1|FM15-METAR|223|ICAO-KFCH|||||||||||||||||||||||||||||||||||||||||||MET078METAR KFCH 170555Z AUTO 30013KT 10SM BKN015 BKN020 OVC032 30/09 A2972 RMK A01=||F||223|ICAO-KFCH
USW00023167|FRESNO CHANDLER DWTN AP|2021|08|17|06|15|36.7333|-119.8167|84.1|30.0||1|FM15-METAR|223|ICAO-KFCH|10.0||1|FM15-METAR|223|ICAO-KFCH|||||||||||||310|N-Normal|1|FM15-METAR|223|ICAO-KFCH|4.1|N-Normal|1|FM15-METAR|223|ICAO-KFCH|||||||||||||29|Derived||FM15-METAR|223|ICAO-KFCH|||||||||||||||||||||||||||||||||||||||||||||||||||||||||||||||||||||||||1006.4||1|FM15-METAR|223|ICAO-KFCH|||||||||||||||||||||||||||||||||||||||||||MET078METAR KFCH 170615Z AUTO 31008KT 10SM SCT015 SCT026 OVC033 30/10 A2972 RMK A01=||F||223|ICAO-KFCH
USW00023167|FRESNO CHANDLER DWTN AP|2021|08|17|06|35|36.7333|-119.8167|84.1|29.0||1|FM15-METAR|223|ICAO-KFCH|10.0||1|FM15-METAR|223|ICAO-KFCH|||||||||||||320|N-Normal|1|FM15-METAR|223|ICAO-KFCH|4.1|N-Normal|1|FM15-METAR|223|ICAO-KFCH|||||||||||||31|Derived||FM15-METAR|223|ICAO-KFCH|||||||||||||||||||||||||||||||||||||||||||||||||||||||||||||||||||||||||1006.8||1|FM15-METAR|223|ICAO-KFCH|||||||||||||||||||||||||||||||||||||||||||MET078METAR KFCH 170635Z AUTO 32008KT 10SM BKN016 BKN026 OVC030 29/10 A2973 RMK A01=||F||223|ICAO-KFCH
USW00023167|FRESNO CHANDLER DWTN AP|2021|08|17|06|55|36.7333|-119.8167|84.1|29.0||1|FM15-METAR|223|ICAO-KFCH|10.0||1|FM15-METAR|223|ICAO-KFCH|||||||||||||320|N-Normal|1|FM15-METAR|223|ICAO-KFCH|2.6|N-Normal|1|FM15-METAR|223|ICAO-KFCH|5.7||1|FM15-METAR|223|ICAO-KFCH|||||||31|Derived||FM15-METAR|223|ICAO-KFCH|||||||||||||||||||||||||||||||||||||||||||||||||||||||||||||||||||||||||1007.1||1|FM15-METAR|223|ICAO-KFCH|||||||||||||||||||||||||||||||||||||||||||MET074METAR KFCH 170655Z AUTO 32005G11KT 10SM FEW017 OVC029 29/10 A2974 RMK A01=||F||223|ICAO-KFCH
USW00023167|FRESNO CHANDLER DWTN AP|2021|08|17|07|15|36.7333|-119.8167|84.1|28.0||1|FM15-METAR|223|ICAO-KFCH|10.0||1|FM15-METAR|223|ICAO-KFCH|||||||||||||310|N-Normal|1|FM15-METAR|223|ICAO-KFCH|3.1|N-Normal|1|FM15-METAR|223|ICAO-KFCH|||||||||||||32|Derived||FM15-METAR|223|ICAO-KFCH|||||||||||||||||||||||||||||||||||||||||||||||||||||||||||||||||||||||||1007.1||1|FM15-METAR|223|ICAO-KFCH|||||||||||||||||||||||||||||||||||||||||||MET064METAR KFCH 170715Z AUTO 31006KT 10SM OVC032 28/10 A2974 RMK A01=||F||223|ICAO-KFCH
USW00023167|FRESNO CHANDLER DWTN AP|2021|08|17|07|35|36.7333|-119.8167|84.1|28.0||1|FM15-METAR|223|ICAO-KFCH|10.0||1|FM15-METAR|223|ICAO-KFCH|||||||||||||320|N-Normal|1|FM15-METAR|223|ICAO-KFCH|4.6|N-Normal|1|FM15-METAR|223|ICAO-KFCH|||||||||||||32|Derived||FM15-METAR|223|ICAO-KFCH|||||||||||||||||||||||||||||||||||||||||||||||||||||||||||||||||||||||||1007.1||1|FM15-METAR|223|ICAO-KFCH|||||||||||||||||||||||||||||||||||||||||||MET064METAR KFCH 170735Z AUTO 32009KT 10SM OVC033 28/10 A2974 RMK A01=||F||223|ICAO-KFCH
USW00023167|FRESNO CHANDLER DWTN AP|2021|08|17|07|55|36.7333|-119.8167|84.1|29.0||1|FM15-METAR|223|ICAO-KFCH|10.0||1|FM15-METAR|223|ICAO-KFCH|||||||||||||330|N-Normal|1|FM15-METAR|223|ICAO-KFCH|3.6|N-Normal|1|FM15-METAR|223|ICAO-KFCH|||||||||||||31|Derived||FM15-METAR|223|ICAO-KFCH|||||||||||||||||||||||||||||||||||||||||||||||||||||||||||||||||||||||||1007.1||1|FM15-METAR|223|ICAO-KFCH|||||||||||||||||||||||||||||||||||||||||||MET064METAR KFCH 170755Z AUTO 33007KT 10SM OVC036 29/10 A2974 RMK A01=||F||223|ICAO-KFCH
USW00023167|FRESNO CHANDLER DWTN AP|2021|08|17|08|15|36.7333|-119.8167|84.1|29.0||1|FM15-METAR|223|ICAO-KFCH|9.0||1|FM15-METAR|223|ICAO-KFCH|||||||||||||330|N-Normal|1|FM15-METAR|223|ICAO-KFCH|4.1|N-Normal|1|FM15-METAR|223|ICAO-KFCH|||||||||||||29|Derived||FM15-METAR|223|ICAO-KFCH|||||||||||||||||||||||||||||||||||||||||||||||||||||||||||||||||||||||||1007.1||1|FM15-METAR|223|ICAO-KFCH|||||||||||||||||||||||||||||||||||||||||||MET064METAR KFCH 170815Z AUTO 33008KT 10SM OVC036 29/09 A2974 RMK A01=||F||223|ICAO-KFCH
USW00023167|FRESNO CHANDLER DWTN AP|2021|08|17|08|35|36.7333|-119.8167|84.1|29.0||1|FM15-METAR|223|ICAO-KFCH|9.0||1|FM15-METAR|223|ICAO-KFCH|||||||||||||320|N-Normal|1|FM15-METAR|223|ICAO-KFCH|4.1|N-Normal|1|FM15-METAR|223|ICAO-KFCH|||||||||||||29|Derived||FM15-METAR|223|ICAO-KFCH|||||||||||||||||||||||||||||||||||||||||||||||||||||||||||||||||||||||||1006.8||1|FM15-METAR|223|ICAO-KFCH|||||||||||||||||||||||||||||||||||||||||||MET064METAR KFCH 170835Z AUTO 32008KT 10SM OVC036 29/09 A2973 RMK A01=||F||223|ICAO-KFCH
USW00023167|FRESNO CHANDLER DWTN AP|2021|08|17|08|50|36.7333|-119.8167|84.1|29.0||1|FM15-METAR|223|ICAO-KFCH|8.0||1|FM15-METAR|223|ICAO-KFCH|||||||||||||320|N-Normal|1|FM15-METAR|223|ICAO-KFCH|4.1|N-Normal|1|FM15-METAR|223|ICAO-KFCH|||||||||||||27|Derived||FM15-METAR|223|ICAO-KFCH|||||||||||||||||||||||||||||||||||||||||||||||||||||||||||||||||||||||||1006.8||1|FM15-METAR|223|ICAO-KFCH|||||||||||||||||||||||||||||||||||||||||||MET064METAR KFCH 170850Z AUTO 32008KT 10SM OVC036 29/08 A2973 RMK A01=||F||223|ICAO-KFCH
USW00023167|FRESNO CHANDLER DWTN AP|2021|08|17|09|15|36.7333|-119.8167|84.1|29.0||1|FM15-METAR|223|ICAO-KFCH|7.0||1|FM15-METAR|223|ICAO-KFCH|||||||||||||320|N-Normal|1|FM15-METAR|223|ICAO-KFCH|4.6|N-Normal|1|FM15-METAR|223|ICAO-KFCH|||||||||||||25|Derived||FM15-METAR|223|ICAO-KFCH|||||||||||||||||||||||||||||||||||||||||||||||||||||||||||||||||||||||||1007.1||1|FM15-METAR|223|ICAO-KFCH|||||||||||||||||||||||||||||||||||||||||||MET064METAR KFCH 170915Z AUTO 32009KT 10SM OVC037 29/07 A2974 RMK A01=||F||223|ICAO-KFCH
USW00023167|FRESNO CHANDLER DWTN AP|2021|08|17|09|35|36.7333|-119.8167|84.1|29.0||1|FM15-METAR|223|ICAO-KFCH|8.0||1|FM15-METAR|223|ICAO-KFCH|||||||||||||320|N-Normal|1|FM15-METAR|223|ICAO-KFCH|3.1|N-Normal|1|FM15-METAR|223|ICAO-KFCH|||||||||||||27|Derived||FM15-METAR|223|ICAO-KFCH|||||||||||||||||||||||||||||||||||||||||||||||||||||||||||||||||||||||||1006.8||1|FM15-METAR|223|ICAO-KFCH|||||||||||||||||||||||||||||||||||||||||||MET064METAR KFCH 170935Z AUTO 32006KT 10SM OVC038 29/08 A2973 RMK A01=||F||223|ICAO-KFCH
USW00023167|FRESNO CHANDLER DWTN AP|2021|08|17|09|55|36.7333|-119.8167|84.1|28.0||1|FM15-METAR|223|ICAO-KFCH|8.0||1|FM15-METAR|223|ICAO-KFCH|||||||||||||310|N-Normal|1|FM15-METAR|223|ICAO-KFCH|4.1|N-Normal|1|FM15-METAR|223|ICAO-KFCH|||||||||||||28|Derived||FM15-METAR|223|ICAO-KFCH|||||||||||||||||||||||||||||||||||||||||||||||||||||||||||||||||||||||||1006.8||1|FM15-METAR|223|ICAO-KFCH|||||||||||||||||||||||||||||||||||||||||||MET064METAR KFCH 170955Z AUTO 31008KT 10SM OVC039 28/08 A2973 RMK A01=||F||223|ICAO-KFCH
USW00023167|FRESNO CHANDLER DWTN AP|2021|08|17|10|15|36.7333|-119.8167|84.1|27.0||1|FM15-METAR|223|ICAO-KFCH|9.0||1|FM15-METAR|223|ICAO-KFCH|||||||||||||330|N-Normal|1|FM15-METAR|223|ICAO-KFCH|2.6|N-Normal|1|FM15-METAR|223|ICAO-KFCH|||||||||||||32|Derived||FM15-METAR|223|ICAO-KFCH|||||||||||||||||||||||||||||||||||||||||||||||||||||||||||||||||||||||||1006.8||1|FM15-METAR|223|ICAO-KFCH|||||||||||||||||||||||||||||||||||||||||||MET064METAR KFCH 171015Z AUTO 33005KT 10SM OVC039 27/09 A2973 RMK A01=||F||223|ICAO-KFCH
USW00023167|FRESNO CHANDLER DWTN AP|2021|08|17|10|35|36.7333|-119.8167|84.1|27.0||1|FM15-METAR|223|ICAO-KFCH|9.0||1|FM15-METAR|223|ICAO-KFCH|||||||||||||340|N-Normal|1|FM15-METAR|223|ICAO-KFCH|2.6|N-Normal|1|FM15-METAR|223|ICAO-KFCH|||||||||||||32|Derived||FM15-METAR|223|ICAO-KFCH|||||||||||||||||||||||||||||||||||||||||||||||||||||||||||||||||||||||||1006.8||1|FM15-METAR|223|ICAO-KFCH|||||||||||||||||||||||||||||||||||||||||||MET064METAR KFCH 171035Z AUTO 34005KT 10SM OVC038 27/09 A2973 RMK A01=||F||223|ICAO-KFCH
USW00023167|FRESNO CHANDLER DWTN AP|2021|08|17|10|55|36.7333|-119.8167|84.1|26.0||1|FM15-METAR|223|ICAO-KFCH|10.0||1|FM15-METAR|223|ICAO-KFCH|||||||||||||330|N-Normal|1|FM15-METAR|223|ICAO-KFCH|2.6|N-Normal|1|FM15-METAR|223|ICAO-KFCH|||||||||||||37|Derived||FM15-METAR|223|ICAO-KFCH|||||||||||||||||||||||||||||||||||||||||||||||||||||||||||||||||||||||||1006.8||1|FM15-METAR|223|ICAO-KFCH|||||||||||||||||||||||||||||||||||||||||||MET064METAR KFCH 171055Z AUTO 33005KT 10SM OVC037 26/10 A2973 RMK A01=||F||223|ICAO-KFCH
USW00023167|FRESNO CHANDLER DWTN AP|2021|08|17|11|15|36.7333|-119.8167|84.1|26.0||1|FM15-METAR|223|ICAO-KFCH|10.0||1|FM15-METAR|223|ICAO-KFCH|||||||||||||330|N-Normal|1|FM15-METAR|223|ICAO-KFCH|2.1|N-Normal|1|FM15-METAR|223|ICAO-KFCH|||||||||||||37|Derived||FM15-METAR|223|ICAO-KFCH|||||||||||||||||||||||||||||||||||||||||||||||||||||||||||||||||||||||||1006.8||1|FM15-METAR|223|ICAO-KFCH|||||||||||||||||||||||||||||||||||||||||||MET064METAR KFCH 171115Z AUTO 33004KT 10SM OVC036 26/10 A2973 RMK A01=||F||223|ICAO-KFCH
USW00023167|FRESNO CHANDLER DWTN AP|2021|08|17|11|35|36.7333|-119.8167|84.1|25.0||1|FM15-METAR|223|ICAO-KFCH|10.0||1|FM15-METAR|223|ICAO-KFCH|||||||||||||340|N-Normal|1|FM15-METAR|223|ICAO-KFCH|1.5|N-Normal|1|FM15-METAR|223|ICAO-KFCH|||||||||||||39|Derived||FM15-METAR|223|ICAO-KFCH|||||||||||||||||||||||||||||||||||||||||||||||||||||||||||||||||||||||||1006.8||1|FM15-METAR|223|ICAO-KFCH|||||||||||||||||||||||||||||||||||||||||||MET064METAR KFCH 171135Z AUTO 34003KT 10SM OVC037 25/10 A2973 RMK A01=||F||223|ICAO-KFCH
USW00023167|FRESNO CHANDLER DWTN AP|2021|08|17|11|55|36.7333|-119.8167|84.1|25.0||1|FM15-METAR|223|ICAO-KFCH|11.0||1|FM15-METAR|223|ICAO-KFCH|||||||||||||999|C-Calm|9|FM15-METAR|223|ICAO-KFCH|0.0|C-Calm|1|FM15-METAR|223|ICAO-KFCH|||||||||||||42|Derived||FM15-METAR|223|ICAO-KFCH|||||||||||||||||||||||||||||||||||||||||||||||||||||||||||||||||||||||||1007.1||1|FM15-METAR|223|ICAO-KFCH|||||||||||||||||||||||||||||||||||||||||||MET064METAR KFCH 171155Z AUTO 00000KT 10SM OVC038 25/11 A2974 RMK A01=||F||223|ICAO-KFCH
USW00023167|FRESNO CHANDLER DWTN AP|2021|08|17|12|15|36.7333|-119.8167|84.1|24.0||1|FM15-METAR|223|ICAO-KFCH|11.0||1|FM15-METAR|223|ICAO-KFCH|||||||||||||360|N-Normal|1|FM15-METAR|223|ICAO-KFCH|1.5|N-Normal|1|FM15-METAR|223|ICAO-KFCH|||||||||||||44|Derived||FM15-METAR|223|ICAO-KFCH|||||||||||||||||||||||||||||||||||||||||||||||||||||||||||||||||||||||||1007.1||1|FM15-METAR|223|ICAO-KFCH|||||||||||||||||||||||||||||||||||||||||||MET064METAR KFCH 171215Z AUTO 36003KT 10SM OVC040 24/11 A2974 RMK A01=||F||223|ICAO-KFCH
