Station_ID|Station_name|Year|Month|Day|Hour|Minute|Latitude|Longitude|Elevation|temperature|temperature_Measurement_Code|temperature_Quality_Code|temperature_Report_Type|temperature_Source_Code|temperature_Source_Station_ID|dew_point_temperature|dew_point_temperature_Measurement_Code|dew_point_temperature_Quality_Code|dew_point_temperature_Report_Type|dew_point_temperature_Source_Code|dew_point_temperature_Source_Station_ID|station_level_pressure|station_level_pressure_Measurement_Code|station_level_pressure_Quality_Code|station_level_pressure_Report_Type|station_level_pressure_Source_Code|station_level_pressure_Source_Station_ID|sea_level_pressure|sea_level_pressure_Measurement_Code|sea_level_pressure_Quality_Code|sea_level_pressure_Report_Type|sea_level_pressure_Source_Code|sea_level_pressure_Source_Station_ID|wind_direction|wind_direction_Measurement_Code|wind_direction_Quality_Code|wind_direction_Report_Type|wind_direction_Source_Code|wind_direction_Source_Station_ID|wind_speed|wind_speed_Measurement_Code|wind_speed_Quality_Code|wind_speed_Report_Type|wind_speed_Source_Code|wind_speed_Source_Station_ID|wind_gust|wind_gust_Measurement_Code|wind_gust_Quality_Code|wind_gust_Report_Type|wind_gust_Source_Code|wind_gust_Source_Station_ID|precipitation|precipitation_Measurement_Code|precipitation_Quality_Code|precipitation_Report_Type|precipitation_Source_Code|precipitation_Source_Station_ID|relative_humidity|relative_humidity_Measurement_Code|relative_humidity_Quality_Code|relative_humidity_Report_Type|relative_humidity_Source_Code|relative_humidity_Source_Station_ID|wet_bulb_temperature|wet_bulb_temperature_Measurement_Code|wet_bulb_temperature_Quality_Code|wet_bulb_temperature_Report_Type|wet_bulb_temperature_Source_Code|wet_bulb_temperature_Source_Station_ID|pres_wx_MW1|pres_wx_MW1_Measurement_Code|pres_wx_MW1_Quality_Code|pres_wx_MW1_Report_Type|pres_wx_MW1_Source_Code|pres_wx_MW1_Source_Station_ID|pres_wx_MW2|pres_wx_MW2_Measurement_Code|pres_wx_MW2_Quality_Code|pres_wx_MW2_Report_Type|pres_wx_MW2_Source_Code|pres_wx_MW2_Source_Station_ID|pres_wx_MW3|pres_wx_MW3_Measurement_Code|pres_wx_MW3_Quality_Code|pres_wx_MW3_Report_Type|pres_wx_MW3_Source_Code|pres_wx_MW3_Source_Station_ID|pres_wx_AU1|pres_wx_AU1_Measurement_Code|pres_wx_AU1_Quality_Code|pres_wx_AU1_Report_Type|pres_wx_AU1_Source_Code|pres_wx_AU1_Source_Station_ID|pres_wx_AU2|pres_wx_AU2_Measurement_Code|pres_wx_AU2_Quality_Code|pres_wx_AU2_Report_Type|pres_wx_AU2_Source_Code|pres_wx_AU2_Source_Station_ID|pres_wx_AU3|pres_wx_AU3_Measurement_Code|pres_wx_AU3_Quality_Code|pres_wx_AU3_Report_Type|pres_wx_AU3_Source_Code|pres_wx_AU3_Source_Station_ID|pres_wx_AW1|pres_wx_AW1_Measurement_Code|pres_wx_AW1_Quality_Code|pres_wx_AW1_Report_Type|pres_wx_AW1_Source_Code|pres_wx_AW1_Source_Station_ID|pres_wx_AW2|pres_wx_AW2_Measurement_Code|pres_wx_AW2_Quality_Code|pres_wx_AW2_Report_Type|pres_wx_AW2_Source_Code|pres_wx_AW2_Source_Station_ID|pres_wx_AW3|pres_wx_AW3_Measurement_Code|pres_wx_AW3_Quality_Code|pres_wx_AW3_Report_Type|pres_wx_AW3_Source_Code|pres_wx_AW3_Source_Station_ID|snow_depth|snow_depth_Measurement_Code|snow_depth_Quality_Code|snow_depth_Report_Type|snow_depth_Source_Code|snow_depth_Source_Station_ID|visibility|visibility_Measurement_Code|visibility_Quality_Code|visibility_Report_Type|visibility_Source_Code|visibility_Source_Station_ID|altimeter|altimeter_Measurement_Code|altimeter_Quality_Code|altimeter_Report_Type|altimeter_Source_Code|altimeter_Source_Station_ID|pressure_3hr_change|pressure_3hr_change_Measurement_Code|pressure_3hr_change_Quality_Code|pressure_3hr_change_Report_Type|pressure_3hr_change_Source_Code|pressure_3hr_change_Source_Station_ID|sky_cover_1|sky_cover_1_Measurement_Code|sky_cover_1_Quality_Code|sky_cover_1_Report_Type|sky_cover_1_Source_Code|sky_cover_1_Source_Station_ID|sky_cover_baseht_1|sky_cover_baseht_1_Measurement_Code|sky_cover_baseht_1_Quality_Code|sky_cover_baseht_1_Report_Type|sky_cover_baseht_1_Source_Code|sky_cover_baseht_1_Source_Station_ID|sky_cover_2|sky_cover_2_Measurement_Code|sky_cover_2_Quality_Code|sky_cover_2_Report_Type|sky_cover_2_Source_Code|sky_cover_2_Source_Station_ID|sky_cover_baseht_2|sky_cover_baseht_2_Measurement_Code|sky_cover_baseht_2_Quality_Code|sky_cover_baseht_2_Report_Type|sky_cover_baseht_2_Source_Code|sky_cover_baseht_2_Source_Station_ID|sky_cover_3|sky_cover_3_Measurement_Code|sky_cover_3_Quality_Code|sky_cover_3_Report_Type|sky_cover_3_Source_Code|sky_cover_3_Source_Station_ID|sky_cover_baseht_3|sky_cover_baseht_3_Measurement_Code|sky_cover_baseht_3_Quality_Code|sky_cover_baseht_3_Report_Type|sky_cover_baseht_3_Source_Code|sky_cover_baseht_3_Source_Station_ID|remarks|remarks_Measurement_Code|remarks_Quality_Code|remarks_Report_Type|remarks_Source_Code|remarks_Source_Station_ID
USW00000479|TEHACHAPI MUNI AP|2009|12|09|17|00|35.1350|-118.4392|1219.5|-1.0||1|FM15-METAR|223|ICAO-KTSP|-9.0||1|FM15-METAR|223|ICAO-KTSP|||||||||||||100|N-Normal|1|FM15-METAR|223|ICAO-KTSP|3.1|N-Normal|1|FM15-METAR|223|ICAO-KTSP|||||||||||||55|Derived||FM15-METAR|223|ICAO-KTSP|||||||||||||||||||||||||||||||||||||||||||||||||||||||||||||||||||||||||1018.6||1|FM15-METAR|223|ICAO-KTSP|||||||||||||||||||||||||||||||||||||||||||MET063METAR KTSP 091655Z AUTO 10006KT 10SM CLR M01/M09 A3008 RMK AO2;||F||223|ICAO-KTSP
USW00000479|TEHACHAPI MUNI AP|2009|12|09|17|15|35.1350|-118.4392|1219.5|0.0||1|FM15-METAR|223|ICAO-KTSP|-8.0||1|FM15-METAR|223|ICAO-KTSP|||||||||||||100|N-Normal|1|FM15-METAR|223|ICAO-KTSP|4.1|N-Normal|1|FM15-METAR|223|ICAO-KTSP|||||||||||||55|Derived||FM15-METAR|223|ICAO-KTSP|||||||||||||||||||||||||||||||||||||||||||||||||||||||||||||||||||||||||1018.6||1|FM15-METAR|223|ICAO-KTSP|||||||||||||||||||||||||||||||||||||||||||MET062METAR KTSP 091715Z AUTO 10008KT 10SM CLR 00/M08 A3008 RMK AO2;||F||223|ICAO-KTSP
USW00000479|TEHACHAPI MUNI AP|2009|12|09|17|35|35.1350|-118.4392|1219.5|0.0||1|FM15-METAR|223|ICAO-KTSP|-8.0||1|FM15-METAR|223|ICAO-KTSP|||||||||||||110|N-Normal|1|FM15-METAR|223|ICAO-KTSP|4.1|N-Normal|1|FM15-METAR|223|ICAO-KTSP|||||||||||||55|Derived||FM15-METAR|223|ICAO-KTSP|||||||||||||||||||||||||||||||||||||||||||||||||||||||||||||||||||||||||1019.0||1|FM15-METAR|223|ICAO-KTSP|||||||||||||||||||||||||||||||||||||||||||MET061METAR KTSP 091735Z AUTO 11008KT 9SM CLR 00/M08 A3009 RMK AO2;||F||223|ICAO-KTSP
USW00000479|TEHACHAPI MUNI AP|2009|12|09|18|00|35.1350|-118.4392|1219.5|0.0||1|FM15-METAR|223|ICAO-KTSP|-9.0||1|FM15-METAR|223|ICAO-KTSP|||||||||||||100|N-Normal|1|FM15-METAR|223|ICAO-KTSP|3.1|N-Normal|1|FM15-METAR|223|ICAO-KTSP|||||||||||||51|Derived||FM15-METAR|223|ICAO-KTSP|||||||||||||||||||||||||||||||||||||||||||||||||||||||||||||||||||||||||1019.3||1|FM15-METAR|223|ICAO-KTSP|||||||||||||||||||||||||||||||||||||||||||MET062METAR KTSP 091755Z AUTO 10006KT 10SM CLR 00/M09 A3010 RMK AO2;||F||223|ICAO-KTSP
USW00000479|TEHACHAPI MUNI AP|2009|12|09|18|15|35.1350|-118.4392|1219.5|0.0||1|FM15-METAR|223|ICAO-KTSP|-8.0||1|FM15-METAR|223|ICAO-KTSP|||||||||||||100|N-Normal|1|FM15-METAR|223|ICAO-KTSP|3.6|N-Normal|1|FM15-METAR|223|ICAO-KTSP|||||||||||||55|Derived||FM15-METAR|223|ICAO-KTSP|||||||||||||||||||||||||||||||||||||||||||||||||||||||||||||||||||||||||1019.3||1|FM15-METAR|223|ICAO-KTSP|||||||||||||||||||||||||||||||||||||||||||MET061METAR KTSP 091815Z AUTO 10007KT 9SM CLR 00/M08 A3010 RMK AO2;||F||223|ICAO-KTSP
USW00000479|TEHACHAPI MUNI AP|2009|12|09|18|35|35.1350|-118.4392|1219.5|1.0||1|FM15-METAR|223|ICAO-KTSP|-8.0||1|FM15-METAR|223|ICAO-KTSP|||||||||||||110|N-Normal|1|FM15-METAR|223|ICAO-KTSP|3.6|N-Normal|1|FM15-METAR|223|ICAO-KTSP|||||||||||||51|Derived||FM15-METAR|223|ICAO-KTSP|||||||||||||||||||||||||||||||||||||||||||||||||||||||||||||||||||||||||1019.0||1|FM15-METAR|223|ICAO-KTSP|||||||||||||||||||||||||||||||||||||||||||MET061METAR KTSP 091835Z AUTO 11007KT 8SM CLR 01/M08 A3009 RMK AO2;||F||223|ICAO-KTSP
USW00000479|TEHACHAPI MUNI AP|2009|12|09|19|00|35.1350|-118.4392|1219.5|1.0||1|FM15-METAR|223|ICAO-KTSP|-7.0||1|FM15-METAR|223|ICAO-KTSP|||||||||||||110|N-Normal|1|FM15-METAR|223|ICAO-KTSP|4.6|N-Normal|1|FM15-METAR|223|ICAO-KTSP|||||||||||||56|Derived||FM15-METAR|223|ICAO-KTSP|||||||||||||||||||||||||||||||||||||||||||||||||||||||||||||||||||||||||1018.6||1|FM15-METAR|223|ICAO-KTSP|||||||||||||||||||||||||||||||||||||||||||MET061METAR KTSP 091855Z AUTO 11009KT 8SM CLR 01/M07 A3008 RMK AO2;||F||223|ICAO-KTSP
USW00000479|TEHACHAPI MUNI AP|2009|12|09|19|15|35.1350|-118.4392|1219.5|2.0||1|FM15-METAR|223|ICAO-KTSP|-7.0||1|FM15-METAR|223|ICAO-KTSP|||||||||||||110|N-Normal|1|FM15-METAR|223|ICAO-KTSP|4.1|N-Normal|1|FM15-METAR|223|ICAO-KTSP|||||||||||||52|Derived||FM15-METAR|223|ICAO-KTSP|||||||||||||||||||||||||||||||||||||||||||||||||||||||||||||||||||||||||1018.3||1|FM15-METAR|223|ICAO-KTSP|||||||||||||||||||||||||||||||||||||||||||MET062METAR KTSP 091915Z AUTO 11008KT 10SM CLR 02/M07 A3007 RMK AO2;||F||223|ICAO-KTSP
USW00000479|TEHACHAPI MUNI AP|2009|12|09|19|35|35.1350|-118.4392|1219.5|2.0||1|FM15-METAR|223|ICAO-KTSP|-6.0||1|FM15-METAR|223|ICAO-KTSP|||||||||||||110|N-Normal|1|FM15-METAR|223|ICAO-KTSP|4.6|N-Normal|1|FM15-METAR|223|ICAO-KTSP|||||||||||||56|Derived||FM15-METAR|223|ICAO-KTSP|||||||||||||||||||||||||||||||||||||||||||||||||||||||||||||||||||||||||1017.6||1|FM15-METAR|223|ICAO-KTSP|||||||||||||||||||||||||||||||||||||||||||MET062METAR KTSP 091935Z AUTO 11009KT 10SM CLR 02/M06 A3005 RMK AO2;||F||223|ICAO-KTSP
USW00000479|TEHACHAPI MUNI AP|2009|12|09|20|00|35.1350|-118.4392|1219.5|2.0||1|FM15-METAR|223|ICAO-KTSP|-5.0||1|FM15-METAR|223|ICAO-KTSP|||||||||||||120|N-Normal|1|FM15-METAR|223|ICAO-KTSP|6.2|N-Normal|1|FM15-METAR|223|ICAO-KTSP|||||||||||||60|Derived||FM15-METAR|223|ICAO-KTSP|||||||||||||||||||||||||||||||||||||||||||||||||||||||||||||||||||||||||1017.3||1|FM15-METAR|223|ICAO-KTSP|||||||||||||||||||||||||||||||||||||||||||MET062METAR KTSP 091955Z AUTO 12012KT 10SM CLR 02/M05 A3004 RMK AO2;||F||223|ICAO-KTSP
USW00000479|TEHACHAPI MUNI AP|2009|12|09|20|15|35.1350|-118.4392|1219.5|2.0||1|FM15-METAR|223|ICAO-KTSP|-6.0||1|FM15-METAR|223|ICAO-KTSP|||||||||||||120|N-Normal|1|FM15-METAR|223|ICAO-KTSP|5.7|N-Normal|1|FM15-METAR|223|ICAO-KTSP|||||||||||||56|Derived||FM15-METAR|223|ICAO-KTSP|||||||||||||||||||||||||||||||||||||||||||||||||||||||||||||||||||||||||1016.9||1|FM15-METAR|223|ICAO-KTSP|||||||||||||||||||||||||||||||||||||||||||MET061METAR KTSP 092015Z AUTO 12011KT 9SM CLR 02/M06 A3003 RMK AO2;||F||223|ICAO-KTSP
USW00000479|TEHACHAPI MUNI AP|2009|12|09|20|35|35.1350|-118.4392|1219.5|3.0||1|FM15-METAR|223|ICAO-KTSP|-5.0||1|FM15-METAR|223|ICAO-KTSP|||||||||||||100|N-Normal|1|FM15-METAR|223|ICAO-KTSP|5.1|N-Normal|1|FM15-METAR|223|ICAO-KTSP|||||||||||||56|Derived||FM15-METAR|223|ICAO-KTSP|||||||||||||||||||||||||||||||||||||||||||||||||||||||||||||||||||||||||1016.9||1|FM15-METAR|223|ICAO-KTSP|||||||||||||||||||||||||||||||||||||||||||MET062METAR KTSP 092035Z AUTO 10010KT 10SM CLR 03/M05 A3003 RMK AO2;||F||223|ICAO-KTSP
USW00000479|TEHACHAPI MUNI AP|2009|12|09|21|15|35.1350|-118.4392|1219.5|3.0||1|FM15-METAR|223|ICAO-KTSP|-7.0||1|FM15-METAR|223|ICAO-KTSP|||||||||||||100|N-Normal|1|FM15-METAR|223|ICAO-KTSP|7.2|N-Normal|1|FM15-METAR|223|ICAO-KTSP|8.7||1|FM15-METAR|223|ICAO-KTSP|||||||48|Derived||FM15-METAR|223|ICAO-KTSP|||||||||||||||||||||||||||||||||||||||||||||||||||||||||||||||||||||||||1015.9||1|FM15-METAR|223|ICAO-KTSP|||||||||||||||||||||||||||||||||||||||||||MET064METAR KTSP 092115Z AUTO 10014G17KT 7SM CLR 03/M07 A3000 RMK AO2;||F||223|ICAO-KTSP
USW00000479|TEHACHAPI MUNI AP|2009|12|09|21|35|35.1350|-118.4392|1219.5|3.0||1|FM15-METAR|223|ICAO-KTSP|-7.0||1|FM15-METAR|223|ICAO-KTSP|||||||||||||120|N-Normal|1|FM15-METAR|223|ICAO-KTSP|5.7|N-Normal|1|FM15-METAR|223|ICAO-KTSP|||||||||||||48|Derived||FM15-METAR|223|ICAO-KTSP|||||||||||||||||||||||||||||||||||||||||||||||||||||||||||||||||||||||||1015.9||1|FM15-METAR|223|ICAO-KTSP|||||||||||||||||||||||||||||||||||||||||||MET061METAR KTSP 092135Z AUTO 12011KT 8SM CLR 03/M07 A3000 RMK AO2;||F||223|ICAO-KTSP
USW00000479|TEHACHAPI MUNI AP|2009|12|09|22|00|35.1350|-118.4392|1219.5|3.0||1|FM15-METAR|223|ICAO-KTSP|-7.0||1|FM15-METAR|223|ICAO-KTSP|||||||||||||110|N-Normal|1|FM15-METAR|223|ICAO-KTSP|6.2|N-Normal|1|FM15-METAR|223|ICAO-KTSP|||||||||||||48|Derived||FM15-METAR|223|ICAO-KTSP|||||||||||||||||||||||||||||||||||||||||||||||||||||||||||||||||||||||||1015.9||1|FM15-METAR|223|ICAO-KTSP|||||||||||||||||||||||||||||||||||||||||||MET061METAR KTSP 092155Z AUTO 11012KT 8SM CLR 03/M07 A3000 RMK AO2;||F||223|ICAO-KTSP
USW00000479|TEHACHAPI MUNI AP|2009|12|09|22|15|35.1350|-118.4392|1219.5|3.0||1|FM15-METAR|223|ICAO-KTSP|-8.0||1|FM15-METAR|223|ICAO-KTSP|||||||||||||100|N-Normal|1|FM15-METAR|223|ICAO-KTSP|5.7|N-Normal|1|FM15-METAR|223|ICAO-KTSP|||||||||||||45|Derived||FM15-METAR|223|ICAO-KTSP|||||||||||||||||||||||||||||||||||||||||||||||||||||||||||||||||||||||||1015.9||1|FM15-METAR|223|ICAO-KTSP|||||||||||||||||||||||||||||||||||||||||||MET062METAR KTSP 092215Z AUTO 10011KT 10SM CLR 03/M08 A3000 RMK AO2;||F||223|ICAO-KTSP
USW00000479|TEHACHAPI MUNI AP|2009|12|09|22|35|35.1350|-118.4392|1219.5|3.0||1|FM15-METAR|223|ICAO-KTSP|-9.0||1|FM15-METAR|223|ICAO-KTSP|||||||||||||100|N-Normal|1|FM15-METAR|223|ICAO-KTSP|4.6|N-Normal|1|FM15-METAR|223|ICAO-KTSP|||||||||||||41|Derived||FM15-METAR|223|ICAO-KTSP|||||||||||||||||||||||||||||||||||||||||||||||||||||||||||||||||||||||||1015.9||1|FM15-METAR|223|ICAO-KTSP|||||||||||||||||||||||||||||||||||||||||||MET061METAR KTSP 092235Z AUTO 10009KT 9SM CLR 03/M09 A3000 RMK AO2;||F||223|ICAO-KTSP
USW00000479|TEHACHAPI MUNI AP|2009|12|09|23|00|35.1350|-118.4392|1219.5|3.0||1|FM15-METAR|223|ICAO-KTSP|-9.0||1|FM15-METAR|223|ICAO-KTSP|||||||||||||110|N-Normal|1|FM15-METAR|223|ICAO-KTSP|3.6|N-Normal|1|FM15-METAR|223|ICAO-KTSP|||||||||||||41|Derived||FM15-METAR|223|ICAO-KTSP|||||||||||||||||||||||||||||||||||||||||||||||||||||||||||||||||||||||||1015.9||1|FM15-METAR|223|ICAO-KTSP|||||||||||||||||||||||||||||||||||||||||||MET062METAR KTSP 092255Z AUTO 11007KT 10SM CLR 03/M09 A3000 RMK AO2;||F||223|ICAO-KTSP
USW00000479|TEHACHAPI MUNI AP|2009|12|09|23|15|35.1350|-118.4392|1219.5|3.0||1|FM15-METAR|223|ICAO-KTSP|-9.0||1|FM15-METAR|223|ICAO-KTSP|||||||||||||100|N-Normal|1|FM15-METAR|223|ICAO-KTSP|3.1|N-Normal|1|FM15-METAR|223|ICAO-KTSP|||||||||||||41|Derived||FM15-METAR|223|ICAO-KTSP|||||||||||||||||||||||||||||||||||||||||||||||||||||||||||||||||||||||||1015.9||1|FM15-METAR|223|ICAO-KTSP|||||||||||||||||||||||||||||||||||||||||||MET062METAR KTSP 092315Z AUTO 10006KT 10SM CLR 03/M09 A3000 RMK AO2;||F||223|ICAO-KTSP
USW00000479|TEHACHAPI MUNI AP|2009|12|09|23|35|35.1350|-118.4392|1219.5|3.0||1|FM15-METAR|223|ICAO-KTSP|-9.0||1|FM15-METAR|223|ICAO-KTSP|||||||||||||110|N-Normal|1|FM15-METAR|223|ICAO-KTSP|2.6|N-Normal|1|FM15-METAR|223|ICAO-KTSP|||||||||||||41|Derived||FM15-METAR|223|ICAO-KTSP|||||||||||||||||||||||||||||||||||||||||||||||||||||||||||||||||||||||||1015.9||1|FM15-METAR|223|ICAO-KTSP|||||||||||||||||||||||||||||||||||||||||||MET061METAR KTSP 092335Z AUTO 11005KT 9SM CLR 03/M09 A3000 RMK AO2;||F||223|ICAO-KTSP
USW00000479|TEHACHAPI MUNI AP|2009|12|10|00|00|35.1350|-118.4392|1219.5|3.0||1|FM15-METAR|223|ICAO-KTSP|-8.0||1|FM15-METAR|223|ICAO-KTSP|||||||||||||130|N-Normal|1|FM15-METAR|223|ICAO-KTSP|3.1|N-Normal|1|FM15-METAR|223|ICAO-KTSP|||||||||||||45|Derived||FM15-METAR|223|ICAO-KTSP|||||||||||||||||||||||||||||||||||||||||||||||||||||||||||||||||||||||||1015.9||1|FM15-METAR|223|ICAO-KTSP|||||||||||||||||||||||||||||||||||||||||||MET062METAR KTSP 092355Z AUTO 13006KT 10SM CLR 03/M08 A3000 RMK AO2;||F||223|ICAO-KTSP
USW00000479|TEHACHAPI MUNI AP|2009|12|10|00|15|35.1350|-118.4392|1219.5|1.0||1|FM15-METAR|223|ICAO-KTSP|-8.0||1|FM15-METAR|223|ICAO-KTSP|||||||||||||130|N-Normal|1|FM15-METAR|223|ICAO-KTSP|2.1|N-Normal|1|FM15-METAR|223|ICAO-KTSP|||||||||||||51|Derived||FM15-METAR|223|ICAO-KTSP|||||||||||||||||||||||||||||||||||||||||||||||||||||||||||||||||||||||||1015.9||1|FM15-METAR|223|ICAO-KTSP|||||||||||||||||||||||||||||||||||||||||||MET062METAR KTSP 100015Z AUTO 13004KT 10SM CLR 01/M08 A3000 RMK AO2;||F||223|ICAO-KTSP
USW00000479|TEHACHAPI MUNI AP|2009|12|10|00|35|35.1350|-118.4392|1219.5|0.0||1|FM15-METAR|223|ICAO-KTSP|-7.0||1|FM15-METAR|223|ICAO-KTSP|||||||||||||140|N-Normal|1|FM15-METAR|223|ICAO-KTSP|3.1|N-Normal|1|FM15-METAR|223|ICAO-KTSP|||||||||||||60|Derived||FM15-METAR|223|ICAO-KTSP|||||||||||||||||||||||||||||||||||||||||||||||||||||||||||||||||||||||||1015.9||1|FM15-METAR|223|ICAO-KTSP|||||||||||||||||||||||||||||||||||||||||||MET062METAR KTSP 100035Z AUTO 14006KT 10SM CLR 00/M07 A3000 RMK AO2;||F||223|ICAO-KTSP
USW00000479|TEHACHAPI MUNI AP|2009|12|10|01|00|35.1350|-118.4392|1219.5|-1.0||1|FM15-METAR|223|ICAO-KTSP|-6.0||1|FM15-METAR|223|ICAO-KTSP|||||||||||||140|N-Normal|1|FM15-METAR|223|ICAO-KTSP|2.1|N-Normal|1|FM15-METAR|223|ICAO-KTSP|||||||||||||69|Derived||FM15-METAR|223|ICAO-KTSP|||||||||||||||||||||||||||||||||||||||||||||||||||||||||||||||||||||||||1015.9||1|FM15-METAR|223|ICAO-KTSP|||||||||||||||||||||||||||||||||||||||||||MET063METAR KTSP 100055Z AUTO 14004KT 10SM CLR M01/M06 A3000 RMK AO2;||F||223|ICAO-KTSP
USW00000479|TEHACHAPI MUNI AP|2009|12|10|01|15|35.1350|-118.4392|1219.5|-1.0||1|FM15-METAR|223|ICAO-KTSP|-7.0||1|FM15-METAR|223|ICAO-KTSP|||||||||||||999|C-Calm|9|FM15-METAR|223|ICAO-KTSP|0.0|C-Calm|1|FM15-METAR|223|ICAO-KTSP|||||||||||||64|Derived||FM15-METAR|223|ICAO-KTSP|||||||||||||||||||||||||||||||||||||||||||||||||||||||||||||||||||||||||1015.9||1|FM15-METAR|223|ICAO-KTSP|||||||||||||||||||||||||||||||||||||||||||MET063METAR KTSP 100115Z AUTO 00000KT 10SM CLR M01/M07 A3000 RMK AO2;||F||223|ICAO-KTSP
USW00000479|TEHACHAPI MUNI AP|2009|12|10|01|35|35.1350|-118.4392|1219.5|-2.0||1|FM15-METAR|223|ICAO-KTSP|-7.0||1|FM15-METAR|223|ICAO-KTSP|||||||||||||999|C-Calm|9|FM15-METAR|223|ICAO-KTSP|0.0|C-Calm|1|FM15-METAR|223|ICAO-KTSP|||||||||||||69|Derived||FM15-METAR|223|ICAO-KTSP|||||||||||||||||||||||||||||||||||||||||||||||||||||||||||||||||||||||||1016.3||1|FM15-METAR|223|ICAO-KTSP|||||||||||||||||||||||||||||||||||||||||||MET063METAR KTSP 100135Z AUTO 00000KT 10SM CLR M02/M07 A3001 RMK AO2;||F||223|ICAO-KTSP
USW00000479|TEHACHAPI MUNI AP|2009|12|10|02|00|35.1350|-118.4392|1219.5|-3.0||1|FM15-METAR|223|ICAO-KTSP|-7.0||1|FM15-METAR|223|ICAO-KTSP|||||||||||||120|N-Normal|1|FM15-METAR|223|ICAO-KTSP|3.1|N-Normal|1|FM15-METAR|223|ICAO-KTSP|||||||||||||74|Derived||FM15-METAR|223|ICAO-KTSP|||||||||||||||||||||||||||||||||||||||||||||||||||||||||||||||||||||||||1016.3||1|FM15-METAR|223|ICAO-KTSP|||||||||||||||||||||||||||||||||||||||||||MET063METAR KTSP 100155Z AUTO 12006KT 10SM CLR M03/M07 A3001 RMK AO2;||F||223|ICAO-KTSP
USW00000479|TEHACHAPI MUNI AP|2009|12|10|02|15|35.1350|-118.4392|1219.5|-3.0||1|FM15-METAR|223|ICAO-KTSP|-7.0||1|FM15-METAR|223|ICAO-KTSP|||||||||||||100|N-Normal|1|FM15-METAR|223|ICAO-KTSP|3.1|N-Normal|1|FM15-METAR|223|ICAO-KTSP|||||||||||||74|Derived||FM15-METAR|223|ICAO-KTSP|||||||||||||||||||||||||||||||||||||||||||||||||||||||||||||||||||||||||1016.3||1|FM15-METAR|223|ICAO-KTSP|||||||||||||||||||||||||||||||||||||||||||MET063METAR KTSP 100215Z AUTO 10006KT 10SM CLR M03/M07 A3001 RMK AO2;||F||223|ICAO-KTSP
USW00000479|TEHACHAPI MUNI AP|2009|12|10|02|35|35.1350|-118.4392|1219.5|-1.0||1|FM15-METAR|223|ICAO-KTSP|-8.0||1|FM15-METAR|223|ICAO-KTSP|||||||||||||110|N-Normal|1|FM15-METAR|223|ICAO-KTSP|3.6|N-Normal|1|FM15-METAR|223|ICAO-KTSP|||||||||||||59|Derived||FM15-METAR|223|ICAO-KTSP|||||||||||||||||||||||||||||||||||||||||||||||||||||||||||||||||||||||||1016.6||1|FM15-METAR|223|ICAO-KTSP|||||||||||||||||||||||||||||||||||||||||||MET063METAR KTSP 100235Z AUTO 11007KT 10SM CLR M01/M08 A3002 RMK AO2;||F||223|ICAO-KTSP
USW00000479|TEHACHAPI MUNI AP|2009|12|10|03|00|35.1350|-118.4392|1219.5|-2.0||1|FM15-METAR|223|ICAO-KTSP|-8.0||1|FM15-METAR|223|ICAO-KTSP|||||||||||||130|N-Normal|1|FM15-METAR|223|ICAO-KTSP|3.6|N-Normal|1|FM15-METAR|223|ICAO-KTSP|||||||||||||64|Derived||FM15-METAR|223|ICAO-KTSP|||||||||||||||||||||||||||||||||||||||||||||||||||||||||||||||||||||||||1016.6||1|FM15-METAR|223|ICAO-KTSP|||||||||||||||||||||||||||||||||||||||||||MET063METAR KTSP 100255Z AUTO 13007KT 10SM CLR M02/M08 A3002 RMK AO2;||F||223|ICAO-KTSP
USW00000479|TEHACHAPI MUNI AP|2009|12|10|03|15|35.1350|-118.4392|1219.5|-3.0||1|FM15-METAR|223|ICAO-KTSP|-8.0||1|FM15-METAR|223|ICAO-KTSP|||||||||||||120|N-Normal|1|FM15-METAR|223|ICAO-KTSP|3.6|N-Normal|1|FM15-METAR|223|ICAO-KTSP|||||||||||||69|Derived||FM15-METAR|223|ICAO-KTSP|||||||||||||||||||||||||||||||||||||||||||||||||||||||||||||||||||||||||1016.6||1|FM15-METAR|223|ICAO-KTSP|||||||||||||||||||||||||||||||||||||||||||MET063METAR KTSP 100315Z AUTO 12007KT 10SM CLR M03/M08 A3002 RMK AO2;||F||223|ICAO-KTSP
USW00000479|TEHACHAPI MUNI AP|2009|12|10|03|35|35.1350|-118.4392|1219.5|-4.0||1|FM15-METAR|223|ICAO-KTSP|-8.0||1|FM15-METAR|223|ICAO-KTSP|||||||||||||120|N-Normal|1|FM15-METAR|223|ICAO-KTSP|3.6|N-Normal|1|FM15-METAR|223|ICAO-KTSP|||||||||||||74|Derived||FM15-METAR|223|ICAO-KTSP|||||||||||||||||||||||||||||||||||||||||||||||||||||||||||||||||||||||||1016.9||1|FM15-METAR|223|ICAO-KTSP|||||||||||||||||||||||||||||||||||||||||||MET063METAR KTSP 100335Z AUTO 12007KT 10SM CLR M04/M08 A3003 RMK AO2;||F||223|ICAO-KTSP
USW00000479|TEHACHAPI MUNI AP|2009|12|10|04|00|35.1350|-118.4392|1219.5|-4.0||1|FM15-METAR|223|ICAO-KTSP|-8.0||1|FM15-METAR|223|ICAO-KTSP|||||||||||||130|N-Normal|1|FM15-METAR|223|ICAO-KTSP|4.6|N-Normal|1|FM15-METAR|223|ICAO-KTSP|||||||||||||74|Derived||FM15-METAR|223|ICAO-KTSP|||||||||||||||||||||||||||||||||||||||||||||||||||||||||||||||||||||||||1016.9||1|FM15-METAR|223|ICAO-KTSP|||||||||||||||||||||||||||||||||||||||||||MET063METAR KTSP 100355Z AUTO 13009KT 10SM CLR M04/M08 A3003 RMK AO2;||F||223|ICAO-KTSP
USW00000479|TEHACHAPI MUNI AP|2009|12|10|04|15|35.1350|-118.4392|1219.5|-4.0||1|FM15-METAR|223|ICAO-KTSP|-9.0||1|FM15-METAR|223|ICAO-KTSP|||||||||||||130|N-Normal|1|FM15-METAR|223|ICAO-KTSP|3.6|N-Normal|1|FM15-METAR|223|ICAO-KTSP|||||||||||||69|Derived||FM15-METAR|223|ICAO-KTSP|||||||||||||||||||||||||||||||||||||||||||||||||||||||||||||||||||||||||1017.3||1|FM15-METAR|223|ICAO-KTSP|||||||||||||||||||||||||||||||||||||||||||MET063METAR KTSP 100415Z AUTO 13007KT 10SM CLR M04/M09 A3004 RMK AO2;||F||223|ICAO-KTSP
USW00000479|TEHACHAPI MUNI AP|2009|12|10|04|35|35.1350|-118.4392|1219.5|-4.0||1|FM15-METAR|223|ICAO-KTSP|-8.0||1|FM15-METAR|223|ICAO-KTSP|||||||||||||120|N-Normal|1|FM15-METAR|223|ICAO-KTSP|3.6|N-Normal|1|FM15-METAR|223|ICAO-KTSP|||||||||||||74|Derived||FM15-METAR|223|ICAO-KTSP|||||||||||||||||||||||||||||||||||||||||||||||||||||||||||||||||||||||||1017.3||1|FM15-METAR|223|ICAO-KTSP|||||||||||||||||||||||||||||||||||||||||||MET063METAR KTSP 100435Z AUTO 12007KT 10SM CLR M04/M08 A3004 RMK AO2;||F||223|ICAO-KTSP
USW00000479|TEHACHAPI MUNI AP|2009|12|10|05|00|35.1350|-118.4392|1219.5|-4.0||1|FM15-METAR|223|ICAO-KTSP|-8.0||1|FM15-METAR|223|ICAO-KTSP|||||||||||||120|N-Normal|1|FM15-METAR|223|ICAO-KTSP|3.1|N-Normal|1|FM15-METAR|223|ICAO-KTSP|||||||||||||74|Derived||FM15-METAR|223|ICAO-KTSP|||||||||||||||||||||||||||||||||||||||||||||||||||||||||||||||||||||||||1017.6||1|FM15-METAR|223|ICAO-KTSP|||||||||||||||||||||||||||||||||||||||||||MET063METAR KTSP 100455Z AUTO 12006KT 10SM CLR M04/M08 A3005 RMK AO2;||F||223|ICAO-KTSP
USW00000479|TEHACHAPI MUNI AP|2009|12|10|05|15|35.1350|-118.4392|1219.5|-4.0||1|FM15-METAR|223|ICAO-KTSP|-8.0||1|FM15-METAR|223|ICAO-KTSP|||||||||||||130|N-Normal|1|FM15-METAR|223|ICAO-KTSP|3.6|N-Normal|1|FM15-METAR|223|ICAO-KTSP|||||||||||||74|Derived||FM15-METAR|223|ICAO-KTSP|||||||||||||||||||||||||||||||||||||||||||||||||||||||||||||||||||||||||1018.0||1|FM15-METAR|223|ICAO-KTSP|||||||||||||||||||||||||||||||||||||||||||MET063METAR KTSP 100515Z AUTO 13007KT 10SM CLR M04/M08 A3006 RMK AO2;||F||223|ICAO-KTSP
USW00000479|TEHACHAPI MUNI AP|2009|12|10|05|35|35.1350|-118.4392|1219.5|-5.0||1|FM15-METAR|223|ICAO-KTSP|-8.0||1|FM15-METAR|223|ICAO-KTSP|||||||||||||130|N-Normal|1|FM15-METAR|223|ICAO-KTSP|3.1|N-Normal|1|FM15-METAR|223|ICAO-KTSP|||||||||||||80|Derived||FM15-METAR|223|ICAO-KTSP|||||||||||||||||||||||||||||||||||||||||||||||||||||||||||||||||||||||||1018.3||1|FM15-METAR|223|ICAO-KTSP|||||||||||||||||||||||||||||||||||||||||||MET063METAR KTSP 100535Z AUTO 13006KT 10SM CLR M05/M08 A3007 RMK AO2;||F||223|ICAO-KTSP
USW00000479|TEHACHAPI MUNI AP|2009|12|10|06|00|35.1350|-118.4392|1219.5|-5.0||1|FM15-METAR|223|ICAO-KTSP|-9.0||1|FM15-METAR|223|ICAO-KTSP|||||||||||||999|C-Calm|9|FM15-METAR|223|ICAO-KTSP|0.0|C-Calm|1|FM15-METAR|223|ICAO-KTSP|||||||||||||74|Derived||FM15-METAR|223|ICAO-KTSP|||||||||||||||||||||||||||||||||||||||||||||||||||||||||||||||||||||||||1018.3||1|FM15-METAR|223|ICAO-KTSP|||||||BKN:07|07-Seven-o|4|FM15-METAR|223|ICAO-KTSP|||||||||||||||||||||||||||||||MET066METAR KTSP 100555Z AUTO 00000KT 10SM BKN120 M05/M09 A3007 RMK AO2;||F||223|ICAO-KTSP
USW00000479|TEHACHAPI MUNI AP|2009|12|10|06|15|35.1350|-118.4392|1219.5|-4.0||1|FM15-METAR|223|ICAO-KTSP|-8.0||1|FM15-METAR|223|ICAO-KTSP|||||||||||||140|N-Normal|1|FM15-METAR|223|ICAO-KTSP|3.1|N-Normal|1|FM15-METAR|223|ICAO-KTSP|||||||||||||74|Derived||FM15-METAR|223|ICAO-KTSP|||||||||||||||||||||||||||||||||||||||||||||||||||||||||||||||||||||||||1018.0||1|FM15-METAR|223|ICAO-KTSP|||||||BKN:07|07-Seven-o|4|FM15-METAR|223|ICAO-KTSP|||||||||||||||||||||||||||||||MET066METAR KTSP 100615Z AUTO 14006KT 10SM BKN120 M04/M08 A3006 RMK AO2;||F||223|ICAO-KTSP
USW00000479|TEHACHAPI MUNI AP|2009|12|10|06|35|35.1350|-118.4392|1219.5|-4.0||1|FM15-METAR|223|ICAO-KTSP|-8.0||1|FM15-METAR|223|ICAO-KTSP|||||||||||||120|N-Normal|1|FM15-METAR|223|ICAO-KTSP|4.6|N-Normal|1|FM15-METAR|223|ICAO-KTSP|||||||||||||74|Derived||FM15-METAR|223|ICAO-KTSP|||||||||||||||||||||||||||||||||||||||||||||||||||||||||||||||||||||||||1018.0||1|FM15-METAR|223|ICAO-KTSP|||||||BKN:07|07-Seven-o|4|FM15-METAR|223|ICAO-KTSP|||||||||||||||||||||||||||||||MET066METAR KTSP 100635Z AUTO 12009KT 10SM BKN120 M04/M08 A3006 RMK AO2;||F||223|ICAO-KTSP
USW00000479|TEHACHAPI MUNI AP|2009|12|10|07|00|35.1350|-118.4392|1219.5|-3.0||1|FM15-METAR|223|ICAO-KTSP|-8.0||1|FM15-METAR|223|ICAO-KTSP|||||||||||||110|N-Normal|1|FM15-METAR|223|ICAO-KTSP|3.6|N-Normal|1|FM15-METAR|223|ICAO-KTSP|||||||||||||69|Derived||FM15-METAR|223|ICAO-KTSP|||||||||||||||||||||||||||||||||||||||||||||||||||||||||||||||||||||||||1018.0||1|FM15-METAR|223|ICAO-KTSP|||||||OVC:08|08-Eight-o|4|FM15-METAR|223|ICAO-KTSP|||||||||||||||||||||||||||||||MET066METAR KTSP 100655Z AUTO 11007KT 10SM OVC120 M03/M08 A3006 RMK AO2;||F||223|ICAO-KTSP
USW00000479|TEHACHAPI MUNI AP|2009|12|10|07|15|35.1350|-118.4392|1219.5|-3.0||1|FM15-METAR|223|ICAO-KTSP|-8.0||1|FM15-METAR|223|ICAO-KTSP|||||||||||||130|N-Normal|1|FM15-METAR|223|ICAO-KTSP|3.1|N-Normal|1|FM15-METAR|223|ICAO-KTSP|||||||||||||69|Derived||FM15-METAR|223|ICAO-KTSP|||||||||||||||||||||||||||||||||||||||||||||||||||||||||||||||||||||||||1017.6||1|FM15-METAR|223|ICAO-KTSP|||||||OVC:08|08-Eight-o|4|FM15-METAR|223|ICAO-KTSP|||||||||||||||||||||||||||||||MET066METAR KTSP 100715Z AUTO 13006KT 10SM OVC120 M03/M08 A3005 RMK AO2;||F||223|ICAO-KTSP
USW00000479|TEHACHAPI MUNI AP|2009|12|10|07|35|35.1350|-118.4392|1219.5|-3.0||1|FM15-METAR|223|ICAO-KTSP|-7.0||1|FM15-METAR|223|ICAO-KTSP|||||||||||||120|N-Normal|1|FM15-METAR|223|ICAO-KTSP|3.1|N-Normal|1|FM15-METAR|223|ICAO-KTSP|||||||||||||74|Derived||FM15-METAR|223|ICAO-KTSP|||||||||||||||||||||||||||||||||||||||||||||||||||||||||||||||||||||||||1017.6||1|FM15-METAR|223|ICAO-KTSP|||||||OVC:08|08-Eight-o|4|FM15-METAR|223|ICAO-KTSP|||||||||||||||||||||||||||||||MET066METAR KTSP 100735Z AUTO 12006KT 10SM OVC110 M03/M07 A3005 RMK AO2;||F||223|ICAO-KTSP
USW00000479|TEHACHAPI MUNI AP|2009|12|10|08|00|35.1350|-118.4392|1219.5|-4.0||1|FM15-METAR|223|ICAO-KTSP|-8.0||1|FM15-METAR|223|ICAO-KTSP|||||||||||||110|N-Normal|1|FM15-METAR|223|ICAO-KTSP|3.6|N-Normal|1|FM15-METAR|223|ICAO-KTSP|||||||||||||74|Derived||FM15-METAR|223|ICAO-KTSP|||||||||||||||||||||||||||||||||||||||||||||||||||||||||||||||||||||||||1017.6||1|FM15-METAR|223|ICAO-KTSP|||||||FEW:02|02-Two-okt|4|FM15-METAR|223|ICAO-KTSP|||||||||||||||||||||||||||||||MET066METAR KTSP 100755Z AUTO 11007KT 10SM FEW110 M04/M08 A3005 RMK AO2;||F||223|ICAO-KTSP
USW00000479|TEHACHAPI MUNI AP|2009|12|10|08|15|35.1350|-118.4392|1219.5|-4.0||1|FM15-METAR|223|ICAO-KTSP|-8.0||1|FM15-METAR|223|ICAO-KTSP|||||||||||||120|N-Normal|1|FM15-METAR|223|ICAO-KTSP|3.1|N-Normal|1|FM15-METAR|223|ICAO-KTSP|||||||||||||74|Derived||FM15-METAR|223|ICAO-KTSP|||||||||||||||||||||||||||||||||||||||||||||||||||||||||||||||||||||||||1017.6||1|FM15-METAR|223|ICAO-KTSP|||||||||||||||||||||||||||||||||||||||||||MET063METAR KTSP 100815Z AUTO 12006KT 10SM CLR M04/M08 A3005 RMK AO2;||F||223|ICAO-KTSP
USW00000479|TEHACHAPI MUNI AP|2009|12|10|08|35|35.1350|-118.4392|1219.5|-4.0||1|FM15-METAR|223|ICAO-KTSP|-8.0||1|FM15-METAR|223|ICAO-KTSP|||||||||||||130|N-Normal|1|FM15-METAR|223|ICAO-KTSP|3.6|N-Normal|1|FM15-METAR|223|ICAO-KTSP|||||||||||||74|Derived||FM15-METAR|223|ICAO-KTSP|||||||||||||||||||||||||||||||||||||||||||||||||||||||||||||||||||||||||1017.3||1|FM15-METAR|223|ICAO-KTSP|||||||FEW:02|02-Two-okt|4|FM15-METAR|223|ICAO-KTSP|||||||||||||||||||||||||||||||MET066METAR KTSP 100835Z AUTO 13007KT 10SM FEW080 M04/M08 A3004 RMK AO2;||F||223|ICAO-KTSP
USW00000479|TEHACHAPI MUNI AP|2009|12|10|09|00|35.1350|-118.4392|1219.5|-4.0||1|FM15-METAR|223|ICAO-KTSP|-8.0||1|FM15-METAR|223|ICAO-KTSP|||||||||||||120|N-Normal|1|FM15-METAR|223|ICAO-KTSP|4.1|N-Normal|1|FM15-METAR|223|ICAO-KTSP|||||||||||||74|Derived||FM15-METAR|223|ICAO-KTSP|||||||||||||||||||||||||||||||||||||||||||||||||||||||||||||||||||||||||1016.9||1|FM15-METAR|223|ICAO-KTSP|||||||BKN:07|07-Seven-o|4|FM15-METAR|223|ICAO-KTSP|||||||||||||||||||||||||||||||MET066METAR KTSP 100855Z AUTO 12008KT 10SM BKN080 M04/M08 A3003 RMK AO2;||F||223|ICAO-KTSP
USW00000479|TEHACHAPI MUNI AP|2009|12|10|09|35|35.1350|-118.4392|1219.5|-3.0||1|FM15-METAR|223|ICAO-KTSP|-8.0||1|FM15-METAR|223|ICAO-KTSP|||||||||||||110|N-Normal|1|FM15-METAR|223|ICAO-KTSP|4.1|N-Normal|1|FM15-METAR|223|ICAO-KTSP|||||||||||||69|Derived||FM15-METAR|223|ICAO-KTSP|||||||||||||||||||||||||||||||||||||||||||||||||||||||||||||||||||||||||1016.9||1|FM15-METAR|223|ICAO-KTSP|||||||FEW:02|02-Two-okt|4|FM15-METAR|223|ICAO-KTSP|||||||||||||||||||||||||||||||MET066METAR KTSP 100935Z AUTO 11008KT 10SM FEW080 M03/M08 A3003 RMK AO2;||F||223|ICAO-KTSP
USW00000479|TEHACHAPI MUNI AP|2009|12|10|10|00|35.1350|-118.4392|1219.5|-2.0||1|FM15-METAR|223|ICAO-KTSP|-8.0||1|FM15-METAR|223|ICAO-KTSP|||||||||||||110|N-Normal|1|FM15-METAR|223|ICAO-KTSP|3.6|N-Normal|1|FM15-METAR|223|ICAO-KTSP|||||||||||||64|Derived||FM15-METAR|223|ICAO-KTSP|||||||||||||||||||||||||||||||||||||||||||||||||||||||||||||||||||||||||1017.3||1|FM15-METAR|223|ICAO-KTSP|||||||FEW:02|02-Two-okt|4|FM15-METAR|223|ICAO-KTSP|||||||||||||||||||||||||||||||MET066METAR KTSP 100955Z AUTO 11007KT 10SM FEW080 M02/M08 A3004 RMK AO2;||F||223|ICAO-KTSP
USW00000479|TEHACHAPI MUNI AP|2009|12|10|10|15|35.1350|-118.4392|1219.5|0.0||1|FM15-METAR|223|ICAO-KTSP|-9.0||1|FM15-METAR|223|ICAO-KTSP|||||||||||||120|N-Normal|1|FM15-METAR|223|ICAO-KTSP|2.6|N-Normal|1|FM15-METAR|223|ICAO-KTSP|||||||||||||51|Derived||FM15-METAR|223|ICAO-KTSP|||||||||||||||||||||||||||||||||||||||||||||||||||||||||||||||||||||||||1017.3||1|FM15-METAR|223|ICAO-KTSP|||||||SCT:04|04-Four-ok|4|FM15-METAR|223|ICAO-KTSP|||||||BKN:07|07-Seven-o|4|FM15-METAR|223|ICAO-KTSP|||||||||||||||||||MET072METAR KTSP 101015Z AUTO 12005KT 10SM SCT080 BKN085 00/M09 A3004 RMK AO2;||F||223|ICAO-KTSP
USW00000479|TEHACHAPI MUNI AP|2009|12|10|10|35|35.1350|-118.4392|1219.5|-3.0||1|FM15-METAR|223|ICAO-KTSP|-8.0||1|FM15-METAR|223|ICAO-KTSP|||||||||||||130|N-Normal|1|FM15-METAR|223|ICAO-KTSP|4.1|N-Normal|1|FM15-METAR|223|ICAO-KTSP|||||||||||||69|Derived||FM15-METAR|223|ICAO-KTSP|||||||||||||||||||||||||||||||||||||||||||||||||||||||||||||||||||||||||1016.9||1|FM15-METAR|223|ICAO-KTSP|||||||BKN:07|07-Seven-o|4|FM15-METAR|223|ICAO-KTSP|||||||OVC:08|08-Eight-o|4|FM15-METAR|223|ICAO-KTSP|||||||||||||||||||MET073METAR KTSP 101035Z AUTO 13008KT 10SM BKN080 OVC085 M03/M08 A3003 RMK AO2;||F||223|ICAO-KTSP
USW00000479|TEHACHAPI MUNI AP|2009|12|10|11|00|35.1350|-118.4392|1219.5|-3.0||1|FM15-METAR|223|ICAO-KTSP|-8.0||1|FM15-METAR|223|ICAO-KTSP|||||||||||||140|N-Normal|1|FM15-METAR|223|ICAO-KTSP|3.6|N-Normal|1|FM15-METAR|223|ICAO-KTSP|||||||||||||69|Derived||FM15-METAR|223|ICAO-KTSP|||||||||||||||||||||||||||||||||||||||||||||||||||||||||||||||||||||||||1016.9||1|FM15-METAR|223|ICAO-KTSP|||||||SCT:04|04-Four-ok|4|FM15-METAR|223|ICAO-KTSP|||||||BKN:07|07-Seven-o|4|FM15-METAR|223|ICAO-KTSP|||||||||||||||||||MET073METAR KTSP 101055Z AUTO 14007KT 10SM SCT060 BKN070 M03/M08 A3003 RMK AO2;||F||223|ICAO-KTSP
USW00000479|TEHACHAPI MUNI AP|2009|12|10|11|15|35.1350|-118.4392|1219.5|-2.0||1|FM15-METAR|223|ICAO-KTSP|-8.0||1|FM15-METAR|223|ICAO-KTSP|||||||||||||150|N-Normal|1|FM15-METAR|223|ICAO-KTSP|3.1|N-Normal|1|FM15-METAR|223|ICAO-KTSP|||||||||||||64|Derived||FM15-METAR|223|ICAO-KTSP|||||||||||||||||||||||||||||||||||||||||||||||||||||||||||||||||||||||||1016.9||1|FM15-METAR|223|ICAO-KTSP|||||||BKN:07|07-Seven-o|4|FM15-METAR|223|ICAO-KTSP|||||||OVC:08|08-Eight-o|4|FM15-METAR|223|ICAO-KTSP|||||||||||||||||||MET073METAR KTSP 101115Z AUTO 15006KT 10SM BKN060 OVC080 M02/M08 A3003 RMK AO2;||F||223|ICAO-KTSP
USW00000479|TEHACHAPI MUNI AP|2009|12|10|11|35|35.1350|-118.4392|1219.5|-3.0||1|FM15-METAR|223|ICAO-KTSP|-8.0||1|FM15-METAR|223|ICAO-KTSP|||||||||||||999|C-Calm|9|FM15-METAR|223|ICAO-KTSP|0.0|C-Calm|1|FM15-METAR|223|ICAO-KTSP|||||||||||||69|Derived||FM15-METAR|223|ICAO-KTSP|||||||||||||||||||||||||||||||||||||||||||||||||||||||||||||||||||||||||1016.9||1|FM15-METAR|223|ICAO-KTSP|||||||BKN:07|07-Seven-o|4|FM15-METAR|223|ICAO-KTSP|||||||BKN:07|07-Seven-o|4|FM15-METAR|223|ICAO-KTSP|||||||||||||||||||MET073METAR KTSP 101135Z AUTO 00000KT 10SM BKN060 BKN070 M03/M08 A3003 RMK AO2;||F||223|ICAO-KTSP
USW00000479|TEHACHAPI MUNI AP|2009|12|10|12|00|35.1350|-118.4392|1219.5|-3.0||1|FM15-METAR|223|ICAO-KTSP|-8.0||1|FM15-METAR|223|ICAO-KTSP|||||||||||||999|C-Calm|9|FM15-METAR|223|ICAO-KTSP|0.0|C-Calm|1|FM15-METAR|223|ICAO-KTSP|||||||||||||69|Derived||FM15-METAR|223|ICAO-KTSP|||||||||||||||||||||||||||||||||||||||||||||||||||||||||||||||||||||||||1017.3||1|FM15-METAR|223|ICAO-KTSP|||||||BKN:07|07-Seven-o|4|FM15-METAR|223|ICAO-KTSP|||||||BKN:07|07-Seven-o|4|FM15-METAR|223|ICAO-KTSP|||||||||||||||||||MET073METAR KTSP 101155Z AUTO 00000KT 10SM BKN050 BKN070 M03/M08 A3004 RMK AO2;||F||223|ICAO-KTSP
USW00000479|TEHACHAPI MUNI AP|2009|12|10|12|15|35.1350|-118.4392|1219.5|-3.0||1|FM15-METAR|223|ICAO-KTSP|-8.0||1|FM15-METAR|223|ICAO-KTSP|||||||||||||999|C-Calm|9|FM15-METAR|223|ICAO-KTSP|0.0|C-Calm|1|FM15-METAR|223|ICAO-KTSP|||||||||||||69|Derived||FM15-METAR|223|ICAO-KTSP|||||||||||||||||||||||||||||||||||||||||||||||||||||||||||||||||||||||||1017.3||1|FM15-METAR|223|ICAO-KTSP|||||||FEW:02|02-Two-okt|4|FM15-METAR|223|ICAO-KTSP|||||||BKN:07|07-Seven-o|4|FM15-METAR|223|ICAO-KTSP|||||||||||||||||||MET073METAR KTSP 101215Z AUTO 00000KT 10SM FEW050 BKN080 M03/M08 A3004 RMK AO2;||F||223|ICAO-KTSP
USW00000479|TEHACHAPI MUNI AP|2009|12|10|12|35|35.1350|-118.4392|1219.5|-3.0||1|FM15-METAR|223|ICAO-KTSP|-7.0||1|FM15-METAR|223|ICAO-KTSP|||||||||||||130|N-Normal|1|FM15-METAR|223|ICAO-KTSP|3.1|N-Normal|1|FM15-METAR|223|ICAO-KTSP|||||||||||||74|Derived||FM15-METAR|223|ICAO-KTSP|||||||||||||||||||||||||||||||||||||||||||||||||||||||||||||||||||||||||1017.3||1|FM15-METAR|223|ICAO-KTSP|||||||SCT:04|04-Four-ok|4|FM15-METAR|223|ICAO-KTSP|||||||BKN:07|07-Seven-o|4|FM15-METAR|223|ICAO-KTSP|||||||||||||||||||MET073METAR KTSP 101235Z AUTO 13006KT 10SM SCT060 BKN080 M03/M07 A3004 RMK AO2;||F||223|ICAO-KTSP
USW00000479|TEHACHAPI MUNI AP|2009|12|10|13|00|35.1350|-118.4392|1219.5|-3.0||1|FM15-METAR|223|ICAO-KTSP|-7.0||1|FM15-METAR|223|ICAO-KTSP|||||||||||||130|N-Normal|1|FM15-METAR|223|ICAO-KTSP|2.1|N-Normal|1|FM15-METAR|223|ICAO-KTSP|||||||||||||74|Derived||FM15-METAR|223|ICAO-KTSP|||||||||||||||||||||||||||||||||||||||||||||||||||||||||||||||||||||||||1016.9||1|FM15-METAR|223|ICAO-KTSP|||||||BKN:07|07-Seven-o|4|FM15-METAR|223|ICAO-KTSP|||||||BKN:07|07-Seven-o|4|FM15-METAR|223|ICAO-KTSP|||||||||||||||||||MET073METAR KTSP 101255Z AUTO 13004KT 10SM BKN050 BKN060 M03/M07 A3003 RMK AO2;||F||223|ICAO-KTSP
USW00000479|TEHACHAPI MUNI AP|2009|12|10|13|15|35.1350|-118.4392|1219.5|-3.0||1|FM15-METAR|223|ICAO-KTSP|-7.0||1|FM15-METAR|223|ICAO-KTSP|||||||||||||090|N-Normal|1|FM15-METAR|223|ICAO-KTSP|1.5|N-Normal|1|FM15-METAR|223|ICAO-KTSP|||||||||||||74|Derived||FM15-METAR|223|ICAO-KTSP|||||||||||||||||||||||||||||||||||||||||||||||||||||||||||||||||||||||||1016.9||1|FM15-METAR|223|ICAO-KTSP|||||||OVC:08|08-Eight-o|4|FM15-METAR|223|ICAO-KTSP|||||||||||||||||||||||||||||||MET066METAR KTSP 101315Z AUTO 09003KT 10SM OVC046 M03/M07 A3003 RMK AO2;||F||223|ICAO-KTSP
USW00000479|TEHACHAPI MUNI AP|2009|12|10|13|35|35.1350|-118.4392|1219.5|-3.0||1|FM15-METAR|223|ICAO-KTSP|-8.0||1|FM15-METAR|223|ICAO-KTSP|||||||||||||999|C-Calm|9|FM15-METAR|223|ICAO-KTSP|0.0|C-Calm|1|FM15-METAR|223|ICAO-KTSP|||||||||||||69|Derived||FM15-METAR|223|ICAO-KTSP|||||||||||||||||||||||||||||||||||||||||||||||||||||||||||||||||||||||||1016.9||1|FM15-METAR|223|ICAO-KTSP|||||||BKN:07|07-Seven-o|4|FM15-METAR|223|ICAO-KTSP|||||||BKN:07|07-Seven-o|4|FM15-METAR|223|ICAO-KTSP|||||||||||||||||||MET073METAR KTSP 101335Z AUTO 00000KT 10SM BKN046 BKN055 M03/M08 A3003 RMK AO2;||F||223|ICAO-KTSP
USW00000479|TEHACHAPI MUNI AP|2009|12|10|14|00|35.1350|-118.4392|1219.5|-3.0||1|FM15-METAR|223|ICAO-KTSP|-7.0||1|FM15-METAR|223|ICAO-KTSP|||||||||||||999|C-Calm|9|FM15-METAR|223|ICAO-KTSP|0.0|C-Calm|1|FM15-METAR|223|ICAO-KTSP|||||||||||||74|Derived||FM15-METAR|223|ICAO-KTSP|||||||||||||||||||||||||||||||||||||||||||||||||||||||||||||||||||||||||1017.3||1|FM15-METAR|223|ICAO-KTSP|||||||BKN:07|07-Seven-o|4|FM15-METAR|223|ICAO-KTSP|||||||||||||||||||||||||||||||MET066METAR KTSP 101355Z AUTO 00000KT 10SM BKN042 M03/M07 A3004 RMK AO2;||F||223|ICAO-KTSP
USW00000479|TEHACHAPI MUNI AP|2009|12|10|14|15|35.1350|-118.4392|1219.5|-3.0||1|FM15-METAR|223|ICAO-KTSP|-7.0||1|FM15-METAR|223|ICAO-KTSP|||||||||||||999|C-Calm|9|FM15-METAR|223|ICAO-KTSP|0.0|C-Calm|1|FM15-METAR|223|ICAO-KTSP|||||||||||||74|Derived||FM15-METAR|223|ICAO-KTSP|||||||||||||||||||||||||||||||||||||||||||||||||||||||||||||||||||||||||1017.3||1|FM15-METAR|223|ICAO-KTSP|||||||OVC:08|08-Eight-o|4|FM15-METAR|223|ICAO-KTSP|||||||||||||||||||||||||||||||MET066METAR KTSP 101415Z AUTO 00000KT 10SM OVC042 M03/M07 A3004 RMK AO2;||F||223|ICAO-KTSP
USW00000479|TEHACHAPI MUNI AP|2009|12|10|14|35|35.1350|-118.4392|1219.5|-3.0||1|FM15-METAR|223|ICAO-KTSP|-7.0||1|FM15-METAR|223|ICAO-KTSP|||||||||||||999|C-Calm|9|FM15-METAR|223|ICAO-KTSP|0.0|C-Calm|1|FM15-METAR|223|ICAO-KTSP|||||||||||||74|Derived||FM15-METAR|223|ICAO-KTSP|||||||||||||||||||||||||||||||||||||||||||||||||||||||||||||||||||||||||1017.3||1|FM15-METAR|223|ICAO-KTSP|||||||OVC:08|08-Eight-o|4|FM15-METAR|223|ICAO-KTSP|||||||||||||||||||||||||||||||MET066METAR KTSP 101435Z AUTO 00000KT 10SM OVC040 M03/M07 A3004 RMK AO2;||F||223|ICAO-KTSP
USW00000479|TEHACHAPI MUNI AP|2009|12|10|15|00|35.1350|-118.4392|1219.5|-4.0||1|FM15-METAR|223|ICAO-KTSP|-7.0||1|FM15-METAR|223|ICAO-KTSP|||||||||||||999|C-Calm|9|FM15-METAR|223|ICAO-KTSP|0.0|C-Calm|1|FM15-METAR|223|ICAO-KTSP|||||||||||||80|Derived||FM15-METAR|223|ICAO-KTSP|||||||||||||||||||||||||||||||||||||||||||||||||||||||||||||||||||||||||1017.3||1|FM15-METAR|223|ICAO-KTSP|||||||BKN:07|07-Seven-o|4|FM15-METAR|223|ICAO-KTSP|||||||||||||||||||||||||||||||MET066METAR KTSP 101455Z AUTO 00000KT 10SM BKN040 M04/M07 A3004 RMK AO2;||F||223|ICAO-KTSP
USW00000479|TEHACHAPI MUNI AP|2009|12|10|15|15|35.1350|-118.4392|1219.5|-4.0||1|FM15-METAR|223|ICAO-KTSP|-8.0||1|FM15-METAR|223|ICAO-KTSP|||||||||||||999|C-Calm|9|FM15-METAR|223|ICAO-KTSP|0.0|C-Calm|1|FM15-METAR|223|ICAO-KTSP|||||||||||||74|Derived||FM15-METAR|223|ICAO-KTSP|||||||||||||||||||||||||||||||||||||||||||||||||||||||||||||||||||||||||1017.3||1|FM15-METAR|223|ICAO-KTSP|||||||SCT:04|04-Four-ok|4|FM15-METAR|223|ICAO-KTSP|||||||||||||||||||||||||||||||MET066METAR KTSP 101515Z AUTO 00000KT 10SM SCT040 M04/M08 A3004 RMK AO2;||F||223|ICAO-KTSP
USW00000479|TEHACHAPI MUNI AP|2009|12|10|15|35|35.1350|-118.4392|1219.5|-3.0||1|FM15-METAR|223|ICAO-KTSP|-7.0||1|FM15-METAR|223|ICAO-KTSP|||||||||||||999|C-Calm|9|FM15-METAR|223|ICAO-KTSP|0.0|C-Calm|1|FM15-METAR|223|ICAO-KTSP|||||||||||||74|Derived||FM15-METAR|223|ICAO-KTSP|||||||||||||||||||||||||||||||||||||||||||||||||||||||||||||||||||||||||1017.3||1|FM15-METAR|223|ICAO-KTSP|||||||BKN:07|07-Seven-o|4|FM15-METAR|223|ICAO-KTSP|||||||||||||||||||||||||||||||MET066METAR KTSP 101535Z AUTO 00000KT 10SM BKN042 M03/M07 A3004 RMK AO2;||F||223|ICAO-KTSP
USW00000479|TEHACHAPI MUNI AP|2009|12|10|16|00|35.1350|-118.4392|1219.5|-3.0||1|FM15-METAR|223|ICAO-KTSP|-7.0||1|FM15-METAR|223|ICAO-KTSP|||||||||||||999|C-Calm|9|FM15-METAR|223|ICAO-KTSP|0.0|C-Calm|1|FM15-METAR|223|ICAO-KTSP|||||||||||||74|Derived||FM15-METAR|223|ICAO-KTSP|||||||||||||||||||||||||||||||||||||||||||||||||||||||||||||||||||||||||1017.3||1|FM15-METAR|223|ICAO-KTSP|||||||FEW:02|02-Two-okt|4|FM15-METAR|223|ICAO-KTSP|||||||||||||||||||||||||||||||MET066METAR KTSP 101555Z AUTO 00000KT 10SM FEW042 M03/M07 A3004 RMK AO2;||F||223|ICAO-KTSP
USW00000479|TEHACHAPI MUNI AP|2009|12|10|16|15|35.1350|-118.4392|1219.5|-1.0||1|FM15-METAR|223|ICAO-KTSP|-7.0||1|FM15-METAR|223|ICAO-KTSP|||||||||||||999|C-Calm|9|FM15-METAR|223|ICAO-KTSP|0.0|C-Calm|1|FM15-METAR|223|ICAO-KTSP|||||||||||||64|Derived||FM15-METAR|223|ICAO-KTSP|||||||||||||||||||||||||||||||||||||||||||||||||||||||||||||||||||||||||1017.3||1|FM15-METAR|223|ICAO-KTSP|||||||||||||||||||||||||||||||||||||||||||MET062METAR KTSP 101615Z AUTO 00000KT 9SM CLR M01/M07 A3004 RMK AO2;||F||223|ICAO-KTSP
USW00000479|TEHACHAPI MUNI AP|2009|12|10|16|35|35.1350|-118.4392|1219.5|0.0||1|FM15-METAR|223|ICAO-KTSP|-7.0||1|FM15-METAR|223|ICAO-KTSP|||||||||||||130|N-Normal|1|FM15-METAR|223|ICAO-KTSP|2.1|N-Normal|1|FM15-METAR|223|ICAO-KTSP|||||||||||||60|Derived||FM15-METAR|223|ICAO-KTSP|||||||||||||||||||||||||||||||||||||||||||||||||||||||||||||||||||||||||1018.0||1|FM15-METAR|223|ICAO-KTSP|||||||||||||||||||||||||||||||||||||||||||MET062METAR KTSP 101635Z AUTO 13004KT 10SM CLR 00/M07 A3006 RMK AO2;||F||223|ICAO-KTSP
USW00000479|TEHACHAPI MUNI AP|2009|12|10|17|00|35.1350|-118.4392|1219.5|0.0||1|FM15-METAR|223|ICAO-KTSP|-6.0||1|FM15-METAR|223|ICAO-KTSP|||||||||||||999|C-Calm|9|FM15-METAR|223|ICAO-KTSP|0.0|C-Calm|1|FM15-METAR|223|ICAO-KTSP|||||||||||||64|Derived||FM15-METAR|223|ICAO-KTSP|||||||||||||||||||||||||||||||||||||||||||||||||||||||||||||||||||||||||1018.0||1|FM15-METAR|223|ICAO-KTSP|||||||||||||||||||||||||||||||||||||||||||MET061METAR KTSP 101655Z AUTO 00000KT 9SM CLR 00/M06 A3006 RMK AO2;||F||223|ICAO-KTSP
USW00000479|TEHACHAPI MUNI AP|2009|12|10|17|15|35.1350|-118.4392|1219.5|1.0||1|FM15-METAR|223|ICAO-KTSP|-7.0||1|FM15-METAR|223|ICAO-KTSP|||||||||||||140|N-Normal|1|FM15-METAR|223|ICAO-KTSP|2.1|N-Normal|1|FM15-METAR|223|ICAO-KTSP|||||||||||||56|Derived||FM15-METAR|223|ICAO-KTSP|||||||||||||||||||||||||||||||||||||||||||||||||||||||||||||||||||||||||1018.0||1|FM15-METAR|223|ICAO-KTSP|||||||||||||||||||||||||||||||||||||||||||MET061METAR KTSP 101715Z AUTO 14004KT 9SM CLR 01/M07 A3006 RMK AO2;||F||223|ICAO-KTSP
USW00000479|TEHACHAPI MUNI AP|2009|12|10|17|35|35.1350|-118.4392|1219.5|3.0||1|FM15-METAR|223|ICAO-KTSP|-7.0||1|FM15-METAR|223|ICAO-KTSP|||||||||||||999|C-Calm|9|FM15-METAR|223|ICAO-KTSP|0.0|C-Calm|1|FM15-METAR|223|ICAO-KTSP|||||||||||||48|Derived||FM15-METAR|223|ICAO-KTSP|||||||||||||||||||||||||||||||||||||||||||||||||||||||||||||||||||||||||1018.0||1|FM15-METAR|223|ICAO-KTSP|||||||||||||||||||||||||||||||||||||||||||MET062METAR KTSP 101735Z AUTO 00000KT 10SM CLR 03/M07 A3006 RMK AO2;||F||223|ICAO-KTSP
USW00000479|TEHACHAPI MUNI AP|2009|12|10|18|00|35.1350|-118.4392|1219.5|3.0||1|FM15-METAR|223|ICAO-KTSP|-7.0||1|FM15-METAR|223|ICAO-KTSP|||||||||||||999|C-Calm|9|FM15-METAR|223|ICAO-KTSP|0.0|C-Calm|1|FM15-METAR|223|ICAO-KTSP|||||||||||||48|Derived||FM15-METAR|223|ICAO-KTSP|||||||||||||||||||||||||||||||||||||||||||||||||||||||||||||||||||||||||1018.0||1|FM15-METAR|223|ICAO-KTSP|||||||BKN:07|07-Seven-o|4|FM15-METAR|223|ICAO-KTSP|||||||||||||||||||||||||||||||MET065METAR KTSP 101755Z AUTO 00000KT 10SM BKN043 03/M07 A3006 RMK AO2;||F||223|ICAO-KTSP
USW00000479|TEHACHAPI MUNI AP|2009|12|10|18|15|35.1350|-118.4392|1219.5|4.0||1|FM15-METAR|223|ICAO-KTSP|-7.0||1|FM15-METAR|223|ICAO-KTSP|||||||||||||999|C-Calm|9|FM15-METAR|223|ICAO-KTSP|0.0|C-Calm|1|FM15-METAR|223|ICAO-KTSP|||||||||||||45|Derived||FM15-METAR|223|ICAO-KTSP|||||||||||||||||||||||||||||||||||||||||||||||||||||||||||||||||||||||||1017.6||1|FM15-METAR|223|ICAO-KTSP|||||||FEW:02|02-Two-okt|4|FM15-METAR|223|ICAO-KTSP|||||||||||||||||||||||||||||||MET064METAR KTSP 101815Z AUTO 00000KT 9SM FEW043 04/M07 A3005 RMK AO2;||F||223|ICAO-KTSP
USW00000479|TEHACHAPI MUNI AP|2009|12|10|18|35|35.1350|-118.4392|1219.5|5.0||1|FM15-METAR|223|ICAO-KTSP|-7.0||1|FM15-METAR|223|ICAO-KTSP|||||||||||||999|C-Calm|9|FM15-METAR|223|ICAO-KTSP|0.0|C-Calm|1|FM15-METAR|223|ICAO-KTSP|||||||||||||42|Derived||FM15-METAR|223|ICAO-KTSP|||||||||||||||||||||||||||||||||||||||||||||||||||||||||||||||||||||||||1017.6||1|FM15-METAR|223|ICAO-KTSP|||||||FEW:02|02-Two-okt|4|FM15-METAR|223|ICAO-KTSP|||||||||||||||||||||||||||||||MET064METAR KTSP 101835Z AUTO 00000KT 9SM FEW055 05/M07 A3005 RMK AO2;||F||223|ICAO-KTSP
USW00000479|TEHACHAPI MUNI AP|2009|12|10|19|00|35.1350|-118.4392|1219.5|5.0||1|FM15-METAR|223|ICAO-KTSP|-7.0||1|FM15-METAR|223|ICAO-KTSP|||||||||||||999|C-Calm|9|FM15-METAR|223|ICAO-KTSP|0.0|C-Calm|1|FM15-METAR|223|ICAO-KTSP|||||||||||||42|Derived||FM15-METAR|223|ICAO-KTSP|||||||||||||||||||||||||||||||||||||||||||||||||||||||||||||||||||||||||1017.3||1|FM15-METAR|223|ICAO-KTSP|||||||FEW:02|02-Two-okt|4|FM15-METAR|223|ICAO-KTSP|||||||||||||||||||||||||||||||MET064METAR KTSP 101855Z AUTO 00000KT 9SM FEW050 05/M07 A3004 RMK AO2;||F||223|ICAO-KTSP
USW00000479|TEHACHAPI MUNI AP|2009|12|10|19|15|35.1350|-118.4392|1219.5|7.0||1|FM15-METAR|223|ICAO-KTSP|-8.0||1|FM15-METAR|223|ICAO-KTSP|||||||||||||999|C-Calm|9|FM15-METAR|223|ICAO-KTSP|0.0|C-Calm|1|FM15-METAR|223|ICAO-KTSP|||||||||||||34|Derived||FM15-METAR|223|ICAO-KTSP|||||||||||||||||||||||||||||||||||||||||||||||||||||||||||||||||||||||||1016.9||1|FM15-METAR|223|ICAO-KTSP|||||||||||||||||||||||||||||||||||||||||||MET061METAR KTSP 101915Z AUTO 00000KT 9SM CLR 07/M08 A3003 RMK AO2;||F||223|ICAO-KTSP
USW00000479|TEHACHAPI MUNI AP|2009|12|10|19|35|35.1350|-118.4392|1219.5|7.0||1|FM15-METAR|223|ICAO-KTSP|-8.0||1|FM15-METAR|223|ICAO-KTSP|||||||||||||999|C-Calm|9|FM15-METAR|223|ICAO-KTSP|0.0|C-Calm|1|FM15-METAR|223|ICAO-KTSP|||||||||||||34|Derived||FM15-METAR|223|ICAO-KTSP|||||||||||||||||||||||||||||||||||||||||||||||||||||||||||||||||||||||||1016.3||1|FM15-METAR|223|ICAO-KTSP|||||||FEW:02|02-Two-okt|4|FM15-METAR|223|ICAO-KTSP|||||||||||||||||||||||||||||||MET065METAR KTSP 101935Z AUTO 00000KT 10SM FEW050 07/M08 A3001 RMK AO2;||F||223|ICAO-KTSP
USW00000479|TEHACHAPI MUNI AP|2009|12|10|20|00|35.1350|-118.4392|1219.5|9.0||1|FM15-METAR|223|ICAO-KTSP|-8.0||1|FM15-METAR|223|ICAO-KTSP|||||||||||||999|C-Calm|9|FM15-METAR|223|ICAO-KTSP|0.0|C-Calm|1|FM15-METAR|223|ICAO-KTSP|||||||||||||29|Derived||FM15-METAR|223|ICAO-KTSP|||||||||||||||||||||||||||||||||||||||||||||||||||||||||||||||||||||||||1015.9||1|FM15-METAR|223|ICAO-KTSP|||||||FEW:02|02-Two-okt|4|FM15-METAR|223|ICAO-KTSP|||||||SCT:04|04-Four-ok|4|FM15-METAR|223|ICAO-KTSP|||||||||||||||||||MET072METAR KTSP 101955Z AUTO 00000KT 10SM FEW043 SCT048 09/M08 A3000 RMK AO2;||F||223|ICAO-KTSP
USW00000479|TEHACHAPI MUNI AP|2009|12|10|20|15|35.1350|-118.4392|1219.5|9.0||1|FM15-METAR|223|ICAO-KTSP|-7.0||1|FM15-METAR|223|ICAO-KTSP|||||||||||||290|N-Normal|1|FM15-METAR|223|ICAO-KTSP|3.1|N-Normal|1|FM15-METAR|223|ICAO-KTSP|||||||||||||32|Derived||FM15-METAR|223|ICAO-KTSP|||||||||||||||||||||||||||||||||||||||||||||||||||||||||||||||||||||||||1015.9||1|FM15-METAR|223|ICAO-KTSP|||||||FEW:02|02-Two-okt|4|FM15-METAR|223|ICAO-KTSP|||||||||||||||||||||||||||||||MET065METAR KTSP 102015Z AUTO 29006KT 10SM FEW043 09/M07 A3000 RMK AO2;||F||223|ICAO-KTSP
USW00000479|TEHACHAPI MUNI AP|2009|12|10|20|35|35.1350|-118.4392|1219.5|9.0||1|FM15-METAR|223|ICAO-KTSP|-7.0||1|FM15-METAR|223|ICAO-KTSP|||||||||||||300|N-Normal|1|FM15-METAR|223|ICAO-KTSP|3.1|N-Normal|1|FM15-METAR|223|ICAO-KTSP|||||||||||||32|Derived||FM15-METAR|223|ICAO-KTSP|||||||||||||||||||||||||||||||||||||||||||||||||||||||||||||||||||||||||1015.9||1|FM15-METAR|223|ICAO-KTSP|||||||BKN:07|07-Seven-o|4|FM15-METAR|223|ICAO-KTSP|||||||||||||||||||||||||||||||MET065METAR KTSP 102035Z AUTO 30006KT 10SM BKN055 09/M07 A3000 RMK AO2;||F||223|ICAO-KTSP
USW00000479|TEHACHAPI MUNI AP|2009|12|10|21|00|35.1350|-118.4392|1219.5|9.0||1|FM15-METAR|223|ICAO-KTSP|-6.0||1|FM15-METAR|223|ICAO-KTSP|||||||||||||310|N-Normal|1|FM15-METAR|223|ICAO-KTSP|3.1|N-Normal|1|FM15-METAR|223|ICAO-KTSP|||||||||||||34|Derived||FM15-METAR|223|ICAO-KTSP|||||||||||||||||||||||||||||||||||||||||||||||||||||||||||||||||||||||||1015.6||1|FM15-METAR|223|ICAO-KTSP|||||||BKN:07|07-Seven-o|4|FM15-METAR|223|ICAO-KTSP|||||||||||||||||||||||||||||||MET065METAR KTSP 102055Z AUTO 31006KT 10SM BKN055 09/M06 A2999 RMK AO2;||F||223|ICAO-KTSP
USW00000479|TEHACHAPI MUNI AP|2009|12|10|21|15|35.1350|-118.4392|1219.5|9.0||1|FM15-METAR|223|ICAO-KTSP|-6.0||1|FM15-METAR|223|ICAO-KTSP|||||||||||||310|N-Normal|1|FM15-METAR|223|ICAO-KTSP|3.6|N-Normal|1|FM15-METAR|223|ICAO-KTSP|||||||||||||34|Derived||FM15-METAR|223|ICAO-KTSP|||||||||||||||||||||||||||||||||||||||||||||||||||||||||||||||||||||||||1015.2||1|FM15-METAR|223|ICAO-KTSP|||||||FEW:02|02-Two-okt|4|FM15-METAR|223|ICAO-KTSP|||||||SCT:04|04-Four-ok|4|FM15-METAR|223|ICAO-KTSP|||||||||||||||||||MET072METAR KTSP 102115Z AUTO 31007KT 10SM FEW055 SCT095 09/M06 A2998 RMK AO2;||F||223|ICAO-KTSP
USW00000479|TEHACHAPI MUNI AP|2009|12|10|21|35|35.1350|-118.4392|1219.5|9.0||1|FM15-METAR|223|ICAO-KTSP|-6.0||1|FM15-METAR|223|ICAO-KTSP|||||||||||||300|N-Normal|1|FM15-METAR|223|ICAO-KTSP|3.1|N-Normal|1|FM15-METAR|223|ICAO-KTSP|||||||||||||34|Derived||FM15-METAR|223|ICAO-KTSP|||||||||||||||||||||||||||||||||||||||||||||||||||||||||||||||||||||||||1015.6||1|FM15-METAR|223|ICAO-KTSP|||||||FEW:02|02-Two-okt|4|FM15-METAR|223|ICAO-KTSP|||||||||||||||||||||||||||||||MET065METAR KTSP 102135Z AUTO 30006KT 10SM FEW095 09/M06 A2999 RMK AO2;||F||223|ICAO-KTSP
USW00000479|TEHACHAPI MUNI AP|2009|12|10|22|00|35.1350|-118.4392|1219.5|9.0||1|FM15-METAR|223|ICAO-KTSP|-5.0||1|FM15-METAR|223|ICAO-KTSP|||||||||||||320|N-Normal|1|FM15-METAR|223|ICAO-KTSP|2.6|N-Normal|1|FM15-METAR|223|ICAO-KTSP|||||||||||||37|Derived||FM15-METAR|223|ICAO-KTSP|||||||||||||||||||||||||||||||||||||||||||||||||||||||||||||||||||||||||1015.2||1|FM15-METAR|223|ICAO-KTSP|||||||FEW:02|02-Two-okt|4|FM15-METAR|223|ICAO-KTSP|||||||||||||||||||||||||||||||MET065METAR KTSP 102155Z AUTO 32005KT 10SM FEW085 09/M05 A2998 RMK AO2;||F||223|ICAO-KTSP
USW00000479|TEHACHAPI MUNI AP|2009|12|10|22|15|35.1350|-118.4392|1219.5|9.0||1|FM15-METAR|223|ICAO-KTSP|-4.0||1|FM15-METAR|223|ICAO-KTSP|||||||||||||320|N-Normal|1|FM15-METAR|223|ICAO-KTSP|2.6|N-Normal|1|FM15-METAR|223|ICAO-KTSP|||||||||||||40|Derived||FM15-METAR|223|ICAO-KTSP|||||||||||||||||||||||||||||||||||||||||||||||||||||||||||||||||||||||||1015.2||1|FM15-METAR|223|ICAO-KTSP|||||||SCT:04|04-Four-ok|4|FM15-METAR|223|ICAO-KTSP|||||||||||||||||||||||||||||||MET065METAR KTSP 102215Z AUTO 32005KT 10SM SCT085 09/M04 A2998 RMK AO2;||F||223|ICAO-KTSP
USW00000479|TEHACHAPI MUNI AP|2009|12|10|22|35|35.1350|-118.4392|1219.5|9.0||1|FM15-METAR|223|ICAO-KTSP|-4.0||1|FM15-METAR|223|ICAO-KTSP|||||||||||||320|N-Normal|1|FM15-METAR|223|ICAO-KTSP|2.1|N-Normal|1|FM15-METAR|223|ICAO-KTSP|||||||||||||40|Derived||FM15-METAR|223|ICAO-KTSP|||||||||||||||||||||||||||||||||||||||||||||||||||||||||||||||||||||||||1015.2||1|FM15-METAR|223|ICAO-KTSP|||||||SCT:04|04-Four-ok|4|FM15-METAR|223|ICAO-KTSP|||||||||||||||||||||||||||||||MET065METAR KTSP 102235Z AUTO 32004KT 10SM SCT075 09/M04 A2998 RMK AO2;||F||223|ICAO-KTSP
USW00000479|TEHACHAPI MUNI AP|2009|12|10|23|00|35.1350|-118.4392|1219.5|9.0||1|FM15-METAR|223|ICAO-KTSP|-4.0||1|FM15-METAR|223|ICAO-KTSP|||||||||||||320|N-Normal|1|FM15-METAR|223|ICAO-KTSP|2.1|N-Normal|1|FM15-METAR|223|ICAO-KTSP|||||||||||||40|Derived||FM15-METAR|223|ICAO-KTSP|||||||||||||||||||||||||||||||||||||||||||||||||||||||||||||||||||||||||1015.2||1|FM15-METAR|223|ICAO-KTSP|||||||BKN:07|07-Seven-o|4|FM15-METAR|223|ICAO-KTSP|||||||||||||||||||||||||||||||MET065METAR KTSP 102255Z AUTO 32004KT 10SM BKN075 09/M04 A2998 RMK AO2;||F||223|ICAO-KTSP
USW00000479|TEHACHAPI MUNI AP|2009|12|10|23|15|35.1350|-118.4392|1219.5|9.0||1|FM15-METAR|223|ICAO-KTSP|-3.0||1|FM15-METAR|223|ICAO-KTSP|||||||||||||310|N-Normal|1|FM15-METAR|223|ICAO-KTSP|2.1|N-Normal|1|FM15-METAR|223|ICAO-KTSP|||||||||||||43|Derived||FM15-METAR|223|ICAO-KTSP|||||||||||||||||||||||||||||||||||||||||||||||||||||||||||||||||||||||||1015.2||1|FM15-METAR|223|ICAO-KTSP|||||||FEW:02|02-Two-okt|4|FM15-METAR|223|ICAO-KTSP|||||||||||||||||||||||||||||||MET064METAR KTSP 102315Z AUTO 31004KT 9SM FEW075 09/M03 A2998 RMK AO2;||F||223|ICAO-KTSP
USW00000479|TEHACHAPI MUNI AP|2009|12|10|23|35|35.1350|-118.4392|1219.5|10.0||1|FM15-METAR|223|ICAO-KTSP|0.0||1|FM15-METAR|223|ICAO-KTSP|||||||||||||290|N-Normal|1|FM15-METAR|223|ICAO-KTSP|2.1|N-Normal|1|FM15-METAR|223|ICAO-KTSP|||||||||||||50|Derived||FM15-METAR|223|ICAO-KTSP|||||||||||||||||||||||||||||||||||||||||||||||||||||||||||||||||||||||||1015.2||1|FM15-METAR|223|ICAO-KTSP|||||||FEW:02|02-Two-okt|4|FM15-METAR|223|ICAO-KTSP|||||||||||||||||||||||||||||||MET064METAR KTSP 102335Z AUTO 29004KT 10SM FEW065 10/00 A2998 RMK AO2;||F||223|ICAO-KTSP
USW00000479|TEHACHAPI MUNI AP|2009|12|11|00|00|35.1350|-118.4392|1219.5|9.0||1|FM15-METAR|223|ICAO-KTSP|0.0||1|FM15-METAR|223|ICAO-KTSP|||||||||||||290|N-Normal|1|FM15-METAR|223|ICAO-KTSP|2.1|N-Normal|1|FM15-METAR|223|ICAO-KTSP|||||||||||||54|Derived||FM15-METAR|223|ICAO-KTSP|||||||||||||||||||||||||||||||||||||||||||||||||||||||||||||||||||||||||1015.6||1|FM15-METAR|223|ICAO-KTSP|||||||FEW:02|02-Two-okt|4|FM15-METAR|223|ICAO-KTSP|||||||SCT:04|04-Four-ok|4|FM15-METAR|223|ICAO-KTSP|||||||||||||||||||MET071METAR KTSP 102355Z AUTO 29004KT 10SM FEW035 SCT065 09/00 A2999 RMK AO2;||F||223|ICAO-KTSP
USW00000479|TEHACHAPI MUNI AP|2009|12|11|00|15|35.1350|-118.4392|1219.5|8.0||1|FM15-METAR|223|ICAO-KTSP|0.0||1|FM15-METAR|223|ICAO-KTSP|||||||||||||999|C-Calm|9|FM15-METAR|223|ICAO-KTSP|0.0|C-Calm|1|FM15-METAR|223|ICAO-KTSP|||||||||||||57|Derived||FM15-METAR|223|ICAO-KTSP|||||||||||||||||||||||||||||||||||||||||||||||||||||||||||||||||||||||||1015.6||1|FM15-METAR|223|ICAO-KTSP|||||||BKN:07|07-Seven-o|4|FM15-METAR|223|ICAO-KTSP|||||||BKN:07|07-Seven-o|4|FM15-METAR|223|ICAO-KTSP|||||||||||||||||||MET071METAR KTSP 110015Z AUTO 00000KT 10SM BKN035 BKN065 08/00 A2999 RMK AO2;||F||223|ICAO-KTSP
USW00000479|TEHACHAPI MUNI AP|2009|12|11|00|35|35.1350|-118.4392|1219.5|8.0||1|FM15-METAR|223|ICAO-KTSP|0.0||1|FM15-METAR|223|ICAO-KTSP|||||||||||||999|C-Calm|9|FM15-METAR|223|ICAO-KTSP|0.0|C-Calm|1|FM15-METAR|223|ICAO-KTSP|||||||||||||57|Derived||FM15-METAR|223|ICAO-KTSP|||||||||||||||||||||||||||||||||||||||||||RA:61|RA:61-Rain|1|FM15-METAR|223|ICAO-KTSP|||||||||||||||||||||||||1015.6||1|FM15-METAR|223|ICAO-KTSP|||||||BKN:07|07-Seven-o|4|FM15-METAR|223|ICAO-KTSP|||||||||||||||||||||||||||||||MET067METAR KTSP 110035Z AUTO 00000KT 9SM -RA BKN035 08/00 A2999 RMK AO2;||F||223|ICAO-KTSP
USW00000479|TEHACHAPI MUNI AP|2009|12|11|01|15|35.1350|-118.4392|1219.5|6.0||1|FM15-METAR|223|ICAO-KTSP|0.0||1|FM15-METAR|223|ICAO-KTSP|||||||||||||100|N-Normal|1|FM15-METAR|223|ICAO-KTSP|3.1|N-Normal|1|FM15-METAR|223|ICAO-KTSP|||||||||||||66|Derived||FM15-METAR|223|ICAO-KTSP|||||||||||||||||||||||||||||||||||||||||||||||||||||||||||||||||||||||||1015.2||1|FM15-METAR|223|ICAO-KTSP|||||||FEW:02|02-Two-okt|4|FM15-METAR|223|ICAO-KTSP|||||||SCT:04|04-Four-ok|4|FM15-METAR|223|ICAO-KTSP|||||||||||||||||||MET078METAR KTSP 110115Z AUTO 10006KT 10SM FEW030 SCT036 OVC055 06/00 A2998 RMK AO2;||F||223|ICAO-KTSP
USW00000479|TEHACHAPI MUNI AP|2009|12|11|01|35|35.1350|-118.4392|1219.5|5.0||1|FM15-METAR|223|ICAO-KTSP|-1.0||1|FM15-METAR|223|ICAO-KTSP|||||||||||||120|N-Normal|1|FM15-METAR|223|ICAO-KTSP|3.1|N-Normal|1|FM15-METAR|223|ICAO-KTSP|||||||||||||66|Derived||FM15-METAR|223|ICAO-KTSP|||||||||||||||||||||||||||||||||||||||||||||||||||||||||||||||||||||||||1015.6||1|FM15-METAR|223|ICAO-KTSP|||||||BKN:07|07-Seven-o|4|FM15-METAR|223|ICAO-KTSP|||||||OVC:08|08-Eight-o|4|FM15-METAR|223|ICAO-KTSP|||||||||||||||||||MET072METAR KTSP 110135Z AUTO 12006KT 10SM BKN028 OVC050 05/M01 A2999 RMK AO2;||F||223|ICAO-KTSP
USW00000479|TEHACHAPI MUNI AP|2009|12|11|02|00|35.1350|-118.4392|1219.5|4.0||1|FM15-METAR|223|ICAO-KTSP|0.0||1|FM15-METAR|223|ICAO-KTSP|||||||||||||110|N-Normal|1|FM15-METAR|223|ICAO-KTSP|2.6|N-Normal|1|FM15-METAR|223|ICAO-KTSP|||||||||||||75|Derived||FM15-METAR|223|ICAO-KTSP|||||||||||||||||||||||||||||||||||||||||||RA:61|RA:61-Rain|1|FM15-METAR|223|ICAO-KTSP|||||||||||||||||||||||||1015.9||1|FM15-METAR|223|ICAO-KTSP|||||||FEW:02|02-Two-okt|4|FM15-METAR|223|ICAO-KTSP|||||||OVC:08|08-Eight-o|4|FM15-METAR|223|ICAO-KTSP|||||||||||||||||||MET074METAR KTSP 110155Z AUTO 11005KT 4SM -RA FEW021 OVC026 04/00 A3000 RMK AO2;||F||223|ICAO-KTSP
USW00000479|TEHACHAPI MUNI AP|2009|12|11|02|15|35.1350|-118.4392|1219.5|4.0||1|FM15-METAR|223|ICAO-KTSP|0.0||1|FM15-METAR|223|ICAO-KTSP|||||||||||||120|N-Normal|1|FM15-METAR|223|ICAO-KTSP|3.1|N-Normal|1|FM15-METAR|223|ICAO-KTSP|||||||0.3|9-Missing|9|FM15-METAR|223|ICAO-KTSP|75|Derived||FM15-METAR|223|ICAO-KTSP|||||||||||||||||||||||||||||||||||||||||||RA:61|RA:61-Rain|1|FM15-METAR|223|ICAO-KTSP|||||||||||||||||||||||||1015.9||1|FM15-METAR|223|ICAO-KTSP|||||||SCT:04|04-Four-ok|4|FM15-METAR|223|ICAO-KTSP|||||||BKN:07|07-Seven-o|4|FM15-METAR|223|ICAO-KTSP|||||||||||||||||||MET087METAR KTSP 110215Z AUTO 12006KT 3SM -RA SCT021 BKN028 OVC036 04/00 A3000 RMK AO2 P0001;||F||223|ICAO-KTSP
USW00000479|TEHACHAPI MUNI AP|2009|12|11|02|35|35.1350|-118.4392|1219.5|3.0||1|FM15-METAR|223|ICAO-KTSP|0.0||1|FM15-METAR|223|ICAO-KTSP|||||||||||||120|N-Normal|1|FM15-METAR|223|ICAO-KTSP|3.1|N-Normal|1|FM15-METAR|223|ICAO-KTSP|||||||0.3|9-Missing|9|FM15-METAR|223|ICAO-KTSP|81|Derived||FM15-METAR|223|ICAO-KTSP|||||||||||||||||||||||||||||||||||||||||||||||||||||||||||||||||||||||||1015.9||1|FM15-METAR|223|ICAO-KTSP|||||||FEW:02|02-Two-okt|4|FM15-METAR|223|ICAO-KTSP|||||||SCT:04|04-Four-ok|4|FM15-METAR|223|ICAO-KTSP|||||||||||||||||||MET083METAR KTSP 110235Z AUTO 12006KT 8SM FEW021 SCT034 OVC050 03/00 A3000 RMK AO2 P0001;||F||223|ICAO-KTSP
USW00000479|TEHACHAPI MUNI AP|2009|12|11|03|00|35.1350|-118.4392|1219.5|3.0||1|FM15-METAR|223|ICAO-KTSP|1.0||1|FM15-METAR|223|ICAO-KTSP|||||||||||||120|N-Normal|1|FM15-METAR|223|ICAO-KTSP|3.6|N-Normal|1|FM15-METAR|223|ICAO-KTSP|||||||0.3|9-Missing|9|FM15-METAR|223|ICAO-KTSP|87|Derived||FM15-METAR|223|ICAO-KTSP|||||||||||||||||||||||||||||||||||||||||||||||||||||||||||||||||||||||||1016.3||1|FM15-METAR|223|ICAO-KTSP|||||||FEW:02|02-Two-okt|4|FM15-METAR|223|ICAO-KTSP|||||||SCT:04|04-Four-ok|4|FM15-METAR|223|ICAO-KTSP|||||||||||||||||||MET083METAR KTSP 110255Z AUTO 12007KT 8SM FEW020 SCT034 OVC046 03/01 A3001 RMK AO2 P0001;||F||223|ICAO-KTSP
USW00000479|TEHACHAPI MUNI AP|2009|12|11|03|15|35.1350|-118.4392|1219.5|3.0||1|FM15-METAR|223|ICAO-KTSP|0.0||1|FM15-METAR|223|ICAO-KTSP|||||||||||||130|N-Normal|1|FM15-METAR|223|ICAO-KTSP|3.6|N-Normal|1|FM15-METAR|223|ICAO-KTSP|||||||||||||81|Derived||FM15-METAR|223|ICAO-KTSP|||||||||||||||||||||||||||||||||||||||||||RA:61|RA:61-Rain|1|FM15-METAR|223|ICAO-KTSP|||||||||||||||||||||||||1016.3||1|FM15-METAR|223|ICAO-KTSP|||||||FEW:02|02-Two-okt|4|FM15-METAR|223|ICAO-KTSP|||||||SCT:04|04-Four-ok|4|FM15-METAR|223|ICAO-KTSP|||||||||||||||||||MET081METAR KTSP 110315Z AUTO 13007KT 3SM -RA FEW020 SCT027 BKN031 03/00 A3001 RMK AO2;||F||223|ICAO-KTSP
USW00000479|TEHACHAPI MUNI AP|2009|12|11|03|35|35.1350|-118.4392|1219.5|2.0||1|FM15-METAR|223|ICAO-KTSP|0.0||1|FM15-METAR|223|ICAO-KTSP|||||||||||||130|N-Normal|1|FM15-METAR|223|ICAO-KTSP|3.1|N-Normal|1|FM15-METAR|223|ICAO-KTSP|||||||0.3|9-Missing|9|FM15-METAR|223|ICAO-KTSP|87|Derived||FM15-METAR|223|ICAO-KTSP|||||||||||||||||||||||||||||||||||||||||||RA:61|RA:61-Rain|1|FM15-METAR|223|ICAO-KTSP|||||||||||||||||||||||||1016.6||1|FM15-METAR|223|ICAO-KTSP|||||||FEW:02|02-Two-okt|4|FM15-METAR|223|ICAO-KTSP|||||||SCT:04|04-Four-ok|4|FM15-METAR|223|ICAO-KTSP|||||||||||||||||||MET087METAR KTSP 110335Z AUTO 13006KT 5SM -RA FEW020 SCT026 OVC040 02/00 A3002 RMK AO2 P0001;||F||223|ICAO-KTSP
USW00000479|TEHACHAPI MUNI AP|2009|12|11|04|00|35.1350|-118.4392|1219.5|2.0||1|FM15-METAR|223|ICAO-KTSP|0.0||1|FM15-METAR|223|ICAO-KTSP|||||||||||||110|N-Normal|1|FM15-METAR|223|ICAO-KTSP|4.1|N-Normal|1|FM15-METAR|223|ICAO-KTSP|||||||0.5|9-Missing|9|FM15-METAR|223|ICAO-KTSP|87|Derived||FM15-METAR|223|ICAO-KTSP|||||||||||||||||||||||||||||||||||||||||||RA:61|RA:61-Rain|1|FM15-METAR|223|ICAO-KTSP|||||||||||||||||||||||||1016.3||1|FM15-METAR|223|ICAO-KTSP|||||||FEW:02|02-Two-okt|4|FM15-METAR|223|ICAO-KTSP|||||||BKN:07|07-Seven-o|4|FM15-METAR|223|ICAO-KTSP|||||||||||||||||||MET087METAR KTSP 110355Z AUTO 11008KT 5SM -RA FEW021 BKN042 OVC050 02/00 A3001 RMK AO2 P0002;||F||223|ICAO-KTSP
USW00000479|TEHACHAPI MUNI AP|2009|12|11|04|15|35.1350|-118.4392|1219.5|2.0||1|FM15-METAR|223|ICAO-KTSP|-2.0||1|FM15-METAR|223|ICAO-KTSP|||||||||||||120|N-Normal|1|FM15-METAR|223|ICAO-KTSP|4.1|N-Normal|1|FM15-METAR|223|ICAO-KTSP|||||||||||||75|Derived||FM15-METAR|223|ICAO-KTSP|||||||||||||||||||||||||||||||||||||||||||||||||||||||||||||||||||||||||1016.3||1|FM15-METAR|223|ICAO-KTSP|||||||BKN:07|07-Seven-o|4|FM15-METAR|223|ICAO-KTSP|||||||OVC:08|08-Eight-o|4|FM15-METAR|223|ICAO-KTSP|||||||||||||||||||MET071METAR KTSP 110415Z AUTO 12008KT 9SM BKN040 OVC050 02/M02 A3001 RMK AO2;||F||223|ICAO-KTSP
USW00000479|TEHACHAPI MUNI AP|2009|12|11|04|35|35.1350|-118.4392|1219.5|2.0||1|FM15-METAR|223|ICAO-KTSP|0.0||1|FM15-METAR|223|ICAO-KTSP|||||||||||||120|N-Normal|1|FM15-METAR|223|ICAO-KTSP|4.6|N-Normal|1|FM15-METAR|223|ICAO-KTSP|||||||||||||87|Derived||FM15-METAR|223|ICAO-KTSP|||||||||||||||||||||||||||||||||||||||||||RA:61|RA:61-Rain|1|FM15-METAR|223|ICAO-KTSP|||||||||||||||||||||||||1016.6||1|FM15-METAR|223|ICAO-KTSP|||||||FEW:02|02-Two-okt|4|FM15-METAR|223|ICAO-KTSP|||||||OVC:08|08-Eight-o|4|FM15-METAR|223|ICAO-KTSP|||||||||||||||||||MET074METAR KTSP 110435Z AUTO 12009KT 8SM -RA FEW014 OVC037 02/00 A3002 RMK AO2;||F||223|ICAO-KTSP
USW00000479|TEHACHAPI MUNI AP|2009|12|11|05|00|35.1350|-118.4392|1219.5|2.0||1|FM15-METAR|223|ICAO-KTSP|-1.0||1|FM15-METAR|223|ICAO-KTSP|||||||||||||100|N-Normal|1|FM15-METAR|223|ICAO-KTSP|4.1|N-Normal|1|FM15-METAR|223|ICAO-KTSP|||||||||||||81|Derived||FM15-METAR|223|ICAO-KTSP|||||||||||||||||||||||||||||||||||||||||||RA:61|RA:61-Rain|1|FM15-METAR|223|ICAO-KTSP|||||||||||||||||||||||||1016.9||1|FM15-METAR|223|ICAO-KTSP|||||||SCT:04|04-Four-ok|4|FM15-METAR|223|ICAO-KTSP|||||||OVC:08|08-Eight-o|4|FM15-METAR|223|ICAO-KTSP|||||||||||||||||||MET075METAR KTSP 110455Z AUTO 10008KT 4SM -RA SCT013 OVC033 02/M01 A3003 RMK AO2;||F||223|ICAO-KTSP
USW00000479|TEHACHAPI MUNI AP|2009|12|11|05|15|35.1350|-118.4392|1219.5|2.0||1|FM15-METAR|223|ICAO-KTSP|0.0||1|FM15-METAR|223|ICAO-KTSP|||||||||||||120|N-Normal|1|FM15-METAR|223|ICAO-KTSP|3.1|N-Normal|1|FM15-METAR|223|ICAO-KTSP|||||||||||||87|Derived||FM15-METAR|223|ICAO-KTSP|||||||||||||||||||||||||||||||||||||||||||RA:61|RA:61-Rain|1|FM15-METAR|223|ICAO-KTSP|||||||||||||||||||||||||1016.9||1|FM15-METAR|223|ICAO-KTSP|||||||FEW:02|02-Two-okt|4|FM15-METAR|223|ICAO-KTSP|||||||SCT:04|04-Four-ok|4|FM15-METAR|223|ICAO-KTSP|||||||||||||||||||MET081METAR KTSP 110515Z AUTO 12006KT 5SM -RA FEW013 SCT023 BKN027 02/00 A3003 RMK AO2;||F||223|ICAO-KTSP
USW00000479|TEHACHAPI MUNI AP|2009|12|11|05|35|35.1350|-118.4392|1219.5|2.0||1|FM15-METAR|223|ICAO-KTSP|0.0||1|FM15-METAR|223|ICAO-KTSP|||||||||||||110|N-Normal|1|FM15-METAR|223|ICAO-KTSP|3.6|N-Normal|1|FM15-METAR|223|ICAO-KTSP|||||||||||||87|Derived||FM15-METAR|223|ICAO-KTSP|||||||||||||||||||||||||||||||||||||||||||RA:61|RA:61-Rain|1|FM15-METAR|223|ICAO-KTSP|||||||||||||||||||||||||1016.9||1|FM15-METAR|223|ICAO-KTSP|||||||BKN:07|07-Seven-o|4|FM15-METAR|223|ICAO-KTSP|||||||BKN:07|07-Seven-o|4|FM15-METAR|223|ICAO-KTSP|||||||||||||||||||MET081METAR KTSP 110535Z AUTO 11007KT 5SM -RA BKN017 BKN023 OVC038 02/00 A3003 RMK AO2;||F||223|ICAO-KTSP
USW00000479|TEHACHAPI MUNI AP|2009|12|11|06|00|35.1350|-118.4392|1219.5|2.0||1|FM15-METAR|223|ICAO-KTSP|0.0||1|FM15-METAR|223|ICAO-KTSP|||||||||||||120|N-Normal|1|FM15-METAR|223|ICAO-KTSP|4.6|N-Normal|1|FM15-METAR|223|ICAO-KTSP|||||||||||||87|Derived||FM15-METAR|223|ICAO-KTSP|||||||||||||||||||||||||||||||||||||||||||RA:61|RA:61-Rain|1|FM15-METAR|223|ICAO-KTSP|||||||||||||||||||||||||1017.3||1|FM15-METAR|223|ICAO-KTSP|||||||SCT:04|04-Four-ok|4|FM15-METAR|223|ICAO-KTSP|||||||BKN:07|07-Seven-o|4|FM15-METAR|223|ICAO-KTSP|||||||||||||||||||MET081METAR KTSP 110555Z AUTO 12009KT 7SM -RA SCT015 BKN028 OVC035 02/00 A3004 RMK AO2;||F||223|ICAO-KTSP
USW00000479|TEHACHAPI MUNI AP|2009|12|11|06|15|35.1350|-118.4392|1219.5|1.0||1|FM15-METAR|223|ICAO-KTSP|0.0||1|FM15-METAR|223|ICAO-KTSP|||||||||||||100|N-Normal|1|FM15-METAR|223|ICAO-KTSP|5.7|N-Normal|1|FM15-METAR|223|ICAO-KTSP|||||||||||||93|Derived||FM15-METAR|223|ICAO-KTSP|||||||||||||||||||||||||||||||||||||||||||RA:61|RA:61-Rain|1|FM15-METAR|223|ICAO-KTSP|||||||||||||||||||||||||1017.3||1|FM15-METAR|223|ICAO-KTSP|||||||SCT:04|04-Four-ok|4|FM15-METAR|223|ICAO-KTSP|||||||BKN:07|07-Seven-o|4|FM15-METAR|223|ICAO-KTSP|||||||||||||||||||MET081METAR KTSP 110615Z AUTO 10011KT 5SM -RA SCT028 BKN038 OVC046 01/00 A3004 RMK AO2;||F||223|ICAO-KTSP
USW00000479|TEHACHAPI MUNI AP|2009|12|11|06|35|35.1350|-118.4392|1219.5|2.0||1|FM15-METAR|223|ICAO-KTSP|0.0||1|FM15-METAR|223|ICAO-KTSP|||||||||||||090|N-Normal|1|FM15-METAR|223|ICAO-KTSP|4.6|N-Normal|1|FM15-METAR|223|ICAO-KTSP|||||||0.5|9-Missing|9|FM15-METAR|223|ICAO-KTSP|87|Derived||FM15-METAR|223|ICAO-KTSP|||||||||||||||||||||||||||||||||||||||||||RA:61|RA:61-Rain|1|FM15-METAR|223|ICAO-KTSP|||||||||||||||||||||||||1017.3||1|FM15-METAR|223|ICAO-KTSP|||||||FEW:02|02-Two-okt|4|FM15-METAR|223|ICAO-KTSP|||||||BKN:07|07-Seven-o|4|FM15-METAR|223|ICAO-KTSP|||||||||||||||||||MET087METAR KTSP 110635Z AUTO 09009KT 3SM -RA FEW021 BKN030 OVC035 02/00 A3004 RMK AO2 P0002;||F||223|ICAO-KTSP
USW00000479|TEHACHAPI MUNI AP|2009|12|11|07|00|35.1350|-118.4392|1219.5|1.0||1|FM15-METAR|223|ICAO-KTSP|0.0||1|FM15-METAR|223|ICAO-KTSP|||||||||||||120|N-Normal|1|FM15-METAR|223|ICAO-KTSP|4.6|N-Normal|1|FM15-METAR|223|ICAO-KTSP|||||||1.8|9-Missing|9|FM15-METAR|223|ICAO-KTSP|93|Derived||FM15-METAR|223|ICAO-KTSP|||||||||||||||||||||||||||||||||||||||||||RA:62|RA:62-Rain|1|FM15-METAR|223|ICAO-KTSP|||||||||||||||||||||||||1016.9||1|FM15-METAR|223|ICAO-KTSP|||||||SCT:04|04-Four-ok|4|FM15-METAR|223|ICAO-KTSP|||||||BKN:07|07-Seven-o|4|FM15-METAR|223|ICAO-KTSP|||||||||||||||||||MET090METAR KTSP 110655Z AUTO 12009KT 2 1/2SM RA SCT018 BKN022 OVC028 01/00 A3003 RMK AO2 P0007;||F||223|ICAO-KTSP
USW00000479|TEHACHAPI MUNI AP|2009|12|11|07|15|35.1350|-118.4392|1219.5|1.0||1|FM15-METAR|223|ICAO-KTSP|0.0||1|FM15-METAR|223|ICAO-KTSP|||||||||||||140|N-Normal|1|FM15-METAR|223|ICAO-KTSP|4.1|N-Normal|1|FM15-METAR|223|ICAO-KTSP|||||||||||||93|Derived||FM15-METAR|223|ICAO-KTSP|||||||||||||||||||||||||||||||||||||||||||RA:61|RA:61-Rain|1|FM15-METAR|223|ICAO-KTSP|||||||||||||||||||||||||1016.9||1|FM15-METAR|223|ICAO-KTSP|||||||SCT:04|04-Four-ok|4|FM15-METAR|223|ICAO-KTSP|||||||BKN:07|07-Seven-o|4|FM15-METAR|223|ICAO-KTSP|||||||||||||||||||MET081METAR KTSP 110715Z AUTO 14008KT 3SM -RA SCT020 BKN030 OVC043 01/00 A3003 RMK AO2;||F||223|ICAO-KTSP
USW00000479|TEHACHAPI MUNI AP|2009|12|11|07|35|35.1350|-118.4392|1219.5|1.0||1|FM15-METAR|223|ICAO-KTSP|0.0||1|FM15-METAR|223|ICAO-KTSP|||||||||||||120|N-Normal|1|FM15-METAR|223|ICAO-KTSP|4.6|N-Normal|1|FM15-METAR|223|ICAO-KTSP|||||||0.3|9-Missing|9|FM15-METAR|223|ICAO-KTSP|93|Derived||FM15-METAR|223|ICAO-KTSP|||||||||||||||||||||||||||||||||||||||||||RA:61|RA:61-Rain|1|FM15-METAR|223|ICAO-KTSP|||||||||||||||||||||||||1017.3||1|FM15-METAR|223|ICAO-KTSP|||||||FEW:02|02-Two-okt|4|FM15-METAR|223|ICAO-KTSP|||||||SCT:04|04-Four-ok|4|FM15-METAR|223|ICAO-KTSP|||||||||||||||||||MET091METAR KTSP 110735Z AUTO 12009KT 2 1/2SM -RA FEW011 SCT020 BKN033 01/00 A3004 RMK AO2 P0001;||F||223|ICAO-KTSP
USW00000479|TEHACHAPI MUNI AP|2009|12|11|08|00|35.1350|-118.4392|1219.5|1.0||1|FM15-METAR|223|ICAO-KTSP|0.0||1|FM15-METAR|223|ICAO-KTSP|||||||||||||120|N-Normal|1|FM15-METAR|223|ICAO-KTSP|5.1|N-Normal|1|FM15-METAR|223|ICAO-KTSP|||||||1.0|9-Missing|9|FM15-METAR|223|ICAO-KTSP|93|Derived||FM15-METAR|223|ICAO-KTSP|||||||||||||||||||||||||||||||||||||||||||RA:61|RA:61-Rain|1|FM15-METAR|223|ICAO-KTSP|||||||||||||||||||||||||1016.6||1|FM15-METAR|223|ICAO-KTSP|||||||FEW:02|02-Two-okt|4|FM15-METAR|223|ICAO-KTSP|||||||SCT:04|04-Four-ok|4|FM15-METAR|223|ICAO-KTSP|||||||||||||||||||MET087METAR KTSP 110755Z AUTO 12010KT 3SM -RA FEW008 SCT020 BKN031 01/00 A3002 RMK AO2 P0004;||F||223|ICAO-KTSP
USW00000479|TEHACHAPI MUNI AP|2009|12|11|08|15|35.1350|-118.4392|1219.5|1.0||1|FM15-METAR|223|ICAO-KTSP|0.0||1|FM15-METAR|223|ICAO-KTSP|||||||||||||130|N-Normal|1|FM15-METAR|223|ICAO-KTSP|6.2|N-Normal|1|FM15-METAR|223|ICAO-KTSP|||||||||||||93|Derived||FM15-METAR|223|ICAO-KTSP|||||||||||||||||||||||||||||||||||||||||||BR:10|BR:10-Mist|1|FM15-METAR|223|ICAO-KTSP|||||||||||||||||||||||||1016.6||1|FM15-METAR|223|ICAO-KTSP|||||||BKN:07|07-Seven-o|4|FM15-METAR|223|ICAO-KTSP|||||||BKN:07|07-Seven-o|4|FM15-METAR|223|ICAO-KTSP|||||||||||||||||||MET073METAR KTSP 110815Z AUTO 13012KT 5SM BR BKN040 BKN055 01/00 A3002 RMK AO2;||F||223|ICAO-KTSP
USW00000479|TEHACHAPI MUNI AP|2009|12|11|08|35|35.1350|-118.4392|1219.5|1.0||1|FM15-METAR|223|ICAO-KTSP|0.0||1|FM15-METAR|223|ICAO-KTSP|||||||||||||120|N-Normal|1|FM15-METAR|223|ICAO-KTSP|4.6|N-Normal|1|FM15-METAR|223|ICAO-KTSP|||||||||||||93|Derived||FM15-METAR|223|ICAO-KTSP|||||||||||||||||||||||||||||||||||||||||||BR:10|BR:10-Mist|1|FM15-METAR|223|ICAO-KTSP|||||||||||||||||||||||||1015.9||1|FM15-METAR|223|ICAO-KTSP|||||||BKN:07|07-Seven-o|4|FM15-METAR|223|ICAO-KTSP|||||||BKN:07|07-Seven-o|4|FM15-METAR|223|ICAO-KTSP|||||||||||||||||||MET073METAR KTSP 110835Z AUTO 12009KT 5SM BR BKN042 BKN050 01/00 A3000 RMK AO2;||F||223|ICAO-KTSP
USW00000479|TEHACHAPI MUNI AP|2009|12|11|09|00|35.1350|-118.4392|1219.5|1.0||1|FM15-METAR|223|ICAO-KTSP|0.0||1|FM15-METAR|223|ICAO-KTSP|||||||||||||140|N-Normal|1|FM15-METAR|223|ICAO-KTSP|5.7|N-Normal|1|FM15-METAR|223|ICAO-KTSP|||||||||||||93|Derived||FM15-METAR|223|ICAO-KTSP|||||||||||||||||||||||||||||||||||||||||||BR:10|BR:10-Mist|1|FM15-METAR|223|ICAO-KTSP|||||||||||||||||||||||||1015.9||1|FM15-METAR|223|ICAO-KTSP|||||||FEW:02|02-Two-okt|4|FM15-METAR|223|ICAO-KTSP|||||||SCT:04|04-Four-ok|4|FM15-METAR|223|ICAO-KTSP|||||||||||||||||||MET073METAR KTSP 110855Z AUTO 14011KT 5SM BR FEW042 SCT070 01/00 A3000 RMK AO2;||F||223|ICAO-KTSP
USW00000479|TEHACHAPI MUNI AP|2009|12|11|09|15|35.1350|-118.4392|1219.5|0.0||1|FM15-METAR|223|ICAO-KTSP|0.0||1|FM15-METAR|223|ICAO-KTSP|||||||||||||140|N-Normal|1|FM15-METAR|223|ICAO-KTSP|2.6|N-Normal|1|FM15-METAR|223|ICAO-KTSP|||||||||||||100|Derived||FM15-METAR|223|ICAO-KTSP|||||||||||||||||||||||||||||||||||||||||||BR:10|BR:10-Mist|1|FM15-METAR|223|ICAO-KTSP|||||||||||||||||||||||||1015.9||1|FM15-METAR|223|ICAO-KTSP|||||||||||||||||||||||||||||||||||||||||||MET063METAR KTSP 110915Z AUTO 14005KT 5SM BR CLR 00/00 A3000 RMK AO2;||F||223|ICAO-KTSP
USW00000479|TEHACHAPI MUNI AP|2009|12|11|09|35|35.1350|-118.4392|1219.5|1.0||1|FM15-METAR|223|ICAO-KTSP|0.0||1|FM15-METAR|223|ICAO-KTSP|||||||||||||090|N-Normal|1|FM15-METAR|223|ICAO-KTSP|3.1|N-Normal|1|FM15-METAR|223|ICAO-KTSP|||||||||||||93|Derived||FM15-METAR|223|ICAO-KTSP|||||||||||||||||||||||||||||||||||||||||||BR:10|BR:10-Mist|1|FM15-METAR|223|ICAO-KTSP|||||||||||||||||||||||||1015.9||1|FM15-METAR|223|ICAO-KTSP|||||||||||||||||||||||||||||||||||||||||||MET063METAR KTSP 110935Z AUTO 09006KT 5SM BR CLR 01/00 A3000 RMK AO2;||F||223|ICAO-KTSP
USW00000479|TEHACHAPI MUNI AP|2009|12|11|10|00|35.1350|-118.4392|1219.5|1.0||1|FM15-METAR|223|ICAO-KTSP|0.0||1|FM15-METAR|223|ICAO-KTSP|||||||||||||110|N-Normal|1|FM15-METAR|223|ICAO-KTSP|5.1|N-Normal|1|FM15-METAR|223|ICAO-KTSP|||||||||||||93|Derived||FM15-METAR|223|ICAO-KTSP|||||||||||||||||||||||||||||||||||||||||||BR:10|BR:10-Mist|1|FM15-METAR|223|ICAO-KTSP|||||||||||||||||||||||||1015.9||1|FM15-METAR|223|ICAO-KTSP|||||||BKN:07|07-Seven-o|4|FM15-METAR|223|ICAO-KTSP|||||||||||||||||||||||||||||||MET066METAR KTSP 110955Z AUTO 11010KT 5SM BR BKN046 01/00 A3000 RMK AO2;||F||223|ICAO-KTSP
USW00000479|TEHACHAPI MUNI AP|2009|12|11|10|15|35.1350|-118.4392|1219.5|2.0||1|FM15-METAR|223|ICAO-KTSP|1.0||1|FM15-METAR|223|ICAO-KTSP|||||||||||||110|N-Normal|1|FM15-METAR|223|ICAO-KTSP|5.1|N-Normal|1|FM15-METAR|223|ICAO-KTSP|||||||||||||93|Derived||FM15-METAR|223|ICAO-KTSP|||||||||||||||||||||||||||||||||||||||||||BR:10|BR:10-Mist|1|FM15-METAR|223|ICAO-KTSP|||||||||||||||||||||||||1015.9||1|FM15-METAR|223|ICAO-KTSP|||||||OVC:08|08-Eight-o|4|FM15-METAR|223|ICAO-KTSP|||||||||||||||||||||||||||||||MET066METAR KTSP 111015Z AUTO 11010KT 5SM BR OVC042 02/01 A3000 RMK AO2;||F||223|ICAO-KTSP
USW00000479|TEHACHAPI MUNI AP|2009|12|11|10|35|35.1350|-118.4392|1219.5|1.0||1|FM15-METAR|223|ICAO-KTSP|0.0||1|FM15-METAR|223|ICAO-KTSP|||||||||||||110|N-Normal|1|FM15-METAR|223|ICAO-KTSP|5.7|N-Normal|1|FM15-METAR|223|ICAO-KTSP|||||||||||||93|Derived||FM15-METAR|223|ICAO-KTSP|||||||||||||||||||||||||||||||||||||||||||BR:10|BR:10-Mist|1|FM15-METAR|223|ICAO-KTSP|||||||||||||||||||||||||1015.9||1|FM15-METAR|223|ICAO-KTSP|||||||OVC:08|08-Eight-o|4|FM15-METAR|223|ICAO-KTSP|||||||||||||||||||||||||||||||MET066METAR KTSP 111035Z AUTO 11011KT 5SM BR OVC038 01/00 A3000 RMK AO2;||F||223|ICAO-KTSP
USW00000479|TEHACHAPI MUNI AP|2009|12|11|11|00|35.1350|-118.4392|1219.5|0.0||1|FM15-METAR|223|ICAO-KTSP|0.0||1|FM15-METAR|223|ICAO-KTSP|||||||||||||120|N-Normal|1|FM15-METAR|223|ICAO-KTSP|5.1|N-Normal|1|FM15-METAR|223|ICAO-KTSP|||||||||||||100|Derived||FM15-METAR|223|ICAO-KTSP|||||||||||||||||||||||||||||||||||||||||||BR:10|BR:10-Mist|1|FM15-METAR|223|ICAO-KTSP|||||||||||||||||||||||||1015.9||1|FM15-METAR|223|ICAO-KTSP|||||||OVC:08|08-Eight-o|4|FM15-METAR|223|ICAO-KTSP|||||||||||||||||||||||||||||||MET066METAR KTSP 111055Z AUTO 12010KT 5SM BR OVC036 00/00 A3000 RMK AO2;||F||223|ICAO-KTSP
USW00000479|TEHACHAPI MUNI AP|2009|12|11|11|15|35.1350|-118.4392|1219.5|0.0||1|FM15-METAR|223|ICAO-KTSP|0.0||1|FM15-METAR|223|ICAO-KTSP|||||||||||||130|N-Normal|1|FM15-METAR|223|ICAO-KTSP|4.6|N-Normal|1|FM15-METAR|223|ICAO-KTSP|||||||||||||100|Derived||FM15-METAR|223|ICAO-KTSP|||||||||||||||||||||||||||||||||||||||||||BR:10|BR:10-Mist|1|FM15-METAR|223|ICAO-KTSP|||||||||||||||||||||||||1015.6||1|FM15-METAR|223|ICAO-KTSP|||||||BKN:07|07-Seven-o|4|FM15-METAR|223|ICAO-KTSP|||||||||||||||||||||||||||||||MET066METAR KTSP 111115Z AUTO 13009KT 4SM BR BKN036 00/00 A2999 RMK AO2;||F||223|ICAO-KTSP
USW00000479|TEHACHAPI MUNI AP|2009|12|11|11|35|35.1350|-118.4392|1219.5|0.0||1|FM15-METAR|223|ICAO-KTSP|0.0||1|FM15-METAR|223|ICAO-KTSP|||||||||||||120|N-Normal|1|FM15-METAR|223|ICAO-KTSP|4.6|N-Normal|1|FM15-METAR|223|ICAO-KTSP|||||||||||||100|Derived||FM15-METAR|223|ICAO-KTSP|||||||||||||||||||||||||||||||||||||||||||BR:10|BR:10-Mist|1|FM15-METAR|223|ICAO-KTSP|||||||||||||||||||||||||1015.6||1|FM15-METAR|223|ICAO-KTSP|||||||FEW:02|02-Two-okt|4|FM15-METAR|223|ICAO-KTSP|||||||||||||||||||||||||||||||MET066METAR KTSP 111135Z AUTO 12009KT 3SM BR FEW036 00/00 A2999 RMK AO2;||F||223|ICAO-KTSP
USW00000479|TEHACHAPI MUNI AP|2009|12|11|12|00|35.1350|-118.4392|1219.5|0.0||1|FM15-METAR|223|ICAO-KTSP|0.0||1|FM15-METAR|223|ICAO-KTSP|||||||||||||120|N-Normal|1|FM15-METAR|223|ICAO-KTSP|4.1|N-Normal|1|FM15-METAR|223|ICAO-KTSP|||||||||||||100|Derived||FM15-METAR|223|ICAO-KTSP|||||||||||||||||||||||||||||||||||||||||||BR:10|BR:10-Mist|1|FM15-METAR|223|ICAO-KTSP|||||||||||||||||||||||||1015.6||1|FM15-METAR|223|ICAO-KTSP|||||||||||||||||||||||||||||||||||||||||||MET063METAR KTSP 111155Z AUTO 12008KT 3SM BR CLR 00/00 A2999 RMK AO2;||F||223|ICAO-KTSP
USW00000479|TEHACHAPI MUNI AP|2009|12|11|12|15|35.1350|-118.4392|1219.5|0.0||1|FM15-METAR|223|ICAO-KTSP|0.0||1|FM15-METAR|223|ICAO-KTSP|||||||||||||110|N-Normal|1|FM15-METAR|223|ICAO-KTSP|4.1|N-Normal|1|FM15-METAR|223|ICAO-KTSP|||||||||||||100|Derived||FM15-METAR|223|ICAO-KTSP|||||||||||||||||||||||||||||||||||||||||||BR:10|BR:10-Mist|1|FM15-METAR|223|ICAO-KTSP|||||||||||||||||||||||||1015.6||1|FM15-METAR|223|ICAO-KTSP|||||||SCT:04|04-Four-ok|4|FM15-METAR|223|ICAO-KTSP|||||||SCT:04|04-Four-ok|4|FM15-METAR|223|ICAO-KTSP|||||||||||||||||||MET073METAR KTSP 111215Z AUTO 11008KT 3SM BR SCT003 SCT055 00/00 A2999 RMK AO2;||F||223|ICAO-KTSP
USW00000479|TEHACHAPI MUNI AP|2009|12|11|12|35|35.1350|-118.4392|1219.5|0.0||1|FM15-METAR|223|ICAO-KTSP|0.0||1|FM15-METAR|223|ICAO-KTSP|||||||||||||110|N-Normal|1|FM15-METAR|223|ICAO-KTSP|4.6|N-Normal|1|FM15-METAR|223|ICAO-KTSP|||||||||||||100|Derived||FM15-METAR|223|ICAO-KTSP|||||||||||||||||||||||||||||||||||||||||||BR:10|BR:10-Mist|1|FM15-METAR|223|ICAO-KTSP|||||||||||||||||||||||||1015.2||1|FM15-METAR|223|ICAO-KTSP|||||||BKN:07|07-Seven-o|4|FM15-METAR|223|ICAO-KTSP|||||||||||||||||||||||||||||||MET066METAR KTSP 111235Z AUTO 11009KT 3SM BR BKN003 00/00 A2998 RMK AO2;||F||223|ICAO-KTSP
USW00000479|TEHACHAPI MUNI AP|2009|12|11|13|00|35.1350|-118.4392|1219.5|0.0||1|FM15-METAR|223|ICAO-KTSP|0.0||1|FM15-METAR|223|ICAO-KTSP|||||||||||||120|N-Normal|1|FM15-METAR|223|ICAO-KTSP|3.6|N-Normal|1|FM15-METAR|223|ICAO-KTSP|||||||||||||100|Derived||FM15-METAR|223|ICAO-KTSP|||||||||||||||||||||||||||||||||||||||||||BR:10|BR:10-Mist|1|FM15-METAR|223|ICAO-KTSP|||||||||||||||||||||||||1015.6||1|FM15-METAR|223|ICAO-KTSP|||||||BKN:07|07-Seven-o|4|FM15-METAR|223|ICAO-KTSP|||||||||||||||||||||||||||||||MET070METAR KTSP 111255Z AUTO 12007KT 2 1/2SM BR BKN002 00/00 A2999 RMK AO2;||F||223|ICAO-KTSP
USW00000479|TEHACHAPI MUNI AP|2009|12|11|13|15|35.1350|-118.4392|1219.5|0.0||1|FM15-METAR|223|ICAO-KTSP|0.0||1|FM15-METAR|223|ICAO-KTSP|||||||||||||120|N-Normal|1|FM15-METAR|223|ICAO-KTSP|3.1|N-Normal|1|FM15-METAR|223|ICAO-KTSP|||||||||||||100|Derived||FM15-METAR|223|ICAO-KTSP|||||||||||||||||||||||||||||||||||||||||||BR:10|BR:10-Mist|1|FM15-METAR|223|ICAO-KTSP|||||||||||||||||||||||||1015.6||1|FM15-METAR|223|ICAO-KTSP|||||||BKN:07|07-Seven-o|4|FM15-METAR|223|ICAO-KTSP|||||||OVC:08|08-Eight-o|4|FM15-METAR|223|ICAO-KTSP|||||||||||||||||||MET077METAR KTSP 111315Z AUTO 12006KT 2 1/2SM BR BKN002 OVC050 00/00 A2999 RMK AO2;||F||223|ICAO-KTSP
USW00000479|TEHACHAPI MUNI AP|2009|12|11|13|35|35.1350|-118.4392|1219.5|0.0||1|FM15-METAR|223|ICAO-KTSP|0.0||1|FM15-METAR|223|ICAO-KTSP|||||||||||||999|C-Calm|9|FM15-METAR|223|ICAO-KTSP|0.0|C-Calm|1|FM15-METAR|223|ICAO-KTSP|||||||||||||100|Derived||FM15-METAR|223|ICAO-KTSP|||||||||||||||||||||||||||||||||||||||||||BR:10|BR:10-Mist|1|FM15-METAR|223|ICAO-KTSP|||||||||||||||||||||||||1015.9||1|FM15-METAR|223|ICAO-KTSP|||||||BKN:07|07-Seven-o|4|FM15-METAR|223|ICAO-KTSP|||||||OVC:08|08-Eight-o|4|FM15-METAR|223|ICAO-KTSP|||||||||||||||||||MET073METAR KTSP 111335Z AUTO 00000KT 2SM BR BKN003 OVC044 00/00 A3000 RMK AO2;||F||223|ICAO-KTSP
USW00000479|TEHACHAPI MUNI AP|2009|12|11|14|00|35.1350|-118.4392|1219.5|0.0||1|FM15-METAR|223|ICAO-KTSP|0.0||1|FM15-METAR|223|ICAO-KTSP|||||||||||||110|N-Normal|1|FM15-METAR|223|ICAO-KTSP|1.5|N-Normal|1|FM15-METAR|223|ICAO-KTSP|||||||||||||100|Derived||FM15-METAR|223|ICAO-KTSP|||||||||||||||||||||||||||||||||||||||||||BR:10|BR:10-Mist|1|FM15-METAR|223|ICAO-KTSP|||||||||||||||||||||||||1015.9||1|FM15-METAR|223|ICAO-KTSP|||||||OVC:08|08-Eight-o|4|FM15-METAR|223|ICAO-KTSP|||||||||||||||||||||||||||||||MET066METAR KTSP 111355Z AUTO 11003KT 3SM BR OVC040 00/00 A3000 RMK AO2;||F||223|ICAO-KTSP
USW00000479|TEHACHAPI MUNI AP|2009|12|11|14|15|35.1350|-118.4392|1219.5|0.0||1|FM15-METAR|223|ICAO-KTSP|0.0||1|FM15-METAR|223|ICAO-KTSP|||||||||||||999|C-Calm|9|FM15-METAR|223|ICAO-KTSP|0.0|C-Calm|1|FM15-METAR|223|ICAO-KTSP|||||||||||||100|Derived||FM15-METAR|223|ICAO-KTSP|||||||||||||||||||||||||||||||||||||||||||BR:10|BR:10-Mist|1|FM15-METAR|223|ICAO-KTSP|||||||||||||||||||||||||1016.3||1|FM15-METAR|223|ICAO-KTSP|||||||FEW:02|02-Two-okt|4|FM15-METAR|223|ICAO-KTSP|||||||OVC:08|08-Eight-o|4|FM15-METAR|223|ICAO-KTSP|||||||||||||||||||MET073METAR KTSP 111415Z AUTO 00000KT 3SM BR FEW004 OVC037 00/00 A3001 RMK AO2;||F||223|ICAO-KTSP
USW00000479|TEHACHAPI MUNI AP|2009|12|11|14|35|35.1350|-118.4392|1219.5|0.0||1|FM15-METAR|223|ICAO-KTSP|0.0||1|FM15-METAR|223|ICAO-KTSP|||||||||||||140|N-Normal|1|FM15-METAR|223|ICAO-KTSP|1.5|N-Normal|1|FM15-METAR|223|ICAO-KTSP|||||||||||||100|Derived||FM15-METAR|223|ICAO-KTSP|||||||||||||||||||||||||||||||||||||||||||BR:10|BR:10-Mist|1|FM15-METAR|223|ICAO-KTSP|||||||||||||||||||||||||1016.3||1|FM15-METAR|223|ICAO-KTSP|||||||SCT:04|04-Four-ok|4|FM15-METAR|223|ICAO-KTSP|||||||OVC:08|08-Eight-o|4|FM15-METAR|223|ICAO-KTSP|||||||||||||||||||MET073METAR KTSP 111435Z AUTO 14003KT 3SM BR SCT004 OVC035 00/00 A3001 RMK AO2;||F||223|ICAO-KTSP
USW00000479|TEHACHAPI MUNI AP|2009|12|11|15|00|35.1350|-118.4392|1219.5|0.0||1|FM15-METAR|223|ICAO-KTSP|0.0||1|FM15-METAR|223|ICAO-KTSP|||||||||||||999|C-Calm|9|FM15-METAR|223|ICAO-KTSP|0.0|C-Calm|1|FM15-METAR|223|ICAO-KTSP|||||||||||||100|Derived||FM15-METAR|223|ICAO-KTSP|||||||||||||||||||||||||||||||||||||||||||BR:10|BR:10-Mist|1|FM15-METAR|223|ICAO-KTSP|||||||||||||||||||||||||1016.3||1|FM15-METAR|223|ICAO-KTSP|||||||FEW:02|02-Two-okt|4|FM15-METAR|223|ICAO-KTSP|||||||BKN:07|07-Seven-o|4|FM15-METAR|223|ICAO-KTSP|||||||||||||||||||MET077METAR KTSP 111455Z AUTO 00000KT 2 1/2SM BR FEW004 BKN032 00/00 A3001 RMK AO2;||F||223|ICAO-KTSP
USW00000479|TEHACHAPI MUNI AP|2009|12|11|15|15|35.1350|-118.4392|1219.5|0.0||1|FM15-METAR|223|ICAO-KTSP|0.0||1|FM15-METAR|223|ICAO-KTSP|||||||||||||130|N-Normal|1|FM15-METAR|223|ICAO-KTSP|2.1|N-Normal|1|FM15-METAR|223|ICAO-KTSP|||||||||||||100|Derived||FM15-METAR|223|ICAO-KTSP|||||||||||||||||||||||||||||||||||||||||||BR:10|BR:10-Mist|1|FM15-METAR|223|ICAO-KTSP|||||||||||||||||||||||||1016.3||1|FM15-METAR|223|ICAO-KTSP|||||||BKN:07|07-Seven-o|4|FM15-METAR|223|ICAO-KTSP|||||||BKN:07|07-Seven-o|4|FM15-METAR|223|ICAO-KTSP|||||||||||||||||||MET073METAR KTSP 111515Z AUTO 13004KT 2SM BR BKN034 BKN060 00/00 A3001 RMK AO2;||F||223|ICAO-KTSP
USW00000479|TEHACHAPI MUNI AP|2009|12|11|15|35|35.1350|-118.4392|1219.5|1.0||1|FM15-METAR|223|ICAO-KTSP|1.0||1|FM15-METAR|223|ICAO-KTSP|||||||||||||140|N-Normal|1|FM15-METAR|223|ICAO-KTSP|2.6|N-Normal|1|FM15-METAR|223|ICAO-KTSP|||||||||||||100|Derived||FM15-METAR|223|ICAO-KTSP|||||||||||||||||||||||||||||||||||||||||||BR:10|BR:10-Mist|1|FM15-METAR|223|ICAO-KTSP|||||||||||||||||||||||||1016.3||1|FM15-METAR|223|ICAO-KTSP|||||||BKN:07|07-Seven-o|4|FM15-METAR|223|ICAO-KTSP|||||||BKN:07|07-Seven-o|4|FM15-METAR|223|ICAO-KTSP|||||||||||||||||||MET073METAR KTSP 111535Z AUTO 14005KT 3SM BR BKN031 BKN060 01/01 A3001 RMK AO2;||F||223|ICAO-KTSP
USW00000479|TEHACHAPI MUNI AP|2009|12|11|16|00|35.1350|-118.4392|1219.5|2.0||1|FM15-METAR|223|ICAO-KTSP|2.0||1|FM15-METAR|223|ICAO-KTSP|||||||||||||110|N-Normal|1|FM15-METAR|223|ICAO-KTSP|1.5|N-Normal|1|FM15-METAR|223|ICAO-KTSP|||||||||||||100|Derived||FM15-METAR|223|ICAO-KTSP|||||||||||||||||||||||||||||||||||||||||||BR:10|BR:10-Mist|1|FM15-METAR|223|ICAO-KTSP|||||||||||||||||||||||||1016.6||1|FM15-METAR|223|ICAO-KTSP|||||||FEW:02|02-Two-okt|4|FM15-METAR|223|ICAO-KTSP|||||||OVC:08|08-Eight-o|4|FM15-METAR|223|ICAO-KTSP|||||||||||||||||||MET077METAR KTSP 111555Z AUTO 11003KT 2 1/2SM BR FEW031 OVC036 02/02 A3002 RMK AO2;||F||223|ICAO-KTSP
USW00000479|TEHACHAPI MUNI AP|2009|12|11|16|15|35.1350|-118.4392|1219.5|2.0||1|FM15-METAR|223|ICAO-KTSP|2.0||1|FM15-METAR|223|ICAO-KTSP|||||||||||||999|C-Calm|9|FM15-METAR|223|ICAO-KTSP|0.0|C-Calm|1|FM15-METAR|223|ICAO-KTSP|||||||||||||100|Derived||FM15-METAR|223|ICAO-KTSP|||||||||||||||||||||||||||||||||||||||||||BR:10|BR:10-Mist|1|FM15-METAR|223|ICAO-KTSP|||||||||||||||||||||||||1017.3||1|FM15-METAR|223|ICAO-KTSP|||||||OVC:08|08-Eight-o|4|FM15-METAR|223|ICAO-KTSP|||||||||||||||||||||||||||||||MET066METAR KTSP 111615Z AUTO 00000KT 3SM BR OVC036 02/02 A3004 RMK AO2;||F||223|ICAO-KTSP
USW00000479|TEHACHAPI MUNI AP|2009|12|11|16|35|35.1350|-118.4392|1219.5|2.0||1|FM15-METAR|223|ICAO-KTSP|2.0||1|FM15-METAR|223|ICAO-KTSP|||||||||||||999|C-Calm|9|FM15-METAR|223|ICAO-KTSP|0.0|C-Calm|1|FM15-METAR|223|ICAO-KTSP|||||||||||||100|Derived||FM15-METAR|223|ICAO-KTSP|||||||||||||||||||||||||||||||||||||||||||BR:10|BR:10-Mist|1|FM15-METAR|223|ICAO-KTSP|||||||||||||||||||||||||1017.3||1|FM15-METAR|223|ICAO-KTSP|||||||OVC:08|08-Eight-o|4|FM15-METAR|223|ICAO-KTSP|||||||||||||||||||||||||||||||MET066METAR KTSP 111635Z AUTO 00000KT 3SM BR OVC037 02/02 A3004 RMK AO2;||F||223|ICAO-KTSP
USW00000479|TEHACHAPI MUNI AP|2009|12|11|17|00|35.1350|-118.4392|1219.5|3.0||1|FM15-METAR|223|ICAO-KTSP|3.0||1|FM15-METAR|223|ICAO-KTSP|||||||||||||130|N-Normal|1|FM15-METAR|223|ICAO-KTSP|3.1|N-Normal|1|FM15-METAR|223|ICAO-KTSP|||||||||||||100|Derived||FM15-METAR|223|ICAO-KTSP|||||||||||||||||||||||||||||||||||||||||||BR:10|BR:10-Mist|1|FM15-METAR|223|ICAO-KTSP|||||||||||||||||||||||||1017.3||1|FM15-METAR|223|ICAO-KTSP|||||||OVC:08|08-Eight-o|4|FM15-METAR|223|ICAO-KTSP|||||||||||||||||||||||||||||||MET066METAR KTSP 111655Z AUTO 13006KT 3SM BR OVC037 03/03 A3004 RMK AO2;||F||223|ICAO-KTSP
USW00000479|TEHACHAPI MUNI AP|2009|12|11|17|15|35.1350|-118.4392|1219.5|4.0||1|FM15-METAR|223|ICAO-KTSP|3.0||1|FM15-METAR|223|ICAO-KTSP|||||||||||||120|N-Normal|1|FM15-METAR|223|ICAO-KTSP|2.1|N-Normal|1|FM15-METAR|223|ICAO-KTSP|||||||||||||93|Derived||FM15-METAR|223|ICAO-KTSP|||||||||||||||||||||||||||||||||||||||||||BR:10|BR:10-Mist|1|FM15-METAR|223|ICAO-KTSP|||||||||||||||||||||||||1017.6||1|FM15-METAR|223|ICAO-KTSP|||||||OVC:08|08-Eight-o|4|FM15-METAR|223|ICAO-KTSP|||||||||||||||||||||||||||||||MET066METAR KTSP 111715Z AUTO 12004KT 3SM BR OVC037 04/03 A3005 RMK AO2;||F||223|ICAO-KTSP
USW00000479|TEHACHAPI MUNI AP|2009|12|11|17|35|35.1350|-118.4392|1219.5|4.0||1|FM15-METAR|223|ICAO-KTSP|4.0||1|FM15-METAR|223|ICAO-KTSP|||||||||||||999|C-Calm|9|FM15-METAR|223|ICAO-KTSP|0.0|C-Calm|1|FM15-METAR|223|ICAO-KTSP|||||||||||||100|Derived||FM15-METAR|223|ICAO-KTSP|||||||||||||||||||||||||||||||||||||||||||BR:10|BR:10-Mist|1|FM15-METAR|223|ICAO-KTSP|||||||||||||||||||||||||1017.6||1|FM15-METAR|223|ICAO-KTSP|||||||OVC:08|08-Eight-o|4|FM15-METAR|223|ICAO-KTSP|||||||||||||||||||||||||||||||MET066METAR KTSP 111735Z AUTO 00000KT 5SM BR OVC039 04/04 A3005 RMK AO2;||F||223|ICAO-KTSP
USW00000479|TEHACHAPI MUNI AP|2009|12|11|18|00|35.1350|-118.4392|1219.5|5.0||1|FM15-METAR|223|ICAO-KTSP|4.0||1|FM15-METAR|223|ICAO-KTSP|||||||||||||999|C-Calm|9|FM15-METAR|223|ICAO-KTSP|0.0|C-Calm|1|FM15-METAR|223|ICAO-KTSP|||||||||||||93|Derived||FM15-METAR|223|ICAO-KTSP|||||||||||||||||||||||||||||||||||||||||||BR:10|BR:10-Mist|1|FM15-METAR|223|ICAO-KTSP|||||||||||||||||||||||||1017.3||1|FM15-METAR|223|ICAO-KTSP|||||||SCT:04|04-Four-ok|4|FM15-METAR|223|ICAO-KTSP|||||||||||||||||||||||||||||||MET066METAR KTSP 111755Z AUTO 00000KT 5SM BR SCT039 05/04 A3004 RMK AO2;||F||223|ICAO-KTSP
USW00000479|TEHACHAPI MUNI AP|2009|12|11|18|15|35.1350|-118.4392|1219.5|7.0||1|FM15-METAR|223|ICAO-KTSP|4.0||1|FM15-METAR|223|ICAO-KTSP|||||||||||||999|C-Calm|9|FM15-METAR|223|ICAO-KTSP|0.0|C-Calm|1|FM15-METAR|223|ICAO-KTSP|||||||||||||81|Derived||FM15-METAR|223|ICAO-KTSP|||||||||||||||||||||||||||||||||||||||||||||||||||||||||||||||||||||||||1017.6||1|FM15-METAR|223|ICAO-KTSP|||||||SCT:04|04-Four-ok|4|FM15-METAR|223|ICAO-KTSP|||||||||||||||||||||||||||||||MET063METAR KTSP 111815Z AUTO 00000KT 9SM SCT037 07/04 A3005 RMK AO2;||F||223|ICAO-KTSP
USW00000479|TEHACHAPI MUNI AP|2009|12|11|18|35|35.1350|-118.4392|1219.5|8.0||1|FM15-METAR|223|ICAO-KTSP|4.0||1|FM15-METAR|223|ICAO-KTSP|||||||||||||999|C-Calm|9|FM15-METAR|223|ICAO-KTSP|0.0|C-Calm|1|FM15-METAR|223|ICAO-KTSP|||||||||||||76|Derived||FM15-METAR|223|ICAO-KTSP|||||||||||||||||||||||||||||||||||||||||||||||||||||||||||||||||||||||||1017.3||1|FM15-METAR|223|ICAO-KTSP|||||||SCT:04|04-Four-ok|4|FM15-METAR|223|ICAO-KTSP|||||||OVC:08|08-Eight-o|4|FM15-METAR|223|ICAO-KTSP|||||||||||||||||||MET070METAR KTSP 111835Z AUTO 00000KT 9SM SCT039 OVC060 08/04 A3004 RMK AO2;||F||223|ICAO-KTSP
USW00000479|TEHACHAPI MUNI AP|2009|12|11|19|00|35.1350|-118.4392|1219.5|8.0||1|FM15-METAR|223|ICAO-KTSP|5.0||1|FM15-METAR|223|ICAO-KTSP|||||||||||||999|C-Calm|9|FM15-METAR|223|ICAO-KTSP|0.0|C-Calm|1|FM15-METAR|223|ICAO-KTSP|||||||||||||82|Derived||FM15-METAR|223|ICAO-KTSP|||||||||||||||||||||||||||||||||||||||||||||||||||||||||||||||||||||||||1016.9||1|FM15-METAR|223|ICAO-KTSP|||||||SCT:04|04-Four-ok|4|FM15-METAR|223|ICAO-KTSP|||||||BKN:07|07-Seven-o|4|FM15-METAR|223|ICAO-KTSP|||||||||||||||||||MET070METAR KTSP 111855Z AUTO 00000KT 9SM SCT041 BKN060 08/05 A3003 RMK AO2;||F||223|ICAO-KTSP
USW00000479|TEHACHAPI MUNI AP|2009|12|11|19|15|35.1350|-118.4392|1219.5|10.0||1|FM15-METAR|223|ICAO-KTSP|4.0||1|FM15-METAR|223|ICAO-KTSP|||||||||||||999|C-Calm|9|FM15-METAR|223|ICAO-KTSP|0.0|C-Calm|1|FM15-METAR|223|ICAO-KTSP|||||||||||||67|Derived||FM15-METAR|223|ICAO-KTSP|||||||||||||||||||||||||||||||||||||||||||||||||||||||||||||||||||||||||1016.6||1|FM15-METAR|223|ICAO-KTSP|||||||BKN:07|07-Seven-o|4|FM15-METAR|223|ICAO-KTSP|||||||||||||||||||||||||||||||MET064METAR KTSP 111915Z AUTO 00000KT 10SM BKN043 10/04 A3002 RMK AO2;||F||223|ICAO-KTSP
USW00000479|TEHACHAPI MUNI AP|2009|12|11|19|35|35.1350|-118.4392|1219.5|10.0||1|FM15-METAR|223|ICAO-KTSP|4.0||1|FM15-METAR|223|ICAO-KTSP|||||||||||||310|N-Normal|1|FM15-METAR|223|ICAO-KTSP|3.6|N-Normal|1|FM15-METAR|223|ICAO-KTSP|||||||||||||67|Derived||FM15-METAR|223|ICAO-KTSP|||||||||||||||||||||||||||||||||||||||||||||||||||||||||||||||||||||||||1016.3||1|FM15-METAR|223|ICAO-KTSP|||||||BKN:07|07-Seven-o|4|FM15-METAR|223|ICAO-KTSP|||||||||||||||||||||||||||||||MET064METAR KTSP 111935Z AUTO 31007KT 10SM BKN043 10/04 A3001 RMK AO2;||F||223|ICAO-KTSP
USW00000479|TEHACHAPI MUNI AP|2009|12|11|20|00|35.1350|-118.4392|1219.5|10.0||1|FM15-METAR|223|ICAO-KTSP|4.0||1|FM15-METAR|223|ICAO-KTSP|||||||||||||320|N-Normal|1|FM15-METAR|223|ICAO-KTSP|3.6|N-Normal|1|FM15-METAR|223|ICAO-KTSP|||||||||||||67|Derived||FM15-METAR|223|ICAO-KTSP|||||||||||||||||||||||||||||||||||||||||||||||||||||||||||||||||||||||||1015.9||1|FM15-METAR|223|ICAO-KTSP|||||||BKN:07|07-Seven-o|4|FM15-METAR|223|ICAO-KTSP|||||||BKN:07|07-Seven-o|4|FM15-METAR|223|ICAO-KTSP|||||||||||||||||||MET071METAR KTSP 111955Z AUTO 32007KT 10SM BKN043 BKN060 10/04 A3000 RMK AO2;||F||223|ICAO-KTSP
USW00000479|TEHACHAPI MUNI AP|2009|12|11|20|15|35.1350|-118.4392|1219.5|10.0||1|FM15-METAR|223|ICAO-KTSP|5.0||1|FM15-METAR|223|ICAO-KTSP|||||||||||||310|N-Normal|1|FM15-METAR|223|ICAO-KTSP|3.1|N-Normal|1|FM15-METAR|223|ICAO-KTSP|||||||||||||71|Derived||FM15-METAR|223|ICAO-KTSP|||||||||||||||||||||||||||||||||||||||||||RA:61|RA:61-Rain|1|FM15-METAR|223|ICAO-KTSP|||||||||||||||||||||||||1015.6||1|FM15-METAR|223|ICAO-KTSP|||||||SCT:04|04-Four-ok|4|FM15-METAR|223|ICAO-KTSP|||||||BKN:07|07-Seven-o|4|FM15-METAR|223|ICAO-KTSP|||||||||||||||||||MET075METAR KTSP 112015Z AUTO 31006KT 10SM -RA SCT041 BKN060 10/05 A2999 RMK AO2;||F||223|ICAO-KTSP
USW00000479|TEHACHAPI MUNI AP|2009|12|11|20|35|35.1350|-118.4392|1219.5|10.0||1|FM15-METAR|223|ICAO-KTSP|4.0||1|FM15-METAR|223|ICAO-KTSP|||||||||||||320|N-Normal|1|FM15-METAR|223|ICAO-KTSP|3.6|N-Normal|1|FM15-METAR|223|ICAO-KTSP|||||||||||||67|Derived||FM15-METAR|223|ICAO-KTSP|||||||||||||||||||||||||||||||||||||||||||||||||||||||||||||||||||||||||1015.6||1|FM15-METAR|223|ICAO-KTSP|||||||FEW:02|02-Two-okt|4|FM15-METAR|223|ICAO-KTSP|||||||BKN:07|07-Seven-o|4|FM15-METAR|223|ICAO-KTSP|||||||||||||||||||MET071METAR KTSP 112035Z AUTO 32007KT 10SM FEW030 BKN060 10/04 A2999 RMK AO2;||F||223|ICAO-KTSP
USW00000479|TEHACHAPI MUNI AP|2009|12|11|21|00|35.1350|-118.4392|1219.5|9.0||1|FM15-METAR|223|ICAO-KTSP|4.0||1|FM15-METAR|223|ICAO-KTSP|||||||||||||310|N-Normal|1|FM15-METAR|223|ICAO-KTSP|5.7|N-Normal|1|FM15-METAR|223|ICAO-KTSP|||||||||||||71|Derived||FM15-METAR|223|ICAO-KTSP|||||||||||||||||||||||||||||||||||||||||||||||||||||||||||||||||||||||||1015.6||1|FM15-METAR|223|ICAO-KTSP|||||||SCT:04|04-Four-ok|4|FM15-METAR|223|ICAO-KTSP|||||||BKN:07|07-Seven-o|4|FM15-METAR|223|ICAO-KTSP|||||||||||||||||||MET078METAR KTSP 112055Z AUTO 31011KT 10SM SCT030 BKN039 BKN060 09/04 A2999 RMK AO2;||F||223|ICAO-KTSP
USW00000479|TEHACHAPI MUNI AP|2009|12|11|21|15|35.1350|-118.4392|1219.5|8.0||1|FM15-METAR|223|ICAO-KTSP|4.0||1|FM15-METAR|223|ICAO-KTSP|||||||||||||310|N-Normal|1|FM15-METAR|223|ICAO-KTSP|6.2|N-Normal|1|FM15-METAR|223|ICAO-KTSP|||||||||||||76|Derived||FM15-METAR|223|ICAO-KTSP|||||||||||||||||||||||||||||||||||||||||||||||||||||||||||||||||||||||||1015.2||1|FM15-METAR|223|ICAO-KTSP|||||||BKN:07|07-Seven-o|4|FM15-METAR|223|ICAO-KTSP|||||||OVC:08|08-Eight-o|4|FM15-METAR|223|ICAO-KTSP|||||||||||||||||||MET071METAR KTSP 112115Z AUTO 31012KT 10SM BKN028 OVC032 08/04 A2998 RMK AO2;||F||223|ICAO-KTSP
USW00000479|TEHACHAPI MUNI AP|2009|12|11|21|35|35.1350|-118.4392|1219.5|8.0||1|FM15-METAR|223|ICAO-KTSP|5.0||1|FM15-METAR|223|ICAO-KTSP|||||||||||||300|N-Normal|1|FM15-METAR|223|ICAO-KTSP|5.7|N-Normal|1|FM15-METAR|223|ICAO-KTSP|||||||0.3|9-Missing|9|FM15-METAR|223|ICAO-KTSP|82|Derived||FM15-METAR|223|ICAO-KTSP|||||||||||||||||||||||||||||||||||||||||||RA:61|RA:61-Rain|1|FM15-METAR|223|ICAO-KTSP|||||||||||||||||||||||||1015.6||1|FM15-METAR|223|ICAO-KTSP|||||||OVC:08|08-Eight-o|4|FM15-METAR|223|ICAO-KTSP|||||||||||||||||||||||||||||||MET073METAR KTSP 112135Z AUTO 30011KT 3SM -RA OVC024 08/05 A2999 RMK AO2 P0001;||F||223|ICAO-KTSP
USW00000479|TEHACHAPI MUNI AP|2009|12|11|22|00|35.1350|-118.4392|1219.5|7.0||1|FM15-METAR|223|ICAO-KTSP|5.0||1|FM15-METAR|223|ICAO-KTSP|||||||||||||310|N-Normal|1|FM15-METAR|223|ICAO-KTSP|4.6|N-Normal|1|FM15-METAR|223|ICAO-KTSP|||||||0.8|9-Missing|9|FM15-METAR|223|ICAO-KTSP|87|Derived||FM15-METAR|223|ICAO-KTSP|||||||||||||||||||||||||||||||||||||||||||RA:61|RA:61-Rain|1|FM15-METAR|223|ICAO-KTSP|||||||||||||||||||||||||1015.6||1|FM15-METAR|223|ICAO-KTSP|||||||OVC:08|08-Eight-o|4|FM15-METAR|223|ICAO-KTSP|||||||||||||||||||||||||||||||MET073METAR KTSP 112155Z AUTO 31009KT 4SM -RA OVC022 07/05 A2999 RMK AO2 P0003;||F||223|ICAO-KTSP
USW00000479|TEHACHAPI MUNI AP|2009|12|11|22|15|35.1350|-118.4392|1219.5|7.0||1|FM15-METAR|223|ICAO-KTSP|5.0||1|FM15-METAR|223|ICAO-KTSP|||||||||||||300|N-Normal|1|FM15-METAR|223|ICAO-KTSP|3.1|N-Normal|1|FM15-METAR|223|ICAO-KTSP|||||||||||||87|Derived||FM15-METAR|223|ICAO-KTSP|||||||||||||||||||||||||||||||||||||||||||RA:61|RA:61-Rain|1|FM15-METAR|223|ICAO-KTSP|||||||||||||||||||||||||1015.6||1|FM15-METAR|223|ICAO-KTSP|||||||OVC:08|08-Eight-o|4|FM15-METAR|223|ICAO-KTSP|||||||||||||||||||||||||||||||MET067METAR KTSP 112215Z AUTO 30006KT 3SM -RA OVC022 07/05 A2999 RMK AO2;||F||223|ICAO-KTSP
USW00000479|TEHACHAPI MUNI AP|2009|12|11|22|35|35.1350|-118.4392|1219.5|7.0||1|FM15-METAR|223|ICAO-KTSP|6.0||1|FM15-METAR|223|ICAO-KTSP|||||||||||||999|C-Calm|9|FM15-METAR|223|ICAO-KTSP|0.0|C-Calm|1|FM15-METAR|223|ICAO-KTSP|||||||||||||93|Derived||FM15-METAR|223|ICAO-KTSP|||||||||||||||||||||||||||||||||||||||||||RA:61|RA:61-Rain|1|FM15-METAR|223|ICAO-KTSP|||||||||||||||||||||||||1015.6||1|FM15-METAR|223|ICAO-KTSP|||||||OVC:08|08-Eight-o|4|FM15-METAR|223|ICAO-KTSP|||||||||||||||||||||||||||||||MET067METAR KTSP 112235Z AUTO 00000KT 7SM -RA OVC020 07/06 A2999 RMK AO2;||F||223|ICAO-KTSP
USW00000479|TEHACHAPI MUNI AP|2009|12|11|23|00|35.1350|-118.4392|1219.5|7.0||1|FM15-METAR|223|ICAO-KTSP|6.0||1|FM15-METAR|223|ICAO-KTSP|||||||||||||999|C-Calm|9|FM15-METAR|223|ICAO-KTSP|0.0|C-Calm|1|FM15-METAR|223|ICAO-KTSP|||||||0.3|9-Missing|9|FM15-METAR|223|ICAO-KTSP|93|Derived||FM15-METAR|223|ICAO-KTSP|||||||||||||||||||||||||||||||||||||||||||RA:61|RA:61-Rain|1|FM15-METAR|223|ICAO-KTSP|||||||||||||||||||||||||1015.6||1|FM15-METAR|223|ICAO-KTSP|||||||BKN:07|07-Seven-o|4|FM15-METAR|223|ICAO-KTSP|||||||OVC:08|08-Eight-o|4|FM15-METAR|223|ICAO-KTSP|||||||||||||||||||MET080METAR KTSP 112255Z AUTO 00000KT 4SM -RA BKN018 OVC037 07/06 A2999 RMK AO2 P0001;||F||223|ICAO-KTSP
USW00000479|TEHACHAPI MUNI AP|2009|12|11|23|15|35.1350|-118.4392|1219.5|7.0||1|FM15-METAR|223|ICAO-KTSP|5.0||1|FM15-METAR|223|ICAO-KTSP|||||||||||||999|C-Calm|9|FM15-METAR|223|ICAO-KTSP|0.0|C-Calm|1|FM15-METAR|223|ICAO-KTSP|||||||||||||87|Derived||FM15-METAR|223|ICAO-KTSP|||||||||||||||||||||||||||||||||||||||||||RA:61|RA:61-Rain|1|FM15-METAR|223|ICAO-KTSP|||||||||||||||||||||||||1015.6||1|FM15-METAR|223|ICAO-KTSP|||||||FEW:02|02-Two-okt|4|FM15-METAR|223|ICAO-KTSP|||||||BKN:07|07-Seven-o|4|FM15-METAR|223|ICAO-KTSP|||||||||||||||||||MET081METAR KTSP 112315Z AUTO 00000KT 8SM -RA FEW016 BKN040 OVC049 07/05 A2999 RMK AO2;||F||223|ICAO-KTSP
USW00000479|TEHACHAPI MUNI AP|2009|12|11|23|35|35.1350|-118.4392|1219.5|7.0||1|FM15-METAR|223|ICAO-KTSP|6.0||1|FM15-METAR|223|ICAO-KTSP|||||||||||||999|C-Calm|9|FM15-METAR|223|ICAO-KTSP|0.0|C-Calm|1|FM15-METAR|223|ICAO-KTSP|||||||||||||93|Derived||FM15-METAR|223|ICAO-KTSP|||||||||||||||||||||||||||||||||||||||||||RA:61|RA:61-Rain|1|FM15-METAR|223|ICAO-KTSP|||||||||||||||||||||||||1015.6||1|FM15-METAR|223|ICAO-KTSP|||||||FEW:02|02-Two-okt|4|FM15-METAR|223|ICAO-KTSP|||||||BKN:07|07-Seven-o|4|FM15-METAR|223|ICAO-KTSP|||||||||||||||||||MET081METAR KTSP 112335Z AUTO 00000KT 5SM -RA FEW022 BKN035 OVC049 07/06 A2999 RMK AO2;||F||223|ICAO-KTSP
USW00000479|TEHACHAPI MUNI AP|2009|12|12|00|00|35.1350|-118.4392|1219.5|7.0||1|FM15-METAR|223|ICAO-KTSP|6.0||1|FM15-METAR|223|ICAO-KTSP|||||||||||||999|C-Calm|9|FM15-METAR|223|ICAO-KTSP|0.0|C-Calm|1|FM15-METAR|223|ICAO-KTSP|||||||||||||93|Derived||FM15-METAR|223|ICAO-KTSP|||||||||||||||||||||||||||||||||||||||||||RA:61|RA:61-Rain|1|FM15-METAR|223|ICAO-KTSP|||||||||||||||||||||||||1015.9||1|FM15-METAR|223|ICAO-KTSP|||||||FEW:02|02-Two-okt|4|FM15-METAR|223|ICAO-KTSP|||||||SCT:04|04-Four-ok|4|FM15-METAR|223|ICAO-KTSP|||||||||||||||||||MET081METAR KTSP 112355Z AUTO 00000KT 3SM -RA FEW022 SCT027 OVC035 07/06 A3000 RMK AO2;||F||223|ICAO-KTSP
USW00000479|TEHACHAPI MUNI AP|2009|12|12|00|15|35.1350|-118.4392|1219.5|7.0||1|FM15-METAR|223|ICAO-KTSP|6.0||1|FM15-METAR|223|ICAO-KTSP|||||||||||||999|C-Calm|9|FM15-METAR|223|ICAO-KTSP|0.0|C-Calm|1|FM15-METAR|223|ICAO-KTSP|||||||||||||93|Derived||FM15-METAR|223|ICAO-KTSP|||||||||||||||||||||||||||||||||||||||||||RA:61|RA:61-Rain|1|FM15-METAR|223|ICAO-KTSP|||||||||||||||||||||||||1015.9||1|FM15-METAR|223|ICAO-KTSP|||||||FEW:02|02-Two-okt|4|FM15-METAR|223|ICAO-KTSP|||||||BKN:07|07-Seven-o|4|FM15-METAR|223|ICAO-KTSP|||||||||||||||||||MET081METAR KTSP 120015Z AUTO 00000KT 3SM -RA FEW020 BKN033 OVC040 07/06 A3000 RMK AO2;||F||223|ICAO-KTSP
USW00000479|TEHACHAPI MUNI AP|2009|12|12|00|35|35.1350|-118.4392|1219.5|7.0||1|FM15-METAR|223|ICAO-KTSP|6.0||1|FM15-METAR|223|ICAO-KTSP|||||||||||||999|C-Calm|9|FM15-METAR|223|ICAO-KTSP|0.0|C-Calm|1|FM15-METAR|223|ICAO-KTSP|||||||||||||93|Derived||FM15-METAR|223|ICAO-KTSP|||||||||||||||||||||||||||||||||||||||||||RA:61|RA:61-Rain|1|FM15-METAR|223|ICAO-KTSP|||||||||||||||||||||||||1015.9||1|FM15-METAR|223|ICAO-KTSP|||||||BKN:07|07-Seven-o|4|FM15-METAR|223|ICAO-KTSP|||||||OVC:08|08-Eight-o|4|FM15-METAR|223|ICAO-KTSP|||||||||||||||||||MET074METAR KTSP 120035Z AUTO 00000KT 6SM -RA BKN031 OVC040 07/06 A3000 RMK AO2;||F||223|ICAO-KTSP
USW00000479|TEHACHAPI MUNI AP|2009|12|12|01|00|35.1350|-118.4392|1219.5|7.0||1|FM15-METAR|223|ICAO-KTSP|6.0||1|FM15-METAR|223|ICAO-KTSP|||||||||||||999|C-Calm|9|FM15-METAR|223|ICAO-KTSP|0.0|C-Calm|1|FM15-METAR|223|ICAO-KTSP|||||||||||||93|Derived||FM15-METAR|223|ICAO-KTSP|||||||||||||||||||||||||||||||||||||||||||RA:61|RA:61-Rain|1|FM15-METAR|223|ICAO-KTSP|||||||||||||||||||||||||1015.9||1|FM15-METAR|223|ICAO-KTSP|||||||FEW:02|02-Two-okt|4|FM15-METAR|223|ICAO-KTSP|||||||SCT:04|04-Four-ok|4|FM15-METAR|223|ICAO-KTSP|||||||||||||||||||MET081METAR KTSP 120055Z AUTO 00000KT 5SM -RA FEW005 SCT029 BKN038 07/06 A3000 RMK AO2;||F||223|ICAO-KTSP
USW00000479|TEHACHAPI MUNI AP|2009|12|12|01|15|35.1350|-118.4392|1219.5|7.0||1|FM15-METAR|223|ICAO-KTSP|5.0||1|FM15-METAR|223|ICAO-KTSP|||||||||||||999|C-Calm|9|FM15-METAR|223|ICAO-KTSP|0.0|C-Calm|1|FM15-METAR|223|ICAO-KTSP|||||||||||||87|Derived||FM15-METAR|223|ICAO-KTSP|||||||||||||||||||||||||||||||||||||||||||||||||||||||||||||||||||||||||1015.9||1|FM15-METAR|223|ICAO-KTSP|||||||BKN:07|07-Seven-o|4|FM15-METAR|223|ICAO-KTSP|||||||OVC:08|08-Eight-o|4|FM15-METAR|223|ICAO-KTSP|||||||||||||||||||MET070METAR KTSP 120115Z AUTO 00000KT 8SM BKN013 OVC036 07/05 A3000 RMK AO2;||F||223|ICAO-KTSP
USW00000479|TEHACHAPI MUNI AP|2009|12|12|01|35|35.1350|-118.4392|1219.5|7.0||1|FM15-METAR|223|ICAO-KTSP|6.0||1|FM15-METAR|223|ICAO-KTSP|||||||||||||999|C-Calm|9|FM15-METAR|223|ICAO-KTSP|0.0|C-Calm|1|FM15-METAR|223|ICAO-KTSP|||||||||||||93|Derived||FM15-METAR|223|ICAO-KTSP|||||||||||||||||||||||||||||||||||||||||||||||||||||||||||||||||||||||||1015.9||1|FM15-METAR|223|ICAO-KTSP|||||||BKN:07|07-Seven-o|4|FM15-METAR|223|ICAO-KTSP|||||||BKN:07|07-Seven-o|4|FM15-METAR|223|ICAO-KTSP|||||||||||||||||||MET078METAR KTSP 120135Z AUTO 00000KT 10SM BKN011 BKN036 OVC043 07/06 A3000 RMK AO2;||F||223|ICAO-KTSP
USW00000479|TEHACHAPI MUNI AP|2009|12|12|02|00|35.1350|-118.4392|1219.5|6.0||1|FM15-METAR|223|ICAO-KTSP|5.0||1|FM15-METAR|223|ICAO-KTSP|||||||||||||999|C-Calm|9|FM15-METAR|223|ICAO-KTSP|0.0|C-Calm|1|FM15-METAR|223|ICAO-KTSP|||||||||||||93|Derived||FM15-METAR|223|ICAO-KTSP|||||||||||||||||||||||||||||||||||||||||||||||||||||||||||||||||||||||||1015.9||1|FM15-METAR|223|ICAO-KTSP|||||||SCT:04|04-Four-ok|4|FM15-METAR|223|ICAO-KTSP|||||||BKN:07|07-Seven-o|4|FM15-METAR|223|ICAO-KTSP|||||||||||||||||||MET071METAR KTSP 120155Z AUTO 00000KT 10SM SCT011 BKN039 06/05 A3000 RMK AO2;||F||223|ICAO-KTSP
USW00000479|TEHACHAPI MUNI AP|2009|12|12|02|15|35.1350|-118.4392|1219.5|5.0||1|FM15-METAR|223|ICAO-KTSP|5.0||1|FM15-METAR|223|ICAO-KTSP|||||||||||||999|C-Calm|9|FM15-METAR|223|ICAO-KTSP|0.0|C-Calm|1|FM15-METAR|223|ICAO-KTSP|||||||||||||100|Derived||FM15-METAR|223|ICAO-KTSP|||||||||||||||||||||||||||||||||||||||||||||||||||||||||||||||||||||||||1015.9||1|FM15-METAR|223|ICAO-KTSP|||||||SCT:04|04-Four-ok|4|FM15-METAR|223|ICAO-KTSP|||||||BKN:07|07-Seven-o|4|FM15-METAR|223|ICAO-KTSP|||||||||||||||||||MET071METAR KTSP 120215Z AUTO 00000KT 10SM SCT009 BKN032 05/05 A3000 RMK AO2;||F||223|ICAO-KTSP
USW00000479|TEHACHAPI MUNI AP|2009|12|12|02|35|35.1350|-118.4392|1219.5|5.0||1|FM15-METAR|223|ICAO-KTSP|4.0||1|FM15-METAR|223|ICAO-KTSP|||||||||||||999|C-Calm|9|FM15-METAR|223|ICAO-KTSP|0.0|C-Calm|1|FM15-METAR|223|ICAO-KTSP|||||||||||||93|Derived||FM15-METAR|223|ICAO-KTSP|||||||||||||||||||||||||||||||||||||||||||||||||||||||||||||||||||||||||1015.9||1|FM15-METAR|223|ICAO-KTSP|||||||BKN:07|07-Seven-o|4|FM15-METAR|223|ICAO-KTSP|||||||||||||||||||||||||||||||MET064METAR KTSP 120235Z AUTO 00000KT 10SM BKN034 05/04 A3000 RMK AO2;||F||223|ICAO-KTSP
USW00000479|TEHACHAPI MUNI AP|2009|12|12|03|00|35.1350|-118.4392|1219.5|5.0||1|FM15-METAR|223|ICAO-KTSP|4.0||1|FM15-METAR|223|ICAO-KTSP|||||||||||||999|C-Calm|9|FM15-METAR|223|ICAO-KTSP|0.0|C-Calm|1|FM15-METAR|223|ICAO-KTSP|||||||||||||93|Derived||FM15-METAR|223|ICAO-KTSP|||||||||||||||||||||||||||||||||||||||||||||||||||||||||||||||||||||||||1015.9||1|FM15-METAR|223|ICAO-KTSP|||||||SCT:04|04-Four-ok|4|FM15-METAR|223|ICAO-KTSP|||||||||||||||||||||||||||||||MET064METAR KTSP 120255Z AUTO 00000KT 10SM SCT034 05/04 A3000 RMK AO2;||F||223|ICAO-KTSP
USW00000479|TEHACHAPI MUNI AP|2009|12|12|03|15|35.1350|-118.4392|1219.5|3.0||1|FM15-METAR|223|ICAO-KTSP|3.0||1|FM15-METAR|223|ICAO-KTSP|||||||||||||999|C-Calm|9|FM15-METAR|223|ICAO-KTSP|0.0|C-Calm|1|FM15-METAR|223|ICAO-KTSP|||||||||||||100|Derived||FM15-METAR|223|ICAO-KTSP|||||||||||||||||||||||||||||||||||||||||||||||||||||||||||||||||||||||||1015.9||1|FM15-METAR|223|ICAO-KTSP|||||||BKN:07|07-Seven-o|4|FM15-METAR|223|ICAO-KTSP|||||||||||||||||||||||||||||||MET064METAR KTSP 120315Z AUTO 00000KT 10SM BKN038 03/03 A3000 RMK AO2;||F||223|ICAO-KTSP
USW00000479|TEHACHAPI MUNI AP|2009|12|12|03|35|35.1350|-118.4392|1219.5|3.0||1|FM15-METAR|223|ICAO-KTSP|3.0||1|FM15-METAR|223|ICAO-KTSP|||||||||||||999|C-Calm|9|FM15-METAR|223|ICAO-KTSP|0.0|C-Calm|1|FM15-METAR|223|ICAO-KTSP|||||||||||||100|Derived||FM15-METAR|223|ICAO-KTSP|||||||||||||||||||||||||||||||||||||||||||||||||||||||||||||||||||||||||1015.9||1|FM15-METAR|223|ICAO-KTSP|||||||FEW:02|02-Two-okt|4|FM15-METAR|223|ICAO-KTSP|||||||||||||||||||||||||||||||MET064METAR KTSP 120335Z AUTO 00000KT 10SM FEW036 03/03 A3000 RMK AO2;||F||223|ICAO-KTSP
USW00000479|TEHACHAPI MUNI AP|2009|12|12|04|00|35.1350|-118.4392|1219.5|3.0||1|FM15-METAR|223|ICAO-KTSP|3.0||1|FM15-METAR|223|ICAO-KTSP|||||||||||||999|C-Calm|9|FM15-METAR|223|ICAO-KTSP|0.0|C-Calm|1|FM15-METAR|223|ICAO-KTSP|||||||||||||100|Derived||FM15-METAR|223|ICAO-KTSP|||||||||||||||||||||||||||||||||||||||||||||||||||||||||||||||||||||||||1015.9||1|FM15-METAR|223|ICAO-KTSP|||||||||||||||||||||||||||||||||||||||||||MET061METAR KTSP 120355Z AUTO 00000KT 10SM CLR 03/03 A3000 RMK AO2;||F||223|ICAO-KTSP
USW00000479|TEHACHAPI MUNI AP|2009|12|12|04|15|35.1350|-118.4392|1219.5|3.0||1|FM15-METAR|223|ICAO-KTSP|3.0||1|FM15-METAR|223|ICAO-KTSP|||||||||||||140|N-Normal|1|FM15-METAR|223|ICAO-KTSP|2.6|N-Normal|1|FM15-METAR|223|ICAO-KTSP|||||||||||||100|Derived||FM15-METAR|223|ICAO-KTSP|||||||||||||||||||||||||||||||||||||||||||||||||||||||||||||||||||||||||1016.3||1|FM15-METAR|223|ICAO-KTSP|||||||BKN:07|07-Seven-o|4|FM15-METAR|223|ICAO-KTSP|||||||||||||||||||||||||||||||MET064METAR KTSP 120415Z AUTO 14005KT 10SM BKN070 03/03 A3001 RMK AO2;||F||223|ICAO-KTSP
USW00000479|TEHACHAPI MUNI AP|2009|12|12|04|35|35.1350|-118.4392|1219.5|3.0||1|FM15-METAR|223|ICAO-KTSP|3.0||1|FM15-METAR|223|ICAO-KTSP|||||||||||||130|N-Normal|1|FM15-METAR|223|ICAO-KTSP|1.5|N-Normal|1|FM15-METAR|223|ICAO-KTSP|||||||||||||100|Derived||FM15-METAR|223|ICAO-KTSP|||||||||||||||||||||||||||||||||||||||||||RA:61|RA:61-Rain|1|FM15-METAR|223|ICAO-KTSP|||||||||||||||||||||||||1016.3||1|FM15-METAR|223|ICAO-KTSP|||||||FEW:02|02-Two-okt|4|FM15-METAR|223|ICAO-KTSP|||||||SCT:04|04-Four-ok|4|FM15-METAR|223|ICAO-KTSP|||||||||||||||||||MET081METAR KTSP 120435Z AUTO 13003KT 7SM -RA FEW023 SCT060 BKN070 03/03 A3001 RMK AO2;||F||223|ICAO-KTSP
USW00000479|TEHACHAPI MUNI AP|2009|12|12|05|00|35.1350|-118.4392|1219.5|3.0||1|FM15-METAR|223|ICAO-KTSP|3.0||1|FM15-METAR|223|ICAO-KTSP|||||||||||||130|N-Normal|1|FM15-METAR|223|ICAO-KTSP|2.6|N-Normal|1|FM15-METAR|223|ICAO-KTSP|||||||||||||100|Derived||FM15-METAR|223|ICAO-KTSP|||||||||||||||||||||||||||||||||||||||||||||||||||||||||||||||||||||||||1016.3||1|FM15-METAR|223|ICAO-KTSP|||||||SCT:04|04-Four-ok|4|FM15-METAR|223|ICAO-KTSP|||||||BKN:07|07-Seven-o|4|FM15-METAR|223|ICAO-KTSP|||||||||||||||||||MET077METAR KTSP 120455Z AUTO 13005KT 9SM SCT043 BKN050 OVC055 03/03 A3001 RMK AO2;||F||223|ICAO-KTSP
USW00000479|TEHACHAPI MUNI AP|2009|12|12|05|15|35.1350|-118.4392|1219.5|3.0||1|FM15-METAR|223|ICAO-KTSP|3.0||1|FM15-METAR|223|ICAO-KTSP|||||||||||||120|N-Normal|1|FM15-METAR|223|ICAO-KTSP|3.6|N-Normal|1|FM15-METAR|223|ICAO-KTSP|||||||||||||100|Derived||FM15-METAR|223|ICAO-KTSP|||||||||||||||||||||||||||||||||||||||||||||||||||||||||||||||||||||||||1016.3||1|FM15-METAR|223|ICAO-KTSP|||||||BKN:07|07-Seven-o|4|FM15-METAR|223|ICAO-KTSP|||||||OVC:08|08-Eight-o|4|FM15-METAR|223|ICAO-KTSP|||||||||||||||||||MET071METAR KTSP 120515Z AUTO 12007KT 10SM BKN043 OVC050 03/03 A3001 RMK AO2;||F||223|ICAO-KTSP
USW00000479|TEHACHAPI MUNI AP|2009|12|12|05|35|35.1350|-118.4392|1219.5|4.0||1|FM15-METAR|223|ICAO-KTSP|4.0||1|FM15-METAR|223|ICAO-KTSP|||||||||||||090|N-Normal|1|FM15-METAR|223|ICAO-KTSP|3.6|N-Normal|1|FM15-METAR|223|ICAO-KTSP|||||||||||||100|Derived||FM15-METAR|223|ICAO-KTSP|||||||||||||||||||||||||||||||||||||||||||||||||||||||||||||||||||||||||1015.9||1|FM15-METAR|223|ICAO-KTSP|||||||SCT:04|04-Four-ok|4|FM15-METAR|223|ICAO-KTSP|||||||OVC:08|08-Eight-o|4|FM15-METAR|223|ICAO-KTSP|||||||||||||||||||MET071METAR KTSP 120535Z AUTO 09007KT 10SM SCT043 OVC050 04/04 A3000 RMK AO2;||F||223|ICAO-KTSP
USW00000479|TEHACHAPI MUNI AP|2009|12|12|06|00|35.1350|-118.4392|1219.5|4.0||1|FM15-METAR|223|ICAO-KTSP|4.0||1|FM15-METAR|223|ICAO-KTSP|||||||||||||100|N-Normal|1|FM15-METAR|223|ICAO-KTSP|3.6|N-Normal|1|FM15-METAR|223|ICAO-KTSP|||||||||||||100|Derived||FM15-METAR|223|ICAO-KTSP|||||||||||||||||||||||||||||||||||||||||||||||||||||||||||||||||||||||||1016.3||1|FM15-METAR|223|ICAO-KTSP|||||||BKN:07|07-Seven-o|4|FM15-METAR|223|ICAO-KTSP|||||||OVC:08|08-Eight-o|4|FM15-METAR|223|ICAO-KTSP|||||||||||||||||||MET071METAR KTSP 120555Z AUTO 10007KT 10SM BKN039 OVC050 04/04 A3001 RMK AO2;||F||223|ICAO-KTSP
USW00000479|TEHACHAPI MUNI AP|2009|12|12|06|15|35.1350|-118.4392|1219.5|5.0||1|FM15-METAR|223|ICAO-KTSP|4.0||1|FM15-METAR|223|ICAO-KTSP|||||||||||||120|N-Normal|1|FM15-METAR|223|ICAO-KTSP|3.1|N-Normal|1|FM15-METAR|223|ICAO-KTSP|||||||||||||93|Derived||FM15-METAR|223|ICAO-KTSP|||||||||||||||||||||||||||||||||||||||||||||||||||||||||||||||||||||||||1015.9||1|FM15-METAR|223|ICAO-KTSP|||||||SCT:04|04-Four-ok|4|FM15-METAR|223|ICAO-KTSP|||||||BKN:07|07-Seven-o|4|FM15-METAR|223|ICAO-KTSP|||||||||||||||||||MET071METAR KTSP 120615Z AUTO 12006KT 10SM SCT039 BKN060 05/04 A3000 RMK AO2;||F||223|ICAO-KTSP
USW00000479|TEHACHAPI MUNI AP|2009|12|12|06|35|35.1350|-118.4392|1219.5|5.0||1|FM15-METAR|223|ICAO-KTSP|4.0||1|FM15-METAR|223|ICAO-KTSP|||||||||||||100|N-Normal|1|FM15-METAR|223|ICAO-KTSP|3.1|N-Normal|1|FM15-METAR|223|ICAO-KTSP|||||||||||||93|Derived||FM15-METAR|223|ICAO-KTSP|||||||||||||||||||||||||||||||||||||||||||||||||||||||||||||||||||||||||1015.9||1|FM15-METAR|223|ICAO-KTSP|||||||OVC:08|08-Eight-o|4|FM15-METAR|223|ICAO-KTSP|||||||||||||||||||||||||||||||MET064METAR KTSP 120635Z AUTO 10006KT 10SM OVC050 05/04 A3000 RMK AO2;||F||223|ICAO-KTSP
USW00000479|TEHACHAPI MUNI AP|2009|12|12|07|00|35.1350|-118.4392|1219.5|5.0||1|FM15-METAR|223|ICAO-KTSP|4.0||1|FM15-METAR|223|ICAO-KTSP|||||||||||||110|N-Normal|1|FM15-METAR|223|ICAO-KTSP|3.6|N-Normal|1|FM15-METAR|223|ICAO-KTSP|||||||||||||93|Derived||FM15-METAR|223|ICAO-KTSP|||||||||||||||||||||||||||||||||||||||||||||||||||||||||||||||||||||||||1015.9||1|FM15-METAR|223|ICAO-KTSP|||||||OVC:08|08-Eight-o|4|FM15-METAR|223|ICAO-KTSP|||||||||||||||||||||||||||||||MET064METAR KTSP 120655Z AUTO 11007KT 10SM OVC050 05/04 A3000 RMK AO2;||F||223|ICAO-KTSP
USW00000479|TEHACHAPI MUNI AP|2009|12|12|07|15|35.1350|-118.4392|1219.5|5.0||1|FM15-METAR|223|ICAO-KTSP|4.0||1|FM15-METAR|223|ICAO-KTSP|||||||||||||999|C-Calm|9|FM15-METAR|223|ICAO-KTSP|0.0|C-Calm|1|FM15-METAR|223|ICAO-KTSP|||||||||||||93|Derived||FM15-METAR|223|ICAO-KTSP|||||||||||||||||||||||||||||||||||||||||||||||||||||||||||||||||||||||||1016.3||1|FM15-METAR|223|ICAO-KTSP|||||||FEW:02|02-Two-okt|4|FM15-METAR|223|ICAO-KTSP|||||||OVC:08|08-Eight-o|4|FM15-METAR|223|ICAO-KTSP|||||||||||||||||||MET071METAR KTSP 120715Z AUTO 00000KT 10SM FEW047 OVC060 05/04 A3001 RMK AO2;||F||223|ICAO-KTSP
USW00000479|TEHACHAPI MUNI AP|2009|12|12|07|35|35.1350|-118.4392|1219.5|5.0||1|FM15-METAR|223|ICAO-KTSP|4.0||1|FM15-METAR|223|ICAO-KTSP|||||||||||||999|C-Calm|9|FM15-METAR|223|ICAO-KTSP|0.0|C-Calm|1|FM15-METAR|223|ICAO-KTSP|||||||||||||93|Derived||FM15-METAR|223|ICAO-KTSP|||||||||||||||||||||||||||||||||||||||||||||||||||||||||||||||||||||||||1016.3||1|FM15-METAR|223|ICAO-KTSP|||||||FEW:02|02-Two-okt|4|FM15-METAR|223|ICAO-KTSP|||||||BKN:07|07-Seven-o|4|FM15-METAR|223|ICAO-KTSP|||||||||||||||||||MET078METAR KTSP 120735Z AUTO 00000KT 10SM FEW039 BKN050 OVC060 05/04 A3001 RMK AO2;||F||223|ICAO-KTSP
USW00000479|TEHACHAPI MUNI AP|2009|12|12|08|00|35.1350|-118.4392|1219.5|5.0||1|FM15-METAR|223|ICAO-KTSP|4.0||1|FM15-METAR|223|ICAO-KTSP|||||||||||||999|C-Calm|9|FM15-METAR|223|ICAO-KTSP|0.0|C-Calm|1|FM15-METAR|223|ICAO-KTSP|||||||||||||93|Derived||FM15-METAR|223|ICAO-KTSP|||||||||||||||||||||||||||||||||||||||||||RA:61|RA:61-Rain|1|FM15-METAR|223|ICAO-KTSP|||||||||||||||||||||||||1016.3||1|FM15-METAR|223|ICAO-KTSP|||||||BKN:07|07-Seven-o|4|FM15-METAR|223|ICAO-KTSP|||||||OVC:08|08-Eight-o|4|FM15-METAR|223|ICAO-KTSP|||||||||||||||||||MET074METAR KTSP 120755Z AUTO 00000KT 7SM -RA BKN038 OVC048 05/04 A3001 RMK AO2;||F||223|ICAO-KTSP
USW00000479|TEHACHAPI MUNI AP|2009|12|12|08|15|35.1350|-118.4392|1219.5|5.0||1|FM15-METAR|223|ICAO-KTSP|4.0||1|FM15-METAR|223|ICAO-KTSP|||||||||||||999|C-Calm|9|FM15-METAR|223|ICAO-KTSP|0.0|C-Calm|1|FM15-METAR|223|ICAO-KTSP|||||||||||||93|Derived||FM15-METAR|223|ICAO-KTSP|||||||||||||||||||||||||||||||||||||||||||||||||||||||||||||||||||||||||1015.9||1|FM15-METAR|223|ICAO-KTSP|||||||BKN:07|07-Seven-o|4|FM15-METAR|223|ICAO-KTSP|||||||||||||||||||||||||||||||MET064METAR KTSP 120815Z AUTO 00000KT 10SM BKN034 05/04 A3000 RMK AO2;||F||223|ICAO-KTSP
USW00000479|TEHACHAPI MUNI AP|2009|12|12|08|35|35.1350|-118.4392|1219.5|5.0||1|FM15-METAR|223|ICAO-KTSP|4.0||1|FM15-METAR|223|ICAO-KTSP|||||||||||||999|C-Calm|9|FM15-METAR|223|ICAO-KTSP|0.0|C-Calm|1|FM15-METAR|223|ICAO-KTSP|||||||||||||93|Derived||FM15-METAR|223|ICAO-KTSP|||||||||||||||||||||||||||||||||||||||||||||||||||||||||||||||||||||||||1015.6||1|FM15-METAR|223|ICAO-KTSP|||||||SCT:04|04-Four-ok|4|FM15-METAR|223|ICAO-KTSP|||||||BKN:07|07-Seven-o|4|FM15-METAR|223|ICAO-KTSP|||||||||||||||||||MET078METAR KTSP 120835Z AUTO 00000KT 10SM SCT032 BKN050 OVC065 05/04 A2999 RMK AO2;||F||223|ICAO-KTSP
USW00000479|TEHACHAPI MUNI AP|2009|12|12|09|00|35.1350|-118.4392|1219.5|5.0||1|FM15-METAR|223|ICAO-KTSP|4.0||1|FM15-METAR|223|ICAO-KTSP|||||||||||||999|C-Calm|9|FM15-METAR|223|ICAO-KTSP|0.0|C-Calm|1|FM15-METAR|223|ICAO-KTSP|||||||||||||93|Derived||FM15-METAR|223|ICAO-KTSP|||||||||||||||||||||||||||||||||||||||||||||||||||||||||||||||||||||||||1015.6||1|FM15-METAR|223|ICAO-KTSP|||||||SCT:04|04-Four-ok|4|FM15-METAR|223|ICAO-KTSP|||||||||||||||||||||||||||||||MET064METAR KTSP 120855Z AUTO 00000KT 10SM SCT050 05/04 A2999 RMK AO2;||F||223|ICAO-KTSP
USW00000479|TEHACHAPI MUNI AP|2009|12|12|09|15|35.1350|-118.4392|1219.5|5.0||1|FM15-METAR|223|ICAO-KTSP|3.0||1|FM15-METAR|223|ICAO-KTSP|||||||||||||220|N-Normal|1|FM15-METAR|223|ICAO-KTSP|2.1|N-Normal|1|FM15-METAR|223|ICAO-KTSP|||||||||||||87|Derived||FM15-METAR|223|ICAO-KTSP|||||||||||||||||||||||||||||||||||||||||||||||||||||||||||||||||||||||||1015.9||1|FM15-METAR|223|ICAO-KTSP|||||||FEW:02|02-Two-okt|4|FM15-METAR|223|ICAO-KTSP|||||||SCT:04|04-Four-ok|4|FM15-METAR|223|ICAO-KTSP|||||||||||||||||||MET078METAR KTSP 120915Z AUTO 22004KT 10SM FEW031 SCT040 BKN050 05/03 A3000 RMK AO2;||F||223|ICAO-KTSP
USW00000479|TEHACHAPI MUNI AP|2009|12|12|09|35|35.1350|-118.4392|1219.5|4.0||1|FM15-METAR|223|ICAO-KTSP|3.0||1|FM15-METAR|223|ICAO-KTSP|||||||||||||999|C-Calm|9|FM15-METAR|223|ICAO-KTSP|0.0|C-Calm|1|FM15-METAR|223|ICAO-KTSP|||||||||||||93|Derived||FM15-METAR|223|ICAO-KTSP|||||||||||||||||||||||||||||||||||||||||||||||||||||||||||||||||||||||||1015.9||1|FM15-METAR|223|ICAO-KTSP|||||||FEW:02|02-Two-okt|4|FM15-METAR|223|ICAO-KTSP|||||||BKN:07|07-Seven-o|4|FM15-METAR|223|ICAO-KTSP|||||||||||||||||||MET078METAR KTSP 120935Z AUTO 00000KT 10SM FEW029 BKN038 OVC060 04/03 A3000 RMK AO2;||F||223|ICAO-KTSP
USW00000479|TEHACHAPI MUNI AP|2009|12|12|10|00|35.1350|-118.4392|1219.5|6.0||1|FM15-METAR|223|ICAO-KTSP|4.0||1|FM15-METAR|223|ICAO-KTSP|||||||||||||070|N-Normal|1|FM15-METAR|223|ICAO-KTSP|3.6|N-Normal|1|FM15-METAR|223|ICAO-KTSP|||||||||||||87|Derived||FM15-METAR|223|ICAO-KTSP|||||||||||||||||||||||||||||||||||||||||||||||||||||||||||||||||||||||||1015.6||1|FM15-METAR|223|ICAO-KTSP|||||||FEW:02|02-Two-okt|4|FM15-METAR|223|ICAO-KTSP|||||||BKN:07|07-Seven-o|4|FM15-METAR|223|ICAO-KTSP|||||||||||||||||||MET078METAR KTSP 120955Z AUTO 07007KT 10SM FEW028 BKN036 BKN042 06/04 A2999 RMK AO2;||F||223|ICAO-KTSP
USW00000479|TEHACHAPI MUNI AP|2009|12|12|10|15|35.1350|-118.4392|1219.5|5.0||1|FM15-METAR|223|ICAO-KTSP|3.0||1|FM15-METAR|223|ICAO-KTSP|||||||||||||100|N-Normal|1|FM15-METAR|223|ICAO-KTSP|2.1|N-Normal|1|FM15-METAR|223|ICAO-KTSP|||||||||||||87|Derived||FM15-METAR|223|ICAO-KTSP|||||||||||||||||||||||||||||||||||||||||||||||||||||||||||||||||||||||||1015.9||1|FM15-METAR|223|ICAO-KTSP|||||||FEW:02|02-Two-okt|4|FM15-METAR|223|ICAO-KTSP|||||||FEW:02|02-Two-okt|4|FM15-METAR|223|ICAO-KTSP|||||||||||||||||||MET078METAR KTSP 121015Z AUTO 10004KT 10SM FEW028 FEW036 SCT043 05/03 A3000 RMK AO2;||F||223|ICAO-KTSP
USW00000479|TEHACHAPI MUNI AP|2009|12|12|10|35|35.1350|-118.4392|1219.5|5.0||1|FM15-METAR|223|ICAO-KTSP|3.0||1|FM15-METAR|223|ICAO-KTSP|||||||||||||110|N-Normal|1|FM15-METAR|223|ICAO-KTSP|3.6|N-Normal|1|FM15-METAR|223|ICAO-KTSP|||||||||||||87|Derived||FM15-METAR|223|ICAO-KTSP|||||||||||||||||||||||||||||||||||||||||||||||||||||||||||||||||||||||||1015.9||1|FM15-METAR|223|ICAO-KTSP|||||||BKN:07|07-Seven-o|4|FM15-METAR|223|ICAO-KTSP|||||||BKN:07|07-Seven-o|4|FM15-METAR|223|ICAO-KTSP|||||||||||||||||||MET071METAR KTSP 121035Z AUTO 11007KT 10SM BKN040 BKN048 05/03 A3000 RMK AO2;||F||223|ICAO-KTSP
USW00000479|TEHACHAPI MUNI AP|2009|12|12|11|00|35.1350|-118.4392|1219.5|5.0||1|FM15-METAR|223|ICAO-KTSP|3.0||1|FM15-METAR|223|ICAO-KTSP|||||||||||||090|N-Normal|1|FM15-METAR|223|ICAO-KTSP|2.6|N-Normal|1|FM15-METAR|223|ICAO-KTSP|||||||||||||87|Derived||FM15-METAR|223|ICAO-KTSP|||||||||||||||||||||||||||||||||||||||||||||||||||||||||||||||||||||||||1015.9||1|FM15-METAR|223|ICAO-KTSP|||||||SCT:04|04-Four-ok|4|FM15-METAR|223|ICAO-KTSP|||||||||||||||||||||||||||||||MET064METAR KTSP 121055Z AUTO 09005KT 10SM SCT040 05/03 A3000 RMK AO2;||F||223|ICAO-KTSP
USW00000479|TEHACHAPI MUNI AP|2009|12|12|11|15|35.1350|-118.4392|1219.5|4.0||1|FM15-METAR|223|ICAO-KTSP|3.0||1|FM15-METAR|223|ICAO-KTSP|||||||||||||999|C-Calm|9|FM15-METAR|223|ICAO-KTSP|0.0|C-Calm|1|FM15-METAR|223|ICAO-KTSP|||||||||||||93|Derived||FM15-METAR|223|ICAO-KTSP|||||||||||||||||||||||||||||||||||||||||||||||||||||||||||||||||||||||||1015.6||1|FM15-METAR|223|ICAO-KTSP|||||||FEW:02|02-Two-okt|4|FM15-METAR|223|ICAO-KTSP|||||||||||||||||||||||||||||||MET064METAR KTSP 121115Z AUTO 00000KT 10SM FEW038 04/03 A2999 RMK AO2;||F||223|ICAO-KTSP
USW00000479|TEHACHAPI MUNI AP|2009|12|12|11|35|35.1350|-118.4392|1219.5|4.0||1|FM15-METAR|223|ICAO-KTSP|3.0||1|FM15-METAR|223|ICAO-KTSP|||||||||||||080|N-Normal|1|FM15-METAR|223|ICAO-KTSP|2.1|N-Normal|1|FM15-METAR|223|ICAO-KTSP|||||||||||||93|Derived||FM15-METAR|223|ICAO-KTSP|||||||||||||||||||||||||||||||||||||||||||||||||||||||||||||||||||||||||1015.6||1|FM15-METAR|223|ICAO-KTSP|||||||||||||||||||||||||||||||||||||||||||MET061METAR KTSP 121135Z AUTO 08004KT 10SM CLR 04/03 A2999 RMK AO2;||F||223|ICAO-KTSP
USW00000479|TEHACHAPI MUNI AP|2009|12|12|12|00|35.1350|-118.4392|1219.5|4.0||1|FM15-METAR|223|ICAO-KTSP|3.0||1|FM15-METAR|223|ICAO-KTSP|||||||||||||999|C-Calm|9|FM15-METAR|223|ICAO-KTSP|0.0|C-Calm|1|FM15-METAR|223|ICAO-KTSP|||||||||||||93|Derived||FM15-METAR|223|ICAO-KTSP|||||||||||||||||||||||||||||||||||||||||||||||||||||||||||||||||||||||||1015.6||1|FM15-METAR|223|ICAO-KTSP|||||||||||||||||||||||||||||||||||||||||||MET061METAR KTSP 121155Z AUTO 00000KT 10SM CLR 04/03 A2999 RMK AO2;||F||223|ICAO-KTSP
USW00000479|TEHACHAPI MUNI AP|2009|12|12|12|15|35.1350|-118.4392|1219.5|4.0||1|FM15-METAR|223|ICAO-KTSP|3.0||1|FM15-METAR|223|ICAO-KTSP|||||||||||||999|C-Calm|9|FM15-METAR|223|ICAO-KTSP|0.0|C-Calm|1|FM15-METAR|223|ICAO-KTSP|||||||||||||93|Derived||FM15-METAR|223|ICAO-KTSP|||||||||||||||||||||||||||||||||||||||||||||||||||||||||||||||||||||||||1015.6||1|FM15-METAR|223|ICAO-KTSP|||||||||||||||||||||||||||||||||||||||||||MET061METAR KTSP 121215Z AUTO 00000KT 10SM CLR 04/03 A2999 RMK AO2;||F||223|ICAO-KTSP
USW00000479|TEHACHAPI MUNI AP|2009|12|12|12|35|35.1350|-118.4392|1219.5|4.0||1|FM15-METAR|223|ICAO-KTSP|3.0||1|FM15-METAR|223|ICAO-KTSP|||||||||||||999|C-Calm|9|FM15-METAR|223|ICAO-KTSP|0.0|C-Calm|1|FM15-METAR|223|ICAO-KTSP|||||||||||||93|Derived||FM15-METAR|223|ICAO-KTSP|||||||||||||||||||||||||||||||||||||||||||||||||||||||||||||||||||||||||1015.6||1|FM15-METAR|223|ICAO-KTSP|||||||||||||||||||||||||||||||||||||||||||MET061METAR KTSP 121235Z AUTO 00000KT 10SM CLR 04/03 A2999 RMK AO2;||F||223|ICAO-KTSP
USW00000479|TEHACHAPI MUNI AP|2009|12|12|13|00|35.1350|-118.4392|1219.5|4.0||1|FM15-METAR|223|ICAO-KTSP|2.0||1|FM15-METAR|223|ICAO-KTSP|||||||||||||999|C-Calm|9|FM15-METAR|223|ICAO-KTSP|0.0|C-Calm|1|FM15-METAR|223|ICAO-KTSP|||||||||||||87|Derived||FM15-METAR|223|ICAO-KTSP|||||||||||||||||||||||||||||||||||||||||||||||||||||||||||||||||||||||||1015.6||1|FM15-METAR|223|ICAO-KTSP|||||||||||||||||||||||||||||||||||||||||||MET061METAR KTSP 121255Z AUTO 00000KT 10SM CLR 04/02 A2999 RMK AO2;||F||223|ICAO-KTSP
USW00000479|TEHACHAPI MUNI AP|2009|12|12|13|15|35.1350|-118.4392|1219.5|3.0||1|FM15-METAR|223|ICAO-KTSP|2.0||1|FM15-METAR|223|ICAO-KTSP|||||||||||||130|N-Normal|1|FM15-METAR|223|ICAO-KTSP|2.1|N-Normal|1|FM15-METAR|223|ICAO-KTSP|||||||||||||93|Derived||FM15-METAR|223|ICAO-KTSP|||||||||||||||||||||||||||||||||||||||||||||||||||||||||||||||||||||||||1015.6||1|FM15-METAR|223|ICAO-KTSP|||||||||||||||||||||||||||||||||||||||||||MET061METAR KTSP 121315Z AUTO 13004KT 10SM CLR 03/02 A2999 RMK AO2;||F||223|ICAO-KTSP
USW00000479|TEHACHAPI MUNI AP|2009|12|12|13|35|35.1350|-118.4392|1219.5|2.0||1|FM15-METAR|223|ICAO-KTSP|2.0||1|FM15-METAR|223|ICAO-KTSP|||||||||||||120|N-Normal|1|FM15-METAR|223|ICAO-KTSP|2.6|N-Normal|1|FM15-METAR|223|ICAO-KTSP|||||||||||||100|Derived||FM15-METAR|223|ICAO-KTSP|||||||||||||||||||||||||||||||||||||||||||||||||||||||||||||||||||||||||1015.9||1|FM15-METAR|223|ICAO-KTSP|||||||||||||||||||||||||||||||||||||||||||MET061METAR KTSP 121335Z AUTO 12005KT 10SM CLR 02/02 A3000 RMK AO2;||F||223|ICAO-KTSP
USW00000479|TEHACHAPI MUNI AP|2009|12|12|14|00|35.1350|-118.4392|1219.5|2.0||1|FM15-METAR|223|ICAO-KTSP|2.0||1|FM15-METAR|223|ICAO-KTSP|||||||||||||999|C-Calm|9|FM15-METAR|223|ICAO-KTSP|0.0|C-Calm|1|FM15-METAR|223|ICAO-KTSP|||||||||||||100|Derived||FM15-METAR|223|ICAO-KTSP|||||||||||||||||||||||||||||||||||||||||||||||||||||||||||||||||||||||||1015.9||1|FM15-METAR|223|ICAO-KTSP|||||||||||||||||||||||||||||||||||||||||||MET061METAR KTSP 121355Z AUTO 00000KT 10SM CLR 02/02 A3000 RMK AO2;||F||223|ICAO-KTSP
USW00000479|TEHACHAPI MUNI AP|2009|12|12|14|15|35.1350|-118.4392|1219.5|2.0||1|FM15-METAR|223|ICAO-KTSP|2.0||1|FM15-METAR|223|ICAO-KTSP|||||||||||||999|C-Calm|9|FM15-METAR|223|ICAO-KTSP|0.0|C-Calm|1|FM15-METAR|223|ICAO-KTSP|||||||||||||100|Derived||FM15-METAR|223|ICAO-KTSP|||||||||||||||||||||||||||||||||||||||||||||||||||||||||||||||||||||||||1016.3||1|FM15-METAR|223|ICAO-KTSP|||||||SCT:04|04-Four-ok|4|FM15-METAR|223|ICAO-KTSP|||||||||||||||||||||||||||||||MET064METAR KTSP 121415Z AUTO 00000KT 10SM SCT050 02/02 A3001 RMK AO2;||F||223|ICAO-KTSP
USW00000479|TEHACHAPI MUNI AP|2009|12|12|14|35|35.1350|-118.4392|1219.5|3.0||1|FM15-METAR|223|ICAO-KTSP|2.0||1|FM15-METAR|223|ICAO-KTSP|||||||||||||999|C-Calm|9|FM15-METAR|223|ICAO-KTSP|0.0|C-Calm|1|FM15-METAR|223|ICAO-KTSP|||||||||||||93|Derived||FM15-METAR|223|ICAO-KTSP|||||||||||||||||||||||||||||||||||||||||||||||||||||||||||||||||||||||||1016.3||1|FM15-METAR|223|ICAO-KTSP|||||||BKN:07|07-Seven-o|4|FM15-METAR|223|ICAO-KTSP|||||||||||||||||||||||||||||||MET064METAR KTSP 121435Z AUTO 00000KT 10SM BKN050 03/02 A3001 RMK AO2;||F||223|ICAO-KTSP
USW00000479|TEHACHAPI MUNI AP|2009|12|12|15|00|35.1350|-118.4392|1219.5|2.0||1|FM15-METAR|223|ICAO-KTSP|2.0||1|FM15-METAR|223|ICAO-KTSP|||||||||||||999|C-Calm|9|FM15-METAR|223|ICAO-KTSP|0.0|C-Calm|1|FM15-METAR|223|ICAO-KTSP|||||||||||||100|Derived||FM15-METAR|223|ICAO-KTSP|||||||||||||||||||||||||||||||||||||||||||RA:61|RA:61-Rain|1|FM15-METAR|223|ICAO-KTSP|||||||||||||||||||||||||1016.3||1|FM15-METAR|223|ICAO-KTSP|||||||BKN:07|07-Seven-o|4|FM15-METAR|223|ICAO-KTSP|||||||BKN:07|07-Seven-o|4|FM15-METAR|223|ICAO-KTSP|||||||||||||||||||MET075METAR KTSP 121455Z AUTO 00000KT 10SM -RA BKN043 BKN050 02/02 A3001 RMK AO2;||F||223|ICAO-KTSP
USW00000479|TEHACHAPI MUNI AP|2009|12|12|15|15|35.1350|-118.4392|1219.5|2.0||1|FM15-METAR|223|ICAO-KTSP|2.0||1|FM15-METAR|223|ICAO-KTSP|||||||||||||130|N-Normal|1|FM15-METAR|223|ICAO-KTSP|2.1|N-Normal|1|FM15-METAR|223|ICAO-KTSP|||||||||||||100|Derived||FM15-METAR|223|ICAO-KTSP|||||||||||||||||||||||||||||||||||||||||||||||||||||||||||||||||||||||||1016.3||1|FM15-METAR|223|ICAO-KTSP|||||||SCT:04|04-Four-ok|4|FM15-METAR|223|ICAO-KTSP|||||||BKN:07|07-Seven-o|4|FM15-METAR|223|ICAO-KTSP|||||||||||||||||||MET078METAR KTSP 121515Z AUTO 13004KT 10SM SCT040 BKN047 BKN055 02/02 A3001 RMK AO2;||F||223|ICAO-KTSP
USW00000479|TEHACHAPI MUNI AP|2009|12|12|15|35|35.1350|-118.4392|1219.5|3.0||1|FM15-METAR|223|ICAO-KTSP|3.0||1|FM15-METAR|223|ICAO-KTSP|||||||||||||080|N-Normal|1|FM15-METAR|223|ICAO-KTSP|3.6|N-Normal|1|FM15-METAR|223|ICAO-KTSP|||||||||||||100|Derived||FM15-METAR|223|ICAO-KTSP|||||||||||||||||||||||||||||||||||||||||||||||||||||||||||||||||||||||||1016.6||1|FM15-METAR|223|ICAO-KTSP|||||||SCT:04|04-Four-ok|4|FM15-METAR|223|ICAO-KTSP|||||||BKN:07|07-Seven-o|4|FM15-METAR|223|ICAO-KTSP|||||||||||||||||||MET078METAR KTSP 121535Z AUTO 08007KT 10SM SCT037 BKN045 OVC050 03/03 A3002 RMK AO2;||F||223|ICAO-KTSP
USW00000479|TEHACHAPI MUNI AP|2009|12|12|16|00|35.1350|-118.4392|1219.5|4.0||1|FM15-METAR|223|ICAO-KTSP|3.0||1|FM15-METAR|223|ICAO-KTSP|||||||||||||090|N-Normal|1|FM15-METAR|223|ICAO-KTSP|3.6|N-Normal|1|FM15-METAR|223|ICAO-KTSP|||||||||||||93|Derived||FM15-METAR|223|ICAO-KTSP|||||||||||||||||||||||||||||||||||||||||||||||||||||||||||||||||||||||||1016.3||1|FM15-METAR|223|ICAO-KTSP|||||||SCT:04|04-Four-ok|4|FM15-METAR|223|ICAO-KTSP|||||||||||||||||||||||||||||||MET064METAR KTSP 121555Z AUTO 09007KT 10SM SCT040 04/03 A3001 RMK AO2;||F||223|ICAO-KTSP
USW00000479|TEHACHAPI MUNI AP|2009|12|12|16|15|35.1350|-118.4392|1219.5|5.0||1|FM15-METAR|223|ICAO-KTSP|3.0||1|FM15-METAR|223|ICAO-KTSP|||||||||||||090|N-Normal|1|FM15-METAR|223|ICAO-KTSP|2.1|N-Normal|1|FM15-METAR|223|ICAO-KTSP|||||||||||||87|Derived||FM15-METAR|223|ICAO-KTSP|||||||||||||||||||||||||||||||||||||||||||||||||||||||||||||||||||||||||1016.3||1|FM15-METAR|223|ICAO-KTSP|||||||||||||||||||||||||||||||||||||||||||MET061METAR KTSP 121615Z AUTO 09004KT 10SM CLR 05/03 A3001 RMK AO2;||F||223|ICAO-KTSP
USW00000479|TEHACHAPI MUNI AP|2009|12|12|16|35|35.1350|-118.4392|1219.5|5.0||1|FM15-METAR|223|ICAO-KTSP|3.0||1|FM15-METAR|223|ICAO-KTSP|||||||||||||130|N-Normal|1|FM15-METAR|223|ICAO-KTSP|3.1|N-Normal|1|FM15-METAR|223|ICAO-KTSP|||||||||||||87|Derived||FM15-METAR|223|ICAO-KTSP|||||||||||||||||||||||||||||||||||||||||||||||||||||||||||||||||||||||||1016.3||1|FM15-METAR|223|ICAO-KTSP|||||||||||||||||||||||||||||||||||||||||||MET061METAR KTSP 121635Z AUTO 13006KT 10SM CLR 05/03 A3001 RMK AO2;||F||223|ICAO-KTSP
USW00000479|TEHACHAPI MUNI AP|2009|12|12|17|00|35.1350|-118.4392|1219.5|6.0||1|FM15-METAR|223|ICAO-KTSP|4.0||1|FM15-METAR|223|ICAO-KTSP|||||||||||||070|N-Normal|1|FM15-METAR|223|ICAO-KTSP|3.6|N-Normal|1|FM15-METAR|223|ICAO-KTSP|||||||||||||87|Derived||FM15-METAR|223|ICAO-KTSP|||||||||||||||||||||||||||||||||||||||||||||||||||||||||||||||||||||||||1015.9||1|FM15-METAR|223|ICAO-KTSP|||||||||||||||||||||||||||||||||||||||||||MET061METAR KTSP 121655Z AUTO 07007KT 10SM CLR 06/04 A3000 RMK AO2;||F||223|ICAO-KTSP
USW00000479|TEHACHAPI MUNI AP|2009|12|12|17|15|35.1350|-118.4392|1219.5|8.0||1|FM15-METAR|223|ICAO-KTSP|4.0||1|FM15-METAR|223|ICAO-KTSP|||||||||||||080|N-Normal|1|FM15-METAR|223|ICAO-KTSP|4.6|N-Normal|1|FM15-METAR|223|ICAO-KTSP|||||||||||||76|Derived||FM15-METAR|223|ICAO-KTSP|||||||||||||||||||||||||||||||||||||||||||||||||||||||||||||||||||||||||1015.9||1|FM15-METAR|223|ICAO-KTSP|||||||||||||||||||||||||||||||||||||||||||MET061METAR KTSP 121715Z AUTO 08009KT 10SM CLR 08/04 A3000 RMK AO2;||F||223|ICAO-KTSP
USW00000479|TEHACHAPI MUNI AP|2009|12|12|17|35|35.1350|-118.4392|1219.5|9.0||1|FM15-METAR|223|ICAO-KTSP|5.0||1|FM15-METAR|223|ICAO-KTSP|||||||||||||100|N-Normal|1|FM15-METAR|223|ICAO-KTSP|5.1|N-Normal|1|FM15-METAR|223|ICAO-KTSP|||||||||||||76|Derived||FM15-METAR|223|ICAO-KTSP|||||||||||||||||||||||||||||||||||||||||||||||||||||||||||||||||||||||||1015.6||1|FM15-METAR|223|ICAO-KTSP|||||||||||||||||||||||||||||||||||||||||||MET061METAR KTSP 121735Z AUTO 10010KT 10SM CLR 09/05 A2999 RMK AO2;||F||223|ICAO-KTSP
USW00000479|TEHACHAPI MUNI AP|2009|12|12|18|00|35.1350|-118.4392|1219.5|9.0||1|FM15-METAR|223|ICAO-KTSP|6.0||1|FM15-METAR|223|ICAO-KTSP|||||||||||||100|N-Normal|1|FM15-METAR|223|ICAO-KTSP|6.2|N-Normal|1|FM15-METAR|223|ICAO-KTSP|8.2||1|FM15-METAR|223|ICAO-KTSP|||||||82|Derived||FM15-METAR|223|ICAO-KTSP|||||||||||||||||||||||||||||||||||||||||||||||||||||||||||||||||||||||||1015.2||1|FM15-METAR|223|ICAO-KTSP|||||||||||||||||||||||||||||||||||||||||||MET064METAR KTSP 121755Z AUTO 10012G16KT 10SM CLR 09/06 A2998 RMK AO2;||F||223|ICAO-KTSP
USW00000479|TEHACHAPI MUNI AP|2009|12|12|18|15|35.1350|-118.4392|1219.5|10.0||1|FM15-METAR|223|ICAO-KTSP|7.0||1|FM15-METAR|223|ICAO-KTSP|||||||||||||100|N-Normal|1|FM15-METAR|223|ICAO-KTSP|5.7|N-Normal|1|FM15-METAR|223|ICAO-KTSP|8.2||1|FM15-METAR|223|ICAO-KTSP|||||||82|Derived||FM15-METAR|223|ICAO-KTSP|||||||||||||||||||||||||||||||||||||||||||||||||||||||||||||||||||||||||1015.2||1|FM15-METAR|223|ICAO-KTSP|||||||||||||||||||||||||||||||||||||||||||MET064METAR KTSP 121815Z AUTO 10011G16KT 10SM CLR 10/07 A2998 RMK AO2;||F||223|ICAO-KTSP
USW00000479|TEHACHAPI MUNI AP|2009|12|12|18|35|35.1350|-118.4392|1219.5|10.0||1|FM15-METAR|223|ICAO-KTSP|7.0||1|FM15-METAR|223|ICAO-KTSP|||||||||||||090|N-Normal|1|FM15-METAR|223|ICAO-KTSP|5.7|N-Normal|1|FM15-METAR|223|ICAO-KTSP|8.2||1|FM15-METAR|223|ICAO-KTSP|||||||82|Derived||FM15-METAR|223|ICAO-KTSP|||||||||||||||||||||||||||||||||||||||||||||||||||||||||||||||||||||||||1015.6||1|FM15-METAR|223|ICAO-KTSP|||||||SCT:04|04-Four-ok|4|FM15-METAR|223|ICAO-KTSP|||||||SCT:04|04-Four-ok|4|FM15-METAR|223|ICAO-KTSP|||||||||||||||||||MET074METAR KTSP 121835Z AUTO 09011G16KT 10SM SCT032 SCT075 10/07 A2999 RMK AO2;||F||223|ICAO-KTSP
USW00000479|TEHACHAPI MUNI AP|2009|12|12|19|00|35.1350|-118.4392|1219.5|10.0||1|FM15-METAR|223|ICAO-KTSP|7.0||1|FM15-METAR|223|ICAO-KTSP|||||||||||||090|N-Normal|1|FM15-METAR|223|ICAO-KTSP|9.3|N-Normal|1|FM15-METAR|223|ICAO-KTSP|11.8||1|FM15-METAR|223|ICAO-KTSP|||||||82|Derived||FM15-METAR|223|ICAO-KTSP|||||||||||||||||||||||||||||||||||||||||||||||||||||||||||||||||||||||||1014.6||1|FM15-METAR|223|ICAO-KTSP|||||||FEW:02|02-Two-okt|4|FM15-METAR|223|ICAO-KTSP|||||||SCT:04|04-Four-ok|4|FM15-METAR|223|ICAO-KTSP|||||||||||||||||||MET081METAR KTSP 121855Z AUTO 09018G23KT 10SM FEW021 SCT032 SCT070 10/07 A2996 RMK AO2;||F||223|ICAO-KTSP
USW00000479|TEHACHAPI MUNI AP|2009|12|12|19|15|35.1350|-118.4392|1219.5|10.0||1|FM15-METAR|223|ICAO-KTSP|7.0||1|FM15-METAR|223|ICAO-KTSP|||||||||||||160|N-Normal|1|FM15-METAR|223|ICAO-KTSP|2.6|N-Normal|1|FM15-METAR|223|ICAO-KTSP|10.3||1|FM15-METAR|223|ICAO-KTSP|||||||82|Derived||FM15-METAR|223|ICAO-KTSP|||||||||||||||||||||||||||||||||||||||||||||||||||||||||||||||||||||||||1014.2||1|FM15-METAR|223|ICAO-KTSP|||||||FEW:02|02-Two-okt|4|FM15-METAR|223|ICAO-KTSP|||||||||||||||||||||||||||||||MET075METAR KTSP 121915Z AUTO 16005G20KT 020V040 10SM FEW021 10/07 A2995 RMK AO2;||F||223|ICAO-KTSP
USW00000479|TEHACHAPI MUNI AP|2009|12|12|19|35|35.1350|-118.4392|1219.5|12.0||1|FM15-METAR|223|ICAO-KTSP|5.0||1|FM15-METAR|223|ICAO-KTSP|||||||||||||999|C-Calm|9|FM15-METAR|223|ICAO-KTSP|0.0|C-Calm|1|FM15-METAR|223|ICAO-KTSP|||||||||||||63|Derived||FM15-METAR|223|ICAO-KTSP|||||||||||||||||||||||||||||||||||||||||||||||||||||||||||||||||||||||||1013.9||1|FM15-METAR|223|ICAO-KTSP|||||||||||||||||||||||||||||||||||||||||||MET061METAR KTSP 121935Z AUTO 00000KT 10SM CLR 12/05 A2994 RMK AO2;||F||223|ICAO-KTSP
USW00000479|TEHACHAPI MUNI AP|2009|12|12|20|00|35.1350|-118.4392|1219.5|13.0||1|FM15-METAR|223|ICAO-KTSP|4.0||1|FM15-METAR|223|ICAO-KTSP|||||||||||||210|N-Normal|1|FM15-METAR|223|ICAO-KTSP|2.6|N-Normal|1|FM15-METAR|223|ICAO-KTSP|||||||||||||55|Derived||FM15-METAR|223|ICAO-KTSP|||||||||||||||||||||||||||||||||||||||||||||||||||||||||||||||||||||||||1013.5||1|FM15-METAR|223|ICAO-KTSP|||||||||||||||||||||||||||||||||||||||||||MET061METAR KTSP 121955Z AUTO 21005KT 10SM CLR 13/04 A2993 RMK AO2;||F||223|ICAO-KTSP
USW00000479|TEHACHAPI MUNI AP|2009|12|12|20|15|35.1350|-118.4392|1219.5|12.0||1|FM15-METAR|223|ICAO-KTSP|4.0||1|FM15-METAR|223|ICAO-KTSP|||||||||||||190|N-Normal|1|FM15-METAR|223|ICAO-KTSP|4.6|N-Normal|1|FM15-METAR|223|ICAO-KTSP|7.2||1|FM15-METAR|223|ICAO-KTSP|||||||58|Derived||FM15-METAR|223|ICAO-KTSP|||||||||||||||||||||||||||||||||||||||||||||||||||||||||||||||||||||||||1013.2||1|FM15-METAR|223|ICAO-KTSP|||||||FEW:02|02-Two-okt|4|FM15-METAR|223|ICAO-KTSP|||||||||||||||||||||||||||||||MET067METAR KTSP 122015Z AUTO 19009G14KT 10SM FEW120 12/04 A2992 RMK AO2;||F||223|ICAO-KTSP
USW00000479|TEHACHAPI MUNI AP|2009|12|12|20|35|35.1350|-118.4392|1219.5|12.0||1|FM15-METAR|223|ICAO-KTSP|4.0||1|FM15-METAR|223|ICAO-KTSP|||||||||||||200|N-Normal|1|FM15-METAR|223|ICAO-KTSP|6.2|N-Normal|1|FM15-METAR|223|ICAO-KTSP|11.8||1|FM15-METAR|223|ICAO-KTSP|||||||58|Derived||FM15-METAR|223|ICAO-KTSP|||||||||||||||||||||||||||||||||||||||||||||||||||||||||||||||||||||||||1012.9||1|FM15-METAR|223|ICAO-KTSP|||||||BKN:07|07-Seven-o|4|FM15-METAR|223|ICAO-KTSP|||||||||||||||||||||||||||||||MET067METAR KTSP 122035Z AUTO 20012G23KT 10SM BKN120 12/04 A2991 RMK AO2;||F||223|ICAO-KTSP
USW00000479|TEHACHAPI MUNI AP|2009|12|12|21|00|35.1350|-118.4392|1219.5|12.0||1|FM15-METAR|223|ICAO-KTSP|4.0||1|FM15-METAR|223|ICAO-KTSP|||||||||||||210|N-Normal|1|FM15-METAR|223|ICAO-KTSP|5.7|N-Normal|1|FM15-METAR|223|ICAO-KTSP|9.8||1|FM15-METAR|223|ICAO-KTSP|||||||58|Derived||FM15-METAR|223|ICAO-KTSP|||||||||||||||||||||||||||||||||||||||||||||||||||||||||||||||||||||||||1012.5||1|FM15-METAR|223|ICAO-KTSP|||||||BKN:07|07-Seven-o|4|FM15-METAR|223|ICAO-KTSP|||||||||||||||||||||||||||||||MET067METAR KTSP 122055Z AUTO 21011G19KT 10SM BKN110 12/04 A2990 RMK AO2;||F||223|ICAO-KTSP
USW00000479|TEHACHAPI MUNI AP|2009|12|12|21|15|35.1350|-118.4392|1219.5|12.0||1|FM15-METAR|223|ICAO-KTSP|5.0||1|FM15-METAR|223|ICAO-KTSP|||||||||||||220|N-Normal|1|FM15-METAR|223|ICAO-KTSP|2.6|N-Normal|1|FM15-METAR|223|ICAO-KTSP|8.7||1|FM15-METAR|223|ICAO-KTSP|||||||63|Derived||FM15-METAR|223|ICAO-KTSP|||||||||||||||||||||||||||||||||||||||||||||||||||||||||||||||||||||||||1012.5||1|FM15-METAR|223|ICAO-KTSP|||||||BKN:07|07-Seven-o|4|FM15-METAR|223|ICAO-KTSP|||||||||||||||||||||||||||||||MET067METAR KTSP 122115Z AUTO 22005G17KT 10SM BKN110 12/05 A2990 RMK AO2;||F||223|ICAO-KTSP
USW00000479|TEHACHAPI MUNI AP|2009|12|12|21|35|35.1350|-118.4392|1219.5|12.0||1|FM15-METAR|223|ICAO-KTSP|4.0||1|FM15-METAR|223|ICAO-KTSP|||||||||||||220|N-Normal|1|FM15-METAR|223|ICAO-KTSP|5.7|N-Normal|1|FM15-METAR|223|ICAO-KTSP|8.7||1|FM15-METAR|223|ICAO-KTSP|||||||58|Derived||FM15-METAR|223|ICAO-KTSP|||||||||||||||||||||||||||||||||||||||||||||||||||||||||||||||||||||||||1012.2||1|FM15-METAR|223|ICAO-KTSP|||||||BKN:07|07-Seven-o|4|FM15-METAR|223|ICAO-KTSP|||||||||||||||||||||||||||||||MET067METAR KTSP 122135Z AUTO 22011G17KT 10SM BKN100 12/04 A2989 RMK AO2;||F||223|ICAO-KTSP
USW00000479|TEHACHAPI MUNI AP|2009|12|12|22|00|35.1350|-118.4392|1219.5|12.0||1|FM15-METAR|223|ICAO-KTSP|4.0||1|FM15-METAR|223|ICAO-KTSP|||||||||||||230|N-Normal|1|FM15-METAR|223|ICAO-KTSP|5.7|N-Normal|1|FM15-METAR|223|ICAO-KTSP|11.8||1|FM15-METAR|223|ICAO-KTSP|||||||58|Derived||FM15-METAR|223|ICAO-KTSP|||||||||||||||||||||||||||||||||||||||||||||||||||||||||||||||||||||||||1011.9||1|FM15-METAR|223|ICAO-KTSP|||||||FEW:02|02-Two-okt|4|FM15-METAR|223|ICAO-KTSP|||||||SCT:04|04-Four-ok|4|FM15-METAR|223|ICAO-KTSP|||||||||||||||||||MET074METAR KTSP 122155Z AUTO 23011G23KT 10SM FEW075 SCT100 12/04 A2988 RMK AO2;||F||223|ICAO-KTSP
USW00000479|TEHACHAPI MUNI AP|2009|12|12|22|15|35.1350|-118.4392|1219.5|12.0||1|FM15-METAR|223|ICAO-KTSP|4.0||1|FM15-METAR|223|ICAO-KTSP|||||||||||||210|N-Normal|1|FM15-METAR|223|ICAO-KTSP|7.2|N-Normal|1|FM15-METAR|223|ICAO-KTSP|12.3||1|FM15-METAR|223|ICAO-KTSP|||||||58|Derived||FM15-METAR|223|ICAO-KTSP|||||||||||||||||||||||||||||||||||||||||||||||||||||||||||||||||||||||||1012.2||1|FM15-METAR|223|ICAO-KTSP|||||||SCT:04|04-Four-ok|4|FM15-METAR|223|ICAO-KTSP|||||||BKN:07|07-Seven-o|4|FM15-METAR|223|ICAO-KTSP|||||||||||||||||||MET074METAR KTSP 122215Z AUTO 21014G24KT 10SM SCT065 BKN090 12/04 A2989 RMK AO2;||F||223|ICAO-KTSP
USW00000479|TEHACHAPI MUNI AP|2009|12|12|23|00|35.1350|-118.4392|1219.5|11.0||1|FM15-METAR|223|ICAO-KTSP|4.0||1|FM15-METAR|223|ICAO-KTSP|||||||||||||999|C-Calm|9|FM15-METAR|223|ICAO-KTSP|0.0|C-Calm|1|FM15-METAR|223|ICAO-KTSP|||||||||||||62|Derived||FM15-METAR|223|ICAO-KTSP|||||||||||||||||||||||||||||||||||||||||||||||||||||||||||||||||||||||||1011.9||1|FM15-METAR|223|ICAO-KTSP|||||||SCT:04|04-Four-ok|4|FM15-METAR|223|ICAO-KTSP|||||||SCT:04|04-Four-ok|4|FM15-METAR|223|ICAO-KTSP|||||||||||||||||||MET078METAR KTSP 122255Z AUTO 00000KT 10SM SCT038 SCT070 SCT090 11/04 A2988 RMK AO2;||F||223|ICAO-KTSP
USW00000479|TEHACHAPI MUNI AP|2009|12|12|23|15|35.1350|-118.4392|1219.5|11.0||1|FM15-METAR|223|ICAO-KTSP|4.0||1|FM15-METAR|223|ICAO-KTSP|||||||||||||270|N-Normal|1|FM15-METAR|223|ICAO-KTSP|3.6|N-Normal|1|FM15-METAR|223|ICAO-KTSP|||||||||||||62|Derived||FM15-METAR|223|ICAO-KTSP|||||||||||||||||||||||||||||||||||||||||||||||||||||||||||||||||||||||||1012.2||1|FM15-METAR|223|ICAO-KTSP|||||||BKN:07|07-Seven-o|4|FM15-METAR|223|ICAO-KTSP|||||||BKN:07|07-Seven-o|4|FM15-METAR|223|ICAO-KTSP|||||||||||||||||||MET071METAR KTSP 122315Z AUTO 27007KT 10SM BKN033 BKN040 11/04 A2989 RMK AO2;||F||223|ICAO-KTSP
USW00000479|TEHACHAPI MUNI AP|2009|12|12|23|35|35.1350|-118.4392|1219.5|10.0||1|FM15-METAR|223|ICAO-KTSP|4.0||1|FM15-METAR|223|ICAO-KTSP|||||||||||||240|N-Normal|1|FM15-METAR|223|ICAO-KTSP|3.1|N-Normal|1|FM15-METAR|223|ICAO-KTSP|||||||||||||67|Derived||FM15-METAR|223|ICAO-KTSP|||||||||||||||||||||||||||||||||||||||||||||||||||||||||||||||||||||||||1011.2||1|FM15-METAR|223|ICAO-KTSP|||||||SCT:04|04-Four-ok|4|FM15-METAR|223|ICAO-KTSP|||||||BKN:07|07-Seven-o|4|FM15-METAR|223|ICAO-KTSP|||||||||||||||||||MET077METAR KTSP 122335Z AUTO 24006KT 9SM SCT033 BKN042 BKN050 10/04 A2986 RMK AO2;||F||223|ICAO-KTSP
USW00000479|TEHACHAPI MUNI AP|2009|12|13|00|00|35.1350|-118.4392|1219.5|11.0||1|FM15-METAR|223|ICAO-KTSP|5.0||1|FM15-METAR|223|ICAO-KTSP|||||||||||||330|N-Normal|1|FM15-METAR|223|ICAO-KTSP|2.6|N-Normal|1|FM15-METAR|223|ICAO-KTSP|||||||||||||67|Derived||FM15-METAR|223|ICAO-KTSP|||||||||||||||||||||||||||||||||||||||||||||||||||||||||||||||||||||||||1010.8||1|FM15-METAR|223|ICAO-KTSP|||||||BKN:07|07-Seven-o|4|FM15-METAR|223|ICAO-KTSP|||||||BKN:07|07-Seven-o|4|FM15-METAR|223|ICAO-KTSP|||||||||||||||||||MET078METAR KTSP 122355Z AUTO 33005KT 10SM BKN031 BKN038 OVC044 11/05 A2985 RMK AO2;||F||223|ICAO-KTSP
USW00000479|TEHACHAPI MUNI AP|2009|12|13|00|15|35.1350|-118.4392|1219.5|10.0||1|FM15-METAR|223|ICAO-KTSP|5.0||1|FM15-METAR|223|ICAO-KTSP|||||||||||||230|N-Normal|1|FM15-METAR|223|ICAO-KTSP|8.2|N-Normal|1|FM15-METAR|223|ICAO-KTSP|11.3||1|FM15-METAR|223|ICAO-KTSP|||||||71|Derived||FM15-METAR|223|ICAO-KTSP|||||||||||||||||||||||||||||||||||||||||||||||||||||||||||||||||||||||||1010.8||1|FM15-METAR|223|ICAO-KTSP|||||||BKN:07|07-Seven-o|4|FM15-METAR|223|ICAO-KTSP|||||||BKN:07|07-Seven-o|4|FM15-METAR|223|ICAO-KTSP|||||||||||||||||||MET085METAR KTSP 130015Z AUTO 23016G22KT 10SM BKN029 BKN080 10/05 A2985 RMK AO2 LTG DSNT N;||F||223|ICAO-KTSP
USW00000479|TEHACHAPI MUNI AP|2009|12|13|00|35|35.1350|-118.4392|1219.5|12.0||1|FM15-METAR|223|ICAO-KTSP|5.0||1|FM15-METAR|223|ICAO-KTSP|||||||||||||230|N-Normal|1|FM15-METAR|223|ICAO-KTSP|7.2|N-Normal|1|FM15-METAR|223|ICAO-KTSP|12.3||1|FM15-METAR|223|ICAO-KTSP|||||||63|Derived||FM15-METAR|223|ICAO-KTSP|||||||||||||||||||||||||||||||||||||||||||||||||||||||||||||||||||||||||1010.5||1|FM15-METAR|223|ICAO-KTSP|||||||FEW:02|02-Two-okt|4|FM15-METAR|223|ICAO-KTSP|||||||SCT:04|04-Four-ok|4|FM15-METAR|223|ICAO-KTSP|||||||||||||||||||MET081METAR KTSP 130035Z AUTO 23014G24KT 10SM FEW036 SCT080 BKN095 12/05 A2984 RMK AO2;||F||223|ICAO-KTSP
USW00000479|TEHACHAPI MUNI AP|2009|12|13|01|00|35.1350|-118.4392|1219.5|11.0||1|FM15-METAR|223|ICAO-KTSP|5.0||1|FM15-METAR|223|ICAO-KTSP|||||||||||||240|N-Normal|1|FM15-METAR|223|ICAO-KTSP|5.1|N-Normal|1|FM15-METAR|223|ICAO-KTSP|10.8||1|FM15-METAR|223|ICAO-KTSP|||||||67|Derived||FM15-METAR|223|ICAO-KTSP|||||||||||||||||||||||||||||||||||||||||||||||||||||||||||||||||||||||||1010.8||1|FM15-METAR|223|ICAO-KTSP|||||||FEW:02|02-Two-okt|4|FM15-METAR|223|ICAO-KTSP|||||||SCT:04|04-Four-ok|4|FM15-METAR|223|ICAO-KTSP|||||||||||||||||||MET081METAR KTSP 130055Z AUTO 24010G21KT 10SM FEW035 SCT055 BKN085 11/05 A2985 RMK AO2;||F||223|ICAO-KTSP
USW00000479|TEHACHAPI MUNI AP|2009|12|13|01|15|35.1350|-118.4392|1219.5|11.0||1|FM15-METAR|223|ICAO-KTSP|5.0||1|FM15-METAR|223|ICAO-KTSP|||||||||||||210|N-Normal|1|FM15-METAR|223|ICAO-KTSP|5.1|N-Normal|1|FM15-METAR|223|ICAO-KTSP|8.2||1|FM15-METAR|223|ICAO-KTSP|||||||67|Derived||FM15-METAR|223|ICAO-KTSP|||||||||||||||||||||||||||||||||||||||||||RA:61|RA:61-Rain|1|FM15-METAR|223|ICAO-KTSP|||||||||||||||||||||||||1010.8||1|FM15-METAR|223|ICAO-KTSP|||||||SCT:04|04-Four-ok|4|FM15-METAR|223|ICAO-KTSP|||||||BKN:07|07-Seven-o|4|FM15-METAR|223|ICAO-KTSP|||||||||||||||||||MET084METAR KTSP 130115Z AUTO 21010G16KT 8SM -RA SCT030 BKN039 BKN055 11/05 A2985 RMK AO2;||F||223|ICAO-KTSP
USW00000479|TEHACHAPI MUNI AP|2009|12|13|01|35|35.1350|-118.4392|1219.5|10.0||1|FM15-METAR|223|ICAO-KTSP|7.0||1|FM15-METAR|223|ICAO-KTSP|||||||||||||240|N-Normal|1|FM15-METAR|223|ICAO-KTSP|5.7|N-Normal|1|FM15-METAR|223|ICAO-KTSP|8.2||1|FM15-METAR|223|ICAO-KTSP|||||||82|Derived||FM15-METAR|223|ICAO-KTSP|||||||||||||||||||||||||||||||||||||||||||RA:61|RA:61-Rain|1|FM15-METAR|223|ICAO-KTSP|||||||||||||||||||||||||1010.8||1|FM15-METAR|223|ICAO-KTSP|||||||FEW:02|02-Two-okt|4|FM15-METAR|223|ICAO-KTSP|||||||SCT:04|04-Four-ok|4|FM15-METAR|223|ICAO-KTSP|||||||||||||||||||MET084METAR KTSP 130135Z AUTO 24011G16KT 6SM -RA FEW017 SCT026 BKN032 10/07 A2985 RMK AO2;||F||223|ICAO-KTSP
USW00000479|TEHACHAPI MUNI AP|2009|12|13|02|00|35.1350|-118.4392|1219.5|10.0||1|FM15-METAR|223|ICAO-KTSP|5.0||1|FM15-METAR|223|ICAO-KTSP|||||||||||||230|N-Normal|1|FM15-METAR|223|ICAO-KTSP|3.6|N-Normal|1|FM15-METAR|223|ICAO-KTSP|7.7||1|FM15-METAR|223|ICAO-KTSP|||||||71|Derived||FM15-METAR|223|ICAO-KTSP|||||||||||||||||||||||||||||||||||||||||||||||||||||||||||||||||||||||||1010.8||1|FM15-METAR|223|ICAO-KTSP|||||||FEW:02|02-Two-okt|4|FM15-METAR|223|ICAO-KTSP|||||||SCT:04|04-Four-ok|4|FM15-METAR|223|ICAO-KTSP|||||||||||||||||||MET081METAR KTSP 130155Z AUTO 23007G15KT 10SM FEW027 SCT032 BKN038 10/05 A2985 RMK AO2;||F||223|ICAO-KTSP
USW00000479|TEHACHAPI MUNI AP|2009|12|13|02|15|35.1350|-118.4392|1219.5|10.0||1|FM15-METAR|223|ICAO-KTSP|5.0||1|FM15-METAR|223|ICAO-KTSP|||||||||||||200|N-Normal|1|FM15-METAR|223|ICAO-KTSP|2.6|N-Normal|1|FM15-METAR|223|ICAO-KTSP|||||||||||||71|Derived||FM15-METAR|223|ICAO-KTSP|||||||||||||||||||||||||||||||||||||||||||||||||||||||||||||||||||||||||1010.5||1|FM15-METAR|223|ICAO-KTSP|||||||FEW:02|02-Two-okt|4|FM15-METAR|223|ICAO-KTSP|||||||SCT:04|04-Four-ok|4|FM15-METAR|223|ICAO-KTSP|||||||||||||||||||MET078METAR KTSP 130215Z AUTO 20005KT 10SM FEW032 SCT040 BKN046 10/05 A2984 RMK AO2;||F||223|ICAO-KTSP
USW00000479|TEHACHAPI MUNI AP|2009|12|13|03|00|35.1350|-118.4392|1219.5|10.0||1|FM15-METAR|223|ICAO-KTSP|4.0||1|FM15-METAR|223|ICAO-KTSP|||||||||||||220|N-Normal|1|FM15-METAR|223|ICAO-KTSP|3.1|N-Normal|1|FM15-METAR|223|ICAO-KTSP|9.3||1|FM15-METAR|223|ICAO-KTSP|||||||67|Derived||FM15-METAR|223|ICAO-KTSP|||||||||||||||||||||||||||||||||||||||||||||||||||||||||||||||||||||||||1010.2||1|FM15-METAR|223|ICAO-KTSP|||||||FEW:02|02-Two-okt|4|FM15-METAR|223|ICAO-KTSP|||||||||||||||||||||||||||||||MET067METAR KTSP 130255Z AUTO 22006G18KT 10SM FEW035 10/04 A2983 RMK AO2;||F||223|ICAO-KTSP
USW00000479|TEHACHAPI MUNI AP|2009|12|13|03|15|35.1350|-118.4392|1219.5|10.0||1|FM15-METAR|223|ICAO-KTSP|4.0||1|FM15-METAR|223|ICAO-KTSP|||||||||||||270|N-Normal|1|FM15-METAR|223|ICAO-KTSP|5.1|N-Normal|1|FM15-METAR|223|ICAO-KTSP|7.2||1|FM15-METAR|223|ICAO-KTSP|||||||67|Derived||FM15-METAR|223|ICAO-KTSP|||||||||||||||||||||||||||||||||||||||||||||||||||||||||||||||||||||||||1009.8||1|FM15-METAR|223|ICAO-KTSP|||||||SCT:04|04-Four-ok|4|FM15-METAR|223|ICAO-KTSP|||||||||||||||||||||||||||||||MET067METAR KTSP 130315Z AUTO 27010G14KT 10SM SCT065 10/04 A2982 RMK AO2;||F||223|ICAO-KTSP
USW00000479|TEHACHAPI MUNI AP|2009|12|13|03|35|35.1350|-118.4392|1219.5|11.0||1|FM15-METAR|223|ICAO-KTSP|3.0||1|FM15-METAR|223|ICAO-KTSP|||||||||||||260|N-Normal|1|FM15-METAR|223|ICAO-KTSP|5.1|N-Normal|1|FM15-METAR|223|ICAO-KTSP|11.3||1|FM15-METAR|223|ICAO-KTSP|||||||58|Derived||FM15-METAR|223|ICAO-KTSP|||||||||||||||||||||||||||||||||||||||||||||||||||||||||||||||||||||||||1009.8||1|FM15-METAR|223|ICAO-KTSP|||||||BKN:07|07-Seven-o|4|FM15-METAR|223|ICAO-KTSP|||||||BKN:07|07-Seven-o|4|FM15-METAR|223|ICAO-KTSP|||||||||||||||||||MET074METAR KTSP 130335Z AUTO 26010G22KT 10SM BKN055 BKN065 11/03 A2982 RMK AO2;||F||223|ICAO-KTSP
USW00000479|TEHACHAPI MUNI AP|2009|12|13|04|00|35.1350|-118.4392|1219.5|11.0||1|FM15-METAR|223|ICAO-KTSP|4.0||1|FM15-METAR|223|ICAO-KTSP|||||||||||||250|N-Normal|1|FM15-METAR|223|ICAO-KTSP|4.6|N-Normal|1|FM15-METAR|223|ICAO-KTSP|||||||||||||62|Derived||FM15-METAR|223|ICAO-KTSP|||||||||||||||||||||||||||||||||||||||||||RA:61|RA:61-Rain|1|FM15-METAR|223|ICAO-KTSP|||||||||||||||||||||||||1009.8||1|FM15-METAR|223|ICAO-KTSP|||||||BKN:07|07-Seven-o|4|FM15-METAR|223|ICAO-KTSP|||||||OVC:08|08-Eight-o|4|FM15-METAR|223|ICAO-KTSP|||||||||||||||||||MET074METAR KTSP 130355Z AUTO 25009KT 9SM -RA BKN041 OVC055 11/04 A2982 RMK AO2;||F||223|ICAO-KTSP
USW00000479|TEHACHAPI MUNI AP|2009|12|13|04|15|35.1350|-118.4392|1219.5|8.0||1|FM15-METAR|223|ICAO-KTSP|6.0||1|FM15-METAR|223|ICAO-KTSP|||||||||||||320|N-Normal|1|FM15-METAR|223|ICAO-KTSP|9.3|N-Normal|1|FM15-METAR|223|ICAO-KTSP|11.3||1|FM15-METAR|223|ICAO-KTSP|||||||87|Derived||FM15-METAR|223|ICAO-KTSP|||||||||||||||||||||||||||||||||||||||||||BR:10|BR:10-Mist|1|FM15-METAR|223|ICAO-KTSP|||||||||||||||||||||||||1009.5||1|FM15-METAR|223|ICAO-KTSP|||||||BKN:07|07-Seven-o|4|FM15-METAR|223|ICAO-KTSP|||||||OVC:08|08-Eight-o|4|FM15-METAR|223|ICAO-KTSP|||||||||||||||||||MET076METAR KTSP 130415Z AUTO 32018G22KT 2SM BR BKN002 OVC037 08/06 A2981 RMK AO2;||F||223|ICAO-KTSP
USW00000479|TEHACHAPI MUNI AP|2009|12|13|04|35|35.1350|-118.4392|1219.5|6.0||1|FM15-METAR|223|ICAO-KTSP|5.0||1|FM15-METAR|223|ICAO-KTSP|||||||||||||320|N-Normal|1|FM15-METAR|223|ICAO-KTSP|8.7|N-Normal|1|FM15-METAR|223|ICAO-KTSP|13.4||1|FM15-METAR|223|ICAO-KTSP|||||||93|Derived||FM15-METAR|223|ICAO-KTSP|||||||||||||||||||||||||||||||||||||||||||RA:61|RA:61-Rain|1|FM15-METAR|223|ICAO-KTSP|||||||||||||||||||||||||1009.5||1|FM15-METAR|223|ICAO-KTSP|||||||OVC:08|08-Eight-o|4|FM15-METAR|223|ICAO-KTSP|||||||||||||||||||||||||||||||MET073METAR KTSP 130435Z AUTO 32017G26KT M1/4SM -RA OVC001 06/05 A2981 RMK AO2;||F||223|ICAO-KTSP
USW00000479|TEHACHAPI MUNI AP|2009|12|13|07|15|35.1350|-118.4392|1219.5|5.0||1|FM15-METAR|223|ICAO-KTSP|5.0||1|FM15-METAR|223|ICAO-KTSP|||||||||||||320|N-Normal|1|FM15-METAR|223|ICAO-KTSP|9.3|N-Normal|1|FM15-METAR|223|ICAO-KTSP|11.3||1|FM15-METAR|223|ICAO-KTSP|||||||100|Derived||FM15-METAR|223|ICAO-KTSP|||||||||||||||||||||||||||||||||||||||||||BR:10|BR:10-Mist|1|FM15-METAR|223|ICAO-KTSP|||||||||||||||||||||||||1009.5||1|FM15-METAR|223|ICAO-KTSP|||||||OVC:08|08-Eight-o|4|FM15-METAR|223|ICAO-KTSP|||||||||||||||||||||||||||||||MET069METAR KTSP 130715Z AUTO 32018G22KT 1SM BR OVC001 05/05 A2981 RMK AO2;||F||223|ICAO-KTSP
USW00000479|TEHACHAPI MUNI AP|2009|12|13|07|35|35.1350|-118.4392|1219.5|4.0||1|FM15-METAR|223|ICAO-KTSP|4.0||1|FM15-METAR|223|ICAO-KTSP|||||||||||||310|N-Normal|1|FM15-METAR|223|ICAO-KTSP|7.7|N-Normal|1|FM15-METAR|223|ICAO-KTSP|||||||3.6|9-Missing|9|FM15-METAR|223|ICAO-KTSP|100|Derived||FM15-METAR|223|ICAO-KTSP|||||||||||||||||||||||||||||||||||||||||||RA:63|RA:63-Rain|1|FM15-METAR|223|ICAO-KTSP|||||||||||||||||||||||||1009.8||1|FM15-METAR|223|ICAO-KTSP|||||||BKN:07|07-Seven-o|4|FM15-METAR|223|ICAO-KTSP|||||||OVC:08|08-Eight-o|4|FM15-METAR|223|ICAO-KTSP|||||||||||||||||||MET093METAR KTSP 130735Z AUTO 31015KT 2SM +RA BKN003 OVC009 04/04 A2982 RMK AO2 VSBY 1 1/4V5 P0014;||F||223|ICAO-KTSP
USW00000479|TEHACHAPI MUNI AP|2009|12|13|08|00|35.1350|-118.4392|1219.5|4.0||1|FM15-METAR|223|ICAO-KTSP|4.0||1|FM15-METAR|223|ICAO-KTSP|||||||||||||290|N-Normal|1|FM15-METAR|223|ICAO-KTSP|6.7|N-Normal|1|FM15-METAR|223|ICAO-KTSP|9.3||1|FM15-METAR|223|ICAO-KTSP|6.6|9-Missing|9|FM15-METAR|223|ICAO-KTSP|100|Derived||FM15-METAR|223|ICAO-KTSP|||||||||||||||||||||||||||||||||||||||||||RA:62|RA:62-Rain|1|FM15-METAR|223|ICAO-KTSP|||||||||||||||||||||||||1009.8||1|FM15-METAR|223|ICAO-KTSP|||||||BKN:07|07-Seven-o|4|FM15-METAR|223|ICAO-KTSP|||||||OVC:08|08-Eight-o|4|FM15-METAR|223|ICAO-KTSP|||||||||||||||||||MET082METAR KTSP 130755Z AUTO 29013G18KT 2SM RA BKN005 OVC009 04/04 A2982 RMK AO2 P0026;||F||223|ICAO-KTSP
USW00000479|TEHACHAPI MUNI AP|2009|12|13|08|15|35.1350|-118.4392|1219.5|4.0||1|FM15-METAR|223|ICAO-KTSP|4.0||1|FM15-METAR|223|ICAO-KTSP|||||||||||||300|N-Normal|1|FM15-METAR|223|ICAO-KTSP|6.2|N-Normal|1|FM15-METAR|223|ICAO-KTSP|||||||1.8|9-Missing|9|FM15-METAR|223|ICAO-KTSP|100|Derived||FM15-METAR|223|ICAO-KTSP|||||||||||||||||||||||||||||||||||||||||||RA:61|RA:61-Rain|1|FM15-METAR|223|ICAO-KTSP|||||||||||||||||||||||||1009.8||1|FM15-METAR|223|ICAO-KTSP|||||||FEW:02|02-Two-okt|4|FM15-METAR|223|ICAO-KTSP|||||||BKN:07|07-Seven-o|4|FM15-METAR|223|ICAO-KTSP|||||||||||||||||||MET091METAR KTSP 130815Z AUTO 30012KT 2 1/2SM -RA FEW004 BKN009 OVC018 04/04 A2982 RMK AO2 P0007;||F||223|ICAO-KTSP
USW00000479|TEHACHAPI MUNI AP|2009|12|13|08|35|35.1350|-118.4392|1219.5|4.0||1|FM15-METAR|223|ICAO-KTSP|4.0||1|FM15-METAR|223|ICAO-KTSP|||||||||||||310|N-Normal|1|FM15-METAR|223|ICAO-KTSP|8.7|N-Normal|1|FM15-METAR|223|ICAO-KTSP|10.8||1|FM15-METAR|223|ICAO-KTSP|4.3|9-Missing|9|FM15-METAR|223|ICAO-KTSP|100|Derived||FM15-METAR|223|ICAO-KTSP|||||||||||||||||||||||||||||||||||||||||||RA:63|RA:63-Rain|1|FM15-METAR|223|ICAO-KTSP|||||||||||||||||||||||||1009.8||1|FM15-METAR|223|ICAO-KTSP|||||||BKN:07|07-Seven-o|4|FM15-METAR|223|ICAO-KTSP|||||||OVC:08|08-Eight-o|4|FM15-METAR|223|ICAO-KTSP|||||||||||||||||||MET083METAR KTSP 130835Z AUTO 31017G21KT 2SM +RA BKN006 OVC016 04/04 A2982 RMK AO2 P0017;||F||223|ICAO-KTSP
USW00000479|TEHACHAPI MUNI AP|2009|12|13|09|00|35.1350|-118.4392|1219.5|3.0||1|FM15-METAR|223|ICAO-KTSP|3.0||1|FM15-METAR|223|ICAO-KTSP|||||||||||||300|N-Normal|1|FM15-METAR|223|ICAO-KTSP|7.7|N-Normal|1|FM15-METAR|223|ICAO-KTSP|10.8||1|FM15-METAR|223|ICAO-KTSP|7.1|9-Missing|9|FM15-METAR|223|ICAO-KTSP|100|Derived||FM15-METAR|223|ICAO-KTSP|||||||||||||||||||||||||||||||||||||||||||RA:62|RA:62-Rain|1|FM15-METAR|223|ICAO-KTSP|||||||||||||||||||||||||1009.8||1|FM15-METAR|223|ICAO-KTSP|||||||FEW:02|02-Two-okt|4|FM15-METAR|223|ICAO-KTSP|||||||BKN:07|07-Seven-o|4|FM15-METAR|223|ICAO-KTSP|||||||||||||||||||MET093METAR KTSP 130855Z AUTO 30015G21KT 2 1/2SM RA FEW008 BKN016 OVC022 03/03 A2982 RMK AO2 P0028;||F||223|ICAO-KTSP
USW00000479|TEHACHAPI MUNI AP|2009|12|13|09|15|35.1350|-118.4392|1219.5|3.0||1|FM15-METAR|223|ICAO-KTSP|3.0||1|FM15-METAR|223|ICAO-KTSP|||||||||||||300|N-Normal|1|FM15-METAR|223|ICAO-KTSP|6.7|N-Normal|1|FM15-METAR|223|ICAO-KTSP|||||||1.0|9-Missing|9|FM15-METAR|223|ICAO-KTSP|100|Derived||FM15-METAR|223|ICAO-KTSP|||||||||||||||||||||||||||||||||||||||||||RA:62|RA:62-Rain|1|FM15-METAR|223|ICAO-KTSP|||||||||||||||||||||||||1010.2||1|FM15-METAR|223|ICAO-KTSP|||||||SCT:04|04-Four-ok|4|FM15-METAR|223|ICAO-KTSP|||||||OVC:08|08-Eight-o|4|FM15-METAR|223|ICAO-KTSP|||||||||||||||||||MET079METAR KTSP 130915Z AUTO 30013KT 2SM RA SCT010 OVC021 03/03 A2983 RMK AO2 P0004;||F||223|ICAO-KTSP
USW00000479|TEHACHAPI MUNI AP|2009|12|13|09|35|35.1350|-118.4392|1219.5|4.0||1|FM15-METAR|223|ICAO-KTSP|4.0||1|FM15-METAR|223|ICAO-KTSP|||||||||||||290|N-Normal|1|FM15-METAR|223|ICAO-KTSP|9.8|N-Normal|1|FM15-METAR|223|ICAO-KTSP|12.3||1|FM15-METAR|223|ICAO-KTSP|1.8|9-Missing|9|FM15-METAR|223|ICAO-KTSP|100|Derived||FM15-METAR|223|ICAO-KTSP|||||||||||||||||||||||||||||||||||||||||||RA:61|RA:61-Rain|1|FM15-METAR|223|ICAO-KTSP|||||||||||||||||||||||||1010.2||1|FM15-METAR|223|ICAO-KTSP|||||||FEW:02|02-Two-okt|4|FM15-METAR|223|ICAO-KTSP|||||||BKN:07|07-Seven-o|4|FM15-METAR|223|ICAO-KTSP|||||||||||||||||||MET090METAR KTSP 130935Z AUTO 29019G24KT 3SM -RA FEW001 BKN019 OVC024 04/04 A2983 RMK AO2 P0007;||F||223|ICAO-KTSP
USW00000479|TEHACHAPI MUNI AP|2009|12|13|10|00|35.1350|-118.4392|1219.5|5.0||1|FM15-METAR|223|ICAO-KTSP|2.0||1|FM15-METAR|223|ICAO-KTSP|||||||||||||280|N-Normal|1|FM15-METAR|223|ICAO-KTSP|8.2|N-Normal|1|FM15-METAR|223|ICAO-KTSP|11.8||1|FM15-METAR|223|ICAO-KTSP|2.0|9-Missing|9|FM15-METAR|223|ICAO-KTSP|81|Derived||FM15-METAR|223|ICAO-KTSP|||||||||||||||||||||||||||||||||||||||||||RA:61|RA:61-Rain|1|FM15-METAR|223|ICAO-KTSP|||||||||||||||||||||||||1010.2||1|FM15-METAR|223|ICAO-KTSP|||||||BKN:07|07-Seven-o|4|FM15-METAR|223|ICAO-KTSP|||||||BKN:07|07-Seven-o|4|FM15-METAR|223|ICAO-KTSP|||||||||||||||||||MET090METAR KTSP 130955Z AUTO 28016G23KT 9SM -RA BKN021 BKN028 OVC035 05/02 A2983 RMK AO2 P0008;||F||223|ICAO-KTSP
USW00000479|TEHACHAPI MUNI AP|2009|12|13|10|15|35.1350|-118.4392|1219.5|5.0||1|FM15-METAR|223|ICAO-KTSP|3.0||1|FM15-METAR|223|ICAO-KTSP|||||||||||||310|N-Normal|1|FM15-METAR|223|ICAO-KTSP|7.2|N-Normal|1|FM15-METAR|223|ICAO-KTSP|11.3||1|FM15-METAR|223|ICAO-KTSP|||||||87|Derived||FM15-METAR|223|ICAO-KTSP|||||||||||||||||||||||||||||||||||||||||||||||||||||||||||||||||||||||||1010.5||1|FM15-METAR|223|ICAO-KTSP|||||||OVC:08|08-Eight-o|4|FM15-METAR|223|ICAO-KTSP|||||||||||||||||||||||||||||||MET067METAR KTSP 131015Z AUTO 31014G22KT 10SM OVC021 05/03 A2984 RMK AO2;||F||223|ICAO-KTSP
USW00000479|TEHACHAPI MUNI AP|2009|12|13|10|35|35.1350|-118.4392|1219.5|5.0||1|FM15-METAR|223|ICAO-KTSP|2.0||1|FM15-METAR|223|ICAO-KTSP|||||||||||||300|N-Normal|1|FM15-METAR|223|ICAO-KTSP|6.7|N-Normal|1|FM15-METAR|223|ICAO-KTSP|9.8||1|FM15-METAR|223|ICAO-KTSP|||||||81|Derived||FM15-METAR|223|ICAO-KTSP|||||||||||||||||||||||||||||||||||||||||||||||||||||||||||||||||||||||||1010.5||1|FM15-METAR|223|ICAO-KTSP|||||||OVC:08|08-Eight-o|4|FM15-METAR|223|ICAO-KTSP|||||||||||||||||||||||||||||||MET067METAR KTSP 131035Z AUTO 30013G19KT 10SM OVC023 05/02 A2984 RMK AO2;||F||223|ICAO-KTSP
USW00000479|TEHACHAPI MUNI AP|2009|12|13|11|00|35.1350|-118.4392|1219.5|4.0||1|FM15-METAR|223|ICAO-KTSP|3.0||1|FM15-METAR|223|ICAO-KTSP|||||||||||||300|N-Normal|1|FM15-METAR|223|ICAO-KTSP|6.2|N-Normal|1|FM15-METAR|223|ICAO-KTSP|||||||||||||93|Derived||FM15-METAR|223|ICAO-KTSP|||||||||||||||||||||||||||||||||||||||||||||||||||||||||||||||||||||||||1010.5||1|FM15-METAR|223|ICAO-KTSP|||||||SCT:04|04-Four-ok|4|FM15-METAR|223|ICAO-KTSP|||||||BKN:07|07-Seven-o|4|FM15-METAR|223|ICAO-KTSP|||||||||||||||||||MET078METAR KTSP 131055Z AUTO 30012KT 10SM SCT022 BKN026 OVC039 04/03 A2984 RMK AO2;||F||223|ICAO-KTSP
USW00000479|TEHACHAPI MUNI AP|2009|12|13|11|15|35.1350|-118.4392|1219.5|5.0||1|FM15-METAR|223|ICAO-KTSP|2.0||1|FM15-METAR|223|ICAO-KTSP|||||||||||||270|N-Normal|1|FM15-METAR|223|ICAO-KTSP|6.2|N-Normal|1|FM15-METAR|223|ICAO-KTSP|9.3||1|FM15-METAR|223|ICAO-KTSP|||||||81|Derived||FM15-METAR|223|ICAO-KTSP|||||||||||||||||||||||||||||||||||||||||||||||||||||||||||||||||||||||||1010.5||1|FM15-METAR|223|ICAO-KTSP|||||||BKN:07|07-Seven-o|4|FM15-METAR|223|ICAO-KTSP|||||||BKN:07|07-Seven-o|4|FM15-METAR|223|ICAO-KTSP|||||||||||||||||||MET081METAR KTSP 131115Z AUTO 27012G18KT 10SM BKN023 BKN035 OVC047 05/02 A2984 RMK AO2;||F||223|ICAO-KTSP
USW00000479|TEHACHAPI MUNI AP|2009|12|13|11|35|35.1350|-118.4392|1219.5|5.0||1|FM15-METAR|223|ICAO-KTSP|2.0||1|FM15-METAR|223|ICAO-KTSP|||||||||||||270|N-Normal|1|FM15-METAR|223|ICAO-KTSP|7.7|N-Normal|1|FM15-METAR|223|ICAO-KTSP|12.3||1|FM15-METAR|223|ICAO-KTSP|||||||81|Derived||FM15-METAR|223|ICAO-KTSP|||||||||||||||||||||||||||||||||||||||||||RA:61|RA:61-Rain|1|FM15-METAR|223|ICAO-KTSP|||||||||||||||||||||||||1010.5||1|FM15-METAR|223|ICAO-KTSP|||||||BKN:07|07-Seven-o|4|FM15-METAR|223|ICAO-KTSP|||||||OVC:08|08-Eight-o|4|FM15-METAR|223|ICAO-KTSP|||||||||||||||||||MET078METAR KTSP 131135Z AUTO 27015G24KT 10SM -RA BKN020 OVC029 05/02 A2984 RMK AO2;||F||223|ICAO-KTSP
USW00000479|TEHACHAPI MUNI AP|2009|12|13|12|00|35.1350|-118.4392|1219.5|4.0||1|FM15-METAR|223|ICAO-KTSP|2.0||1|FM15-METAR|223|ICAO-KTSP|||||||||||||310|N-Normal|1|FM15-METAR|223|ICAO-KTSP|7.2|N-Normal|1|FM15-METAR|223|ICAO-KTSP|14.9||1|FM15-METAR|223|ICAO-KTSP|0.3|9-Missing|9|FM15-METAR|223|ICAO-KTSP|87|Derived||FM15-METAR|223|ICAO-KTSP|||||||||||||||||||||||||||||||||||||||||||RA:61|RA:61-Rain|1|FM15-METAR|223|ICAO-KTSP|||||||||||||||||||||||||1010.5||1|FM15-METAR|223|ICAO-KTSP|||||||FEW:02|02-Two-okt|4|FM15-METAR|223|ICAO-KTSP|||||||SCT:04|04-Four-ok|4|FM15-METAR|223|ICAO-KTSP|||||||||||||||||||MET090METAR KTSP 131155Z AUTO 31014G29KT 5SM -RA FEW005 SCT018 BKN023 04/02 A2984 RMK AO2 P0001;||F||223|ICAO-KTSP
USW00000479|TEHACHAPI MUNI AP|2009|12|13|12|15|35.1350|-118.4392|1219.5|3.0||1|FM15-METAR|223|ICAO-KTSP|3.0||1|FM15-METAR|223|ICAO-KTSP|||||||||||||310|N-Normal|1|FM15-METAR|223|ICAO-KTSP|7.2|N-Normal|1|FM15-METAR|223|ICAO-KTSP|11.3||1|FM15-METAR|223|ICAO-KTSP|1.8|9-Missing|9|FM15-METAR|223|ICAO-KTSP|100|Derived||FM15-METAR|223|ICAO-KTSP|||||||||||||||||||||||||||||||||||||||||||RA:62|RA:62-Rain|1|FM15-METAR|223|ICAO-KTSP|||||||||||||||||||||||||1011.2||1|FM15-METAR|223|ICAO-KTSP|||||||BKN:07|07-Seven-o|4|FM15-METAR|223|ICAO-KTSP|||||||BKN:07|07-Seven-o|4|FM15-METAR|223|ICAO-KTSP|||||||||||||||||||MET089METAR KTSP 131215Z AUTO 31014G22KT 2SM RA BKN004 BKN015 OVC022 03/03 A2986 RMK AO2 P0007;||F||223|ICAO-KTSP
USW00000479|TEHACHAPI MUNI AP|2009|12|13|12|35|35.1350|-118.4392|1219.5|3.0||1|FM15-METAR|223|ICAO-KTSP|3.0||1|FM15-METAR|223|ICAO-KTSP|||||||||||||300|N-Normal|1|FM15-METAR|223|ICAO-KTSP|8.2|N-Normal|1|FM15-METAR|223|ICAO-KTSP|11.8||1|FM15-METAR|223|ICAO-KTSP|2.5|9-Missing|9|FM15-METAR|223|ICAO-KTSP|100|Derived||FM15-METAR|223|ICAO-KTSP|||||||||||||||||||||||||||||||||||||||||||RA:61|RA:61-Rain|1|FM15-METAR|223|ICAO-KTSP|||||||||||||||||||||||||1011.2||1|FM15-METAR|223|ICAO-KTSP|||||||SCT:04|04-Four-ok|4|FM15-METAR|223|ICAO-KTSP|||||||OVC:08|08-Eight-o|4|FM15-METAR|223|ICAO-KTSP|||||||||||||||||||MET083METAR KTSP 131235Z AUTO 30016G23KT 4SM -RA SCT003 OVC020 03/03 A2986 RMK AO2 P0010;||F||223|ICAO-KTSP
USW00000479|TEHACHAPI MUNI AP|2009|12|13|13|00|35.1350|-118.4392|1219.5|3.0||1|FM15-METAR|223|ICAO-KTSP|3.0||1|FM15-METAR|223|ICAO-KTSP|||||||||||||310|N-Normal|1|FM15-METAR|223|ICAO-KTSP|8.2|N-Normal|1|FM15-METAR|223|ICAO-KTSP|11.8||1|FM15-METAR|223|ICAO-KTSP|2.5|9-Missing|9|FM15-METAR|223|ICAO-KTSP|100|Derived||FM15-METAR|223|ICAO-KTSP|||||||||||||||||||||||||||||||||||||||||||RA:61|RA:61-Rain|1|FM15-METAR|223|ICAO-KTSP|||||||||||||||||||||||||1011.9||1|FM15-METAR|223|ICAO-KTSP|||||||SCT:04|04-Four-ok|4|FM15-METAR|223|ICAO-KTSP|||||||BKN:07|07-Seven-o|4|FM15-METAR|223|ICAO-KTSP|||||||||||||||||||MET090METAR KTSP 131255Z AUTO 31016G23KT 9SM -RA SCT003 BKN017 OVC021 03/03 A2988 RMK AO2 P0010;||F||223|ICAO-KTSP
USW00000479|TEHACHAPI MUNI AP|2009|12|13|13|15|35.1350|-118.4392|1219.5|3.0||1|FM15-METAR|223|ICAO-KTSP|2.0||1|FM15-METAR|223|ICAO-KTSP|||||||||||||310|N-Normal|1|FM15-METAR|223|ICAO-KTSP|5.7|N-Normal|1|FM15-METAR|223|ICAO-KTSP|12.9||1|FM15-METAR|223|ICAO-KTSP|0.3|9-Missing|9|FM15-METAR|223|ICAO-KTSP|93|Derived||FM15-METAR|223|ICAO-KTSP|||||||||||||||||||||||||||||||||||||||||||RA:61|RA:61-Rain|1|FM15-METAR|223|ICAO-KTSP|||||||||||||||||||||||||1012.2||1|FM15-METAR|223|ICAO-KTSP|||||||FEW:02|02-Two-okt|4|FM15-METAR|223|ICAO-KTSP|||||||SCT:04|04-Four-ok|4|FM15-METAR|223|ICAO-KTSP|||||||||||||||||||MET090METAR KTSP 131315Z AUTO 31011G25KT 4SM -RA FEW005 SCT015 BKN020 03/02 A2989 RMK AO2 P0001;||F||223|ICAO-KTSP
USW00000479|TEHACHAPI MUNI AP|2009|12|13|13|35|35.1350|-118.4392|1219.5|3.0||1|FM15-METAR|223|ICAO-KTSP|3.0||1|FM15-METAR|223|ICAO-KTSP|||||||||||||310|N-Normal|1|FM15-METAR|223|ICAO-KTSP|7.2|N-Normal|1|FM15-METAR|223|ICAO-KTSP|||||||0.3|9-Missing|9|FM15-METAR|223|ICAO-KTSP|100|Derived||FM15-METAR|223|ICAO-KTSP|||||||||||||||||||||||||||||||||||||||||||RA:61|RA:61-Rain|1|FM15-METAR|223|ICAO-KTSP|||||||||||||||||||||||||1012.5||1|FM15-METAR|223|ICAO-KTSP|||||||FEW:02|02-Two-okt|4|FM15-METAR|223|ICAO-KTSP|||||||SCT:04|04-Four-ok|4|FM15-METAR|223|ICAO-KTSP|||||||||||||||||||MET087METAR KTSP 131335Z AUTO 31014KT 7SM -RA FEW002 SCT006 BKN016 03/03 A2990 RMK AO2 P0001;||F||223|ICAO-KTSP
USW00000479|TEHACHAPI MUNI AP|2009|12|13|14|00|35.1350|-118.4392|1219.5|3.0||1|FM15-METAR|223|ICAO-KTSP|3.0||1|FM15-METAR|223|ICAO-KTSP|||||||||||||310|N-Normal|1|FM15-METAR|223|ICAO-KTSP|7.7|N-Normal|1|FM15-METAR|223|ICAO-KTSP|9.8||1|FM15-METAR|223|ICAO-KTSP|0.5|9-Missing|9|FM15-METAR|223|ICAO-KTSP|100|Derived||FM15-METAR|223|ICAO-KTSP|||||||||||||||||||||||||||||||||||||||||||RA:61|RA:61-Rain|1|FM15-METAR|223|ICAO-KTSP|||||||||||||||||||||||||1012.9||1|FM15-METAR|223|ICAO-KTSP|||||||FEW:02|02-Two-okt|4|FM15-METAR|223|ICAO-KTSP|||||||BKN:07|07-Seven-o|4|FM15-METAR|223|ICAO-KTSP|||||||||||||||||||MET090METAR KTSP 131355Z AUTO 31015G19KT 4SM -RA FEW005 BKN020 OVC025 03/03 A2991 RMK AO2 P0002;||F||223|ICAO-KTSP
USW00000479|TEHACHAPI MUNI AP|2009|12|13|14|15|35.1350|-118.4392|1219.5|3.0||1|FM15-METAR|223|ICAO-KTSP|3.0||1|FM15-METAR|223|ICAO-KTSP|||||||||||||300|N-Normal|1|FM15-METAR|223|ICAO-KTSP|5.7|N-Normal|1|FM15-METAR|223|ICAO-KTSP|||||||||||||100|Derived||FM15-METAR|223|ICAO-KTSP|||||||||||||||||||||||||||||||||||||||||||RA:61|RA:61-Rain|1|FM15-METAR|223|ICAO-KTSP|||||||||||||||||||||||||1013.2||1|FM15-METAR|223|ICAO-KTSP|||||||SCT:04|04-Four-ok|4|FM15-METAR|223|ICAO-KTSP|||||||BKN:07|07-Seven-o|4|FM15-METAR|223|ICAO-KTSP|||||||||||||||||||MET081METAR KTSP 131415Z AUTO 30011KT 3SM -RA SCT005 BKN011 OVC022 03/03 A2992 RMK AO2;||F||223|ICAO-KTSP
USW00000479|TEHACHAPI MUNI AP|2009|12|13|14|35|35.1350|-118.4392|1219.5|3.0||1|FM15-METAR|223|ICAO-KTSP|3.0||1|FM15-METAR|223|ICAO-KTSP|||||||||||||290|N-Normal|1|FM15-METAR|223|ICAO-KTSP|5.1|N-Normal|1|FM15-METAR|223|ICAO-KTSP|||||||2.0|9-Missing|9|FM15-METAR|223|ICAO-KTSP|100|Derived||FM15-METAR|223|ICAO-KTSP|||||||||||||||||||||||||||||||||||||||||||RA:61|RA:61-Rain|1|FM15-METAR|223|ICAO-KTSP|||||||||||||||||||||||||1013.2||1|FM15-METAR|223|ICAO-KTSP|||||||SCT:04|04-Four-ok|4|FM15-METAR|223|ICAO-KTSP|||||||BKN:07|07-Seven-o|4|FM15-METAR|223|ICAO-KTSP|||||||||||||||||||MET087METAR KTSP 131435Z AUTO 29010KT 3SM -RA SCT003 BKN008 OVC018 03/03 A2992 RMK AO2 P0008;||F||223|ICAO-KTSP
USW00000479|TEHACHAPI MUNI AP|2009|12|13|15|00|35.1350|-118.4392|1219.5|3.0||1|FM15-METAR|223|ICAO-KTSP|3.0||1|FM15-METAR|223|ICAO-KTSP|||||||||||||300|N-Normal|1|FM15-METAR|223|ICAO-KTSP|6.2|N-Normal|1|FM15-METAR|223|ICAO-KTSP|||||||2.3|9-Missing|9|FM15-METAR|223|ICAO-KTSP|100|Derived||FM15-METAR|223|ICAO-KTSP|||||||||||||||||||||||||||||||||||||||||||RA:61|RA:61-Rain|1|FM15-METAR|223|ICAO-KTSP|||||||||||||||||||||||||1013.5||1|FM15-METAR|223|ICAO-KTSP|||||||FEW:02|02-Two-okt|4|FM15-METAR|223|ICAO-KTSP|||||||BKN:07|07-Seven-o|4|FM15-METAR|223|ICAO-KTSP|||||||||||||||||||MET087METAR KTSP 131455Z AUTO 30012KT 3SM -RA FEW006 BKN018 OVC033 03/03 A2993 RMK AO2 P0009;||F||223|ICAO-KTSP
USW00000479|TEHACHAPI MUNI AP|2009|12|13|15|15|35.1350|-118.4392|1219.5|3.0||1|FM15-METAR|223|ICAO-KTSP|3.0||1|FM15-METAR|223|ICAO-KTSP|||||||||||||290|N-Normal|1|FM15-METAR|223|ICAO-KTSP|5.1|N-Normal|1|FM15-METAR|223|ICAO-KTSP|||||||0.8|9-Missing|9|FM15-METAR|223|ICAO-KTSP|100|Derived||FM15-METAR|223|ICAO-KTSP|||||||||||||||||||||||||||||||||||||||||||RA:61|RA:61-Rain|1|FM15-METAR|223|ICAO-KTSP|||||||||||||||||||||||||1013.9||1|FM15-METAR|223|ICAO-KTSP|||||||BKN:07|07-Seven-o|4|FM15-METAR|223|ICAO-KTSP|||||||BKN:07|07-Seven-o|4|FM15-METAR|223|ICAO-KTSP|||||||||||||||||||MET091METAR KTSP 131515Z AUTO 29010KT 1 1/2SM -RA BKN016 BKN026 OVC034 03/03 A2994 RMK AO2 P0003;||F||223|ICAO-KTSP
USW00000479|TEHACHAPI MUNI AP|2009|12|13|15|35|35.1350|-118.4392|1219.5|3.0||1|FM15-METAR|223|ICAO-KTSP|3.0||1|FM15-METAR|223|ICAO-KTSP|||||||||||||290|N-Normal|1|FM15-METAR|223|ICAO-KTSP|6.2|N-Normal|1|FM15-METAR|223|ICAO-KTSP|||||||0.8|9-Missing|9|FM15-METAR|223|ICAO-KTSP|100|Derived||FM15-METAR|223|ICAO-KTSP|||||||||||||||||||||||||||||||||||||||||||RA:61|RA:61-Rain|1|FM15-METAR|223|ICAO-KTSP|||||||||||||||||||||||||1013.9||1|FM15-METAR|223|ICAO-KTSP|||||||FEW:02|02-Two-okt|4|FM15-METAR|223|ICAO-KTSP|||||||BKN:07|07-Seven-o|4|FM15-METAR|223|ICAO-KTSP|||||||||||||||||||MET087METAR KTSP 131535Z AUTO 29012KT 4SM -RA FEW005 BKN016 OVC040 03/03 A2994 RMK AO2 P0003;||F||223|ICAO-KTSP
USW00000479|TEHACHAPI MUNI AP|2009|12|13|16|00|35.1350|-118.4392|1219.5|3.0||1|FM15-METAR|223|ICAO-KTSP|3.0||1|FM15-METAR|223|ICAO-KTSP|||||||||||||290|N-Normal|1|FM15-METAR|223|ICAO-KTSP|5.7|N-Normal|1|FM15-METAR|223|ICAO-KTSP|||||||1.0|9-Missing|9|FM15-METAR|223|ICAO-KTSP|100|Derived||FM15-METAR|223|ICAO-KTSP|||||||||||||||||||||||||||||||||||||||||||||||||||||||||||||||||||||||||1014.2||1|FM15-METAR|223|ICAO-KTSP|||||||SCT:04|04-Four-ok|4|FM15-METAR|223|ICAO-KTSP|||||||BKN:07|07-Seven-o|4|FM15-METAR|223|ICAO-KTSP|||||||||||||||||||MET083METAR KTSP 131555Z AUTO 29011KT 7SM SCT005 BKN014 OVC040 03/03 A2995 RMK AO2 P0004;||F||223|ICAO-KTSP
USW00000479|TEHACHAPI MUNI AP|2009|12|13|16|15|35.1350|-118.4392|1219.5|3.0||1|FM15-METAR|223|ICAO-KTSP|3.0||1|FM15-METAR|223|ICAO-KTSP|||||||||||||300|N-Normal|1|FM15-METAR|223|ICAO-KTSP|5.7|N-Normal|1|FM15-METAR|223|ICAO-KTSP|||||||1.3|9-Missing|9|FM15-METAR|223|ICAO-KTSP|100|Derived||FM15-METAR|223|ICAO-KTSP|||||||||||||||||||||||||||||||||||||||||||RA:61|RA:61-Rain|1|FM15-METAR|223|ICAO-KTSP|||||||||||||||||||||||||1014.6||1|FM15-METAR|223|ICAO-KTSP|||||||SCT:04|04-Four-ok|4|FM15-METAR|223|ICAO-KTSP|||||||BKN:07|07-Seven-o|4|FM15-METAR|223|ICAO-KTSP|||||||||||||||||||MET091METAR KTSP 131615Z AUTO 30011KT 1 1/2SM -RA SCT005 BKN010 OVC015 03/03 A2996 RMK AO2 P0005;||F||223|ICAO-KTSP
USW00000479|TEHACHAPI MUNI AP|2009|12|13|16|35|35.1350|-118.4392|1219.5|3.0||1|FM15-METAR|223|ICAO-KTSP|3.0||1|FM15-METAR|223|ICAO-KTSP|||||||||||||310|N-Normal|1|FM15-METAR|223|ICAO-KTSP|4.1|N-Normal|1|FM15-METAR|223|ICAO-KTSP|||||||1.3|9-Missing|9|FM15-METAR|223|ICAO-KTSP|100|Derived||FM15-METAR|223|ICAO-KTSP|||||||||||||||||||||||||||||||||||||||||||BR:10|BR:10-Mist|1|FM15-METAR|223|ICAO-KTSP|||||||||||||||||||||||||1014.9||1|FM15-METAR|223|ICAO-KTSP|||||||SCT:04|04-Four-ok|4|FM15-METAR|223|ICAO-KTSP|||||||BKN:07|07-Seven-o|4|FM15-METAR|223|ICAO-KTSP|||||||||||||||||||MET086METAR KTSP 131635Z AUTO 31008KT 6SM BR SCT004 BKN010 OVC022 03/03 A2997 RMK AO2 P0005;||F||223|ICAO-KTSP
USW00000479|TEHACHAPI MUNI AP|2009|12|13|17|00|35.1350|-118.4392|1219.5|4.0||1|FM15-METAR|223|ICAO-KTSP|3.0||1|FM15-METAR|223|ICAO-KTSP|||||||||||||300|N-Normal|1|FM15-METAR|223|ICAO-KTSP|4.1|N-Normal|1|FM15-METAR|223|ICAO-KTSP|||||||1.3|9-Missing|9|FM15-METAR|223|ICAO-KTSP|93|Derived||FM15-METAR|223|ICAO-KTSP|||||||||||||||||||||||||||||||||||||||||||||||||||||||||||||||||||||||||1015.2||1|FM15-METAR|223|ICAO-KTSP|||||||FEW:02|02-Two-okt|4|FM15-METAR|223|ICAO-KTSP|||||||SCT:04|04-Four-ok|4|FM15-METAR|223|ICAO-KTSP|||||||||||||||||||MET083METAR KTSP 131655Z AUTO 30008KT 9SM FEW005 SCT010 BKN018 04/03 A2998 RMK AO2 P0005;||F||223|ICAO-KTSP
USW00000479|TEHACHAPI MUNI AP|2009|12|13|17|15|35.1350|-118.4392|1219.5|4.0||1|FM15-METAR|223|ICAO-KTSP|3.0||1|FM15-METAR|223|ICAO-KTSP|||||||||||||290|N-Normal|1|FM15-METAR|223|ICAO-KTSP|3.1|N-Normal|1|FM15-METAR|223|ICAO-KTSP|||||||||||||93|Derived||FM15-METAR|223|ICAO-KTSP|||||||||||||||||||||||||||||||||||||||||||||||||||||||||||||||||||||||||1015.6||1|FM15-METAR|223|ICAO-KTSP|||||||BKN:07|07-Seven-o|4|FM15-METAR|223|ICAO-KTSP|||||||OVC:08|08-Eight-o|4|FM15-METAR|223|ICAO-KTSP|||||||||||||||||||MET071METAR KTSP 131715Z AUTO 29006KT 10SM BKN015 OVC021 04/03 A2999 RMK AO2;||F||223|ICAO-KTSP
USW00000479|TEHACHAPI MUNI AP|2009|12|13|17|35|35.1350|-118.4392|1219.5|4.0||1|FM15-METAR|223|ICAO-KTSP|3.0||1|FM15-METAR|223|ICAO-KTSP|||||||||||||280|N-Normal|1|FM15-METAR|223|ICAO-KTSP|5.7|N-Normal|1|FM15-METAR|223|ICAO-KTSP|||||||||||||93|Derived||FM15-METAR|223|ICAO-KTSP|||||||||||||||||||||||||||||||||||||||||||||||||||||||||||||||||||||||||1015.6||1|FM15-METAR|223|ICAO-KTSP|||||||BKN:07|07-Seven-o|4|FM15-METAR|223|ICAO-KTSP|||||||OVC:08|08-Eight-o|4|FM15-METAR|223|ICAO-KTSP|||||||||||||||||||MET071METAR KTSP 131735Z AUTO 28011KT 10SM BKN018 OVC026 04/03 A2999 RMK AO2;||F||223|ICAO-KTSP
USW00000479|TEHACHAPI MUNI AP|2009|12|13|18|00|35.1350|-118.4392|1219.5|5.0||1|FM15-METAR|223|ICAO-KTSP|3.0||1|FM15-METAR|223|ICAO-KTSP|||||||||||||310|N-Normal|1|FM15-METAR|223|ICAO-KTSP|4.6|N-Normal|1|FM15-METAR|223|ICAO-KTSP|||||||||||||87|Derived||FM15-METAR|223|ICAO-KTSP|||||||||||||||||||||||||||||||||||||||||||||||||||||||||||||||||||||||||1015.6||1|FM15-METAR|223|ICAO-KTSP|||||||OVC:08|08-Eight-o|4|FM15-METAR|223|ICAO-KTSP|||||||||||||||||||||||||||||||MET064METAR KTSP 131755Z AUTO 31009KT 10SM OVC020 05/03 A2999 RMK AO2;||F||223|ICAO-KTSP
USW00000479|TEHACHAPI MUNI AP|2009|12|13|18|15|35.1350|-118.4392|1219.5|5.0||1|FM15-METAR|223|ICAO-KTSP|2.0||1|FM15-METAR|223|ICAO-KTSP|||||||||||||280|N-Normal|1|FM15-METAR|223|ICAO-KTSP|6.7|N-Normal|1|FM15-METAR|223|ICAO-KTSP|9.8||1|FM15-METAR|223|ICAO-KTSP|||||||81|Derived||FM15-METAR|223|ICAO-KTSP|||||||||||||||||||||||||||||||||||||||||||||||||||||||||||||||||||||||||1015.9||1|FM15-METAR|223|ICAO-KTSP|||||||BKN:07|07-Seven-o|4|FM15-METAR|223|ICAO-KTSP|||||||OVC:08|08-Eight-o|4|FM15-METAR|223|ICAO-KTSP|||||||||||||||||||MET074METAR KTSP 131815Z AUTO 28013G19KT 10SM BKN022 OVC026 05/02 A3000 RMK AO2;||F||223|ICAO-KTSP
USW00000479|TEHACHAPI MUNI AP|2009|12|13|18|35|35.1350|-118.4392|1219.5|5.0||1|FM15-METAR|223|ICAO-KTSP|2.0||1|FM15-METAR|223|ICAO-KTSP|||||||||||||300|N-Normal|1|FM15-METAR|223|ICAO-KTSP|4.1|N-Normal|1|FM15-METAR|223|ICAO-KTSP|||||||||||||81|Derived||FM15-METAR|223|ICAO-KTSP|||||||||||||||||||||||||||||||||||||||||||||||||||||||||||||||||||||||||1015.9||1|FM15-METAR|223|ICAO-KTSP|||||||BKN:07|07-Seven-o|4|FM15-METAR|223|ICAO-KTSP|||||||OVC:08|08-Eight-o|4|FM15-METAR|223|ICAO-KTSP|||||||||||||||||||MET071METAR KTSP 131835Z AUTO 30008KT 10SM BKN022 OVC027 05/02 A3000 RMK AO2;||F||223|ICAO-KTSP
USW00000479|TEHACHAPI MUNI AP|2009|12|13|19|00|35.1350|-118.4392|1219.5|5.0||1|FM15-METAR|223|ICAO-KTSP|3.0||1|FM15-METAR|223|ICAO-KTSP|||||||||||||280|N-Normal|1|FM15-METAR|223|ICAO-KTSP|6.2|N-Normal|1|FM15-METAR|223|ICAO-KTSP|||||||||||||87|Derived||FM15-METAR|223|ICAO-KTSP|||||||||||||||||||||||||||||||||||||||||||||||||||||||||||||||||||||||||1015.9||1|FM15-METAR|223|ICAO-KTSP|||||||BKN:07|07-Seven-o|4|FM15-METAR|223|ICAO-KTSP|||||||OVC:08|08-Eight-o|4|FM15-METAR|223|ICAO-KTSP|||||||||||||||||||MET071METAR KTSP 131855Z AUTO 28012KT 10SM BKN021 OVC026 05/03 A3000 RMK AO2;||F||223|ICAO-KTSP
USW00000479|TEHACHAPI MUNI AP|2009|12|13|19|15|35.1350|-118.4392|1219.5|5.0||1|FM15-METAR|223|ICAO-KTSP|2.0||1|FM15-METAR|223|ICAO-KTSP|||||||||||||320|N-Normal|1|FM15-METAR|223|ICAO-KTSP|5.7|N-Normal|1|FM15-METAR|223|ICAO-KTSP|||||||||||||81|Derived||FM15-METAR|223|ICAO-KTSP|||||||||||||||||||||||||||||||||||||||||||||||||||||||||||||||||||||||||1015.9||1|FM15-METAR|223|ICAO-KTSP|||||||OVC:08|08-Eight-o|4|FM15-METAR|223|ICAO-KTSP|||||||||||||||||||||||||||||||MET064METAR KTSP 131915Z AUTO 32011KT 10SM OVC021 05/02 A3000 RMK AO2;||F||223|ICAO-KTSP
USW00000479|TEHACHAPI MUNI AP|2009|12|13|20|00|35.1350|-118.4392|1219.5|5.0||1|FM15-METAR|223|ICAO-KTSP|2.0||1|FM15-METAR|223|ICAO-KTSP|||||||||||||310|N-Normal|1|FM15-METAR|223|ICAO-KTSP|5.7|N-Normal|1|FM15-METAR|223|ICAO-KTSP|9.3||1|FM15-METAR|223|ICAO-KTSP|||||||81|Derived||FM15-METAR|223|ICAO-KTSP|||||||||||||||||||||||||||||||||||||||||||||||||||||||||||||||||||||||||1015.6||1|FM15-METAR|223|ICAO-KTSP|||||||OVC:08|08-Eight-o|4|FM15-METAR|223|ICAO-KTSP|||||||||||||||||||||||||||||||MET067METAR KTSP 131955Z AUTO 31011G18KT 10SM OVC019 05/02 A2999 RMK AO2;||F||223|ICAO-KTSP
USW00000479|TEHACHAPI MUNI AP|2009|12|13|20|15|35.1350|-118.4392|1219.5|5.0||1|FM15-METAR|223|ICAO-KTSP|2.0||1|FM15-METAR|223|ICAO-KTSP|||||||||||||310|N-Normal|1|FM15-METAR|223|ICAO-KTSP|6.2|N-Normal|1|FM15-METAR|223|ICAO-KTSP|8.7||1|FM15-METAR|223|ICAO-KTSP|||||||81|Derived||FM15-METAR|223|ICAO-KTSP|||||||||||||||||||||||||||||||||||||||||||||||||||||||||||||||||||||||||1015.6||1|FM15-METAR|223|ICAO-KTSP|||||||OVC:08|08-Eight-o|4|FM15-METAR|223|ICAO-KTSP|||||||||||||||||||||||||||||||MET067METAR KTSP 132015Z AUTO 31012G17KT 10SM OVC019 05/02 A2999 RMK AO2;||F||223|ICAO-KTSP
USW00000479|TEHACHAPI MUNI AP|2009|12|13|20|35|35.1350|-118.4392|1219.5|5.0||1|FM15-METAR|223|ICAO-KTSP|3.0||1|FM15-METAR|223|ICAO-KTSP|||||||||||||290|N-Normal|1|FM15-METAR|223|ICAO-KTSP|6.2|N-Normal|1|FM15-METAR|223|ICAO-KTSP|||||||||||||87|Derived||FM15-METAR|223|ICAO-KTSP|||||||||||||||||||||||||||||||||||||||||||||||||||||||||||||||||||||||||1015.2||1|FM15-METAR|223|ICAO-KTSP|||||||OVC:08|08-Eight-o|4|FM15-METAR|223|ICAO-KTSP|||||||||||||||||||||||||||||||MET064METAR KTSP 132035Z AUTO 29012KT 10SM OVC019 05/03 A2998 RMK AO2;||F||223|ICAO-KTSP
USW00000479|TEHACHAPI MUNI AP|2009|12|13|21|00|35.1350|-118.4392|1219.5|5.0||1|FM15-METAR|223|ICAO-KTSP|3.0||1|FM15-METAR|223|ICAO-KTSP|||||||||||||310|N-Normal|1|FM15-METAR|223|ICAO-KTSP|6.7|N-Normal|1|FM15-METAR|223|ICAO-KTSP|||||||||||||87|Derived||FM15-METAR|223|ICAO-KTSP|||||||||||||||||||||||||||||||||||||||||||||||||||||||||||||||||||||||||1015.2||1|FM15-METAR|223|ICAO-KTSP|||||||OVC:08|08-Eight-o|4|FM15-METAR|223|ICAO-KTSP|||||||||||||||||||||||||||||||MET064METAR KTSP 132055Z AUTO 31013KT 10SM OVC017 05/03 A2998 RMK AO2;||F||223|ICAO-KTSP
USW00000479|TEHACHAPI MUNI AP|2009|12|13|21|15|35.1350|-118.4392|1219.5|5.0||1|FM15-METAR|223|ICAO-KTSP|3.0||1|FM15-METAR|223|ICAO-KTSP|||||||||||||300|N-Normal|1|FM15-METAR|223|ICAO-KTSP|7.2|N-Normal|1|FM15-METAR|223|ICAO-KTSP|||||||||||||87|Derived||FM15-METAR|223|ICAO-KTSP|||||||||||||||||||||||||||||||||||||||||||||||||||||||||||||||||||||||||1014.9||1|FM15-METAR|223|ICAO-KTSP|||||||BKN:07|07-Seven-o|4|FM15-METAR|223|ICAO-KTSP|||||||OVC:08|08-Eight-o|4|FM15-METAR|223|ICAO-KTSP|||||||||||||||||||MET071METAR KTSP 132115Z AUTO 30014KT 10SM BKN019 OVC023 05/03 A2997 RMK AO2;||F||223|ICAO-KTSP
USW00000479|TEHACHAPI MUNI AP|2009|12|13|21|35|35.1350|-118.4392|1219.5|5.0||1|FM15-METAR|223|ICAO-KTSP|3.0||1|FM15-METAR|223|ICAO-KTSP|||||||||||||310|N-Normal|1|FM15-METAR|223|ICAO-KTSP|7.2|N-Normal|1|FM15-METAR|223|ICAO-KTSP|9.8||1|FM15-METAR|223|ICAO-KTSP|||||||87|Derived||FM15-METAR|223|ICAO-KTSP|||||||||||||||||||||||||||||||||||||||||||||||||||||||||||||||||||||||||1014.9||1|FM15-METAR|223|ICAO-KTSP|||||||OVC:08|08-Eight-o|4|FM15-METAR|223|ICAO-KTSP|||||||||||||||||||||||||||||||MET067METAR KTSP 132135Z AUTO 31014G19KT 10SM OVC017 05/03 A2997 RMK AO2;||F||223|ICAO-KTSP
USW00000479|TEHACHAPI MUNI AP|2009|12|13|22|00|35.1350|-118.4392|1219.5|5.0||1|FM15-METAR|223|ICAO-KTSP|3.0||1|FM15-METAR|223|ICAO-KTSP|||||||||||||300|N-Normal|1|FM15-METAR|223|ICAO-KTSP|7.7|N-Normal|1|FM15-METAR|223|ICAO-KTSP|||||||||||||87|Derived||FM15-METAR|223|ICAO-KTSP|||||||||||||||||||||||||||||||||||||||||||||||||||||||||||||||||||||||||1014.6||1|FM15-METAR|223|ICAO-KTSP|||||||OVC:08|08-Eight-o|4|FM15-METAR|223|ICAO-KTSP|||||||||||||||||||||||||||||||MET064METAR KTSP 132155Z AUTO 30015KT 10SM OVC017 05/03 A2996 RMK AO2;||F||223|ICAO-KTSP
USW00000479|TEHACHAPI MUNI AP|2009|12|13|22|15|35.1350|-118.4392|1219.5|5.0||1|FM15-METAR|223|ICAO-KTSP|3.0||1|FM15-METAR|223|ICAO-KTSP|||||||||||||300|N-Normal|1|FM15-METAR|223|ICAO-KTSP|8.2|N-Normal|1|FM15-METAR|223|ICAO-KTSP|10.8||1|FM15-METAR|223|ICAO-KTSP|||||||87|Derived||FM15-METAR|223|ICAO-KTSP|||||||||||||||||||||||||||||||||||||||||||||||||||||||||||||||||||||||||1014.6||1|FM15-METAR|223|ICAO-KTSP|||||||BKN:07|07-Seven-o|4|FM15-METAR|223|ICAO-KTSP|||||||OVC:08|08-Eight-o|4|FM15-METAR|223|ICAO-KTSP|||||||||||||||||||MET074METAR KTSP 132215Z AUTO 30016G21KT 10SM BKN019 OVC025 05/03 A2996 RMK AO2;||F||223|ICAO-KTSP
USW00000479|TEHACHAPI MUNI AP|2009|12|13|22|35|35.1350|-118.4392|1219.5|5.0||1|FM15-METAR|223|ICAO-KTSP|3.0||1|FM15-METAR|223|ICAO-KTSP|||||||||||||300|N-Normal|1|FM15-METAR|223|ICAO-KTSP|7.7|N-Normal|1|FM15-METAR|223|ICAO-KTSP|10.8||1|FM15-METAR|223|ICAO-KTSP|||||||87|Derived||FM15-METAR|223|ICAO-KTSP|||||||||||||||||||||||||||||||||||||||||||||||||||||||||||||||||||||||||1014.9||1|FM15-METAR|223|ICAO-KTSP|||||||FEW:02|02-Two-okt|4|FM15-METAR|223|ICAO-KTSP|||||||BKN:07|07-Seven-o|4|FM15-METAR|223|ICAO-KTSP|||||||||||||||||||MET081METAR KTSP 132235Z AUTO 30015G21KT 10SM FEW014 BKN020 OVC029 05/03 A2997 RMK AO2;||F||223|ICAO-KTSP
USW00000479|TEHACHAPI MUNI AP|2009|12|13|23|00|35.1350|-118.4392|1219.5|5.0||1|FM15-METAR|223|ICAO-KTSP|3.0||1|FM15-METAR|223|ICAO-KTSP|||||||||||||300|N-Normal|1|FM15-METAR|223|ICAO-KTSP|7.7|N-Normal|1|FM15-METAR|223|ICAO-KTSP|9.8||1|FM15-METAR|223|ICAO-KTSP|||||||87|Derived||FM15-METAR|223|ICAO-KTSP|||||||||||||||||||||||||||||||||||||||||||||||||||||||||||||||||||||||||1015.2||1|FM15-METAR|223|ICAO-KTSP|||||||BKN:07|07-Seven-o|4|FM15-METAR|223|ICAO-KTSP|||||||OVC:08|08-Eight-o|4|FM15-METAR|223|ICAO-KTSP|||||||||||||||||||MET074METAR KTSP 132255Z AUTO 30015G19KT 10SM BKN018 OVC027 05/03 A2998 RMK AO2;||F||223|ICAO-KTSP
USW00000479|TEHACHAPI MUNI AP|2009|12|13|23|15|35.1350|-118.4392|1219.5|5.0||1|FM15-METAR|223|ICAO-KTSP|3.0||1|FM15-METAR|223|ICAO-KTSP|||||||||||||300|N-Normal|1|FM15-METAR|223|ICAO-KTSP|7.2|N-Normal|1|FM15-METAR|223|ICAO-KTSP|||||||||||||87|Derived||FM15-METAR|223|ICAO-KTSP|||||||||||||||||||||||||||||||||||||||||||||||||||||||||||||||||||||||||1015.2||1|FM15-METAR|223|ICAO-KTSP|||||||FEW:02|02-Two-okt|4|FM15-METAR|223|ICAO-KTSP|||||||BKN:07|07-Seven-o|4|FM15-METAR|223|ICAO-KTSP|||||||||||||||||||MET077METAR KTSP 132315Z AUTO 30014KT 7SM FEW010 BKN020 OVC027 05/03 A2998 RMK AO2;||F||223|ICAO-KTSP
USW00000479|TEHACHAPI MUNI AP|2009|12|13|23|35|35.1350|-118.4392|1219.5|5.0||1|FM15-METAR|223|ICAO-KTSP|4.0||1|FM15-METAR|223|ICAO-KTSP|||||||||||||300|N-Normal|1|FM15-METAR|223|ICAO-KTSP|7.7|N-Normal|1|FM15-METAR|223|ICAO-KTSP|||||||||||||93|Derived||FM15-METAR|223|ICAO-KTSP|||||||||||||||||||||||||||||||||||||||||||BR:10|BR:10-Mist|1|FM15-METAR|223|ICAO-KTSP|||||||||||||||||||||||||1015.2||1|FM15-METAR|223|ICAO-KTSP|||||||SCT:04|04-Four-ok|4|FM15-METAR|223|ICAO-KTSP|||||||BKN:07|07-Seven-o|4|FM15-METAR|223|ICAO-KTSP|||||||||||||||||||MET080METAR KTSP 132335Z AUTO 30015KT 5SM BR SCT007 BKN013 OVC020 05/04 A2998 RMK AO2;||F||223|ICAO-KTSP
USW00000479|TEHACHAPI MUNI AP|2009|12|14|00|00|35.1350|-118.4392|1219.5|4.0||1|FM15-METAR|223|ICAO-KTSP|4.0||1|FM15-METAR|223|ICAO-KTSP|||||||||||||300|N-Normal|1|FM15-METAR|223|ICAO-KTSP|7.2|N-Normal|1|FM15-METAR|223|ICAO-KTSP|9.3||1|FM15-METAR|223|ICAO-KTSP|||||||100|Derived||FM15-METAR|223|ICAO-KTSP|||||||||||||||||||||||||||||||||||||||||||RA:61|RA:61-Rain|1|FM15-METAR|223|ICAO-KTSP|||||||||||||||||||||||||1015.2||1|FM15-METAR|223|ICAO-KTSP|||||||FEW:02|02-Two-okt|4|FM15-METAR|223|ICAO-KTSP|||||||BKN:07|07-Seven-o|4|FM15-METAR|223|ICAO-KTSP|||||||||||||||||||MET084METAR KTSP 132355Z AUTO 30014G18KT 5SM -RA FEW007 BKN013 OVC019 04/04 A2998 RMK AO2;||F||223|ICAO-KTSP
USW00000479|TEHACHAPI MUNI AP|2009|12|14|00|15|35.1350|-118.4392|1219.5|4.0||1|FM15-METAR|223|ICAO-KTSP|4.0||1|FM15-METAR|223|ICAO-KTSP|||||||||||||300|N-Normal|1|FM15-METAR|223|ICAO-KTSP|7.2|N-Normal|1|FM15-METAR|223|ICAO-KTSP|||||||||||||100|Derived||FM15-METAR|223|ICAO-KTSP|||||||||||||||||||||||||||||||||||||||||||||||||||||||||||||||||||||||||1015.2||1|FM15-METAR|223|ICAO-KTSP|||||||SCT:04|04-Four-ok|4|FM15-METAR|223|ICAO-KTSP|||||||BKN:07|07-Seven-o|4|FM15-METAR|223|ICAO-KTSP|||||||||||||||||||MET077METAR KTSP 140015Z AUTO 30014KT 7SM SCT006 BKN018 OVC030 04/04 A2998 RMK AO2;||F||223|ICAO-KTSP
USW00000479|TEHACHAPI MUNI AP|2009|12|14|01|00|35.1350|-118.4392|1219.5|4.0||1|FM15-METAR|223|ICAO-KTSP|3.0||1|FM15-METAR|223|ICAO-KTSP|||||||||||||290|N-Normal|1|FM15-METAR|223|ICAO-KTSP|7.7|N-Normal|1|FM15-METAR|223|ICAO-KTSP|10.3||1|FM15-METAR|223|ICAO-KTSP|||||||93|Derived||FM15-METAR|223|ICAO-KTSP|||||||||||||||||||||||||||||||||||||||||||||||||||||||||||||||||||||||||1014.9||1|FM15-METAR|223|ICAO-KTSP|||||||SCT:04|04-Four-ok|4|FM15-METAR|223|ICAO-KTSP|||||||SCT:04|04-Four-ok|4|FM15-METAR|223|ICAO-KTSP|||||||||||||||||||MET080METAR KTSP 140055Z AUTO 29015G20KT 8SM SCT006 SCT022 BKN031 04/03 A2997 RMK AO2;||F||223|ICAO-KTSP
USW00000479|TEHACHAPI MUNI AP|2009|12|14|01|15|35.1350|-118.4392|1219.5|4.0||1|FM15-METAR|223|ICAO-KTSP|3.0||1|FM15-METAR|223|ICAO-KTSP|||||||||||||300|N-Normal|1|FM15-METAR|223|ICAO-KTSP|6.7|N-Normal|1|FM15-METAR|223|ICAO-KTSP|||||||||||||93|Derived||FM15-METAR|223|ICAO-KTSP|||||||||||||||||||||||||||||||||||||||||||||||||||||||||||||||||||||||||1015.2||1|FM15-METAR|223|ICAO-KTSP|||||||FEW:02|02-Two-okt|4|FM15-METAR|223|ICAO-KTSP|||||||SCT:04|04-Four-ok|4|FM15-METAR|223|ICAO-KTSP|||||||||||||||||||MET070METAR KTSP 140115Z AUTO 30013KT 9SM FEW006 SCT031 04/03 A2998 RMK AO2;||F||223|ICAO-KTSP
USW00000479|TEHACHAPI MUNI AP|2009|12|14|01|35|35.1350|-118.4392|1219.5|4.0||1|FM15-METAR|223|ICAO-KTSP|4.0||1|FM15-METAR|223|ICAO-KTSP|||||||||||||300|N-Normal|1|FM15-METAR|223|ICAO-KTSP|7.2|N-Normal|1|FM15-METAR|223|ICAO-KTSP|||||||||||||100|Derived||FM15-METAR|223|ICAO-KTSP|||||||||||||||||||||||||||||||||||||||||||||||||||||||||||||||||||||||||1015.6||1|FM15-METAR|223|ICAO-KTSP|||||||SCT:04|04-Four-ok|4|FM15-METAR|223|ICAO-KTSP|||||||BKN:07|07-Seven-o|4|FM15-METAR|223|ICAO-KTSP|||||||||||||||||||MET070METAR KTSP 140135Z AUTO 30014KT 8SM SCT023 BKN029 04/04 A2999 RMK AO2;||F||223|ICAO-KTSP
USW00000479|TEHACHAPI MUNI AP|2009|12|14|02|00|35.1350|-118.4392|1219.5|4.0||1|FM15-METAR|223|ICAO-KTSP|4.0||1|FM15-METAR|223|ICAO-KTSP|||||||||||||300|N-Normal|1|FM15-METAR|223|ICAO-KTSP|7.2|N-Normal|1|FM15-METAR|223|ICAO-KTSP|||||||||||||100|Derived||FM15-METAR|223|ICAO-KTSP|||||||||||||||||||||||||||||||||||||||||||||||||||||||||||||||||||||||||1015.6||1|FM15-METAR|223|ICAO-KTSP|||||||BKN:07|07-Seven-o|4|FM15-METAR|223|ICAO-KTSP|||||||BKN:07|07-Seven-o|4|FM15-METAR|223|ICAO-KTSP|||||||||||||||||||MET071METAR KTSP 140155Z AUTO 30014KT 10SM BKN021 BKN030 04/04 A2999 RMK AO2;||F||223|ICAO-KTSP
USW00000479|TEHACHAPI MUNI AP|2009|12|14|02|15|35.1350|-118.4392|1219.5|4.0||1|FM15-METAR|223|ICAO-KTSP|4.0||1|FM15-METAR|223|ICAO-KTSP|||||||||||||300|N-Normal|1|FM15-METAR|223|ICAO-KTSP|6.2|N-Normal|1|FM15-METAR|223|ICAO-KTSP|||||||||||||100|Derived||FM15-METAR|223|ICAO-KTSP|||||||||||||||||||||||||||||||||||||||||||||||||||||||||||||||||||||||||1015.9||1|FM15-METAR|223|ICAO-KTSP|||||||FEW:02|02-Two-okt|4|FM15-METAR|223|ICAO-KTSP|||||||FEW:02|02-Two-okt|4|FM15-METAR|223|ICAO-KTSP|||||||||||||||||||MET078METAR KTSP 140215Z AUTO 30012KT 10SM FEW021 FEW030 BKN034 04/04 A3000 RMK AO2;||F||223|ICAO-KTSP
USW00000479|TEHACHAPI MUNI AP|2009|12|14|02|35|35.1350|-118.4392|1219.5|4.0||1|FM15-METAR|223|ICAO-KTSP|3.0||1|FM15-METAR|223|ICAO-KTSP|||||||||||||300|N-Normal|1|FM15-METAR|223|ICAO-KTSP|6.2|N-Normal|1|FM15-METAR|223|ICAO-KTSP|||||||||||||93|Derived||FM15-METAR|223|ICAO-KTSP|||||||||||||||||||||||||||||||||||||||||||||||||||||||||||||||||||||||||1016.3||1|FM15-METAR|223|ICAO-KTSP|||||||FEW:02|02-Two-okt|4|FM15-METAR|223|ICAO-KTSP|||||||FEW:02|02-Two-okt|4|FM15-METAR|223|ICAO-KTSP|||||||||||||||||||MET078METAR KTSP 140235Z AUTO 30012KT 10SM FEW006 FEW019 BKN036 04/03 A3001 RMK AO2;||F||223|ICAO-KTSP
USW00000479|TEHACHAPI MUNI AP|2009|12|14|03|00|35.1350|-118.4392|1219.5|4.0||1|FM15-METAR|223|ICAO-KTSP|4.0||1|FM15-METAR|223|ICAO-KTSP|||||||||||||290|N-Normal|1|FM15-METAR|223|ICAO-KTSP|6.2|N-Normal|1|FM15-METAR|223|ICAO-KTSP|||||||||||||100|Derived||FM15-METAR|223|ICAO-KTSP|||||||||||||||||||||||||||||||||||||||||||||||||||||||||||||||||||||||||1016.3||1|FM15-METAR|223|ICAO-KTSP|||||||SCT:04|04-Four-ok|4|FM15-METAR|223|ICAO-KTSP|||||||BKN:07|07-Seven-o|4|FM15-METAR|223|ICAO-KTSP|||||||||||||||||||MET070METAR KTSP 140255Z AUTO 29012KT 8SM SCT006 BKN036 04/04 A3001 RMK AO2;||F||223|ICAO-KTSP
USW00000479|TEHACHAPI MUNI AP|2009|12|14|03|15|35.1350|-118.4392|1219.5|4.0||1|FM15-METAR|223|ICAO-KTSP|4.0||1|FM15-METAR|223|ICAO-KTSP|||||||||||||300|N-Normal|1|FM15-METAR|223|ICAO-KTSP|6.7|N-Normal|1|FM15-METAR|223|ICAO-KTSP|||||||||||||100|Derived||FM15-METAR|223|ICAO-KTSP|||||||||||||||||||||||||||||||||||||||||||||||||||||||||||||||||||||||||1016.6||1|FM15-METAR|223|ICAO-KTSP|||||||SCT:04|04-Four-ok|4|FM15-METAR|223|ICAO-KTSP|||||||OVC:08|08-Eight-o|4|FM15-METAR|223|ICAO-KTSP|||||||||||||||||||MET070METAR KTSP 140315Z AUTO 30013KT 8SM SCT006 OVC036 04/04 A3002 RMK AO2;||F||223|ICAO-KTSP
USW00000479|TEHACHAPI MUNI AP|2009|12|14|03|35|35.1350|-118.4392|1219.5|4.0||1|FM15-METAR|223|ICAO-KTSP|4.0||1|FM15-METAR|223|ICAO-KTSP|||||||||||||300|N-Normal|1|FM15-METAR|223|ICAO-KTSP|6.2|N-Normal|1|FM15-METAR|223|ICAO-KTSP|||||||||||||100|Derived||FM15-METAR|223|ICAO-KTSP|||||||||||||||||||||||||||||||||||||||||||||||||||||||||||||||||||||||||1016.6||1|FM15-METAR|223|ICAO-KTSP|||||||FEW:02|02-Two-okt|4|FM15-METAR|223|ICAO-KTSP|||||||FEW:02|02-Two-okt|4|FM15-METAR|223|ICAO-KTSP|||||||||||||||||||MET077METAR KTSP 140335Z AUTO 30012KT 9SM FEW005 FEW017 BKN036 04/04 A3002 RMK AO2;||F||223|ICAO-KTSP
USW00000479|TEHACHAPI MUNI AP|2009|12|14|04|00|35.1350|-118.4392|1219.5|4.0||1|FM15-METAR|223|ICAO-KTSP|4.0||1|FM15-METAR|223|ICAO-KTSP|||||||||||||280|N-Normal|1|FM15-METAR|223|ICAO-KTSP|4.6|N-Normal|1|FM15-METAR|223|ICAO-KTSP|||||||||||||100|Derived||FM15-METAR|223|ICAO-KTSP|||||||||||||||||||||||||||||||||||||||||||||||||||||||||||||||||||||||||1016.6||1|FM15-METAR|223|ICAO-KTSP|||||||BKN:07|07-Seven-o|4|FM15-METAR|223|ICAO-KTSP|||||||OVC:08|08-Eight-o|4|FM15-METAR|223|ICAO-KTSP|||||||||||||||||||MET070METAR KTSP 140355Z AUTO 28009KT 7SM BKN004 OVC036 04/04 A3002 RMK AO2;||F||223|ICAO-KTSP
USW00000479|TEHACHAPI MUNI AP|2009|12|14|04|15|35.1350|-118.4392|1219.5|4.0||1|FM15-METAR|223|ICAO-KTSP|4.0||1|FM15-METAR|223|ICAO-KTSP|||||||||||||300|N-Normal|1|FM15-METAR|223|ICAO-KTSP|5.1|N-Normal|1|FM15-METAR|223|ICAO-KTSP|||||||||||||100|Derived||FM15-METAR|223|ICAO-KTSP|||||||||||||||||||||||||||||||||||||||||||||||||||||||||||||||||||||||||1016.6||1|FM15-METAR|223|ICAO-KTSP|||||||SCT:04|04-Four-ok|4|FM15-METAR|223|ICAO-KTSP|||||||BKN:07|07-Seven-o|4|FM15-METAR|223|ICAO-KTSP|||||||||||||||||||MET077METAR KTSP 140415Z AUTO 30010KT 8SM SCT004 BKN016 OVC030 04/04 A3002 RMK AO2;||F||223|ICAO-KTSP
USW00000479|TEHACHAPI MUNI AP|2009|12|14|04|35|35.1350|-118.4392|1219.5|4.0||1|FM15-METAR|223|ICAO-KTSP|4.0||1|FM15-METAR|223|ICAO-KTSP|||||||||||||300|N-Normal|1|FM15-METAR|223|ICAO-KTSP|4.1|N-Normal|1|FM15-METAR|223|ICAO-KTSP|||||||||||||100|Derived||FM15-METAR|223|ICAO-KTSP|||||||||||||||||||||||||||||||||||||||||||||||||||||||||||||||||||||||||1016.9||1|FM15-METAR|223|ICAO-KTSP|||||||FEW:02|02-Two-okt|4|FM15-METAR|223|ICAO-KTSP|||||||BKN:07|07-Seven-o|4|FM15-METAR|223|ICAO-KTSP|||||||||||||||||||MET077METAR KTSP 140435Z AUTO 30008KT 8SM FEW010 BKN021 OVC029 04/04 A3003 RMK AO2;||F||223|ICAO-KTSP
USW00000479|TEHACHAPI MUNI AP|2009|12|14|05|00|35.1350|-118.4392|1219.5|4.0||1|FM15-METAR|223|ICAO-KTSP|4.0||1|FM15-METAR|223|ICAO-KTSP|||||||||||||290|N-Normal|1|FM15-METAR|223|ICAO-KTSP|4.6|N-Normal|1|FM15-METAR|223|ICAO-KTSP|||||||||||||100|Derived||FM15-METAR|223|ICAO-KTSP|||||||||||||||||||||||||||||||||||||||||||||||||||||||||||||||||||||||||1016.9||1|FM15-METAR|223|ICAO-KTSP|||||||BKN:07|07-Seven-o|4|FM15-METAR|223|ICAO-KTSP|||||||OVC:08|08-Eight-o|4|FM15-METAR|223|ICAO-KTSP|||||||||||||||||||MET070METAR KTSP 140455Z AUTO 29009KT 8SM BKN019 OVC024 04/04 A3003 RMK AO2;||F||223|ICAO-KTSP
USW00000479|TEHACHAPI MUNI AP|2009|12|14|05|15|35.1350|-118.4392|1219.5|4.0||1|FM15-METAR|223|ICAO-KTSP|4.0||1|FM15-METAR|223|ICAO-KTSP|||||||||||||290|N-Normal|1|FM15-METAR|223|ICAO-KTSP|3.6|N-Normal|1|FM15-METAR|223|ICAO-KTSP|||||||||||||100|Derived||FM15-METAR|223|ICAO-KTSP|||||||||||||||||||||||||||||||||||||||||||||||||||||||||||||||||||||||||1016.9||1|FM15-METAR|223|ICAO-KTSP|||||||FEW:02|02-Two-okt|4|FM15-METAR|223|ICAO-KTSP|||||||BKN:07|07-Seven-o|4|FM15-METAR|223|ICAO-KTSP|||||||||||||||||||MET077METAR KTSP 140515Z AUTO 29007KT 7SM FEW014 BKN018 OVC031 04/04 A3003 RMK AO2;||F||223|ICAO-KTSP
USW00000479|TEHACHAPI MUNI AP|2009|12|14|05|35|35.1350|-118.4392|1219.5|4.0||1|FM15-METAR|223|ICAO-KTSP|4.0||1|FM15-METAR|223|ICAO-KTSP|||||||||||||290|N-Normal|1|FM15-METAR|223|ICAO-KTSP|3.6|N-Normal|1|FM15-METAR|223|ICAO-KTSP|||||||||||||100|Derived||FM15-METAR|223|ICAO-KTSP|||||||||||||||||||||||||||||||||||||||||||||||||||||||||||||||||||||||||1016.9||1|FM15-METAR|223|ICAO-KTSP|||||||FEW:02|02-Two-okt|4|FM15-METAR|223|ICAO-KTSP|||||||BKN:07|07-Seven-o|4|FM15-METAR|223|ICAO-KTSP|||||||||||||||||||MET077METAR KTSP 140535Z AUTO 29007KT 8SM FEW005 BKN020 OVC032 04/04 A3003 RMK AO2;||F||223|ICAO-KTSP
USW00000479|TEHACHAPI MUNI AP|2009|12|14|06|00|35.1350|-118.4392|1219.5|4.0||1|FM15-METAR|223|ICAO-KTSP|4.0||1|FM15-METAR|223|ICAO-KTSP|||||||||||||280|N-Normal|1|FM15-METAR|223|ICAO-KTSP|3.6|N-Normal|1|FM15-METAR|223|ICAO-KTSP|||||||||||||100|Derived||FM15-METAR|223|ICAO-KTSP|||||||||||||||||||||||||||||||||||||||||||||||||||||||||||||||||||||||||1017.3||1|FM15-METAR|223|ICAO-KTSP|||||||FEW:02|02-Two-okt|4|FM15-METAR|223|ICAO-KTSP|||||||SCT:04|04-Four-ok|4|FM15-METAR|223|ICAO-KTSP|||||||||||||||||||MET077METAR KTSP 140555Z AUTO 28007KT 8SM FEW004 SCT020 BKN030 04/04 A3004 RMK AO2;||F||223|ICAO-KTSP
USW00000479|TEHACHAPI MUNI AP|2009|12|14|06|15|35.1350|-118.4392|1219.5|4.0||1|FM15-METAR|223|ICAO-KTSP|4.0||1|FM15-METAR|223|ICAO-KTSP|||||||||||||280|N-Normal|1|FM15-METAR|223|ICAO-KTSP|3.6|N-Normal|1|FM15-METAR|223|ICAO-KTSP|||||||||||||100|Derived||FM15-METAR|223|ICAO-KTSP|||||||||||||||||||||||||||||||||||||||||||||||||||||||||||||||||||||||||1017.6||1|FM15-METAR|223|ICAO-KTSP|||||||SCT:04|04-Four-ok|4|FM15-METAR|223|ICAO-KTSP|||||||BKN:07|07-Seven-o|4|FM15-METAR|223|ICAO-KTSP|||||||||||||||||||MET077METAR KTSP 140615Z AUTO 28007KT 8SM SCT005 BKN019 OVC029 04/04 A3005 RMK AO2;||F||223|ICAO-KTSP
USW00000479|TEHACHAPI MUNI AP|2009|12|14|06|35|35.1350|-118.4392|1219.5|4.0||1|FM15-METAR|223|ICAO-KTSP|4.0||1|FM15-METAR|223|ICAO-KTSP|||||||||||||290|N-Normal|1|FM15-METAR|223|ICAO-KTSP|5.1|N-Normal|1|FM15-METAR|223|ICAO-KTSP|7.2||1|FM15-METAR|223|ICAO-KTSP|||||||100|Derived||FM15-METAR|223|ICAO-KTSP|||||||||||||||||||||||||||||||||||||||||||||||||||||||||||||||||||||||||1017.6||1|FM15-METAR|223|ICAO-KTSP|||||||BKN:07|07-Seven-o|4|FM15-METAR|223|ICAO-KTSP|||||||OVC:08|08-Eight-o|4|FM15-METAR|223|ICAO-KTSP|||||||||||||||||||MET073METAR KTSP 140635Z AUTO 29010G14KT 9SM BKN005 OVC031 04/04 A3005 RMK AO2;||F||223|ICAO-KTSP
USW00000479|TEHACHAPI MUNI AP|2009|12|14|07|00|35.1350|-118.4392|1219.5|4.0||1|FM15-METAR|223|ICAO-KTSP|4.0||1|FM15-METAR|223|ICAO-KTSP|||||||||||||300|N-Normal|1|FM15-METAR|223|ICAO-KTSP|5.7|N-Normal|1|FM15-METAR|223|ICAO-KTSP|||||||||||||100|Derived||FM15-METAR|223|ICAO-KTSP|||||||||||||||||||||||||||||||||||||||||||||||||||||||||||||||||||||||||1017.6||1|FM15-METAR|223|ICAO-KTSP|||||||BKN:07|07-Seven-o|4|FM15-METAR|223|ICAO-KTSP|||||||OVC:08|08-Eight-o|4|FM15-METAR|223|ICAO-KTSP|||||||||||||||||||MET070METAR KTSP 140655Z AUTO 30011KT 7SM BKN004 OVC031 04/04 A3005 RMK AO2;||F||223|ICAO-KTSP
USW00000479|TEHACHAPI MUNI AP|2009|12|14|07|15|35.1350|-118.4392|1219.5|4.0||1|FM15-METAR|223|ICAO-KTSP|4.0||1|FM15-METAR|223|ICAO-KTSP|||||||||||||300|N-Normal|1|FM15-METAR|223|ICAO-KTSP|5.7|N-Normal|1|FM15-METAR|223|ICAO-KTSP|||||||||||||100|Derived||FM15-METAR|223|ICAO-KTSP|||||||||||||||||||||||||||||||||||||||||||BR:10|BR:10-Mist|1|FM15-METAR|223|ICAO-KTSP|||||||||||||||||||||||||1017.6||1|FM15-METAR|223|ICAO-KTSP|||||||BKN:07|07-Seven-o|4|FM15-METAR|223|ICAO-KTSP|||||||BKN:07|07-Seven-o|4|FM15-METAR|223|ICAO-KTSP|||||||||||||||||||MET080METAR KTSP 140715Z AUTO 30011KT 5SM BR BKN004 BKN022 OVC029 04/04 A3005 RMK AO2;||F||223|ICAO-KTSP
USW00000479|TEHACHAPI MUNI AP|2009|12|14|07|35|35.1350|-118.4392|1219.5|4.0||1|FM15-METAR|223|ICAO-KTSP|4.0||1|FM15-METAR|223|ICAO-KTSP|||||||||||||300|N-Normal|1|FM15-METAR|223|ICAO-KTSP|4.1|N-Normal|1|FM15-METAR|223|ICAO-KTSP|7.7||1|FM15-METAR|223|ICAO-KTSP|||||||100|Derived||FM15-METAR|223|ICAO-KTSP|||||||||||||||||||||||||||||||||||||||||||BR:10|BR:10-Mist|1|FM15-METAR|223|ICAO-KTSP|||||||||||||||||||||||||1017.6||1|FM15-METAR|223|ICAO-KTSP|||||||BKN:07|07-Seven-o|4|FM15-METAR|223|ICAO-KTSP|||||||BKN:07|07-Seven-o|4|FM15-METAR|223|ICAO-KTSP|||||||||||||||||||MET083METAR KTSP 140735Z AUTO 30008G15KT 4SM BR BKN003 BKN021 OVC029 04/04 A3005 RMK AO2;||F||223|ICAO-KTSP
USW00000479|TEHACHAPI MUNI AP|2009|12|14|08|00|35.1350|-118.4392|1219.5|4.0||1|FM15-METAR|223|ICAO-KTSP|4.0||1|FM15-METAR|223|ICAO-KTSP|||||||||||||300|N-Normal|1|FM15-METAR|223|ICAO-KTSP|4.1|N-Normal|1|FM15-METAR|223|ICAO-KTSP|||||||||||||100|Derived||FM15-METAR|223|ICAO-KTSP|||||||||||||||||||||||||||||||||||||||||||RA:61|RA:61-Rain|1|FM15-METAR|223|ICAO-KTSP|||||||||||||||||||||||||1017.6||1|FM15-METAR|223|ICAO-KTSP|||||||OVC:08|08-Eight-o|4|FM15-METAR|223|ICAO-KTSP|||||||||||||||||||||||||||||||MET067METAR KTSP 140755Z AUTO 30008KT 5SM -RA OVC003 04/04 A3005 RMK AO2;||F||223|ICAO-KTSP
USW00000479|TEHACHAPI MUNI AP|2009|12|14|08|15|35.1350|-118.4392|1219.5|4.0||1|FM15-METAR|223|ICAO-KTSP|4.0||1|FM15-METAR|223|ICAO-KTSP|||||||||||||310|N-Normal|1|FM15-METAR|223|ICAO-KTSP|3.6|N-Normal|1|FM15-METAR|223|ICAO-KTSP|||||||||||||100|Derived||FM15-METAR|223|ICAO-KTSP|||||||||||||||||||||||||||||||||||||||||||BR:10|BR:10-Mist|1|FM15-METAR|223|ICAO-KTSP|||||||||||||||||||||||||1017.6||1|FM15-METAR|223|ICAO-KTSP|||||||BKN:07|07-Seven-o|4|FM15-METAR|223|ICAO-KTSP|||||||OVC:08|08-Eight-o|4|FM15-METAR|223|ICAO-KTSP|||||||||||||||||||MET073METAR KTSP 140815Z AUTO 31007KT 5SM BR BKN003 OVC007 04/04 A3005 RMK AO2;||F||223|ICAO-KTSP
USW00000479|TEHACHAPI MUNI AP|2009|12|14|08|35|35.1350|-118.4392|1219.5|4.0||1|FM15-METAR|223|ICAO-KTSP|4.0||1|FM15-METAR|223|ICAO-KTSP|||||||||||||310|N-Normal|1|FM15-METAR|223|ICAO-KTSP|4.6|N-Normal|1|FM15-METAR|223|ICAO-KTSP|||||||||||||100|Derived||FM15-METAR|223|ICAO-KTSP|||||||||||||||||||||||||||||||||||||||||||BR:10|BR:10-Mist|1|FM15-METAR|223|ICAO-KTSP|||||||||||||||||||||||||1018.0||1|FM15-METAR|223|ICAO-KTSP|||||||OVC:08|08-Eight-o|4|FM15-METAR|223|ICAO-KTSP|||||||||||||||||||||||||||||||MET066METAR KTSP 140835Z AUTO 31009KT 5SM BR OVC004 04/04 A3006 RMK AO2;||F||223|ICAO-KTSP
USW00000479|TEHACHAPI MUNI AP|2009|12|14|09|00|35.1350|-118.4392|1219.5|4.0||1|FM15-METAR|223|ICAO-KTSP|4.0||1|FM15-METAR|223|ICAO-KTSP|||||||||||||310|N-Normal|1|FM15-METAR|223|ICAO-KTSP|5.1|N-Normal|1|FM15-METAR|223|ICAO-KTSP|||||||||||||100|Derived||FM15-METAR|223|ICAO-KTSP|||||||||||||||||||||||||||||||||||||||||||||||||||||||||||||||||||||||||1018.0||1|FM15-METAR|223|ICAO-KTSP|||||||BKN:07|07-Seven-o|4|FM15-METAR|223|ICAO-KTSP|||||||BKN:07|07-Seven-o|4|FM15-METAR|223|ICAO-KTSP|||||||||||||||||||MET077METAR KTSP 140855Z AUTO 31010KT 7SM BKN003 BKN008 OVC030 04/04 A3006 RMK AO2;||F||223|ICAO-KTSP
USW00000479|TEHACHAPI MUNI AP|2009|12|14|09|15|35.1350|-118.4392|1219.5|4.0||1|FM15-METAR|223|ICAO-KTSP|4.0||1|FM15-METAR|223|ICAO-KTSP|||||||||||||310|N-Normal|1|FM15-METAR|223|ICAO-KTSP|4.1|N-Normal|1|FM15-METAR|223|ICAO-KTSP|||||||||||||100|Derived||FM15-METAR|223|ICAO-KTSP|||||||||||||||||||||||||||||||||||||||||||||||||||||||||||||||||||||||||1018.3||1|FM15-METAR|223|ICAO-KTSP|||||||SCT:04|04-Four-ok|4|FM15-METAR|223|ICAO-KTSP|||||||OVC:08|08-Eight-o|4|FM15-METAR|223|ICAO-KTSP|||||||||||||||||||MET070METAR KTSP 140915Z AUTO 31008KT 7SM SCT005 OVC030 04/04 A3007 RMK AO2;||F||223|ICAO-KTSP
USW00000479|TEHACHAPI MUNI AP|2009|12|14|09|35|35.1350|-118.4392|1219.5|4.0||1|FM15-METAR|223|ICAO-KTSP|4.0||1|FM15-METAR|223|ICAO-KTSP|||||||||||||310|N-Normal|1|FM15-METAR|223|ICAO-KTSP|4.1|N-Normal|1|FM15-METAR|223|ICAO-KTSP|||||||||||||100|Derived||FM15-METAR|223|ICAO-KTSP|||||||||||||||||||||||||||||||||||||||||||||||||||||||||||||||||||||||||1018.3||1|FM15-METAR|223|ICAO-KTSP|||||||FEW:02|02-Two-okt|4|FM15-METAR|223|ICAO-KTSP|||||||OVC:08|08-Eight-o|4|FM15-METAR|223|ICAO-KTSP|||||||||||||||||||MET070METAR KTSP 140935Z AUTO 31008KT 7SM FEW005 OVC028 04/04 A3007 RMK AO2;||F||223|ICAO-KTSP
USW00000479|TEHACHAPI MUNI AP|2009|12|14|10|00|35.1350|-118.4392|1219.5|4.0||1|FM15-METAR|223|ICAO-KTSP|4.0||1|FM15-METAR|223|ICAO-KTSP|||||||||||||300|N-Normal|1|FM15-METAR|223|ICAO-KTSP|4.6|N-Normal|1|FM15-METAR|223|ICAO-KTSP|||||||||||||100|Derived||FM15-METAR|223|ICAO-KTSP|||||||||||||||||||||||||||||||||||||||||||||||||||||||||||||||||||||||||1018.3||1|FM15-METAR|223|ICAO-KTSP|||||||FEW:02|02-Two-okt|4|FM15-METAR|223|ICAO-KTSP|||||||BKN:07|07-Seven-o|4|FM15-METAR|223|ICAO-KTSP|||||||||||||||||||MET077METAR KTSP 140955Z AUTO 30009KT 7SM FEW006 BKN020 OVC026 04/04 A3007 RMK AO2;||F||223|ICAO-KTSP
USW00000479|TEHACHAPI MUNI AP|2009|12|14|10|15|35.1350|-118.4392|1219.5|4.0||1|FM15-METAR|223|ICAO-KTSP|4.0||1|FM15-METAR|223|ICAO-KTSP|||||||||||||290|N-Normal|1|FM15-METAR|223|ICAO-KTSP|4.6|N-Normal|1|FM15-METAR|223|ICAO-KTSP|||||||||||||100|Derived||FM15-METAR|223|ICAO-KTSP|||||||||||||||||||||||||||||||||||||||||||BR:10|BR:10-Mist|1|FM15-METAR|223|ICAO-KTSP|||||||||||||||||||||||||1018.3||1|FM15-METAR|223|ICAO-KTSP|||||||BKN:07|07-Seven-o|4|FM15-METAR|223|ICAO-KTSP|||||||OVC:08|08-Eight-o|4|FM15-METAR|223|ICAO-KTSP|||||||||||||||||||MET073METAR KTSP 141015Z AUTO 29009KT 5SM BR BKN003 OVC019 04/04 A3007 RMK AO2;||F||223|ICAO-KTSP
USW00000479|TEHACHAPI MUNI AP|2009|12|14|10|35|35.1350|-118.4392|1219.5|4.0||1|FM15-METAR|223|ICAO-KTSP|4.0||1|FM15-METAR|223|ICAO-KTSP|||||||||||||280|N-Normal|1|FM15-METAR|223|ICAO-KTSP|3.6|N-Normal|1|FM15-METAR|223|ICAO-KTSP|||||||||||||100|Derived||FM15-METAR|223|ICAO-KTSP|||||||||||||||||||||||||||||||||||||||||||||||||||||||||||||||||||||||||1018.3||1|FM15-METAR|223|ICAO-KTSP|||||||BKN:07|07-Seven-o|4|FM15-METAR|223|ICAO-KTSP|||||||BKN:07|07-Seven-o|4|FM15-METAR|223|ICAO-KTSP|||||||||||||||||||MET077METAR KTSP 141035Z AUTO 28007KT 8SM BKN004 BKN010 OVC027 04/04 A3007 RMK AO2;||F||223|ICAO-KTSP
USW00000479|TEHACHAPI MUNI AP|2009|12|14|11|00|35.1350|-118.4392|1219.5|4.0||1|FM15-METAR|223|ICAO-KTSP|4.0||1|FM15-METAR|223|ICAO-KTSP|||||||||||||290|N-Normal|1|FM15-METAR|223|ICAO-KTSP|4.1|N-Normal|1|FM15-METAR|223|ICAO-KTSP|||||||||||||100|Derived||FM15-METAR|223|ICAO-KTSP|||||||||||||||||||||||||||||||||||||||||||||||||||||||||||||||||||||||||1018.3||1|FM15-METAR|223|ICAO-KTSP|||||||SCT:04|04-Four-ok|4|FM15-METAR|223|ICAO-KTSP|||||||OVC:08|08-Eight-o|4|FM15-METAR|223|ICAO-KTSP|||||||||||||||||||MET070METAR KTSP 141055Z AUTO 29008KT 8SM SCT007 OVC027 04/04 A3007 RMK AO2;||F||223|ICAO-KTSP
USW00000479|TEHACHAPI MUNI AP|2009|12|14|11|15|35.1350|-118.4392|1219.5|4.0||1|FM15-METAR|223|ICAO-KTSP|4.0||1|FM15-METAR|223|ICAO-KTSP|||||||||||||300|N-Normal|1|FM15-METAR|223|ICAO-KTSP|3.6|N-Normal|1|FM15-METAR|223|ICAO-KTSP|||||||||||||100|Derived||FM15-METAR|223|ICAO-KTSP|||||||||||||||||||||||||||||||||||||||||||BR:10|BR:10-Mist|1|FM15-METAR|223|ICAO-KTSP|||||||||||||||||||||||||1018.3||1|FM15-METAR|223|ICAO-KTSP|||||||BKN:07|07-Seven-o|4|FM15-METAR|223|ICAO-KTSP|||||||BKN:07|07-Seven-o|4|FM15-METAR|223|ICAO-KTSP|||||||||||||||||||MET080METAR KTSP 141115Z AUTO 30007KT 5SM BR BKN003 BKN007 OVC025 04/04 A3007 RMK AO2;||F||223|ICAO-KTSP
USW00000479|TEHACHAPI MUNI AP|2009|12|14|11|35|35.1350|-118.4392|1219.5|4.0||1|FM15-METAR|223|ICAO-KTSP|4.0||1|FM15-METAR|223|ICAO-KTSP|||||||||||||300|N-Normal|1|FM15-METAR|223|ICAO-KTSP|4.1|N-Normal|1|FM15-METAR|223|ICAO-KTSP|||||||||||||100|Derived||FM15-METAR|223|ICAO-KTSP|||||||||||||||||||||||||||||||||||||||||||||||||||||||||||||||||||||||||1018.3||1|FM15-METAR|223|ICAO-KTSP|||||||FEW:02|02-Two-okt|4|FM15-METAR|223|ICAO-KTSP|||||||OVC:08|08-Eight-o|4|FM15-METAR|223|ICAO-KTSP|||||||||||||||||||MET070METAR KTSP 141135Z AUTO 30008KT 8SM FEW002 OVC023 04/04 A3007 RMK AO2;||F||223|ICAO-KTSP
USW00000479|TEHACHAPI MUNI AP|2009|12|14|12|00|35.1350|-118.4392|1219.5|4.0||1|FM15-METAR|223|ICAO-KTSP|4.0||1|FM15-METAR|223|ICAO-KTSP|||||||||||||300|N-Normal|1|FM15-METAR|223|ICAO-KTSP|4.6|N-Normal|1|FM15-METAR|223|ICAO-KTSP|||||||||||||100|Derived||FM15-METAR|223|ICAO-KTSP|||||||||||||||||||||||||||||||||||||||||||BR:10|BR:10-Mist|1|FM15-METAR|223|ICAO-KTSP|||||||||||||||||||||||||1018.6||1|FM15-METAR|223|ICAO-KTSP|||||||BKN:07|07-Seven-o|4|FM15-METAR|223|ICAO-KTSP|||||||OVC:08|08-Eight-o|4|FM15-METAR|223|ICAO-KTSP|||||||||||||||||||MET073METAR KTSP 141155Z AUTO 30009KT 6SM BR BKN002 OVC023 04/04 A3008 RMK AO2;||F||223|ICAO-KTSP
USW00000479|TEHACHAPI MUNI AP|2009|12|14|12|15|35.1350|-118.4392|1219.5|4.0||1|FM15-METAR|223|ICAO-KTSP|4.0||1|FM15-METAR|223|ICAO-KTSP|||||||||||||300|N-Normal|1|FM15-METAR|223|ICAO-KTSP|3.6|N-Normal|1|FM15-METAR|223|ICAO-KTSP|||||||||||||100|Derived||FM15-METAR|223|ICAO-KTSP|||||||||||||||||||||||||||||||||||||||||||||||||||||||||||||||||||||||||1018.6||1|FM15-METAR|223|ICAO-KTSP|||||||BKN:07|07-Seven-o|4|FM15-METAR|223|ICAO-KTSP|||||||BKN:07|07-Seven-o|4|FM15-METAR|223|ICAO-KTSP|||||||||||||||||||MET077METAR KTSP 141215Z AUTO 30007KT 8SM BKN003 BKN008 OVC023 04/04 A3008 RMK AO2;||F||223|ICAO-KTSP
USW00000479|TEHACHAPI MUNI AP|2009|12|14|12|35|35.1350|-118.4392|1219.5|4.0||1|FM15-METAR|223|ICAO-KTSP|4.0||1|FM15-METAR|223|ICAO-KTSP|||||||||||||280|N-Normal|1|FM15-METAR|223|ICAO-KTSP|5.1|N-Normal|1|FM15-METAR|223|ICAO-KTSP|||||||||||||100|Derived||FM15-METAR|223|ICAO-KTSP|||||||||||||||||||||||||||||||||||||||||||||||||||||||||||||||||||||||||1018.6||1|FM15-METAR|223|ICAO-KTSP|||||||SCT:04|04-Four-ok|4|FM15-METAR|223|ICAO-KTSP|||||||OVC:08|08-Eight-o|4|FM15-METAR|223|ICAO-KTSP|||||||||||||||||||MET070METAR KTSP 141235Z AUTO 28010KT 9SM SCT003 OVC021 04/04 A3008 RMK AO2;||F||223|ICAO-KTSP
USW00000479|TEHACHAPI MUNI AP|2009|12|14|13|00|35.1350|-118.4392|1219.5|4.0||1|FM15-METAR|223|ICAO-KTSP|4.0||1|FM15-METAR|223|ICAO-KTSP|||||||||||||300|N-Normal|1|FM15-METAR|223|ICAO-KTSP|4.6|N-Normal|1|FM15-METAR|223|ICAO-KTSP|||||||||||||100|Derived||FM15-METAR|223|ICAO-KTSP|||||||||||||||||||||||||||||||||||||||||||||||||||||||||||||||||||||||||1019.0||1|FM15-METAR|223|ICAO-KTSP|||||||FEW:02|02-Two-okt|4|FM15-METAR|223|ICAO-KTSP|||||||SCT:04|04-Four-ok|4|FM15-METAR|223|ICAO-KTSP|||||||||||||||||||MET077METAR KTSP 141255Z AUTO 30009KT 9SM FEW002 SCT012 OVC023 04/04 A3009 RMK AO2;||F||223|ICAO-KTSP
USW00000479|TEHACHAPI MUNI AP|2009|12|14|13|15|35.1350|-118.4392|1219.5|4.0||1|FM15-METAR|223|ICAO-KTSP|4.0||1|FM15-METAR|223|ICAO-KTSP|||||||||||||300|N-Normal|1|FM15-METAR|223|ICAO-KTSP|4.1|N-Normal|1|FM15-METAR|223|ICAO-KTSP|||||||||||||100|Derived||FM15-METAR|223|ICAO-KTSP|||||||||||||||||||||||||||||||||||||||||||RA:61|RA:61-Rain|1|FM15-METAR|223|ICAO-KTSP|||||||||||||||||||||||||1019.3||1|FM15-METAR|223|ICAO-KTSP|||||||BKN:07|07-Seven-o|4|FM15-METAR|223|ICAO-KTSP|||||||BKN:07|07-Seven-o|4|FM15-METAR|223|ICAO-KTSP|||||||||||||||||||MET081METAR KTSP 141315Z AUTO 30008KT 5SM -RA BKN005 BKN011 OVC021 04/04 A3010 RMK AO2;||F||223|ICAO-KTSP
USW00000479|TEHACHAPI MUNI AP|2009|12|14|13|35|35.1350|-118.4392|1219.5|4.0||1|FM15-METAR|223|ICAO-KTSP|4.0||1|FM15-METAR|223|ICAO-KTSP|||||||||||||300|N-Normal|1|FM15-METAR|223|ICAO-KTSP|5.1|N-Normal|1|FM15-METAR|223|ICAO-KTSP|||||||||||||100|Derived||FM15-METAR|223|ICAO-KTSP|||||||||||||||||||||||||||||||||||||||||||RA:61|RA:61-Rain|1|FM15-METAR|223|ICAO-KTSP|||||||||||||||||||||||||1019.3||1|FM15-METAR|223|ICAO-KTSP|||||||OVC:08|08-Eight-o|4|FM15-METAR|223|ICAO-KTSP|||||||||||||||||||||||||||||||MET067METAR KTSP 141335Z AUTO 30010KT 2SM -RA OVC002 04/04 A3010 RMK AO2;||F||223|ICAO-KTSP
USW00000479|TEHACHAPI MUNI AP|2009|12|14|14|00|35.1350|-118.4392|1219.5|4.0||1|FM15-METAR|223|ICAO-KTSP|4.0||1|FM15-METAR|223|ICAO-KTSP|||||||||||||310|N-Normal|1|FM15-METAR|223|ICAO-KTSP|5.7|N-Normal|1|FM15-METAR|223|ICAO-KTSP|||||||||||||100|Derived||FM15-METAR|223|ICAO-KTSP|||||||||||||||||||||||||||||||||||||||||||FG:30|FG:30-Fog|1|FM15-METAR|223|ICAO-KTSP|||||||||||||||||||||||||1019.6||1|FM15-METAR|223|ICAO-KTSP|||||||OVC:08|08-Eight-o|4|FM15-METAR|223|ICAO-KTSP|||||||||||||||||||||||||||||||MET068METAR KTSP 141355Z AUTO 31011KT 1/4SM FG OVC001 04/04 A3011 RMK AO2;||F||223|ICAO-KTSP
USW00000479|TEHACHAPI MUNI AP|2009|12|14|14|15|35.1350|-118.4392|1219.5|3.0||1|FM15-METAR|223|ICAO-KTSP|3.0||1|FM15-METAR|223|ICAO-KTSP|||||||||||||310|N-Normal|1|FM15-METAR|223|ICAO-KTSP|5.7|N-Normal|1|FM15-METAR|223|ICAO-KTSP|||||||||||||100|Derived||FM15-METAR|223|ICAO-KTSP|||||||||||||||||||||||||||||||||||||||||||BR:10|BR:10-Mist|1|FM15-METAR|223|ICAO-KTSP|||||||||||||||||||||||||1020.0||1|FM15-METAR|223|ICAO-KTSP|||||||OVC:08|08-Eight-o|4|FM15-METAR|223|ICAO-KTSP|||||||||||||||||||||||||||||||MET066METAR KTSP 141415Z AUTO 31011KT 4SM BR OVC001 03/03 A3012 RMK AO2;||F||223|ICAO-KTSP
USW00000479|TEHACHAPI MUNI AP|2009|12|14|14|35|35.1350|-118.4392|1219.5|3.0||1|FM15-METAR|223|ICAO-KTSP|3.0||1|FM15-METAR|223|ICAO-KTSP|||||||||||||320|N-Normal|1|FM15-METAR|223|ICAO-KTSP|5.7|N-Normal|1|FM15-METAR|223|ICAO-KTSP|||||||||||||100|Derived||FM15-METAR|223|ICAO-KTSP|||||||||||||||||||||||||||||||||||||||||||BR:10|BR:10-Mist|1|FM15-METAR|223|ICAO-KTSP|||||||||||||||||||||||||1020.3||1|FM15-METAR|223|ICAO-KTSP|||||||OVC:08|08-Eight-o|4|FM15-METAR|223|ICAO-KTSP|||||||||||||||||||||||||||||||MET066METAR KTSP 141435Z AUTO 32011KT 5SM BR OVC002 03/03 A3013 RMK AO2;||F||223|ICAO-KTSP
USW00000479|TEHACHAPI MUNI AP|2009|12|14|15|00|35.1350|-118.4392|1219.5|3.0||1|FM15-METAR|223|ICAO-KTSP|3.0||1|FM15-METAR|223|ICAO-KTSP|||||||||||||310|N-Normal|1|FM15-METAR|223|ICAO-KTSP|4.6|N-Normal|1|FM15-METAR|223|ICAO-KTSP|||||||||||||100|Derived||FM15-METAR|223|ICAO-KTSP|||||||||||||||||||||||||||||||||||||||||||FG:30|FG:30-Fog|1|FM15-METAR|223|ICAO-KTSP|||||||||||||||||||||||||1020.7||1|FM15-METAR|223|ICAO-KTSP|||||||OVC:08|08-Eight-o|4|FM15-METAR|223|ICAO-KTSP|||||||||||||||||||||||||||||||MET068METAR KTSP 141455Z AUTO 31009KT 1/4SM FG OVC001 03/03 A3014 RMK AO2;||F||223|ICAO-KTSP
USW00000479|TEHACHAPI MUNI AP|2009|12|14|15|15|35.1350|-118.4392|1219.5|3.0||1|FM15-METAR|223|ICAO-KTSP|3.0||1|FM15-METAR|223|ICAO-KTSP|||||||||||||310|N-Normal|1|FM15-METAR|223|ICAO-KTSP|5.1|N-Normal|1|FM15-METAR|223|ICAO-KTSP|||||||||||||100|Derived||FM15-METAR|223|ICAO-KTSP|||||||||||||||||||||||||||||||||||||||||||FG:30|FG:30-Fog|1|FM15-METAR|223|ICAO-KTSP|||||||||||||||||||||||||1020.7||1|FM15-METAR|223|ICAO-KTSP|||||||OVC:08|08-Eight-o|4|FM15-METAR|223|ICAO-KTSP|||||||||||||||||||||||||||||||MET068METAR KTSP 141515Z AUTO 31010KT 1/4SM FG OVC001 03/03 A3014 RMK AO2;||F||223|ICAO-KTSP
USW00000479|TEHACHAPI MUNI AP|2009|12|14|15|35|35.1350|-118.4392|1219.5|3.0||1|FM15-METAR|223|ICAO-KTSP|3.0||1|FM15-METAR|223|ICAO-KTSP|||||||||||||290|N-Normal|1|FM15-METAR|223|ICAO-KTSP|4.6|N-Normal|1|FM15-METAR|223|ICAO-KTSP|||||||||||||100|Derived||FM15-METAR|223|ICAO-KTSP|||||||||||||||||||||||||||||||||||||||||||BR:10|BR:10-Mist|1|FM15-METAR|223|ICAO-KTSP|||||||||||||||||||||||||1021.0||1|FM15-METAR|223|ICAO-KTSP|||||||OVC:08|08-Eight-o|4|FM15-METAR|223|ICAO-KTSP|||||||||||||||||||||||||||||||MET068METAR KTSP 141535Z AUTO 29009KT 3/4SM BR OVC001 03/03 A3015 RMK AO2;||F||223|ICAO-KTSP
USW00000479|TEHACHAPI MUNI AP|2009|12|14|16|00|35.1350|-118.4392|1219.5|3.0||1|FM15-METAR|223|ICAO-KTSP|3.0||1|FM15-METAR|223|ICAO-KTSP|||||||||||||320|N-Normal|1|FM15-METAR|223|ICAO-KTSP|4.1|N-Normal|1|FM15-METAR|223|ICAO-KTSP|||||||||||||100|Derived||FM15-METAR|223|ICAO-KTSP|||||||||||||||||||||||||||||||||||||||||||BR:10|BR:10-Mist|1|FM15-METAR|223|ICAO-KTSP|||||||||||||||||||||||||1021.0||1|FM15-METAR|223|ICAO-KTSP|||||||BKN:07|07-Seven-o|4|FM15-METAR|223|ICAO-KTSP|||||||OVC:08|08-Eight-o|4|FM15-METAR|223|ICAO-KTSP|||||||||||||||||||MET073METAR KTSP 141555Z AUTO 32008KT 3SM BR BKN002 OVC029 03/03 A3015 RMK AO2;||F||223|ICAO-KTSP
USW00000479|TEHACHAPI MUNI AP|2009|12|14|16|15|35.1350|-118.4392|1219.5|3.0||1|FM15-METAR|223|ICAO-KTSP|3.0||1|FM15-METAR|223|ICAO-KTSP|||||||||||||300|N-Normal|1|FM15-METAR|223|ICAO-KTSP|3.6|N-Normal|1|FM15-METAR|223|ICAO-KTSP|||||||||||||100|Derived||FM15-METAR|223|ICAO-KTSP|||||||||||||||||||||||||||||||||||||||||||||||||||||||||||||||||||||||||1021.3||1|FM15-METAR|223|ICAO-KTSP|||||||SCT:04|04-Four-ok|4|FM15-METAR|223|ICAO-KTSP|||||||OVC:08|08-Eight-o|4|FM15-METAR|223|ICAO-KTSP|||||||||||||||||||MET070METAR KTSP 141615Z AUTO 30007KT 7SM SCT002 OVC025 03/03 A3016 RMK AO2;||F||223|ICAO-KTSP
USW00000479|TEHACHAPI MUNI AP|2009|12|14|16|35|35.1350|-118.4392|1219.5|4.0||1|FM15-METAR|223|ICAO-KTSP|4.0||1|FM15-METAR|223|ICAO-KTSP|||||||||||||280|N-Normal|1|FM15-METAR|223|ICAO-KTSP|4.6|N-Normal|1|FM15-METAR|223|ICAO-KTSP|||||||||||||100|Derived||FM15-METAR|223|ICAO-KTSP|||||||||||||||||||||||||||||||||||||||||||||||||||||||||||||||||||||||||1021.7||1|FM15-METAR|223|ICAO-KTSP|||||||FEW:02|02-Two-okt|4|FM15-METAR|223|ICAO-KTSP|||||||BKN:07|07-Seven-o|4|FM15-METAR|223|ICAO-KTSP|||||||||||||||||||MET070METAR KTSP 141635Z AUTO 28009KT 9SM FEW005 BKN023 04/04 A3017 RMK AO2;||F||223|ICAO-KTSP
USW00000479|TEHACHAPI MUNI AP|2009|12|14|17|00|35.1350|-118.4392|1219.5|5.0||1|FM15-METAR|223|ICAO-KTSP|5.0||1|FM15-METAR|223|ICAO-KTSP|||||||||||||280|N-Normal|1|FM15-METAR|223|ICAO-KTSP|4.1|N-Normal|1|FM15-METAR|223|ICAO-KTSP|||||||||||||100|Derived||FM15-METAR|223|ICAO-KTSP|||||||||||||||||||||||||||||||||||||||||||||||||||||||||||||||||||||||||1021.7||1|FM15-METAR|223|ICAO-KTSP|||||||FEW:02|02-Two-okt|4|FM15-METAR|223|ICAO-KTSP|||||||BKN:07|07-Seven-o|4|FM15-METAR|223|ICAO-KTSP|||||||||||||||||||MET070METAR KTSP 141655Z AUTO 28008KT 9SM FEW006 BKN021 05/05 A3017 RMK AO2;||F||223|ICAO-KTSP
USW00000479|TEHACHAPI MUNI AP|2009|12|14|17|15|35.1350|-118.4392|1219.5|4.0||1|FM15-METAR|223|ICAO-KTSP|4.0||1|FM15-METAR|223|ICAO-KTSP|||||||||||||280|N-Normal|1|FM15-METAR|223|ICAO-KTSP|3.6|N-Normal|1|FM15-METAR|223|ICAO-KTSP|||||||||||||100|Derived||FM15-METAR|223|ICAO-KTSP|||||||||||||||||||||||||||||||||||||||||||||||||||||||||||||||||||||||||1022.0||1|FM15-METAR|223|ICAO-KTSP|||||||FEW:02|02-Two-okt|4|FM15-METAR|223|ICAO-KTSP|||||||OVC:08|08-Eight-o|4|FM15-METAR|223|ICAO-KTSP|||||||||||||||||||MET070METAR KTSP 141715Z AUTO 28007KT 9SM FEW007 OVC021 04/04 A3018 RMK AO2;||F||223|ICAO-KTSP
USW00000479|TEHACHAPI MUNI AP|2009|12|14|17|35|35.1350|-118.4392|1219.5|5.0||1|FM15-METAR|223|ICAO-KTSP|3.0||1|FM15-METAR|223|ICAO-KTSP|||||||||||||260|N-Normal|1|FM15-METAR|223|ICAO-KTSP|2.1|N-Normal|1|FM15-METAR|223|ICAO-KTSP|||||||||||||87|Derived||FM15-METAR|223|ICAO-KTSP|||||||||||||||||||||||||||||||||||||||||||||||||||||||||||||||||||||||||1021.7||1|FM15-METAR|223|ICAO-KTSP|||||||FEW:02|02-Two-okt|4|FM15-METAR|223|ICAO-KTSP|||||||BKN:07|07-Seven-o|4|FM15-METAR|223|ICAO-KTSP|||||||||||||||||||MET070METAR KTSP 141735Z AUTO 26004KT 9SM FEW006 BKN019 05/03 A3017 RMK AO2;||F||223|ICAO-KTSP
USW00000479|TEHACHAPI MUNI AP|2009|12|14|18|00|35.1350|-118.4392|1219.5|5.0||1|FM15-METAR|223|ICAO-KTSP|2.0||1|FM15-METAR|223|ICAO-KTSP|||||||||||||220|N-Normal|1|FM15-METAR|223|ICAO-KTSP|3.1|N-Normal|1|FM15-METAR|223|ICAO-KTSP|||||||||||||81|Derived||FM15-METAR|223|ICAO-KTSP|||||||||||||||||||||||||||||||||||||||||||||||||||||||||||||||||||||||||1021.7||1|FM15-METAR|223|ICAO-KTSP|||||||FEW:02|02-Two-okt|4|FM15-METAR|223|ICAO-KTSP|||||||||||||||||||||||||||||||MET063METAR KTSP 141755Z AUTO 22006KT 9SM FEW019 05/02 A3017 RMK AO2;||F||223|ICAO-KTSP
USW00000479|TEHACHAPI MUNI AP|2009|12|14|18|15|35.1350|-118.4392|1219.5|6.0||1|FM15-METAR|223|ICAO-KTSP|1.0||1|FM15-METAR|223|ICAO-KTSP|||||||||||||290|N-Normal|1|FM15-METAR|223|ICAO-KTSP|1.5|N-Normal|1|FM15-METAR|223|ICAO-KTSP|||||||||||||71|Derived||FM15-METAR|223|ICAO-KTSP|||||||||||||||||||||||||||||||||||||||||||||||||||||||||||||||||||||||||1021.7||1|FM15-METAR|223|ICAO-KTSP|||||||||||||||||||||||||||||||||||||||||||MET061METAR KTSP 141815Z AUTO 29003KT 10SM CLR 06/01 A3017 RMK AO2;||F||223|ICAO-KTSP
USW00000479|TEHACHAPI MUNI AP|2009|12|14|18|35|35.1350|-118.4392|1219.5|7.0||1|FM15-METAR|223|ICAO-KTSP|1.0||1|FM15-METAR|223|ICAO-KTSP|||||||||||||300|N-Normal|1|FM15-METAR|223|ICAO-KTSP|2.1|N-Normal|1|FM15-METAR|223|ICAO-KTSP|||||||||||||66|Derived||FM15-METAR|223|ICAO-KTSP|||||||||||||||||||||||||||||||||||||||||||||||||||||||||||||||||||||||||1022.0||1|FM15-METAR|223|ICAO-KTSP|||||||||||||||||||||||||||||||||||||||||||MET060METAR KTSP 141835Z AUTO 30004KT 8SM CLR 07/01 A3018 RMK AO2;||F||223|ICAO-KTSP
USW00000479|TEHACHAPI MUNI AP|2009|12|14|19|00|35.1350|-118.4392|1219.5|7.0||1|FM15-METAR|223|ICAO-KTSP|1.0||1|FM15-METAR|223|ICAO-KTSP|||||||||||||999|C-Calm|9|FM15-METAR|223|ICAO-KTSP|0.0|C-Calm|1|FM15-METAR|223|ICAO-KTSP|||||||||||||66|Derived||FM15-METAR|223|ICAO-KTSP|||||||||||||||||||||||||||||||||||||||||||||||||||||||||||||||||||||||||1022.0||1|FM15-METAR|223|ICAO-KTSP|||||||||||||||||||||||||||||||||||||||||||MET060METAR KTSP 141855Z AUTO 00000KT 9SM CLR 07/01 A3018 RMK AO2;||F||223|ICAO-KTSP
USW00000479|TEHACHAPI MUNI AP|2009|12|14|19|15|35.1350|-118.4392|1219.5|7.0||1|FM15-METAR|223|ICAO-KTSP|1.0||1|FM15-METAR|223|ICAO-KTSP|||||||||||||999|C-Calm|9|FM15-METAR|223|ICAO-KTSP|0.0|C-Calm|1|FM15-METAR|223|ICAO-KTSP|||||||||||||66|Derived||FM15-METAR|223|ICAO-KTSP|||||||||||||||||||||||||||||||||||||||||||HZ:04|HZ:04-Haze|1|FM15-METAR|223|ICAO-KTSP|||||||||||||||||||||||||1021.3||1|FM15-METAR|223|ICAO-KTSP|||||||||||||||||||||||||||||||||||||||||||MET063METAR KTSP 141915Z AUTO 00000KT 6SM HZ CLR 07/01 A3016 RMK AO2;||F||223|ICAO-KTSP
USW00000479|TEHACHAPI MUNI AP|2009|12|14|19|35|35.1350|-118.4392|1219.5|8.0||1|FM15-METAR|223|ICAO-KTSP|2.0||1|FM15-METAR|223|ICAO-KTSP|||||||||||||999|C-Calm|9|FM15-METAR|223|ICAO-KTSP|0.0|C-Calm|1|FM15-METAR|223|ICAO-KTSP|||||||||||||66|Derived||FM15-METAR|223|ICAO-KTSP|||||||||||||||||||||||||||||||||||||||||||||||||||||||||||||||||||||||||1021.0||1|FM15-METAR|223|ICAO-KTSP|||||||||||||||||||||||||||||||||||||||||||MET061METAR KTSP 141935Z AUTO 00000KT 10SM CLR 08/02 A3015 RMK AO2;||F||223|ICAO-KTSP
USW00000479|TEHACHAPI MUNI AP|2009|12|14|20|00|35.1350|-118.4392|1219.5|8.0||1|FM15-METAR|223|ICAO-KTSP|1.0||1|FM15-METAR|223|ICAO-KTSP|||||||||||||999|C-Calm|9|FM15-METAR|223|ICAO-KTSP|0.0|C-Calm|1|FM15-METAR|223|ICAO-KTSP|||||||||||||62|Derived||FM15-METAR|223|ICAO-KTSP|||||||||||||||||||||||||||||||||||||||||||||||||||||||||||||||||||||||||1020.7||1|FM15-METAR|223|ICAO-KTSP|||||||||||||||||||||||||||||||||||||||||||MET060METAR KTSP 141955Z AUTO 00000KT 9SM CLR 08/01 A3014 RMK AO2;||F||223|ICAO-KTSP
USW00000479|TEHACHAPI MUNI AP|2009|12|14|20|15|35.1350|-118.4392|1219.5|9.0||1|FM15-METAR|223|ICAO-KTSP|0.0||1|FM15-METAR|223|ICAO-KTSP|||||||||||||150|N-Normal|1|FM15-METAR|223|ICAO-KTSP|1.5|N-Normal|1|FM15-METAR|223|ICAO-KTSP|||||||||||||54|Derived||FM15-METAR|223|ICAO-KTSP|||||||||||||||||||||||||||||||||||||||||||||||||||||||||||||||||||||||||1020.7||1|FM15-METAR|223|ICAO-KTSP|||||||||||||||||||||||||||||||||||||||||||MET061METAR KTSP 142015Z AUTO 15003KT 10SM CLR 09/00 A3014 RMK AO2;||F||223|ICAO-KTSP
USW00000479|TEHACHAPI MUNI AP|2009|12|14|20|35|35.1350|-118.4392|1219.5|9.0||1|FM15-METAR|223|ICAO-KTSP|0.0||1|FM15-METAR|223|ICAO-KTSP|||||||||||||100|N-Normal|1|FM15-METAR|223|ICAO-KTSP|1.5|N-Normal|1|FM15-METAR|223|ICAO-KTSP|||||||||||||54|Derived||FM15-METAR|223|ICAO-KTSP|||||||||||||||||||||||||||||||||||||||||||||||||||||||||||||||||||||||||1020.3||1|FM15-METAR|223|ICAO-KTSP|||||||||||||||||||||||||||||||||||||||||||MET060METAR KTSP 142035Z AUTO 10003KT 9SM CLR 09/00 A3013 RMK AO2;||F||223|ICAO-KTSP
USW00000479|TEHACHAPI MUNI AP|2009|12|14|21|00|35.1350|-118.4392|1219.5|10.0||1|FM15-METAR|223|ICAO-KTSP|0.0||1|FM15-METAR|223|ICAO-KTSP|||||||||||||090|N-Normal|1|FM15-METAR|223|ICAO-KTSP|3.1|N-Normal|1|FM15-METAR|223|ICAO-KTSP|||||||||||||50|Derived||FM15-METAR|223|ICAO-KTSP|||||||||||||||||||||||||||||||||||||||||||||||||||||||||||||||||||||||||1020.3||1|FM15-METAR|223|ICAO-KTSP|||||||||||||||||||||||||||||||||||||||||||MET060METAR KTSP 142055Z AUTO 09006KT 9SM CLR 10/00 A3013 RMK AO2;||F||223|ICAO-KTSP
USW00000479|TEHACHAPI MUNI AP|2009|12|14|21|15|35.1350|-118.4392|1219.5|10.0||1|FM15-METAR|223|ICAO-KTSP|1.0||1|FM15-METAR|223|ICAO-KTSP|||||||||||||110|N-Normal|1|FM15-METAR|223|ICAO-KTSP|4.6|N-Normal|1|FM15-METAR|223|ICAO-KTSP|||||||||||||54|Derived||FM15-METAR|223|ICAO-KTSP|||||||||||||||||||||||||||||||||||||||||||||||||||||||||||||||||||||||||1020.3||1|FM15-METAR|223|ICAO-KTSP|||||||||||||||||||||||||||||||||||||||||||MET060METAR KTSP 142115Z AUTO 11009KT 9SM CLR 10/01 A3013 RMK AO2;||F||223|ICAO-KTSP
USW00000479|TEHACHAPI MUNI AP|2009|12|14|21|35|35.1350|-118.4392|1219.5|10.0||1|FM15-METAR|223|ICAO-KTSP|1.0||1|FM15-METAR|223|ICAO-KTSP|||||||||||||120|N-Normal|1|FM15-METAR|223|ICAO-KTSP|3.1|N-Normal|1|FM15-METAR|223|ICAO-KTSP|||||||||||||54|Derived||FM15-METAR|223|ICAO-KTSP|||||||||||||||||||||||||||||||||||||||||||||||||||||||||||||||||||||||||1020.3||1|FM15-METAR|223|ICAO-KTSP|||||||||||||||||||||||||||||||||||||||||||MET060METAR KTSP 142135Z AUTO 12006KT 9SM CLR 10/01 A3013 RMK AO2;||F||223|ICAO-KTSP
USW00000479|TEHACHAPI MUNI AP|2009|12|14|22|00|35.1350|-118.4392|1219.5|10.0||1|FM15-METAR|223|ICAO-KTSP|1.0||1|FM15-METAR|223|ICAO-KTSP|||||||||||||120|N-Normal|1|FM15-METAR|223|ICAO-KTSP|3.1|N-Normal|1|FM15-METAR|223|ICAO-KTSP|||||||||||||54|Derived||FM15-METAR|223|ICAO-KTSP|||||||||||||||||||||||||||||||||||||||||||HZ:04|HZ:04-Haze|1|FM15-METAR|223|ICAO-KTSP|||||||||||||||||||||||||1020.3||1|FM15-METAR|223|ICAO-KTSP|||||||||||||||||||||||||||||||||||||||||||MET063METAR KTSP 142155Z AUTO 12006KT 5SM HZ CLR 10/01 A3013 RMK AO2;||F||223|ICAO-KTSP
USW00000479|TEHACHAPI MUNI AP|2009|12|14|22|15|35.1350|-118.4392|1219.5|10.0||1|FM15-METAR|223|ICAO-KTSP|1.0||1|FM15-METAR|223|ICAO-KTSP|||||||||||||100|N-Normal|1|FM15-METAR|223|ICAO-KTSP|3.6|N-Normal|1|FM15-METAR|223|ICAO-KTSP|||||||||||||54|Derived||FM15-METAR|223|ICAO-KTSP|||||||||||||||||||||||||||||||||||||||||||||||||||||||||||||||||||||||||1020.7||1|FM15-METAR|223|ICAO-KTSP|||||||||||||||||||||||||||||||||||||||||||MET060METAR KTSP 142215Z AUTO 10007KT 9SM CLR 10/01 A3014 RMK AO2;||F||223|ICAO-KTSP
USW00000479|TEHACHAPI MUNI AP|2009|12|14|22|35|35.1350|-118.4392|1219.5|10.0||1|FM15-METAR|223|ICAO-KTSP|1.0||1|FM15-METAR|223|ICAO-KTSP|||||||||||||140|N-Normal|1|FM15-METAR|223|ICAO-KTSP|3.6|N-Normal|1|FM15-METAR|223|ICAO-KTSP|||||||||||||54|Derived||FM15-METAR|223|ICAO-KTSP|||||||||||||||||||||||||||||||||||||||||||||||||||||||||||||||||||||||||1020.7||1|FM15-METAR|223|ICAO-KTSP|||||||||||||||||||||||||||||||||||||||||||MET061METAR KTSP 142235Z AUTO 14007KT 10SM CLR 10/01 A3014 RMK AO2;||F||223|ICAO-KTSP
USW00000479|TEHACHAPI MUNI AP|2009|12|14|23|00|35.1350|-118.4392|1219.5|10.0||1|FM15-METAR|223|ICAO-KTSP|1.0||1|FM15-METAR|223|ICAO-KTSP|||||||||||||100|N-Normal|1|FM15-METAR|223|ICAO-KTSP|3.6|N-Normal|1|FM15-METAR|223|ICAO-KTSP|||||||||||||54|Derived||FM15-METAR|223|ICAO-KTSP|||||||||||||||||||||||||||||||||||||||||||||||||||||||||||||||||||||||||1021.0||1|FM15-METAR|223|ICAO-KTSP|||||||||||||||||||||||||||||||||||||||||||MET061METAR KTSP 142255Z AUTO 10007KT 10SM CLR 10/01 A3015 RMK AO2;||F||223|ICAO-KTSP
USW00000479|TEHACHAPI MUNI AP|2009|12|14|23|15|35.1350|-118.4392|1219.5|9.0||1|FM15-METAR|223|ICAO-KTSP|1.0||1|FM15-METAR|223|ICAO-KTSP|||||||||||||120|N-Normal|1|FM15-METAR|223|ICAO-KTSP|3.1|N-Normal|1|FM15-METAR|223|ICAO-KTSP|||||||||||||58|Derived||FM15-METAR|223|ICAO-KTSP|||||||||||||||||||||||||||||||||||||||||||||||||||||||||||||||||||||||||1021.0||1|FM15-METAR|223|ICAO-KTSP|||||||||||||||||||||||||||||||||||||||||||MET061METAR KTSP 142315Z AUTO 12006KT 10SM CLR 09/01 A3015 RMK AO2;||F||223|ICAO-KTSP
USW00000479|TEHACHAPI MUNI AP|2009|12|14|23|35|35.1350|-118.4392|1219.5|8.0||1|FM15-METAR|223|ICAO-KTSP|4.0||1|FM15-METAR|223|ICAO-KTSP|||||||||||||320|N-Normal|1|FM15-METAR|223|ICAO-KTSP|4.1|N-Normal|1|FM15-METAR|223|ICAO-KTSP|||||||||||||76|Derived||FM15-METAR|223|ICAO-KTSP|||||||||||||||||||||||||||||||||||||||||||||||||||||||||||||||||||||||||1021.3||1|FM15-METAR|223|ICAO-KTSP|||||||||||||||||||||||||||||||||||||||||||MET060METAR KTSP 142335Z AUTO 32008KT 9SM CLR 08/04 A3016 RMK AO2;||F||223|ICAO-KTSP
USW00000479|TEHACHAPI MUNI AP|2009|12|15|00|00|35.1350|-118.4392|1219.5|7.0||1|FM15-METAR|223|ICAO-KTSP|5.0||1|FM15-METAR|223|ICAO-KTSP|||||||||||||320|N-Normal|1|FM15-METAR|223|ICAO-KTSP|3.1|N-Normal|1|FM15-METAR|223|ICAO-KTSP|||||||||||||87|Derived||FM15-METAR|223|ICAO-KTSP|||||||||||||||||||||||||||||||||||||||||||||||||||||||||||||||||||||||||1021.3||1|FM15-METAR|223|ICAO-KTSP|||||||||||||||||||||||||||||||||||||||||||MET060METAR KTSP 142355Z AUTO 32006KT 8SM CLR 07/05 A3016 RMK AO2;||F||223|ICAO-KTSP
USW00000479|TEHACHAPI MUNI AP|2009|12|15|00|15|35.1350|-118.4392|1219.5|7.0||1|FM15-METAR|223|ICAO-KTSP|4.0||1|FM15-METAR|223|ICAO-KTSP|||||||||||||330|N-Normal|1|FM15-METAR|223|ICAO-KTSP|2.1|N-Normal|1|FM15-METAR|223|ICAO-KTSP|||||||||||||81|Derived||FM15-METAR|223|ICAO-KTSP|||||||||||||||||||||||||||||||||||||||||||||||||||||||||||||||||||||||||1021.3||1|FM15-METAR|223|ICAO-KTSP|||||||||||||||||||||||||||||||||||||||||||MET060METAR KTSP 150015Z AUTO 33004KT 8SM CLR 07/04 A3016 RMK AO2;||F||223|ICAO-KTSP
USW00000479|TEHACHAPI MUNI AP|2009|12|15|00|35|35.1350|-118.4392|1219.5|6.0||1|FM15-METAR|223|ICAO-KTSP|3.0||1|FM15-METAR|223|ICAO-KTSP|||||||||||||999|C-Calm|9|FM15-METAR|223|ICAO-KTSP|0.0|C-Calm|1|FM15-METAR|223|ICAO-KTSP|||||||||||||81|Derived||FM15-METAR|223|ICAO-KTSP|||||||||||||||||||||||||||||||||||||||||||||||||||||||||||||||||||||||||1021.0||1|FM15-METAR|223|ICAO-KTSP|||||||||||||||||||||||||||||||||||||||||||MET060METAR KTSP 150035Z AUTO 00000KT 9SM CLR 06/03 A3015 RMK AO2;||F||223|ICAO-KTSP
USW00000479|TEHACHAPI MUNI AP|2009|12|15|01|00|35.1350|-118.4392|1219.5|5.0||1|FM15-METAR|223|ICAO-KTSP|4.0||1|FM15-METAR|223|ICAO-KTSP|||||||||||||999|C-Calm|9|FM15-METAR|223|ICAO-KTSP|0.0|C-Calm|1|FM15-METAR|223|ICAO-KTSP|||||||||||||93|Derived||FM15-METAR|223|ICAO-KTSP|||||||||||||||||||||||||||||||||||||||||||||||||||||||||||||||||||||||||1021.3||1|FM15-METAR|223|ICAO-KTSP|||||||||||||||||||||||||||||||||||||||||||MET060METAR KTSP 150055Z AUTO 00000KT 7SM CLR 05/04 A3016 RMK AO2;||F||223|ICAO-KTSP
USW00000479|TEHACHAPI MUNI AP|2009|12|15|01|15|35.1350|-118.4392|1219.5|5.0||1|FM15-METAR|223|ICAO-KTSP|0.0||1|FM15-METAR|223|ICAO-KTSP|||||||||||||100|N-Normal|1|FM15-METAR|223|ICAO-KTSP|2.6|N-Normal|1|FM15-METAR|223|ICAO-KTSP|||||||||||||70|Derived||FM15-METAR|223|ICAO-KTSP|||||||||||||||||||||||||||||||||||||||||||||||||||||||||||||||||||||||||1021.7||1|FM15-METAR|223|ICAO-KTSP|||||||||||||||||||||||||||||||||||||||||||MET061METAR KTSP 150115Z AUTO 10005KT 10SM CLR 05/00 A3017 RMK AO2;||F||223|ICAO-KTSP
USW00000479|TEHACHAPI MUNI AP|2009|12|15|01|35|35.1350|-118.4392|1219.5|5.0||1|FM15-METAR|223|ICAO-KTSP|0.0||1|FM15-METAR|223|ICAO-KTSP|||||||||||||090|N-Normal|1|FM15-METAR|223|ICAO-KTSP|3.1|N-Normal|1|FM15-METAR|223|ICAO-KTSP|||||||||||||70|Derived||FM15-METAR|223|ICAO-KTSP|||||||||||||||||||||||||||||||||||||||||||||||||||||||||||||||||||||||||1022.0||1|FM15-METAR|223|ICAO-KTSP|||||||||||||||||||||||||||||||||||||||||||MET061METAR KTSP 150135Z AUTO 09006KT 10SM CLR 05/00 A3018 RMK AO2;||F||223|ICAO-KTSP
USW00000479|TEHACHAPI MUNI AP|2009|12|15|02|00|35.1350|-118.4392|1219.5|||||||||||||||||||||||||090|N-Normal|1|FM15-METAR|223|ICAO-KTSP|3.1|N-Normal|1|FM15-METAR|223|ICAO-KTSP|||||||||||||||||||||||||||||||||||||||||||||||||||||||||||||||||||||||||||||||||||||||||||1022.0||1|FM15-METAR|223|ICAO-KTSP|||||||||||||||||||||||||||||||||||||||||||MET055METAR KTSP 150155Z AUTO 09006KT 10SM CLR A3018 RMK AO2;||F||223|ICAO-KTSP
USW00000479|TEHACHAPI MUNI AP|2009|12|15|02|15|35.1350|-118.4392|1219.5|5.0||1|FM15-METAR|223|ICAO-KTSP|0.0||1|FM15-METAR|223|ICAO-KTSP|||||||||||||090|N-Normal|1|FM15-METAR|223|ICAO-KTSP|3.6|N-Normal|1|FM15-METAR|223|ICAO-KTSP|||||||||||||70|Derived||FM15-METAR|223|ICAO-KTSP|||||||||||||||||||||||||||||||||||||||||||||||||||||||||||||||||||||||||1022.0||1|FM15-METAR|223|ICAO-KTSP|||||||||||||||||||||||||||||||||||||||||||MET061METAR KTSP 150215Z AUTO 09007KT 10SM CLR 05/00 A3018 RMK AO2;||F||223|ICAO-KTSP
USW00000479|TEHACHAPI MUNI AP|2009|12|15|02|35|35.1350|-118.4392|1219.5|5.0||1|FM15-METAR|223|ICAO-KTSP|0.0||1|FM15-METAR|223|ICAO-KTSP|||||||||||||100|N-Normal|1|FM15-METAR|223|ICAO-KTSP|4.1|N-Normal|1|FM15-METAR|223|ICAO-KTSP|||||||||||||70|Derived||FM15-METAR|223|ICAO-KTSP|||||||||||||||||||||||||||||||||||||||||||||||||||||||||||||||||||||||||1022.4||1|FM15-METAR|223|ICAO-KTSP|||||||||||||||||||||||||||||||||||||||||||MET061METAR KTSP 150235Z AUTO 10008KT 10SM CLR 05/00 A3019 RMK AO2;||F||223|ICAO-KTSP
USW00000479|TEHACHAPI MUNI AP|2009|12|15|03|00|35.1350|-118.4392|1219.5|5.0||1|FM15-METAR|223|ICAO-KTSP|0.0||1|FM15-METAR|223|ICAO-KTSP|||||||||||||100|N-Normal|1|FM15-METAR|223|ICAO-KTSP|3.6|N-Normal|1|FM15-METAR|223|ICAO-KTSP|||||||||||||70|Derived||FM15-METAR|223|ICAO-KTSP|||||||||||||||||||||||||||||||||||||||||||||||||||||||||||||||||||||||||1022.4||1|FM15-METAR|223|ICAO-KTSP|||||||||||||||||||||||||||||||||||||||||||MET061METAR KTSP 150255Z AUTO 10007KT 10SM CLR 05/00 A3019 RMK AO2;||F||223|ICAO-KTSP
USW00000479|TEHACHAPI MUNI AP|2009|12|15|03|15|35.1350|-118.4392|1219.5|2.0||1|FM15-METAR|223|ICAO-KTSP|0.0||1|FM15-METAR|223|ICAO-KTSP|||||||||||||120|N-Normal|1|FM15-METAR|223|ICAO-KTSP|3.6|N-Normal|1|FM15-METAR|223|ICAO-KTSP|||||||||||||87|Derived||FM15-METAR|223|ICAO-KTSP|||||||||||||||||||||||||||||||||||||||||||||||||||||||||||||||||||||||||1022.4||1|FM15-METAR|223|ICAO-KTSP|||||||||||||||||||||||||||||||||||||||||||MET061METAR KTSP 150315Z AUTO 12007KT 10SM CLR 02/00 A3019 RMK AO2;||F||223|ICAO-KTSP
USW00000479|TEHACHAPI MUNI AP|2009|12|15|03|35|35.1350|-118.4392|1219.5|3.0||1|FM15-METAR|223|ICAO-KTSP|0.0||1|FM15-METAR|223|ICAO-KTSP|||||||||||||100|N-Normal|1|FM15-METAR|223|ICAO-KTSP|3.1|N-Normal|1|FM15-METAR|223|ICAO-KTSP|||||||||||||81|Derived||FM15-METAR|223|ICAO-KTSP|||||||||||||||||||||||||||||||||||||||||||||||||||||||||||||||||||||||||1022.7||1|FM15-METAR|223|ICAO-KTSP|||||||||||||||||||||||||||||||||||||||||||MET061METAR KTSP 150335Z AUTO 10006KT 10SM CLR 03/00 A3020 RMK AO2;||F||223|ICAO-KTSP
USW00000479|TEHACHAPI MUNI AP|2009|12|15|04|00|35.1350|-118.4392|1219.5|4.0||1|FM15-METAR|223|ICAO-KTSP|0.0||1|FM15-METAR|223|ICAO-KTSP|||||||||||||100|N-Normal|1|FM15-METAR|223|ICAO-KTSP|3.6|N-Normal|1|FM15-METAR|223|ICAO-KTSP|||||||||||||75|Derived||FM15-METAR|223|ICAO-KTSP|||||||||||||||||||||||||||||||||||||||||||||||||||||||||||||||||||||||||1022.7||1|FM15-METAR|223|ICAO-KTSP|||||||||||||||||||||||||||||||||||||||||||MET061METAR KTSP 150355Z AUTO 10007KT 10SM CLR 04/00 A3020 RMK AO2;||F||223|ICAO-KTSP
USW00000479|TEHACHAPI MUNI AP|2009|12|15|04|15|35.1350|-118.4392|1219.5|4.0||1|FM15-METAR|223|ICAO-KTSP|0.0||1|FM15-METAR|223|ICAO-KTSP|||||||||||||100|N-Normal|1|FM15-METAR|223|ICAO-KTSP|3.6|N-Normal|1|FM15-METAR|223|ICAO-KTSP|||||||||||||75|Derived||FM15-METAR|223|ICAO-KTSP|||||||||||||||||||||||||||||||||||||||||||||||||||||||||||||||||||||||||1023.0||1|FM15-METAR|223|ICAO-KTSP|||||||||||||||||||||||||||||||||||||||||||MET061METAR KTSP 150415Z AUTO 10007KT 10SM CLR 04/00 A3021 RMK AO2;||F||223|ICAO-KTSP
USW00000479|TEHACHAPI MUNI AP|2009|12|15|04|35|35.1350|-118.4392|1219.5|2.0||1|FM15-METAR|223|ICAO-KTSP|0.0||1|FM15-METAR|223|ICAO-KTSP|||||||||||||100|N-Normal|1|FM15-METAR|223|ICAO-KTSP|4.1|N-Normal|1|FM15-METAR|223|ICAO-KTSP|||||||||||||87|Derived||FM15-METAR|223|ICAO-KTSP|||||||||||||||||||||||||||||||||||||||||||||||||||||||||||||||||||||||||1023.0||1|FM15-METAR|223|ICAO-KTSP|||||||||||||||||||||||||||||||||||||||||||MET061METAR KTSP 150435Z AUTO 10008KT 10SM CLR 02/00 A3021 RMK AO2;||F||223|ICAO-KTSP
USW00000479|TEHACHAPI MUNI AP|2009|12|15|05|00|35.1350|-118.4392|1219.5|3.0||1|FM15-METAR|223|ICAO-KTSP|-1.0||1|FM15-METAR|223|ICAO-KTSP|||||||||||||120|N-Normal|1|FM15-METAR|223|ICAO-KTSP|3.6|N-Normal|1|FM15-METAR|223|ICAO-KTSP|||||||||||||75|Derived||FM15-METAR|223|ICAO-KTSP|||||||||||||||||||||||||||||||||||||||||||||||||||||||||||||||||||||||||1023.0||1|FM15-METAR|223|ICAO-KTSP|||||||||||||||||||||||||||||||||||||||||||MET062METAR KTSP 150455Z AUTO 12007KT 10SM CLR 03/M01 A3021 RMK AO2;||F||223|ICAO-KTSP
USW00000479|TEHACHAPI MUNI AP|2009|12|15|05|15|35.1350|-118.4392|1219.5|1.0||1|FM15-METAR|223|ICAO-KTSP|-1.0||1|FM15-METAR|223|ICAO-KTSP|||||||||||||110|N-Normal|1|FM15-METAR|223|ICAO-KTSP|4.6|N-Normal|1|FM15-METAR|223|ICAO-KTSP|||||||||||||87|Derived||FM15-METAR|223|ICAO-KTSP|||||||||||||||||||||||||||||||||||||||||||||||||||||||||||||||||||||||||1023.4||1|FM15-METAR|223|ICAO-KTSP|||||||||||||||||||||||||||||||||||||||||||MET062METAR KTSP 150515Z AUTO 11009KT 10SM CLR 01/M01 A3022 RMK AO2;||F||223|ICAO-KTSP
USW00000479|TEHACHAPI MUNI AP|2009|12|15|05|35|35.1350|-118.4392|1219.5|3.0||1|FM15-METAR|223|ICAO-KTSP|0.0||1|FM15-METAR|223|ICAO-KTSP|||||||||||||100|N-Normal|1|FM15-METAR|223|ICAO-KTSP|3.6|N-Normal|1|FM15-METAR|223|ICAO-KTSP|||||||||||||81|Derived||FM15-METAR|223|ICAO-KTSP|||||||||||||||||||||||||||||||||||||||||||||||||||||||||||||||||||||||||1023.7||1|FM15-METAR|223|ICAO-KTSP|||||||||||||||||||||||||||||||||||||||||||MET061METAR KTSP 150535Z AUTO 10007KT 10SM CLR 03/00 A3023 RMK AO2;||F||223|ICAO-KTSP
USW00000479|TEHACHAPI MUNI AP|2009|12|15|06|00|35.1350|-118.4392|1219.5|3.0||1|FM15-METAR|223|ICAO-KTSP|0.0||1|FM15-METAR|223|ICAO-KTSP|||||||||||||090|N-Normal|1|FM15-METAR|223|ICAO-KTSP|4.1|N-Normal|1|FM15-METAR|223|ICAO-KTSP|||||||||||||81|Derived||FM15-METAR|223|ICAO-KTSP|||||||||||||||||||||||||||||||||||||||||||||||||||||||||||||||||||||||||1023.7||1|FM15-METAR|223|ICAO-KTSP|||||||||||||||||||||||||||||||||||||||||||MET061METAR KTSP 150555Z AUTO 09008KT 10SM CLR 03/00 A3023 RMK AO2;||F||223|ICAO-KTSP
USW00000479|TEHACHAPI MUNI AP|2009|12|15|06|15|35.1350|-118.4392|1219.5|4.0||1|FM15-METAR|223|ICAO-KTSP|0.0||1|FM15-METAR|223|ICAO-KTSP|||||||||||||090|N-Normal|1|FM15-METAR|223|ICAO-KTSP|4.6|N-Normal|1|FM15-METAR|223|ICAO-KTSP|||||||||||||75|Derived||FM15-METAR|223|ICAO-KTSP|||||||||||||||||||||||||||||||||||||||||||||||||||||||||||||||||||||||||1023.7||1|FM15-METAR|223|ICAO-KTSP|||||||||||||||||||||||||||||||||||||||||||MET061METAR KTSP 150615Z AUTO 09009KT 10SM CLR 04/00 A3023 RMK AO2;||F||223|ICAO-KTSP
USW00000479|TEHACHAPI MUNI AP|2009|12|15|06|35|35.1350|-118.4392|1219.5|4.0||1|FM15-METAR|223|ICAO-KTSP|0.0||1|FM15-METAR|223|ICAO-KTSP|||||||||||||100|N-Normal|1|FM15-METAR|223|ICAO-KTSP|4.6|N-Normal|1|FM15-METAR|223|ICAO-KTSP|||||||||||||75|Derived||FM15-METAR|223|ICAO-KTSP|||||||||||||||||||||||||||||||||||||||||||||||||||||||||||||||||||||||||1023.4||1|FM15-METAR|223|ICAO-KTSP|||||||||||||||||||||||||||||||||||||||||||MET061METAR KTSP 150635Z AUTO 10009KT 10SM CLR 04/00 A3022 RMK AO2;||F||223|ICAO-KTSP
USW00000479|TEHACHAPI MUNI AP|2009|12|15|07|00|35.1350|-118.4392|1219.5|4.0||1|FM15-METAR|223|ICAO-KTSP|0.0||1|FM15-METAR|223|ICAO-KTSP|||||||||||||100|N-Normal|1|FM15-METAR|223|ICAO-KTSP|4.1|N-Normal|1|FM15-METAR|223|ICAO-KTSP|||||||||||||75|Derived||FM15-METAR|223|ICAO-KTSP|||||||||||||||||||||||||||||||||||||||||||||||||||||||||||||||||||||||||1023.7||1|FM15-METAR|223|ICAO-KTSP|||||||||||||||||||||||||||||||||||||||||||MET061METAR KTSP 150655Z AUTO 10008KT 10SM CLR 04/00 A3023 RMK AO2;||F||223|ICAO-KTSP
USW00000479|TEHACHAPI MUNI AP|2009|12|15|07|15|35.1350|-118.4392|1219.5|4.0||1|FM15-METAR|223|ICAO-KTSP|0.0||1|FM15-METAR|223|ICAO-KTSP|||||||||||||090|N-Normal|1|FM15-METAR|223|ICAO-KTSP|4.1|N-Normal|1|FM15-METAR|223|ICAO-KTSP|||||||||||||75|Derived||FM15-METAR|223|ICAO-KTSP|||||||||||||||||||||||||||||||||||||||||||||||||||||||||||||||||||||||||1023.7||1|FM15-METAR|223|ICAO-KTSP|||||||||||||||||||||||||||||||||||||||||||MET061METAR KTSP 150715Z AUTO 09008KT 10SM CLR 04/00 A3023 RMK AO2;||F||223|ICAO-KTSP
USW00000479|TEHACHAPI MUNI AP|2009|12|15|07|35|35.1350|-118.4392|1219.5|4.0||1|FM15-METAR|223|ICAO-KTSP|0.0||1|FM15-METAR|223|ICAO-KTSP|||||||||||||100|N-Normal|1|FM15-METAR|223|ICAO-KTSP|4.6|N-Normal|1|FM15-METAR|223|ICAO-KTSP|||||||||||||75|Derived||FM15-METAR|223|ICAO-KTSP|||||||||||||||||||||||||||||||||||||||||||||||||||||||||||||||||||||||||1023.4||1|FM15-METAR|223|ICAO-KTSP|||||||||||||||||||||||||||||||||||||||||||MET061METAR KTSP 150735Z AUTO 10009KT 10SM CLR 04/00 A3022 RMK AO2;||F||223|ICAO-KTSP
USW00000479|TEHACHAPI MUNI AP|2009|12|15|08|00|35.1350|-118.4392|1219.5|4.0||1|FM15-METAR|223|ICAO-KTSP|0.0||1|FM15-METAR|223|ICAO-KTSP|||||||||||||100|N-Normal|1|FM15-METAR|223|ICAO-KTSP|4.1|N-Normal|1|FM15-METAR|223|ICAO-KTSP|||||||||||||75|Derived||FM15-METAR|223|ICAO-KTSP|||||||||||||||||||||||||||||||||||||||||||||||||||||||||||||||||||||||||1023.7||1|FM15-METAR|223|ICAO-KTSP|||||||||||||||||||||||||||||||||||||||||||MET061METAR KTSP 150755Z AUTO 10008KT 10SM CLR 04/00 A3023 RMK AO2;||F||223|ICAO-KTSP
USW00000479|TEHACHAPI MUNI AP|2009|12|15|08|15|35.1350|-118.4392|1219.5|4.0||1|FM15-METAR|223|ICAO-KTSP|-1.0||1|FM15-METAR|223|ICAO-KTSP|||||||||||||100|N-Normal|1|FM15-METAR|223|ICAO-KTSP|4.1|N-Normal|1|FM15-METAR|223|ICAO-KTSP|||||||||||||70|Derived||FM15-METAR|223|ICAO-KTSP|||||||||||||||||||||||||||||||||||||||||||||||||||||||||||||||||||||||||1023.7||1|FM15-METAR|223|ICAO-KTSP|||||||||||||||||||||||||||||||||||||||||||MET062METAR KTSP 150815Z AUTO 10008KT 10SM CLR 04/M01 A3023 RMK AO2;||F||223|ICAO-KTSP
USW00000479|TEHACHAPI MUNI AP|2009|12|15|08|35|35.1350|-118.4392|1219.5|3.0||1|FM15-METAR|223|ICAO-KTSP|0.0||1|FM15-METAR|223|ICAO-KTSP|||||||||||||100|N-Normal|1|FM15-METAR|223|ICAO-KTSP|4.6|N-Normal|1|FM15-METAR|223|ICAO-KTSP|||||||||||||81|Derived||FM15-METAR|223|ICAO-KTSP|||||||||||||||||||||||||||||||||||||||||||||||||||||||||||||||||||||||||1023.4||1|FM15-METAR|223|ICAO-KTSP|||||||||||||||||||||||||||||||||||||||||||MET061METAR KTSP 150835Z AUTO 10009KT 10SM CLR 03/00 A3022 RMK AO2;||F||223|ICAO-KTSP
USW00000479|TEHACHAPI MUNI AP|2009|12|15|09|00|35.1350|-118.4392|1219.5|4.0||1|FM15-METAR|223|ICAO-KTSP|0.0||1|FM15-METAR|223|ICAO-KTSP|||||||||||||100|N-Normal|1|FM15-METAR|223|ICAO-KTSP|5.1|N-Normal|1|FM15-METAR|223|ICAO-KTSP|||||||||||||75|Derived||FM15-METAR|223|ICAO-KTSP|||||||||||||||||||||||||||||||||||||||||||||||||||||||||||||||||||||||||1023.7||1|FM15-METAR|223|ICAO-KTSP|||||||||||||||||||||||||||||||||||||||||||MET061METAR KTSP 150855Z AUTO 10010KT 10SM CLR 04/00 A3023 RMK AO2;||F||223|ICAO-KTSP
USW00000479|TEHACHAPI MUNI AP|2009|12|15|09|15|35.1350|-118.4392|1219.5|4.0||1|FM15-METAR|223|ICAO-KTSP|0.0||1|FM15-METAR|223|ICAO-KTSP|||||||||||||100|N-Normal|1|FM15-METAR|223|ICAO-KTSP|5.7|N-Normal|1|FM15-METAR|223|ICAO-KTSP|||||||||||||75|Derived||FM15-METAR|223|ICAO-KTSP|||||||||||||||||||||||||||||||||||||||||||||||||||||||||||||||||||||||||1023.7||1|FM15-METAR|223|ICAO-KTSP|||||||||||||||||||||||||||||||||||||||||||MET061METAR KTSP 150915Z AUTO 10011KT 10SM CLR 04/00 A3023 RMK AO2;||F||223|ICAO-KTSP
USW00000479|TEHACHAPI MUNI AP|2009|12|15|09|35|35.1350|-118.4392|1219.5|4.0||1|FM15-METAR|223|ICAO-KTSP|0.0||1|FM15-METAR|223|ICAO-KTSP|||||||||||||100|N-Normal|1|FM15-METAR|223|ICAO-KTSP|4.1|N-Normal|1|FM15-METAR|223|ICAO-KTSP|||||||||||||75|Derived||FM15-METAR|223|ICAO-KTSP|||||||||||||||||||||||||||||||||||||||||||||||||||||||||||||||||||||||||1023.7||1|FM15-METAR|223|ICAO-KTSP|||||||||||||||||||||||||||||||||||||||||||MET061METAR KTSP 150935Z AUTO 10008KT 10SM CLR 04/00 A3023 RMK AO2;||F||223|ICAO-KTSP
USW00000479|TEHACHAPI MUNI AP|2009|12|15|10|00|35.1350|-118.4392|1219.5|3.0||1|FM15-METAR|223|ICAO-KTSP|0.0||1|FM15-METAR|223|ICAO-KTSP|||||||||||||100|N-Normal|1|FM15-METAR|223|ICAO-KTSP|4.6|N-Normal|1|FM15-METAR|223|ICAO-KTSP|||||||||||||81|Derived||FM15-METAR|223|ICAO-KTSP|||||||||||||||||||||||||||||||||||||||||||||||||||||||||||||||||||||||||1024.0||1|FM15-METAR|223|ICAO-KTSP|||||||||||||||||||||||||||||||||||||||||||MET061METAR KTSP 150955Z AUTO 10009KT 10SM CLR 03/00 A3024 RMK AO2;||F||223|ICAO-KTSP
USW00000479|TEHACHAPI MUNI AP|2009|12|15|10|15|35.1350|-118.4392|1219.5|3.0||1|FM15-METAR|223|ICAO-KTSP|0.0||1|FM15-METAR|223|ICAO-KTSP|||||||||||||090|N-Normal|1|FM15-METAR|223|ICAO-KTSP|5.1|N-Normal|1|FM15-METAR|223|ICAO-KTSP|||||||||||||81|Derived||FM15-METAR|223|ICAO-KTSP|||||||||||||||||||||||||||||||||||||||||||||||||||||||||||||||||||||||||1024.0||1|FM15-METAR|223|ICAO-KTSP|||||||||||||||||||||||||||||||||||||||||||MET061METAR KTSP 151015Z AUTO 09010KT 10SM CLR 03/00 A3024 RMK AO2;||F||223|ICAO-KTSP
USW00000479|TEHACHAPI MUNI AP|2009|12|15|10|35|35.1350|-118.4392|1219.5|4.0||1|FM15-METAR|223|ICAO-KTSP|0.0||1|FM15-METAR|223|ICAO-KTSP|||||||||||||090|N-Normal|1|FM15-METAR|223|ICAO-KTSP|6.2|N-Normal|1|FM15-METAR|223|ICAO-KTSP|||||||||||||75|Derived||FM15-METAR|223|ICAO-KTSP|||||||||||||||||||||||||||||||||||||||||||||||||||||||||||||||||||||||||1024.0||1|FM15-METAR|223|ICAO-KTSP|||||||||||||||||||||||||||||||||||||||||||MET061METAR KTSP 151035Z AUTO 09012KT 10SM CLR 04/00 A3024 RMK AO2;||F||223|ICAO-KTSP
USW00000479|TEHACHAPI MUNI AP|2009|12|15|11|00|35.1350|-118.4392|1219.5|4.0||1|FM15-METAR|223|ICAO-KTSP|0.0||1|FM15-METAR|223|ICAO-KTSP|||||||||||||090|N-Normal|1|FM15-METAR|223|ICAO-KTSP|5.1|N-Normal|1|FM15-METAR|223|ICAO-KTSP|||||||||||||75|Derived||FM15-METAR|223|ICAO-KTSP|||||||||||||||||||||||||||||||||||||||||||||||||||||||||||||||||||||||||1024.4||1|FM15-METAR|223|ICAO-KTSP|||||||||||||||||||||||||||||||||||||||||||MET061METAR KTSP 151055Z AUTO 09010KT 10SM CLR 04/00 A3025 RMK AO2;||F||223|ICAO-KTSP
USW00000479|TEHACHAPI MUNI AP|2009|12|15|11|15|35.1350|-118.4392|1219.5|4.0||1|FM15-METAR|223|ICAO-KTSP|0.0||1|FM15-METAR|223|ICAO-KTSP|||||||||||||100|N-Normal|1|FM15-METAR|223|ICAO-KTSP|5.1|N-Normal|1|FM15-METAR|223|ICAO-KTSP|||||||||||||75|Derived||FM15-METAR|223|ICAO-KTSP|||||||||||||||||||||||||||||||||||||||||||||||||||||||||||||||||||||||||1024.4||1|FM15-METAR|223|ICAO-KTSP|||||||||||||||||||||||||||||||||||||||||||MET061METAR KTSP 151115Z AUTO 10010KT 10SM CLR 04/00 A3025 RMK AO2;||F||223|ICAO-KTSP
USW00000479|TEHACHAPI MUNI AP|2009|12|15|11|35|35.1350|-118.4392|1219.5|3.0||1|FM15-METAR|223|ICAO-KTSP|0.0||1|FM15-METAR|223|ICAO-KTSP|||||||||||||100|N-Normal|1|FM15-METAR|223|ICAO-KTSP|4.6|N-Normal|1|FM15-METAR|223|ICAO-KTSP|||||||||||||81|Derived||FM15-METAR|223|ICAO-KTSP|||||||||||||||||||||||||||||||||||||||||||||||||||||||||||||||||||||||||1024.4||1|FM15-METAR|223|ICAO-KTSP|||||||||||||||||||||||||||||||||||||||||||MET061METAR KTSP 151135Z AUTO 10009KT 10SM CLR 03/00 A3025 RMK AO2;||F||223|ICAO-KTSP
USW00000479|TEHACHAPI MUNI AP|2009|12|15|12|00|35.1350|-118.4392|1219.5|3.0||1|FM15-METAR|223|ICAO-KTSP|-1.0||1|FM15-METAR|223|ICAO-KTSP|||||||||||||100|N-Normal|1|FM15-METAR|223|ICAO-KTSP|5.7|N-Normal|1|FM15-METAR|223|ICAO-KTSP|||||||||||||75|Derived||FM15-METAR|223|ICAO-KTSP|||||||||||||||||||||||||||||||||||||||||||||||||||||||||||||||||||||||||1024.0||1|FM15-METAR|223|ICAO-KTSP|||||||||||||||||||||||||||||||||||||||||||MET062METAR KTSP 151155Z AUTO 10011KT 10SM CLR 03/M01 A3024 RMK AO2;||F||223|ICAO-KTSP
USW00000479|TEHACHAPI MUNI AP|2009|12|15|12|15|35.1350|-118.4392|1219.5|3.0||1|FM15-METAR|223|ICAO-KTSP|-1.0||1|FM15-METAR|223|ICAO-KTSP|||||||||||||100|N-Normal|1|FM15-METAR|223|ICAO-KTSP|5.7|N-Normal|1|FM15-METAR|223|ICAO-KTSP|||||||||||||75|Derived||FM15-METAR|223|ICAO-KTSP|||||||||||||||||||||||||||||||||||||||||||||||||||||||||||||||||||||||||1024.0||1|FM15-METAR|223|ICAO-KTSP|||||||||||||||||||||||||||||||||||||||||||MET062METAR KTSP 151215Z AUTO 10011KT 10SM CLR 03/M01 A3024 RMK AO2;||F||223|ICAO-KTSP
USW00000479|TEHACHAPI MUNI AP|2009|12|15|12|35|35.1350|-118.4392|1219.5|3.0||1|FM15-METAR|223|ICAO-KTSP|-1.0||1|FM15-METAR|223|ICAO-KTSP|||||||||||||110|N-Normal|1|FM15-METAR|223|ICAO-KTSP|5.1|N-Normal|1|FM15-METAR|223|ICAO-KTSP|||||||||||||75|Derived||FM15-METAR|223|ICAO-KTSP|||||||||||||||||||||||||||||||||||||||||||||||||||||||||||||||||||||||||1024.0||1|FM15-METAR|223|ICAO-KTSP|||||||||||||||||||||||||||||||||||||||||||MET062METAR KTSP 151235Z AUTO 11010KT 10SM CLR 03/M01 A3024 RMK AO2;||F||223|ICAO-KTSP
USW00000479|TEHACHAPI MUNI AP|2009|12|15|13|00|35.1350|-118.4392|1219.5|4.0||1|FM15-METAR|223|ICAO-KTSP|-1.0||1|FM15-METAR|223|ICAO-KTSP|||||||||||||110|N-Normal|1|FM15-METAR|223|ICAO-KTSP|4.6|N-Normal|1|FM15-METAR|223|ICAO-KTSP|||||||||||||70|Derived||FM15-METAR|223|ICAO-KTSP|||||||||||||||||||||||||||||||||||||||||||||||||||||||||||||||||||||||||1024.4||1|FM15-METAR|223|ICAO-KTSP|||||||||||||||||||||||||||||||||||||||||||MET062METAR KTSP 151255Z AUTO 11009KT 10SM CLR 04/M01 A3025 RMK AO2;||F||223|ICAO-KTSP
USW00000479|TEHACHAPI MUNI AP|2009|12|15|13|15|35.1350|-118.4392|1219.5|3.0||1|FM15-METAR|223|ICAO-KTSP|-1.0||1|FM15-METAR|223|ICAO-KTSP|||||||||||||100|N-Normal|1|FM15-METAR|223|ICAO-KTSP|4.1|N-Normal|1|FM15-METAR|223|ICAO-KTSP|||||||||||||75|Derived||FM15-METAR|223|ICAO-KTSP|||||||||||||||||||||||||||||||||||||||||||||||||||||||||||||||||||||||||1024.4||1|FM15-METAR|223|ICAO-KTSP|||||||||||||||||||||||||||||||||||||||||||MET062METAR KTSP 151315Z AUTO 10008KT 10SM CLR 03/M01 A3025 RMK AO2;||F||223|ICAO-KTSP
USW00000479|TEHACHAPI MUNI AP|2009|12|15|13|35|35.1350|-118.4392|1219.5|4.0||1|FM15-METAR|223|ICAO-KTSP|-1.0||1|FM15-METAR|223|ICAO-KTSP|||||||||||||100|N-Normal|1|FM15-METAR|223|ICAO-KTSP|4.1|N-Normal|1|FM15-METAR|223|ICAO-KTSP|||||||||||||70|Derived||FM15-METAR|223|ICAO-KTSP|||||||||||||||||||||||||||||||||||||||||||||||||||||||||||||||||||||||||1024.7||1|FM15-METAR|223|ICAO-KTSP|||||||||||||||||||||||||||||||||||||||||||MET062METAR KTSP 151335Z AUTO 10008KT 10SM CLR 04/M01 A3026 RMK AO2;||F||223|ICAO-KTSP
USW00000479|TEHACHAPI MUNI AP|2009|12|15|14|00|35.1350|-118.4392|1219.5|4.0||1|FM15-METAR|223|ICAO-KTSP|-1.0||1|FM15-METAR|223|ICAO-KTSP|||||||||||||100|N-Normal|1|FM15-METAR|223|ICAO-KTSP|4.6|N-Normal|1|FM15-METAR|223|ICAO-KTSP|||||||||||||70|Derived||FM15-METAR|223|ICAO-KTSP|||||||||||||||||||||||||||||||||||||||||||||||||||||||||||||||||||||||||1025.1||1|FM15-METAR|223|ICAO-KTSP|||||||||||||||||||||||||||||||||||||||||||MET062METAR KTSP 151355Z AUTO 10009KT 10SM CLR 04/M01 A3027 RMK AO2;||F||223|ICAO-KTSP
USW00000479|TEHACHAPI MUNI AP|2009|12|15|14|15|35.1350|-118.4392|1219.5|3.0||1|FM15-METAR|223|ICAO-KTSP|-1.0||1|FM15-METAR|223|ICAO-KTSP|||||||||||||100|N-Normal|1|FM15-METAR|223|ICAO-KTSP|4.6|N-Normal|1|FM15-METAR|223|ICAO-KTSP|||||||||||||75|Derived||FM15-METAR|223|ICAO-KTSP|||||||||||||||||||||||||||||||||||||||||||||||||||||||||||||||||||||||||1024.7||1|FM15-METAR|223|ICAO-KTSP|||||||||||||||||||||||||||||||||||||||||||MET062METAR KTSP 151415Z AUTO 10009KT 10SM CLR 03/M01 A3026 RMK AO2;||F||223|ICAO-KTSP
USW00000479|TEHACHAPI MUNI AP|2009|12|15|14|35|35.1350|-118.4392|1219.5|3.0||1|FM15-METAR|223|ICAO-KTSP|-2.0||1|FM15-METAR|223|ICAO-KTSP|||||||||||||100|N-Normal|1|FM15-METAR|223|ICAO-KTSP|4.6|N-Normal|1|FM15-METAR|223|ICAO-KTSP|||||||||||||70|Derived||FM15-METAR|223|ICAO-KTSP|||||||||||||||||||||||||||||||||||||||||||||||||||||||||||||||||||||||||1025.1||1|FM15-METAR|223|ICAO-KTSP|||||||||||||||||||||||||||||||||||||||||||MET062METAR KTSP 151435Z AUTO 10009KT 10SM CLR 03/M02 A3027 RMK AO2;||F||223|ICAO-KTSP
USW00000479|TEHACHAPI MUNI AP|2009|12|15|15|00|35.1350|-118.4392|1219.5|4.0||1|FM15-METAR|223|ICAO-KTSP|-1.0||1|FM15-METAR|223|ICAO-KTSP|||||||||||||100|N-Normal|1|FM15-METAR|223|ICAO-KTSP|5.1|N-Normal|1|FM15-METAR|223|ICAO-KTSP|||||||||||||70|Derived||FM15-METAR|223|ICAO-KTSP|||||||||||||||||||||||||||||||||||||||||||||||||||||||||||||||||||||||||1025.1||1|FM15-METAR|223|ICAO-KTSP|||||||||||||||||||||||||||||||||||||||||||MET062METAR KTSP 151455Z AUTO 10010KT 10SM CLR 04/M01 A3027 RMK AO2;||F||223|ICAO-KTSP
USW00000479|TEHACHAPI MUNI AP|2009|12|15|15|15|35.1350|-118.4392|1219.5|4.0||1|FM15-METAR|223|ICAO-KTSP|-1.0||1|FM15-METAR|223|ICAO-KTSP|||||||||||||100|N-Normal|1|FM15-METAR|223|ICAO-KTSP|5.7|N-Normal|1|FM15-METAR|223|ICAO-KTSP|||||||||||||70|Derived||FM15-METAR|223|ICAO-KTSP|||||||||||||||||||||||||||||||||||||||||||||||||||||||||||||||||||||||||1025.1||1|FM15-METAR|223|ICAO-KTSP|||||||||||||||||||||||||||||||||||||||||||MET062METAR KTSP 151515Z AUTO 10011KT 10SM CLR 04/M01 A3027 RMK AO2;||F||223|ICAO-KTSP
USW00000479|TEHACHAPI MUNI AP|2009|12|15|15|35|35.1350|-118.4392|1219.5|3.0||1|FM15-METAR|223|ICAO-KTSP|-1.0||1|FM15-METAR|223|ICAO-KTSP|||||||||||||100|N-Normal|1|FM15-METAR|223|ICAO-KTSP|5.7|N-Normal|1|FM15-METAR|223|ICAO-KTSP|||||||||||||75|Derived||FM15-METAR|223|ICAO-KTSP|||||||||||||||||||||||||||||||||||||||||||||||||||||||||||||||||||||||||1025.7||1|FM15-METAR|223|ICAO-KTSP|||||||||||||||||||||||||||||||||||||||||||MET062METAR KTSP 151535Z AUTO 10011KT 10SM CLR 03/M01 A3029 RMK AO2;||F||223|ICAO-KTSP
USW00000479|TEHACHAPI MUNI AP|2009|12|15|16|00|35.1350|-118.4392|1219.5|4.0||1|FM15-METAR|223|ICAO-KTSP|-1.0||1|FM15-METAR|223|ICAO-KTSP|||||||||||||100|N-Normal|1|FM15-METAR|223|ICAO-KTSP|5.7|N-Normal|1|FM15-METAR|223|ICAO-KTSP|||||||||||||70|Derived||FM15-METAR|223|ICAO-KTSP|||||||||||||||||||||||||||||||||||||||||||||||||||||||||||||||||||||||||1025.7||1|FM15-METAR|223|ICAO-KTSP|||||||||||||||||||||||||||||||||||||||||||MET062METAR KTSP 151555Z AUTO 10011KT 10SM CLR 04/M01 A3029 RMK AO2;||F||223|ICAO-KTSP
USW00000479|TEHACHAPI MUNI AP|2009|12|15|16|15|35.1350|-118.4392|1219.5|5.0||1|FM15-METAR|223|ICAO-KTSP|0.0||1|FM15-METAR|223|ICAO-KTSP|||||||||||||100|N-Normal|1|FM15-METAR|223|ICAO-KTSP|5.7|N-Normal|1|FM15-METAR|223|ICAO-KTSP|||||||||||||70|Derived||FM15-METAR|223|ICAO-KTSP|||||||||||||||||||||||||||||||||||||||||||||||||||||||||||||||||||||||||1025.4||1|FM15-METAR|223|ICAO-KTSP|||||||||||||||||||||||||||||||||||||||||||MET061METAR KTSP 151615Z AUTO 10011KT 10SM CLR 05/00 A3028 RMK AO2;||F||223|ICAO-KTSP
USW00000479|TEHACHAPI MUNI AP|2009|12|15|16|35|35.1350|-118.4392|1219.5|5.0||1|FM15-METAR|223|ICAO-KTSP|0.0||1|FM15-METAR|223|ICAO-KTSP|||||||||||||100|N-Normal|1|FM15-METAR|223|ICAO-KTSP|5.7|N-Normal|1|FM15-METAR|223|ICAO-KTSP|||||||||||||70|Derived||FM15-METAR|223|ICAO-KTSP|||||||||||||||||||||||||||||||||||||||||||||||||||||||||||||||||||||||||1026.1||1|FM15-METAR|223|ICAO-KTSP|||||||||||||||||||||||||||||||||||||||||||MET061METAR KTSP 151635Z AUTO 10011KT 10SM CLR 05/00 A3030 RMK AO2;||F||223|ICAO-KTSP
USW00000479|TEHACHAPI MUNI AP|2009|12|15|17|00|35.1350|-118.4392|1219.5|5.0||1|FM15-METAR|223|ICAO-KTSP|0.0||1|FM15-METAR|223|ICAO-KTSP|||||||||||||100|N-Normal|1|FM15-METAR|223|ICAO-KTSP|5.7|N-Normal|1|FM15-METAR|223|ICAO-KTSP|||||||||||||70|Derived||FM15-METAR|223|ICAO-KTSP|||||||||||||||||||||||||||||||||||||||||||||||||||||||||||||||||||||||||1026.1||1|FM15-METAR|223|ICAO-KTSP|||||||||||||||||||||||||||||||||||||||||||MET061METAR KTSP 151655Z AUTO 10011KT 10SM CLR 05/00 A3030 RMK AO2;||F||223|ICAO-KTSP
USW00000479|TEHACHAPI MUNI AP|2009|12|15|17|15|35.1350|-118.4392|1219.5|7.0||1|FM15-METAR|223|ICAO-KTSP|0.0||1|FM15-METAR|223|ICAO-KTSP|||||||||||||100|N-Normal|1|FM15-METAR|223|ICAO-KTSP|6.2|N-Normal|1|FM15-METAR|223|ICAO-KTSP|||||||||||||61|Derived||FM15-METAR|223|ICAO-KTSP|||||||||||||||||||||||||||||||||||||||||||||||||||||||||||||||||||||||||1026.4||1|FM15-METAR|223|ICAO-KTSP|||||||||||||||||||||||||||||||||||||||||||MET061METAR KTSP 151715Z AUTO 10012KT 10SM CLR 07/00 A3031 RMK AO2;||F||223|ICAO-KTSP
USW00000479|TEHACHAPI MUNI AP|2009|12|15|17|35|35.1350|-118.4392|1219.5|7.0||1|FM15-METAR|223|ICAO-KTSP|0.0||1|FM15-METAR|223|ICAO-KTSP|||||||||||||100|N-Normal|1|FM15-METAR|223|ICAO-KTSP|6.2|N-Normal|1|FM15-METAR|223|ICAO-KTSP|||||||||||||61|Derived||FM15-METAR|223|ICAO-KTSP|||||||||||||||||||||||||||||||||||||||||||||||||||||||||||||||||||||||||1026.4||1|FM15-METAR|223|ICAO-KTSP|||||||||||||||||||||||||||||||||||||||||||MET061METAR KTSP 151735Z AUTO 10012KT 10SM CLR 07/00 A3031 RMK AO2;||F||223|ICAO-KTSP
USW00000479|TEHACHAPI MUNI AP|2009|12|15|18|00|35.1350|-118.4392|1219.5|8.0||1|FM15-METAR|223|ICAO-KTSP|0.0||1|FM15-METAR|223|ICAO-KTSP|||||||||||||100|N-Normal|1|FM15-METAR|223|ICAO-KTSP|7.2|N-Normal|1|FM15-METAR|223|ICAO-KTSP|||||||||||||57|Derived||FM15-METAR|223|ICAO-KTSP|||||||||||||||||||||||||||||||||||||||||||||||||||||||||||||||||||||||||1026.4||1|FM15-METAR|223|ICAO-KTSP|||||||||||||||||||||||||||||||||||||||||||MET061METAR KTSP 151755Z AUTO 10014KT 10SM CLR 08/00 A3031 RMK AO2;||F||223|ICAO-KTSP
USW00000479|TEHACHAPI MUNI AP|2009|12|15|18|15|35.1350|-118.4392|1219.5|8.0||1|FM15-METAR|223|ICAO-KTSP|0.0||1|FM15-METAR|223|ICAO-KTSP|||||||||||||120|N-Normal|1|FM15-METAR|223|ICAO-KTSP|6.7|N-Normal|1|FM15-METAR|223|ICAO-KTSP|||||||||||||57|Derived||FM15-METAR|223|ICAO-KTSP|||||||||||||||||||||||||||||||||||||||||||||||||||||||||||||||||||||||||1026.1||1|FM15-METAR|223|ICAO-KTSP|||||||||||||||||||||||||||||||||||||||||||MET061METAR KTSP 151815Z AUTO 12013KT 10SM CLR 08/00 A3030 RMK AO2;||F||223|ICAO-KTSP
USW00000479|TEHACHAPI MUNI AP|2009|12|15|18|35|35.1350|-118.4392|1219.5|9.0||1|FM15-METAR|223|ICAO-KTSP|1.0||1|FM15-METAR|223|ICAO-KTSP|||||||||||||120|N-Normal|1|FM15-METAR|223|ICAO-KTSP|5.7|N-Normal|1|FM15-METAR|223|ICAO-KTSP|||||||||||||58|Derived||FM15-METAR|223|ICAO-KTSP|||||||||||||||||||||||||||||||||||||||||||||||||||||||||||||||||||||||||1026.1||1|FM15-METAR|223|ICAO-KTSP|||||||||||||||||||||||||||||||||||||||||||MET061METAR KTSP 151835Z AUTO 12011KT 10SM CLR 09/01 A3030 RMK AO2;||F||223|ICAO-KTSP
USW00000479|TEHACHAPI MUNI AP|2009|12|15|19|00|35.1350|-118.4392|1219.5|9.0||1|FM15-METAR|223|ICAO-KTSP|0.0||1|FM15-METAR|223|ICAO-KTSP|||||||||||||110|N-Normal|1|FM15-METAR|223|ICAO-KTSP|7.2|N-Normal|1|FM15-METAR|223|ICAO-KTSP|||||||||||||54|Derived||FM15-METAR|223|ICAO-KTSP|||||||||||||||||||||||||||||||||||||||||||||||||||||||||||||||||||||||||1026.1||1|FM15-METAR|223|ICAO-KTSP|||||||||||||||||||||||||||||||||||||||||||MET061METAR KTSP 151855Z AUTO 11014KT 10SM CLR 09/00 A3030 RMK AO2;||F||223|ICAO-KTSP
USW00000479|TEHACHAPI MUNI AP|2009|12|15|19|15|35.1350|-118.4392|1219.5|9.0||1|FM15-METAR|223|ICAO-KTSP|0.0||1|FM15-METAR|223|ICAO-KTSP|||||||||||||110|N-Normal|1|FM15-METAR|223|ICAO-KTSP|8.7|N-Normal|1|FM15-METAR|223|ICAO-KTSP|||||||||||||54|Derived||FM15-METAR|223|ICAO-KTSP|||||||||||||||||||||||||||||||||||||||||||||||||||||||||||||||||||||||||1025.4||1|FM15-METAR|223|ICAO-KTSP|||||||||||||||||||||||||||||||||||||||||||MET061METAR KTSP 151915Z AUTO 11017KT 10SM CLR 09/00 A3028 RMK AO2;||F||223|ICAO-KTSP
USW00000479|TEHACHAPI MUNI AP|2009|12|15|19|35|35.1350|-118.4392|1219.5|10.0||1|FM15-METAR|223|ICAO-KTSP|0.0||1|FM15-METAR|223|ICAO-KTSP|||||||||||||120|N-Normal|1|FM15-METAR|223|ICAO-KTSP|7.7|N-Normal|1|FM15-METAR|223|ICAO-KTSP|||||||||||||50|Derived||FM15-METAR|223|ICAO-KTSP|||||||||||||||||||||||||||||||||||||||||||||||||||||||||||||||||||||||||1025.1||1|FM15-METAR|223|ICAO-KTSP|||||||||||||||||||||||||||||||||||||||||||MET060METAR KTSP 151935Z AUTO 12015KT 9SM CLR 10/00 A3027 RMK AO2;||F||223|ICAO-KTSP
USW00000479|TEHACHAPI MUNI AP|2009|12|15|20|00|35.1350|-118.4392|1219.5|10.0||1|FM15-METAR|223|ICAO-KTSP|0.0||1|FM15-METAR|223|ICAO-KTSP|||||||||||||120|N-Normal|1|FM15-METAR|223|ICAO-KTSP|6.7|N-Normal|1|FM15-METAR|223|ICAO-KTSP|||||||||||||50|Derived||FM15-METAR|223|ICAO-KTSP|||||||||||||||||||||||||||||||||||||||||||||||||||||||||||||||||||||||||1025.1||1|FM15-METAR|223|ICAO-KTSP|||||||||||||||||||||||||||||||||||||||||||MET061METAR KTSP 151955Z AUTO 12013KT 10SM CLR 10/00 A3027 RMK AO2;||F||223|ICAO-KTSP
USW00000479|TEHACHAPI MUNI AP|2009|12|15|20|15|35.1350|-118.4392|1219.5|10.0||1|FM15-METAR|223|ICAO-KTSP|0.0||1|FM15-METAR|223|ICAO-KTSP|||||||||||||110|N-Normal|1|FM15-METAR|223|ICAO-KTSP|6.2|N-Normal|1|FM15-METAR|223|ICAO-KTSP|||||||||||||50|Derived||FM15-METAR|223|ICAO-KTSP|||||||||||||||||||||||||||||||||||||||||||||||||||||||||||||||||||||||||1024.7||1|FM15-METAR|223|ICAO-KTSP|||||||||||||||||||||||||||||||||||||||||||MET061METAR KTSP 152015Z AUTO 11012KT 10SM CLR 10/00 A3026 RMK AO2;||F||223|ICAO-KTSP
USW00000479|TEHACHAPI MUNI AP|2009|12|15|20|35|35.1350|-118.4392|1219.5|10.0||1|FM15-METAR|223|ICAO-KTSP|0.0||1|FM15-METAR|223|ICAO-KTSP|||||||||||||110|N-Normal|1|FM15-METAR|223|ICAO-KTSP|5.7|N-Normal|1|FM15-METAR|223|ICAO-KTSP|||||||||||||50|Derived||FM15-METAR|223|ICAO-KTSP|||||||||||||||||||||||||||||||||||||||||||||||||||||||||||||||||||||||||1024.7||1|FM15-METAR|223|ICAO-KTSP|||||||||||||||||||||||||||||||||||||||||||MET061METAR KTSP 152035Z AUTO 11011KT 10SM CLR 10/00 A3026 RMK AO2;||F||223|ICAO-KTSP
USW00000479|TEHACHAPI MUNI AP|2009|12|15|21|00|35.1350|-118.4392|1219.5|10.0||1|FM15-METAR|223|ICAO-KTSP|0.0||1|FM15-METAR|223|ICAO-KTSP|||||||||||||110|N-Normal|1|FM15-METAR|223|ICAO-KTSP|5.7|N-Normal|1|FM15-METAR|223|ICAO-KTSP|||||||||||||50|Derived||FM15-METAR|223|ICAO-KTSP|||||||||||||||||||||||||||||||||||||||||||||||||||||||||||||||||||||||||1024.4||1|FM15-METAR|223|ICAO-KTSP|||||||||||||||||||||||||||||||||||||||||||MET060METAR KTSP 152055Z AUTO 11011KT 8SM CLR 10/00 A3025 RMK AO2;||F||223|ICAO-KTSP
USW00000479|TEHACHAPI MUNI AP|2009|12|15|21|15|35.1350|-118.4392|1219.5|10.0||1|FM15-METAR|223|ICAO-KTSP|0.0||1|FM15-METAR|223|ICAO-KTSP|||||||||||||100|N-Normal|1|FM15-METAR|223|ICAO-KTSP|5.1|N-Normal|1|FM15-METAR|223|ICAO-KTSP|||||||||||||50|Derived||FM15-METAR|223|ICAO-KTSP|||||||||||||||||||||||||||||||||||||||||||||||||||||||||||||||||||||||||1024.4||1|FM15-METAR|223|ICAO-KTSP|||||||||||||||||||||||||||||||||||||||||||MET061METAR KTSP 152115Z AUTO 10010KT 10SM CLR 10/00 A3025 RMK AO2;||F||223|ICAO-KTSP
USW00000479|TEHACHAPI MUNI AP|2009|12|15|21|35|35.1350|-118.4392|1219.5|10.0||1|FM15-METAR|223|ICAO-KTSP|-1.0||1|FM15-METAR|223|ICAO-KTSP|||||||||||||110|N-Normal|1|FM15-METAR|223|ICAO-KTSP|5.7|N-Normal|1|FM15-METAR|223|ICAO-KTSP|||||||||||||47|Derived||FM15-METAR|223|ICAO-KTSP|||||||||||||||||||||||||||||||||||||||||||||||||||||||||||||||||||||||||1024.4||1|FM15-METAR|223|ICAO-KTSP|||||||||||||||||||||||||||||||||||||||||||MET061METAR KTSP 152135Z AUTO 11011KT 9SM CLR 10/M01 A3025 RMK AO2;||F||223|ICAO-KTSP
USW00000479|TEHACHAPI MUNI AP|2009|12|15|22|00|35.1350|-118.4392|1219.5|10.0||1|FM15-METAR|223|ICAO-KTSP|-1.0||1|FM15-METAR|223|ICAO-KTSP|||||||||||||100|N-Normal|1|FM15-METAR|223|ICAO-KTSP|4.6|N-Normal|1|FM15-METAR|223|ICAO-KTSP|||||||||||||47|Derived||FM15-METAR|223|ICAO-KTSP|||||||||||||||||||||||||||||||||||||||||||||||||||||||||||||||||||||||||1024.4||1|FM15-METAR|223|ICAO-KTSP|||||||||||||||||||||||||||||||||||||||||||MET062METAR KTSP 152155Z AUTO 10009KT 10SM CLR 10/M01 A3025 RMK AO2;||F||223|ICAO-KTSP
USW00000479|TEHACHAPI MUNI AP|2009|12|15|22|15|35.1350|-118.4392|1219.5|10.0||1|FM15-METAR|223|ICAO-KTSP|-1.0||1|FM15-METAR|223|ICAO-KTSP|||||||||||||100|N-Normal|1|FM15-METAR|223|ICAO-KTSP|4.1|N-Normal|1|FM15-METAR|223|ICAO-KTSP|||||||||||||47|Derived||FM15-METAR|223|ICAO-KTSP|||||||||||||||||||||||||||||||||||||||||||||||||||||||||||||||||||||||||1024.4||1|FM15-METAR|223|ICAO-KTSP|||||||||||||||||||||||||||||||||||||||||||MET062METAR KTSP 152215Z AUTO 10008KT 10SM CLR 10/M01 A3025 RMK AO2;||F||223|ICAO-KTSP
USW00000479|TEHACHAPI MUNI AP|2009|12|15|22|35|35.1350|-118.4392|1219.5|10.0||1|FM15-METAR|223|ICAO-KTSP|0.0||1|FM15-METAR|223|ICAO-KTSP|||||||||||||090|N-Normal|1|FM15-METAR|223|ICAO-KTSP|4.1|N-Normal|1|FM15-METAR|223|ICAO-KTSP|||||||||||||50|Derived||FM15-METAR|223|ICAO-KTSP|||||||||||||||||||||||||||||||||||||||||||||||||||||||||||||||||||||||||1024.7||1|FM15-METAR|223|ICAO-KTSP|||||||||||||||||||||||||||||||||||||||||||MET061METAR KTSP 152235Z AUTO 09008KT 10SM CLR 10/00 A3026 RMK AO2;||F||223|ICAO-KTSP
USW00000479|TEHACHAPI MUNI AP|2009|12|15|23|00|35.1350|-118.4392|1219.5|10.0||1|FM15-METAR|223|ICAO-KTSP|0.0||1|FM15-METAR|223|ICAO-KTSP|||||||||||||100|N-Normal|1|FM15-METAR|223|ICAO-KTSP|3.6|N-Normal|1|FM15-METAR|223|ICAO-KTSP|||||||||||||50|Derived||FM15-METAR|223|ICAO-KTSP|||||||||||||||||||||||||||||||||||||||||||||||||||||||||||||||||||||||||1024.4||1|FM15-METAR|223|ICAO-KTSP|||||||||||||||||||||||||||||||||||||||||||MET061METAR KTSP 152255Z AUTO 10007KT 10SM CLR 10/00 A3025 RMK AO2;||F||223|ICAO-KTSP
USW00000479|TEHACHAPI MUNI AP|2009|12|15|23|15|35.1350|-118.4392|1219.5|9.0||1|FM15-METAR|223|ICAO-KTSP|0.0||1|FM15-METAR|223|ICAO-KTSP|||||||||||||120|N-Normal|1|FM15-METAR|223|ICAO-KTSP|3.6|N-Normal|1|FM15-METAR|223|ICAO-KTSP|||||||||||||54|Derived||FM15-METAR|223|ICAO-KTSP|||||||||||||||||||||||||||||||||||||||||||||||||||||||||||||||||||||||||1024.7||1|FM15-METAR|223|ICAO-KTSP|||||||||||||||||||||||||||||||||||||||||||MET061METAR KTSP 152315Z AUTO 12007KT 10SM CLR 09/00 A3026 RMK AO2;||F||223|ICAO-KTSP
USW00000479|TEHACHAPI MUNI AP|2009|12|15|23|35|35.1350|-118.4392|1219.5|9.0||1|FM15-METAR|223|ICAO-KTSP|0.0||1|FM15-METAR|223|ICAO-KTSP|||||||||||||090|N-Normal|1|FM15-METAR|223|ICAO-KTSP|3.6|N-Normal|1|FM15-METAR|223|ICAO-KTSP|||||||||||||54|Derived||FM15-METAR|223|ICAO-KTSP|||||||||||||||||||||||||||||||||||||||||||||||||||||||||||||||||||||||||1024.7||1|FM15-METAR|223|ICAO-KTSP|||||||||||||||||||||||||||||||||||||||||||MET061METAR KTSP 152335Z AUTO 09007KT 10SM CLR 09/00 A3026 RMK AO2;||F||223|ICAO-KTSP
USW00000479|TEHACHAPI MUNI AP|2009|12|16|00|00|35.1350|-118.4392|1219.5|9.0||1|FM15-METAR|223|ICAO-KTSP|0.0||1|FM15-METAR|223|ICAO-KTSP|||||||||||||100|N-Normal|1|FM15-METAR|223|ICAO-KTSP|3.1|N-Normal|1|FM15-METAR|223|ICAO-KTSP|||||||||||||54|Derived||FM15-METAR|223|ICAO-KTSP|||||||||||||||||||||||||||||||||||||||||||||||||||||||||||||||||||||||||1024.7||1|FM15-METAR|223|ICAO-KTSP|||||||||||||||||||||||||||||||||||||||||||MET061METAR KTSP 152355Z AUTO 10006KT 10SM CLR 09/00 A3026 RMK AO2;||F||223|ICAO-KTSP
USW00000479|TEHACHAPI MUNI AP|2009|12|16|00|15|35.1350|-118.4392|1219.5|8.0||1|FM15-METAR|223|ICAO-KTSP|0.0||1|FM15-METAR|223|ICAO-KTSP|||||||||||||100|N-Normal|1|FM15-METAR|223|ICAO-KTSP|3.6|N-Normal|1|FM15-METAR|223|ICAO-KTSP|||||||||||||57|Derived||FM15-METAR|223|ICAO-KTSP|||||||||||||||||||||||||||||||||||||||||||||||||||||||||||||||||||||||||1024.4||1|FM15-METAR|223|ICAO-KTSP|||||||||||||||||||||||||||||||||||||||||||MET061METAR KTSP 160015Z AUTO 10007KT 10SM CLR 08/00 A3025 RMK AO2;||F||223|ICAO-KTSP
USW00000479|TEHACHAPI MUNI AP|2009|12|16|00|35|35.1350|-118.4392|1219.5|8.0||1|FM15-METAR|223|ICAO-KTSP|0.0||1|FM15-METAR|223|ICAO-KTSP|||||||||||||100|N-Normal|1|FM15-METAR|223|ICAO-KTSP|3.6|N-Normal|1|FM15-METAR|223|ICAO-KTSP|||||||||||||57|Derived||FM15-METAR|223|ICAO-KTSP|||||||||||||||||||||||||||||||||||||||||||||||||||||||||||||||||||||||||1024.7||1|FM15-METAR|223|ICAO-KTSP|||||||||||||||||||||||||||||||||||||||||||MET061METAR KTSP 160035Z AUTO 10007KT 10SM CLR 08/00 A3026 RMK AO2;||F||223|ICAO-KTSP
USW00000479|TEHACHAPI MUNI AP|2009|12|16|01|00|35.1350|-118.4392|1219.5|8.0||1|FM15-METAR|223|ICAO-KTSP|0.0||1|FM15-METAR|223|ICAO-KTSP|||||||||||||100|N-Normal|1|FM15-METAR|223|ICAO-KTSP|3.6|N-Normal|1|FM15-METAR|223|ICAO-KTSP|||||||||||||57|Derived||FM15-METAR|223|ICAO-KTSP|||||||||||||||||||||||||||||||||||||||||||||||||||||||||||||||||||||||||1024.7||1|FM15-METAR|223|ICAO-KTSP|||||||||||||||||||||||||||||||||||||||||||MET061METAR KTSP 160055Z AUTO 10007KT 10SM CLR 08/00 A3026 RMK AO2;||F||223|ICAO-KTSP
USW00000479|TEHACHAPI MUNI AP|2009|12|16|01|15|35.1350|-118.4392|1219.5|7.0||1|FM15-METAR|223|ICAO-KTSP|0.0||1|FM15-METAR|223|ICAO-KTSP|||||||||||||090|N-Normal|1|FM15-METAR|223|ICAO-KTSP|3.6|N-Normal|1|FM15-METAR|223|ICAO-KTSP|||||||||||||61|Derived||FM15-METAR|223|ICAO-KTSP|||||||||||||||||||||||||||||||||||||||||||||||||||||||||||||||||||||||||1024.7||1|FM15-METAR|223|ICAO-KTSP|||||||||||||||||||||||||||||||||||||||||||MET061METAR KTSP 160115Z AUTO 09007KT 10SM CLR 07/00 A3026 RMK AO2;||F||223|ICAO-KTSP
USW00000479|TEHACHAPI MUNI AP|2009|12|16|01|35|35.1350|-118.4392|1219.5|7.0||1|FM15-METAR|223|ICAO-KTSP|-1.0||1|FM15-METAR|223|ICAO-KTSP|||||||||||||100|N-Normal|1|FM15-METAR|223|ICAO-KTSP|3.6|N-Normal|1|FM15-METAR|223|ICAO-KTSP|||||||||||||57|Derived||FM15-METAR|223|ICAO-KTSP|||||||||||||||||||||||||||||||||||||||||||||||||||||||||||||||||||||||||1024.7||1|FM15-METAR|223|ICAO-KTSP|||||||||||||||||||||||||||||||||||||||||||MET062METAR KTSP 160135Z AUTO 10007KT 10SM CLR 07/M01 A3026 RMK AO2;||F||223|ICAO-KTSP
USW00000479|TEHACHAPI MUNI AP|2009|12|16|02|00|35.1350|-118.4392|1219.5|7.0||1|FM15-METAR|223|ICAO-KTSP|0.0||1|FM15-METAR|223|ICAO-KTSP|||||||||||||100|N-Normal|1|FM15-METAR|223|ICAO-KTSP|5.1|N-Normal|1|FM15-METAR|223|ICAO-KTSP|||||||||||||61|Derived||FM15-METAR|223|ICAO-KTSP|||||||||||||||||||||||||||||||||||||||||||||||||||||||||||||||||||||||||1024.7||1|FM15-METAR|223|ICAO-KTSP|||||||||||||||||||||||||||||||||||||||||||MET061METAR KTSP 160155Z AUTO 10010KT 10SM CLR 07/00 A3026 RMK AO2;||F||223|ICAO-KTSP
USW00000479|TEHACHAPI MUNI AP|2009|12|16|02|15|35.1350|-118.4392|1219.5|6.0||1|FM15-METAR|223|ICAO-KTSP|0.0||1|FM15-METAR|223|ICAO-KTSP|||||||||||||120|N-Normal|1|FM15-METAR|223|ICAO-KTSP|4.1|N-Normal|1|FM15-METAR|223|ICAO-KTSP|||||||||||||66|Derived||FM15-METAR|223|ICAO-KTSP|||||||||||||||||||||||||||||||||||||||||||||||||||||||||||||||||||||||||1025.1||1|FM15-METAR|223|ICAO-KTSP|||||||||||||||||||||||||||||||||||||||||||MET061METAR KTSP 160215Z AUTO 12008KT 10SM CLR 06/00 A3027 RMK AO2;||F||223|ICAO-KTSP
USW00000479|TEHACHAPI MUNI AP|2009|12|16|02|35|35.1350|-118.4392|1219.5|6.0||1|FM15-METAR|223|ICAO-KTSP|0.0||1|FM15-METAR|223|ICAO-KTSP|||||||||||||110|N-Normal|1|FM15-METAR|223|ICAO-KTSP|4.6|N-Normal|1|FM15-METAR|223|ICAO-KTSP|||||||||||||66|Derived||FM15-METAR|223|ICAO-KTSP|||||||||||||||||||||||||||||||||||||||||||||||||||||||||||||||||||||||||1025.1||1|FM15-METAR|223|ICAO-KTSP|||||||||||||||||||||||||||||||||||||||||||MET061METAR KTSP 160235Z AUTO 11009KT 10SM CLR 06/00 A3027 RMK AO2;||F||223|ICAO-KTSP
USW00000479|TEHACHAPI MUNI AP|2009|12|16|03|00|35.1350|-118.4392|1219.5|7.0||1|FM15-METAR|223|ICAO-KTSP|0.0||1|FM15-METAR|223|ICAO-KTSP|||||||||||||100|N-Normal|1|FM15-METAR|223|ICAO-KTSP|5.7|N-Normal|1|FM15-METAR|223|ICAO-KTSP|||||||||||||61|Derived||FM15-METAR|223|ICAO-KTSP|||||||||||||||||||||||||||||||||||||||||||||||||||||||||||||||||||||||||1024.7||1|FM15-METAR|223|ICAO-KTSP|||||||||||||||||||||||||||||||||||||||||||MET061METAR KTSP 160255Z AUTO 10011KT 10SM CLR 07/00 A3026 RMK AO2;||F||223|ICAO-KTSP
USW00000479|TEHACHAPI MUNI AP|2009|12|16|03|15|35.1350|-118.4392|1219.5|7.0||1|FM15-METAR|223|ICAO-KTSP|0.0||1|FM15-METAR|223|ICAO-KTSP|||||||||||||100|N-Normal|1|FM15-METAR|223|ICAO-KTSP|5.1|N-Normal|1|FM15-METAR|223|ICAO-KTSP|||||||||||||61|Derived||FM15-METAR|223|ICAO-KTSP|||||||||||||||||||||||||||||||||||||||||||||||||||||||||||||||||||||||||1024.7||1|FM15-METAR|223|ICAO-KTSP|||||||||||||||||||||||||||||||||||||||||||MET061METAR KTSP 160315Z AUTO 10010KT 10SM CLR 07/00 A3026 RMK AO2;||F||223|ICAO-KTSP
USW00000479|TEHACHAPI MUNI AP|2009|12|16|03|35|35.1350|-118.4392|1219.5|7.0||1|FM15-METAR|223|ICAO-KTSP|-1.0||1|FM15-METAR|223|ICAO-KTSP|||||||||||||100|N-Normal|1|FM15-METAR|223|ICAO-KTSP|5.1|N-Normal|1|FM15-METAR|223|ICAO-KTSP|||||||||||||57|Derived||FM15-METAR|223|ICAO-KTSP|||||||||||||||||||||||||||||||||||||||||||||||||||||||||||||||||||||||||1024.7||1|FM15-METAR|223|ICAO-KTSP|||||||||||||||||||||||||||||||||||||||||||MET062METAR KTSP 160335Z AUTO 10010KT 10SM CLR 07/M01 A3026 RMK AO2;||F||223|ICAO-KTSP
USW00000479|TEHACHAPI MUNI AP|2009|12|16|04|00|35.1350|-118.4392|1219.5|7.0||1|FM15-METAR|223|ICAO-KTSP|-2.0||1|FM15-METAR|223|ICAO-KTSP|||||||||||||080|N-Normal|1|FM15-METAR|223|ICAO-KTSP|4.1|N-Normal|1|FM15-METAR|223|ICAO-KTSP|||||||||||||53|Derived||FM15-METAR|223|ICAO-KTSP|||||||||||||||||||||||||||||||||||||||||||||||||||||||||||||||||||||||||1024.7||1|FM15-METAR|223|ICAO-KTSP|||||||||||||||||||||||||||||||||||||||||||MET062METAR KTSP 160355Z AUTO 08008KT 10SM CLR 07/M02 A3026 RMK AO2;||F||223|ICAO-KTSP
USW00000479|TEHACHAPI MUNI AP|2009|12|16|04|15|35.1350|-118.4392|1219.5|7.0||1|FM15-METAR|223|ICAO-KTSP|-2.0||1|FM15-METAR|223|ICAO-KTSP|||||||||||||100|N-Normal|1|FM15-METAR|223|ICAO-KTSP|4.1|N-Normal|1|FM15-METAR|223|ICAO-KTSP|||||||||||||53|Derived||FM15-METAR|223|ICAO-KTSP|||||||||||||||||||||||||||||||||||||||||||||||||||||||||||||||||||||||||1025.1||1|FM15-METAR|223|ICAO-KTSP|||||||||||||||||||||||||||||||||||||||||||MET062METAR KTSP 160415Z AUTO 10008KT 10SM CLR 07/M02 A3027 RMK AO2;||F||223|ICAO-KTSP
USW00000479|TEHACHAPI MUNI AP|2009|12|16|04|35|35.1350|-118.4392|1219.5|6.0||1|FM15-METAR|223|ICAO-KTSP|-2.0||1|FM15-METAR|223|ICAO-KTSP|||||||||||||090|N-Normal|1|FM15-METAR|223|ICAO-KTSP|3.6|N-Normal|1|FM15-METAR|223|ICAO-KTSP|||||||||||||57|Derived||FM15-METAR|223|ICAO-KTSP|||||||||||||||||||||||||||||||||||||||||||||||||||||||||||||||||||||||||1025.4||1|FM15-METAR|223|ICAO-KTSP|||||||||||||||||||||||||||||||||||||||||||MET062METAR KTSP 160435Z AUTO 09007KT 10SM CLR 06/M02 A3028 RMK AO2;||F||223|ICAO-KTSP
USW00000479|TEHACHAPI MUNI AP|2009|12|16|05|00|35.1350|-118.4392|1219.5|6.0||1|FM15-METAR|223|ICAO-KTSP|-2.0||1|FM15-METAR|223|ICAO-KTSP|||||||||||||080|N-Normal|1|FM15-METAR|223|ICAO-KTSP|5.1|N-Normal|1|FM15-METAR|223|ICAO-KTSP|||||||||||||57|Derived||FM15-METAR|223|ICAO-KTSP|||||||||||||||||||||||||||||||||||||||||||||||||||||||||||||||||||||||||1025.1||1|FM15-METAR|223|ICAO-KTSP|||||||||||||||||||||||||||||||||||||||||||MET062METAR KTSP 160455Z AUTO 08010KT 10SM CLR 06/M02 A3027 RMK AO2;||F||223|ICAO-KTSP
USW00000479|TEHACHAPI MUNI AP|2009|12|16|05|15|35.1350|-118.4392|1219.5|6.0||1|FM15-METAR|223|ICAO-KTSP|-2.0||1|FM15-METAR|223|ICAO-KTSP|||||||||||||100|N-Normal|1|FM15-METAR|223|ICAO-KTSP|3.6|N-Normal|1|FM15-METAR|223|ICAO-KTSP|||||||||||||57|Derived||FM15-METAR|223|ICAO-KTSP|||||||||||||||||||||||||||||||||||||||||||||||||||||||||||||||||||||||||1025.7||1|FM15-METAR|223|ICAO-KTSP|||||||||||||||||||||||||||||||||||||||||||MET062METAR KTSP 160515Z AUTO 10007KT 10SM CLR 06/M02 A3029 RMK AO2;||F||223|ICAO-KTSP
USW00000479|TEHACHAPI MUNI AP|2009|12|16|05|35|35.1350|-118.4392|1219.5|5.0||1|FM15-METAR|223|ICAO-KTSP|-2.0||1|FM15-METAR|223|ICAO-KTSP|||||||||||||100|N-Normal|1|FM15-METAR|223|ICAO-KTSP|4.6|N-Normal|1|FM15-METAR|223|ICAO-KTSP|||||||||||||61|Derived||FM15-METAR|223|ICAO-KTSP|||||||||||||||||||||||||||||||||||||||||||||||||||||||||||||||||||||||||1025.7||1|FM15-METAR|223|ICAO-KTSP|||||||||||||||||||||||||||||||||||||||||||MET062METAR KTSP 160535Z AUTO 10009KT 10SM CLR 05/M02 A3029 RMK AO2;||F||223|ICAO-KTSP
USW00000479|TEHACHAPI MUNI AP|2009|12|16|06|00|35.1350|-118.4392|1219.5|5.0||1|FM15-METAR|223|ICAO-KTSP|-2.0||1|FM15-METAR|223|ICAO-KTSP|||||||||||||090|N-Normal|1|FM15-METAR|223|ICAO-KTSP|4.6|N-Normal|1|FM15-METAR|223|ICAO-KTSP|||||||||||||61|Derived||FM15-METAR|223|ICAO-KTSP|||||||||||||||||||||||||||||||||||||||||||||||||||||||||||||||||||||||||1025.7||1|FM15-METAR|223|ICAO-KTSP|||||||||||||||||||||||||||||||||||||||||||MET062METAR KTSP 160555Z AUTO 09009KT 10SM CLR 05/M02 A3029 RMK AO2;||F||223|ICAO-KTSP
USW00000479|TEHACHAPI MUNI AP|2009|12|16|06|15|35.1350|-118.4392|1219.5|5.0||1|FM15-METAR|223|ICAO-KTSP|-2.0||1|FM15-METAR|223|ICAO-KTSP|||||||||||||100|N-Normal|1|FM15-METAR|223|ICAO-KTSP|4.6|N-Normal|1|FM15-METAR|223|ICAO-KTSP|||||||||||||61|Derived||FM15-METAR|223|ICAO-KTSP|||||||||||||||||||||||||||||||||||||||||||||||||||||||||||||||||||||||||1025.4||1|FM15-METAR|223|ICAO-KTSP|||||||||||||||||||||||||||||||||||||||||||MET062METAR KTSP 160615Z AUTO 10009KT 10SM CLR 05/M02 A3028 RMK AO2;||F||223|ICAO-KTSP
USW00000479|TEHACHAPI MUNI AP|2009|12|16|06|35|35.1350|-118.4392|1219.5|4.0||1|FM15-METAR|223|ICAO-KTSP|-2.0||1|FM15-METAR|223|ICAO-KTSP|||||||||||||120|N-Normal|1|FM15-METAR|223|ICAO-KTSP|4.6|N-Normal|1|FM15-METAR|223|ICAO-KTSP|||||||||||||65|Derived||FM15-METAR|223|ICAO-KTSP|||||||||||||||||||||||||||||||||||||||||||||||||||||||||||||||||||||||||1025.4||1|FM15-METAR|223|ICAO-KTSP|||||||||||||||||||||||||||||||||||||||||||MET062METAR KTSP 160635Z AUTO 12009KT 10SM CLR 04/M02 A3028 RMK AO2;||F||223|ICAO-KTSP
USW00000479|TEHACHAPI MUNI AP|2009|12|16|07|00|35.1350|-118.4392|1219.5|3.0||1|FM15-METAR|223|ICAO-KTSP|-2.0||1|FM15-METAR|223|ICAO-KTSP|||||||||||||110|N-Normal|1|FM15-METAR|223|ICAO-KTSP|4.6|N-Normal|1|FM15-METAR|223|ICAO-KTSP|||||||||||||70|Derived||FM15-METAR|223|ICAO-KTSP|||||||||||||||||||||||||||||||||||||||||||||||||||||||||||||||||||||||||1025.4||1|FM15-METAR|223|ICAO-KTSP|||||||||||||||||||||||||||||||||||||||||||MET062METAR KTSP 160655Z AUTO 11009KT 10SM CLR 03/M02 A3028 RMK AO2;||F||223|ICAO-KTSP
USW00000479|TEHACHAPI MUNI AP|2009|12|16|07|15|35.1350|-118.4392|1219.5|4.0||1|FM15-METAR|223|ICAO-KTSP|-2.0||1|FM15-METAR|223|ICAO-KTSP|||||||||||||100|N-Normal|1|FM15-METAR|223|ICAO-KTSP|4.6|N-Normal|1|FM15-METAR|223|ICAO-KTSP|||||||||||||65|Derived||FM15-METAR|223|ICAO-KTSP|||||||||||||||||||||||||||||||||||||||||||||||||||||||||||||||||||||||||1025.1||1|FM15-METAR|223|ICAO-KTSP|||||||||||||||||||||||||||||||||||||||||||MET062METAR KTSP 160715Z AUTO 10009KT 10SM CLR 04/M02 A3027 RMK AO2;||F||223|ICAO-KTSP
USW00000479|TEHACHAPI MUNI AP|2009|12|16|07|35|35.1350|-118.4392|1219.5|5.0||1|FM15-METAR|223|ICAO-KTSP|-2.0||1|FM15-METAR|223|ICAO-KTSP|||||||||||||100|N-Normal|1|FM15-METAR|223|ICAO-KTSP|4.6|N-Normal|1|FM15-METAR|223|ICAO-KTSP|||||||||||||61|Derived||FM15-METAR|223|ICAO-KTSP|||||||||||||||||||||||||||||||||||||||||||||||||||||||||||||||||||||||||1025.1||1|FM15-METAR|223|ICAO-KTSP|||||||||||||||||||||||||||||||||||||||||||MET062METAR KTSP 160735Z AUTO 10009KT 10SM CLR 05/M02 A3027 RMK AO2;||F||223|ICAO-KTSP
USW00000479|TEHACHAPI MUNI AP|2009|12|16|08|00|35.1350|-118.4392|1219.5|5.0||1|FM15-METAR|223|ICAO-KTSP|-2.0||1|FM15-METAR|223|ICAO-KTSP|||||||||||||100|N-Normal|1|FM15-METAR|223|ICAO-KTSP|4.6|N-Normal|1|FM15-METAR|223|ICAO-KTSP|||||||||||||61|Derived||FM15-METAR|223|ICAO-KTSP|||||||||||||||||||||||||||||||||||||||||||||||||||||||||||||||||||||||||1025.1||1|FM15-METAR|223|ICAO-KTSP|||||||||||||||||||||||||||||||||||||||||||MET062METAR KTSP 160755Z AUTO 10009KT 10SM CLR 05/M02 A3027 RMK AO2;||F||223|ICAO-KTSP
USW00000479|TEHACHAPI MUNI AP|2009|12|16|08|15|35.1350|-118.4392|1219.5|6.0||1|FM15-METAR|223|ICAO-KTSP|-2.0||1|FM15-METAR|223|ICAO-KTSP|||||||||||||090|N-Normal|1|FM15-METAR|223|ICAO-KTSP|4.1|N-Normal|1|FM15-METAR|223|ICAO-KTSP|||||||||||||57|Derived||FM15-METAR|223|ICAO-KTSP|||||||||||||||||||||||||||||||||||||||||||||||||||||||||||||||||||||||||1025.1||1|FM15-METAR|223|ICAO-KTSP|||||||||||||||||||||||||||||||||||||||||||MET062METAR KTSP 160815Z AUTO 09008KT 10SM CLR 06/M02 A3027 RMK AO2;||F||223|ICAO-KTSP
USW00000479|TEHACHAPI MUNI AP|2009|12|16|08|35|35.1350|-118.4392|1219.5|5.0||1|FM15-METAR|223|ICAO-KTSP|-2.0||1|FM15-METAR|223|ICAO-KTSP|||||||||||||110|N-Normal|1|FM15-METAR|223|ICAO-KTSP|3.6|N-Normal|1|FM15-METAR|223|ICAO-KTSP|||||||||||||61|Derived||FM15-METAR|223|ICAO-KTSP|||||||||||||||||||||||||||||||||||||||||||||||||||||||||||||||||||||||||1025.1||1|FM15-METAR|223|ICAO-KTSP|||||||||||||||||||||||||||||||||||||||||||MET062METAR KTSP 160835Z AUTO 11007KT 10SM CLR 05/M02 A3027 RMK AO2;||F||223|ICAO-KTSP
USW00000479|TEHACHAPI MUNI AP|2009|12|16|09|00|35.1350|-118.4392|1219.5|3.0||1|FM15-METAR|223|ICAO-KTSP|-2.0||1|FM15-METAR|223|ICAO-KTSP|||||||||||||120|N-Normal|1|FM15-METAR|223|ICAO-KTSP|3.1|N-Normal|1|FM15-METAR|223|ICAO-KTSP|||||||||||||70|Derived||FM15-METAR|223|ICAO-KTSP|||||||||||||||||||||||||||||||||||||||||||||||||||||||||||||||||||||||||1024.7||1|FM15-METAR|223|ICAO-KTSP|||||||||||||||||||||||||||||||||||||||||||MET062METAR KTSP 160855Z AUTO 12006KT 10SM CLR 03/M02 A3026 RMK AO2;||F||223|ICAO-KTSP
USW00000479|TEHACHAPI MUNI AP|2009|12|16|09|15|35.1350|-118.4392|1219.5|0.0||1|FM15-METAR|223|ICAO-KTSP|-3.0||1|FM15-METAR|223|ICAO-KTSP|||||||||||||130|N-Normal|1|FM15-METAR|223|ICAO-KTSP|4.6|N-Normal|1|FM15-METAR|223|ICAO-KTSP|||||||||||||80|Derived||FM15-METAR|223|ICAO-KTSP|||||||||||||||||||||||||||||||||||||||||||||||||||||||||||||||||||||||||1024.7||1|FM15-METAR|223|ICAO-KTSP|||||||||||||||||||||||||||||||||||||||||||MET062METAR KTSP 160915Z AUTO 13009KT 10SM CLR 00/M03 A3026 RMK AO2;||F||223|ICAO-KTSP
USW00000479|TEHACHAPI MUNI AP|2009|12|16|09|35|35.1350|-118.4392|1219.5|1.0||1|FM15-METAR|223|ICAO-KTSP|-3.0||1|FM15-METAR|223|ICAO-KTSP|||||||||||||140|N-Normal|1|FM15-METAR|223|ICAO-KTSP|4.1|N-Normal|1|FM15-METAR|223|ICAO-KTSP|||||||||||||75|Derived||FM15-METAR|223|ICAO-KTSP|||||||||||||||||||||||||||||||||||||||||||||||||||||||||||||||||||||||||1024.7||1|FM15-METAR|223|ICAO-KTSP|||||||||||||||||||||||||||||||||||||||||||MET062METAR KTSP 160935Z AUTO 14008KT 10SM CLR 01/M03 A3026 RMK AO2;||F||223|ICAO-KTSP
USW00000479|TEHACHAPI MUNI AP|2009|12|16|10|00|35.1350|-118.4392|1219.5|0.0||1|FM15-METAR|223|ICAO-KTSP|-3.0||1|FM15-METAR|223|ICAO-KTSP|||||||||||||140|N-Normal|1|FM15-METAR|223|ICAO-KTSP|3.6|N-Normal|1|FM15-METAR|223|ICAO-KTSP|||||||||||||80|Derived||FM15-METAR|223|ICAO-KTSP|||||||||||||||||||||||||||||||||||||||||||||||||||||||||||||||||||||||||1025.1||1|FM15-METAR|223|ICAO-KTSP|||||||||||||||||||||||||||||||||||||||||||MET062METAR KTSP 160955Z AUTO 14007KT 10SM CLR 00/M03 A3027 RMK AO2;||F||223|ICAO-KTSP
USW00000479|TEHACHAPI MUNI AP|2009|12|16|10|15|35.1350|-118.4392|1219.5|0.0||1|FM15-METAR|223|ICAO-KTSP|-3.0||1|FM15-METAR|223|ICAO-KTSP|||||||||||||120|N-Normal|1|FM15-METAR|223|ICAO-KTSP|2.6|N-Normal|1|FM15-METAR|223|ICAO-KTSP|||||||||||||80|Derived||FM15-METAR|223|ICAO-KTSP|||||||||||||||||||||||||||||||||||||||||||||||||||||||||||||||||||||||||1025.1||1|FM15-METAR|223|ICAO-KTSP|||||||||||||||||||||||||||||||||||||||||||MET062METAR KTSP 161015Z AUTO 12005KT 10SM CLR 00/M03 A3027 RMK AO2;||F||223|ICAO-KTSP
USW00000479|TEHACHAPI MUNI AP|2009|12|16|10|35|35.1350|-118.4392|1219.5|1.0||1|FM15-METAR|223|ICAO-KTSP|-3.0||1|FM15-METAR|223|ICAO-KTSP|||||||||||||999|C-Calm|9|FM15-METAR|223|ICAO-KTSP|0.0|C-Calm|1|FM15-METAR|223|ICAO-KTSP|||||||||||||75|Derived||FM15-METAR|223|ICAO-KTSP|||||||||||||||||||||||||||||||||||||||||||||||||||||||||||||||||||||||||1025.1||1|FM15-METAR|223|ICAO-KTSP|||||||||||||||||||||||||||||||||||||||||||MET062METAR KTSP 161035Z AUTO 00000KT 10SM CLR 01/M03 A3027 RMK AO2;||F||223|ICAO-KTSP
USW00000479|TEHACHAPI MUNI AP|2009|12|16|11|00|35.1350|-118.4392|1219.5|0.0||1|FM15-METAR|223|ICAO-KTSP|-3.0||1|FM15-METAR|223|ICAO-KTSP|||||||||||||999|C-Calm|9|FM15-METAR|223|ICAO-KTSP|0.0|C-Calm|1|FM15-METAR|223|ICAO-KTSP|||||||||||||80|Derived||FM15-METAR|223|ICAO-KTSP|||||||||||||||||||||||||||||||||||||||||||||||||||||||||||||||||||||||||1025.1||1|FM15-METAR|223|ICAO-KTSP|||||||||||||||||||||||||||||||||||||||||||MET062METAR KTSP 161055Z AUTO 00000KT 10SM CLR 00/M03 A3027 RMK AO2;||F||223|ICAO-KTSP
USW00000479|TEHACHAPI MUNI AP|2009|12|16|11|15|35.1350|-118.4392|1219.5|0.0||1|FM15-METAR|223|ICAO-KTSP|-3.0||1|FM15-METAR|223|ICAO-KTSP|||||||||||||999|C-Calm|9|FM15-METAR|223|ICAO-KTSP|0.0|C-Calm|1|FM15-METAR|223|ICAO-KTSP|||||||||||||80|Derived||FM15-METAR|223|ICAO-KTSP|||||||||||||||||||||||||||||||||||||||||||||||||||||||||||||||||||||||||1025.1||1|FM15-METAR|223|ICAO-KTSP|||||||||||||||||||||||||||||||||||||||||||MET062METAR KTSP 161115Z AUTO 00000KT 10SM CLR 00/M03 A3027 RMK AO2;||F||223|ICAO-KTSP
USW00000479|TEHACHAPI MUNI AP|2009|12|16|11|35|35.1350|-118.4392|1219.5|0.0||1|FM15-METAR|223|ICAO-KTSP|-3.0||1|FM15-METAR|223|ICAO-KTSP|||||||||||||100|N-Normal|1|FM15-METAR|223|ICAO-KTSP|2.1|N-Normal|1|FM15-METAR|223|ICAO-KTSP|||||||||||||80|Derived||FM15-METAR|223|ICAO-KTSP|||||||||||||||||||||||||||||||||||||||||||||||||||||||||||||||||||||||||1024.7||1|FM15-METAR|223|ICAO-KTSP|||||||||||||||||||||||||||||||||||||||||||MET062METAR KTSP 161135Z AUTO 10004KT 10SM CLR 00/M03 A3026 RMK AO2;||F||223|ICAO-KTSP
USW00000479|TEHACHAPI MUNI AP|2009|12|16|12|00|35.1350|-118.4392|1219.5|-2.0||1|FM15-METAR|223|ICAO-KTSP|-4.0||1|FM15-METAR|223|ICAO-KTSP|||||||||||||130|N-Normal|1|FM15-METAR|223|ICAO-KTSP|3.1|N-Normal|1|FM15-METAR|223|ICAO-KTSP|||||||||||||86|Derived||FM15-METAR|223|ICAO-KTSP|||||||||||||||||||||||||||||||||||||||||||||||||||||||||||||||||||||||||1024.7||1|FM15-METAR|223|ICAO-KTSP|||||||||||||||||||||||||||||||||||||||||||MET063METAR KTSP 161155Z AUTO 13006KT 10SM CLR M02/M04 A3026 RMK AO2;||F||223|ICAO-KTSP
USW00000479|TEHACHAPI MUNI AP|2009|12|16|12|15|35.1350|-118.4392|1219.5|0.0||1|FM15-METAR|223|ICAO-KTSP|-3.0||1|FM15-METAR|223|ICAO-KTSP|||||||||||||120|N-Normal|1|FM15-METAR|223|ICAO-KTSP|4.1|N-Normal|1|FM15-METAR|223|ICAO-KTSP|||||||||||||80|Derived||FM15-METAR|223|ICAO-KTSP|||||||||||||||||||||||||||||||||||||||||||||||||||||||||||||||||||||||||1024.7||1|FM15-METAR|223|ICAO-KTSP|||||||||||||||||||||||||||||||||||||||||||MET062METAR KTSP 161215Z AUTO 12008KT 10SM CLR 00/M03 A3026 RMK AO2;||F||223|ICAO-KTSP
USW00000479|TEHACHAPI MUNI AP|2009|12|16|12|35|35.1350|-118.4392|1219.5|0.0||1|FM15-METAR|223|ICAO-KTSP|-3.0||1|FM15-METAR|223|ICAO-KTSP|||||||||||||999|C-Calm|9|FM15-METAR|223|ICAO-KTSP|0.0|C-Calm|1|FM15-METAR|223|ICAO-KTSP|||||||||||||80|Derived||FM15-METAR|223|ICAO-KTSP|||||||||||||||||||||||||||||||||||||||||||||||||||||||||||||||||||||||||1024.7||1|FM15-METAR|223|ICAO-KTSP|||||||||||||||||||||||||||||||||||||||||||MET062METAR KTSP 161235Z AUTO 00000KT 10SM CLR 00/M03 A3026 RMK AO2;||F||223|ICAO-KTSP
USW00000479|TEHACHAPI MUNI AP|2009|12|16|13|00|35.1350|-118.4392|1219.5|0.0||1|FM15-METAR|223|ICAO-KTSP|-3.0||1|FM15-METAR|223|ICAO-KTSP|||||||||||||999|C-Calm|9|FM15-METAR|223|ICAO-KTSP|0.0|C-Calm|1|FM15-METAR|223|ICAO-KTSP|||||||||||||80|Derived||FM15-METAR|223|ICAO-KTSP|||||||||||||||||||||||||||||||||||||||||||||||||||||||||||||||||||||||||1024.7||1|FM15-METAR|223|ICAO-KTSP|||||||||||||||||||||||||||||||||||||||||||MET062METAR KTSP 161255Z AUTO 00000KT 10SM CLR 00/M03 A3026 RMK AO2;||F||223|ICAO-KTSP
USW00000479|TEHACHAPI MUNI AP|2009|12|16|13|15|35.1350|-118.4392|1219.5|0.0||1|FM15-METAR|223|ICAO-KTSP|-3.0||1|FM15-METAR|223|ICAO-KTSP|||||||||||||999|C-Calm|9|FM15-METAR|223|ICAO-KTSP|0.0|C-Calm|1|FM15-METAR|223|ICAO-KTSP|||||||||||||80|Derived||FM15-METAR|223|ICAO-KTSP|||||||||||||||||||||||||||||||||||||||||||||||||||||||||||||||||||||||||1025.1||1|FM15-METAR|223|ICAO-KTSP|||||||||||||||||||||||||||||||||||||||||||MET062METAR KTSP 161315Z AUTO 00000KT 10SM CLR 00/M03 A3027 RMK AO2;||F||223|ICAO-KTSP
USW00000479|TEHACHAPI MUNI AP|2009|12|16|13|35|35.1350|-118.4392|1219.5|-1.0||1|FM15-METAR|223|ICAO-KTSP|-4.0||1|FM15-METAR|223|ICAO-KTSP|||||||||||||999|C-Calm|9|FM15-METAR|223|ICAO-KTSP|0.0|C-Calm|1|FM15-METAR|223|ICAO-KTSP|||||||||||||80|Derived||FM15-METAR|223|ICAO-KTSP|||||||||||||||||||||||||||||||||||||||||||||||||||||||||||||||||||||||||1025.1||1|FM15-METAR|223|ICAO-KTSP|||||||||||||||||||||||||||||||||||||||||||MET063METAR KTSP 161335Z AUTO 00000KT 10SM CLR M01/M04 A3027 RMK AO2;||F||223|ICAO-KTSP
USW00000479|TEHACHAPI MUNI AP|2009|12|16|14|00|35.1350|-118.4392|1219.5|-1.0||1|FM15-METAR|223|ICAO-KTSP|-4.0||1|FM15-METAR|223|ICAO-KTSP|||||||||||||999|C-Calm|9|FM15-METAR|223|ICAO-KTSP|0.0|C-Calm|1|FM15-METAR|223|ICAO-KTSP|||||||||||||80|Derived||FM15-METAR|223|ICAO-KTSP|||||||||||||||||||||||||||||||||||||||||||||||||||||||||||||||||||||||||1025.1||1|FM15-METAR|223|ICAO-KTSP|||||||||||||||||||||||||||||||||||||||||||MET063METAR KTSP 161355Z AUTO 00000KT 10SM CLR M01/M04 A3027 RMK AO2;||F||223|ICAO-KTSP
USW00000479|TEHACHAPI MUNI AP|2009|12|16|14|15|35.1350|-118.4392|1219.5|-1.0||1|FM15-METAR|223|ICAO-KTSP|-4.0||1|FM15-METAR|223|ICAO-KTSP|||||||||||||999|C-Calm|9|FM15-METAR|223|ICAO-KTSP|0.0|C-Calm|1|FM15-METAR|223|ICAO-KTSP|||||||||||||80|Derived||FM15-METAR|223|ICAO-KTSP|||||||||||||||||||||||||||||||||||||||||||||||||||||||||||||||||||||||||1025.1||1|FM15-METAR|223|ICAO-KTSP|||||||||||||||||||||||||||||||||||||||||||MET063METAR KTSP 161415Z AUTO 00000KT 10SM CLR M01/M04 A3027 RMK AO2;||F||223|ICAO-KTSP
USW00000479|TEHACHAPI MUNI AP|2009|12|16|14|35|35.1350|-118.4392|1219.5|-2.0||1|FM15-METAR|223|ICAO-KTSP|-4.0||1|FM15-METAR|223|ICAO-KTSP|||||||||||||999|C-Calm|9|FM15-METAR|223|ICAO-KTSP|0.0|C-Calm|1|FM15-METAR|223|ICAO-KTSP|||||||||||||86|Derived||FM15-METAR|223|ICAO-KTSP|||||||||||||||||||||||||||||||||||||||||||||||||||||||||||||||||||||||||1025.1||1|FM15-METAR|223|ICAO-KTSP|||||||||||||||||||||||||||||||||||||||||||MET063METAR KTSP 161435Z AUTO 00000KT 10SM CLR M02/M04 A3027 RMK AO2;||F||223|ICAO-KTSP
USW00000479|TEHACHAPI MUNI AP|2009|12|16|15|00|35.1350|-118.4392|1219.5|-2.0||1|FM15-METAR|223|ICAO-KTSP|-4.0||1|FM15-METAR|223|ICAO-KTSP|||||||||||||999|C-Calm|9|FM15-METAR|223|ICAO-KTSP|0.0|C-Calm|1|FM15-METAR|223|ICAO-KTSP|||||||||||||86|Derived||FM15-METAR|223|ICAO-KTSP|||||||||||||||||||||||||||||||||||||||||||||||||||||||||||||||||||||||||1025.4||1|FM15-METAR|223|ICAO-KTSP|||||||||||||||||||||||||||||||||||||||||||MET059METAR KTSP 161455Z AUTO 00000KT 10SM M02/M04 A3028 RMK AO2;||F||223|ICAO-KTSP
USW00000479|TEHACHAPI MUNI AP|2009|12|16|15|15|35.1350|-118.4392|1219.5|-2.0||1|FM15-METAR|223|ICAO-KTSP|-4.0||1|FM15-METAR|223|ICAO-KTSP|||||||||||||999|C-Calm|9|FM15-METAR|223|ICAO-KTSP|0.0|C-Calm|1|FM15-METAR|223|ICAO-KTSP|||||||||||||86|Derived||FM15-METAR|223|ICAO-KTSP|||||||||||||||||||||||||||||||||||||||||||||||||||||||||||||||||||||||||1025.4||1|FM15-METAR|223|ICAO-KTSP|||||||||||||||||||||||||||||||||||||||||||MET063METAR KTSP 161515Z AUTO 00000KT 10SM CLR M02/M04 A3028 RMK AO2;||F||223|ICAO-KTSP
USW00000479|TEHACHAPI MUNI AP|2009|12|16|15|35|35.1350|-118.4392|1219.5|-1.0||1|FM15-METAR|223|ICAO-KTSP|-4.0||1|FM15-METAR|223|ICAO-KTSP|||||||||||||999|C-Calm|9|FM15-METAR|223|ICAO-KTSP|0.0|C-Calm|1|FM15-METAR|223|ICAO-KTSP|||||||||||||80|Derived||FM15-METAR|223|ICAO-KTSP|||||||||||||||||||||||||||||||||||||||||||||||||||||||||||||||||||||||||1025.7||1|FM15-METAR|223|ICAO-KTSP|||||||||||||||||||||||||||||||||||||||||||MET063METAR KTSP 161535Z AUTO 00000KT 10SM CLR M01/M04 A3029 RMK AO2;||F||223|ICAO-KTSP
USW00000479|TEHACHAPI MUNI AP|2009|12|16|16|00|35.1350|-118.4392|1219.5|0.0||1|FM15-METAR|223|ICAO-KTSP|-3.0||1|FM15-METAR|223|ICAO-KTSP|||||||||||||999|C-Calm|9|FM15-METAR|223|ICAO-KTSP|0.0|C-Calm|1|FM15-METAR|223|ICAO-KTSP|||||||||||||80|Derived||FM15-METAR|223|ICAO-KTSP|||||||||||||||||||||||||||||||||||||||||||||||||||||||||||||||||||||||||1025.7||1|FM15-METAR|223|ICAO-KTSP|||||||||||||||||||||||||||||||||||||||||||MET061METAR KTSP 161555Z AUTO 00000KT 9SM CLR 00/M03 A3029 RMK AO2;||F||223|ICAO-KTSP
USW00000479|TEHACHAPI MUNI AP|2009|12|16|16|15|35.1350|-118.4392|1219.5|2.0||1|FM15-METAR|223|ICAO-KTSP|-3.0||1|FM15-METAR|223|ICAO-KTSP|||||||||||||999|C-Calm|9|FM15-METAR|223|ICAO-KTSP|0.0|C-Calm|1|FM15-METAR|223|ICAO-KTSP|||||||||||||70|Derived||FM15-METAR|223|ICAO-KTSP|||||||||||||||||||||||||||||||||||||||||||||||||||||||||||||||||||||||||1025.7||1|FM15-METAR|223|ICAO-KTSP|||||||||||||||||||||||||||||||||||||||||||MET062METAR KTSP 161615Z AUTO 00000KT 10SM CLR 02/M03 A3029 RMK AO2;||F||223|ICAO-KTSP
USW00000479|TEHACHAPI MUNI AP|2009|12|16|16|35|35.1350|-118.4392|1219.5|3.0||1|FM15-METAR|223|ICAO-KTSP|-3.0||1|FM15-METAR|223|ICAO-KTSP|||||||||||||999|C-Calm|9|FM15-METAR|223|ICAO-KTSP|0.0|C-Calm|1|FM15-METAR|223|ICAO-KTSP|||||||||||||65|Derived||FM15-METAR|223|ICAO-KTSP|||||||||||||||||||||||||||||||||||||||||||||||||||||||||||||||||||||||||1025.7||1|FM15-METAR|223|ICAO-KTSP|||||||||||||||||||||||||||||||||||||||||||MET062METAR KTSP 161635Z AUTO 00000KT 10SM CLR 03/M03 A3029 RMK AO2;||F||223|ICAO-KTSP
USW00000479|TEHACHAPI MUNI AP|2009|12|16|17|00|35.1350|-118.4392|1219.5|4.0||1|FM15-METAR|223|ICAO-KTSP|-2.0||1|FM15-METAR|223|ICAO-KTSP|||||||||||||130|N-Normal|1|FM15-METAR|223|ICAO-KTSP|3.1|N-Normal|1|FM15-METAR|223|ICAO-KTSP|||||||||||||65|Derived||FM15-METAR|223|ICAO-KTSP|||||||||||||||||||||||||||||||||||||||||||||||||||||||||||||||||||||||||1026.1||1|FM15-METAR|223|ICAO-KTSP|||||||||||||||||||||||||||||||||||||||||||MET061METAR KTSP 161655Z AUTO 13006KT 9SM CLR 04/M02 A3030 RMK AO2;||F||223|ICAO-KTSP
USW00000479|TEHACHAPI MUNI AP|2009|12|16|17|15|35.1350|-118.4392|1219.5|5.0||1|FM15-METAR|223|ICAO-KTSP|-2.0||1|FM15-METAR|223|ICAO-KTSP|||||||||||||999|C-Calm|9|FM15-METAR|223|ICAO-KTSP|0.0|C-Calm|1|FM15-METAR|223|ICAO-KTSP|||||||||||||61|Derived||FM15-METAR|223|ICAO-KTSP|||||||||||||||||||||||||||||||||||||||||||||||||||||||||||||||||||||||||1026.1||1|FM15-METAR|223|ICAO-KTSP|||||||||||||||||||||||||||||||||||||||||||MET061METAR KTSP 161715Z AUTO 00000KT 9SM CLR 05/M02 A3030 RMK AO2;||F||223|ICAO-KTSP
USW00000479|TEHACHAPI MUNI AP|2009|12|16|17|35|35.1350|-118.4392|1219.5|7.0||1|FM15-METAR|223|ICAO-KTSP|-1.0||1|FM15-METAR|223|ICAO-KTSP|||||||||||||130|N-Normal|1|FM15-METAR|223|ICAO-KTSP|2.1|N-Normal|1|FM15-METAR|223|ICAO-KTSP|||||||||||||57|Derived||FM15-METAR|223|ICAO-KTSP|||||||||||||||||||||||||||||||||||||||||||||||||||||||||||||||||||||||||1026.1||1|FM15-METAR|223|ICAO-KTSP|||||||||||||||||||||||||||||||||||||||||||MET062METAR KTSP 161735Z AUTO 13004KT 10SM CLR 07/M01 A3030 RMK AO2;||F||223|ICAO-KTSP
USW00000479|TEHACHAPI MUNI AP|2009|12|16|18|00|35.1350|-118.4392|1219.5|10.0||1|FM15-METAR|223|ICAO-KTSP|-1.0||1|FM15-METAR|223|ICAO-KTSP|||||||||||||120|N-Normal|1|FM15-METAR|223|ICAO-KTSP|3.1|N-Normal|1|FM15-METAR|223|ICAO-KTSP|||||||||||||47|Derived||FM15-METAR|223|ICAO-KTSP|||||||||||||||||||||||||||||||||||||||||||||||||||||||||||||||||||||||||1026.1||1|FM15-METAR|223|ICAO-KTSP|||||||||||||||||||||||||||||||||||||||||||MET062METAR KTSP 161755Z AUTO 12006KT 10SM CLR 10/M01 A3030 RMK AO2;||F||223|ICAO-KTSP
USW00000479|TEHACHAPI MUNI AP|2009|12|16|18|15|35.1350|-118.4392|1219.5|10.0||1|FM15-METAR|223|ICAO-KTSP|0.0||1|FM15-METAR|223|ICAO-KTSP|||||||||||||130|N-Normal|1|FM15-METAR|223|ICAO-KTSP|3.6|N-Normal|1|FM15-METAR|223|ICAO-KTSP|||||||||||||50|Derived||FM15-METAR|223|ICAO-KTSP|||||||||||||||||||||||||||||||||||||||||||||||||||||||||||||||||||||||||1026.1||1|FM15-METAR|223|ICAO-KTSP|||||||||||||||||||||||||||||||||||||||||||MET060METAR KTSP 161815Z AUTO 13007KT 9SM CLR 10/00 A3030 RMK AO2;||F||223|ICAO-KTSP
USW00000479|TEHACHAPI MUNI AP|2009|12|16|18|35|35.1350|-118.4392|1219.5|11.0||1|FM15-METAR|223|ICAO-KTSP|-2.0||1|FM15-METAR|223|ICAO-KTSP|||||||||||||110|N-Normal|1|FM15-METAR|223|ICAO-KTSP|3.6|N-Normal|1|FM15-METAR|223|ICAO-KTSP|||||||||||||41|Derived||FM15-METAR|223|ICAO-KTSP|||||||||||||||||||||||||||||||||||||||||||||||||||||||||||||||||||||||||1025.7||1|FM15-METAR|223|ICAO-KTSP|||||||||||||||||||||||||||||||||||||||||||MET061METAR KTSP 161835Z AUTO 11007KT 9SM CLR 11/M02 A3029 RMK AO2;||F||223|ICAO-KTSP
USW00000479|TEHACHAPI MUNI AP|2009|12|16|19|00|35.1350|-118.4392|1219.5|12.0||1|FM15-METAR|223|ICAO-KTSP|-3.0||1|FM15-METAR|223|ICAO-KTSP|||||||||||||080|N-Normal|1|FM15-METAR|223|ICAO-KTSP|2.6|N-Normal|1|FM15-METAR|223|ICAO-KTSP|||||||||||||35|Derived||FM15-METAR|223|ICAO-KTSP|||||||||||||||||||||||||||||||||||||||||||||||||||||||||||||||||||||||||1025.7||1|FM15-METAR|223|ICAO-KTSP|||||||||||||||||||||||||||||||||||||||||||MET061METAR KTSP 161855Z AUTO 08005KT 9SM CLR 12/M03 A3029 RMK AO2;||F||223|ICAO-KTSP
USW00000479|TEHACHAPI MUNI AP|2009|12|16|19|15|35.1350|-118.4392|1219.5|12.0||1|FM15-METAR|223|ICAO-KTSP|-4.0||1|FM15-METAR|223|ICAO-KTSP|||||||||||||999|C-Calm|9|FM15-METAR|223|ICAO-KTSP|0.0|C-Calm|1|FM15-METAR|223|ICAO-KTSP|||||||||||||33|Derived||FM15-METAR|223|ICAO-KTSP|||||||||||||||||||||||||||||||||||||||||||||||||||||||||||||||||||||||||1025.1||1|FM15-METAR|223|ICAO-KTSP|||||||||||||||||||||||||||||||||||||||||||MET061METAR KTSP 161915Z AUTO 00000KT 9SM CLR 12/M04 A3027 RMK AO2;||F||223|ICAO-KTSP
USW00000479|TEHACHAPI MUNI AP|2009|12|16|19|35|35.1350|-118.4392|1219.5|13.0||1|FM15-METAR|223|ICAO-KTSP|-4.0||1|FM15-METAR|223|ICAO-KTSP|||||||||||||999|C-Calm|9|FM15-METAR|223|ICAO-KTSP|0.0|C-Calm|1|FM15-METAR|223|ICAO-KTSP|||||||||||||31|Derived||FM15-METAR|223|ICAO-KTSP|||||||||||||||||||||||||||||||||||||||||||||||||||||||||||||||||||||||||1025.1||1|FM15-METAR|223|ICAO-KTSP|||||||||||||||||||||||||||||||||||||||||||MET062METAR KTSP 161935Z AUTO 00000KT 10SM CLR 13/M04 A3027 RMK AO2;||F||223|ICAO-KTSP
USW00000479|TEHACHAPI MUNI AP|2009|12|16|20|00|35.1350|-118.4392|1219.5|14.0||1|FM15-METAR|223|ICAO-KTSP|-7.0||1|FM15-METAR|223|ICAO-KTSP|||||||||||||999|C-Calm|9|FM15-METAR|223|ICAO-KTSP|0.0|C-Calm|1|FM15-METAR|223|ICAO-KTSP|||||||||||||23|Derived||FM15-METAR|223|ICAO-KTSP|||||||||||||||||||||||||||||||||||||||||||||||||||||||||||||||||||||||||1024.7||1|FM15-METAR|223|ICAO-KTSP|||||||||||||||||||||||||||||||||||||||||||MET061METAR KTSP 161955Z AUTO 00000KT 8SM CLR 14/M07 A3026 RMK AO2;||F||223|ICAO-KTSP
USW00000479|TEHACHAPI MUNI AP|2009|12|16|20|15|35.1350|-118.4392|1219.5|15.0||1|FM15-METAR|223|ICAO-KTSP|-7.0||1|FM15-METAR|223|ICAO-KTSP|||||||||||||300|N-Normal|1|FM15-METAR|223|ICAO-KTSP|2.6|N-Normal|1|FM15-METAR|223|ICAO-KTSP|||||||||||||21|Derived||FM15-METAR|223|ICAO-KTSP|||||||||||||||||||||||||||||||||||||||||||||||||||||||||||||||||||||||||1024.4||1|FM15-METAR|223|ICAO-KTSP|||||||||||||||||||||||||||||||||||||||||||MET061METAR KTSP 162015Z AUTO 30005KT 8SM CLR 15/M07 A3025 RMK AO2;||F||223|ICAO-KTSP
USW00000479|TEHACHAPI MUNI AP|2009|12|16|20|35|35.1350|-118.4392|1219.5|15.0||1|FM15-METAR|223|ICAO-KTSP|-8.0||1|FM15-METAR|223|ICAO-KTSP|||||||||||||300|N-Normal|1|FM15-METAR|223|ICAO-KTSP|3.1|N-Normal|1|FM15-METAR|223|ICAO-KTSP|||||||||||||20|Derived||FM15-METAR|223|ICAO-KTSP|||||||||||||||||||||||||||||||||||||||||||||||||||||||||||||||||||||||||1024.0||1|FM15-METAR|223|ICAO-KTSP|||||||||||||||||||||||||||||||||||||||||||MET061METAR KTSP 162035Z AUTO 30006KT 9SM CLR 15/M08 A3024 RMK AO2;||F||223|ICAO-KTSP
USW00000479|TEHACHAPI MUNI AP|2009|12|16|21|00|35.1350|-118.4392|1219.5|15.0||1|FM15-METAR|223|ICAO-KTSP|-10.0||1|FM15-METAR|223|ICAO-KTSP|||||||||||||300|N-Normal|1|FM15-METAR|223|ICAO-KTSP|3.6|N-Normal|1|FM15-METAR|223|ICAO-KTSP|||||||||||||17|Derived||FM15-METAR|223|ICAO-KTSP|||||||||||||||||||||||||||||||||||||||||||||||||||||||||||||||||||||||||1023.7||1|FM15-METAR|223|ICAO-KTSP|||||||||||||||||||||||||||||||||||||||||||MET062METAR KTSP 162055Z AUTO 30007KT 10SM CLR 15/M10 A3023 RMK AO2;||F||223|ICAO-KTSP
USW00000479|TEHACHAPI MUNI AP|2009|12|16|21|15|35.1350|-118.4392|1219.5|16.0||1|FM15-METAR|223|ICAO-KTSP|-10.0||1|FM15-METAR|223|ICAO-KTSP|||||||||||||310|N-Normal|1|FM15-METAR|223|ICAO-KTSP|5.1|N-Normal|1|FM15-METAR|223|ICAO-KTSP|||||||||||||16|Derived||FM15-METAR|223|ICAO-KTSP|||||||||||||||||||||||||||||||||||||||||||||||||||||||||||||||||||||||||1023.4||1|FM15-METAR|223|ICAO-KTSP|||||||||||||||||||||||||||||||||||||||||||MET061METAR KTSP 162115Z AUTO 31010KT 9SM CLR 16/M10 A3022 RMK AO2;||F||223|ICAO-KTSP
USW00000479|TEHACHAPI MUNI AP|2009|12|16|21|35|35.1350|-118.4392|1219.5|15.0||1|FM15-METAR|223|ICAO-KTSP|-6.0||1|FM15-METAR|223|ICAO-KTSP|||||||||||||310|N-Normal|1|FM15-METAR|223|ICAO-KTSP|7.2|N-Normal|1|FM15-METAR|223|ICAO-KTSP|||||||||||||23|Derived||FM15-METAR|223|ICAO-KTSP|||||||||||||||||||||||||||||||||||||||||||||||||||||||||||||||||||||||||1023.4||1|FM15-METAR|223|ICAO-KTSP|||||||||||||||||||||||||||||||||||||||||||MET061METAR KTSP 162135Z AUTO 31014KT 9SM CLR 15/M06 A3022 RMK AO2;||F||223|ICAO-KTSP
USW00000479|TEHACHAPI MUNI AP|2009|12|16|22|00|35.1350|-118.4392|1219.5|13.0||1|FM15-METAR|223|ICAO-KTSP|-2.0||1|FM15-METAR|223|ICAO-KTSP|||||||||||||310|N-Normal|1|FM15-METAR|223|ICAO-KTSP|8.2|N-Normal|1|FM15-METAR|223|ICAO-KTSP|10.8||1|FM15-METAR|223|ICAO-KTSP|||||||36|Derived||FM15-METAR|223|ICAO-KTSP|||||||||||||||||||||||||||||||||||||||||||||||||||||||||||||||||||||||||1023.7||1|FM15-METAR|223|ICAO-KTSP|||||||||||||||||||||||||||||||||||||||||||MET064METAR KTSP 162155Z AUTO 31016G21KT 9SM CLR 13/M02 A3023 RMK AO2;||F||223|ICAO-KTSP
USW00000479|TEHACHAPI MUNI AP|2009|12|16|22|15|35.1350|-118.4392|1219.5|12.0||1|FM15-METAR|223|ICAO-KTSP|-3.0||1|FM15-METAR|223|ICAO-KTSP|||||||||||||310|N-Normal|1|FM15-METAR|223|ICAO-KTSP|8.7|N-Normal|1|FM15-METAR|223|ICAO-KTSP|||||||||||||35|Derived||FM15-METAR|223|ICAO-KTSP|||||||||||||||||||||||||||||||||||||||||||||||||||||||||||||||||||||||||1024.0||1|FM15-METAR|223|ICAO-KTSP|||||||||||||||||||||||||||||||||||||||||||MET061METAR KTSP 162215Z AUTO 31017KT 9SM CLR 12/M03 A3024 RMK AO2;||F||223|ICAO-KTSP
USW00000479|TEHACHAPI MUNI AP|2009|12|16|22|35|35.1350|-118.4392|1219.5|11.0||1|FM15-METAR|223|ICAO-KTSP|-3.0||1|FM15-METAR|223|ICAO-KTSP|||||||||||||290|N-Normal|1|FM15-METAR|223|ICAO-KTSP|7.2|N-Normal|1|FM15-METAR|223|ICAO-KTSP|||||||||||||38|Derived||FM15-METAR|223|ICAO-KTSP|||||||||||||||||||||||||||||||||||||||||||||||||||||||||||||||||||||||||1024.4||1|FM15-METAR|223|ICAO-KTSP|||||||||||||||||||||||||||||||||||||||||||MET062METAR KTSP 162235Z AUTO 29014KT 10SM CLR 11/M03 A3025 RMK AO2;||F||223|ICAO-KTSP
USW00000479|TEHACHAPI MUNI AP|2009|12|16|23|15|35.1350|-118.4392|1219.5|10.0||1|FM15-METAR|223|ICAO-KTSP|-3.0||1|FM15-METAR|223|ICAO-KTSP|||||||||||||300|N-Normal|1|FM15-METAR|223|ICAO-KTSP|5.7|N-Normal|1|FM15-METAR|223|ICAO-KTSP|||||||||||||40|Derived||FM15-METAR|223|ICAO-KTSP|||||||||||||||||||||||||||||||||||||||||||||||||||||||||||||||||||||||||1024.0||1|FM15-METAR|223|ICAO-KTSP|||||||||||||||||||||||||||||||||||||||||||MET062METAR KTSP 162315Z AUTO 30011KT 10SM CLR 10/M03 A3024 RMK AO2;||F||223|ICAO-KTSP
USW00000479|TEHACHAPI MUNI AP|2009|12|16|23|35|35.1350|-118.4392|1219.5|10.0||1|FM15-METAR|223|ICAO-KTSP|-3.0||1|FM15-METAR|223|ICAO-KTSP|||||||||||||290|N-Normal|1|FM15-METAR|223|ICAO-KTSP|5.1|N-Normal|1|FM15-METAR|223|ICAO-KTSP|||||||||||||40|Derived||FM15-METAR|223|ICAO-KTSP|||||||||||||||||||||||||||||||||||||||||||||||||||||||||||||||||||||||||1024.4||1|FM15-METAR|223|ICAO-KTSP|||||||||||||||||||||||||||||||||||||||||||MET061METAR KTSP 162335Z AUTO 29010KT 9SM CLR 10/M03 A3025 RMK AO2;||F||223|ICAO-KTSP
USW00000479|TEHACHAPI MUNI AP|2009|12|17|00|00|35.1350|-118.4392|1219.5|10.0||1|FM15-METAR|223|ICAO-KTSP|-3.0||1|FM15-METAR|223|ICAO-KTSP|||||||||||||300|N-Normal|1|FM15-METAR|223|ICAO-KTSP|3.6|N-Normal|1|FM15-METAR|223|ICAO-KTSP|||||||||||||40|Derived||FM15-METAR|223|ICAO-KTSP|||||||||||||||||||||||||||||||||||||||||||||||||||||||||||||||||||||||||1024.4||1|FM15-METAR|223|ICAO-KTSP|||||||||||||||||||||||||||||||||||||||||||MET062METAR KTSP 162355Z AUTO 30007KT 10SM CLR 10/M03 A3025 RMK AO2;||F||223|ICAO-KTSP
USW00000479|TEHACHAPI MUNI AP|2009|12|17|00|15|35.1350|-118.4392|1219.5|9.0||1|FM15-METAR|223|ICAO-KTSP|-2.0||1|FM15-METAR|223|ICAO-KTSP|||||||||||||310|N-Normal|1|FM15-METAR|223|ICAO-KTSP|4.1|N-Normal|1|FM15-METAR|223|ICAO-KTSP|||||||||||||46|Derived||FM15-METAR|223|ICAO-KTSP|||||||||||||||||||||||||||||||||||||||||||||||||||||||||||||||||||||||||1024.0||1|FM15-METAR|223|ICAO-KTSP|||||||||||||||||||||||||||||||||||||||||||MET062METAR KTSP 170015Z AUTO 31008KT 10SM CLR 09/M02 A3024 RMK AO2;||F||223|ICAO-KTSP
USW00000479|TEHACHAPI MUNI AP|2009|12|17|00|35|35.1350|-118.4392|1219.5|8.0||1|FM15-METAR|223|ICAO-KTSP|-1.0||1|FM15-METAR|223|ICAO-KTSP|||||||||||||300|N-Normal|1|FM15-METAR|223|ICAO-KTSP|4.1|N-Normal|1|FM15-METAR|223|ICAO-KTSP|||||||||||||53|Derived||FM15-METAR|223|ICAO-KTSP|||||||||||||||||||||||||||||||||||||||||||||||||||||||||||||||||||||||||1024.4||1|FM15-METAR|223|ICAO-KTSP|||||||||||||||||||||||||||||||||||||||||||MET062METAR KTSP 170035Z AUTO 30008KT 10SM CLR 08/M01 A3025 RMK AO2;||F||223|ICAO-KTSP
USW00000479|TEHACHAPI MUNI AP|2009|12|17|01|00|35.1350|-118.4392|1219.5|7.0||1|FM15-METAR|223|ICAO-KTSP|-1.0||1|FM15-METAR|223|ICAO-KTSP|||||||||||||320|N-Normal|1|FM15-METAR|223|ICAO-KTSP|3.6|N-Normal|1|FM15-METAR|223|ICAO-KTSP|||||||||||||57|Derived||FM15-METAR|223|ICAO-KTSP|||||||||||||||||||||||||||||||||||||||||||||||||||||||||||||||||||||||||1024.4||1|FM15-METAR|223|ICAO-KTSP|||||||||||||||||||||||||||||||||||||||||||MET062METAR KTSP 170055Z AUTO 32007KT 10SM CLR 07/M01 A3025 RMK AO2;||F||223|ICAO-KTSP
USW00000479|TEHACHAPI MUNI AP|2009|12|17|01|15|35.1350|-118.4392|1219.5|7.0||1|FM15-METAR|223|ICAO-KTSP|0.0||1|FM15-METAR|223|ICAO-KTSP|||||||||||||999|C-Calm|9|FM15-METAR|223|ICAO-KTSP|0.0|C-Calm|1|FM15-METAR|223|ICAO-KTSP|||||||||||||61|Derived||FM15-METAR|223|ICAO-KTSP|||||||||||||||||||||||||||||||||||||||||||||||||||||||||||||||||||||||||1024.4||1|FM15-METAR|223|ICAO-KTSP|||||||||||||||||||||||||||||||||||||||||||MET061METAR KTSP 170115Z AUTO 00000KT 10SM CLR 07/00 A3025 RMK AO2;||F||223|ICAO-KTSP
USW00000479|TEHACHAPI MUNI AP|2009|12|17|01|35|35.1350|-118.4392|1219.5|5.0||1|FM15-METAR|223|ICAO-KTSP|0.0||1|FM15-METAR|223|ICAO-KTSP|||||||||||||290|N-Normal|1|FM15-METAR|223|ICAO-KTSP|3.1|N-Normal|1|FM15-METAR|223|ICAO-KTSP|||||||||||||70|Derived||FM15-METAR|223|ICAO-KTSP|||||||||||||||||||||||||||||||||||||||||||||||||||||||||||||||||||||||||1024.7||1|FM15-METAR|223|ICAO-KTSP|||||||||||||||||||||||||||||||||||||||||||MET061METAR KTSP 170135Z AUTO 29006KT 10SM CLR 05/00 A3026 RMK AO2;||F||223|ICAO-KTSP
USW00000479|TEHACHAPI MUNI AP|2009|12|17|02|00|35.1350|-118.4392|1219.5|6.0||1|FM15-METAR|223|ICAO-KTSP|0.0||1|FM15-METAR|223|ICAO-KTSP|||||||||||||310|N-Normal|1|FM15-METAR|223|ICAO-KTSP|4.6|N-Normal|1|FM15-METAR|223|ICAO-KTSP|||||||||||||66|Derived||FM15-METAR|223|ICAO-KTSP|||||||||||||||||||||||||||||||||||||||||||||||||||||||||||||||||||||||||1024.7||1|FM15-METAR|223|ICAO-KTSP|||||||||||||||||||||||||||||||||||||||||||MET061METAR KTSP 170155Z AUTO 31009KT 10SM CLR 06/00 A3026 RMK AO2;||F||223|ICAO-KTSP
USW00000479|TEHACHAPI MUNI AP|2009|12|17|02|15|35.1350|-118.4392|1219.5|5.0||1|FM15-METAR|223|ICAO-KTSP|0.0||1|FM15-METAR|223|ICAO-KTSP|||||||||||||300|N-Normal|1|FM15-METAR|223|ICAO-KTSP|4.1|N-Normal|1|FM15-METAR|223|ICAO-KTSP|||||||||||||70|Derived||FM15-METAR|223|ICAO-KTSP|||||||||||||||||||||||||||||||||||||||||||||||||||||||||||||||||||||||||1025.1||1|FM15-METAR|223|ICAO-KTSP|||||||||||||||||||||||||||||||||||||||||||MET061METAR KTSP 170215Z AUTO 30008KT 10SM CLR 05/00 A3027 RMK AO2;||F||223|ICAO-KTSP
USW00000479|TEHACHAPI MUNI AP|2009|12|17|02|35|35.1350|-118.4392|1219.5|5.0||1|FM15-METAR|223|ICAO-KTSP|0.0||1|FM15-METAR|223|ICAO-KTSP|||||||||||||320|N-Normal|1|FM15-METAR|223|ICAO-KTSP|3.6|N-Normal|1|FM15-METAR|223|ICAO-KTSP|||||||||||||70|Derived||FM15-METAR|223|ICAO-KTSP|||||||||||||||||||||||||||||||||||||||||||||||||||||||||||||||||||||||||1025.4||1|FM15-METAR|223|ICAO-KTSP|||||||||||||||||||||||||||||||||||||||||||MET061METAR KTSP 170235Z AUTO 32007KT 10SM CLR 05/00 A3028 RMK AO2;||F||223|ICAO-KTSP
USW00000479|TEHACHAPI MUNI AP|2009|12|17|03|00|35.1350|-118.4392|1219.5|4.0||1|FM15-METAR|223|ICAO-KTSP|0.0||1|FM15-METAR|223|ICAO-KTSP|||||||||||||330|N-Normal|1|FM15-METAR|223|ICAO-KTSP|2.6|N-Normal|1|FM15-METAR|223|ICAO-KTSP|||||||||||||75|Derived||FM15-METAR|223|ICAO-KTSP|||||||||||||||||||||||||||||||||||||||||||||||||||||||||||||||||||||||||1025.4||1|FM15-METAR|223|ICAO-KTSP|||||||||||||||||||||||||||||||||||||||||||MET061METAR KTSP 170255Z AUTO 33005KT 10SM CLR 04/00 A3028 RMK AO2;||F||223|ICAO-KTSP
USW00000479|TEHACHAPI MUNI AP|2009|12|17|03|15|35.1350|-118.4392|1219.5|5.0||1|FM15-METAR|223|ICAO-KTSP|0.0||1|FM15-METAR|223|ICAO-KTSP|||||||||||||330|N-Normal|1|FM15-METAR|223|ICAO-KTSP|3.1|N-Normal|1|FM15-METAR|223|ICAO-KTSP|||||||||||||70|Derived||FM15-METAR|223|ICAO-KTSP|||||||||||||||||||||||||||||||||||||||||||||||||||||||||||||||||||||||||1025.4||1|FM15-METAR|223|ICAO-KTSP|||||||||||||||||||||||||||||||||||||||||||MET061METAR KTSP 170315Z AUTO 33006KT 10SM CLR 05/00 A3028 RMK AO2;||F||223|ICAO-KTSP
USW00000479|TEHACHAPI MUNI AP|2009|12|17|03|35|35.1350|-118.4392|1219.5|5.0||1|FM15-METAR|223|ICAO-KTSP|0.0||1|FM15-METAR|223|ICAO-KTSP|||||||||||||320|N-Normal|1|FM15-METAR|223|ICAO-KTSP|3.1|N-Normal|1|FM15-METAR|223|ICAO-KTSP|||||||||||||70|Derived||FM15-METAR|223|ICAO-KTSP|||||||||||||||||||||||||||||||||||||||||||||||||||||||||||||||||||||||||1025.4||1|FM15-METAR|223|ICAO-KTSP|||||||||||||||||||||||||||||||||||||||||||MET061METAR KTSP 170335Z AUTO 32006KT 10SM CLR 05/00 A3028 RMK AO2;||F||223|ICAO-KTSP
USW00000479|TEHACHAPI MUNI AP|2009|12|17|04|00|35.1350|-118.4392|1219.5|4.0||1|FM15-METAR|223|ICAO-KTSP|-1.0||1|FM15-METAR|223|ICAO-KTSP|||||||||||||999|C-Calm|9|FM15-METAR|223|ICAO-KTSP|0.0|C-Calm|1|FM15-METAR|223|ICAO-KTSP|||||||||||||70|Derived||FM15-METAR|223|ICAO-KTSP|||||||||||||||||||||||||||||||||||||||||||||||||||||||||||||||||||||||||1025.4||1|FM15-METAR|223|ICAO-KTSP|||||||||||||||||||||||||||||||||||||||||||MET062METAR KTSP 170355Z AUTO 00000KT 10SM CLR 04/M01 A3028 RMK AO2;||F||223|ICAO-KTSP
USW00000479|TEHACHAPI MUNI AP|2009|12|17|04|15|35.1350|-118.4392|1219.5|4.0||1|FM15-METAR|223|ICAO-KTSP|0.0||1|FM15-METAR|223|ICAO-KTSP|||||||||||||999|C-Calm|9|FM15-METAR|223|ICAO-KTSP|0.0|C-Calm|1|FM15-METAR|223|ICAO-KTSP|||||||||||||75|Derived||FM15-METAR|223|ICAO-KTSP|||||||||||||||||||||||||||||||||||||||||||||||||||||||||||||||||||||||||1025.4||1|FM15-METAR|223|ICAO-KTSP|||||||||||||||||||||||||||||||||||||||||||MET060METAR KTSP 170415Z AUTO 00000KT 9SM CLR 04/00 A3028 RMK AO2;||F||223|ICAO-KTSP
USW00000479|TEHACHAPI MUNI AP|2009|12|17|04|35|35.1350|-118.4392|1219.5|3.0||1|FM15-METAR|223|ICAO-KTSP|-1.0||1|FM15-METAR|223|ICAO-KTSP|||||||||||||999|C-Calm|9|FM15-METAR|223|ICAO-KTSP|0.0|C-Calm|1|FM15-METAR|223|ICAO-KTSP|||||||||||||75|Derived||FM15-METAR|223|ICAO-KTSP|||||||||||||||||||||||||||||||||||||||||||||||||||||||||||||||||||||||||1025.1||1|FM15-METAR|223|ICAO-KTSP|||||||||||||||||||||||||||||||||||||||||||MET061METAR KTSP 170435Z AUTO 00000KT 8SM CLR 03/M01 A3027 RMK AO2;||F||223|ICAO-KTSP
USW00000479|TEHACHAPI MUNI AP|2009|12|17|05|00|35.1350|-118.4392|1219.5|3.0||1|FM15-METAR|223|ICAO-KTSP|-2.0||1|FM15-METAR|223|ICAO-KTSP|||||||||||||999|C-Calm|9|FM15-METAR|223|ICAO-KTSP|0.0|C-Calm|1|FM15-METAR|223|ICAO-KTSP|||||||||||||70|Derived||FM15-METAR|223|ICAO-KTSP|||||||||||||||||||||||||||||||||||||||||||||||||||||||||||||||||||||||||1025.4||1|FM15-METAR|223|ICAO-KTSP|||||||||||||||||||||||||||||||||||||||||||MET062METAR KTSP 170455Z AUTO 00000KT 10SM CLR 03/M02 A3028 RMK AO2;||F||223|ICAO-KTSP
USW00000479|TEHACHAPI MUNI AP|2009|12|17|05|15|35.1350|-118.4392|1219.5|2.0||1|FM15-METAR|223|ICAO-KTSP|-3.0||1|FM15-METAR|223|ICAO-KTSP|||||||||||||999|C-Calm|9|FM15-METAR|223|ICAO-KTSP|0.0|C-Calm|1|FM15-METAR|223|ICAO-KTSP|||||||||||||70|Derived||FM15-METAR|223|ICAO-KTSP|||||||||||||||||||||||||||||||||||||||||||||||||||||||||||||||||||||||||1025.4||1|FM15-METAR|223|ICAO-KTSP|||||||||||||||||||||||||||||||||||||||||||MET062METAR KTSP 170515Z AUTO 00000KT 10SM CLR 02/M03 A3028 RMK AO2;||F||223|ICAO-KTSP
USW00000479|TEHACHAPI MUNI AP|2009|12|17|05|35|35.1350|-118.4392|1219.5|0.0||1|FM15-METAR|223|ICAO-KTSP|-3.0||1|FM15-METAR|223|ICAO-KTSP|||||||||||||999|C-Calm|9|FM15-METAR|223|ICAO-KTSP|0.0|C-Calm|1|FM15-METAR|223|ICAO-KTSP|||||||||||||80|Derived||FM15-METAR|223|ICAO-KTSP|||||||||||||||||||||||||||||||||||||||||||||||||||||||||||||||||||||||||1025.4||1|FM15-METAR|223|ICAO-KTSP|||||||||||||||||||||||||||||||||||||||||||MET062METAR KTSP 170535Z AUTO 00000KT 10SM CLR 00/M03 A3028 RMK AO2;||F||223|ICAO-KTSP
USW00000479|TEHACHAPI MUNI AP|2009|12|17|06|00|35.1350|-118.4392|1219.5|0.0||1|FM15-METAR|223|ICAO-KTSP|-3.0||1|FM15-METAR|223|ICAO-KTSP|||||||||||||999|C-Calm|9|FM15-METAR|223|ICAO-KTSP|0.0|C-Calm|1|FM15-METAR|223|ICAO-KTSP|||||||||||||80|Derived||FM15-METAR|223|ICAO-KTSP|||||||||||||||||||||||||||||||||||||||||||||||||||||||||||||||||||||||||1025.4||1|FM15-METAR|223|ICAO-KTSP|||||||||||||||||||||||||||||||||||||||||||MET062METAR KTSP 170555Z AUTO 00000KT 10SM CLR 00/M03 A3028 RMK AO2;||F||223|ICAO-KTSP
USW00000479|TEHACHAPI MUNI AP|2009|12|17|06|15|35.1350|-118.4392|1219.5|0.0||1|FM15-METAR|223|ICAO-KTSP|-3.0||1|FM15-METAR|223|ICAO-KTSP|||||||||||||120|N-Normal|1|FM15-METAR|223|ICAO-KTSP|2.6|N-Normal|1|FM15-METAR|223|ICAO-KTSP|||||||||||||80|Derived||FM15-METAR|223|ICAO-KTSP|||||||||||||||||||||||||||||||||||||||||||||||||||||||||||||||||||||||||1025.4||1|FM15-METAR|223|ICAO-KTSP|||||||||||||||||||||||||||||||||||||||||||MET062METAR KTSP 170615Z AUTO 12005KT 10SM CLR 00/M03 A3028 RMK AO2;||F||223|ICAO-KTSP
USW00000479|TEHACHAPI MUNI AP|2009|12|17|06|35|35.1350|-118.4392|1219.5|0.0||1|FM15-METAR|223|ICAO-KTSP|-3.0||1|FM15-METAR|223|ICAO-KTSP|||||||||||||999|C-Calm|9|FM15-METAR|223|ICAO-KTSP|0.0|C-Calm|1|FM15-METAR|223|ICAO-KTSP|||||||||||||80|Derived||FM15-METAR|223|ICAO-KTSP|||||||||||||||||||||||||||||||||||||||||||||||||||||||||||||||||||||||||1025.4||1|FM15-METAR|223|ICAO-KTSP|||||||||||||||||||||||||||||||||||||||||||MET062METAR KTSP 170635Z AUTO 00000KT 10SM CLR 00/M03 A3028 RMK AO2;||F||223|ICAO-KTSP
USW00000479|TEHACHAPI MUNI AP|2009|12|17|07|00|35.1350|-118.4392|1219.5|0.0||1|FM15-METAR|223|ICAO-KTSP|-4.0||1|FM15-METAR|223|ICAO-KTSP|||||||||||||999|C-Calm|9|FM15-METAR|223|ICAO-KTSP|0.0|C-Calm|1|FM15-METAR|223|ICAO-KTSP|||||||||||||75|Derived||FM15-METAR|223|ICAO-KTSP|||||||||||||||||||||||||||||||||||||||||||||||||||||||||||||||||||||||||1025.4||1|FM15-METAR|223|ICAO-KTSP|||||||||||||||||||||||||||||||||||||||||||MET062METAR KTSP 170655Z AUTO 00000KT 10SM CLR 00/M04 A3028 RMK AO2;||F||223|ICAO-KTSP
USW00000479|TEHACHAPI MUNI AP|2009|12|17|07|15|35.1350|-118.4392|1219.5|||||||||||||||||||||||||999|C-Calm|9|FM16-SPECI|223|ICAO-KTSP|0.0|C-Calm|1|FM16-SPECI|223|ICAO-KTSP|||||||||||||||||||||||||||||||||||||||||||||||||||||||||||||||||||||||||||||||||||||||||||1025.1||1|FM16-SPECI|223|ICAO-KTSP|||||||||||||||||||||||||||||||||||||||||||MET055METAR KTSP 170715Z AUTO 00000KT 10SM CLR A3027 RMK AO2;||F||223|ICAO-KTSP
USW00000479|TEHACHAPI MUNI AP|2009|12|17|07|35|35.1350|-118.4392|1219.5|0.0||1|FM15-METAR|223|ICAO-KTSP|-4.0||1|FM15-METAR|223|ICAO-KTSP|||||||||||||999|C-Calm|9|FM15-METAR|223|ICAO-KTSP|0.0|C-Calm|1|FM15-METAR|223|ICAO-KTSP|||||||||||||75|Derived||FM15-METAR|223|ICAO-KTSP|||||||||||||||||||||||||||||||||||||||||||||||||||||||||||||||||||||||||1024.7||1|FM15-METAR|223|ICAO-KTSP|||||||||||||||||||||||||||||||||||||||||||MET062METAR KTSP 170735Z AUTO 00000KT 10SM CLR 00/M04 A3026 RMK AO2;||F||223|ICAO-KTSP
USW00000479|TEHACHAPI MUNI AP|2009|12|17|08|00|35.1350|-118.4392|1219.5|0.0||1|FM15-METAR|223|ICAO-KTSP|-3.0||1|FM15-METAR|223|ICAO-KTSP|||||||||||||999|C-Calm|9|FM15-METAR|223|ICAO-KTSP|0.0|C-Calm|1|FM15-METAR|223|ICAO-KTSP|||||||||||||80|Derived||FM15-METAR|223|ICAO-KTSP|||||||||||||||||||||||||||||||||||||||||||||||||||||||||||||||||||||||||1025.1||1|FM15-METAR|223|ICAO-KTSP|||||||||||||||||||||||||||||||||||||||||||MET062METAR KTSP 170755Z AUTO 00000KT 10SM CLR 00/M03 A3027 RMK AO2;||F||223|ICAO-KTSP
USW00000479|TEHACHAPI MUNI AP|2009|12|17|08|15|35.1350|-118.4392|1219.5|0.0||1|FM15-METAR|223|ICAO-KTSP|-3.0||1|FM15-METAR|223|ICAO-KTSP|||||||||||||999|C-Calm|9|FM15-METAR|223|ICAO-KTSP|0.0|C-Calm|1|FM15-METAR|223|ICAO-KTSP|||||||||||||80|Derived||FM15-METAR|223|ICAO-KTSP|||||||||||||||||||||||||||||||||||||||||||||||||||||||||||||||||||||||||1025.1||1|FM15-METAR|223|ICAO-KTSP|||||||||||||||||||||||||||||||||||||||||||MET062METAR KTSP 170815Z AUTO 00000KT 10SM CLR 00/M03 A3027 RMK AO2;||F||223|ICAO-KTSP
USW00000479|TEHACHAPI MUNI AP|2009|12|17|08|35|35.1350|-118.4392|1219.5|0.0||1|FM15-METAR|223|ICAO-KTSP|-4.0||1|FM15-METAR|223|ICAO-KTSP|||||||||||||999|C-Calm|9|FM15-METAR|223|ICAO-KTSP|0.0|C-Calm|1|FM15-METAR|223|ICAO-KTSP|||||||||||||75|Derived||FM15-METAR|223|ICAO-KTSP|||||||||||||||||||||||||||||||||||||||||||||||||||||||||||||||||||||||||1025.1||1|FM15-METAR|223|ICAO-KTSP|||||||||||||||||||||||||||||||||||||||||||MET062METAR KTSP 170835Z AUTO 00000KT 10SM CLR 00/M04 A3027 RMK AO2;||F||223|ICAO-KTSP
USW00000479|TEHACHAPI MUNI AP|2009|12|17|09|00|35.1350|-118.4392|1219.5|0.0||1|FM15-METAR|223|ICAO-KTSP|-4.0||1|FM15-METAR|223|ICAO-KTSP|||||||||||||999|C-Calm|9|FM15-METAR|223|ICAO-KTSP|0.0|C-Calm|1|FM15-METAR|223|ICAO-KTSP|||||||||||||75|Derived||FM15-METAR|223|ICAO-KTSP|||||||||||||||||||||||||||||||||||||||||||||||||||||||||||||||||||||||||1025.1||1|FM15-METAR|223|ICAO-KTSP|||||||||||||||||||||||||||||||||||||||||||MET062METAR KTSP 170855Z AUTO 00000KT 10SM CLR 00/M04 A3027 RMK AO2;||F||223|ICAO-KTSP
USW00000479|TEHACHAPI MUNI AP|2009|12|17|09|15|35.1350|-118.4392|1219.5|-2.0||1|FM15-METAR|223|ICAO-KTSP|-4.0||1|FM15-METAR|223|ICAO-KTSP|||||||||||||999|C-Calm|9|FM15-METAR|223|ICAO-KTSP|0.0|C-Calm|1|FM15-METAR|223|ICAO-KTSP|||||||||||||86|Derived||FM15-METAR|223|ICAO-KTSP|||||||||||||||||||||||||||||||||||||||||||||||||||||||||||||||||||||||||1024.7||1|FM15-METAR|223|ICAO-KTSP|||||||||||||||||||||||||||||||||||||||||||MET063METAR KTSP 170915Z AUTO 00000KT 10SM CLR M02/M04 A3026 RMK AO2;||F||223|ICAO-KTSP
USW00000479|TEHACHAPI MUNI AP|2009|12|17|09|35|35.1350|-118.4392|1219.5|0.0||1|FM15-METAR|223|ICAO-KTSP|-4.0||1|FM15-METAR|223|ICAO-KTSP|||||||||||||999|C-Calm|9|FM15-METAR|223|ICAO-KTSP|0.0|C-Calm|1|FM15-METAR|223|ICAO-KTSP|||||||||||||75|Derived||FM15-METAR|223|ICAO-KTSP|||||||||||||||||||||||||||||||||||||||||||||||||||||||||||||||||||||||||1024.7||1|FM15-METAR|223|ICAO-KTSP|||||||||||||||||||||||||||||||||||||||||||MET062METAR KTSP 170935Z AUTO 00000KT 10SM CLR 00/M04 A3026 RMK AO2;||F||223|ICAO-KTSP
USW00000479|TEHACHAPI MUNI AP|2009|12|17|10|00|35.1350|-118.4392|1219.5|0.0||1|FM15-METAR|223|ICAO-KTSP|-4.0||1|FM15-METAR|223|ICAO-KTSP|||||||||||||120|N-Normal|1|FM15-METAR|223|ICAO-KTSP|3.1|N-Normal|1|FM15-METAR|223|ICAO-KTSP|||||||||||||75|Derived||FM15-METAR|223|ICAO-KTSP|||||||||||||||||||||||||||||||||||||||||||||||||||||||||||||||||||||||||1024.7||1|FM15-METAR|223|ICAO-KTSP|||||||||||||||||||||||||||||||||||||||||||MET062METAR KTSP 170955Z AUTO 12006KT 10SM CLR 00/M04 A3026 RMK AO2;||F||223|ICAO-KTSP
USW00000479|TEHACHAPI MUNI AP|2009|12|17|10|15|35.1350|-118.4392|1219.5|-1.0||1|FM15-METAR|223|ICAO-KTSP|-4.0||1|FM15-METAR|223|ICAO-KTSP|||||||||||||120|N-Normal|1|FM15-METAR|223|ICAO-KTSP|2.1|N-Normal|1|FM15-METAR|223|ICAO-KTSP|||||||||||||80|Derived||FM15-METAR|223|ICAO-KTSP|||||||||||||||||||||||||||||||||||||||||||||||||||||||||||||||||||||||||1024.7||1|FM15-METAR|223|ICAO-KTSP|||||||||||||||||||||||||||||||||||||||||||MET063METAR KTSP 171015Z AUTO 12004KT 10SM CLR M01/M04 A3026 RMK AO2;||F||223|ICAO-KTSP
USW00000479|TEHACHAPI MUNI AP|2009|12|17|10|35|35.1350|-118.4392|1219.5|0.0||1|FM15-METAR|223|ICAO-KTSP|-4.0||1|FM15-METAR|223|ICAO-KTSP|||||||||||||999|C-Calm|9|FM15-METAR|223|ICAO-KTSP|0.0|C-Calm|1|FM15-METAR|223|ICAO-KTSP|||||||||||||75|Derived||FM15-METAR|223|ICAO-KTSP|||||||||||||||||||||||||||||||||||||||||||||||||||||||||||||||||||||||||1024.4||1|FM15-METAR|223|ICAO-KTSP|||||||||||||||||||||||||||||||||||||||||||MET062METAR KTSP 171035Z AUTO 00000KT 10SM CLR 00/M04 A3025 RMK AO2;||F||223|ICAO-KTSP
USW00000479|TEHACHAPI MUNI AP|2009|12|17|11|00|35.1350|-118.4392|1219.5|0.0||1|FM15-METAR|223|ICAO-KTSP|-4.0||1|FM15-METAR|223|ICAO-KTSP|||||||||||||999|C-Calm|9|FM15-METAR|223|ICAO-KTSP|0.0|C-Calm|1|FM15-METAR|223|ICAO-KTSP|||||||||||||75|Derived||FM15-METAR|223|ICAO-KTSP|||||||||||||||||||||||||||||||||||||||||||||||||||||||||||||||||||||||||1024.4||1|FM15-METAR|223|ICAO-KTSP|||||||||||||||||||||||||||||||||||||||||||MET062METAR KTSP 171055Z AUTO 00000KT 10SM CLR 00/M04 A3025 RMK AO2;||F||223|ICAO-KTSP
USW00000479|TEHACHAPI MUNI AP|2009|12|17|11|15|35.1350|-118.4392|1219.5|-1.0||1|FM15-METAR|223|ICAO-KTSP|-4.0||1|FM15-METAR|223|ICAO-KTSP|||||||||||||999|C-Calm|9|FM15-METAR|223|ICAO-KTSP|0.0|C-Calm|1|FM15-METAR|223|ICAO-KTSP|||||||||||||80|Derived||FM15-METAR|223|ICAO-KTSP|||||||||||||||||||||||||||||||||||||||||||||||||||||||||||||||||||||||||1024.4||1|FM15-METAR|223|ICAO-KTSP|||||||||||||||||||||||||||||||||||||||||||MET063METAR KTSP 171115Z AUTO 00000KT 10SM CLR M01/M04 A3025 RMK AO2;||F||223|ICAO-KTSP
USW00000479|TEHACHAPI MUNI AP|2009|12|17|11|35|35.1350|-118.4392|1219.5|-2.0||1|FM15-METAR|223|ICAO-KTSP|-5.0||1|FM15-METAR|223|ICAO-KTSP|||||||||||||999|C-Calm|9|FM15-METAR|223|ICAO-KTSP|0.0|C-Calm|1|FM15-METAR|223|ICAO-KTSP|||||||||||||80|Derived||FM15-METAR|223|ICAO-KTSP|||||||||||||||||||||||||||||||||||||||||||||||||||||||||||||||||||||||||1024.4||1|FM15-METAR|223|ICAO-KTSP|||||||||||||||||||||||||||||||||||||||||||MET063METAR KTSP 171135Z AUTO 00000KT 10SM CLR M02/M05 A3025 RMK AO2;||F||223|ICAO-KTSP
USW00000479|TEHACHAPI MUNI AP|2009|12|17|12|00|35.1350|-118.4392|1219.5|-1.0||1|FM15-METAR|223|ICAO-KTSP|-5.0||1|FM15-METAR|223|ICAO-KTSP|||||||||||||999|C-Calm|9|FM15-METAR|223|ICAO-KTSP|0.0|C-Calm|1|FM15-METAR|223|ICAO-KTSP|||||||||||||75|Derived||FM15-METAR|223|ICAO-KTSP|||||||||||||||||||||||||||||||||||||||||||||||||||||||||||||||||||||||||1024.0||1|FM15-METAR|223|ICAO-KTSP|||||||||||||||||||||||||||||||||||||||||||MET063METAR KTSP 171155Z AUTO 00000KT 10SM CLR M01/M05 A3024 RMK AO2;||F||223|ICAO-KTSP
USW00000479|TEHACHAPI MUNI AP|2009|12|17|12|15|35.1350|-118.4392|1219.5|-2.0||1|FM15-METAR|223|ICAO-KTSP|-5.0||1|FM15-METAR|223|ICAO-KTSP|||||||||||||999|C-Calm|9|FM15-METAR|223|ICAO-KTSP|0.0|C-Calm|1|FM15-METAR|223|ICAO-KTSP|||||||||||||80|Derived||FM15-METAR|223|ICAO-KTSP|||||||||||||||||||||||||||||||||||||||||||||||||||||||||||||||||||||||||1024.0||1|FM15-METAR|223|ICAO-KTSP|||||||||||||||||||||||||||||||||||||||||||MET063METAR KTSP 171215Z AUTO 00000KT 10SM CLR M02/M05 A3024 RMK AO2;||F||223|ICAO-KTSP
USW00000479|TEHACHAPI MUNI AP|2009|12|17|12|35|35.1350|-118.4392|1219.5|-2.0||1|FM15-METAR|223|ICAO-KTSP|-5.0||1|FM15-METAR|223|ICAO-KTSP|||||||||||||999|C-Calm|9|FM15-METAR|223|ICAO-KTSP|0.0|C-Calm|1|FM15-METAR|223|ICAO-KTSP|||||||||||||80|Derived||FM15-METAR|223|ICAO-KTSP|||||||||||||||||||||||||||||||||||||||||||||||||||||||||||||||||||||||||1024.0||1|FM15-METAR|223|ICAO-KTSP|||||||||||||||||||||||||||||||||||||||||||MET063METAR KTSP 171235Z AUTO 00000KT 10SM CLR M02/M05 A3024 RMK AO2;||F||223|ICAO-KTSP
USW00000479|TEHACHAPI MUNI AP|2009|12|17|13|00|35.1350|-118.4392|1219.5|-2.0||1|FM15-METAR|223|ICAO-KTSP|-4.0||1|FM15-METAR|223|ICAO-KTSP|||||||||||||999|C-Calm|9|FM15-METAR|223|ICAO-KTSP|0.0|C-Calm|1|FM15-METAR|223|ICAO-KTSP|||||||||||||86|Derived||FM15-METAR|223|ICAO-KTSP|||||||||||||||||||||||||||||||||||||||||||||||||||||||||||||||||||||||||1024.0||1|FM15-METAR|223|ICAO-KTSP|||||||||||||||||||||||||||||||||||||||||||MET063METAR KTSP 171255Z AUTO 00000KT 10SM CLR M02/M04 A3024 RMK AO2;||F||223|ICAO-KTSP
USW00000479|TEHACHAPI MUNI AP|2009|12|17|13|15|35.1350|-118.4392|1219.5|-2.0||1|FM15-METAR|223|ICAO-KTSP|-5.0||1|FM15-METAR|223|ICAO-KTSP|||||||||||||999|C-Calm|9|FM15-METAR|223|ICAO-KTSP|0.0|C-Calm|1|FM15-METAR|223|ICAO-KTSP|||||||||||||80|Derived||FM15-METAR|223|ICAO-KTSP|||||||||||||||||||||||||||||||||||||||||||||||||||||||||||||||||||||||||1024.4||1|FM15-METAR|223|ICAO-KTSP|||||||||||||||||||||||||||||||||||||||||||MET063METAR KTSP 171315Z AUTO 00000KT 10SM CLR M02/M05 A3025 RMK AO2;||F||223|ICAO-KTSP
USW00000479|TEHACHAPI MUNI AP|2009|12|17|13|35|35.1350|-118.4392|1219.5|-3.0||1|FM15-METAR|223|ICAO-KTSP|-5.0||1|FM15-METAR|223|ICAO-KTSP|||||||||||||999|C-Calm|9|FM15-METAR|223|ICAO-KTSP|0.0|C-Calm|1|FM15-METAR|223|ICAO-KTSP|||||||||||||86|Derived||FM15-METAR|223|ICAO-KTSP|||||||||||||||||||||||||||||||||||||||||||||||||||||||||||||||||||||||||1024.4||1|FM15-METAR|223|ICAO-KTSP|||||||||||||||||||||||||||||||||||||||||||MET063METAR KTSP 171335Z AUTO 00000KT 10SM CLR M03/M05 A3025 RMK AO2;||F||223|ICAO-KTSP
USW00000479|TEHACHAPI MUNI AP|2009|12|17|14|00|35.1350|-118.4392|1219.5|-2.0||1|FM15-METAR|223|ICAO-KTSP|-5.0||1|FM15-METAR|223|ICAO-KTSP|||||||||||||999|C-Calm|9|FM15-METAR|223|ICAO-KTSP|0.0|C-Calm|1|FM15-METAR|223|ICAO-KTSP|||||||||||||80|Derived||FM15-METAR|223|ICAO-KTSP|||||||||||||||||||||||||||||||||||||||||||||||||||||||||||||||||||||||||1024.4||1|FM15-METAR|223|ICAO-KTSP|||||||||||||||||||||||||||||||||||||||||||MET063METAR KTSP 171355Z AUTO 00000KT 10SM CLR M02/M05 A3025 RMK AO2;||F||223|ICAO-KTSP
USW00000479|TEHACHAPI MUNI AP|2009|12|17|14|15|35.1350|-118.4392|1219.5|-2.0||1|FM15-METAR|223|ICAO-KTSP|-5.0||1|FM15-METAR|223|ICAO-KTSP|||||||||||||999|C-Calm|9|FM15-METAR|223|ICAO-KTSP|0.0|C-Calm|1|FM15-METAR|223|ICAO-KTSP|||||||||||||80|Derived||FM15-METAR|223|ICAO-KTSP|||||||||||||||||||||||||||||||||||||||||||||||||||||||||||||||||||||||||1024.4||1|FM15-METAR|223|ICAO-KTSP|||||||||||||||||||||||||||||||||||||||||||MET063METAR KTSP 171415Z AUTO 00000KT 10SM CLR M02/M05 A3025 RMK AO2;||F||223|ICAO-KTSP
USW00000479|TEHACHAPI MUNI AP|2009|12|17|14|35|35.1350|-118.4392|1219.5|-3.0||1|FM15-METAR|223|ICAO-KTSP|-5.0||1|FM15-METAR|223|ICAO-KTSP|||||||||||||999|C-Calm|9|FM15-METAR|223|ICAO-KTSP|0.0|C-Calm|1|FM15-METAR|223|ICAO-KTSP|||||||||||||86|Derived||FM15-METAR|223|ICAO-KTSP|||||||||||||||||||||||||||||||||||||||||||||||||||||||||||||||||||||||||1024.4||1|FM15-METAR|223|ICAO-KTSP|||||||||||||||||||||||||||||||||||||||||||MET063METAR KTSP 171435Z AUTO 00000KT 10SM CLR M03/M05 A3025 RMK AO2;||F||223|ICAO-KTSP
USW00000479|TEHACHAPI MUNI AP|2009|12|17|15|00|35.1350|-118.4392|1219.5|-2.0||1|FM15-METAR|223|ICAO-KTSP|-4.0||1|FM15-METAR|223|ICAO-KTSP|||||||||||||999|C-Calm|9|FM15-METAR|223|ICAO-KTSP|0.0|C-Calm|1|FM15-METAR|223|ICAO-KTSP|||||||||||||86|Derived||FM15-METAR|223|ICAO-KTSP|||||||||||||||||||||||||||||||||||||||||||||||||||||||||||||||||||||||||1024.4||1|FM15-METAR|223|ICAO-KTSP|||||||||||||||||||||||||||||||||||||||||||MET063METAR KTSP 171455Z AUTO 00000KT 10SM CLR M02/M04 A3025 RMK AO2;||F||223|ICAO-KTSP
USW00000479|TEHACHAPI MUNI AP|2009|12|17|15|15|35.1350|-118.4392|1219.5|-1.0||1|FM15-METAR|223|ICAO-KTSP|-4.0||1|FM15-METAR|223|ICAO-KTSP|||||||||||||999|C-Calm|9|FM15-METAR|223|ICAO-KTSP|0.0|C-Calm|1|FM15-METAR|223|ICAO-KTSP|||||||||||||80|Derived||FM15-METAR|223|ICAO-KTSP|||||||||||||||||||||||||||||||||||||||||||||||||||||||||||||||||||||||||1024.4||1|FM15-METAR|223|ICAO-KTSP|||||||||||||||||||||||||||||||||||||||||||MET063METAR KTSP 171515Z AUTO 00000KT 10SM CLR M01/M04 A3025 RMK AO2;||F||223|ICAO-KTSP
USW00000479|TEHACHAPI MUNI AP|2009|12|17|15|35|35.1350|-118.4392|1219.5|-2.0||1|FM15-METAR|223|ICAO-KTSP|-4.0||1|FM15-METAR|223|ICAO-KTSP|||||||||||||999|C-Calm|9|FM15-METAR|223|ICAO-KTSP|0.0|C-Calm|1|FM15-METAR|223|ICAO-KTSP|||||||||||||86|Derived||FM15-METAR|223|ICAO-KTSP|||||||||||||||||||||||||||||||||||||||||||||||||||||||||||||||||||||||||1024.4||1|FM15-METAR|223|ICAO-KTSP|||||||||||||||||||||||||||||||||||||||||||MET063METAR KTSP 171535Z AUTO 00000KT 10SM CLR M02/M04 A3025 RMK AO2;||F||223|ICAO-KTSP
USW00000479|TEHACHAPI MUNI AP|2009|12|17|16|00|35.1350|-118.4392|1219.5|0.0||1|FM15-METAR|223|ICAO-KTSP|-3.0||1|FM15-METAR|223|ICAO-KTSP|||||||||||||110|N-Normal|1|FM15-METAR|223|ICAO-KTSP|1.5|N-Normal|1|FM15-METAR|223|ICAO-KTSP|||||||||||||80|Derived||FM15-METAR|223|ICAO-KTSP|||||||||||||||||||||||||||||||||||||||||||||||||||||||||||||||||||||||||1024.4||1|FM15-METAR|223|ICAO-KTSP|||||||||||||||||||||||||||||||||||||||||||MET062METAR KTSP 171555Z AUTO 11003KT 10SM CLR 00/M03 A3025 RMK AO2;||F||223|ICAO-KTSP
USW00000479|TEHACHAPI MUNI AP|2009|12|17|16|15|35.1350|-118.4392|1219.5|2.0||1|FM15-METAR|223|ICAO-KTSP|-3.0||1|FM15-METAR|223|ICAO-KTSP|||||||||||||110|N-Normal|1|FM15-METAR|223|ICAO-KTSP|1.5|N-Normal|1|FM15-METAR|223|ICAO-KTSP|||||||||||||70|Derived||FM15-METAR|223|ICAO-KTSP|||||||||||||||||||||||||||||||||||||||||||||||||||||||||||||||||||||||||1024.7||1|FM15-METAR|223|ICAO-KTSP|||||||||||||||||||||||||||||||||||||||||||MET062METAR KTSP 171615Z AUTO 11003KT 10SM CLR 02/M03 A3026 RMK AO2;||F||223|ICAO-KTSP
USW00000479|TEHACHAPI MUNI AP|2009|12|17|16|35|35.1350|-118.4392|1219.5|3.0||1|FM15-METAR|223|ICAO-KTSP|-2.0||1|FM15-METAR|223|ICAO-KTSP|||||||||||||120|N-Normal|1|FM15-METAR|223|ICAO-KTSP|2.1|N-Normal|1|FM15-METAR|223|ICAO-KTSP|||||||||||||70|Derived||FM15-METAR|223|ICAO-KTSP|||||||||||||||||||||||||||||||||||||||||||||||||||||||||||||||||||||||||1025.1||1|FM15-METAR|223|ICAO-KTSP|||||||||||||||||||||||||||||||||||||||||||MET062METAR KTSP 171635Z AUTO 12004KT 10SM CLR 03/M02 A3027 RMK AO2;||F||223|ICAO-KTSP
USW00000479|TEHACHAPI MUNI AP|2009|12|17|17|00|35.1350|-118.4392|1219.5|4.0||1|FM15-METAR|223|ICAO-KTSP|-3.0||1|FM15-METAR|223|ICAO-KTSP|||||||||||||999|C-Calm|9|FM15-METAR|223|ICAO-KTSP|0.0|C-Calm|1|FM15-METAR|223|ICAO-KTSP|||||||||||||61|Derived||FM15-METAR|223|ICAO-KTSP|||||||||||||||||||||||||||||||||||||||||||||||||||||||||||||||||||||||||1024.7||1|FM15-METAR|223|ICAO-KTSP|||||||||||||||||||||||||||||||||||||||||||MET062METAR KTSP 171655Z AUTO 00000KT 10SM CLR 04/M03 A3026 RMK AO2;||F||223|ICAO-KTSP
USW00000479|TEHACHAPI MUNI AP|2009|12|17|17|15|35.1350|-118.4392|1219.5|5.0||1|FM15-METAR|223|ICAO-KTSP|-1.0||1|FM15-METAR|223|ICAO-KTSP|||||||||||||999|C-Calm|9|FM15-METAR|223|ICAO-KTSP|0.0|C-Calm|1|FM15-METAR|223|ICAO-KTSP|||||||||||||66|Derived||FM15-METAR|223|ICAO-KTSP|||||||||||||||||||||||||||||||||||||||||||||||||||||||||||||||||||||||||1025.1||1|FM15-METAR|223|ICAO-KTSP|||||||||||||||||||||||||||||||||||||||||||MET062METAR KTSP 171715Z AUTO 00000KT 10SM CLR 05/M01 A3027 RMK AO2;||F||223|ICAO-KTSP
USW00000479|TEHACHAPI MUNI AP|2009|12|17|17|35|35.1350|-118.4392|1219.5|6.0||1|FM15-METAR|223|ICAO-KTSP|-2.0||1|FM15-METAR|223|ICAO-KTSP|||||||||||||999|C-Calm|9|FM15-METAR|223|ICAO-KTSP|0.0|C-Calm|1|FM15-METAR|223|ICAO-KTSP|||||||||||||57|Derived||FM15-METAR|223|ICAO-KTSP|||||||||||||||||||||||||||||||||||||||||||||||||||||||||||||||||||||||||1025.1||1|FM15-METAR|223|ICAO-KTSP|||||||||||||||||||||||||||||||||||||||||||MET062METAR KTSP 171735Z AUTO 00000KT 10SM CLR 06/M02 A3027 RMK AO2;||F||223|ICAO-KTSP
USW00000479|TEHACHAPI MUNI AP|2009|12|17|18|00|35.1350|-118.4392|1219.5|7.0||1|FM15-METAR|223|ICAO-KTSP|-2.0||1|FM15-METAR|223|ICAO-KTSP|||||||||||||999|C-Calm|9|FM15-METAR|223|ICAO-KTSP|0.0|C-Calm|1|FM15-METAR|223|ICAO-KTSP|||||||||||||53|Derived||FM15-METAR|223|ICAO-KTSP|||||||||||||||||||||||||||||||||||||||||||||||||||||||||||||||||||||||||1025.1||1|FM15-METAR|223|ICAO-KTSP|||||||||||||||||||||||||||||||||||||||||||MET062METAR KTSP 171755Z AUTO 00000KT 10SM CLR 07/M02 A3027 RMK AO2;||F||223|ICAO-KTSP
USW00000479|TEHACHAPI MUNI AP|2009|12|17|18|15|35.1350|-118.4392|1219.5|8.0||1|FM15-METAR|223|ICAO-KTSP|-2.0||1|FM15-METAR|223|ICAO-KTSP|||||||||||||999|C-Calm|9|FM15-METAR|223|ICAO-KTSP|0.0|C-Calm|1|FM15-METAR|223|ICAO-KTSP|||||||||||||50|Derived||FM15-METAR|223|ICAO-KTSP|||||||||||||||||||||||||||||||||||||||||||||||||||||||||||||||||||||||||1024.7||1|FM15-METAR|223|ICAO-KTSP|||||||||||||||||||||||||||||||||||||||||||MET062METAR KTSP 171815Z AUTO 00000KT 10SM CLR 08/M02 A3026 RMK AO2;||F||223|ICAO-KTSP
USW00000479|TEHACHAPI MUNI AP|2009|12|17|18|35|35.1350|-118.4392|1219.5|9.0||1|FM15-METAR|223|ICAO-KTSP|-2.0||1|FM15-METAR|223|ICAO-KTSP|||||||||||||999|C-Calm|9|FM15-METAR|223|ICAO-KTSP|0.0|C-Calm|1|FM15-METAR|223|ICAO-KTSP|||||||||||||46|Derived||FM15-METAR|223|ICAO-KTSP|||||||||||||||||||||||||||||||||||||||||||||||||||||||||||||||||||||||||1024.7||1|FM15-METAR|223|ICAO-KTSP|||||||||||||||||||||||||||||||||||||||||||MET062METAR KTSP 171835Z AUTO 00000KT 10SM CLR 09/M02 A3026 RMK AO2;||F||223|ICAO-KTSP
USW00000479|TEHACHAPI MUNI AP|2009|12|17|19|00|35.1350|-118.4392|1219.5|10.0||1|FM15-METAR|223|ICAO-KTSP|0.0||1|FM15-METAR|223|ICAO-KTSP|||||||||||||999|C-Calm|9|FM15-METAR|223|ICAO-KTSP|0.0|C-Calm|1|FM15-METAR|223|ICAO-KTSP|||||||||||||50|Derived||FM15-METAR|223|ICAO-KTSP|||||||||||||||||||||||||||||||||||||||||||||||||||||||||||||||||||||||||1024.4||1|FM15-METAR|223|ICAO-KTSP|||||||||||||||||||||||||||||||||||||||||||MET061METAR KTSP 171855Z AUTO 00000KT 10SM CLR 10/00 A3025 RMK AO2;||F||223|ICAO-KTSP
USW00000479|TEHACHAPI MUNI AP|2009|12|17|19|15|35.1350|-118.4392|1219.5|12.0||1|FM15-METAR|223|ICAO-KTSP|-3.0||1|FM15-METAR|223|ICAO-KTSP|||||||||||||090|N-Normal|1|FM15-METAR|223|ICAO-KTSP|3.1|N-Normal|1|FM15-METAR|223|ICAO-KTSP|||||||||||||35|Derived||FM15-METAR|223|ICAO-KTSP|||||||||||||||||||||||||||||||||||||||||||||||||||||||||||||||||||||||||1023.7||1|FM15-METAR|223|ICAO-KTSP|||||||||||||||||||||||||||||||||||||||||||MET062METAR KTSP 171915Z AUTO 09006KT 10SM CLR 12/M03 A3023 RMK AO2;||F||223|ICAO-KTSP
USW00000479|TEHACHAPI MUNI AP|2009|12|17|19|35|35.1350|-118.4392|1219.5|13.0||1|FM15-METAR|223|ICAO-KTSP|-3.0||1|FM15-METAR|223|ICAO-KTSP|||||||||||||090|N-Normal|1|FM15-METAR|223|ICAO-KTSP|3.6|N-Normal|1|FM15-METAR|223|ICAO-KTSP|||||||||||||33|Derived||FM15-METAR|223|ICAO-KTSP|||||||||||||||||||||||||||||||||||||||||||||||||||||||||||||||||||||||||1023.4||1|FM15-METAR|223|ICAO-KTSP|||||||||||||||||||||||||||||||||||||||||||MET062METAR KTSP 171935Z AUTO 09007KT 10SM CLR 13/M03 A3022 RMK AO2;||F||223|ICAO-KTSP
USW00000479|TEHACHAPI MUNI AP|2009|12|17|20|00|35.1350|-118.4392|1219.5|13.0||1|FM15-METAR|223|ICAO-KTSP|-2.0||1|FM15-METAR|223|ICAO-KTSP|||||||||||||080|N-Normal|1|FM15-METAR|223|ICAO-KTSP|4.6|N-Normal|1|FM15-METAR|223|ICAO-KTSP|||||||||||||36|Derived||FM15-METAR|223|ICAO-KTSP|||||||||||||||||||||||||||||||||||||||||||||||||||||||||||||||||||||||||1023.0||1|FM15-METAR|223|ICAO-KTSP|||||||||||||||||||||||||||||||||||||||||||MET062METAR KTSP 171955Z AUTO 08009KT 10SM CLR 13/M02 A3021 RMK AO2;||F||223|ICAO-KTSP
USW00000479|TEHACHAPI MUNI AP|2009|12|17|20|15|35.1350|-118.4392|1219.5|14.0||1|FM15-METAR|223|ICAO-KTSP|-2.0||1|FM15-METAR|223|ICAO-KTSP|||||||||||||100|N-Normal|1|FM15-METAR|223|ICAO-KTSP|4.1|N-Normal|1|FM15-METAR|223|ICAO-KTSP|||||||||||||33|Derived||FM15-METAR|223|ICAO-KTSP|||||||||||||||||||||||||||||||||||||||||||||||||||||||||||||||||||||||||1022.7||1|FM15-METAR|223|ICAO-KTSP|||||||||||||||||||||||||||||||||||||||||||MET062METAR KTSP 172015Z AUTO 10008KT 10SM CLR 14/M02 A3020 RMK AO2;||F||223|ICAO-KTSP
USW00000479|TEHACHAPI MUNI AP|2009|12|17|20|35|35.1350|-118.4392|1219.5|14.0||1|FM15-METAR|223|ICAO-KTSP|-2.0||1|FM15-METAR|223|ICAO-KTSP|||||||||||||100|N-Normal|1|FM15-METAR|223|ICAO-KTSP|4.1|N-Normal|1|FM15-METAR|223|ICAO-KTSP|||||||||||||33|Derived||FM15-METAR|223|ICAO-KTSP|||||||||||||||||||||||||||||||||||||||||||||||||||||||||||||||||||||||||1022.7||1|FM15-METAR|223|ICAO-KTSP|||||||||||||||||||||||||||||||||||||||||||MET061METAR KTSP 172035Z AUTO 10008KT 9SM CLR 14/M02 A3020 RMK AO2;||F||223|ICAO-KTSP
USW00000479|TEHACHAPI MUNI AP|2009|12|17|21|00|35.1350|-118.4392|1219.5|15.0||1|FM15-METAR|223|ICAO-KTSP|-2.0||1|FM15-METAR|223|ICAO-KTSP|||||||||||||120|N-Normal|1|FM15-METAR|223|ICAO-KTSP|3.1|N-Normal|1|FM15-METAR|223|ICAO-KTSP|||||||||||||31|Derived||FM15-METAR|223|ICAO-KTSP|||||||||||||||||||||||||||||||||||||||||||||||||||||||||||||||||||||||||1022.4||1|FM15-METAR|223|ICAO-KTSP|||||||||||||||||||||||||||||||||||||||||||MET062METAR KTSP 172055Z AUTO 12006KT 10SM CLR 15/M02 A3019 RMK AO2;||F||223|ICAO-KTSP
USW00000479|TEHACHAPI MUNI AP|2009|12|17|21|15|35.1350|-118.4392|1219.5|15.0||1|FM15-METAR|223|ICAO-KTSP|-2.0||1|FM15-METAR|223|ICAO-KTSP|||||||||||||130|N-Normal|1|FM15-METAR|223|ICAO-KTSP|4.1|N-Normal|1|FM15-METAR|223|ICAO-KTSP|||||||||||||31|Derived||FM15-METAR|223|ICAO-KTSP|||||||||||||||||||||||||||||||||||||||||||||||||||||||||||||||||||||||||1022.0||1|FM15-METAR|223|ICAO-KTSP|||||||||||||||||||||||||||||||||||||||||||MET062METAR KTSP 172115Z AUTO 13008KT 10SM CLR 15/M02 A3018 RMK AO2;||F||223|ICAO-KTSP
USW00000479|TEHACHAPI MUNI AP|2009|12|17|21|35|35.1350|-118.4392|1219.5|15.0||1|FM15-METAR|223|ICAO-KTSP|-2.0||1|FM15-METAR|223|ICAO-KTSP|||||||||||||130|N-Normal|1|FM15-METAR|223|ICAO-KTSP|2.6|N-Normal|1|FM15-METAR|223|ICAO-KTSP|||||||||||||31|Derived||FM15-METAR|223|ICAO-KTSP|||||||||||||||||||||||||||||||||||||||||||||||||||||||||||||||||||||||||1022.0||1|FM15-METAR|223|ICAO-KTSP|||||||||||||||||||||||||||||||||||||||||||MET061METAR KTSP 172135Z AUTO 13005KT 8SM CLR 15/M02 A3018 RMK AO2;||F||223|ICAO-KTSP
USW00000479|TEHACHAPI MUNI AP|2009|12|17|22|00|35.1350|-118.4392|1219.5|16.0||1|FM15-METAR|223|ICAO-KTSP|-2.0||1|FM15-METAR|223|ICAO-KTSP|||||||||||||110|N-Normal|1|FM15-METAR|223|ICAO-KTSP|2.6|N-Normal|1|FM15-METAR|223|ICAO-KTSP|||||||||||||29|Derived||FM15-METAR|223|ICAO-KTSP|||||||||||||||||||||||||||||||||||||||||||||||||||||||||||||||||||||||||1021.7||1|FM15-METAR|223|ICAO-KTSP|||||||||||||||||||||||||||||||||||||||||||MET061METAR KTSP 172155Z AUTO 11005KT 8SM CLR 16/M02 A3017 RMK AO2;||F||223|ICAO-KTSP
USW00000479|TEHACHAPI MUNI AP|2009|12|17|22|15|35.1350|-118.4392|1219.5|16.0||1|FM15-METAR|223|ICAO-KTSP|-3.0||1|FM15-METAR|223|ICAO-KTSP|||||||||||||999|C-Calm|9|FM15-METAR|223|ICAO-KTSP|0.0|C-Calm|1|FM15-METAR|223|ICAO-KTSP|||||||||||||27|Derived||FM15-METAR|223|ICAO-KTSP|||||||||||||||||||||||||||||||||||||||||||||||||||||||||||||||||||||||||1021.7||1|FM15-METAR|223|ICAO-KTSP|||||||||||||||||||||||||||||||||||||||||||MET061METAR KTSP 172215Z AUTO 00000KT 9SM CLR 16/M03 A3017 RMK AO2;||F||223|ICAO-KTSP
USW00000479|TEHACHAPI MUNI AP|2009|12|17|22|35|35.1350|-118.4392|1219.5|15.0||1|FM15-METAR|223|ICAO-KTSP|-3.0||1|FM15-METAR|223|ICAO-KTSP|||||||||||||999|C-Calm|9|FM15-METAR|223|ICAO-KTSP|0.0|C-Calm|1|FM15-METAR|223|ICAO-KTSP|||||||||||||29|Derived||FM15-METAR|223|ICAO-KTSP|||||||||||||||||||||||||||||||||||||||||||||||||||||||||||||||||||||||||1022.0||1|FM15-METAR|223|ICAO-KTSP|||||||||||||||||||||||||||||||||||||||||||MET061METAR KTSP 172235Z AUTO 00000KT 9SM CLR 15/M03 A3018 RMK AO2;||F||223|ICAO-KTSP
USW00000479|TEHACHAPI MUNI AP|2009|12|17|23|00|35.1350|-118.4392|1219.5|16.0||1|FM15-METAR|223|ICAO-KTSP|-3.0||1|FM15-METAR|223|ICAO-KTSP|||||||||||||999|C-Calm|9|FM15-METAR|223|ICAO-KTSP|0.0|C-Calm|1|FM15-METAR|223|ICAO-KTSP|||||||||||||27|Derived||FM15-METAR|223|ICAO-KTSP|||||||||||||||||||||||||||||||||||||||||||||||||||||||||||||||||||||||||1022.0||1|FM15-METAR|223|ICAO-KTSP|||||||||||||||||||||||||||||||||||||||||||MET062METAR KTSP 172255Z AUTO 00000KT 10SM CLR 16/M03 A3018 RMK AO2;||F||223|ICAO-KTSP
USW00000479|TEHACHAPI MUNI AP|2009|12|17|23|15|35.1350|-118.4392|1219.5|14.0||1|FM15-METAR|223|ICAO-KTSP|1.0||1|FM15-METAR|223|ICAO-KTSP|||||||||||||320|N-Normal|1|FM15-METAR|223|ICAO-KTSP|2.6|N-Normal|1|FM15-METAR|223|ICAO-KTSP|||||||||||||41|Derived||FM15-METAR|223|ICAO-KTSP|||||||||||||||||||||||||||||||||||||||||||||||||||||||||||||||||||||||||1022.4||1|FM15-METAR|223|ICAO-KTSP|||||||||||||||||||||||||||||||||||||||||||MET060METAR KTSP 172315Z AUTO 32005KT 8SM CLR 14/01 A3019 RMK AO2;||F||223|ICAO-KTSP
USW00000479|TEHACHAPI MUNI AP|2009|12|17|23|35|35.1350|-118.4392|1219.5|13.0||1|FM15-METAR|223|ICAO-KTSP|0.0||1|FM15-METAR|223|ICAO-KTSP|||||||||||||999|C-Calm|9|FM15-METAR|223|ICAO-KTSP|0.0|C-Calm|1|FM15-METAR|223|ICAO-KTSP|||||||||||||41|Derived||FM15-METAR|223|ICAO-KTSP|||||||||||||||||||||||||||||||||||||||||||||||||||||||||||||||||||||||||1022.4||1|FM15-METAR|223|ICAO-KTSP|||||||||||||||||||||||||||||||||||||||||||MET060METAR KTSP 172335Z AUTO 00000KT 8SM CLR 13/00 A3019 RMK AO2;||F||223|ICAO-KTSP
USW00000479|TEHACHAPI MUNI AP|2009|12|18|00|00|35.1350|-118.4392|1219.5|10.0||1|FM15-METAR|223|ICAO-KTSP|2.0||1|FM15-METAR|223|ICAO-KTSP|||||||||||||310|N-Normal|1|FM15-METAR|223|ICAO-KTSP|3.6|N-Normal|1|FM15-METAR|223|ICAO-KTSP|||||||||||||58|Derived||FM15-METAR|223|ICAO-KTSP|||||||||||||||||||||||||||||||||||||||||||HZ:04|HZ:04-Haze|1|FM15-METAR|223|ICAO-KTSP|||||||||||||||||||||||||1022.7||1|FM15-METAR|223|ICAO-KTSP|||||||||||||||||||||||||||||||||||||||||||MET063METAR KTSP 172355Z AUTO 31007KT 5SM HZ CLR 10/02 A3020 RMK AO2;||F||223|ICAO-KTSP
USW00000479|TEHACHAPI MUNI AP|2009|12|18|00|15|35.1350|-118.4392|1219.5|8.0||1|FM15-METAR|223|ICAO-KTSP|2.0||1|FM15-METAR|223|ICAO-KTSP|||||||||||||999|C-Calm|9|FM15-METAR|223|ICAO-KTSP|0.0|C-Calm|1|FM15-METAR|223|ICAO-KTSP|||||||||||||66|Derived||FM15-METAR|223|ICAO-KTSP|||||||||||||||||||||||||||||||||||||||||||HZ:04|HZ:04-Haze|1|FM15-METAR|223|ICAO-KTSP|||||||||||||||||||||||||1022.7||1|FM15-METAR|223|ICAO-KTSP|||||||||||||||||||||||||||||||||||||||||||MET063METAR KTSP 180015Z AUTO 00000KT 5SM HZ CLR 08/02 A3020 RMK AO2;||F||223|ICAO-KTSP
USW00000479|TEHACHAPI MUNI AP|2009|12|18|00|35|35.1350|-118.4392|1219.5|8.0||1|FM15-METAR|223|ICAO-KTSP|2.0||1|FM15-METAR|223|ICAO-KTSP|||||||||||||999|C-Calm|9|FM15-METAR|223|ICAO-KTSP|0.0|C-Calm|1|FM15-METAR|223|ICAO-KTSP|||||||||||||66|Derived||FM15-METAR|223|ICAO-KTSP|||||||||||||||||||||||||||||||||||||||||||HZ:04|HZ:04-Haze|1|FM15-METAR|223|ICAO-KTSP|||||||||||||||||||||||||1022.7||1|FM15-METAR|223|ICAO-KTSP|||||||||||||||||||||||||||||||||||||||||||MET063METAR KTSP 180035Z AUTO 00000KT 5SM HZ CLR 08/02 A3020 RMK AO2;||F||223|ICAO-KTSP
USW00000479|TEHACHAPI MUNI AP|2009|12|18|01|00|35.1350|-118.4392|1219.5|7.0||1|FM15-METAR|223|ICAO-KTSP|2.0||1|FM15-METAR|223|ICAO-KTSP|||||||||||||999|C-Calm|9|FM15-METAR|223|ICAO-KTSP|0.0|C-Calm|1|FM15-METAR|223|ICAO-KTSP|||||||||||||71|Derived||FM15-METAR|223|ICAO-KTSP|||||||||||||||||||||||||||||||||||||||||||HZ:04|HZ:04-Haze|1|FM15-METAR|223|ICAO-KTSP|||||||||||||||||||||||||1022.7||1|FM15-METAR|223|ICAO-KTSP|||||||||||||||||||||||||||||||||||||||||||MET063METAR KTSP 180055Z AUTO 00000KT 5SM HZ CLR 07/02 A3020 RMK AO2;||F||223|ICAO-KTSP
USW00000479|TEHACHAPI MUNI AP|2009|12|18|01|15|35.1350|-118.4392|1219.5|6.0||1|FM15-METAR|223|ICAO-KTSP|2.0||1|FM15-METAR|223|ICAO-KTSP|||||||||||||999|C-Calm|9|FM15-METAR|223|ICAO-KTSP|0.0|C-Calm|1|FM15-METAR|223|ICAO-KTSP|||||||||||||76|Derived||FM15-METAR|223|ICAO-KTSP|||||||||||||||||||||||||||||||||||||||||||HZ:04|HZ:04-Haze|1|FM15-METAR|223|ICAO-KTSP|||||||||||||||||||||||||1022.7||1|FM15-METAR|223|ICAO-KTSP|||||||||||||||||||||||||||||||||||||||||||MET063METAR KTSP 180115Z AUTO 00000KT 5SM HZ CLR 06/02 A3020 RMK AO2;||F||223|ICAO-KTSP
USW00000479|TEHACHAPI MUNI AP|2009|12|18|01|35|35.1350|-118.4392|1219.5|5.0||1|FM15-METAR|223|ICAO-KTSP|2.0||1|FM15-METAR|223|ICAO-KTSP|||||||||||||999|C-Calm|9|FM15-METAR|223|ICAO-KTSP|0.0|C-Calm|1|FM15-METAR|223|ICAO-KTSP|||||||||||||81|Derived||FM15-METAR|223|ICAO-KTSP|||||||||||||||||||||||||||||||||||||||||||HZ:04|HZ:04-Haze|1|FM15-METAR|223|ICAO-KTSP|||||||||||||||||||||||||1023.0||1|FM15-METAR|223|ICAO-KTSP|||||||||||||||||||||||||||||||||||||||||||MET063METAR KTSP 180135Z AUTO 00000KT 5SM HZ CLR 05/02 A3021 RMK AO2;||F||223|ICAO-KTSP
USW00000479|TEHACHAPI MUNI AP|2009|12|18|02|00|35.1350|-118.4392|1219.5|6.0||1|FM15-METAR|223|ICAO-KTSP|2.0||1|FM15-METAR|223|ICAO-KTSP|||||||||||||999|C-Calm|9|FM15-METAR|223|ICAO-KTSP|0.0|C-Calm|1|FM15-METAR|223|ICAO-KTSP|||||||||||||76|Derived||FM15-METAR|223|ICAO-KTSP|||||||||||||||||||||||||||||||||||||||||||HZ:04|HZ:04-Haze|1|FM15-METAR|223|ICAO-KTSP|||||||||||||||||||||||||1023.0||1|FM15-METAR|223|ICAO-KTSP|||||||||||||||||||||||||||||||||||||||||||MET063METAR KTSP 180155Z AUTO 00000KT 5SM HZ CLR 06/02 A3021 RMK AO2;||F||223|ICAO-KTSP
USW00000479|TEHACHAPI MUNI AP|2009|12|18|02|15|35.1350|-118.4392|1219.5|4.0||1|FM15-METAR|223|ICAO-KTSP|0.0||1|FM15-METAR|223|ICAO-KTSP|||||||||||||999|C-Calm|9|FM15-METAR|223|ICAO-KTSP|0.0|C-Calm|1|FM15-METAR|223|ICAO-KTSP|||||||||||||75|Derived||FM15-METAR|223|ICAO-KTSP|||||||||||||||||||||||||||||||||||||||||||HZ:04|HZ:04-Haze|1|FM15-METAR|223|ICAO-KTSP|||||||||||||||||||||||||1023.0||1|FM15-METAR|223|ICAO-KTSP|||||||||||||||||||||||||||||||||||||||||||MET063METAR KTSP 180215Z AUTO 00000KT 5SM HZ CLR 04/00 A3021 RMK AO2;||F||223|ICAO-KTSP
USW00000479|TEHACHAPI MUNI AP|2009|12|18|02|35|35.1350|-118.4392|1219.5|4.0||1|FM15-METAR|223|ICAO-KTSP|0.0||1|FM15-METAR|223|ICAO-KTSP|||||||||||||999|C-Calm|9|FM15-METAR|223|ICAO-KTSP|0.0|C-Calm|1|FM15-METAR|223|ICAO-KTSP|||||||||||||75|Derived||FM15-METAR|223|ICAO-KTSP|||||||||||||||||||||||||||||||||||||||||||||||||||||||||||||||||||||||||1023.4||1|FM15-METAR|223|ICAO-KTSP|||||||||||||||||||||||||||||||||||||||||||MET060METAR KTSP 180235Z AUTO 00000KT 8SM CLR 04/00 A3022 RMK AO2;||F||223|ICAO-KTSP
USW00000479|TEHACHAPI MUNI AP|2009|12|18|03|00|35.1350|-118.4392|1219.5|3.0||1|FM15-METAR|223|ICAO-KTSP|0.0||1|FM15-METAR|223|ICAO-KTSP|||||||||||||999|C-Calm|9|FM15-METAR|223|ICAO-KTSP|0.0|C-Calm|1|FM15-METAR|223|ICAO-KTSP|||||||||||||81|Derived||FM15-METAR|223|ICAO-KTSP|||||||||||||||||||||||||||||||||||||||||||||||||||||||||||||||||||||||||1023.7||1|FM15-METAR|223|ICAO-KTSP|||||||||||||||||||||||||||||||||||||||||||MET061METAR KTSP 180255Z AUTO 00000KT 10SM CLR 03/00 A3023 RMK AO2;||F||223|ICAO-KTSP
USW00000479|TEHACHAPI MUNI AP|2009|12|18|03|15|35.1350|-118.4392|1219.5|3.0||1|FM15-METAR|223|ICAO-KTSP|0.0||1|FM15-METAR|223|ICAO-KTSP|||||||||||||999|C-Calm|9|FM15-METAR|223|ICAO-KTSP|0.0|C-Calm|1|FM15-METAR|223|ICAO-KTSP|||||||||||||81|Derived||FM15-METAR|223|ICAO-KTSP|||||||||||||||||||||||||||||||||||||||||||||||||||||||||||||||||||||||||1023.7||1|FM15-METAR|223|ICAO-KTSP|||||||||||||||||||||||||||||||||||||||||||MET060METAR KTSP 180315Z AUTO 00000KT 7SM CLR 03/00 A3023 RMK AO2;||F||223|ICAO-KTSP
USW00000479|TEHACHAPI MUNI AP|2009|12|18|03|35|35.1350|-118.4392|1219.5|4.0||1|FM15-METAR|223|ICAO-KTSP|0.0||1|FM15-METAR|223|ICAO-KTSP|||||||||||||999|C-Calm|9|FM15-METAR|223|ICAO-KTSP|0.0|C-Calm|1|FM15-METAR|223|ICAO-KTSP|||||||||||||75|Derived||FM15-METAR|223|ICAO-KTSP|||||||||||||||||||||||||||||||||||||||||||HZ:04|HZ:04-Haze|1|FM15-METAR|223|ICAO-KTSP|||||||||||||||||||||||||1023.7||1|FM15-METAR|223|ICAO-KTSP|||||||||||||||||||||||||||||||||||||||||||MET063METAR KTSP 180335Z AUTO 00000KT 6SM HZ CLR 04/00 A3023 RMK AO2;||F||223|ICAO-KTSP
USW00000479|TEHACHAPI MUNI AP|2009|12|18|04|00|35.1350|-118.4392|1219.5|4.0||1|FM15-METAR|223|ICAO-KTSP|2.0||1|FM15-METAR|223|ICAO-KTSP|||||||||||||999|C-Calm|9|FM15-METAR|223|ICAO-KTSP|0.0|C-Calm|1|FM15-METAR|223|ICAO-KTSP|||||||||||||87|Derived||FM15-METAR|223|ICAO-KTSP|||||||||||||||||||||||||||||||||||||||||||BR:10|BR:10-Mist|1|FM15-METAR|223|ICAO-KTSP|||||||||||||||||||||||||1024.0||1|FM15-METAR|223|ICAO-KTSP|||||||||||||||||||||||||||||||||||||||||||MET063METAR KTSP 180355Z AUTO 00000KT 4SM BR CLR 04/02 A3024 RMK AO2;||F||223|ICAO-KTSP
USW00000479|TEHACHAPI MUNI AP|2009|12|18|04|15|35.1350|-118.4392|1219.5|4.0||1|FM15-METAR|223|ICAO-KTSP|2.0||1|FM15-METAR|223|ICAO-KTSP|||||||||||||999|C-Calm|9|FM15-METAR|223|ICAO-KTSP|0.0|C-Calm|1|FM15-METAR|223|ICAO-KTSP|||||||||||||87|Derived||FM15-METAR|223|ICAO-KTSP|||||||||||||||||||||||||||||||||||||||||||BR:10|BR:10-Mist|1|FM15-METAR|223|ICAO-KTSP|||||||||||||||||||||||||1024.0||1|FM15-METAR|223|ICAO-KTSP|||||||||||||||||||||||||||||||||||||||||||MET063METAR KTSP 180415Z AUTO 00000KT 5SM BR CLR 04/02 A3024 RMK AO2;||F||223|ICAO-KTSP
USW00000479|TEHACHAPI MUNI AP|2009|12|18|05|00|35.1350|-118.4392|1219.5|2.0||1|FM15-METAR|223|ICAO-KTSP|0.0||1|FM15-METAR|223|ICAO-KTSP|||||||||||||999|C-Calm|9|FM15-METAR|223|ICAO-KTSP|0.0|C-Calm|1|FM15-METAR|223|ICAO-KTSP|||||||||||||87|Derived||FM15-METAR|223|ICAO-KTSP|||||||||||||||||||||||||||||||||||||||||||BR:10|BR:10-Mist|1|FM15-METAR|223|ICAO-KTSP|||||||||||||||||||||||||1023.7||1|FM15-METAR|223|ICAO-KTSP|||||||||||||||||||||||||||||||||||||||||||MET063METAR KTSP 180455Z AUTO 00000KT 4SM BR CLR 02/00 A3023 RMK AO2;||F||223|ICAO-KTSP
USW00000479|TEHACHAPI MUNI AP|2009|12|18|05|15|35.1350|-118.4392|1219.5|2.0||1|FM15-METAR|223|ICAO-KTSP|0.0||1|FM15-METAR|223|ICAO-KTSP|||||||||||||999|C-Calm|9|FM15-METAR|223|ICAO-KTSP|0.0|C-Calm|1|FM15-METAR|223|ICAO-KTSP|||||||||||||87|Derived||FM15-METAR|223|ICAO-KTSP|||||||||||||||||||||||||||||||||||||||||||BR:10|BR:10-Mist|1|FM15-METAR|223|ICAO-KTSP|||||||||||||||||||||||||1023.7||1|FM15-METAR|223|ICAO-KTSP|||||||||||||||||||||||||||||||||||||||||||MET063METAR KTSP 180515Z AUTO 00000KT 5SM BR CLR 02/00 A3023 RMK AO2;||F||223|ICAO-KTSP
USW00000479|TEHACHAPI MUNI AP|2009|12|18|05|35|35.1350|-118.4392|1219.5|3.0||1|FM15-METAR|223|ICAO-KTSP|0.0||1|FM15-METAR|223|ICAO-KTSP|||||||||||||999|C-Calm|9|FM15-METAR|223|ICAO-KTSP|0.0|C-Calm|1|FM15-METAR|223|ICAO-KTSP|||||||||||||81|Derived||FM15-METAR|223|ICAO-KTSP|||||||||||||||||||||||||||||||||||||||||||BR:10|BR:10-Mist|1|FM15-METAR|223|ICAO-KTSP|||||||||||||||||||||||||1024.0||1|FM15-METAR|223|ICAO-KTSP|||||||||||||||||||||||||||||||||||||||||||MET063METAR KTSP 180535Z AUTO 00000KT 5SM BR CLR 03/00 A3024 RMK AO2;||F||223|ICAO-KTSP
USW00000479|TEHACHAPI MUNI AP|2009|12|18|06|00|35.1350|-118.4392|1219.5|2.0||1|FM15-METAR|223|ICAO-KTSP|0.0||1|FM15-METAR|223|ICAO-KTSP|||||||||||||999|C-Calm|9|FM15-METAR|223|ICAO-KTSP|0.0|C-Calm|1|FM15-METAR|223|ICAO-KTSP|||||||||||||87|Derived||FM15-METAR|223|ICAO-KTSP|||||||||||||||||||||||||||||||||||||||||||BR:10|BR:10-Mist|1|FM15-METAR|223|ICAO-KTSP|||||||||||||||||||||||||1024.4||1|FM15-METAR|223|ICAO-KTSP|||||||||||||||||||||||||||||||||||||||||||MET063METAR KTSP 180555Z AUTO 00000KT 5SM BR CLR 02/00 A3025 RMK AO2;||F||223|ICAO-KTSP
USW00000479|TEHACHAPI MUNI AP|2009|12|18|06|15|35.1350|-118.4392|1219.5|0.0||1|FM15-METAR|223|ICAO-KTSP|-1.0||1|FM15-METAR|223|ICAO-KTSP|||||||||||||999|C-Calm|9|FM15-METAR|223|ICAO-KTSP|0.0|C-Calm|1|FM15-METAR|223|ICAO-KTSP|||||||||||||93|Derived||FM15-METAR|223|ICAO-KTSP|||||||||||||||||||||||||||||||||||||||||||||||||||||||||||||||||||||||||1024.0||1|FM15-METAR|223|ICAO-KTSP|||||||||||||||||||||||||||||||||||||||||||MET061METAR KTSP 180615Z AUTO 00000KT 7SM CLR 00/M01 A3024 RMK AO2;||F||223|ICAO-KTSP
USW00000479|TEHACHAPI MUNI AP|2009|12|18|06|35|35.1350|-118.4392|1219.5|1.0||1|FM15-METAR|223|ICAO-KTSP|0.0||1|FM15-METAR|223|ICAO-KTSP|||||||||||||999|C-Calm|9|FM15-METAR|223|ICAO-KTSP|0.0|C-Calm|1|FM15-METAR|223|ICAO-KTSP|||||||||||||93|Derived||FM15-METAR|223|ICAO-KTSP|||||||||||||||||||||||||||||||||||||||||||||||||||||||||||||||||||||||||1024.0||1|FM15-METAR|223|ICAO-KTSP|||||||||||||||||||||||||||||||||||||||||||MET060METAR KTSP 180635Z AUTO 00000KT 7SM CLR 01/00 A3024 RMK AO2;||F||223|ICAO-KTSP
USW00000479|TEHACHAPI MUNI AP|2009|12|18|07|00|35.1350|-118.4392|1219.5|0.0||1|FM15-METAR|223|ICAO-KTSP|-2.0||1|FM15-METAR|223|ICAO-KTSP|||||||||||||999|C-Calm|9|FM15-METAR|223|ICAO-KTSP|0.0|C-Calm|1|FM15-METAR|223|ICAO-KTSP|||||||||||||87|Derived||FM15-METAR|223|ICAO-KTSP|||||||||||||||||||||||||||||||||||||||||||||||||||||||||||||||||||||||||1024.0||1|FM15-METAR|223|ICAO-KTSP|||||||||||||||||||||||||||||||||||||||||||MET062METAR KTSP 180655Z AUTO 00000KT 10SM CLR 00/M02 A3024 RMK AO2;||F||223|ICAO-KTSP
USW00000479|TEHACHAPI MUNI AP|2009|12|18|07|15|35.1350|-118.4392|1219.5|1.0||1|FM15-METAR|223|ICAO-KTSP|0.0||1|FM15-METAR|223|ICAO-KTSP|||||||||||||999|C-Calm|9|FM15-METAR|223|ICAO-KTSP|0.0|C-Calm|1|FM15-METAR|223|ICAO-KTSP|||||||||||||93|Derived||FM15-METAR|223|ICAO-KTSP|||||||||||||||||||||||||||||||||||||||||||||||||||||||||||||||||||||||||1023.7||1|FM15-METAR|223|ICAO-KTSP|||||||||||||||||||||||||||||||||||||||||||MET060METAR KTSP 180715Z AUTO 00000KT 8SM CLR 01/00 A3023 RMK AO2;||F||223|ICAO-KTSP
USW00000479|TEHACHAPI MUNI AP|2009|12|18|07|35|35.1350|-118.4392|1219.5|1.0||1|FM15-METAR|223|ICAO-KTSP|-1.0||1|FM15-METAR|223|ICAO-KTSP|||||||||||||999|C-Calm|9|FM15-METAR|223|ICAO-KTSP|0.0|C-Calm|1|FM15-METAR|223|ICAO-KTSP|||||||||||||87|Derived||FM15-METAR|223|ICAO-KTSP|||||||||||||||||||||||||||||||||||||||||||||||||||||||||||||||||||||||||1023.7||1|FM15-METAR|223|ICAO-KTSP|||||||||||||||||||||||||||||||||||||||||||MET061METAR KTSP 180735Z AUTO 00000KT 8SM CLR 01/M01 A3023 RMK AO2;||F||223|ICAO-KTSP
USW00000479|TEHACHAPI MUNI AP|2009|12|18|08|00|35.1350|-118.4392|1219.5|1.0||1|FM15-METAR|223|ICAO-KTSP|-1.0||1|FM15-METAR|223|ICAO-KTSP|||||||||||||999|C-Calm|9|FM15-METAR|223|ICAO-KTSP|0.0|C-Calm|1|FM15-METAR|223|ICAO-KTSP|||||||||||||87|Derived||FM15-METAR|223|ICAO-KTSP|||||||||||||||||||||||||||||||||||||||||||||||||||||||||||||||||||||||||1023.4||1|FM15-METAR|223|ICAO-KTSP|||||||||||||||||||||||||||||||||||||||||||MET061METAR KTSP 180755Z AUTO 00000KT 9SM CLR 01/M01 A3022 RMK AO2;||F||223|ICAO-KTSP
USW00000479|TEHACHAPI MUNI AP|2009|12|18|08|15|35.1350|-118.4392|1219.5|0.0||1|FM15-METAR|223|ICAO-KTSP|-2.0||1|FM15-METAR|223|ICAO-KTSP|||||||||||||999|C-Calm|9|FM15-METAR|223|ICAO-KTSP|0.0|C-Calm|1|FM15-METAR|223|ICAO-KTSP|||||||||||||87|Derived||FM15-METAR|223|ICAO-KTSP|||||||||||||||||||||||||||||||||||||||||||||||||||||||||||||||||||||||||1023.4||1|FM15-METAR|223|ICAO-KTSP|||||||||||||||||||||||||||||||||||||||||||MET062METAR KTSP 180815Z AUTO 00000KT 10SM CLR 00/M02 A3022 RMK AO2;||F||223|ICAO-KTSP
USW00000479|TEHACHAPI MUNI AP|2009|12|18|08|35|35.1350|-118.4392|1219.5|0.0||1|FM15-METAR|223|ICAO-KTSP|-2.0||1|FM15-METAR|223|ICAO-KTSP|||||||||||||999|C-Calm|9|FM15-METAR|223|ICAO-KTSP|0.0|C-Calm|1|FM15-METAR|223|ICAO-KTSP|||||||||||||87|Derived||FM15-METAR|223|ICAO-KTSP|||||||||||||||||||||||||||||||||||||||||||||||||||||||||||||||||||||||||1023.4||1|FM15-METAR|223|ICAO-KTSP|||||||||||||||||||||||||||||||||||||||||||MET062METAR KTSP 180835Z AUTO 00000KT 10SM CLR 00/M02 A3022 RMK AO2;||F||223|ICAO-KTSP
USW00000479|TEHACHAPI MUNI AP|2009|12|18|09|00|35.1350|-118.4392|1219.5|-1.0||1|FM15-METAR|223|ICAO-KTSP|-3.0||1|FM15-METAR|223|ICAO-KTSP|||||||||||||999|C-Calm|9|FM15-METAR|223|ICAO-KTSP|0.0|C-Calm|1|FM15-METAR|223|ICAO-KTSP|||||||||||||86|Derived||FM15-METAR|223|ICAO-KTSP|||||||||||||||||||||||||||||||||||||||||||||||||||||||||||||||||||||||||1023.4||1|FM15-METAR|223|ICAO-KTSP|||||||||||||||||||||||||||||||||||||||||||MET062METAR KTSP 180855Z AUTO 00000KT 8SM CLR M01/M03 A3022 RMK AO2;||F||223|ICAO-KTSP
USW00000479|TEHACHAPI MUNI AP|2009|12|18|09|15|35.1350|-118.4392|1219.5|-1.0||1|FM15-METAR|223|ICAO-KTSP|-2.0||1|FM15-METAR|223|ICAO-KTSP|||||||||||||999|C-Calm|9|FM15-METAR|223|ICAO-KTSP|0.0|C-Calm|1|FM15-METAR|223|ICAO-KTSP|||||||||||||93|Derived||FM15-METAR|223|ICAO-KTSP|||||||||||||||||||||||||||||||||||||||||||||||||||||||||||||||||||||||||1023.4||1|FM15-METAR|223|ICAO-KTSP|||||||||||||||||||||||||||||||||||||||||||MET062METAR KTSP 180915Z AUTO 00000KT 9SM CLR M01/M02 A3022 RMK AO2;||F||223|ICAO-KTSP
USW00000479|TEHACHAPI MUNI AP|2009|12|18|09|35|35.1350|-118.4392|1219.5|0.0||1|FM15-METAR|223|ICAO-KTSP|-2.0||1|FM15-METAR|223|ICAO-KTSP|||||||||||||999|C-Calm|9|FM15-METAR|223|ICAO-KTSP|0.0|C-Calm|1|FM15-METAR|223|ICAO-KTSP|||||||||||||87|Derived||FM15-METAR|223|ICAO-KTSP|||||||||||||||||||||||||||||||||||||||||||||||||||||||||||||||||||||||||1023.4||1|FM15-METAR|223|ICAO-KTSP|||||||||||||||||||||||||||||||||||||||||||MET061METAR KTSP 180935Z AUTO 00000KT 9SM CLR 00/M02 A3022 RMK AO2;||F||223|ICAO-KTSP
USW00000479|TEHACHAPI MUNI AP|2009|12|18|10|00|35.1350|-118.4392|1219.5|-1.0||1|FM15-METAR|223|ICAO-KTSP|-3.0||1|FM15-METAR|223|ICAO-KTSP|||||||||||||110|N-Normal|1|FM15-METAR|223|ICAO-KTSP|1.5|N-Normal|1|FM15-METAR|223|ICAO-KTSP|||||||||||||86|Derived||FM15-METAR|223|ICAO-KTSP|||||||||||||||||||||||||||||||||||||||||||||||||||||||||||||||||||||||||1023.0||1|FM15-METAR|223|ICAO-KTSP|||||||||||||||||||||||||||||||||||||||||||MET063METAR KTSP 180955Z AUTO 11003KT 10SM CLR M01/M03 A3021 RMK AO2;||F||223|ICAO-KTSP
USW00000479|TEHACHAPI MUNI AP|2009|12|18|10|15|35.1350|-118.4392|1219.5|0.0||1|FM15-METAR|223|ICAO-KTSP|-2.0||1|FM15-METAR|223|ICAO-KTSP|||||||||||||999|C-Calm|9|FM15-METAR|223|ICAO-KTSP|0.0|C-Calm|1|FM15-METAR|223|ICAO-KTSP|||||||||||||87|Derived||FM15-METAR|223|ICAO-KTSP|||||||||||||||||||||||||||||||||||||||||||||||||||||||||||||||||||||||||1022.7||1|FM15-METAR|223|ICAO-KTSP|||||||||||||||||||||||||||||||||||||||||||MET062METAR KTSP 181015Z AUTO 00000KT 10SM CLR 00/M02 A3020 RMK AO2;||F||223|ICAO-KTSP
USW00000479|TEHACHAPI MUNI AP|2009|12|18|10|35|35.1350|-118.4392|1219.5|0.0||1|FM15-METAR|223|ICAO-KTSP|-2.0||1|FM15-METAR|223|ICAO-KTSP|||||||||||||999|C-Calm|9|FM15-METAR|223|ICAO-KTSP|0.0|C-Calm|1|FM15-METAR|223|ICAO-KTSP|||||||||||||87|Derived||FM15-METAR|223|ICAO-KTSP|||||||||||||||||||||||||||||||||||||||||||||||||||||||||||||||||||||||||1022.7||1|FM15-METAR|223|ICAO-KTSP|||||||||||||||||||||||||||||||||||||||||||MET062METAR KTSP 181035Z AUTO 00000KT 10SM CLR 00/M02 A3020 RMK AO2;||F||223|ICAO-KTSP
USW00000479|TEHACHAPI MUNI AP|2009|12|18|11|00|35.1350|-118.4392|1219.5|0.0||1|FM15-METAR|223|ICAO-KTSP|-3.0||1|FM15-METAR|223|ICAO-KTSP|||||||||||||120|N-Normal|1|FM15-METAR|223|ICAO-KTSP|2.1|N-Normal|1|FM15-METAR|223|ICAO-KTSP|||||||||||||80|Derived||FM15-METAR|223|ICAO-KTSP|||||||||||||||||||||||||||||||||||||||||||||||||||||||||||||||||||||||||1022.7||1|FM15-METAR|223|ICAO-KTSP|||||||||||||||||||||||||||||||||||||||||||MET062METAR KTSP 181055Z AUTO 12004KT 10SM CLR 00/M03 A3020 RMK AO2;||F||223|ICAO-KTSP
USW00000479|TEHACHAPI MUNI AP|2009|12|18|11|15|35.1350|-118.4392|1219.5|-1.0||1|FM15-METAR|223|ICAO-KTSP|-3.0||1|FM15-METAR|223|ICAO-KTSP|||||||||||||999|C-Calm|9|FM15-METAR|223|ICAO-KTSP|0.0|C-Calm|1|FM15-METAR|223|ICAO-KTSP|||||||||||||86|Derived||FM15-METAR|223|ICAO-KTSP|||||||||||||||||||||||||||||||||||||||||||||||||||||||||||||||||||||||||1022.4||1|FM15-METAR|223|ICAO-KTSP|||||||||||||||||||||||||||||||||||||||||||MET063METAR KTSP 181115Z AUTO 00000KT 10SM CLR M01/M03 A3019 RMK AO2;||F||223|ICAO-KTSP
USW00000479|TEHACHAPI MUNI AP|2009|12|18|11|35|35.1350|-118.4392|1219.5|-1.0||1|FM15-METAR|223|ICAO-KTSP|-3.0||1|FM15-METAR|223|ICAO-KTSP|||||||||||||999|C-Calm|9|FM15-METAR|223|ICAO-KTSP|0.0|C-Calm|1|FM15-METAR|223|ICAO-KTSP|||||||||||||86|Derived||FM15-METAR|223|ICAO-KTSP|||||||||||||||||||||||||||||||||||||||||||||||||||||||||||||||||||||||||1022.7||1|FM15-METAR|223|ICAO-KTSP|||||||||||||||||||||||||||||||||||||||||||MET063METAR KTSP 181135Z AUTO 00000KT 10SM CLR M01/M03 A3020 RMK AO2;||F||223|ICAO-KTSP
USW00000479|TEHACHAPI MUNI AP|2009|12|18|12|00|35.1350|-118.4392|1219.5|-1.0||1|FM15-METAR|223|ICAO-KTSP|-3.0||1|FM15-METAR|223|ICAO-KTSP|||||||||||||999|C-Calm|9|FM15-METAR|223|ICAO-KTSP|0.0|C-Calm|1|FM15-METAR|223|ICAO-KTSP|||||||||||||86|Derived||FM15-METAR|223|ICAO-KTSP|||||||||||||||||||||||||||||||||||||||||||||||||||||||||||||||||||||||||1022.7||1|FM15-METAR|223|ICAO-KTSP|||||||||||||||||||||||||||||||||||||||||||MET063METAR KTSP 181155Z AUTO 00000KT 10SM CLR M01/M03 A3020 RMK AO2;||F||223|ICAO-KTSP
USW00000479|TEHACHAPI MUNI AP|2009|12|18|12|15|35.1350|-118.4392|1219.5|0.0||1|FM15-METAR|223|ICAO-KTSP|-2.0||1|FM15-METAR|223|ICAO-KTSP|||||||||||||999|C-Calm|9|FM15-METAR|223|ICAO-KTSP|0.0|C-Calm|1|FM15-METAR|223|ICAO-KTSP|||||||||||||87|Derived||FM15-METAR|223|ICAO-KTSP|||||||||||||||||||||||||||||||||||||||||||||||||||||||||||||||||||||||||1023.0||1|FM15-METAR|223|ICAO-KTSP|||||||||||||||||||||||||||||||||||||||||||MET062METAR KTSP 181215Z AUTO 00000KT 10SM CLR 00/M02 A3021 RMK AO2;||F||223|ICAO-KTSP
USW00000479|TEHACHAPI MUNI AP|2009|12|18|12|35|35.1350|-118.4392|1219.5|-2.0||1|FM15-METAR|223|ICAO-KTSP|-4.0||1|FM15-METAR|223|ICAO-KTSP|||||||||||||999|C-Calm|9|FM15-METAR|223|ICAO-KTSP|0.0|C-Calm|1|FM15-METAR|223|ICAO-KTSP|||||||||||||86|Derived||FM15-METAR|223|ICAO-KTSP|||||||||||||||||||||||||||||||||||||||||||||||||||||||||||||||||||||||||1023.0||1|FM15-METAR|223|ICAO-KTSP|||||||||||||||||||||||||||||||||||||||||||MET063METAR KTSP 181235Z AUTO 00000KT 10SM CLR M02/M04 A3021 RMK AO2;||F||223|ICAO-KTSP
USW00000479|TEHACHAPI MUNI AP|2009|12|18|13|00|35.1350|-118.4392|1219.5|-1.0||1|FM15-METAR|223|ICAO-KTSP|-3.0||1|FM15-METAR|223|ICAO-KTSP|||||||||||||999|C-Calm|9|FM15-METAR|223|ICAO-KTSP|0.0|C-Calm|1|FM15-METAR|223|ICAO-KTSP|||||||||||||86|Derived||FM15-METAR|223|ICAO-KTSP|||||||||||||||||||||||||||||||||||||||||||||||||||||||||||||||||||||||||1023.0||1|FM15-METAR|223|ICAO-KTSP|||||||||||||||||||||||||||||||||||||||||||MET063METAR KTSP 181255Z AUTO 00000KT 10SM CLR M01/M03 A3021 RMK AO2;||F||223|ICAO-KTSP
USW00000479|TEHACHAPI MUNI AP|2009|12|18|13|15|35.1350|-118.4392|1219.5|-1.0||1|FM15-METAR|223|ICAO-KTSP|-3.0||1|FM15-METAR|223|ICAO-KTSP|||||||||||||999|C-Calm|9|FM15-METAR|223|ICAO-KTSP|0.0|C-Calm|1|FM15-METAR|223|ICAO-KTSP|||||||||||||86|Derived||FM15-METAR|223|ICAO-KTSP|||||||||||||||||||||||||||||||||||||||||||||||||||||||||||||||||||||||||1023.0||1|FM15-METAR|223|ICAO-KTSP|||||||||||||||||||||||||||||||||||||||||||MET063METAR KTSP 181315Z AUTO 00000KT 10SM CLR M01/M03 A3021 RMK AO2;||F||223|ICAO-KTSP
USW00000479|TEHACHAPI MUNI AP|2009|12|18|13|35|35.1350|-118.4392|1219.5|0.0||1|FM15-METAR|223|ICAO-KTSP|-3.0||1|FM15-METAR|223|ICAO-KTSP|||||||||||||999|C-Calm|9|FM15-METAR|223|ICAO-KTSP|0.0|C-Calm|1|FM15-METAR|223|ICAO-KTSP|||||||||||||80|Derived||FM15-METAR|223|ICAO-KTSP|||||||||||||||||||||||||||||||||||||||||||||||||||||||||||||||||||||||||1023.4||1|FM15-METAR|223|ICAO-KTSP|||||||||||||||||||||||||||||||||||||||||||MET062METAR KTSP 181335Z AUTO 00000KT 10SM CLR 00/M03 A3022 RMK AO2;||F||223|ICAO-KTSP
USW00000479|TEHACHAPI MUNI AP|2009|12|18|14|00|35.1350|-118.4392|1219.5|0.0||1|FM15-METAR|223|ICAO-KTSP|-3.0||1|FM15-METAR|223|ICAO-KTSP|||||||||||||120|N-Normal|1|FM15-METAR|223|ICAO-KTSP|3.1|N-Normal|1|FM15-METAR|223|ICAO-KTSP|||||||||||||80|Derived||FM15-METAR|223|ICAO-KTSP|||||||||||||||||||||||||||||||||||||||||||||||||||||||||||||||||||||||||1022.7||1|FM15-METAR|223|ICAO-KTSP|||||||||||||||||||||||||||||||||||||||||||MET062METAR KTSP 181355Z AUTO 12006KT 10SM CLR 00/M03 A3020 RMK AO2;||F||223|ICAO-KTSP
USW00000479|TEHACHAPI MUNI AP|2009|12|18|14|15|35.1350|-118.4392|1219.5|0.0||1|FM15-METAR|223|ICAO-KTSP|-3.0||1|FM15-METAR|223|ICAO-KTSP|||||||||||||999|C-Calm|9|FM15-METAR|223|ICAO-KTSP|0.0|C-Calm|1|FM15-METAR|223|ICAO-KTSP|||||||||||||80|Derived||FM15-METAR|223|ICAO-KTSP|||||||||||||||||||||||||||||||||||||||||||||||||||||||||||||||||||||||||1023.0||1|FM15-METAR|223|ICAO-KTSP|||||||||||||||||||||||||||||||||||||||||||MET062METAR KTSP 181415Z AUTO 00000KT 10SM CLR 00/M03 A3021 RMK AO2;||F||223|ICAO-KTSP
USW00000479|TEHACHAPI MUNI AP|2009|12|18|14|35|35.1350|-118.4392|1219.5|-1.0||1|FM15-METAR|223|ICAO-KTSP|-3.0||1|FM15-METAR|223|ICAO-KTSP|||||||||||||999|C-Calm|9|FM15-METAR|223|ICAO-KTSP|0.0|C-Calm|1|FM15-METAR|223|ICAO-KTSP|||||||||||||86|Derived||FM15-METAR|223|ICAO-KTSP|||||||||||||||||||||||||||||||||||||||||||||||||||||||||||||||||||||||||1023.0||1|FM15-METAR|223|ICAO-KTSP|||||||||||||||||||||||||||||||||||||||||||MET063METAR KTSP 181435Z AUTO 00000KT 10SM CLR M01/M03 A3021 RMK AO2;||F||223|ICAO-KTSP
USW00000479|TEHACHAPI MUNI AP|2009|12|18|15|00|35.1350|-118.4392|1219.5|0.0||1|FM15-METAR|223|ICAO-KTSP|-3.0||1|FM15-METAR|223|ICAO-KTSP|||||||||||||080|N-Normal|1|FM15-METAR|223|ICAO-KTSP|2.1|N-Normal|1|FM15-METAR|223|ICAO-KTSP|||||||||||||80|Derived||FM15-METAR|223|ICAO-KTSP|||||||||||||||||||||||||||||||||||||||||||||||||||||||||||||||||||||||||1023.0||1|FM15-METAR|223|ICAO-KTSP|||||||||||||||||||||||||||||||||||||||||||MET062METAR KTSP 181455Z AUTO 08004KT 10SM CLR 00/M03 A3021 RMK AO2;||F||223|ICAO-KTSP
USW00000479|TEHACHAPI MUNI AP|2009|12|18|15|15|35.1350|-118.4392|1219.5|0.0||1|FM15-METAR|223|ICAO-KTSP|-3.0||1|FM15-METAR|223|ICAO-KTSP|||||||||||||999|C-Calm|9|FM15-METAR|223|ICAO-KTSP|0.0|C-Calm|1|FM15-METAR|223|ICAO-KTSP|||||||||||||80|Derived||FM15-METAR|223|ICAO-KTSP|||||||||||||||||||||||||||||||||||||||||||||||||||||||||||||||||||||||||1023.0||1|FM15-METAR|223|ICAO-KTSP|||||||||||||||||||||||||||||||||||||||||||MET062METAR KTSP 181515Z AUTO 00000KT 10SM CLR 00/M03 A3021 RMK AO2;||F||223|ICAO-KTSP
USW00000479|TEHACHAPI MUNI AP|2009|12|18|15|35|35.1350|-118.4392|1219.5|0.0||1|FM15-METAR|223|ICAO-KTSP|-3.0||1|FM15-METAR|223|ICAO-KTSP|||||||||||||999|C-Calm|9|FM15-METAR|223|ICAO-KTSP|0.0|C-Calm|1|FM15-METAR|223|ICAO-KTSP|||||||||||||80|Derived||FM15-METAR|223|ICAO-KTSP|||||||||||||||||||||||||||||||||||||||||||||||||||||||||||||||||||||||||1023.0||1|FM15-METAR|223|ICAO-KTSP|||||||||||||||||||||||||||||||||||||||||||MET062METAR KTSP 181535Z AUTO 00000KT 10SM CLR 00/M03 A3021 RMK AO2;||F||223|ICAO-KTSP
USW00000479|TEHACHAPI MUNI AP|2009|12|18|16|00|35.1350|-118.4392|1219.5|0.0||1|FM15-METAR|223|ICAO-KTSP|-2.0||1|FM15-METAR|223|ICAO-KTSP|||||||||||||999|C-Calm|9|FM15-METAR|223|ICAO-KTSP|0.0|C-Calm|1|FM15-METAR|223|ICAO-KTSP|||||||||||||87|Derived||FM15-METAR|223|ICAO-KTSP|||||||||||||||||||||||||||||||||||||||||||||||||||||||||||||||||||||||||1023.0||1|FM15-METAR|223|ICAO-KTSP|||||||||||||||||||||||||||||||||||||||||||MET062METAR KTSP 181555Z AUTO 00000KT 10SM CLR 00/M02 A3021 RMK AO2;||F||223|ICAO-KTSP
USW00000479|TEHACHAPI MUNI AP|2009|12|18|16|15|35.1350|-118.4392|1219.5|2.0||1|FM15-METAR|223|ICAO-KTSP|-1.0||1|FM15-METAR|223|ICAO-KTSP|||||||||||||999|C-Calm|9|FM15-METAR|223|ICAO-KTSP|0.0|C-Calm|1|FM15-METAR|223|ICAO-KTSP|||||||||||||81|Derived||FM15-METAR|223|ICAO-KTSP|||||||||||||||||||||||||||||||||||||||||||||||||||||||||||||||||||||||||1023.4||1|FM15-METAR|223|ICAO-KTSP|||||||||||||||||||||||||||||||||||||||||||MET062METAR KTSP 181615Z AUTO 00000KT 10SM CLR 02/M01 A3022 RMK AO2;||F||223|ICAO-KTSP
USW00000479|TEHACHAPI MUNI AP|2009|12|18|16|35|35.1350|-118.4392|1219.5|3.0||1|FM15-METAR|223|ICAO-KTSP|0.0||1|FM15-METAR|223|ICAO-KTSP|||||||||||||999|C-Calm|9|FM15-METAR|223|ICAO-KTSP|0.0|C-Calm|1|FM15-METAR|223|ICAO-KTSP|||||||||||||81|Derived||FM15-METAR|223|ICAO-KTSP|||||||||||||||||||||||||||||||||||||||||||||||||||||||||||||||||||||||||1023.7||1|FM15-METAR|223|ICAO-KTSP|||||||||||||||||||||||||||||||||||||||||||MET060METAR KTSP 181635Z AUTO 00000KT 9SM CLR 03/00 A3023 RMK AO2;||F||223|ICAO-KTSP
USW00000479|TEHACHAPI MUNI AP|2009|12|18|17|00|35.1350|-118.4392|1219.5|4.0||1|FM15-METAR|223|ICAO-KTSP|0.0||1|FM15-METAR|223|ICAO-KTSP|||||||||||||999|C-Calm|9|FM15-METAR|223|ICAO-KTSP|0.0|C-Calm|1|FM15-METAR|223|ICAO-KTSP|||||||||||||75|Derived||FM15-METAR|223|ICAO-KTSP|||||||||||||||||||||||||||||||||||||||||||||||||||||||||||||||||||||||||1023.7||1|FM15-METAR|223|ICAO-KTSP|||||||||||||||||||||||||||||||||||||||||||MET061METAR KTSP 181655Z AUTO 00000KT 10SM CLR 04/00 A3023 RMK AO2;||F||223|ICAO-KTSP
USW00000479|TEHACHAPI MUNI AP|2009|12|18|17|15|35.1350|-118.4392|1219.5|7.0||1|FM15-METAR|223|ICAO-KTSP|0.0||1|FM15-METAR|223|ICAO-KTSP|||||||||||||999|C-Calm|9|FM15-METAR|223|ICAO-KTSP|0.0|C-Calm|1|FM15-METAR|223|ICAO-KTSP|||||||||||||61|Derived||FM15-METAR|223|ICAO-KTSP|||||||||||||||||||||||||||||||||||||||||||||||||||||||||||||||||||||||||1023.7||1|FM15-METAR|223|ICAO-KTSP|||||||||||||||||||||||||||||||||||||||||||MET061METAR KTSP 181715Z AUTO 00000KT 10SM CLR 07/00 A3023 RMK AO2;||F||223|ICAO-KTSP
USW00000479|TEHACHAPI MUNI AP|2009|12|18|17|35|35.1350|-118.4392|1219.5|8.0||1|FM15-METAR|223|ICAO-KTSP|-2.0||1|FM15-METAR|223|ICAO-KTSP|||||||||||||999|C-Calm|9|FM15-METAR|223|ICAO-KTSP|0.0|C-Calm|1|FM15-METAR|223|ICAO-KTSP|||||||||||||50|Derived||FM15-METAR|223|ICAO-KTSP|||||||||||||||||||||||||||||||||||||||||||||||||||||||||||||||||||||||||1023.7||1|FM15-METAR|223|ICAO-KTSP|||||||||||||||||||||||||||||||||||||||||||MET061METAR KTSP 181735Z AUTO 00000KT 9SM CLR 08/M02 A3023 RMK AO2;||F||223|ICAO-KTSP
USW00000479|TEHACHAPI MUNI AP|2009|12|18|18|00|35.1350|-118.4392|1219.5|10.0||1|FM15-METAR|223|ICAO-KTSP|-1.0||1|FM15-METAR|223|ICAO-KTSP|||||||||||||999|C-Calm|9|FM15-METAR|223|ICAO-KTSP|0.0|C-Calm|1|FM15-METAR|223|ICAO-KTSP|||||||||||||47|Derived||FM15-METAR|223|ICAO-KTSP|||||||||||||||||||||||||||||||||||||||||||||||||||||||||||||||||||||||||1024.0||1|FM15-METAR|223|ICAO-KTSP|||||||||||||||||||||||||||||||||||||||||||MET062METAR KTSP 181755Z AUTO 00000KT 10SM CLR 10/M01 A3024 RMK AO2;||F||223|ICAO-KTSP
USW00000479|TEHACHAPI MUNI AP|2009|12|18|18|15|35.1350|-118.4392|1219.5|10.0||1|FM15-METAR|223|ICAO-KTSP|-1.0||1|FM15-METAR|223|ICAO-KTSP|||||||||||||999|C-Calm|9|FM15-METAR|223|ICAO-KTSP|0.0|C-Calm|1|FM15-METAR|223|ICAO-KTSP|||||||||||||47|Derived||FM15-METAR|223|ICAO-KTSP|||||||||||||||||||||||||||||||||||||||||||||||||||||||||||||||||||||||||1023.7||1|FM15-METAR|223|ICAO-KTSP|||||||||||||||||||||||||||||||||||||||||||MET061METAR KTSP 181815Z AUTO 00000KT 9SM CLR 10/M01 A3023 RMK AO2;||F||223|ICAO-KTSP
USW00000479|TEHACHAPI MUNI AP|2009|12|18|18|35|35.1350|-118.4392|1219.5|12.0||1|FM15-METAR|223|ICAO-KTSP|-1.0||1|FM15-METAR|223|ICAO-KTSP|||||||||||||999|C-Calm|9|FM15-METAR|223|ICAO-KTSP|0.0|C-Calm|1|FM15-METAR|223|ICAO-KTSP|||||||||||||41|Derived||FM15-METAR|223|ICAO-KTSP|||||||||||||||||||||||||||||||||||||||||||||||||||||||||||||||||||||||||1023.7||1|FM15-METAR|223|ICAO-KTSP|||||||||||||||||||||||||||||||||||||||||||MET062METAR KTSP 181835Z AUTO 00000KT 10SM CLR 12/M01 A3023 RMK AO2;||F||223|ICAO-KTSP
USW00000479|TEHACHAPI MUNI AP|2009|12|18|19|00|35.1350|-118.4392|1219.5|12.0||1|FM15-METAR|223|ICAO-KTSP|-1.0||1|FM15-METAR|223|ICAO-KTSP|||||||||||||999|C-Calm|9|FM15-METAR|223|ICAO-KTSP|0.0|C-Calm|1|FM15-METAR|223|ICAO-KTSP|||||||||||||41|Derived||FM15-METAR|223|ICAO-KTSP|||||||||||||||||||||||||||||||||||||||||||||||||||||||||||||||||||||||||1023.4||1|FM15-METAR|223|ICAO-KTSP|||||||||||||||||||||||||||||||||||||||||||MET061METAR KTSP 181855Z AUTO 00000KT 9SM CLR 12/M01 A3022 RMK AO2;||F||223|ICAO-KTSP
USW00000479|TEHACHAPI MUNI AP|2009|12|18|19|15|35.1350|-118.4392|1219.5|13.0||1|FM15-METAR|223|ICAO-KTSP|-2.0||1|FM15-METAR|223|ICAO-KTSP|||||||||||||999|C-Calm|9|FM15-METAR|223|ICAO-KTSP|0.0|C-Calm|1|FM15-METAR|223|ICAO-KTSP|||||||||||||36|Derived||FM15-METAR|223|ICAO-KTSP|||||||||||||||||||||||||||||||||||||||||||||||||||||||||||||||||||||||||1023.0||1|FM15-METAR|223|ICAO-KTSP|||||||||||||||||||||||||||||||||||||||||||MET061METAR KTSP 181915Z AUTO 00000KT 8SM CLR 13/M02 A3021 RMK AO2;||F||223|ICAO-KTSP
USW00000479|TEHACHAPI MUNI AP|2009|12|18|19|35|35.1350|-118.4392|1219.5|14.0||1|FM15-METAR|223|ICAO-KTSP|-3.0||1|FM15-METAR|223|ICAO-KTSP|||||||||||||999|C-Calm|9|FM15-METAR|223|ICAO-KTSP|0.0|C-Calm|1|FM15-METAR|223|ICAO-KTSP|||||||||||||31|Derived||FM15-METAR|223|ICAO-KTSP|||||||||||||||||||||||||||||||||||||||||||||||||||||||||||||||||||||||||1022.7||1|FM15-METAR|223|ICAO-KTSP|||||||||||||||||||||||||||||||||||||||||||MET061METAR KTSP 181935Z AUTO 00000KT 8SM CLR 14/M03 A3020 RMK AO2;||F||223|ICAO-KTSP
USW00000479|TEHACHAPI MUNI AP|2009|12|18|20|00|35.1350|-118.4392|1219.5|16.0||1|FM15-METAR|223|ICAO-KTSP|-2.0||1|FM15-METAR|223|ICAO-KTSP|||||||||||||999|C-Calm|9|FM15-METAR|223|ICAO-KTSP|0.0|C-Calm|1|FM15-METAR|223|ICAO-KTSP|||||||||||||29|Derived||FM15-METAR|223|ICAO-KTSP|||||||||||||||||||||||||||||||||||||||||||||||||||||||||||||||||||||||||1022.4||1|FM15-METAR|223|ICAO-KTSP|||||||||||||||||||||||||||||||||||||||||||MET061METAR KTSP 181955Z AUTO 00000KT 9SM CLR 16/M02 A3019 RMK AO2;||F||223|ICAO-KTSP
USW00000479|TEHACHAPI MUNI AP|2009|12|18|20|15|35.1350|-118.4392|1219.5|17.0||1|FM15-METAR|223|ICAO-KTSP|-2.0||1|FM15-METAR|223|ICAO-KTSP|||||||||||||110|N-Normal|1|FM15-METAR|223|ICAO-KTSP|3.1|N-Normal|1|FM15-METAR|223|ICAO-KTSP|||||||||||||27|Derived||FM15-METAR|223|ICAO-KTSP|||||||||||||||||||||||||||||||||||||||||||||||||||||||||||||||||||||||||1022.0||1|FM15-METAR|223|ICAO-KTSP|||||||||||||||||||||||||||||||||||||||||||MET062METAR KTSP 182015Z AUTO 11006KT 10SM CLR 17/M02 A3018 RMK AO2;||F||223|ICAO-KTSP
USW00000479|TEHACHAPI MUNI AP|2009|12|18|20|35|35.1350|-118.4392|1219.5|17.0||1|FM15-METAR|223|ICAO-KTSP|-2.0||1|FM15-METAR|223|ICAO-KTSP|||||||||||||120|N-Normal|1|FM15-METAR|223|ICAO-KTSP|3.6|N-Normal|1|FM15-METAR|223|ICAO-KTSP|||||||||||||27|Derived||FM15-METAR|223|ICAO-KTSP|||||||||||||||||||||||||||||||||||||||||||||||||||||||||||||||||||||||||1021.7||1|FM15-METAR|223|ICAO-KTSP|||||||||||||||||||||||||||||||||||||||||||MET062METAR KTSP 182035Z AUTO 12007KT 10SM CLR 17/M02 A3017 RMK AO2;||F||223|ICAO-KTSP
USW00000479|TEHACHAPI MUNI AP|2009|12|18|21|00|35.1350|-118.4392|1219.5|17.0||1|FM15-METAR|223|ICAO-KTSP|-2.0||1|FM15-METAR|223|ICAO-KTSP|||||||||||||120|N-Normal|1|FM15-METAR|223|ICAO-KTSP|3.1|N-Normal|1|FM15-METAR|223|ICAO-KTSP|||||||||||||27|Derived||FM15-METAR|223|ICAO-KTSP|||||||||||||||||||||||||||||||||||||||||||||||||||||||||||||||||||||||||1021.3||1|FM15-METAR|223|ICAO-KTSP|||||||||||||||||||||||||||||||||||||||||||MET061METAR KTSP 182055Z AUTO 12006KT 9SM CLR 17/M02 A3016 RMK AO2;||F||223|ICAO-KTSP
USW00000479|TEHACHAPI MUNI AP|2009|12|18|21|15|35.1350|-118.4392|1219.5|17.0||1|FM15-METAR|223|ICAO-KTSP|-2.0||1|FM15-METAR|223|ICAO-KTSP|||||||||||||130|N-Normal|1|FM15-METAR|223|ICAO-KTSP|4.1|N-Normal|1|FM15-METAR|223|ICAO-KTSP|||||||||||||27|Derived||FM15-METAR|223|ICAO-KTSP|||||||||||||||||||||||||||||||||||||||||||||||||||||||||||||||||||||||||1021.3||1|FM15-METAR|223|ICAO-KTSP|||||||||||||||||||||||||||||||||||||||||||MET061METAR KTSP 182115Z AUTO 13008KT 7SM CLR 17/M02 A3016 RMK AO2;||F||223|ICAO-KTSP
USW00000479|TEHACHAPI MUNI AP|2009|12|18|21|35|35.1350|-118.4392|1219.5|17.0||1|FM15-METAR|223|ICAO-KTSP|-2.0||1|FM15-METAR|223|ICAO-KTSP|||||||||||||130|N-Normal|1|FM15-METAR|223|ICAO-KTSP|4.1|N-Normal|1|FM15-METAR|223|ICAO-KTSP|||||||||||||27|Derived||FM15-METAR|223|ICAO-KTSP|||||||||||||||||||||||||||||||||||||||||||||||||||||||||||||||||||||||||1021.0||1|FM15-METAR|223|ICAO-KTSP|||||||||||||||||||||||||||||||||||||||||||MET061METAR KTSP 182135Z AUTO 13008KT 9SM CLR 17/M02 A3015 RMK AO2;||F||223|ICAO-KTSP
USW00000479|TEHACHAPI MUNI AP|2009|12|18|22|00|35.1350|-118.4392|1219.5|17.0||1|FM15-METAR|223|ICAO-KTSP|-2.0||1|FM15-METAR|223|ICAO-KTSP|||||||||||||130|N-Normal|1|FM15-METAR|223|ICAO-KTSP|3.6|N-Normal|1|FM15-METAR|223|ICAO-KTSP|||||||||||||27|Derived||FM15-METAR|223|ICAO-KTSP|||||||||||||||||||||||||||||||||||||||||||||||||||||||||||||||||||||||||1020.7||1|FM15-METAR|223|ICAO-KTSP|||||||||||||||||||||||||||||||||||||||||||MET061METAR KTSP 182155Z AUTO 13007KT 7SM CLR 17/M02 A3014 RMK AO2;||F||223|ICAO-KTSP
USW00000479|TEHACHAPI MUNI AP|2009|12|18|22|15|35.1350|-118.4392|1219.5|17.0||1|FM15-METAR|223|ICAO-KTSP|-2.0||1|FM15-METAR|223|ICAO-KTSP|||||||||||||130|N-Normal|1|FM15-METAR|223|ICAO-KTSP|4.6|N-Normal|1|FM15-METAR|223|ICAO-KTSP|||||||||||||27|Derived||FM15-METAR|223|ICAO-KTSP|||||||||||||||||||||||||||||||||||||||||||||||||||||||||||||||||||||||||1020.7||1|FM15-METAR|223|ICAO-KTSP|||||||||||||||||||||||||||||||||||||||||||MET062METAR KTSP 182215Z AUTO 13009KT 10SM CLR 17/M02 A3014 RMK AO2;||F||223|ICAO-KTSP
USW00000479|TEHACHAPI MUNI AP|2009|12|18|22|35|35.1350|-118.4392|1219.5|17.0||1|FM15-METAR|223|ICAO-KTSP|-2.0||1|FM15-METAR|223|ICAO-KTSP|||||||||||||120|N-Normal|1|FM15-METAR|223|ICAO-KTSP|4.6|N-Normal|1|FM15-METAR|223|ICAO-KTSP|||||||||||||27|Derived||FM15-METAR|223|ICAO-KTSP|||||||||||||||||||||||||||||||||||||||||||||||||||||||||||||||||||||||||1020.7||1|FM15-METAR|223|ICAO-KTSP|||||||||||||||||||||||||||||||||||||||||||MET062METAR KTSP 182235Z AUTO 12009KT 10SM CLR 17/M02 A3014 RMK AO2;||F||223|ICAO-KTSP
USW00000479|TEHACHAPI MUNI AP|2009|12|18|23|00|35.1350|-118.4392|1219.5|16.0||1|FM15-METAR|223|ICAO-KTSP|0.0||1|FM15-METAR|223|ICAO-KTSP|||||||||||||999|C-Calm|9|FM15-METAR|223|ICAO-KTSP|0.0|C-Calm|1|FM15-METAR|223|ICAO-KTSP|||||||||||||34|Derived||FM15-METAR|223|ICAO-KTSP|||||||||||||||||||||||||||||||||||||||||||||||||||||||||||||||||||||||||1020.7||1|FM15-METAR|223|ICAO-KTSP|||||||||||||||||||||||||||||||||||||||||||MET060METAR KTSP 182255Z AUTO 00000KT 9SM CLR 16/00 A3014 RMK AO2;||F||223|ICAO-KTSP
USW00000479|TEHACHAPI MUNI AP|2009|12|18|23|15|35.1350|-118.4392|1219.5|14.0||1|FM15-METAR|223|ICAO-KTSP|1.0||1|FM15-METAR|223|ICAO-KTSP|||||||||||||999|C-Calm|9|FM15-METAR|223|ICAO-KTSP|0.0|C-Calm|1|FM15-METAR|223|ICAO-KTSP|||||||||||||41|Derived||FM15-METAR|223|ICAO-KTSP|||||||||||||||||||||||||||||||||||||||||||||||||||||||||||||||||||||||||1021.0||1|FM15-METAR|223|ICAO-KTSP|||||||||||||||||||||||||||||||||||||||||||MET060METAR KTSP 182315Z AUTO 00000KT 9SM CLR 14/01 A3015 RMK AO2;||F||223|ICAO-KTSP
USW00000479|TEHACHAPI MUNI AP|2009|12|18|23|35|35.1350|-118.4392|1219.5|12.0||1|FM15-METAR|223|ICAO-KTSP|1.0||1|FM15-METAR|223|ICAO-KTSP|||||||||||||310|N-Normal|1|FM15-METAR|223|ICAO-KTSP|2.1|N-Normal|1|FM15-METAR|223|ICAO-KTSP|||||||||||||47|Derived||FM15-METAR|223|ICAO-KTSP|||||||||||||||||||||||||||||||||||||||||||||||||||||||||||||||||||||||||1021.3||1|FM15-METAR|223|ICAO-KTSP|||||||||||||||||||||||||||||||||||||||||||MET060METAR KTSP 182335Z AUTO 31004KT 8SM CLR 12/01 A3016 RMK AO2;||F||223|ICAO-KTSP
USW00000479|TEHACHAPI MUNI AP|2009|12|19|00|00|35.1350|-118.4392|1219.5|10.0||1|FM15-METAR|223|ICAO-KTSP|0.0||1|FM15-METAR|223|ICAO-KTSP|||||||||||||999|C-Calm|9|FM15-METAR|223|ICAO-KTSP|0.0|C-Calm|1|FM15-METAR|223|ICAO-KTSP|||||||||||||50|Derived||FM15-METAR|223|ICAO-KTSP|||||||||||||||||||||||||||||||||||||||||||||||||||||||||||||||||||||||||1021.0||1|FM15-METAR|223|ICAO-KTSP|||||||||||||||||||||||||||||||||||||||||||MET060METAR KTSP 182355Z AUTO 00000KT 8SM CLR 10/00 A3015 RMK AO2;||F||223|ICAO-KTSP
USW00000479|TEHACHAPI MUNI AP|2009|12|19|00|15|35.1350|-118.4392|1219.5|10.0||1|FM15-METAR|223|ICAO-KTSP|1.0||1|FM15-METAR|223|ICAO-KTSP|||||||||||||999|C-Calm|9|FM15-METAR|223|ICAO-KTSP|0.0|C-Calm|1|FM15-METAR|223|ICAO-KTSP|||||||||||||54|Derived||FM15-METAR|223|ICAO-KTSP|||||||||||||||||||||||||||||||||||||||||||||||||||||||||||||||||||||||||1021.0||1|FM15-METAR|223|ICAO-KTSP|||||||||||||||||||||||||||||||||||||||||||MET060METAR KTSP 190015Z AUTO 00000KT 8SM CLR 10/01 A3015 RMK AO2;||F||223|ICAO-KTSP
USW00000479|TEHACHAPI MUNI AP|2009|12|19|00|35|35.1350|-118.4392|1219.5|9.0||1|FM15-METAR|223|ICAO-KTSP|1.0||1|FM15-METAR|223|ICAO-KTSP|||||||||||||999|C-Calm|9|FM15-METAR|223|ICAO-KTSP|0.0|C-Calm|1|FM15-METAR|223|ICAO-KTSP|||||||||||||58|Derived||FM15-METAR|223|ICAO-KTSP|||||||||||||||||||||||||||||||||||||||||||||||||||||||||||||||||||||||||1021.0||1|FM15-METAR|223|ICAO-KTSP|||||||||||||||||||||||||||||||||||||||||||MET060METAR KTSP 190035Z AUTO 00000KT 8SM CLR 09/01 A3015 RMK AO2;||F||223|ICAO-KTSP
USW00000479|TEHACHAPI MUNI AP|2009|12|19|01|00|35.1350|-118.4392|1219.5|8.0||1|FM15-METAR|223|ICAO-KTSP|1.0||1|FM15-METAR|223|ICAO-KTSP|||||||||||||999|C-Calm|9|FM15-METAR|223|ICAO-KTSP|0.0|C-Calm|1|FM15-METAR|223|ICAO-KTSP|||||||||||||62|Derived||FM15-METAR|223|ICAO-KTSP|||||||||||||||||||||||||||||||||||||||||||||||||||||||||||||||||||||||||1021.0||1|FM15-METAR|223|ICAO-KTSP|||||||||||||||||||||||||||||||||||||||||||MET060METAR KTSP 190055Z AUTO 00000KT 8SM CLR 08/01 A3015 RMK AO2;||F||223|ICAO-KTSP
USW00000479|TEHACHAPI MUNI AP|2009|12|19|01|15|35.1350|-118.4392|1219.5|8.0||1|FM15-METAR|223|ICAO-KTSP|1.0||1|FM15-METAR|223|ICAO-KTSP|||||||||||||999|C-Calm|9|FM15-METAR|223|ICAO-KTSP|0.0|C-Calm|1|FM15-METAR|223|ICAO-KTSP|||||||||||||62|Derived||FM15-METAR|223|ICAO-KTSP|||||||||||||||||||||||||||||||||||||||||||||||||||||||||||||||||||||||||1021.3||1|FM15-METAR|223|ICAO-KTSP|||||||||||||||||||||||||||||||||||||||||||MET060METAR KTSP 190115Z AUTO 00000KT 9SM CLR 08/01 A3016 RMK AO2;||F||223|ICAO-KTSP
USW00000479|TEHACHAPI MUNI AP|2009|12|19|01|35|35.1350|-118.4392|1219.5|5.0||1|FM15-METAR|223|ICAO-KTSP|1.0||1|FM15-METAR|223|ICAO-KTSP|||||||||||||999|C-Calm|9|FM15-METAR|223|ICAO-KTSP|0.0|C-Calm|1|FM15-METAR|223|ICAO-KTSP|||||||||||||76|Derived||FM15-METAR|223|ICAO-KTSP|||||||||||||||||||||||||||||||||||||||||||||||||||||||||||||||||||||||||1021.3||1|FM15-METAR|223|ICAO-KTSP|||||||||||||||||||||||||||||||||||||||||||MET060METAR KTSP 190135Z AUTO 00000KT 8SM CLR 05/01 A3016 RMK AO2;||F||223|ICAO-KTSP
USW00000479|TEHACHAPI MUNI AP|2009|12|19|02|15|35.1350|-118.4392|1219.5|9.0||1|FM15-METAR|223|ICAO-KTSP|-1.0||1|FM15-METAR|223|ICAO-KTSP|||||||||||||090|N-Normal|1|FM15-METAR|223|ICAO-KTSP|3.6|N-Normal|1|FM15-METAR|223|ICAO-KTSP|||||||||||||50|Derived||FM15-METAR|223|ICAO-KTSP|||||||||||||||||||||||||||||||||||||||||||||||||||||||||||||||||||||||||1021.3||1|FM15-METAR|223|ICAO-KTSP|||||||||||||||||||||||||||||||||||||||||||MET062METAR KTSP 190215Z AUTO 09007KT 10SM CLR 09/M01 A3016 RMK AO2;||F||223|ICAO-KTSP
USW00000479|TEHACHAPI MUNI AP|2009|12|19|02|35|35.1350|-118.4392|1219.5|9.0||1|FM15-METAR|223|ICAO-KTSP|-1.0||1|FM15-METAR|223|ICAO-KTSP|||||||||||||080|N-Normal|1|FM15-METAR|223|ICAO-KTSP|3.6|N-Normal|1|FM15-METAR|223|ICAO-KTSP|||||||||||||50|Derived||FM15-METAR|223|ICAO-KTSP|||||||||||||||||||||||||||||||||||||||||||||||||||||||||||||||||||||||||1021.7||1|FM15-METAR|223|ICAO-KTSP|||||||||||||||||||||||||||||||||||||||||||MET062METAR KTSP 190235Z AUTO 08007KT 10SM CLR 09/M01 A3017 RMK AO2;||F||223|ICAO-KTSP
USW00000479|TEHACHAPI MUNI AP|2009|12|19|03|00|35.1350|-118.4392|1219.5|9.0||1|FM15-METAR|223|ICAO-KTSP|-2.0||1|FM15-METAR|223|ICAO-KTSP|||||||||||||090|N-Normal|1|FM15-METAR|223|ICAO-KTSP|3.6|N-Normal|1|FM15-METAR|223|ICAO-KTSP|||||||||||||46|Derived||FM15-METAR|223|ICAO-KTSP|||||||||||||||||||||||||||||||||||||||||||||||||||||||||||||||||||||||||1022.0||1|FM15-METAR|223|ICAO-KTSP|||||||||||||||||||||||||||||||||||||||||||MET062METAR KTSP 190255Z AUTO 09007KT 10SM CLR 09/M02 A3018 RMK AO2;||F||223|ICAO-KTSP
USW00000479|TEHACHAPI MUNI AP|2009|12|19|03|15|35.1350|-118.4392|1219.5|9.0||1|FM15-METAR|223|ICAO-KTSP|-2.0||1|FM15-METAR|223|ICAO-KTSP|||||||||||||090|N-Normal|1|FM15-METAR|223|ICAO-KTSP|4.6|N-Normal|1|FM15-METAR|223|ICAO-KTSP|||||||||||||46|Derived||FM15-METAR|223|ICAO-KTSP|||||||||||||||||||||||||||||||||||||||||||||||||||||||||||||||||||||||||1022.0||1|FM15-METAR|223|ICAO-KTSP|||||||||||||||||||||||||||||||||||||||||||MET062METAR KTSP 190315Z AUTO 09009KT 10SM CLR 09/M02 A3018 RMK AO2;||F||223|ICAO-KTSP
USW00000479|TEHACHAPI MUNI AP|2009|12|19|03|35|35.1350|-118.4392|1219.5|9.0||1|FM15-METAR|223|ICAO-KTSP|-3.0||1|FM15-METAR|223|ICAO-KTSP|||||||||||||100|N-Normal|1|FM15-METAR|223|ICAO-KTSP|3.1|N-Normal|1|FM15-METAR|223|ICAO-KTSP|||||||||||||43|Derived||FM15-METAR|223|ICAO-KTSP|||||||||||||||||||||||||||||||||||||||||||||||||||||||||||||||||||||||||1022.0||1|FM15-METAR|223|ICAO-KTSP|||||||||||||||||||||||||||||||||||||||||||MET062METAR KTSP 190335Z AUTO 10006KT 10SM CLR 09/M03 A3018 RMK AO2;||F||223|ICAO-KTSP
USW00000479|TEHACHAPI MUNI AP|2009|12|19|04|00|35.1350|-118.4392|1219.5|9.0||1|FM15-METAR|223|ICAO-KTSP|-3.0||1|FM15-METAR|223|ICAO-KTSP|||||||||||||090|N-Normal|1|FM15-METAR|223|ICAO-KTSP|4.6|N-Normal|1|FM15-METAR|223|ICAO-KTSP|||||||||||||43|Derived||FM15-METAR|223|ICAO-KTSP|||||||||||||||||||||||||||||||||||||||||||||||||||||||||||||||||||||||||1022.4||1|FM15-METAR|223|ICAO-KTSP|||||||||||||||||||||||||||||||||||||||||||MET062METAR KTSP 190355Z AUTO 09009KT 10SM CLR 09/M03 A3019 RMK AO2;||F||223|ICAO-KTSP
USW00000479|TEHACHAPI MUNI AP|2009|12|19|04|15|35.1350|-118.4392|1219.5|9.0||1|FM15-METAR|223|ICAO-KTSP|-3.0||1|FM15-METAR|223|ICAO-KTSP|||||||||||||100|N-Normal|1|FM15-METAR|223|ICAO-KTSP|3.1|N-Normal|1|FM15-METAR|223|ICAO-KTSP|||||||||||||43|Derived||FM15-METAR|223|ICAO-KTSP|||||||||||||||||||||||||||||||||||||||||||||||||||||||||||||||||||||||||1022.4||1|FM15-METAR|223|ICAO-KTSP|||||||||||||||||||||||||||||||||||||||||||MET062METAR KTSP 190415Z AUTO 10006KT 10SM CLR 09/M03 A3019 RMK AO2;||F||223|ICAO-KTSP
USW00000479|TEHACHAPI MUNI AP|2009|12|19|04|35|35.1350|-118.4392|1219.5|8.0||1|FM15-METAR|223|ICAO-KTSP|-4.0||1|FM15-METAR|223|ICAO-KTSP|||||||||||||080|N-Normal|1|FM15-METAR|223|ICAO-KTSP|3.6|N-Normal|1|FM15-METAR|223|ICAO-KTSP|||||||||||||43|Derived||FM15-METAR|223|ICAO-KTSP|||||||||||||||||||||||||||||||||||||||||||||||||||||||||||||||||||||||||1022.4||1|FM15-METAR|223|ICAO-KTSP|||||||||||||||||||||||||||||||||||||||||||MET062METAR KTSP 190435Z AUTO 08007KT 10SM CLR 08/M04 A3019 RMK AO2;||F||223|ICAO-KTSP
USW00000479|TEHACHAPI MUNI AP|2009|12|19|05|00|35.1350|-118.4392|1219.5|8.0||1|FM15-METAR|223|ICAO-KTSP|-4.0||1|FM15-METAR|223|ICAO-KTSP|||||||||||||090|N-Normal|1|FM15-METAR|223|ICAO-KTSP|4.1|N-Normal|1|FM15-METAR|223|ICAO-KTSP|||||||||||||43|Derived||FM15-METAR|223|ICAO-KTSP|||||||||||||||||||||||||||||||||||||||||||||||||||||||||||||||||||||||||1022.0||1|FM15-METAR|223|ICAO-KTSP|||||||||||||||||||||||||||||||||||||||||||MET062METAR KTSP 190455Z AUTO 09008KT 10SM CLR 08/M04 A3018 RMK AO2;||F||223|ICAO-KTSP
USW00000479|TEHACHAPI MUNI AP|2009|12|19|05|15|35.1350|-118.4392|1219.5|8.0||1|FM15-METAR|223|ICAO-KTSP|-4.0||1|FM15-METAR|223|ICAO-KTSP|||||||||||||090|N-Normal|1|FM15-METAR|223|ICAO-KTSP|3.1|N-Normal|1|FM15-METAR|223|ICAO-KTSP|||||||||||||43|Derived||FM15-METAR|223|ICAO-KTSP|||||||||||||||||||||||||||||||||||||||||||||||||||||||||||||||||||||||||1022.4||1|FM15-METAR|223|ICAO-KTSP|||||||||||||||||||||||||||||||||||||||||||MET062METAR KTSP 190515Z AUTO 09006KT 10SM CLR 08/M04 A3019 RMK AO2;||F||223|ICAO-KTSP
USW00000479|TEHACHAPI MUNI AP|2009|12|19|05|35|35.1350|-118.4392|1219.5|8.0||1|FM15-METAR|223|ICAO-KTSP|-4.0||1|FM15-METAR|223|ICAO-KTSP|||||||||||||100|N-Normal|1|FM15-METAR|223|ICAO-KTSP|3.6|N-Normal|1|FM15-METAR|223|ICAO-KTSP|||||||||||||43|Derived||FM15-METAR|223|ICAO-KTSP|||||||||||||||||||||||||||||||||||||||||||||||||||||||||||||||||||||||||1022.4||1|FM15-METAR|223|ICAO-KTSP|||||||||||||||||||||||||||||||||||||||||||MET062METAR KTSP 190535Z AUTO 10007KT 10SM CLR 08/M04 A3019 RMK AO2;||F||223|ICAO-KTSP
USW00000479|TEHACHAPI MUNI AP|2009|12|19|06|00|35.1350|-118.4392|1219.5|9.0||1|FM15-METAR|223|ICAO-KTSP|-4.0||1|FM15-METAR|223|ICAO-KTSP|||||||||||||090|N-Normal|1|FM15-METAR|223|ICAO-KTSP|4.1|N-Normal|1|FM15-METAR|223|ICAO-KTSP|||||||||||||40|Derived||FM15-METAR|223|ICAO-KTSP|||||||||||||||||||||||||||||||||||||||||||||||||||||||||||||||||||||||||1022.4||1|FM15-METAR|223|ICAO-KTSP|||||||||||||||||||||||||||||||||||||||||||MET062METAR KTSP 190555Z AUTO 09008KT 10SM CLR 09/M04 A3019 RMK AO2;||F||223|ICAO-KTSP
USW00000479|TEHACHAPI MUNI AP|2009|12|19|06|15|35.1350|-118.4392|1219.5|8.0||1|FM15-METAR|223|ICAO-KTSP|-4.0||1|FM15-METAR|223|ICAO-KTSP|||||||||||||120|N-Normal|1|FM15-METAR|223|ICAO-KTSP|5.1|N-Normal|1|FM15-METAR|223|ICAO-KTSP|||||||||||||43|Derived||FM15-METAR|223|ICAO-KTSP|||||||||||||||||||||||||||||||||||||||||||||||||||||||||||||||||||||||||1022.4||1|FM15-METAR|223|ICAO-KTSP|||||||||||||||||||||||||||||||||||||||||||MET062METAR KTSP 190615Z AUTO 12010KT 10SM CLR 08/M04 A3019 RMK AO2;||F||223|ICAO-KTSP
USW00000479|TEHACHAPI MUNI AP|2009|12|19|06|35|35.1350|-118.4392|1219.5|9.0||1|FM15-METAR|223|ICAO-KTSP|-4.0||1|FM15-METAR|223|ICAO-KTSP|||||||||||||110|N-Normal|1|FM15-METAR|223|ICAO-KTSP|4.1|N-Normal|1|FM15-METAR|223|ICAO-KTSP|||||||||||||40|Derived||FM15-METAR|223|ICAO-KTSP|||||||||||||||||||||||||||||||||||||||||||||||||||||||||||||||||||||||||1022.4||1|FM15-METAR|223|ICAO-KTSP|||||||||||||||||||||||||||||||||||||||||||MET062METAR KTSP 190635Z AUTO 11008KT 10SM CLR 09/M04 A3019 RMK AO2;||F||223|ICAO-KTSP
USW00000479|TEHACHAPI MUNI AP|2009|12|19|07|00|35.1350|-118.4392|1219.5|9.0||1|FM15-METAR|223|ICAO-KTSP|-4.0||1|FM15-METAR|223|ICAO-KTSP|||||||||||||120|N-Normal|1|FM15-METAR|223|ICAO-KTSP|5.7|N-Normal|1|FM15-METAR|223|ICAO-KTSP|||||||||||||40|Derived||FM15-METAR|223|ICAO-KTSP|||||||||||||||||||||||||||||||||||||||||||||||||||||||||||||||||||||||||1022.4||1|FM15-METAR|223|ICAO-KTSP|||||||||||||||||||||||||||||||||||||||||||MET062METAR KTSP 190655Z AUTO 12011KT 10SM CLR 09/M04 A3019 RMK AO2;||F||223|ICAO-KTSP
USW00000479|TEHACHAPI MUNI AP|2009|12|19|07|15|35.1350|-118.4392|1219.5|9.0||1|FM15-METAR|223|ICAO-KTSP|-4.0||1|FM15-METAR|223|ICAO-KTSP|||||||||||||110|N-Normal|1|FM15-METAR|223|ICAO-KTSP|4.6|N-Normal|1|FM15-METAR|223|ICAO-KTSP|8.2||1|FM15-METAR|223|ICAO-KTSP|||||||40|Derived||FM15-METAR|223|ICAO-KTSP|||||||||||||||||||||||||||||||||||||||||||||||||||||||||||||||||||||||||1022.4||1|FM15-METAR|223|ICAO-KTSP|||||||||||||||||||||||||||||||||||||||||||MET065METAR KTSP 190715Z AUTO 11009G16KT 10SM CLR 09/M04 A3019 RMK AO2;||F||223|ICAO-KTSP
USW00000479|TEHACHAPI MUNI AP|2009|12|19|07|35|35.1350|-118.4392|1219.5|10.0||1|FM15-METAR|223|ICAO-KTSP|-4.0||1|FM15-METAR|223|ICAO-KTSP|||||||||||||090|N-Normal|1|FM15-METAR|223|ICAO-KTSP|4.6|N-Normal|1|FM15-METAR|223|ICAO-KTSP|||||||||||||37|Derived||FM15-METAR|223|ICAO-KTSP|||||||||||||||||||||||||||||||||||||||||||||||||||||||||||||||||||||||||1022.4||1|FM15-METAR|223|ICAO-KTSP|||||||||||||||||||||||||||||||||||||||||||MET062METAR KTSP 190735Z AUTO 09009KT 10SM CLR 10/M04 A3019 RMK AO2;||F||223|ICAO-KTSP
USW00000479|TEHACHAPI MUNI AP|2009|12|19|08|00|35.1350|-118.4392|1219.5|9.0||1|FM15-METAR|223|ICAO-KTSP|-3.0||1|FM15-METAR|223|ICAO-KTSP|||||||||||||110|N-Normal|1|FM15-METAR|223|ICAO-KTSP|4.6|N-Normal|1|FM15-METAR|223|ICAO-KTSP|||||||||||||43|Derived||FM15-METAR|223|ICAO-KTSP|||||||||||||||||||||||||||||||||||||||||||||||||||||||||||||||||||||||||1022.0||1|FM15-METAR|223|ICAO-KTSP|||||||||||||||||||||||||||||||||||||||||||MET062METAR KTSP 190755Z AUTO 11009KT 10SM CLR 09/M03 A3018 RMK AO2;||F||223|ICAO-KTSP
USW00000479|TEHACHAPI MUNI AP|2009|12|19|08|15|35.1350|-118.4392|1219.5|8.0||1|FM15-METAR|223|ICAO-KTSP|-3.0||1|FM15-METAR|223|ICAO-KTSP|||||||||||||110|N-Normal|1|FM15-METAR|223|ICAO-KTSP|5.1|N-Normal|1|FM15-METAR|223|ICAO-KTSP|||||||||||||46|Derived||FM15-METAR|223|ICAO-KTSP|||||||||||||||||||||||||||||||||||||||||||||||||||||||||||||||||||||||||1022.0||1|FM15-METAR|223|ICAO-KTSP|||||||||||||||||||||||||||||||||||||||||||MET062METAR KTSP 190815Z AUTO 11010KT 10SM CLR 08/M03 A3018 RMK AO2;||F||223|ICAO-KTSP
USW00000479|TEHACHAPI MUNI AP|2009|12|19|08|35|35.1350|-118.4392|1219.5|8.0||1|FM15-METAR|223|ICAO-KTSP|-3.0||1|FM15-METAR|223|ICAO-KTSP|||||||||||||120|N-Normal|1|FM15-METAR|223|ICAO-KTSP|5.7|N-Normal|1|FM15-METAR|223|ICAO-KTSP|||||||||||||46|Derived||FM15-METAR|223|ICAO-KTSP|||||||||||||||||||||||||||||||||||||||||||||||||||||||||||||||||||||||||1021.7||1|FM15-METAR|223|ICAO-KTSP|||||||||||||||||||||||||||||||||||||||||||MET062METAR KTSP 190835Z AUTO 12011KT 10SM CLR 08/M03 A3017 RMK AO2;||F||223|ICAO-KTSP
USW00000479|TEHACHAPI MUNI AP|2009|12|19|09|00|35.1350|-118.4392|1219.5|8.0||1|FM15-METAR|223|ICAO-KTSP|-3.0||1|FM15-METAR|223|ICAO-KTSP|||||||||||||110|N-Normal|1|FM15-METAR|223|ICAO-KTSP|5.1|N-Normal|1|FM15-METAR|223|ICAO-KTSP|||||||||||||46|Derived||FM15-METAR|223|ICAO-KTSP|||||||||||||||||||||||||||||||||||||||||||||||||||||||||||||||||||||||||1021.7||1|FM15-METAR|223|ICAO-KTSP|||||||||||||||||||||||||||||||||||||||||||MET062METAR KTSP 190855Z AUTO 11010KT 10SM CLR 08/M03 A3017 RMK AO2;||F||223|ICAO-KTSP
USW00000479|TEHACHAPI MUNI AP|2009|12|19|09|15|35.1350|-118.4392|1219.5|8.0||1|FM15-METAR|223|ICAO-KTSP|-3.0||1|FM15-METAR|223|ICAO-KTSP|||||||||||||110|N-Normal|1|FM15-METAR|223|ICAO-KTSP|5.1|N-Normal|1|FM15-METAR|223|ICAO-KTSP|||||||||||||46|Derived||FM15-METAR|223|ICAO-KTSP|||||||||||||||||||||||||||||||||||||||||||||||||||||||||||||||||||||||||1021.7||1|FM15-METAR|223|ICAO-KTSP|||||||||||||||||||||||||||||||||||||||||||MET062METAR KTSP 190915Z AUTO 11010KT 10SM CLR 08/M03 A3017 RMK AO2;||F||223|ICAO-KTSP
USW00000479|TEHACHAPI MUNI AP|2009|12|19|09|35|35.1350|-118.4392|1219.5|8.0||1|FM15-METAR|223|ICAO-KTSP|-3.0||1|FM15-METAR|223|ICAO-KTSP|||||||||||||100|N-Normal|1|FM15-METAR|223|ICAO-KTSP|5.1|N-Normal|1|FM15-METAR|223|ICAO-KTSP|||||||||||||46|Derived||FM15-METAR|223|ICAO-KTSP|||||||||||||||||||||||||||||||||||||||||||||||||||||||||||||||||||||||||1022.0||1|FM15-METAR|223|ICAO-KTSP|||||||||||||||||||||||||||||||||||||||||||MET062METAR KTSP 190935Z AUTO 10010KT 10SM CLR 08/M03 A3018 RMK AO2;||F||223|ICAO-KTSP
USW00000479|TEHACHAPI MUNI AP|2009|12|19|10|00|35.1350|-118.4392|1219.5|9.0||1|FM15-METAR|223|ICAO-KTSP|-4.0||1|FM15-METAR|223|ICAO-KTSP|||||||||||||100|N-Normal|1|FM15-METAR|223|ICAO-KTSP|4.6|N-Normal|1|FM15-METAR|223|ICAO-KTSP|||||||||||||40|Derived||FM15-METAR|223|ICAO-KTSP|||||||||||||||||||||||||||||||||||||||||||||||||||||||||||||||||||||||||1022.0||1|FM15-METAR|223|ICAO-KTSP|||||||||||||||||||||||||||||||||||||||||||MET062METAR KTSP 190955Z AUTO 10009KT 10SM CLR 09/M04 A3018 RMK AO2;||F||223|ICAO-KTSP
USW00000479|TEHACHAPI MUNI AP|2009|12|19|10|15|35.1350|-118.4392|1219.5|8.0||1|FM15-METAR|223|ICAO-KTSP|-3.0||1|FM15-METAR|223|ICAO-KTSP|||||||||||||100|N-Normal|1|FM15-METAR|223|ICAO-KTSP|4.6|N-Normal|1|FM15-METAR|223|ICAO-KTSP|||||||||||||46|Derived||FM15-METAR|223|ICAO-KTSP|||||||||||||||||||||||||||||||||||||||||||||||||||||||||||||||||||||||||1022.4||1|FM15-METAR|223|ICAO-KTSP|||||||||||||||||||||||||||||||||||||||||||MET062METAR KTSP 191015Z AUTO 10009KT 10SM CLR 08/M03 A3019 RMK AO2;||F||223|ICAO-KTSP
USW00000479|TEHACHAPI MUNI AP|2009|12|19|10|35|35.1350|-118.4392|1219.5|8.0||1|FM15-METAR|223|ICAO-KTSP|-4.0||1|FM15-METAR|223|ICAO-KTSP|||||||||||||100|N-Normal|1|FM15-METAR|223|ICAO-KTSP|3.6|N-Normal|1|FM15-METAR|223|ICAO-KTSP|||||||||||||43|Derived||FM15-METAR|223|ICAO-KTSP|||||||||||||||||||||||||||||||||||||||||||||||||||||||||||||||||||||||||1022.4||1|FM15-METAR|223|ICAO-KTSP|||||||||||||||||||||||||||||||||||||||||||MET062METAR KTSP 191035Z AUTO 10007KT 10SM CLR 08/M04 A3019 RMK AO2;||F||223|ICAO-KTSP
USW00000479|TEHACHAPI MUNI AP|2009|12|19|11|00|35.1350|-118.4392|1219.5|8.0||1|FM15-METAR|223|ICAO-KTSP|-3.0||1|FM15-METAR|223|ICAO-KTSP|||||||||||||100|N-Normal|1|FM15-METAR|223|ICAO-KTSP|4.6|N-Normal|1|FM15-METAR|223|ICAO-KTSP|||||||||||||46|Derived||FM15-METAR|223|ICAO-KTSP|||||||||||||||||||||||||||||||||||||||||||||||||||||||||||||||||||||||||1022.4||1|FM15-METAR|223|ICAO-KTSP|||||||||||||||||||||||||||||||||||||||||||MET062METAR KTSP 191055Z AUTO 10009KT 10SM CLR 08/M03 A3019 RMK AO2;||F||223|ICAO-KTSP
USW00000479|TEHACHAPI MUNI AP|2009|12|19|11|15|35.1350|-118.4392|1219.5|7.0||1|FM15-METAR|223|ICAO-KTSP|-3.0||1|FM15-METAR|223|ICAO-KTSP|||||||||||||110|N-Normal|1|FM15-METAR|223|ICAO-KTSP|4.1|N-Normal|1|FM15-METAR|223|ICAO-KTSP|||||||||||||49|Derived||FM15-METAR|223|ICAO-KTSP|||||||||||||||||||||||||||||||||||||||||||||||||||||||||||||||||||||||||1022.0||1|FM15-METAR|223|ICAO-KTSP|||||||||||||||||||||||||||||||||||||||||||MET062METAR KTSP 191115Z AUTO 11008KT 10SM CLR 07/M03 A3018 RMK AO2;||F||223|ICAO-KTSP
USW00000479|TEHACHAPI MUNI AP|2009|12|19|11|35|35.1350|-118.4392|1219.5|7.0||1|FM15-METAR|223|ICAO-KTSP|-3.0||1|FM15-METAR|223|ICAO-KTSP|||||||||||||110|N-Normal|1|FM15-METAR|223|ICAO-KTSP|5.7|N-Normal|1|FM15-METAR|223|ICAO-KTSP|||||||||||||49|Derived||FM15-METAR|223|ICAO-KTSP|||||||||||||||||||||||||||||||||||||||||||||||||||||||||||||||||||||||||1022.0||1|FM15-METAR|223|ICAO-KTSP|||||||||||||||||||||||||||||||||||||||||||MET062METAR KTSP 191135Z AUTO 11011KT 10SM CLR 07/M03 A3018 RMK AO2;||F||223|ICAO-KTSP
USW00000479|TEHACHAPI MUNI AP|2009|12|19|12|00|35.1350|-118.4392|1219.5|7.0||1|FM15-METAR|223|ICAO-KTSP|-3.0||1|FM15-METAR|223|ICAO-KTSP|||||||||||||110|N-Normal|1|FM15-METAR|223|ICAO-KTSP|5.7|N-Normal|1|FM15-METAR|223|ICAO-KTSP|||||||||||||49|Derived||FM15-METAR|223|ICAO-KTSP|||||||||||||||||||||||||||||||||||||||||||||||||||||||||||||||||||||||||1022.0||1|FM15-METAR|223|ICAO-KTSP|||||||||||||||||||||||||||||||||||||||||||MET062METAR KTSP 191155Z AUTO 11011KT 10SM CLR 07/M03 A3018 RMK AO2;||F||223|ICAO-KTSP
USW00000479|TEHACHAPI MUNI AP|2009|12|19|12|15|35.1350|-118.4392|1219.5|8.0||1|FM15-METAR|223|ICAO-KTSP|-3.0||1|FM15-METAR|223|ICAO-KTSP|||||||||||||120|N-Normal|1|FM15-METAR|223|ICAO-KTSP|5.1|N-Normal|1|FM15-METAR|223|ICAO-KTSP|||||||||||||46|Derived||FM15-METAR|223|ICAO-KTSP|||||||||||||||||||||||||||||||||||||||||||||||||||||||||||||||||||||||||1021.7||1|FM15-METAR|223|ICAO-KTSP|||||||||||||||||||||||||||||||||||||||||||MET062METAR KTSP 191215Z AUTO 12010KT 10SM CLR 08/M03 A3017 RMK AO2;||F||223|ICAO-KTSP
USW00000479|TEHACHAPI MUNI AP|2009|12|19|12|35|35.1350|-118.4392|1219.5|9.0||1|FM15-METAR|223|ICAO-KTSP|-3.0||1|FM15-METAR|223|ICAO-KTSP|||||||||||||090|N-Normal|1|FM15-METAR|223|ICAO-KTSP|6.2|N-Normal|1|FM15-METAR|223|ICAO-KTSP|8.2||1|FM15-METAR|223|ICAO-KTSP|||||||43|Derived||FM15-METAR|223|ICAO-KTSP|||||||||||||||||||||||||||||||||||||||||||||||||||||||||||||||||||||||||1022.0||1|FM15-METAR|223|ICAO-KTSP|||||||||||||||||||||||||||||||||||||||||||MET065METAR KTSP 191235Z AUTO 09012G16KT 10SM CLR 09/M03 A3018 RMK AO2;||F||223|ICAO-KTSP
USW00000479|TEHACHAPI MUNI AP|2009|12|19|13|00|35.1350|-118.4392|1219.5|9.0||1|FM15-METAR|223|ICAO-KTSP|-3.0||1|FM15-METAR|223|ICAO-KTSP|||||||||||||100|N-Normal|1|FM15-METAR|223|ICAO-KTSP|6.7|N-Normal|1|FM15-METAR|223|ICAO-KTSP|||||||||||||43|Derived||FM15-METAR|223|ICAO-KTSP|||||||||||||||||||||||||||||||||||||||||||||||||||||||||||||||||||||||||1021.7||1|FM15-METAR|223|ICAO-KTSP|||||||||||||||||||||||||||||||||||||||||||MET062METAR KTSP 191255Z AUTO 10013KT 10SM CLR 09/M03 A3017 RMK AO2;||F||223|ICAO-KTSP
USW00000479|TEHACHAPI MUNI AP|2009|12|19|13|15|35.1350|-118.4392|1219.5|8.0||1|FM15-METAR|223|ICAO-KTSP|-3.0||1|FM15-METAR|223|ICAO-KTSP|||||||||||||120|N-Normal|1|FM15-METAR|223|ICAO-KTSP|5.1|N-Normal|1|FM15-METAR|223|ICAO-KTSP|||||||||||||46|Derived||FM15-METAR|223|ICAO-KTSP|||||||||||||||||||||||||||||||||||||||||||||||||||||||||||||||||||||||||1022.0||1|FM15-METAR|223|ICAO-KTSP|||||||||||||||||||||||||||||||||||||||||||MET062METAR KTSP 191315Z AUTO 12010KT 10SM CLR 08/M03 A3018 RMK AO2;||F||223|ICAO-KTSP
USW00000479|TEHACHAPI MUNI AP|2009|12|19|13|35|35.1350|-118.4392|1219.5|8.0||1|FM15-METAR|223|ICAO-KTSP|-3.0||1|FM15-METAR|223|ICAO-KTSP|||||||||||||090|N-Normal|1|FM15-METAR|223|ICAO-KTSP|5.7|N-Normal|1|FM15-METAR|223|ICAO-KTSP|8.2||1|FM15-METAR|223|ICAO-KTSP|||||||46|Derived||FM15-METAR|223|ICAO-KTSP|||||||||||||||||||||||||||||||||||||||||||||||||||||||||||||||||||||||||1022.0||1|FM15-METAR|223|ICAO-KTSP|||||||||||||||||||||||||||||||||||||||||||MET065METAR KTSP 191335Z AUTO 09011G16KT 10SM CLR 08/M03 A3018 RMK AO2;||F||223|ICAO-KTSP
USW00000479|TEHACHAPI MUNI AP|2009|12|19|14|00|35.1350|-118.4392|1219.5|8.0||1|FM15-METAR|223|ICAO-KTSP|-3.0||1|FM15-METAR|223|ICAO-KTSP|||||||||||||100|N-Normal|1|FM15-METAR|223|ICAO-KTSP|5.1|N-Normal|1|FM15-METAR|223|ICAO-KTSP|||||||||||||46|Derived||FM15-METAR|223|ICAO-KTSP|||||||||||||||||||||||||||||||||||||||||||||||||||||||||||||||||||||||||1022.0||1|FM15-METAR|223|ICAO-KTSP|||||||||||||||||||||||||||||||||||||||||||MET062METAR KTSP 191355Z AUTO 10010KT 10SM CLR 08/M03 A3018 RMK AO2;||F||223|ICAO-KTSP
USW00000479|TEHACHAPI MUNI AP|2009|12|19|14|15|35.1350|-118.4392|1219.5|8.0||1|FM15-METAR|223|ICAO-KTSP|-3.0||1|FM15-METAR|223|ICAO-KTSP|||||||||||||100|N-Normal|1|FM15-METAR|223|ICAO-KTSP|4.6|N-Normal|1|FM15-METAR|223|ICAO-KTSP|||||||||||||46|Derived||FM15-METAR|223|ICAO-KTSP|||||||||||||||||||||||||||||||||||||||||||||||||||||||||||||||||||||||||1022.4||1|FM15-METAR|223|ICAO-KTSP|||||||||||||||||||||||||||||||||||||||||||MET062METAR KTSP 191415Z AUTO 10009KT 10SM CLR 08/M03 A3019 RMK AO2;||F||223|ICAO-KTSP
USW00000479|TEHACHAPI MUNI AP|2009|12|19|14|35|35.1350|-118.4392|1219.5|8.0||1|FM15-METAR|223|ICAO-KTSP|-3.0||1|FM15-METAR|223|ICAO-KTSP|||||||||||||100|N-Normal|1|FM15-METAR|223|ICAO-KTSP|5.1|N-Normal|1|FM15-METAR|223|ICAO-KTSP|||||||||||||46|Derived||FM15-METAR|223|ICAO-KTSP|||||||||||||||||||||||||||||||||||||||||||||||||||||||||||||||||||||||||1022.4||1|FM15-METAR|223|ICAO-KTSP|||||||||||||||||||||||||||||||||||||||||||MET062METAR KTSP 191435Z AUTO 10010KT 10SM CLR 08/M03 A3019 RMK AO2;||F||223|ICAO-KTSP
USW00000479|TEHACHAPI MUNI AP|2009|12|19|15|00|35.1350|-118.4392|1219.5|8.0||1|FM15-METAR|223|ICAO-KTSP|-3.0||1|FM15-METAR|223|ICAO-KTSP|||||||||||||130|N-Normal|1|FM15-METAR|223|ICAO-KTSP|6.2|N-Normal|1|FM15-METAR|223|ICAO-KTSP|8.7||1|FM15-METAR|223|ICAO-KTSP|||||||46|Derived||FM15-METAR|223|ICAO-KTSP|||||||||||||||||||||||||||||||||||||||||||||||||||||||||||||||||||||||||1022.7||1|FM15-METAR|223|ICAO-KTSP|||||||||||||||||||||||||||||||||||||||||||MET065METAR KTSP 191455Z AUTO 13012G17KT 10SM CLR 08/M03 A3020 RMK AO2;||F||223|ICAO-KTSP
USW00000479|TEHACHAPI MUNI AP|2009|12|19|15|15|35.1350|-118.4392|1219.5|9.0||1|FM15-METAR|223|ICAO-KTSP|-3.0||1|FM15-METAR|223|ICAO-KTSP|||||||||||||130|N-Normal|1|FM15-METAR|223|ICAO-KTSP|7.7|N-Normal|1|FM15-METAR|223|ICAO-KTSP|10.3||1|FM15-METAR|223|ICAO-KTSP|||||||43|Derived||FM15-METAR|223|ICAO-KTSP|||||||||||||||||||||||||||||||||||||||||||||||||||||||||||||||||||||||||1022.7||1|FM15-METAR|223|ICAO-KTSP|||||||||||||||||||||||||||||||||||||||||||MET065METAR KTSP 191515Z AUTO 13015G20KT 10SM CLR 09/M03 A3020 RMK AO2;||F||223|ICAO-KTSP
USW00000479|TEHACHAPI MUNI AP|2009|12|19|15|35|35.1350|-118.4392|1219.5|9.0||1|FM15-METAR|223|ICAO-KTSP|-3.0||1|FM15-METAR|223|ICAO-KTSP|||||||||||||130|N-Normal|1|FM15-METAR|223|ICAO-KTSP|7.2|N-Normal|1|FM15-METAR|223|ICAO-KTSP|||||||||||||43|Derived||FM15-METAR|223|ICAO-KTSP|||||||||||||||||||||||||||||||||||||||||||||||||||||||||||||||||||||||||1023.0||1|FM15-METAR|223|ICAO-KTSP|||||||||||||||||||||||||||||||||||||||||||MET062METAR KTSP 191535Z AUTO 13014KT 10SM CLR 09/M03 A3021 RMK AO2;||F||223|ICAO-KTSP
USW00000479|TEHACHAPI MUNI AP|2009|12|19|16|00|35.1350|-118.4392|1219.5|9.0||1|FM15-METAR|223|ICAO-KTSP|-2.0||1|FM15-METAR|223|ICAO-KTSP|||||||||||||130|N-Normal|1|FM15-METAR|223|ICAO-KTSP|8.2|N-Normal|1|FM15-METAR|223|ICAO-KTSP|||||||||||||46|Derived||FM15-METAR|223|ICAO-KTSP|||||||||||||||||||||||||||||||||||||||||||||||||||||||||||||||||||||||||1023.0||1|FM15-METAR|223|ICAO-KTSP|||||||||||||||||||||||||||||||||||||||||||MET062METAR KTSP 191555Z AUTO 13016KT 10SM CLR 09/M02 A3021 RMK AO2;||F||223|ICAO-KTSP
USW00000479|TEHACHAPI MUNI AP|2009|12|19|16|15|35.1350|-118.4392|1219.5|10.0||1|FM15-METAR|223|ICAO-KTSP|-2.0||1|FM15-METAR|223|ICAO-KTSP|||||||||||||130|N-Normal|1|FM15-METAR|223|ICAO-KTSP|6.7|N-Normal|1|FM15-METAR|223|ICAO-KTSP|8.2||1|FM15-METAR|223|ICAO-KTSP|||||||43|Derived||FM15-METAR|223|ICAO-KTSP|||||||||||||||||||||||||||||||||||||||||||||||||||||||||||||||||||||||||1023.4||1|FM15-METAR|223|ICAO-KTSP|||||||||||||||||||||||||||||||||||||||||||MET065METAR KTSP 191615Z AUTO 13013G16KT 10SM CLR 10/M02 A3022 RMK AO2;||F||223|ICAO-KTSP
USW00000479|TEHACHAPI MUNI AP|2009|12|19|16|35|35.1350|-118.4392|1219.5|10.0||1|FM15-METAR|223|ICAO-KTSP|-3.0||1|FM15-METAR|223|ICAO-KTSP|||||||||||||120|N-Normal|1|FM15-METAR|223|ICAO-KTSP|7.7|N-Normal|1|FM15-METAR|223|ICAO-KTSP|||||||||||||40|Derived||FM15-METAR|223|ICAO-KTSP|||||||||||||||||||||||||||||||||||||||||||||||||||||||||||||||||||||||||1023.4||1|FM15-METAR|223|ICAO-KTSP|||||||||||||||||||||||||||||||||||||||||||MET062METAR KTSP 191635Z AUTO 12015KT 10SM CLR 10/M03 A3022 RMK AO2;||F||223|ICAO-KTSP
USW00000479|TEHACHAPI MUNI AP|2009|12|19|17|00|35.1350|-118.4392|1219.5|11.0||1|FM15-METAR|223|ICAO-KTSP|-3.0||1|FM15-METAR|223|ICAO-KTSP|||||||||||||130|N-Normal|1|FM15-METAR|223|ICAO-KTSP|8.2|N-Normal|1|FM15-METAR|223|ICAO-KTSP|10.8||1|FM15-METAR|223|ICAO-KTSP|||||||38|Derived||FM15-METAR|223|ICAO-KTSP|||||||||||||||||||||||||||||||||||||||||||||||||||||||||||||||||||||||||1023.7||1|FM15-METAR|223|ICAO-KTSP|||||||||||||||||||||||||||||||||||||||||||MET065METAR KTSP 191655Z AUTO 13016G21KT 10SM CLR 11/M03 A3023 RMK AO2;||F||223|ICAO-KTSP
USW00000479|TEHACHAPI MUNI AP|2009|12|19|17|15|35.1350|-118.4392|1219.5|11.0||1|FM15-METAR|223|ICAO-KTSP|-3.0||1|FM15-METAR|223|ICAO-KTSP|||||||||||||130|N-Normal|1|FM15-METAR|223|ICAO-KTSP|8.7|N-Normal|1|FM15-METAR|223|ICAO-KTSP|11.3||1|FM15-METAR|223|ICAO-KTSP|||||||38|Derived||FM15-METAR|223|ICAO-KTSP|||||||||||||||||||||||||||||||||||||||||||||||||||||||||||||||||||||||||1023.7||1|FM15-METAR|223|ICAO-KTSP|||||||||||||||||||||||||||||||||||||||||||MET065METAR KTSP 191715Z AUTO 13017G22KT 10SM CLR 11/M03 A3023 RMK AO2;||F||223|ICAO-KTSP
USW00000479|TEHACHAPI MUNI AP|2009|12|19|17|35|35.1350|-118.4392|1219.5|11.0||1|FM15-METAR|223|ICAO-KTSP|-3.0||1|FM15-METAR|223|ICAO-KTSP|||||||||||||130|N-Normal|1|FM15-METAR|223|ICAO-KTSP|8.7|N-Normal|1|FM15-METAR|223|ICAO-KTSP|11.3||1|FM15-METAR|223|ICAO-KTSP|||||||38|Derived||FM15-METAR|223|ICAO-KTSP|||||||||||||||||||||||||||||||||||||||||||||||||||||||||||||||||||||||||1024.0||1|FM15-METAR|223|ICAO-KTSP|||||||||||||||||||||||||||||||||||||||||||MET065METAR KTSP 191735Z AUTO 13017G22KT 10SM CLR 11/M03 A3024 RMK AO2;||F||223|ICAO-KTSP
USW00000479|TEHACHAPI MUNI AP|2009|12|19|18|00|35.1350|-118.4392|1219.5|12.0||1|FM15-METAR|223|ICAO-KTSP|-3.0||1|FM15-METAR|223|ICAO-KTSP|||||||||||||130|N-Normal|1|FM15-METAR|223|ICAO-KTSP|8.7|N-Normal|1|FM15-METAR|223|ICAO-KTSP|10.8||1|FM15-METAR|223|ICAO-KTSP|||||||35|Derived||FM15-METAR|223|ICAO-KTSP|||||||||||||||||||||||||||||||||||||||||||||||||||||||||||||||||||||||||1024.0||1|FM15-METAR|223|ICAO-KTSP|||||||||||||||||||||||||||||||||||||||||||MET065METAR KTSP 191755Z AUTO 13017G21KT 10SM CLR 12/M03 A3024 RMK AO2;||F||223|ICAO-KTSP
USW00000479|TEHACHAPI MUNI AP|2009|12|19|18|15|35.1350|-118.4392|1219.5|12.0||1|FM15-METAR|223|ICAO-KTSP|-3.0||1|FM15-METAR|223|ICAO-KTSP|||||||||||||120|N-Normal|1|FM15-METAR|223|ICAO-KTSP|8.2|N-Normal|1|FM15-METAR|223|ICAO-KTSP|11.8||1|FM15-METAR|223|ICAO-KTSP|||||||35|Derived||FM15-METAR|223|ICAO-KTSP|||||||||||||||||||||||||||||||||||||||||||||||||||||||||||||||||||||||||1024.0||1|FM15-METAR|223|ICAO-KTSP|||||||||||||||||||||||||||||||||||||||||||MET065METAR KTSP 191815Z AUTO 12016G23KT 10SM CLR 12/M03 A3024 RMK AO2;||F||223|ICAO-KTSP
USW00000479|TEHACHAPI MUNI AP|2009|12|19|18|35|35.1350|-118.4392|1219.5|13.0||1|FM15-METAR|223|ICAO-KTSP|-3.0||1|FM15-METAR|223|ICAO-KTSP|||||||||||||110|N-Normal|1|FM15-METAR|223|ICAO-KTSP|8.7|N-Normal|1|FM15-METAR|223|ICAO-KTSP|10.8||1|FM15-METAR|223|ICAO-KTSP|||||||33|Derived||FM15-METAR|223|ICAO-KTSP|||||||||||||||||||||||||||||||||||||||||||||||||||||||||||||||||||||||||1024.0||1|FM15-METAR|223|ICAO-KTSP|||||||||||||||||||||||||||||||||||||||||||MET065METAR KTSP 191835Z AUTO 11017G21KT 10SM CLR 13/M03 A3024 RMK AO2;||F||223|ICAO-KTSP
USW00000479|TEHACHAPI MUNI AP|2009|12|19|19|00|35.1350|-118.4392|1219.5|13.0||1|FM15-METAR|223|ICAO-KTSP|-3.0||1|FM15-METAR|223|ICAO-KTSP|||||||||||||110|N-Normal|1|FM15-METAR|223|ICAO-KTSP|7.2|N-Normal|1|FM15-METAR|223|ICAO-KTSP|||||||||||||33|Derived||FM15-METAR|223|ICAO-KTSP|||||||||||||||||||||||||||||||||||||||||||||||||||||||||||||||||||||||||1023.7||1|FM15-METAR|223|ICAO-KTSP|||||||||||||||||||||||||||||||||||||||||||MET061METAR KTSP 191855Z AUTO 11014KT 9SM CLR 13/M03 A3023 RMK AO2;||F||223|ICAO-KTSP
USW00000479|TEHACHAPI MUNI AP|2009|12|19|19|15|35.1350|-118.4392|1219.5|13.0||1|FM15-METAR|223|ICAO-KTSP|-3.0||1|FM15-METAR|223|ICAO-KTSP|||||||||||||110|N-Normal|1|FM15-METAR|223|ICAO-KTSP|8.2|N-Normal|1|FM15-METAR|223|ICAO-KTSP|11.3||1|FM15-METAR|223|ICAO-KTSP|||||||33|Derived||FM15-METAR|223|ICAO-KTSP|||||||||||||||||||||||||||||||||||||||||||||||||||||||||||||||||||||||||1023.4||1|FM15-METAR|223|ICAO-KTSP|||||||||||||||||||||||||||||||||||||||||||MET064METAR KTSP 191915Z AUTO 11016G22KT 7SM CLR 13/M03 A3022 RMK AO2;||F||223|ICAO-KTSP
USW00000479|TEHACHAPI MUNI AP|2009|12|19|19|35|35.1350|-118.4392|1219.5|13.0||1|FM15-METAR|223|ICAO-KTSP|-3.0||1|FM15-METAR|223|ICAO-KTSP|||||||||||||110|N-Normal|1|FM15-METAR|223|ICAO-KTSP|7.2|N-Normal|1|FM15-METAR|223|ICAO-KTSP|10.3||1|FM15-METAR|223|ICAO-KTSP|||||||33|Derived||FM15-METAR|223|ICAO-KTSP|||||||||||||||||||||||||||||||||||||||||||||||||||||||||||||||||||||||||1023.0||1|FM15-METAR|223|ICAO-KTSP|||||||||||||||||||||||||||||||||||||||||||MET064METAR KTSP 191935Z AUTO 11014G20KT 9SM CLR 13/M03 A3021 RMK AO2;||F||223|ICAO-KTSP
USW00000479|TEHACHAPI MUNI AP|2009|12|19|20|00|35.1350|-118.4392|1219.5|13.0||1|FM15-METAR|223|ICAO-KTSP|-3.0||1|FM15-METAR|223|ICAO-KTSP|||||||||||||110|N-Normal|1|FM15-METAR|223|ICAO-KTSP|6.2|N-Normal|1|FM15-METAR|223|ICAO-KTSP|||||||||||||33|Derived||FM15-METAR|223|ICAO-KTSP|||||||||||||||||||||||||||||||||||||||||||||||||||||||||||||||||||||||||1023.0||1|FM15-METAR|223|ICAO-KTSP|||||||||||||||||||||||||||||||||||||||||||MET062METAR KTSP 191955Z AUTO 11012KT 10SM CLR 13/M03 A3021 RMK AO2;||F||223|ICAO-KTSP
USW00000479|TEHACHAPI MUNI AP|2009|12|19|20|35|35.1350|-118.4392|1219.5|13.0||1|FM15-METAR|223|ICAO-KTSP|-3.0||1|FM15-METAR|223|ICAO-KTSP|||||||||||||120|N-Normal|1|FM15-METAR|223|ICAO-KTSP|7.7|N-Normal|1|FM15-METAR|223|ICAO-KTSP|10.3||1|FM15-METAR|223|ICAO-KTSP|||||||33|Derived||FM15-METAR|223|ICAO-KTSP|||||||||||||||||||||||||||||||||||||||||||||||||||||||||||||||||||||||||1022.4||1|FM15-METAR|223|ICAO-KTSP|||||||||||||||||||||||||||||||||||||||||||MET065METAR KTSP 192035Z AUTO 12015G20KT 10SM CLR 13/M03 A3019 RMK AO2;||F||223|ICAO-KTSP
USW00000479|TEHACHAPI MUNI AP|2009|12|19|21|00|35.1350|-118.4392|1219.5|14.0||1|FM15-METAR|223|ICAO-KTSP|-3.0||1|FM15-METAR|223|ICAO-KTSP|||||||||||||110|N-Normal|1|FM15-METAR|223|ICAO-KTSP|6.7|N-Normal|1|FM15-METAR|223|ICAO-KTSP|||||||||||||31|Derived||FM15-METAR|223|ICAO-KTSP|||||||||||||||||||||||||||||||||||||||||||||||||||||||||||||||||||||||||1022.4||1|FM15-METAR|223|ICAO-KTSP|||||||||||||||||||||||||||||||||||||||||||MET062METAR KTSP 192055Z AUTO 11013KT 10SM CLR 14/M03 A3019 RMK AO2;||F||223|ICAO-KTSP
USW00000479|TEHACHAPI MUNI AP|2009|12|19|21|15|35.1350|-118.4392|1219.5|14.0||1|FM15-METAR|223|ICAO-KTSP|-3.0||1|FM15-METAR|223|ICAO-KTSP|||||||||||||120|N-Normal|1|FM15-METAR|223|ICAO-KTSP|5.7|N-Normal|1|FM15-METAR|223|ICAO-KTSP|8.7||1|FM15-METAR|223|ICAO-KTSP|||||||31|Derived||FM15-METAR|223|ICAO-KTSP|||||||||||||||||||||||||||||||||||||||||||||||||||||||||||||||||||||||||1022.4||1|FM15-METAR|223|ICAO-KTSP|||||||||||||||||||||||||||||||||||||||||||MET065METAR KTSP 192115Z AUTO 12011G17KT 10SM CLR 14/M03 A3019 RMK AO2;||F||223|ICAO-KTSP
USW00000479|TEHACHAPI MUNI AP|2009|12|19|21|35|35.1350|-118.4392|1219.5|14.0||1|FM15-METAR|223|ICAO-KTSP|-3.0||1|FM15-METAR|223|ICAO-KTSP|||||||||||||130|N-Normal|1|FM15-METAR|223|ICAO-KTSP|6.7|N-Normal|1|FM15-METAR|223|ICAO-KTSP|||||||||||||31|Derived||FM15-METAR|223|ICAO-KTSP|||||||||||||||||||||||||||||||||||||||||||||||||||||||||||||||||||||||||1022.0||1|FM15-METAR|223|ICAO-KTSP|||||||||||||||||||||||||||||||||||||||||||MET061METAR KTSP 192135Z AUTO 13013KT 9SM CLR 14/M03 A3018 RMK AO2;||F||223|ICAO-KTSP
USW00000479|TEHACHAPI MUNI AP|2009|12|19|22|00|35.1350|-118.4392|1219.5|14.0||1|FM15-METAR|223|ICAO-KTSP|-3.0||1|FM15-METAR|223|ICAO-KTSP|||||||||||||120|N-Normal|1|FM15-METAR|223|ICAO-KTSP|5.1|N-Normal|1|FM15-METAR|223|ICAO-KTSP|8.2||1|FM15-METAR|223|ICAO-KTSP|||||||31|Derived||FM15-METAR|223|ICAO-KTSP|||||||||||||||||||||||||||||||||||||||||||||||||||||||||||||||||||||||||1022.0||1|FM15-METAR|223|ICAO-KTSP|||||||||||||||||||||||||||||||||||||||||||MET064METAR KTSP 192155Z AUTO 12010G16KT 9SM CLR 14/M03 A3018 RMK AO2;||F||223|ICAO-KTSP
USW00000479|TEHACHAPI MUNI AP|2009|12|19|22|15|35.1350|-118.4392|1219.5|14.0||1|FM15-METAR|223|ICAO-KTSP|-3.0||1|FM15-METAR|223|ICAO-KTSP|||||||||||||130|N-Normal|1|FM15-METAR|223|ICAO-KTSP|6.7|N-Normal|1|FM15-METAR|223|ICAO-KTSP|||||||||||||31|Derived||FM15-METAR|223|ICAO-KTSP|||||||||||||||||||||||||||||||||||||||||||||||||||||||||||||||||||||||||1022.0||1|FM15-METAR|223|ICAO-KTSP|||||||||||||||||||||||||||||||||||||||||||MET061METAR KTSP 192215Z AUTO 13013KT 9SM CLR 14/M03 A3018 RMK AO2;||F||223|ICAO-KTSP
USW00000479|TEHACHAPI MUNI AP|2009|12|19|22|35|35.1350|-118.4392|1219.5|14.0||1|FM15-METAR|223|ICAO-KTSP|-3.0||1|FM15-METAR|223|ICAO-KTSP|||||||||||||130|N-Normal|1|FM15-METAR|223|ICAO-KTSP|4.6|N-Normal|1|FM15-METAR|223|ICAO-KTSP|||||||||||||31|Derived||FM15-METAR|223|ICAO-KTSP|||||||||||||||||||||||||||||||||||||||||||||||||||||||||||||||||||||||||1022.0||1|FM15-METAR|223|ICAO-KTSP|||||||||||||||||||||||||||||||||||||||||||MET062METAR KTSP 192235Z AUTO 13009KT 10SM CLR 14/M03 A3018 RMK AO2;||F||223|ICAO-KTSP
USW00000479|TEHACHAPI MUNI AP|2009|12|19|23|00|35.1350|-118.4392|1219.5|13.0||1|FM15-METAR|223|ICAO-KTSP|-3.0||1|FM15-METAR|223|ICAO-KTSP|||||||||||||130|N-Normal|1|FM15-METAR|223|ICAO-KTSP|5.1|N-Normal|1|FM15-METAR|223|ICAO-KTSP|||||||||||||33|Derived||FM15-METAR|223|ICAO-KTSP|||||||||||||||||||||||||||||||||||||||||||||||||||||||||||||||||||||||||1022.0||1|FM15-METAR|223|ICAO-KTSP|||||||||||||||||||||||||||||||||||||||||||MET062METAR KTSP 192255Z AUTO 13010KT 10SM CLR 13/M03 A3018 RMK AO2;||F||223|ICAO-KTSP
USW00000479|TEHACHAPI MUNI AP|2009|12|19|23|15|35.1350|-118.4392|1219.5|13.0||1|FM15-METAR|223|ICAO-KTSP|-3.0||1|FM15-METAR|223|ICAO-KTSP|||||||||||||130|N-Normal|1|FM15-METAR|223|ICAO-KTSP|4.6|N-Normal|1|FM15-METAR|223|ICAO-KTSP|||||||||||||33|Derived||FM15-METAR|223|ICAO-KTSP|||||||||||||||||||||||||||||||||||||||||||||||||||||||||||||||||||||||||1022.0||1|FM15-METAR|223|ICAO-KTSP|||||||||||||||||||||||||||||||||||||||||||MET062METAR KTSP 192315Z AUTO 13009KT 10SM CLR 13/M03 A3018 RMK AO2;||F||223|ICAO-KTSP
USW00000479|TEHACHAPI MUNI AP|2009|12|19|23|35|35.1350|-118.4392|1219.5|13.0||1|FM15-METAR|223|ICAO-KTSP|-3.0||1|FM15-METAR|223|ICAO-KTSP|||||||||||||110|N-Normal|1|FM15-METAR|223|ICAO-KTSP|4.1|N-Normal|1|FM15-METAR|223|ICAO-KTSP|7.2||1|FM15-METAR|223|ICAO-KTSP|||||||33|Derived||FM15-METAR|223|ICAO-KTSP|||||||||||||||||||||||||||||||||||||||||||||||||||||||||||||||||||||||||1022.0||1|FM15-METAR|223|ICAO-KTSP|||||||||||||||||||||||||||||||||||||||||||MET065METAR KTSP 192335Z AUTO 11008G14KT 10SM CLR 13/M03 A3018 RMK AO2;||F||223|ICAO-KTSP
USW00000479|TEHACHAPI MUNI AP|2009|12|20|00|00|35.1350|-118.4392|1219.5|12.0||1|FM15-METAR|223|ICAO-KTSP|-3.0||1|FM15-METAR|223|ICAO-KTSP|||||||||||||120|N-Normal|1|FM15-METAR|223|ICAO-KTSP|4.1|N-Normal|1|FM15-METAR|223|ICAO-KTSP|||||||||||||35|Derived||FM15-METAR|223|ICAO-KTSP|||||||||||||||||||||||||||||||||||||||||||||||||||||||||||||||||||||||||1022.4||1|FM15-METAR|223|ICAO-KTSP|||||||||||||||||||||||||||||||||||||||||||MET062METAR KTSP 192355Z AUTO 12008KT 10SM CLR 12/M03 A3019 RMK AO2;||F||223|ICAO-KTSP
USW00000479|TEHACHAPI MUNI AP|2009|12|20|00|15|35.1350|-118.4392|1219.5|12.0||1|FM15-METAR|223|ICAO-KTSP|-3.0||1|FM15-METAR|223|ICAO-KTSP|||||||||||||120|N-Normal|1|FM15-METAR|223|ICAO-KTSP|3.6|N-Normal|1|FM15-METAR|223|ICAO-KTSP|||||||||||||35|Derived||FM15-METAR|223|ICAO-KTSP|||||||||||||||||||||||||||||||||||||||||||||||||||||||||||||||||||||||||1022.4||1|FM15-METAR|223|ICAO-KTSP|||||||||||||||||||||||||||||||||||||||||||MET062METAR KTSP 200015Z AUTO 12007KT 10SM CLR 12/M03 A3019 RMK AO2;||F||223|ICAO-KTSP
USW00000479|TEHACHAPI MUNI AP|2009|12|20|00|35|35.1350|-118.4392|1219.5|10.0||1|FM15-METAR|223|ICAO-KTSP|-3.0||1|FM15-METAR|223|ICAO-KTSP|||||||||||||100|N-Normal|1|FM15-METAR|223|ICAO-KTSP|3.1|N-Normal|1|FM15-METAR|223|ICAO-KTSP|||||||||||||40|Derived||FM15-METAR|223|ICAO-KTSP|||||||||||||||||||||||||||||||||||||||||||||||||||||||||||||||||||||||||1022.7||1|FM15-METAR|223|ICAO-KTSP|||||||||||||||||||||||||||||||||||||||||||MET062METAR KTSP 200035Z AUTO 10006KT 10SM CLR 10/M03 A3020 RMK AO2;||F||223|ICAO-KTSP
USW00000479|TEHACHAPI MUNI AP|2009|12|20|01|00|35.1350|-118.4392|1219.5|9.0||1|FM15-METAR|223|ICAO-KTSP|-3.0||1|FM15-METAR|223|ICAO-KTSP|||||||||||||080|N-Normal|1|FM15-METAR|223|ICAO-KTSP|5.1|N-Normal|1|FM15-METAR|223|ICAO-KTSP|||||||||||||43|Derived||FM15-METAR|223|ICAO-KTSP|||||||||||||||||||||||||||||||||||||||||||||||||||||||||||||||||||||||||1022.4||1|FM15-METAR|223|ICAO-KTSP|||||||||||||||||||||||||||||||||||||||||||MET062METAR KTSP 200055Z AUTO 08010KT 10SM CLR 09/M03 A3019 RMK AO2;||F||223|ICAO-KTSP
USW00000479|TEHACHAPI MUNI AP|2009|12|20|01|15|35.1350|-118.4392|1219.5|10.0||1|FM15-METAR|223|ICAO-KTSP|-3.0||1|FM15-METAR|223|ICAO-KTSP|||||||||||||100|N-Normal|1|FM15-METAR|223|ICAO-KTSP|4.6|N-Normal|1|FM15-METAR|223|ICAO-KTSP|||||||||||||40|Derived||FM15-METAR|223|ICAO-KTSP|||||||||||||||||||||||||||||||||||||||||||||||||||||||||||||||||||||||||1022.7||1|FM15-METAR|223|ICAO-KTSP|||||||||||||||||||||||||||||||||||||||||||MET062METAR KTSP 200115Z AUTO 10009KT 10SM CLR 10/M03 A3020 RMK AO2;||F||223|ICAO-KTSP
USW00000479|TEHACHAPI MUNI AP|2009|12|20|01|35|35.1350|-118.4392|1219.5|10.0||1|FM15-METAR|223|ICAO-KTSP|-3.0||1|FM15-METAR|223|ICAO-KTSP|||||||||||||090|N-Normal|1|FM15-METAR|223|ICAO-KTSP|4.1|N-Normal|1|FM15-METAR|223|ICAO-KTSP|||||||||||||40|Derived||FM15-METAR|223|ICAO-KTSP|||||||||||||||||||||||||||||||||||||||||||||||||||||||||||||||||||||||||1022.7||1|FM15-METAR|223|ICAO-KTSP|||||||||||||||||||||||||||||||||||||||||||MET062METAR KTSP 200135Z AUTO 09008KT 10SM CLR 10/M03 A3020 RMK AO2;||F||223|ICAO-KTSP
USW00000479|TEHACHAPI MUNI AP|2009|12|20|02|00|35.1350|-118.4392|1219.5|10.0||1|FM15-METAR|223|ICAO-KTSP|-3.0||1|FM15-METAR|223|ICAO-KTSP|||||||||||||100|N-Normal|1|FM15-METAR|223|ICAO-KTSP|5.1|N-Normal|1|FM15-METAR|223|ICAO-KTSP|||||||||||||40|Derived||FM15-METAR|223|ICAO-KTSP|||||||||||||||||||||||||||||||||||||||||||||||||||||||||||||||||||||||||1022.7||1|FM15-METAR|223|ICAO-KTSP|||||||||||||||||||||||||||||||||||||||||||MET062METAR KTSP 200155Z AUTO 10010KT 10SM CLR 10/M03 A3020 RMK AO2;||F||223|ICAO-KTSP
USW00000479|TEHACHAPI MUNI AP|2009|12|20|02|15|35.1350|-118.4392|1219.5|9.0||1|FM15-METAR|223|ICAO-KTSP|-3.0||1|FM15-METAR|223|ICAO-KTSP|||||||||||||090|N-Normal|1|FM15-METAR|223|ICAO-KTSP|4.6|N-Normal|1|FM15-METAR|223|ICAO-KTSP|7.2||1|FM15-METAR|223|ICAO-KTSP|||||||43|Derived||FM15-METAR|223|ICAO-KTSP|||||||||||||||||||||||||||||||||||||||||||||||||||||||||||||||||||||||||1022.7||1|FM15-METAR|223|ICAO-KTSP|||||||||||||||||||||||||||||||||||||||||||MET065METAR KTSP 200215Z AUTO 09009G14KT 10SM CLR 09/M03 A3020 RMK AO2;||F||223|ICAO-KTSP
USW00000479|TEHACHAPI MUNI AP|2009|12|20|02|35|35.1350|-118.4392|1219.5|9.0||1|FM15-METAR|223|ICAO-KTSP|-3.0||1|FM15-METAR|223|ICAO-KTSP|||||||||||||090|N-Normal|1|FM15-METAR|223|ICAO-KTSP|4.1|N-Normal|1|FM15-METAR|223|ICAO-KTSP|||||||||||||43|Derived||FM15-METAR|223|ICAO-KTSP|||||||||||||||||||||||||||||||||||||||||||||||||||||||||||||||||||||||||1022.7||1|FM15-METAR|223|ICAO-KTSP|||||||||||||||||||||||||||||||||||||||||||MET062METAR KTSP 200235Z AUTO 09008KT 10SM CLR 09/M03 A3020 RMK AO2;||F||223|ICAO-KTSP
USW00000479|TEHACHAPI MUNI AP|2009|12|20|03|00|35.1350|-118.4392|1219.5|9.0||1|FM15-METAR|223|ICAO-KTSP|-3.0||1|FM15-METAR|223|ICAO-KTSP|||||||||||||090|N-Normal|1|FM15-METAR|223|ICAO-KTSP|4.1|N-Normal|1|FM15-METAR|223|ICAO-KTSP|||||||||||||43|Derived||FM15-METAR|223|ICAO-KTSP|||||||||||||||||||||||||||||||||||||||||||||||||||||||||||||||||||||||||1022.7||1|FM15-METAR|223|ICAO-KTSP|||||||||||||||||||||||||||||||||||||||||||MET062METAR KTSP 200255Z AUTO 09008KT 10SM CLR 09/M03 A3020 RMK AO2;||F||223|ICAO-KTSP
USW00000479|TEHACHAPI MUNI AP|2009|12|20|03|15|35.1350|-118.4392|1219.5|9.0||1|FM15-METAR|223|ICAO-KTSP|-3.0||1|FM15-METAR|223|ICAO-KTSP|||||||||||||090|N-Normal|1|FM15-METAR|223|ICAO-KTSP|3.6|N-Normal|1|FM15-METAR|223|ICAO-KTSP|||||||||||||43|Derived||FM15-METAR|223|ICAO-KTSP|||||||||||||||||||||||||||||||||||||||||||||||||||||||||||||||||||||||||1023.0||1|FM15-METAR|223|ICAO-KTSP|||||||||||||||||||||||||||||||||||||||||||MET062METAR KTSP 200315Z AUTO 09007KT 10SM CLR 09/M03 A3021 RMK AO2;||F||223|ICAO-KTSP
USW00000479|TEHACHAPI MUNI AP|2009|12|20|03|35|35.1350|-118.4392|1219.5|9.0||1|FM15-METAR|223|ICAO-KTSP|-3.0||1|FM15-METAR|223|ICAO-KTSP|||||||||||||090|N-Normal|1|FM15-METAR|223|ICAO-KTSP|4.1|N-Normal|1|FM15-METAR|223|ICAO-KTSP|||||||||||||43|Derived||FM15-METAR|223|ICAO-KTSP|||||||||||||||||||||||||||||||||||||||||||||||||||||||||||||||||||||||||1022.7||1|FM15-METAR|223|ICAO-KTSP|||||||||||||||||||||||||||||||||||||||||||MET062METAR KTSP 200335Z AUTO 09008KT 10SM CLR 09/M03 A3020 RMK AO2;||F||223|ICAO-KTSP
USW00000479|TEHACHAPI MUNI AP|2009|12|20|04|00|35.1350|-118.4392|1219.5|9.0||1|FM15-METAR|223|ICAO-KTSP|-3.0||1|FM15-METAR|223|ICAO-KTSP|||||||||||||100|N-Normal|1|FM15-METAR|223|ICAO-KTSP|3.6|N-Normal|1|FM15-METAR|223|ICAO-KTSP|||||||||||||43|Derived||FM15-METAR|223|ICAO-KTSP|||||||||||||||||||||||||||||||||||||||||||||||||||||||||||||||||||||||||1022.7||1|FM15-METAR|223|ICAO-KTSP|||||||||||||||||||||||||||||||||||||||||||MET062METAR KTSP 200355Z AUTO 10007KT 10SM CLR 09/M03 A3020 RMK AO2;||F||223|ICAO-KTSP
USW00000479|TEHACHAPI MUNI AP|2009|12|20|04|15|35.1350|-118.4392|1219.5|9.0||1|FM15-METAR|223|ICAO-KTSP|-3.0||1|FM15-METAR|223|ICAO-KTSP|||||||||||||090|N-Normal|1|FM15-METAR|223|ICAO-KTSP|4.1|N-Normal|1|FM15-METAR|223|ICAO-KTSP|||||||||||||43|Derived||FM15-METAR|223|ICAO-KTSP|||||||||||||||||||||||||||||||||||||||||||||||||||||||||||||||||||||||||1022.7||1|FM15-METAR|223|ICAO-KTSP|||||||||||||||||||||||||||||||||||||||||||MET062METAR KTSP 200415Z AUTO 09008KT 10SM CLR 09/M03 A3020 RMK AO2;||F||223|ICAO-KTSP
USW00000479|TEHACHAPI MUNI AP|2009|12|20|04|35|35.1350|-118.4392|1219.5|8.0||1|FM15-METAR|223|ICAO-KTSP|-3.0||1|FM15-METAR|223|ICAO-KTSP|||||||||||||090|N-Normal|1|FM15-METAR|223|ICAO-KTSP|5.1|N-Normal|1|FM15-METAR|223|ICAO-KTSP|||||||||||||46|Derived||FM15-METAR|223|ICAO-KTSP|||||||||||||||||||||||||||||||||||||||||||||||||||||||||||||||||||||||||1022.7||1|FM15-METAR|223|ICAO-KTSP|||||||||||||||||||||||||||||||||||||||||||MET062METAR KTSP 200435Z AUTO 09010KT 10SM CLR 08/M03 A3020 RMK AO2;||F||223|ICAO-KTSP
USW00000479|TEHACHAPI MUNI AP|2009|12|20|05|00|35.1350|-118.4392|1219.5|8.0||1|FM15-METAR|223|ICAO-KTSP|-3.0||1|FM15-METAR|223|ICAO-KTSP|||||||||||||090|N-Normal|1|FM15-METAR|223|ICAO-KTSP|4.6|N-Normal|1|FM15-METAR|223|ICAO-KTSP|||||||||||||46|Derived||FM15-METAR|223|ICAO-KTSP|||||||||||||||||||||||||||||||||||||||||||||||||||||||||||||||||||||||||1022.4||1|FM15-METAR|223|ICAO-KTSP|||||||||||||||||||||||||||||||||||||||||||MET062METAR KTSP 200455Z AUTO 09009KT 10SM CLR 08/M03 A3019 RMK AO2;||F||223|ICAO-KTSP
USW00000479|TEHACHAPI MUNI AP|2009|12|20|05|15|35.1350|-118.4392|1219.5|8.0||1|FM15-METAR|223|ICAO-KTSP|-3.0||1|FM15-METAR|223|ICAO-KTSP|||||||||||||090|N-Normal|1|FM15-METAR|223|ICAO-KTSP|4.6|N-Normal|1|FM15-METAR|223|ICAO-KTSP|||||||||||||46|Derived||FM15-METAR|223|ICAO-KTSP|||||||||||||||||||||||||||||||||||||||||||||||||||||||||||||||||||||||||1022.7||1|FM15-METAR|223|ICAO-KTSP|||||||||||||||||||||||||||||||||||||||||||MET062METAR KTSP 200515Z AUTO 09009KT 10SM CLR 08/M03 A3020 RMK AO2;||F||223|ICAO-KTSP
USW00000479|TEHACHAPI MUNI AP|2009|12|20|05|35|35.1350|-118.4392|1219.5|8.0||1|FM15-METAR|223|ICAO-KTSP|-3.0||1|FM15-METAR|223|ICAO-KTSP|||||||||||||090|N-Normal|1|FM15-METAR|223|ICAO-KTSP|4.1|N-Normal|1|FM15-METAR|223|ICAO-KTSP|||||||||||||46|Derived||FM15-METAR|223|ICAO-KTSP|||||||||||||||||||||||||||||||||||||||||||||||||||||||||||||||||||||||||1022.7||1|FM15-METAR|223|ICAO-KTSP|||||||||||||||||||||||||||||||||||||||||||MET062METAR KTSP 200535Z AUTO 09008KT 10SM CLR 08/M03 A3020 RMK AO2;||F||223|ICAO-KTSP
USW00000479|TEHACHAPI MUNI AP|2009|12|20|06|00|35.1350|-118.4392|1219.5|8.0||1|FM15-METAR|223|ICAO-KTSP|-3.0||1|FM15-METAR|223|ICAO-KTSP|||||||||||||090|N-Normal|1|FM15-METAR|223|ICAO-KTSP|3.6|N-Normal|1|FM15-METAR|223|ICAO-KTSP|||||||||||||46|Derived||FM15-METAR|223|ICAO-KTSP|||||||||||||||||||||||||||||||||||||||||||||||||||||||||||||||||||||||||1022.7||1|FM15-METAR|223|ICAO-KTSP|||||||||||||||||||||||||||||||||||||||||||MET062METAR KTSP 200555Z AUTO 09007KT 10SM CLR 08/M03 A3020 RMK AO2;||F||223|ICAO-KTSP
USW00000479|TEHACHAPI MUNI AP|2009|12|20|06|15|35.1350|-118.4392|1219.5|8.0||1|FM15-METAR|223|ICAO-KTSP|-3.0||1|FM15-METAR|223|ICAO-KTSP|||||||||||||090|N-Normal|1|FM15-METAR|223|ICAO-KTSP|4.6|N-Normal|1|FM15-METAR|223|ICAO-KTSP|||||||||||||46|Derived||FM15-METAR|223|ICAO-KTSP|||||||||||||||||||||||||||||||||||||||||||||||||||||||||||||||||||||||||1022.7||1|FM15-METAR|223|ICAO-KTSP|||||||||||||||||||||||||||||||||||||||||||MET062METAR KTSP 200615Z AUTO 09009KT 10SM CLR 08/M03 A3020 RMK AO2;||F||223|ICAO-KTSP
USW00000479|TEHACHAPI MUNI AP|2009|12|20|06|35|35.1350|-118.4392|1219.5|8.0||1|FM15-METAR|223|ICAO-KTSP|-3.0||1|FM15-METAR|223|ICAO-KTSP|||||||||||||090|N-Normal|1|FM15-METAR|223|ICAO-KTSP|4.1|N-Normal|1|FM15-METAR|223|ICAO-KTSP|||||||||||||46|Derived||FM15-METAR|223|ICAO-KTSP|||||||||||||||||||||||||||||||||||||||||||||||||||||||||||||||||||||||||1022.7||1|FM15-METAR|223|ICAO-KTSP|||||||||||||||||||||||||||||||||||||||||||MET062METAR KTSP 200635Z AUTO 09008KT 10SM CLR 08/M03 A3020 RMK AO2;||F||223|ICAO-KTSP
USW00000479|TEHACHAPI MUNI AP|2009|12|20|07|00|35.1350|-118.4392|1219.5|7.0||1|FM15-METAR|223|ICAO-KTSP|-3.0||1|FM15-METAR|223|ICAO-KTSP|||||||||||||100|N-Normal|1|FM15-METAR|223|ICAO-KTSP|3.6|N-Normal|1|FM15-METAR|223|ICAO-KTSP|||||||||||||49|Derived||FM15-METAR|223|ICAO-KTSP|||||||||||||||||||||||||||||||||||||||||||||||||||||||||||||||||||||||||1022.7||1|FM15-METAR|223|ICAO-KTSP|||||||||||||||||||||||||||||||||||||||||||MET062METAR KTSP 200655Z AUTO 10007KT 10SM CLR 07/M03 A3020 RMK AO2;||F||223|ICAO-KTSP
USW00000479|TEHACHAPI MUNI AP|2009|12|20|07|15|35.1350|-118.4392|1219.5|5.0||1|FM15-METAR|223|ICAO-KTSP|-3.0||1|FM15-METAR|223|ICAO-KTSP|||||||||||||090|N-Normal|1|FM15-METAR|223|ICAO-KTSP|4.6|N-Normal|1|FM15-METAR|223|ICAO-KTSP|||||||||||||57|Derived||FM15-METAR|223|ICAO-KTSP|||||||||||||||||||||||||||||||||||||||||||||||||||||||||||||||||||||||||1022.4||1|FM15-METAR|223|ICAO-KTSP|||||||||||||||||||||||||||||||||||||||||||MET062METAR KTSP 200715Z AUTO 09009KT 10SM CLR 05/M03 A3019 RMK AO2;||F||223|ICAO-KTSP
USW00000479|TEHACHAPI MUNI AP|2009|12|20|07|35|35.1350|-118.4392|1219.5|7.0||1|FM15-METAR|223|ICAO-KTSP|-3.0||1|FM15-METAR|223|ICAO-KTSP|||||||||||||090|N-Normal|1|FM15-METAR|223|ICAO-KTSP|4.1|N-Normal|1|FM15-METAR|223|ICAO-KTSP|||||||||||||49|Derived||FM15-METAR|223|ICAO-KTSP|||||||||||||||||||||||||||||||||||||||||||||||||||||||||||||||||||||||||1022.0||1|FM15-METAR|223|ICAO-KTSP|||||||||||||||||||||||||||||||||||||||||||MET062METAR KTSP 200735Z AUTO 09008KT 10SM CLR 07/M03 A3018 RMK AO2;||F||223|ICAO-KTSP
USW00000479|TEHACHAPI MUNI AP|2009|12|20|08|00|35.1350|-118.4392|1219.5|8.0||1|FM15-METAR|223|ICAO-KTSP|-3.0||1|FM15-METAR|223|ICAO-KTSP|||||||||||||090|N-Normal|1|FM15-METAR|223|ICAO-KTSP|5.1|N-Normal|1|FM15-METAR|223|ICAO-KTSP|||||||||||||46|Derived||FM15-METAR|223|ICAO-KTSP|||||||||||||||||||||||||||||||||||||||||||||||||||||||||||||||||||||||||1021.7||1|FM15-METAR|223|ICAO-KTSP|||||||||||||||||||||||||||||||||||||||||||MET062METAR KTSP 200755Z AUTO 09010KT 10SM CLR 08/M03 A3017 RMK AO2;||F||223|ICAO-KTSP
USW00000479|TEHACHAPI MUNI AP|2009|12|20|08|15|35.1350|-118.4392|1219.5|7.0||1|FM15-METAR|223|ICAO-KTSP|-3.0||1|FM15-METAR|223|ICAO-KTSP|||||||||||||090|N-Normal|1|FM15-METAR|223|ICAO-KTSP|5.1|N-Normal|1|FM15-METAR|223|ICAO-KTSP|||||||||||||49|Derived||FM15-METAR|223|ICAO-KTSP|||||||||||||||||||||||||||||||||||||||||||||||||||||||||||||||||||||||||1021.7||1|FM15-METAR|223|ICAO-KTSP|||||||||||||||||||||||||||||||||||||||||||MET062METAR KTSP 200815Z AUTO 09010KT 10SM CLR 07/M03 A3017 RMK AO2;||F||223|ICAO-KTSP
USW00000479|TEHACHAPI MUNI AP|2009|12|20|08|35|35.1350|-118.4392|1219.5|7.0||1|FM15-METAR|223|ICAO-KTSP|-3.0||1|FM15-METAR|223|ICAO-KTSP|||||||||||||090|N-Normal|1|FM15-METAR|223|ICAO-KTSP|5.1|N-Normal|1|FM15-METAR|223|ICAO-KTSP|||||||||||||49|Derived||FM15-METAR|223|ICAO-KTSP|||||||||||||||||||||||||||||||||||||||||||||||||||||||||||||||||||||||||1021.7||1|FM15-METAR|223|ICAO-KTSP|||||||||||||||||||||||||||||||||||||||||||MET062METAR KTSP 200835Z AUTO 09010KT 10SM CLR 07/M03 A3017 RMK AO2;||F||223|ICAO-KTSP
USW00000479|TEHACHAPI MUNI AP|2009|12|20|09|00|35.1350|-118.4392|1219.5|7.0||1|FM15-METAR|223|ICAO-KTSP|-3.0||1|FM15-METAR|223|ICAO-KTSP|||||||||||||090|N-Normal|1|FM15-METAR|223|ICAO-KTSP|5.1|N-Normal|1|FM15-METAR|223|ICAO-KTSP|||||||||||||49|Derived||FM15-METAR|223|ICAO-KTSP|||||||||||||||||||||||||||||||||||||||||||||||||||||||||||||||||||||||||1021.3||1|FM15-METAR|223|ICAO-KTSP|||||||||||||||||||||||||||||||||||||||||||MET062METAR KTSP 200855Z AUTO 09010KT 10SM CLR 07/M03 A3016 RMK AO2;||F||223|ICAO-KTSP
USW00000479|TEHACHAPI MUNI AP|2009|12|20|09|15|35.1350|-118.4392|1219.5|7.0||1|FM15-METAR|223|ICAO-KTSP|-3.0||1|FM15-METAR|223|ICAO-KTSP|||||||||||||090|N-Normal|1|FM15-METAR|223|ICAO-KTSP|4.6|N-Normal|1|FM15-METAR|223|ICAO-KTSP|||||||||||||49|Derived||FM15-METAR|223|ICAO-KTSP|||||||||||||||||||||||||||||||||||||||||||||||||||||||||||||||||||||||||1021.3||1|FM15-METAR|223|ICAO-KTSP|||||||||||||||||||||||||||||||||||||||||||MET062METAR KTSP 200915Z AUTO 09009KT 10SM CLR 07/M03 A3016 RMK AO2;||F||223|ICAO-KTSP
USW00000479|TEHACHAPI MUNI AP|2009|12|20|09|35|35.1350|-118.4392|1219.5|7.0||1|FM15-METAR|223|ICAO-KTSP|-3.0||1|FM15-METAR|223|ICAO-KTSP|||||||||||||090|N-Normal|1|FM15-METAR|223|ICAO-KTSP|4.1|N-Normal|1|FM15-METAR|223|ICAO-KTSP|||||||||||||49|Derived||FM15-METAR|223|ICAO-KTSP|||||||||||||||||||||||||||||||||||||||||||||||||||||||||||||||||||||||||1021.7||1|FM15-METAR|223|ICAO-KTSP|||||||||||||||||||||||||||||||||||||||||||MET062METAR KTSP 200935Z AUTO 09008KT 10SM CLR 07/M03 A3017 RMK AO2;||F||223|ICAO-KTSP
USW00000479|TEHACHAPI MUNI AP|2009|12|20|10|00|35.1350|-118.4392|1219.5|7.0||1|FM15-METAR|223|ICAO-KTSP|-3.0||1|FM15-METAR|223|ICAO-KTSP|||||||||||||090|N-Normal|1|FM15-METAR|223|ICAO-KTSP|5.1|N-Normal|1|FM15-METAR|223|ICAO-KTSP|||||||||||||49|Derived||FM15-METAR|223|ICAO-KTSP|||||||||||||||||||||||||||||||||||||||||||||||||||||||||||||||||||||||||1021.3||1|FM15-METAR|223|ICAO-KTSP|||||||||||||||||||||||||||||||||||||||||||MET062METAR KTSP 200955Z AUTO 09010KT 10SM CLR 07/M03 A3016 RMK AO2;||F||223|ICAO-KTSP
USW00000479|TEHACHAPI MUNI AP|2009|12|20|10|15|35.1350|-118.4392|1219.5|7.0||1|FM15-METAR|223|ICAO-KTSP|-3.0||1|FM15-METAR|223|ICAO-KTSP|||||||||||||090|N-Normal|1|FM15-METAR|223|ICAO-KTSP|5.1|N-Normal|1|FM15-METAR|223|ICAO-KTSP|||||||||||||49|Derived||FM15-METAR|223|ICAO-KTSP|||||||||||||||||||||||||||||||||||||||||||||||||||||||||||||||||||||||||1021.3||1|FM15-METAR|223|ICAO-KTSP|||||||||||||||||||||||||||||||||||||||||||MET062METAR KTSP 201015Z AUTO 09010KT 10SM CLR 07/M03 A3016 RMK AO2;||F||223|ICAO-KTSP
USW00000479|TEHACHAPI MUNI AP|2009|12|20|10|35|35.1350|-118.4392|1219.5|7.0||1|FM15-METAR|223|ICAO-KTSP|-3.0||1|FM15-METAR|223|ICAO-KTSP|||||||||||||080|N-Normal|1|FM15-METAR|223|ICAO-KTSP|5.7|N-Normal|1|FM15-METAR|223|ICAO-KTSP|||||||||||||49|Derived||FM15-METAR|223|ICAO-KTSP|||||||||||||||||||||||||||||||||||||||||||||||||||||||||||||||||||||||||1021.3||1|FM15-METAR|223|ICAO-KTSP|||||||||||||||||||||||||||||||||||||||||||MET062METAR KTSP 201035Z AUTO 08011KT 10SM CLR 07/M03 A3016 RMK AO2;||F||223|ICAO-KTSP
USW00000479|TEHACHAPI MUNI AP|2009|12|20|11|00|35.1350|-118.4392|1219.5|7.0||1|FM15-METAR|223|ICAO-KTSP|-3.0||1|FM15-METAR|223|ICAO-KTSP|||||||||||||090|N-Normal|1|FM15-METAR|223|ICAO-KTSP|4.6|N-Normal|1|FM15-METAR|223|ICAO-KTSP|||||||||||||49|Derived||FM15-METAR|223|ICAO-KTSP|||||||||||||||||||||||||||||||||||||||||||||||||||||||||||||||||||||||||1021.3||1|FM15-METAR|223|ICAO-KTSP|||||||||||||||||||||||||||||||||||||||||||MET062METAR KTSP 201055Z AUTO 09009KT 10SM CLR 07/M03 A3016 RMK AO2;||F||223|ICAO-KTSP
USW00000479|TEHACHAPI MUNI AP|2009|12|20|11|15|35.1350|-118.4392|1219.5|7.0||1|FM15-METAR|223|ICAO-KTSP|-3.0||1|FM15-METAR|223|ICAO-KTSP|||||||||||||090|N-Normal|1|FM15-METAR|223|ICAO-KTSP|5.7|N-Normal|1|FM15-METAR|223|ICAO-KTSP|||||||||||||49|Derived||FM15-METAR|223|ICAO-KTSP|||||||||||||||||||||||||||||||||||||||||||||||||||||||||||||||||||||||||1021.0||1|FM15-METAR|223|ICAO-KTSP|||||||||||||||||||||||||||||||||||||||||||MET062METAR KTSP 201115Z AUTO 09011KT 10SM CLR 07/M03 A3015 RMK AO2;||F||223|ICAO-KTSP
USW00000479|TEHACHAPI MUNI AP|2009|12|20|11|35|35.1350|-118.4392|1219.5|7.0||1|FM15-METAR|223|ICAO-KTSP|-3.0||1|FM15-METAR|223|ICAO-KTSP|||||||||||||100|N-Normal|1|FM15-METAR|223|ICAO-KTSP|4.1|N-Normal|1|FM15-METAR|223|ICAO-KTSP|||||||||||||49|Derived||FM15-METAR|223|ICAO-KTSP|||||||||||||||||||||||||||||||||||||||||||||||||||||||||||||||||||||||||1021.0||1|FM15-METAR|223|ICAO-KTSP|||||||||||||||||||||||||||||||||||||||||||MET062METAR KTSP 201135Z AUTO 10008KT 10SM CLR 07/M03 A3015 RMK AO2;||F||223|ICAO-KTSP
USW00000479|TEHACHAPI MUNI AP|2009|12|20|12|00|35.1350|-118.4392|1219.5|7.0||1|FM15-METAR|223|ICAO-KTSP|-3.0||1|FM15-METAR|223|ICAO-KTSP|||||||||||||090|N-Normal|1|FM15-METAR|223|ICAO-KTSP|4.6|N-Normal|1|FM15-METAR|223|ICAO-KTSP|||||||||||||49|Derived||FM15-METAR|223|ICAO-KTSP|||||||||||||||||||||||||||||||||||||||||||||||||||||||||||||||||||||||||1021.0||1|FM15-METAR|223|ICAO-KTSP|||||||||||||||||||||||||||||||||||||||||||MET062METAR KTSP 201155Z AUTO 09009KT 10SM CLR 07/M03 A3015 RMK AO2;||F||223|ICAO-KTSP
USW00000479|TEHACHAPI MUNI AP|2009|12|20|12|15|35.1350|-118.4392|1219.5|7.0||1|FM15-METAR|223|ICAO-KTSP|-3.0||1|FM15-METAR|223|ICAO-KTSP|||||||||||||100|N-Normal|1|FM15-METAR|223|ICAO-KTSP|5.1|N-Normal|1|FM15-METAR|223|ICAO-KTSP|||||||||||||49|Derived||FM15-METAR|223|ICAO-KTSP|||||||||||||||||||||||||||||||||||||||||||||||||||||||||||||||||||||||||1021.0||1|FM15-METAR|223|ICAO-KTSP|||||||||||||||||||||||||||||||||||||||||||MET062METAR KTSP 201215Z AUTO 10010KT 10SM CLR 07/M03 A3015 RMK AO2;||F||223|ICAO-KTSP
USW00000479|TEHACHAPI MUNI AP|2009|12|20|12|35|35.1350|-118.4392|1219.5|3.0||1|FM15-METAR|223|ICAO-KTSP|-3.0||1|FM15-METAR|223|ICAO-KTSP|||||||||||||110|N-Normal|1|FM15-METAR|223|ICAO-KTSP|4.6|N-Normal|1|FM15-METAR|223|ICAO-KTSP|||||||||||||65|Derived||FM15-METAR|223|ICAO-KTSP|||||||||||||||||||||||||||||||||||||||||||||||||||||||||||||||||||||||||1021.0||1|FM15-METAR|223|ICAO-KTSP|||||||||||||||||||||||||||||||||||||||||||MET062METAR KTSP 201235Z AUTO 11009KT 10SM CLR 03/M03 A3015 RMK AO2;||F||223|ICAO-KTSP
USW00000479|TEHACHAPI MUNI AP|2009|12|20|13|00|35.1350|-118.4392|1219.5|3.0||1|FM15-METAR|223|ICAO-KTSP|-3.0||1|FM15-METAR|223|ICAO-KTSP|||||||||||||110|N-Normal|1|FM15-METAR|223|ICAO-KTSP|5.1|N-Normal|1|FM15-METAR|223|ICAO-KTSP|||||||||||||65|Derived||FM15-METAR|223|ICAO-KTSP|||||||||||||||||||||||||||||||||||||||||||||||||||||||||||||||||||||||||1021.0||1|FM15-METAR|223|ICAO-KTSP|||||||||||||||||||||||||||||||||||||||||||MET062METAR KTSP 201255Z AUTO 11010KT 10SM CLR 03/M03 A3015 RMK AO2;||F||223|ICAO-KTSP
USW00000479|TEHACHAPI MUNI AP|2009|12|20|13|15|35.1350|-118.4392|1219.5|5.0||1|FM15-METAR|223|ICAO-KTSP|-4.0||1|FM15-METAR|223|ICAO-KTSP|||||||||||||100|N-Normal|1|FM15-METAR|223|ICAO-KTSP|4.6|N-Normal|1|FM15-METAR|223|ICAO-KTSP|||||||||||||53|Derived||FM15-METAR|223|ICAO-KTSP|||||||||||||||||||||||||||||||||||||||||||||||||||||||||||||||||||||||||1021.0||1|FM15-METAR|223|ICAO-KTSP|||||||||||||||||||||||||||||||||||||||||||MET062METAR KTSP 201315Z AUTO 10009KT 10SM CLR 05/M04 A3015 RMK AO2;||F||223|ICAO-KTSP
USW00000479|TEHACHAPI MUNI AP|2009|12|20|13|35|35.1350|-118.4392|1219.5|4.0||1|FM15-METAR|223|ICAO-KTSP|-3.0||1|FM15-METAR|223|ICAO-KTSP|||||||||||||110|N-Normal|1|FM15-METAR|223|ICAO-KTSP|4.6|N-Normal|1|FM15-METAR|223|ICAO-KTSP|||||||||||||61|Derived||FM15-METAR|223|ICAO-KTSP|||||||||||||||||||||||||||||||||||||||||||||||||||||||||||||||||||||||||1021.0||1|FM15-METAR|223|ICAO-KTSP|||||||||||||||||||||||||||||||||||||||||||MET062METAR KTSP 201335Z AUTO 11009KT 10SM CLR 04/M03 A3015 RMK AO2;||F||223|ICAO-KTSP
USW00000479|TEHACHAPI MUNI AP|2009|12|20|14|00|35.1350|-118.4392|1219.5|5.0||1|FM15-METAR|223|ICAO-KTSP|-3.0||1|FM15-METAR|223|ICAO-KTSP|||||||||||||110|N-Normal|1|FM15-METAR|223|ICAO-KTSP|3.6|N-Normal|1|FM15-METAR|223|ICAO-KTSP|||||||||||||57|Derived||FM15-METAR|223|ICAO-KTSP|||||||||||||||||||||||||||||||||||||||||||||||||||||||||||||||||||||||||1021.0||1|FM15-METAR|223|ICAO-KTSP|||||||||||||||||||||||||||||||||||||||||||MET062METAR KTSP 201355Z AUTO 11007KT 10SM CLR 05/M03 A3015 RMK AO2;||F||223|ICAO-KTSP
USW00000479|TEHACHAPI MUNI AP|2009|12|20|14|15|35.1350|-118.4392|1219.5|5.0||1|FM15-METAR|223|ICAO-KTSP|-3.0||1|FM15-METAR|223|ICAO-KTSP|||||||||||||100|N-Normal|1|FM15-METAR|223|ICAO-KTSP|3.6|N-Normal|1|FM15-METAR|223|ICAO-KTSP|||||||||||||57|Derived||FM15-METAR|223|ICAO-KTSP|||||||||||||||||||||||||||||||||||||||||||||||||||||||||||||||||||||||||1021.3||1|FM15-METAR|223|ICAO-KTSP|||||||||||||||||||||||||||||||||||||||||||MET062METAR KTSP 201415Z AUTO 10007KT 10SM CLR 05/M03 A3016 RMK AO2;||F||223|ICAO-KTSP
USW00000479|TEHACHAPI MUNI AP|2009|12|20|14|35|35.1350|-118.4392|1219.5|7.0||1|FM15-METAR|223|ICAO-KTSP|-3.0||1|FM15-METAR|223|ICAO-KTSP|||||||||||||110|N-Normal|1|FM15-METAR|223|ICAO-KTSP|3.1|N-Normal|1|FM15-METAR|223|ICAO-KTSP|||||||||||||49|Derived||FM15-METAR|223|ICAO-KTSP|||||||||||||||||||||||||||||||||||||||||||||||||||||||||||||||||||||||||1021.7||1|FM15-METAR|223|ICAO-KTSP|||||||||||||||||||||||||||||||||||||||||||MET062METAR KTSP 201435Z AUTO 11006KT 10SM CLR 07/M03 A3017 RMK AO2;||F||223|ICAO-KTSP
USW00000479|TEHACHAPI MUNI AP|2009|12|20|15|00|35.1350|-118.4392|1219.5|8.0||1|FM15-METAR|223|ICAO-KTSP|-4.0||1|FM15-METAR|223|ICAO-KTSP|||||||||||||110|N-Normal|1|FM15-METAR|223|ICAO-KTSP|3.1|N-Normal|1|FM15-METAR|223|ICAO-KTSP|||||||||||||43|Derived||FM15-METAR|223|ICAO-KTSP|||||||||||||||||||||||||||||||||||||||||||||||||||||||||||||||||||||||||1021.7||1|FM15-METAR|223|ICAO-KTSP|||||||||||||||||||||||||||||||||||||||||||MET062METAR KTSP 201455Z AUTO 11006KT 10SM CLR 08/M04 A3017 RMK AO2;||F||223|ICAO-KTSP
USW00000479|TEHACHAPI MUNI AP|2009|12|20|15|15|35.1350|-118.4392|1219.5|5.0||1|FM15-METAR|223|ICAO-KTSP|-3.0||1|FM15-METAR|223|ICAO-KTSP|||||||||||||090|N-Normal|1|FM15-METAR|223|ICAO-KTSP|4.1|N-Normal|1|FM15-METAR|223|ICAO-KTSP|||||||||||||57|Derived||FM15-METAR|223|ICAO-KTSP|||||||||||||||||||||||||||||||||||||||||||||||||||||||||||||||||||||||||1021.7||1|FM15-METAR|223|ICAO-KTSP|||||||||||||||||||||||||||||||||||||||||||MET062METAR KTSP 201515Z AUTO 09008KT 10SM CLR 05/M03 A3017 RMK AO2;||F||223|ICAO-KTSP
USW00000479|TEHACHAPI MUNI AP|2009|12|20|15|35|35.1350|-118.4392|1219.5|8.0||1|FM15-METAR|223|ICAO-KTSP|-4.0||1|FM15-METAR|223|ICAO-KTSP|||||||||||||090|N-Normal|1|FM15-METAR|223|ICAO-KTSP|4.1|N-Normal|1|FM15-METAR|223|ICAO-KTSP|||||||||||||43|Derived||FM15-METAR|223|ICAO-KTSP|||||||||||||||||||||||||||||||||||||||||||||||||||||||||||||||||||||||||1021.7||1|FM15-METAR|223|ICAO-KTSP|||||||||||||||||||||||||||||||||||||||||||MET062METAR KTSP 201535Z AUTO 09008KT 10SM CLR 08/M04 A3017 RMK AO2;||F||223|ICAO-KTSP
USW00000479|TEHACHAPI MUNI AP|2009|12|20|16|00|35.1350|-118.4392|1219.5|9.0||1|FM15-METAR|223|ICAO-KTSP|-4.0||1|FM15-METAR|223|ICAO-KTSP|||||||||||||100|N-Normal|1|FM15-METAR|223|ICAO-KTSP|3.1|N-Normal|1|FM15-METAR|223|ICAO-KTSP|||||||||||||40|Derived||FM15-METAR|223|ICAO-KTSP|||||||||||||||||||||||||||||||||||||||||||||||||||||||||||||||||||||||||1022.0||1|FM15-METAR|223|ICAO-KTSP|||||||||||||||||||||||||||||||||||||||||||MET062METAR KTSP 201555Z AUTO 10006KT 10SM CLR 09/M04 A3018 RMK AO2;||F||223|ICAO-KTSP
USW00000479|TEHACHAPI MUNI AP|2009|12|20|16|15|35.1350|-118.4392|1219.5|7.0||1|FM15-METAR|223|ICAO-KTSP|-3.0||1|FM15-METAR|223|ICAO-KTSP|||||||||||||100|N-Normal|1|FM15-METAR|223|ICAO-KTSP|3.1|N-Normal|1|FM15-METAR|223|ICAO-KTSP|||||||||||||49|Derived||FM15-METAR|223|ICAO-KTSP|||||||||||||||||||||||||||||||||||||||||||||||||||||||||||||||||||||||||1022.0||1|FM15-METAR|223|ICAO-KTSP|||||||||||||||||||||||||||||||||||||||||||MET062METAR KTSP 201615Z AUTO 10006KT 10SM CLR 07/M03 A3018 RMK AO2;||F||223|ICAO-KTSP
USW00000479|TEHACHAPI MUNI AP|2009|12|20|16|35|35.1350|-118.4392|1219.5|9.0||1|FM15-METAR|223|ICAO-KTSP|-3.0||1|FM15-METAR|223|ICAO-KTSP|||||||||||||090|N-Normal|1|FM15-METAR|223|ICAO-KTSP|4.6|N-Normal|1|FM15-METAR|223|ICAO-KTSP|||||||||||||43|Derived||FM15-METAR|223|ICAO-KTSP|||||||||||||||||||||||||||||||||||||||||||||||||||||||||||||||||||||||||1022.0||1|FM15-METAR|223|ICAO-KTSP|||||||||||||||||||||||||||||||||||||||||||MET062METAR KTSP 201635Z AUTO 09009KT 10SM CLR 09/M03 A3018 RMK AO2;||F||223|ICAO-KTSP
USW00000479|TEHACHAPI MUNI AP|2009|12|20|17|00|35.1350|-118.4392|1219.5|10.0||1|FM15-METAR|223|ICAO-KTSP|-3.0||1|FM15-METAR|223|ICAO-KTSP|||||||||||||090|N-Normal|1|FM15-METAR|223|ICAO-KTSP|4.1|N-Normal|1|FM15-METAR|223|ICAO-KTSP|||||||||||||40|Derived||FM15-METAR|223|ICAO-KTSP|||||||||||||||||||||||||||||||||||||||||||||||||||||||||||||||||||||||||1022.0||1|FM15-METAR|223|ICAO-KTSP|||||||||||||||||||||||||||||||||||||||||||MET062METAR KTSP 201655Z AUTO 09008KT 10SM CLR 10/M03 A3018 RMK AO2;||F||223|ICAO-KTSP
USW00000479|TEHACHAPI MUNI AP|2009|12|20|17|15|35.1350|-118.4392|1219.5|10.0||1|FM15-METAR|223|ICAO-KTSP|-4.0||1|FM15-METAR|223|ICAO-KTSP|||||||||||||100|N-Normal|1|FM15-METAR|223|ICAO-KTSP|3.1|N-Normal|1|FM15-METAR|223|ICAO-KTSP|||||||||||||37|Derived||FM15-METAR|223|ICAO-KTSP|||||||||||||||||||||||||||||||||||||||||||||||||||||||||||||||||||||||||1022.7||1|FM15-METAR|223|ICAO-KTSP|||||||||||||||||||||||||||||||||||||||||||MET062METAR KTSP 201715Z AUTO 10006KT 10SM CLR 10/M04 A3020 RMK AO2;||F||223|ICAO-KTSP
USW00000479|TEHACHAPI MUNI AP|2009|12|20|17|35|35.1350|-118.4392|1219.5|11.0||1|FM15-METAR|223|ICAO-KTSP|-4.0||1|FM15-METAR|223|ICAO-KTSP|||||||||||||100|N-Normal|1|FM15-METAR|223|ICAO-KTSP|2.6|N-Normal|1|FM15-METAR|223|ICAO-KTSP|||||||||||||35|Derived||FM15-METAR|223|ICAO-KTSP|||||||||||||||||||||||||||||||||||||||||||||||||||||||||||||||||||||||||1022.7||1|FM15-METAR|223|ICAO-KTSP|||||||||||||||||||||||||||||||||||||||||||MET062METAR KTSP 201735Z AUTO 10005KT 10SM CLR 11/M04 A3020 RMK AO2;||F||223|ICAO-KTSP
USW00000479|TEHACHAPI MUNI AP|2009|12|20|18|00|35.1350|-118.4392|1219.5|12.0||1|FM15-METAR|223|ICAO-KTSP|-3.0||1|FM15-METAR|223|ICAO-KTSP|||||||||||||110|N-Normal|1|FM15-METAR|223|ICAO-KTSP|3.1|N-Normal|1|FM15-METAR|223|ICAO-KTSP|||||||||||||35|Derived||FM15-METAR|223|ICAO-KTSP|||||||||||||||||||||||||||||||||||||||||||||||||||||||||||||||||||||||||1023.0||1|FM15-METAR|223|ICAO-KTSP|||||||||||||||||||||||||||||||||||||||||||MET062METAR KTSP 201755Z AUTO 11006KT 10SM CLR 12/M03 A3021 RMK AO2;||F||223|ICAO-KTSP
USW00000479|TEHACHAPI MUNI AP|2009|12|20|18|15|35.1350|-118.4392|1219.5|12.0||1|FM15-METAR|223|ICAO-KTSP|-3.0||1|FM15-METAR|223|ICAO-KTSP|||||||||||||110|N-Normal|1|FM15-METAR|223|ICAO-KTSP|2.1|N-Normal|1|FM15-METAR|223|ICAO-KTSP|||||||||||||35|Derived||FM15-METAR|223|ICAO-KTSP|||||||||||||||||||||||||||||||||||||||||||||||||||||||||||||||||||||||||1023.0||1|FM15-METAR|223|ICAO-KTSP|||||||||||||||||||||||||||||||||||||||||||MET062METAR KTSP 201815Z AUTO 11004KT 10SM CLR 12/M03 A3021 RMK AO2;||F||223|ICAO-KTSP
USW00000479|TEHACHAPI MUNI AP|2009|12|20|18|35|35.1350|-118.4392|1219.5|12.0||1|FM15-METAR|223|ICAO-KTSP|-3.0||1|FM15-METAR|223|ICAO-KTSP|||||||||||||130|N-Normal|1|FM15-METAR|223|ICAO-KTSP|2.6|N-Normal|1|FM15-METAR|223|ICAO-KTSP|||||||||||||35|Derived||FM15-METAR|223|ICAO-KTSP|||||||||||||||||||||||||||||||||||||||||||||||||||||||||||||||||||||||||1023.0||1|FM15-METAR|223|ICAO-KTSP|||||||||||||||||||||||||||||||||||||||||||MET062METAR KTSP 201835Z AUTO 13005KT 10SM CLR 12/M03 A3021 RMK AO2;||F||223|ICAO-KTSP
USW00000479|TEHACHAPI MUNI AP|2009|12|20|19|00|35.1350|-118.4392|1219.5|12.0||1|FM15-METAR|223|ICAO-KTSP|-3.0||1|FM15-METAR|223|ICAO-KTSP|||||||||||||130|N-Normal|1|FM15-METAR|223|ICAO-KTSP|2.1|N-Normal|1|FM15-METAR|223|ICAO-KTSP|||||||||||||35|Derived||FM15-METAR|223|ICAO-KTSP|||||||||||||||||||||||||||||||||||||||||||||||||||||||||||||||||||||||||1022.7||1|FM15-METAR|223|ICAO-KTSP|||||||||||||||||||||||||||||||||||||||||||MET062METAR KTSP 201855Z AUTO 13004KT 10SM CLR 12/M03 A3020 RMK AO2;||F||223|ICAO-KTSP
USW00000479|TEHACHAPI MUNI AP|2009|12|20|19|15|35.1350|-118.4392|1219.5|12.0||1|FM15-METAR|223|ICAO-KTSP|-4.0||1|FM15-METAR|223|ICAO-KTSP|||||||||||||999|C-Calm|9|FM15-METAR|223|ICAO-KTSP|0.0|C-Calm|1|FM15-METAR|223|ICAO-KTSP|||||||||||||33|Derived||FM15-METAR|223|ICAO-KTSP|||||||||||||||||||||||||||||||||||||||||||||||||||||||||||||||||||||||||1022.4||1|FM15-METAR|223|ICAO-KTSP|||||||||||||||||||||||||||||||||||||||||||MET062METAR KTSP 201915Z AUTO 00000KT 10SM CLR 12/M04 A3019 RMK AO2;||F||223|ICAO-KTSP
USW00000479|TEHACHAPI MUNI AP|2009|12|20|19|35|35.1350|-118.4392|1219.5|13.0||1|FM15-METAR|223|ICAO-KTSP|-3.0||1|FM15-METAR|223|ICAO-KTSP|||||||||||||999|C-Calm|9|FM15-METAR|223|ICAO-KTSP|0.0|C-Calm|1|FM15-METAR|223|ICAO-KTSP|||||||||||||33|Derived||FM15-METAR|223|ICAO-KTSP|||||||||||||||||||||||||||||||||||||||||||||||||||||||||||||||||||||||||1021.7||1|FM15-METAR|223|ICAO-KTSP|||||||||||||||||||||||||||||||||||||||||||MET062METAR KTSP 201935Z AUTO 00000KT 10SM CLR 13/M03 A3017 RMK AO2;||F||223|ICAO-KTSP
USW00000479|TEHACHAPI MUNI AP|2009|12|20|20|00|35.1350|-118.4392|1219.5|13.0||1|FM15-METAR|223|ICAO-KTSP|-4.0||1|FM15-METAR|223|ICAO-KTSP|||||||||||||999|C-Calm|9|FM15-METAR|223|ICAO-KTSP|0.0|C-Calm|1|FM15-METAR|223|ICAO-KTSP|||||||||||||31|Derived||FM15-METAR|223|ICAO-KTSP|||||||||||||||||||||||||||||||||||||||||||||||||||||||||||||||||||||||||1021.3||1|FM15-METAR|223|ICAO-KTSP|||||||||||||||||||||||||||||||||||||||||||MET062METAR KTSP 201955Z AUTO 00000KT 10SM CLR 13/M04 A3016 RMK AO2;||F||223|ICAO-KTSP
USW00000479|TEHACHAPI MUNI AP|2009|12|20|20|15|35.1350|-118.4392|1219.5|14.0||1|FM15-METAR|223|ICAO-KTSP|-4.0||1|FM15-METAR|223|ICAO-KTSP|||||||||||||999|C-Calm|9|FM15-METAR|223|ICAO-KTSP|0.0|C-Calm|1|FM15-METAR|223|ICAO-KTSP|||||||||||||29|Derived||FM15-METAR|223|ICAO-KTSP|||||||||||||||||||||||||||||||||||||||||||||||||||||||||||||||||||||||||1021.0||1|FM15-METAR|223|ICAO-KTSP|||||||||||||||||||||||||||||||||||||||||||MET062METAR KTSP 202015Z AUTO 00000KT 10SM CLR 14/M04 A3015 RMK AO2;||F||223|ICAO-KTSP
USW00000479|TEHACHAPI MUNI AP|2009|12|20|20|35|35.1350|-118.4392|1219.5|15.0||1|FM15-METAR|223|ICAO-KTSP|-4.0||1|FM15-METAR|223|ICAO-KTSP|||||||||||||999|C-Calm|9|FM15-METAR|223|ICAO-KTSP|0.0|C-Calm|1|FM15-METAR|223|ICAO-KTSP|||||||||||||27|Derived||FM15-METAR|223|ICAO-KTSP|||||||||||||||||||||||||||||||||||||||||||||||||||||||||||||||||||||||||1020.7||1|FM15-METAR|223|ICAO-KTSP|||||||||||||||||||||||||||||||||||||||||||MET062METAR KTSP 202035Z AUTO 00000KT 10SM CLR 15/M04 A3014 RMK AO2;||F||223|ICAO-KTSP
USW00000479|TEHACHAPI MUNI AP|2009|12|20|21|00|35.1350|-118.4392|1219.5|15.0||1|FM15-METAR|223|ICAO-KTSP|-5.0||1|FM15-METAR|223|ICAO-KTSP|||||||||||||999|C-Calm|9|FM15-METAR|223|ICAO-KTSP|0.0|C-Calm|1|FM15-METAR|223|ICAO-KTSP|||||||||||||25|Derived||FM15-METAR|223|ICAO-KTSP|||||||||||||||||||||||||||||||||||||||||||||||||||||||||||||||||||||||||1020.3||1|FM15-METAR|223|ICAO-KTSP|||||||||||||||||||||||||||||||||||||||||||MET062METAR KTSP 202055Z AUTO 00000KT 10SM CLR 15/M05 A3013 RMK AO2;||F||223|ICAO-KTSP
USW00000479|TEHACHAPI MUNI AP|2009|12|20|21|15|35.1350|-118.4392|1219.5|15.0||1|FM15-METAR|223|ICAO-KTSP|-4.0||1|FM15-METAR|223|ICAO-KTSP|||||||||||||330|N-Normal|1|FM15-METAR|223|ICAO-KTSP|2.1|N-Normal|1|FM15-METAR|223|ICAO-KTSP|||||||||||||27|Derived||FM15-METAR|223|ICAO-KTSP|||||||||||||||||||||||||||||||||||||||||||||||||||||||||||||||||||||||||1020.3||1|FM15-METAR|223|ICAO-KTSP|||||||||||||||||||||||||||||||||||||||||||MET062METAR KTSP 202115Z AUTO 33004KT 10SM CLR 15/M04 A3013 RMK AO2;||F||223|ICAO-KTSP
USW00000479|TEHACHAPI MUNI AP|2009|12|20|21|35|35.1350|-118.4392|1219.5|15.0||1|FM15-METAR|223|ICAO-KTSP|-5.0||1|FM15-METAR|223|ICAO-KTSP|||||||||||||330|N-Normal|1|FM15-METAR|223|ICAO-KTSP|2.6|N-Normal|1|FM15-METAR|223|ICAO-KTSP|||||||||||||25|Derived||FM15-METAR|223|ICAO-KTSP|||||||||||||||||||||||||||||||||||||||||||||||||||||||||||||||||||||||||1020.3||1|FM15-METAR|223|ICAO-KTSP|||||||||||||||||||||||||||||||||||||||||||MET062METAR KTSP 202135Z AUTO 33005KT 10SM CLR 15/M05 A3013 RMK AO2;||F||223|ICAO-KTSP
USW00000479|TEHACHAPI MUNI AP|2009|12|20|22|00|35.1350|-118.4392|1219.5|15.0||1|FM15-METAR|223|ICAO-KTSP|-5.0||1|FM15-METAR|223|ICAO-KTSP|||||||||||||350|N-Normal|1|FM15-METAR|223|ICAO-KTSP|1.5|N-Normal|1|FM15-METAR|223|ICAO-KTSP|||||||||||||25|Derived||FM15-METAR|223|ICAO-KTSP|||||||||||||||||||||||||||||||||||||||||||||||||||||||||||||||||||||||||1020.0||1|FM15-METAR|223|ICAO-KTSP|||||||||||||||||||||||||||||||||||||||||||MET062METAR KTSP 202155Z AUTO 35003KT 10SM CLR 15/M05 A3012 RMK AO2;||F||223|ICAO-KTSP
USW00000479|TEHACHAPI MUNI AP|2009|12|20|22|15|35.1350|-118.4392|1219.5|15.0||1|FM15-METAR|223|ICAO-KTSP|-5.0||1|FM15-METAR|223|ICAO-KTSP|||||||||||||999|C-Calm|9|FM15-METAR|223|ICAO-KTSP|0.0|C-Calm|1|FM15-METAR|223|ICAO-KTSP|||||||||||||25|Derived||FM15-METAR|223|ICAO-KTSP|||||||||||||||||||||||||||||||||||||||||||||||||||||||||||||||||||||||||1020.0||1|FM15-METAR|223|ICAO-KTSP|||||||||||||||||||||||||||||||||||||||||||MET062METAR KTSP 202215Z AUTO 00000KT 10SM CLR 15/M05 A3012 RMK AO2;||F||223|ICAO-KTSP
USW00000479|TEHACHAPI MUNI AP|2009|12|20|22|35|35.1350|-118.4392|1219.5|15.0||1|FM15-METAR|223|ICAO-KTSP|-5.0||1|FM15-METAR|223|ICAO-KTSP|||||||||||||999|C-Calm|9|FM15-METAR|223|ICAO-KTSP|0.0|C-Calm|1|FM15-METAR|223|ICAO-KTSP|||||||||||||25|Derived||FM15-METAR|223|ICAO-KTSP|||||||||||||||||||||||||||||||||||||||||||||||||||||||||||||||||||||||||1020.0||1|FM15-METAR|223|ICAO-KTSP|||||||||||||||||||||||||||||||||||||||||||MET061METAR KTSP 202235Z AUTO 00000KT 9SM CLR 15/M05 A3012 RMK AO2;||F||223|ICAO-KTSP
USW00000479|TEHACHAPI MUNI AP|2009|12|20|23|00|35.1350|-118.4392|1219.5|15.0||1|FM15-METAR|223|ICAO-KTSP|-6.0||1|FM15-METAR|223|ICAO-KTSP|||||||||||||999|C-Calm|9|FM15-METAR|223|ICAO-KTSP|0.0|C-Calm|1|FM15-METAR|223|ICAO-KTSP|||||||||||||23|Derived||FM15-METAR|223|ICAO-KTSP|||||||||||||||||||||||||||||||||||||||||||||||||||||||||||||||||||||||||1020.0||1|FM15-METAR|223|ICAO-KTSP|||||||||||||||||||||||||||||||||||||||||||MET062METAR KTSP 202255Z AUTO 00000KT 10SM CLR 15/M06 A3012 RMK AO2;||F||223|ICAO-KTSP
USW00000479|TEHACHAPI MUNI AP|2009|12|20|23|15|35.1350|-118.4392|1219.5|14.0||1|FM15-METAR|223|ICAO-KTSP|-2.0||1|FM15-METAR|223|ICAO-KTSP|||||||||||||080|N-Normal|1|FM15-METAR|223|ICAO-KTSP|2.6|N-Normal|1|FM15-METAR|223|ICAO-KTSP|||||||||||||33|Derived||FM15-METAR|223|ICAO-KTSP|||||||||||||||||||||||||||||||||||||||||||||||||||||||||||||||||||||||||1020.0||1|FM15-METAR|223|ICAO-KTSP|||||||||||||||||||||||||||||||||||||||||||MET062METAR KTSP 202315Z AUTO 08005KT 10SM CLR 14/M02 A3012 RMK AO2;||F||223|ICAO-KTSP
USW00000479|TEHACHAPI MUNI AP|2009|12|20|23|35|35.1350|-118.4392|1219.5|13.0||1|FM15-METAR|223|ICAO-KTSP|-2.0||1|FM15-METAR|223|ICAO-KTSP|||||||||||||080|N-Normal|1|FM15-METAR|223|ICAO-KTSP|2.6|N-Normal|1|FM15-METAR|223|ICAO-KTSP|||||||||||||36|Derived||FM15-METAR|223|ICAO-KTSP|||||||||||||||||||||||||||||||||||||||||||||||||||||||||||||||||||||||||1020.3||1|FM15-METAR|223|ICAO-KTSP|||||||||||||||||||||||||||||||||||||||||||MET062METAR KTSP 202335Z AUTO 08005KT 10SM CLR 13/M02 A3013 RMK AO2;||F||223|ICAO-KTSP
USW00000479|TEHACHAPI MUNI AP|2009|12|21|00|00|35.1350|-118.4392|1219.5|13.0||1|FM15-METAR|223|ICAO-KTSP|-2.0||1|FM15-METAR|223|ICAO-KTSP|||||||||||||999|C-Calm|9|FM15-METAR|223|ICAO-KTSP|0.0|C-Calm|1|FM15-METAR|223|ICAO-KTSP|||||||||||||36|Derived||FM15-METAR|223|ICAO-KTSP|||||||||||||||||||||||||||||||||||||||||||||||||||||||||||||||||||||||||1020.0||1|FM15-METAR|223|ICAO-KTSP|||||||||||||||||||||||||||||||||||||||||||MET062METAR KTSP 202355Z AUTO 00000KT 10SM CLR 13/M02 A3012 RMK AO2;||F||223|ICAO-KTSP
USW00000479|TEHACHAPI MUNI AP|2009|12|21|00|15|35.1350|-118.4392|1219.5|13.0||1|FM15-METAR|223|ICAO-KTSP|-4.0||1|FM15-METAR|223|ICAO-KTSP|||||||||||||290|N-Normal|1|FM15-METAR|223|ICAO-KTSP|4.1|N-Normal|1|FM15-METAR|223|ICAO-KTSP|||||||||||||31|Derived||FM15-METAR|223|ICAO-KTSP|||||||||||||||||||||||||||||||||||||||||||||||||||||||||||||||||||||||||1020.3||1|FM15-METAR|223|ICAO-KTSP|||||||||||||||||||||||||||||||||||||||||||MET062METAR KTSP 210015Z AUTO 29008KT 10SM CLR 13/M04 A3013 RMK AO2;||F||223|ICAO-KTSP
USW00000479|TEHACHAPI MUNI AP|2009|12|21|00|35|35.1350|-118.4392|1219.5|11.0||1|FM15-METAR|223|ICAO-KTSP|-3.0||1|FM15-METAR|223|ICAO-KTSP|||||||||||||310|N-Normal|1|FM15-METAR|223|ICAO-KTSP|4.1|N-Normal|1|FM15-METAR|223|ICAO-KTSP|||||||||||||38|Derived||FM15-METAR|223|ICAO-KTSP|||||||||||||||||||||||||||||||||||||||||||||||||||||||||||||||||||||||||1020.3||1|FM15-METAR|223|ICAO-KTSP|||||||||||||||||||||||||||||||||||||||||||MET062METAR KTSP 210035Z AUTO 31008KT 10SM CLR 11/M03 A3013 RMK AO2;||F||223|ICAO-KTSP
USW00000479|TEHACHAPI MUNI AP|2009|12|21|01|00|35.1350|-118.4392|1219.5|10.0||1|FM15-METAR|223|ICAO-KTSP|-3.0||1|FM15-METAR|223|ICAO-KTSP|||||||||||||310|N-Normal|1|FM15-METAR|223|ICAO-KTSP|4.1|N-Normal|1|FM15-METAR|223|ICAO-KTSP|||||||||||||40|Derived||FM15-METAR|223|ICAO-KTSP|||||||||||||||||||||||||||||||||||||||||||||||||||||||||||||||||||||||||1020.3||1|FM15-METAR|223|ICAO-KTSP|||||||||||||||||||||||||||||||||||||||||||MET062METAR KTSP 210055Z AUTO 31008KT 10SM CLR 10/M03 A3013 RMK AO2;||F||223|ICAO-KTSP
USW00000479|TEHACHAPI MUNI AP|2009|12|21|01|15|35.1350|-118.4392|1219.5|9.0||1|FM15-METAR|223|ICAO-KTSP|-3.0||1|FM15-METAR|223|ICAO-KTSP|||||||||||||270|N-Normal|1|FM15-METAR|223|ICAO-KTSP|1.5|N-Normal|1|FM15-METAR|223|ICAO-KTSP|||||||||||||43|Derived||FM15-METAR|223|ICAO-KTSP|||||||||||||||||||||||||||||||||||||||||||||||||||||||||||||||||||||||||1020.7||1|FM15-METAR|223|ICAO-KTSP|||||||||||||||||||||||||||||||||||||||||||MET062METAR KTSP 210115Z AUTO 27003KT 10SM CLR 09/M03 A3014 RMK AO2;||F||223|ICAO-KTSP
USW00000479|TEHACHAPI MUNI AP|2009|12|21|01|35|35.1350|-118.4392|1219.5|8.0||1|FM15-METAR|223|ICAO-KTSP|-3.0||1|FM15-METAR|223|ICAO-KTSP|||||||||||||999|C-Calm|9|FM15-METAR|223|ICAO-KTSP|0.0|C-Calm|1|FM15-METAR|223|ICAO-KTSP|||||||||||||46|Derived||FM15-METAR|223|ICAO-KTSP|||||||||||||||||||||||||||||||||||||||||||||||||||||||||||||||||||||||||1020.7||1|FM15-METAR|223|ICAO-KTSP|||||||||||||||||||||||||||||||||||||||||||MET062METAR KTSP 210135Z AUTO 00000KT 10SM CLR 08/M03 A3014 RMK AO2;||F||223|ICAO-KTSP
USW00000479|TEHACHAPI MUNI AP|2009|12|21|02|00|35.1350|-118.4392|1219.5|7.0||1|FM15-METAR|223|ICAO-KTSP|-3.0||1|FM15-METAR|223|ICAO-KTSP|||||||||||||999|C-Calm|9|FM15-METAR|223|ICAO-KTSP|0.0|C-Calm|1|FM15-METAR|223|ICAO-KTSP|||||||||||||49|Derived||FM15-METAR|223|ICAO-KTSP|||||||||||||||||||||||||||||||||||||||||||||||||||||||||||||||||||||||||1020.7||1|FM15-METAR|223|ICAO-KTSP|||||||||||||||||||||||||||||||||||||||||||MET062METAR KTSP 210155Z AUTO 00000KT 10SM CLR 07/M03 A3014 RMK AO2;||F||223|ICAO-KTSP
USW00000479|TEHACHAPI MUNI AP|2009|12|21|02|15|35.1350|-118.4392|1219.5|7.0||1|FM15-METAR|223|ICAO-KTSP|-3.0||1|FM15-METAR|223|ICAO-KTSP|||||||||||||999|C-Calm|9|FM15-METAR|223|ICAO-KTSP|0.0|C-Calm|1|FM15-METAR|223|ICAO-KTSP|||||||||||||49|Derived||FM15-METAR|223|ICAO-KTSP|||||||||||||||||||||||||||||||||||||||||||||||||||||||||||||||||||||||||1020.7||1|FM15-METAR|223|ICAO-KTSP|||||||||||||||||||||||||||||||||||||||||||MET062METAR KTSP 210215Z AUTO 00000KT 10SM CLR 07/M03 A3014 RMK AO2;||F||223|ICAO-KTSP
USW00000479|TEHACHAPI MUNI AP|2009|12|21|02|35|35.1350|-118.4392|1219.5|7.0||1|FM15-METAR|223|ICAO-KTSP|-3.0||1|FM15-METAR|223|ICAO-KTSP|||||||||||||999|C-Calm|9|FM15-METAR|223|ICAO-KTSP|0.0|C-Calm|1|FM15-METAR|223|ICAO-KTSP|||||||||||||49|Derived||FM15-METAR|223|ICAO-KTSP|||||||||||||||||||||||||||||||||||||||||||||||||||||||||||||||||||||||||1020.3||1|FM15-METAR|223|ICAO-KTSP|||||||||||||||||||||||||||||||||||||||||||MET062METAR KTSP 210235Z AUTO 00000KT 10SM CLR 07/M03 A3013 RMK AO2;||F||223|ICAO-KTSP
USW00000479|TEHACHAPI MUNI AP|2009|12|21|03|00|35.1350|-118.4392|1219.5|7.0||1|FM15-METAR|223|ICAO-KTSP|-3.0||1|FM15-METAR|223|ICAO-KTSP|||||||||||||999|C-Calm|9|FM15-METAR|223|ICAO-KTSP|0.0|C-Calm|1|FM15-METAR|223|ICAO-KTSP|||||||||||||49|Derived||FM15-METAR|223|ICAO-KTSP|||||||||||||||||||||||||||||||||||||||||||||||||||||||||||||||||||||||||1020.3||1|FM15-METAR|223|ICAO-KTSP|||||||||||||||||||||||||||||||||||||||||||MET062METAR KTSP 210255Z AUTO 00000KT 10SM CLR 07/M03 A3013 RMK AO2;||F||223|ICAO-KTSP
USW00000479|TEHACHAPI MUNI AP|2009|12|21|03|15|35.1350|-118.4392|1219.5|7.0||1|FM15-METAR|223|ICAO-KTSP|-3.0||1|FM15-METAR|223|ICAO-KTSP|||||||||||||999|C-Calm|9|FM15-METAR|223|ICAO-KTSP|0.0|C-Calm|1|FM15-METAR|223|ICAO-KTSP|||||||||||||49|Derived||FM15-METAR|223|ICAO-KTSP|||||||||||||||||||||||||||||||||||||||||||||||||||||||||||||||||||||||||1020.3||1|FM15-METAR|223|ICAO-KTSP|||||||||||||||||||||||||||||||||||||||||||MET062METAR KTSP 210315Z AUTO 00000KT 10SM CLR 07/M03 A3013 RMK AO2;||F||223|ICAO-KTSP
USW00000479|TEHACHAPI MUNI AP|2009|12|21|03|35|35.1350|-118.4392|1219.5|7.0||1|FM15-METAR|223|ICAO-KTSP|-3.0||1|FM15-METAR|223|ICAO-KTSP|||||||||||||999|C-Calm|9|FM15-METAR|223|ICAO-KTSP|0.0|C-Calm|1|FM15-METAR|223|ICAO-KTSP|||||||||||||49|Derived||FM15-METAR|223|ICAO-KTSP|||||||||||||||||||||||||||||||||||||||||||||||||||||||||||||||||||||||||1020.3||1|FM15-METAR|223|ICAO-KTSP|||||||||||||||||||||||||||||||||||||||||||MET062METAR KTSP 210335Z AUTO 00000KT 10SM CLR 07/M03 A3013 RMK AO2;||F||223|ICAO-KTSP
USW00000479|TEHACHAPI MUNI AP|2009|12|21|04|00|35.1350|-118.4392|1219.5|7.0||1|FM15-METAR|223|ICAO-KTSP|-4.0||1|FM15-METAR|223|ICAO-KTSP|||||||||||||999|C-Calm|9|FM15-METAR|223|ICAO-KTSP|0.0|C-Calm|1|FM15-METAR|223|ICAO-KTSP|||||||||||||46|Derived||FM15-METAR|223|ICAO-KTSP|||||||||||||||||||||||||||||||||||||||||||||||||||||||||||||||||||||||||1020.7||1|FM15-METAR|223|ICAO-KTSP|||||||||||||||||||||||||||||||||||||||||||MET062METAR KTSP 210355Z AUTO 00000KT 10SM CLR 07/M04 A3014 RMK AO2;||F||223|ICAO-KTSP
USW00000479|TEHACHAPI MUNI AP|2009|12|21|04|15|35.1350|-118.4392|1219.5|5.0||1|FM15-METAR|223|ICAO-KTSP|-3.0||1|FM15-METAR|223|ICAO-KTSP|||||||||||||999|C-Calm|9|FM15-METAR|223|ICAO-KTSP|0.0|C-Calm|1|FM15-METAR|223|ICAO-KTSP|||||||||||||57|Derived||FM15-METAR|223|ICAO-KTSP|||||||||||||||||||||||||||||||||||||||||||||||||||||||||||||||||||||||||1020.7||1|FM15-METAR|223|ICAO-KTSP|||||||||||||||||||||||||||||||||||||||||||MET062METAR KTSP 210415Z AUTO 00000KT 10SM CLR 05/M03 A3014 RMK AO2;||F||223|ICAO-KTSP
USW00000479|TEHACHAPI MUNI AP|2009|12|21|04|35|35.1350|-118.4392|1219.5|7.0||1|FM15-METAR|223|ICAO-KTSP|-4.0||1|FM15-METAR|223|ICAO-KTSP|||||||||||||999|C-Calm|9|FM15-METAR|223|ICAO-KTSP|0.0|C-Calm|1|FM15-METAR|223|ICAO-KTSP|||||||||||||46|Derived||FM15-METAR|223|ICAO-KTSP|||||||||||||||||||||||||||||||||||||||||||||||||||||||||||||||||||||||||1020.7||1|FM15-METAR|223|ICAO-KTSP|||||||||||||||||||||||||||||||||||||||||||MET062METAR KTSP 210435Z AUTO 00000KT 10SM CLR 07/M04 A3014 RMK AO2;||F||223|ICAO-KTSP
USW00000479|TEHACHAPI MUNI AP|2009|12|21|05|00|35.1350|-118.4392|1219.5|7.0||1|FM15-METAR|223|ICAO-KTSP|-4.0||1|FM15-METAR|223|ICAO-KTSP|||||||||||||999|C-Calm|9|FM15-METAR|223|ICAO-KTSP|0.0|C-Calm|1|FM15-METAR|223|ICAO-KTSP|||||||||||||46|Derived||FM15-METAR|223|ICAO-KTSP|||||||||||||||||||||||||||||||||||||||||||||||||||||||||||||||||||||||||1020.7||1|FM15-METAR|223|ICAO-KTSP|||||||||||||||||||||||||||||||||||||||||||MET062METAR KTSP 210455Z AUTO 00000KT 10SM CLR 07/M04 A3014 RMK AO2;||F||223|ICAO-KTSP
USW00000479|TEHACHAPI MUNI AP|2009|12|21|05|15|35.1350|-118.4392|1219.5|8.0||1|FM15-METAR|223|ICAO-KTSP|-4.0||1|FM15-METAR|223|ICAO-KTSP|||||||||||||310|N-Normal|1|FM15-METAR|223|ICAO-KTSP|1.5|N-Normal|1|FM15-METAR|223|ICAO-KTSP|||||||||||||43|Derived||FM15-METAR|223|ICAO-KTSP|||||||||||||||||||||||||||||||||||||||||||||||||||||||||||||||||||||||||1021.0||1|FM15-METAR|223|ICAO-KTSP|||||||||||||||||||||||||||||||||||||||||||MET062METAR KTSP 210515Z AUTO 31003KT 10SM CLR 08/M04 A3015 RMK AO2;||F||223|ICAO-KTSP
USW00000479|TEHACHAPI MUNI AP|2009|12|21|05|35|35.1350|-118.4392|1219.5|7.0||1|FM15-METAR|223|ICAO-KTSP|-3.0||1|FM15-METAR|223|ICAO-KTSP|||||||||||||999|C-Calm|9|FM15-METAR|223|ICAO-KTSP|0.0|C-Calm|1|FM15-METAR|223|ICAO-KTSP|||||||||||||49|Derived||FM15-METAR|223|ICAO-KTSP|||||||||||||||||||||||||||||||||||||||||||||||||||||||||||||||||||||||||1021.0||1|FM15-METAR|223|ICAO-KTSP|||||||||||||||||||||||||||||||||||||||||||MET062METAR KTSP 210535Z AUTO 00000KT 10SM CLR 07/M03 A3015 RMK AO2;||F||223|ICAO-KTSP
USW00000479|TEHACHAPI MUNI AP|2009|12|21|06|00|35.1350|-118.4392|1219.5|3.0||1|FM15-METAR|223|ICAO-KTSP|-3.0||1|FM15-METAR|223|ICAO-KTSP|||||||||||||999|C-Calm|9|FM15-METAR|223|ICAO-KTSP|0.0|C-Calm|1|FM15-METAR|223|ICAO-KTSP|||||||||||||65|Derived||FM15-METAR|223|ICAO-KTSP|||||||||||||||||||||||||||||||||||||||||||||||||||||||||||||||||||||||||1021.3||1|FM15-METAR|223|ICAO-KTSP|||||||||||||||||||||||||||||||||||||||||||MET062METAR KTSP 210555Z AUTO 00000KT 10SM CLR 03/M03 A3016 RMK AO2;||F||223|ICAO-KTSP
USW00000479|TEHACHAPI MUNI AP|2009|12|21|06|15|35.1350|-118.4392|1219.5|2.0||1|FM15-METAR|223|ICAO-KTSP|-4.0||1|FM15-METAR|223|ICAO-KTSP|||||||||||||999|C-Calm|9|FM15-METAR|223|ICAO-KTSP|0.0|C-Calm|1|FM15-METAR|223|ICAO-KTSP|||||||||||||65|Derived||FM15-METAR|223|ICAO-KTSP|||||||||||||||||||||||||||||||||||||||||||||||||||||||||||||||||||||||||1021.0||1|FM15-METAR|223|ICAO-KTSP|||||||||||||||||||||||||||||||||||||||||||MET062METAR KTSP 210615Z AUTO 00000KT 10SM CLR 02/M04 A3015 RMK AO2;||F||223|ICAO-KTSP
USW00000479|TEHACHAPI MUNI AP|2009|12|21|06|35|35.1350|-118.4392|1219.5|2.0||1|FM15-METAR|223|ICAO-KTSP|-4.0||1|FM15-METAR|223|ICAO-KTSP|||||||||||||999|C-Calm|9|FM15-METAR|223|ICAO-KTSP|0.0|C-Calm|1|FM15-METAR|223|ICAO-KTSP|||||||||||||65|Derived||FM15-METAR|223|ICAO-KTSP|||||||||||||||||||||||||||||||||||||||||||||||||||||||||||||||||||||||||1021.0||1|FM15-METAR|223|ICAO-KTSP|||||||||||||||||||||||||||||||||||||||||||MET062METAR KTSP 210635Z AUTO 00000KT 10SM CLR 02/M04 A3015 RMK AO2;||F||223|ICAO-KTSP
USW00000479|TEHACHAPI MUNI AP|2009|12|21|07|00|35.1350|-118.4392|1219.5|1.0||1|FM15-METAR|223|ICAO-KTSP|-3.0||1|FM15-METAR|223|ICAO-KTSP|||||||||||||999|C-Calm|9|FM15-METAR|223|ICAO-KTSP|0.0|C-Calm|1|FM15-METAR|223|ICAO-KTSP|||||||||||||75|Derived||FM15-METAR|223|ICAO-KTSP|||||||||||||||||||||||||||||||||||||||||||||||||||||||||||||||||||||||||1020.7||1|FM15-METAR|223|ICAO-KTSP|||||||||||||||||||||||||||||||||||||||||||MET062METAR KTSP 210655Z AUTO 00000KT 10SM CLR 01/M03 A3014 RMK AO2;||F||223|ICAO-KTSP
USW00000479|TEHACHAPI MUNI AP|2009|12|21|07|15|35.1350|-118.4392|1219.5|2.0||1|FM15-METAR|223|ICAO-KTSP|-3.0||1|FM15-METAR|223|ICAO-KTSP|||||||||||||999|C-Calm|9|FM15-METAR|223|ICAO-KTSP|0.0|C-Calm|1|FM15-METAR|223|ICAO-KTSP|||||||||||||70|Derived||FM15-METAR|223|ICAO-KTSP|||||||||||||||||||||||||||||||||||||||||||||||||||||||||||||||||||||||||1020.7||1|FM15-METAR|223|ICAO-KTSP|||||||||||||||||||||||||||||||||||||||||||MET062METAR KTSP 210715Z AUTO 00000KT 10SM CLR 02/M03 A3014 RMK AO2;||F||223|ICAO-KTSP
USW00000479|TEHACHAPI MUNI AP|2009|12|21|07|35|35.1350|-118.4392|1219.5|1.0||1|FM15-METAR|223|ICAO-KTSP|-4.0||1|FM15-METAR|223|ICAO-KTSP|||||||||||||999|C-Calm|9|FM15-METAR|223|ICAO-KTSP|0.0|C-Calm|1|FM15-METAR|223|ICAO-KTSP|||||||||||||70|Derived||FM15-METAR|223|ICAO-KTSP|||||||||||||||||||||||||||||||||||||||||||||||||||||||||||||||||||||||||1020.3||1|FM15-METAR|223|ICAO-KTSP|||||||||||||||||||||||||||||||||||||||||||MET062METAR KTSP 210735Z AUTO 00000KT 10SM CLR 01/M04 A3013 RMK AO2;||F||223|ICAO-KTSP
USW00000479|TEHACHAPI MUNI AP|2009|12|21|08|00|35.1350|-118.4392|1219.5|2.0||1|FM15-METAR|223|ICAO-KTSP|-3.0||1|FM15-METAR|223|ICAO-KTSP|||||||||||||999|C-Calm|9|FM15-METAR|223|ICAO-KTSP|0.0|C-Calm|1|FM15-METAR|223|ICAO-KTSP|||||||||||||70|Derived||FM15-METAR|223|ICAO-KTSP|||||||||||||||||||||||||||||||||||||||||||||||||||||||||||||||||||||||||1020.3||1|FM15-METAR|223|ICAO-KTSP|||||||||||||||||||||||||||||||||||||||||||MET062METAR KTSP 210755Z AUTO 00000KT 10SM CLR 02/M03 A3013 RMK AO2;||F||223|ICAO-KTSP
USW00000479|TEHACHAPI MUNI AP|2009|12|21|08|15|35.1350|-118.4392|1219.5|3.0||1|FM15-METAR|223|ICAO-KTSP|-3.0||1|FM15-METAR|223|ICAO-KTSP|||||||||||||999|C-Calm|9|FM15-METAR|223|ICAO-KTSP|0.0|C-Calm|1|FM15-METAR|223|ICAO-KTSP|||||||||||||65|Derived||FM15-METAR|223|ICAO-KTSP|||||||||||||||||||||||||||||||||||||||||||||||||||||||||||||||||||||||||1020.3||1|FM15-METAR|223|ICAO-KTSP|||||||||||||||||||||||||||||||||||||||||||MET062METAR KTSP 210815Z AUTO 00000KT 10SM CLR 03/M03 A3013 RMK AO2;||F||223|ICAO-KTSP
USW00000479|TEHACHAPI MUNI AP|2009|12|21|08|35|35.1350|-118.4392|1219.5|3.0||1|FM15-METAR|223|ICAO-KTSP|-2.0||1|FM15-METAR|223|ICAO-KTSP|||||||||||||999|C-Calm|9|FM15-METAR|223|ICAO-KTSP|0.0|C-Calm|1|FM15-METAR|223|ICAO-KTSP|||||||||||||70|Derived||FM15-METAR|223|ICAO-KTSP|||||||||||||||||||||||||||||||||||||||||||||||||||||||||||||||||||||||||1020.3||1|FM15-METAR|223|ICAO-KTSP|||||||||||||||||||||||||||||||||||||||||||MET062METAR KTSP 210835Z AUTO 00000KT 10SM CLR 03/M02 A3013 RMK AO2;||F||223|ICAO-KTSP
USW00000479|TEHACHAPI MUNI AP|2009|12|21|09|00|35.1350|-118.4392|1219.5|2.0||1|FM15-METAR|223|ICAO-KTSP|-3.0||1|FM15-METAR|223|ICAO-KTSP|||||||||||||999|C-Calm|9|FM15-METAR|223|ICAO-KTSP|0.0|C-Calm|1|FM15-METAR|223|ICAO-KTSP|||||||||||||70|Derived||FM15-METAR|223|ICAO-KTSP|||||||||||||||||||||||||||||||||||||||||||||||||||||||||||||||||||||||||1020.3||1|FM15-METAR|223|ICAO-KTSP|||||||||||||||||||||||||||||||||||||||||||MET062METAR KTSP 210855Z AUTO 00000KT 10SM CLR 02/M03 A3013 RMK AO2;||F||223|ICAO-KTSP
USW00000479|TEHACHAPI MUNI AP|2009|12|21|09|15|35.1350|-118.4392|1219.5|2.0||1|FM15-METAR|223|ICAO-KTSP|-2.0||1|FM15-METAR|223|ICAO-KTSP|||||||||||||999|C-Calm|9|FM15-METAR|223|ICAO-KTSP|0.0|C-Calm|1|FM15-METAR|223|ICAO-KTSP|||||||||||||75|Derived||FM15-METAR|223|ICAO-KTSP|||||||||||||||||||||||||||||||||||||||||||||||||||||||||||||||||||||||||1020.3||1|FM15-METAR|223|ICAO-KTSP|||||||||||||||||||||||||||||||||||||||||||MET062METAR KTSP 210915Z AUTO 00000KT 10SM CLR 02/M02 A3013 RMK AO2;||F||223|ICAO-KTSP
USW00000479|TEHACHAPI MUNI AP|2009|12|21|09|35|35.1350|-118.4392|1219.5|4.0||1|FM15-METAR|223|ICAO-KTSP|-3.0||1|FM15-METAR|223|ICAO-KTSP|||||||||||||999|C-Calm|9|FM15-METAR|223|ICAO-KTSP|0.0|C-Calm|1|FM15-METAR|223|ICAO-KTSP|||||||||||||61|Derived||FM15-METAR|223|ICAO-KTSP|||||||||||||||||||||||||||||||||||||||||||||||||||||||||||||||||||||||||1020.0||1|FM15-METAR|223|ICAO-KTSP|||||||||||||||||||||||||||||||||||||||||||MET062METAR KTSP 210935Z AUTO 00000KT 10SM CLR 04/M03 A3012 RMK AO2;||F||223|ICAO-KTSP
USW00000479|TEHACHAPI MUNI AP|2009|12|21|10|00|35.1350|-118.4392|1219.5|7.0||1|FM15-METAR|223|ICAO-KTSP|-4.0||1|FM15-METAR|223|ICAO-KTSP|||||||||||||999|C-Calm|9|FM15-METAR|223|ICAO-KTSP|0.0|C-Calm|1|FM15-METAR|223|ICAO-KTSP|||||||||||||46|Derived||FM15-METAR|223|ICAO-KTSP|||||||||||||||||||||||||||||||||||||||||||||||||||||||||||||||||||||||||1020.0||1|FM15-METAR|223|ICAO-KTSP|||||||||||||||||||||||||||||||||||||||||||MET062METAR KTSP 210955Z AUTO 00000KT 10SM CLR 07/M04 A3012 RMK AO2;||F||223|ICAO-KTSP
USW00000479|TEHACHAPI MUNI AP|2009|12|21|10|15|35.1350|-118.4392|1219.5|5.0||1|FM15-METAR|223|ICAO-KTSP|-3.0||1|FM15-METAR|223|ICAO-KTSP|||||||||||||999|C-Calm|9|FM15-METAR|223|ICAO-KTSP|0.0|C-Calm|1|FM15-METAR|223|ICAO-KTSP|||||||||||||57|Derived||FM15-METAR|223|ICAO-KTSP|||||||||||||||||||||||||||||||||||||||||||||||||||||||||||||||||||||||||1019.6||1|FM15-METAR|223|ICAO-KTSP|||||||||||||||||||||||||||||||||||||||||||MET062METAR KTSP 211015Z AUTO 00000KT 10SM CLR 05/M03 A3011 RMK AO2;||F||223|ICAO-KTSP
USW00000479|TEHACHAPI MUNI AP|2009|12|21|10|35|35.1350|-118.4392|1219.5|4.0||1|FM15-METAR|223|ICAO-KTSP|-2.0||1|FM15-METAR|223|ICAO-KTSP|||||||||||||999|C-Calm|9|FM15-METAR|223|ICAO-KTSP|0.0|C-Calm|1|FM15-METAR|223|ICAO-KTSP|||||||||||||65|Derived||FM15-METAR|223|ICAO-KTSP|||||||||||||||||||||||||||||||||||||||||||||||||||||||||||||||||||||||||1019.6||1|FM15-METAR|223|ICAO-KTSP|||||||||||||||||||||||||||||||||||||||||||MET062METAR KTSP 211035Z AUTO 00000KT 10SM CLR 04/M02 A3011 RMK AO2;||F||223|ICAO-KTSP
USW00000479|TEHACHAPI MUNI AP|2009|12|21|11|00|35.1350|-118.4392|1219.5|3.0||1|FM15-METAR|223|ICAO-KTSP|-3.0||1|FM15-METAR|223|ICAO-KTSP|||||||||||||999|C-Calm|9|FM15-METAR|223|ICAO-KTSP|0.0|C-Calm|1|FM15-METAR|223|ICAO-KTSP|||||||||||||65|Derived||FM15-METAR|223|ICAO-KTSP|||||||||||||||||||||||||||||||||||||||||||||||||||||||||||||||||||||||||1019.6||1|FM15-METAR|223|ICAO-KTSP|||||||||||||||||||||||||||||||||||||||||||MET062METAR KTSP 211055Z AUTO 00000KT 10SM CLR 03/M03 A3011 RMK AO2;||F||223|ICAO-KTSP
USW00000479|TEHACHAPI MUNI AP|2009|12|21|11|15|35.1350|-118.4392|1219.5|4.0||1|FM15-METAR|223|ICAO-KTSP|-2.0||1|FM15-METAR|223|ICAO-KTSP|||||||||||||999|C-Calm|9|FM15-METAR|223|ICAO-KTSP|0.0|C-Calm|1|FM15-METAR|223|ICAO-KTSP|||||||||||||65|Derived||FM15-METAR|223|ICAO-KTSP|||||||||||||||||||||||||||||||||||||||||||||||||||||||||||||||||||||||||1019.6||1|FM15-METAR|223|ICAO-KTSP|||||||||||||||||||||||||||||||||||||||||||MET062METAR KTSP 211115Z AUTO 00000KT 10SM CLR 04/M02 A3011 RMK AO2;||F||223|ICAO-KTSP
USW00000479|TEHACHAPI MUNI AP|2009|12|21|11|35|35.1350|-118.4392|1219.5|2.0||1|FM15-METAR|223|ICAO-KTSP|-2.0||1|FM15-METAR|223|ICAO-KTSP|||||||||||||999|C-Calm|9|FM15-METAR|223|ICAO-KTSP|0.0|C-Calm|1|FM15-METAR|223|ICAO-KTSP|||||||||||||75|Derived||FM15-METAR|223|ICAO-KTSP|||||||||||||||||||||||||||||||||||||||||||||||||||||||||||||||||||||||||1019.3||1|FM15-METAR|223|ICAO-KTSP|||||||||||||||||||||||||||||||||||||||||||MET062METAR KTSP 211135Z AUTO 00000KT 10SM CLR 02/M02 A3010 RMK AO2;||F||223|ICAO-KTSP
USW00000479|TEHACHAPI MUNI AP|2009|12|21|12|00|35.1350|-118.4392|1219.5|4.0||1|FM15-METAR|223|ICAO-KTSP|-3.0||1|FM15-METAR|223|ICAO-KTSP|||||||||||||999|C-Calm|9|FM15-METAR|223|ICAO-KTSP|0.0|C-Calm|1|FM15-METAR|223|ICAO-KTSP|||||||||||||61|Derived||FM15-METAR|223|ICAO-KTSP|||||||||||||||||||||||||||||||||||||||||||||||||||||||||||||||||||||||||1019.3||1|FM15-METAR|223|ICAO-KTSP|||||||||||||||||||||||||||||||||||||||||||MET062METAR KTSP 211155Z AUTO 00000KT 10SM CLR 04/M03 A3010 RMK AO2;||F||223|ICAO-KTSP
USW00000479|TEHACHAPI MUNI AP|2009|12|21|12|15|35.1350|-118.4392|1219.5|5.0||1|FM15-METAR|223|ICAO-KTSP|-2.0||1|FM15-METAR|223|ICAO-KTSP|||||||||||||999|C-Calm|9|FM15-METAR|223|ICAO-KTSP|0.0|C-Calm|1|FM15-METAR|223|ICAO-KTSP|||||||||||||61|Derived||FM15-METAR|223|ICAO-KTSP|||||||||||||||||||||||||||||||||||||||||||||||||||||||||||||||||||||||||1019.0||1|FM15-METAR|223|ICAO-KTSP|||||||||||||||||||||||||||||||||||||||||||MET062METAR KTSP 211215Z AUTO 00000KT 10SM CLR 05/M02 A3009 RMK AO2;||F||223|ICAO-KTSP
USW00000479|TEHACHAPI MUNI AP|2009|12|21|12|35|35.1350|-118.4392|1219.5|4.0||1|FM15-METAR|223|ICAO-KTSP|-2.0||1|FM15-METAR|223|ICAO-KTSP|||||||||||||999|C-Calm|9|FM15-METAR|223|ICAO-KTSP|0.0|C-Calm|1|FM15-METAR|223|ICAO-KTSP|||||||||||||65|Derived||FM15-METAR|223|ICAO-KTSP|||||||||||||||||||||||||||||||||||||||||||||||||||||||||||||||||||||||||1019.3||1|FM15-METAR|223|ICAO-KTSP|||||||||||||||||||||||||||||||||||||||||||MET062METAR KTSP 211235Z AUTO 00000KT 10SM CLR 04/M02 A3010 RMK AO2;||F||223|ICAO-KTSP
USW00000479|TEHACHAPI MUNI AP|2009|12|21|13|00|35.1350|-118.4392|1219.5|5.0||1|FM15-METAR|223|ICAO-KTSP|-2.0||1|FM15-METAR|223|ICAO-KTSP|||||||||||||999|C-Calm|9|FM15-METAR|223|ICAO-KTSP|0.0|C-Calm|1|FM15-METAR|223|ICAO-KTSP|||||||||||||61|Derived||FM15-METAR|223|ICAO-KTSP|||||||||||||||||||||||||||||||||||||||||||||||||||||||||||||||||||||||||1019.0||1|FM15-METAR|223|ICAO-KTSP|||||||||||||||||||||||||||||||||||||||||||MET062METAR KTSP 211255Z AUTO 00000KT 10SM CLR 05/M02 A3009 RMK AO2;||F||223|ICAO-KTSP
USW00000479|TEHACHAPI MUNI AP|2009|12|21|13|15|35.1350|-118.4392|1219.5|5.0||1|FM15-METAR|223|ICAO-KTSP|-2.0||1|FM15-METAR|223|ICAO-KTSP|||||||||||||999|C-Calm|9|FM15-METAR|223|ICAO-KTSP|0.0|C-Calm|1|FM15-METAR|223|ICAO-KTSP|||||||||||||61|Derived||FM15-METAR|223|ICAO-KTSP|||||||||||||||||||||||||||||||||||||||||||||||||||||||||||||||||||||||||1019.0||1|FM15-METAR|223|ICAO-KTSP|||||||||||||||||||||||||||||||||||||||||||MET062METAR KTSP 211315Z AUTO 00000KT 10SM CLR 05/M02 A3009 RMK AO2;||F||223|ICAO-KTSP
USW00000479|TEHACHAPI MUNI AP|2009|12|21|13|35|35.1350|-118.4392|1219.5|5.0||1|FM15-METAR|223|ICAO-KTSP|-2.0||1|FM15-METAR|223|ICAO-KTSP|||||||||||||999|C-Calm|9|FM15-METAR|223|ICAO-KTSP|0.0|C-Calm|1|FM15-METAR|223|ICAO-KTSP|||||||||||||61|Derived||FM15-METAR|223|ICAO-KTSP|||||||||||||||||||||||||||||||||||||||||||||||||||||||||||||||||||||||||1019.3||1|FM15-METAR|223|ICAO-KTSP|||||||||||||||||||||||||||||||||||||||||||MET062METAR KTSP 211335Z AUTO 00000KT 10SM CLR 05/M02 A3010 RMK AO2;||F||223|ICAO-KTSP
USW00000479|TEHACHAPI MUNI AP|2009|12|21|14|00|35.1350|-118.4392|1219.5|7.0||1|FM15-METAR|223|ICAO-KTSP|-2.0||1|FM15-METAR|223|ICAO-KTSP|||||||||||||999|C-Calm|9|FM15-METAR|223|ICAO-KTSP|0.0|C-Calm|1|FM15-METAR|223|ICAO-KTSP|||||||||||||53|Derived||FM15-METAR|223|ICAO-KTSP|||||||||||||||||||||||||||||||||||||||||||||||||||||||||||||||||||||||||1019.3||1|FM15-METAR|223|ICAO-KTSP|||||||||||||||||||||||||||||||||||||||||||MET062METAR KTSP 211355Z AUTO 00000KT 10SM CLR 07/M02 A3010 RMK AO2;||F||223|ICAO-KTSP
USW00000479|TEHACHAPI MUNI AP|2009|12|21|14|15|35.1350|-118.4392|1219.5|6.0||1|FM15-METAR|223|ICAO-KTSP|-2.0||1|FM15-METAR|223|ICAO-KTSP|||||||||||||999|C-Calm|9|FM15-METAR|223|ICAO-KTSP|0.0|C-Calm|1|FM15-METAR|223|ICAO-KTSP|||||||||||||57|Derived||FM15-METAR|223|ICAO-KTSP|||||||||||||||||||||||||||||||||||||||||||||||||||||||||||||||||||||||||1019.0||1|FM15-METAR|223|ICAO-KTSP|||||||||||||||||||||||||||||||||||||||||||MET062METAR KTSP 211415Z AUTO 00000KT 10SM CLR 06/M02 A3009 RMK AO2;||F||223|ICAO-KTSP
USW00000479|TEHACHAPI MUNI AP|2009|12|21|14|35|35.1350|-118.4392|1219.5|6.0||1|FM15-METAR|223|ICAO-KTSP|-2.0||1|FM15-METAR|223|ICAO-KTSP|||||||||||||999|C-Calm|9|FM15-METAR|223|ICAO-KTSP|0.0|C-Calm|1|FM15-METAR|223|ICAO-KTSP|||||||||||||57|Derived||FM15-METAR|223|ICAO-KTSP|||||||||||||||||||||||||||||||||||||||||||||||||||||||||||||||||||||||||1019.0||1|FM15-METAR|223|ICAO-KTSP|||||||||||||||||||||||||||||||||||||||||||MET062METAR KTSP 211435Z AUTO 00000KT 10SM CLR 06/M02 A3009 RMK AO2;||F||223|ICAO-KTSP
USW00000479|TEHACHAPI MUNI AP|2009|12|21|15|00|35.1350|-118.4392|1219.5|6.0||1|FM15-METAR|223|ICAO-KTSP|-2.0||1|FM15-METAR|223|ICAO-KTSP|||||||||||||999|C-Calm|9|FM15-METAR|223|ICAO-KTSP|0.0|C-Calm|1|FM15-METAR|223|ICAO-KTSP|||||||||||||57|Derived||FM15-METAR|223|ICAO-KTSP|||||||||||||||||||||||||||||||||||||||||||||||||||||||||||||||||||||||||1019.0||1|FM15-METAR|223|ICAO-KTSP|||||||||||||||||||||||||||||||||||||||||||MET062METAR KTSP 211455Z AUTO 00000KT 10SM CLR 06/M02 A3009 RMK AO2;||F||223|ICAO-KTSP
USW00000479|TEHACHAPI MUNI AP|2009|12|21|15|15|35.1350|-118.4392|1219.5|6.0||1|FM15-METAR|223|ICAO-KTSP|-2.0||1|FM15-METAR|223|ICAO-KTSP|||||||||||||999|C-Calm|9|FM15-METAR|223|ICAO-KTSP|0.0|C-Calm|1|FM15-METAR|223|ICAO-KTSP|||||||||||||57|Derived||FM15-METAR|223|ICAO-KTSP|||||||||||||||||||||||||||||||||||||||||||||||||||||||||||||||||||||||||1019.0||1|FM15-METAR|223|ICAO-KTSP|||||||||||||||||||||||||||||||||||||||||||MET062METAR KTSP 211515Z AUTO 00000KT 10SM CLR 06/M02 A3009 RMK AO2;||F||223|ICAO-KTSP
USW00000479|TEHACHAPI MUNI AP|2009|12|21|15|35|35.1350|-118.4392|1219.5|4.0||1|FM15-METAR|223|ICAO-KTSP|-1.0||1|FM15-METAR|223|ICAO-KTSP|||||||||||||999|C-Calm|9|FM15-METAR|223|ICAO-KTSP|0.0|C-Calm|1|FM15-METAR|223|ICAO-KTSP|||||||||||||70|Derived||FM15-METAR|223|ICAO-KTSP|||||||||||||||||||||||||||||||||||||||||||||||||||||||||||||||||||||||||1019.0||1|FM15-METAR|223|ICAO-KTSP|||||||||||||||||||||||||||||||||||||||||||MET062METAR KTSP 211535Z AUTO 00000KT 10SM CLR 04/M01 A3009 RMK AO2;||F||223|ICAO-KTSP
USW00000479|TEHACHAPI MUNI AP|2009|12|21|16|00|35.1350|-118.4392|1219.5|5.0||1|FM15-METAR|223|ICAO-KTSP|-1.0||1|FM15-METAR|223|ICAO-KTSP|||||||||||||999|C-Calm|9|FM15-METAR|223|ICAO-KTSP|0.0|C-Calm|1|FM15-METAR|223|ICAO-KTSP|||||||||||||66|Derived||FM15-METAR|223|ICAO-KTSP|||||||||||||||||||||||||||||||||||||||||||||||||||||||||||||||||||||||||1019.0||1|FM15-METAR|223|ICAO-KTSP|||||||||||||||||||||||||||||||||||||||||||MET062METAR KTSP 211555Z AUTO 00000KT 10SM CLR 05/M01 A3009 RMK AO2;||F||223|ICAO-KTSP
USW00000479|TEHACHAPI MUNI AP|2009|12|21|16|15|35.1350|-118.4392|1219.5|6.0||1|FM15-METAR|223|ICAO-KTSP|0.0||1|FM15-METAR|223|ICAO-KTSP|||||||||||||999|C-Calm|9|FM15-METAR|223|ICAO-KTSP|0.0|C-Calm|1|FM15-METAR|223|ICAO-KTSP|||||||||||||66|Derived||FM15-METAR|223|ICAO-KTSP|||||||||||||||||||||||||||||||||||||||||||||||||||||||||||||||||||||||||1019.0||1|FM15-METAR|223|ICAO-KTSP|||||||||||||||||||||||||||||||||||||||||||MET061METAR KTSP 211615Z AUTO 00000KT 10SM CLR 06/00 A3009 RMK AO2;||F||223|ICAO-KTSP
USW00000479|TEHACHAPI MUNI AP|2009|12|21|16|35|35.1350|-118.4392|1219.5|7.0||1|FM15-METAR|223|ICAO-KTSP|0.0||1|FM15-METAR|223|ICAO-KTSP|||||||||||||999|C-Calm|9|FM15-METAR|223|ICAO-KTSP|0.0|C-Calm|1|FM15-METAR|223|ICAO-KTSP|||||||||||||61|Derived||FM15-METAR|223|ICAO-KTSP|||||||||||||||||||||||||||||||||||||||||||||||||||||||||||||||||||||||||1019.0||1|FM15-METAR|223|ICAO-KTSP|||||||||||||||||||||||||||||||||||||||||||MET060METAR KTSP 211635Z AUTO 00000KT 9SM CLR 07/00 A3009 RMK AO2;||F||223|ICAO-KTSP
USW00000479|TEHACHAPI MUNI AP|2009|12|21|17|00|35.1350|-118.4392|1219.5|9.0||1|FM15-METAR|223|ICAO-KTSP|0.0||1|FM15-METAR|223|ICAO-KTSP|||||||||||||999|C-Calm|9|FM15-METAR|223|ICAO-KTSP|0.0|C-Calm|1|FM15-METAR|223|ICAO-KTSP|||||||||||||54|Derived||FM15-METAR|223|ICAO-KTSP|||||||||||||||||||||||||||||||||||||||||||||||||||||||||||||||||||||||||1019.0||1|FM15-METAR|223|ICAO-KTSP|||||||||||||||||||||||||||||||||||||||||||MET060METAR KTSP 211655Z AUTO 00000KT 9SM CLR 09/00 A3009 RMK AO2;||F||223|ICAO-KTSP
USW00000479|TEHACHAPI MUNI AP|2009|12|21|17|15|35.1350|-118.4392|1219.5|10.0||1|FM15-METAR|223|ICAO-KTSP|-1.0||1|FM15-METAR|223|ICAO-KTSP|||||||||||||300|N-Normal|1|FM15-METAR|223|ICAO-KTSP|3.1|N-Normal|1|FM15-METAR|223|ICAO-KTSP|||||||||||||47|Derived||FM15-METAR|223|ICAO-KTSP|||||||||||||||||||||||||||||||||||||||||||||||||||||||||||||||||||||||||1019.3||1|FM15-METAR|223|ICAO-KTSP|||||||||||||||||||||||||||||||||||||||||||MET062METAR KTSP 211715Z AUTO 30006KT 10SM CLR 10/M01 A3010 RMK AO2;||F||223|ICAO-KTSP
USW00000479|TEHACHAPI MUNI AP|2009|12|21|17|35|35.1350|-118.4392|1219.5|12.0||1|FM15-METAR|223|ICAO-KTSP|-2.0||1|FM15-METAR|223|ICAO-KTSP|||||||||||||290|N-Normal|1|FM15-METAR|223|ICAO-KTSP|3.6|N-Normal|1|FM15-METAR|223|ICAO-KTSP|||||||||||||38|Derived||FM15-METAR|223|ICAO-KTSP|||||||||||||||||||||||||||||||||||||||||||||||||||||||||||||||||||||||||1019.0||1|FM15-METAR|223|ICAO-KTSP|||||||||||||||||||||||||||||||||||||||||||MET062METAR KTSP 211735Z AUTO 29007KT 10SM CLR 12/M02 A3009 RMK AO2;||F||223|ICAO-KTSP
USW00000479|TEHACHAPI MUNI AP|2009|12|21|18|00|35.1350|-118.4392|1219.5|12.0||1|FM15-METAR|223|ICAO-KTSP|-2.0||1|FM15-METAR|223|ICAO-KTSP|||||||||||||300|N-Normal|1|FM15-METAR|223|ICAO-KTSP|3.6|N-Normal|1|FM15-METAR|223|ICAO-KTSP|||||||||||||38|Derived||FM15-METAR|223|ICAO-KTSP|||||||||||||||||||||||||||||||||||||||||||||||||||||||||||||||||||||||||1019.0||1|FM15-METAR|223|ICAO-KTSP|||||||||||||||||||||||||||||||||||||||||||MET062METAR KTSP 211755Z AUTO 30007KT 10SM CLR 12/M02 A3009 RMK AO2;||F||223|ICAO-KTSP
USW00000479|TEHACHAPI MUNI AP|2009|12|21|18|15|35.1350|-118.4392|1219.5|12.0||1|FM15-METAR|223|ICAO-KTSP|-2.0||1|FM15-METAR|223|ICAO-KTSP|||||||||||||310|N-Normal|1|FM15-METAR|223|ICAO-KTSP|4.1|N-Normal|1|FM15-METAR|223|ICAO-KTSP|||||||||||||38|Derived||FM15-METAR|223|ICAO-KTSP|||||||||||||||||||||||||||||||||||||||||||||||||||||||||||||||||||||||||1019.0||1|FM15-METAR|223|ICAO-KTSP|||||||||||||||||||||||||||||||||||||||||||MET062METAR KTSP 211815Z AUTO 31008KT 10SM CLR 12/M02 A3009 RMK AO2;||F||223|ICAO-KTSP
USW00000479|TEHACHAPI MUNI AP|2009|12|21|18|35|35.1350|-118.4392|1219.5|13.0||1|FM15-METAR|223|ICAO-KTSP|-1.0||1|FM15-METAR|223|ICAO-KTSP|||||||||||||300|N-Normal|1|FM15-METAR|223|ICAO-KTSP|3.6|N-Normal|1|FM15-METAR|223|ICAO-KTSP|||||||||||||38|Derived||FM15-METAR|223|ICAO-KTSP|||||||||||||||||||||||||||||||||||||||||||||||||||||||||||||||||||||||||1018.6||1|FM15-METAR|223|ICAO-KTSP|||||||||||||||||||||||||||||||||||||||||||MET062METAR KTSP 211835Z AUTO 30007KT 10SM CLR 13/M01 A3008 RMK AO2;||F||223|ICAO-KTSP
USW00000479|TEHACHAPI MUNI AP|2009|12|21|19|00|35.1350|-118.4392|1219.5|13.0||1|FM15-METAR|223|ICAO-KTSP|-2.0||1|FM15-METAR|223|ICAO-KTSP|||||||||||||290|N-Normal|1|FM15-METAR|223|ICAO-KTSP|4.1|N-Normal|1|FM15-METAR|223|ICAO-KTSP|||||||||||||36|Derived||FM15-METAR|223|ICAO-KTSP|||||||||||||||||||||||||||||||||||||||||||||||||||||||||||||||||||||||||1018.6||1|FM15-METAR|223|ICAO-KTSP|||||||||||||||||||||||||||||||||||||||||||MET062METAR KTSP 211855Z AUTO 29008KT 10SM CLR 13/M02 A3008 RMK AO2;||F||223|ICAO-KTSP
USW00000479|TEHACHAPI MUNI AP|2009|12|21|19|15|35.1350|-118.4392|1219.5|13.0||1|FM15-METAR|223|ICAO-KTSP|0.0||1|FM15-METAR|223|ICAO-KTSP|||||||||||||310|N-Normal|1|FM15-METAR|223|ICAO-KTSP|5.1|N-Normal|1|FM15-METAR|223|ICAO-KTSP|||||||||||||41|Derived||FM15-METAR|223|ICAO-KTSP|||||||||||||||||||||||||||||||||||||||||||||||||||||||||||||||||||||||||1018.0||1|FM15-METAR|223|ICAO-KTSP|||||||||||||||||||||||||||||||||||||||||||MET061METAR KTSP 211915Z AUTO 31010KT 10SM CLR 13/00 A3006 RMK AO2;||F||223|ICAO-KTSP
USW00000479|TEHACHAPI MUNI AP|2009|12|21|19|35|35.1350|-118.4392|1219.5|13.0||1|FM15-METAR|223|ICAO-KTSP|0.0||1|FM15-METAR|223|ICAO-KTSP|||||||||||||320|N-Normal|1|FM15-METAR|223|ICAO-KTSP|5.7|N-Normal|1|FM15-METAR|223|ICAO-KTSP|||||||||||||41|Derived||FM15-METAR|223|ICAO-KTSP|||||||||||||||||||||||||||||||||||||||||||||||||||||||||||||||||||||||||1017.6||1|FM15-METAR|223|ICAO-KTSP|||||||||||||||||||||||||||||||||||||||||||MET061METAR KTSP 211935Z AUTO 32011KT 10SM CLR 13/00 A3005 RMK AO2;||F||223|ICAO-KTSP
USW00000479|TEHACHAPI MUNI AP|2009|12|21|20|00|35.1350|-118.4392|1219.5|13.0||1|FM15-METAR|223|ICAO-KTSP|0.0||1|FM15-METAR|223|ICAO-KTSP|||||||||||||310|N-Normal|1|FM15-METAR|223|ICAO-KTSP|5.1|N-Normal|1|FM15-METAR|223|ICAO-KTSP|||||||||||||41|Derived||FM15-METAR|223|ICAO-KTSP|||||||||||||||||||||||||||||||||||||||||||||||||||||||||||||||||||||||||1016.9||1|FM15-METAR|223|ICAO-KTSP|||||||||||||||||||||||||||||||||||||||||||MET061METAR KTSP 211955Z AUTO 31010KT 10SM CLR 13/00 A3003 RMK AO2;||F||223|ICAO-KTSP
USW00000479|TEHACHAPI MUNI AP|2009|12|21|20|15|35.1350|-118.4392|1219.5|13.0||1|FM15-METAR|223|ICAO-KTSP|0.0||1|FM15-METAR|223|ICAO-KTSP|||||||||||||300|N-Normal|1|FM15-METAR|223|ICAO-KTSP|5.1|N-Normal|1|FM15-METAR|223|ICAO-KTSP|||||||||||||41|Derived||FM15-METAR|223|ICAO-KTSP|||||||||||||||||||||||||||||||||||||||||||||||||||||||||||||||||||||||||1016.6||1|FM15-METAR|223|ICAO-KTSP|||||||||||||||||||||||||||||||||||||||||||MET061METAR KTSP 212015Z AUTO 30010KT 10SM CLR 13/00 A3002 RMK AO2;||F||223|ICAO-KTSP
USW00000479|TEHACHAPI MUNI AP|2009|12|21|20|35|35.1350|-118.4392|1219.5|13.0||1|FM15-METAR|223|ICAO-KTSP|1.0||1|FM15-METAR|223|ICAO-KTSP|||||||||||||300|N-Normal|1|FM15-METAR|223|ICAO-KTSP|6.2|N-Normal|1|FM15-METAR|223|ICAO-KTSP|||||||||||||44|Derived||FM15-METAR|223|ICAO-KTSP|||||||||||||||||||||||||||||||||||||||||||||||||||||||||||||||||||||||||1016.6||1|FM15-METAR|223|ICAO-KTSP|||||||||||||||||||||||||||||||||||||||||||MET061METAR KTSP 212035Z AUTO 30012KT 10SM CLR 13/01 A3002 RMK AO2;||F||223|ICAO-KTSP
USW00000479|TEHACHAPI MUNI AP|2009|12|21|21|00|35.1350|-118.4392|1219.5|13.0||1|FM15-METAR|223|ICAO-KTSP|2.0||1|FM15-METAR|223|ICAO-KTSP|||||||||||||320|N-Normal|1|FM15-METAR|223|ICAO-KTSP|6.2|N-Normal|1|FM15-METAR|223|ICAO-KTSP|||||||||||||47|Derived||FM15-METAR|223|ICAO-KTSP|||||||||||||||||||||||||||||||||||||||||||||||||||||||||||||||||||||||||1016.3||1|FM15-METAR|223|ICAO-KTSP|||||||||||||||||||||||||||||||||||||||||||MET061METAR KTSP 212055Z AUTO 32012KT 10SM CLR 13/02 A3001 RMK AO2;||F||223|ICAO-KTSP
USW00000479|TEHACHAPI MUNI AP|2009|12|21|21|15|35.1350|-118.4392|1219.5|13.0||1|FM15-METAR|223|ICAO-KTSP|2.0||1|FM15-METAR|223|ICAO-KTSP|||||||||||||310|N-Normal|1|FM15-METAR|223|ICAO-KTSP|5.1|N-Normal|1|FM15-METAR|223|ICAO-KTSP|||||||||||||47|Derived||FM15-METAR|223|ICAO-KTSP|||||||||||||||||||||||||||||||||||||||||||||||||||||||||||||||||||||||||1015.6||1|FM15-METAR|223|ICAO-KTSP|||||||||||||||||||||||||||||||||||||||||||MET061METAR KTSP 212115Z AUTO 31010KT 10SM CLR 13/02 A2999 RMK AO2;||F||223|ICAO-KTSP
USW00000479|TEHACHAPI MUNI AP|2009|12|21|21|35|35.1350|-118.4392|1219.5|13.0||1|FM15-METAR|223|ICAO-KTSP|3.0||1|FM15-METAR|223|ICAO-KTSP|||||||||||||320|N-Normal|1|FM15-METAR|223|ICAO-KTSP|5.1|N-Normal|1|FM15-METAR|223|ICAO-KTSP|||||||||||||51|Derived||FM15-METAR|223|ICAO-KTSP|||||||||||||||||||||||||||||||||||||||||||||||||||||||||||||||||||||||||1015.2||1|FM15-METAR|223|ICAO-KTSP|||||||||||||||||||||||||||||||||||||||||||MET061METAR KTSP 212135Z AUTO 32010KT 10SM CLR 13/03 A2998 RMK AO2;||F||223|ICAO-KTSP
USW00000479|TEHACHAPI MUNI AP|2009|12|21|22|00|35.1350|-118.4392|1219.5|13.0||1|FM15-METAR|223|ICAO-KTSP|3.0||1|FM15-METAR|223|ICAO-KTSP|||||||||||||300|N-Normal|1|FM15-METAR|223|ICAO-KTSP|5.1|N-Normal|1|FM15-METAR|223|ICAO-KTSP|||||||||||||51|Derived||FM15-METAR|223|ICAO-KTSP|||||||||||||||||||||||||||||||||||||||||||||||||||||||||||||||||||||||||1015.2||1|FM15-METAR|223|ICAO-KTSP|||||||||||||||||||||||||||||||||||||||||||MET061METAR KTSP 212155Z AUTO 30010KT 10SM CLR 13/03 A2998 RMK AO2;||F||223|ICAO-KTSP
USW00000479|TEHACHAPI MUNI AP|2009|12|21|22|15|35.1350|-118.4392|1219.5|13.0||1|FM15-METAR|223|ICAO-KTSP|4.0||1|FM15-METAR|223|ICAO-KTSP|||||||||||||310|N-Normal|1|FM15-METAR|223|ICAO-KTSP|5.1|N-Normal|1|FM15-METAR|223|ICAO-KTSP|||||||||||||55|Derived||FM15-METAR|223|ICAO-KTSP|||||||||||||||||||||||||||||||||||||||||||||||||||||||||||||||||||||||||1015.2||1|FM15-METAR|223|ICAO-KTSP|||||||||||||||||||||||||||||||||||||||||||MET061METAR KTSP 212215Z AUTO 31010KT 10SM CLR 13/04 A2998 RMK AO2;||F||223|ICAO-KTSP
USW00000479|TEHACHAPI MUNI AP|2009|12|21|22|35|35.1350|-118.4392|1219.5|12.0||1|FM15-METAR|223|ICAO-KTSP|4.0||1|FM15-METAR|223|ICAO-KTSP|||||||||||||300|N-Normal|1|FM15-METAR|223|ICAO-KTSP|4.6|N-Normal|1|FM15-METAR|223|ICAO-KTSP|||||||||||||58|Derived||FM15-METAR|223|ICAO-KTSP|||||||||||||||||||||||||||||||||||||||||||||||||||||||||||||||||||||||||1014.9||1|FM15-METAR|223|ICAO-KTSP|||||||||||||||||||||||||||||||||||||||||||MET061METAR KTSP 212235Z AUTO 30009KT 10SM CLR 12/04 A2997 RMK AO2;||F||223|ICAO-KTSP
USW00000479|TEHACHAPI MUNI AP|2009|12|21|23|00|35.1350|-118.4392|1219.5|12.0||1|FM15-METAR|223|ICAO-KTSP|4.0||1|FM15-METAR|223|ICAO-KTSP|||||||||||||300|N-Normal|1|FM15-METAR|223|ICAO-KTSP|5.1|N-Normal|1|FM15-METAR|223|ICAO-KTSP|||||||||||||58|Derived||FM15-METAR|223|ICAO-KTSP|||||||||||||||||||||||||||||||||||||||||||||||||||||||||||||||||||||||||1014.9||1|FM15-METAR|223|ICAO-KTSP|||||||||||||||||||||||||||||||||||||||||||MET061METAR KTSP 212255Z AUTO 30010KT 10SM CLR 12/04 A2997 RMK AO2;||F||223|ICAO-KTSP
USW00000479|TEHACHAPI MUNI AP|2009|12|21|23|15|35.1350|-118.4392|1219.5|12.0||1|FM15-METAR|223|ICAO-KTSP|4.0||1|FM15-METAR|223|ICAO-KTSP|||||||||||||310|N-Normal|1|FM15-METAR|223|ICAO-KTSP|4.1|N-Normal|1|FM15-METAR|223|ICAO-KTSP|||||||||||||58|Derived||FM15-METAR|223|ICAO-KTSP|||||||||||||||||||||||||||||||||||||||||||||||||||||||||||||||||||||||||1014.9||1|FM15-METAR|223|ICAO-KTSP|||||||||||||||||||||||||||||||||||||||||||MET061METAR KTSP 212315Z AUTO 31008KT 10SM CLR 12/04 A2997 RMK AO2;||F||223|ICAO-KTSP
USW00000479|TEHACHAPI MUNI AP|2009|12|21|23|35|35.1350|-118.4392|1219.5|12.0||1|FM15-METAR|223|ICAO-KTSP|4.0||1|FM15-METAR|223|ICAO-KTSP|||||||||||||310|N-Normal|1|FM15-METAR|223|ICAO-KTSP|3.6|N-Normal|1|FM15-METAR|223|ICAO-KTSP|||||||||||||58|Derived||FM15-METAR|223|ICAO-KTSP|||||||||||||||||||||||||||||||||||||||||||||||||||||||||||||||||||||||||1014.6||1|FM15-METAR|223|ICAO-KTSP|||||||||||||||||||||||||||||||||||||||||||MET061METAR KTSP 212335Z AUTO 31007KT 10SM CLR 12/04 A2996 RMK AO2;||F||223|ICAO-KTSP
USW00000479|TEHACHAPI MUNI AP|2009|12|22|00|00|35.1350|-118.4392|1219.5|12.0||1|FM15-METAR|223|ICAO-KTSP|4.0||1|FM15-METAR|223|ICAO-KTSP|||||||||||||310|N-Normal|1|FM15-METAR|223|ICAO-KTSP|4.6|N-Normal|1|FM15-METAR|223|ICAO-KTSP|||||||||||||58|Derived||FM15-METAR|223|ICAO-KTSP|||||||||||||||||||||||||||||||||||||||||||||||||||||||||||||||||||||||||1014.6||1|FM15-METAR|223|ICAO-KTSP|||||||||||||||||||||||||||||||||||||||||||MET061METAR KTSP 212355Z AUTO 31009KT 10SM CLR 12/04 A2996 RMK AO2;||F||223|ICAO-KTSP
USW00000479|TEHACHAPI MUNI AP|2009|12|22|00|15|35.1350|-118.4392|1219.5|10.0||1|FM15-METAR|223|ICAO-KTSP|4.0||1|FM15-METAR|223|ICAO-KTSP|||||||||||||300|N-Normal|1|FM15-METAR|223|ICAO-KTSP|3.6|N-Normal|1|FM15-METAR|223|ICAO-KTSP|||||||||||||67|Derived||FM15-METAR|223|ICAO-KTSP|||||||||||||||||||||||||||||||||||||||||||||||||||||||||||||||||||||||||1014.6||1|FM15-METAR|223|ICAO-KTSP|||||||||||||||||||||||||||||||||||||||||||MET061METAR KTSP 220015Z AUTO 30007KT 10SM CLR 10/04 A2996 RMK AO2;||F||223|ICAO-KTSP
USW00000479|TEHACHAPI MUNI AP|2009|12|22|00|35|35.1350|-118.4392|1219.5|10.0||1|FM15-METAR|223|ICAO-KTSP|3.0||1|FM15-METAR|223|ICAO-KTSP|||||||||||||290|N-Normal|1|FM15-METAR|223|ICAO-KTSP|2.6|N-Normal|1|FM15-METAR|223|ICAO-KTSP|||||||||||||62|Derived||FM15-METAR|223|ICAO-KTSP|||||||||||||||||||||||||||||||||||||||||||||||||||||||||||||||||||||||||1014.2||1|FM15-METAR|223|ICAO-KTSP|||||||FEW:02|02-Two-okt|4|FM15-METAR|223|ICAO-KTSP|||||||||||||||||||||||||||||||MET064METAR KTSP 220035Z AUTO 29005KT 10SM FEW033 10/03 A2995 RMK AO2;||F||223|ICAO-KTSP
USW00000479|TEHACHAPI MUNI AP|2009|12|22|01|00|35.1350|-118.4392|1219.5|||||||||||||||||||||||||||||||||||||||||||||||||||||||||||||||||||||||||||||||||||||||||||||||||||||||||||||||||||||||||||||||||||||||||||||||||||||||||||||||||||||||||||||||MET041METAR KTSP 220055Z AUTO 10SM CLR RMK AO2;||F||223|ICAO-KTSP
USW00000479|TEHACHAPI MUNI AP|2009|12|22|01|15|35.1350|-118.4392|1219.5|9.0||1|FM15-METAR|223|ICAO-KTSP|2.0||1|FM15-METAR|223|ICAO-KTSP|||||||||||||310|N-Normal|1|FM15-METAR|223|ICAO-KTSP|2.1|N-Normal|1|FM15-METAR|223|ICAO-KTSP|||||||||||||62|Derived||FM15-METAR|223|ICAO-KTSP|||||||||||||||||||||||||||||||||||||||||||||||||||||||||||||||||||||||||1014.6||1|FM15-METAR|223|ICAO-KTSP|||||||BKN:07|07-Seven-o|4|FM15-METAR|223|ICAO-KTSP|||||||||||||||||||||||||||||||MET064METAR KTSP 220115Z AUTO 31004KT 10SM BKN060 09/02 A2996 RMK AO2;||F||223|ICAO-KTSP
USW00000479|TEHACHAPI MUNI AP|2009|12|22|01|35|35.1350|-118.4392|1219.5|9.0||1|FM15-METAR|223|ICAO-KTSP|1.0||1|FM15-METAR|223|ICAO-KTSP|||||||||||||310|N-Normal|1|FM15-METAR|223|ICAO-KTSP|2.6|N-Normal|1|FM15-METAR|223|ICAO-KTSP|||||||||||||58|Derived||FM15-METAR|223|ICAO-KTSP|||||||||||||||||||||||||||||||||||||||||||||||||||||||||||||||||||||||||1014.6||1|FM15-METAR|223|ICAO-KTSP|||||||BKN:07|07-Seven-o|4|FM15-METAR|223|ICAO-KTSP|||||||OVC:08|08-Eight-o|4|FM15-METAR|223|ICAO-KTSP|||||||||||||||||||MET071METAR KTSP 220135Z AUTO 31005KT 10SM BKN060 OVC075 09/01 A2996 RMK AO2;||F||223|ICAO-KTSP
USW00000479|TEHACHAPI MUNI AP|2009|12|22|02|00|35.1350|-118.4392|1219.5|9.0||1|FM15-METAR|223|ICAO-KTSP|0.0||1|FM15-METAR|223|ICAO-KTSP|||||||||||||310|N-Normal|1|FM15-METAR|223|ICAO-KTSP|3.1|N-Normal|1|FM15-METAR|223|ICAO-KTSP|||||||||||||54|Derived||FM15-METAR|223|ICAO-KTSP|||||||||||||||||||||||||||||||||||||||||||||||||||||||||||||||||||||||||1014.6||1|FM15-METAR|223|ICAO-KTSP|||||||FEW:02|02-Two-okt|4|FM15-METAR|223|ICAO-KTSP|||||||SCT:04|04-Four-ok|4|FM15-METAR|223|ICAO-KTSP|||||||||||||||||||MET078METAR KTSP 220155Z AUTO 31006KT 10SM FEW034 SCT060 OVC075 09/00 A2996 RMK AO2;||F||223|ICAO-KTSP
USW00000479|TEHACHAPI MUNI AP|2009|12|22|02|15|35.1350|-118.4392|1219.5|8.0||1|FM15-METAR|223|ICAO-KTSP|0.0||1|FM15-METAR|223|ICAO-KTSP|||||||||||||310|N-Normal|1|FM15-METAR|223|ICAO-KTSP|4.1|N-Normal|1|FM15-METAR|223|ICAO-KTSP|||||||||||||57|Derived||FM15-METAR|223|ICAO-KTSP|||||||||||||||||||||||||||||||||||||||||||||||||||||||||||||||||||||||||1014.6||1|FM15-METAR|223|ICAO-KTSP|||||||FEW:02|02-Two-okt|4|FM15-METAR|223|ICAO-KTSP|||||||FEW:02|02-Two-okt|4|FM15-METAR|223|ICAO-KTSP|||||||||||||||||||MET078METAR KTSP 220215Z AUTO 31008KT 10SM FEW034 FEW060 BKN075 08/00 A2996 RMK AO2;||F||223|ICAO-KTSP
USW00000479|TEHACHAPI MUNI AP|2009|12|22|02|35|35.1350|-118.4392|1219.5|7.0||1|FM15-METAR|223|ICAO-KTSP|0.0||1|FM15-METAR|223|ICAO-KTSP|||||||||||||290|N-Normal|1|FM15-METAR|223|ICAO-KTSP|4.1|N-Normal|1|FM15-METAR|223|ICAO-KTSP|||||||||||||61|Derived||FM15-METAR|223|ICAO-KTSP|||||||||||||||||||||||||||||||||||||||||||||||||||||||||||||||||||||||||1014.2||1|FM15-METAR|223|ICAO-KTSP|||||||FEW:02|02-Two-okt|4|FM15-METAR|223|ICAO-KTSP|||||||||||||||||||||||||||||||MET064METAR KTSP 220235Z AUTO 29008KT 10SM FEW085 07/00 A2995 RMK AO2;||F||223|ICAO-KTSP
USW00000479|TEHACHAPI MUNI AP|2009|12|22|03|00|35.1350|-118.4392|1219.5|7.0||1|FM15-METAR|223|ICAO-KTSP|0.0||1|FM15-METAR|223|ICAO-KTSP|||||||||||||300|N-Normal|1|FM15-METAR|223|ICAO-KTSP|5.1|N-Normal|1|FM15-METAR|223|ICAO-KTSP|||||||||||||61|Derived||FM15-METAR|223|ICAO-KTSP|||||||||||||||||||||||||||||||||||||||||||||||||||||||||||||||||||||||||1014.6||1|FM15-METAR|223|ICAO-KTSP|||||||||||||||||||||||||||||||||||||||||||MET060METAR KTSP 220255Z AUTO 30010KT 9SM CLR 07/00 A2996 RMK AO2;||F||223|ICAO-KTSP
USW00000479|TEHACHAPI MUNI AP|2009|12|22|03|15|35.1350|-118.4392|1219.5|7.0||1|FM15-METAR|223|ICAO-KTSP|0.0||1|FM15-METAR|223|ICAO-KTSP|||||||||||||300|N-Normal|1|FM15-METAR|223|ICAO-KTSP|5.7|N-Normal|1|FM15-METAR|223|ICAO-KTSP|||||||||||||61|Derived||FM15-METAR|223|ICAO-KTSP|||||||||||||||||||||||||||||||||||||||||||||||||||||||||||||||||||||||||1014.6||1|FM15-METAR|223|ICAO-KTSP|||||||SCT:04|04-Four-ok|4|FM15-METAR|223|ICAO-KTSP|||||||||||||||||||||||||||||||MET063METAR KTSP 220315Z AUTO 30011KT 9SM SCT110 07/00 A2996 RMK AO2;||F||223|ICAO-KTSP
USW00000479|TEHACHAPI MUNI AP|2009|12|22|03|35|35.1350|-118.4392|1219.5|6.0||1|FM15-METAR|223|ICAO-KTSP|0.0||1|FM15-METAR|223|ICAO-KTSP|||||||||||||290|N-Normal|1|FM15-METAR|223|ICAO-KTSP|4.1|N-Normal|1|FM15-METAR|223|ICAO-KTSP|||||||||||||66|Derived||FM15-METAR|223|ICAO-KTSP|||||||||||||||||||||||||||||||||||||||||||||||||||||||||||||||||||||||||1014.6||1|FM15-METAR|223|ICAO-KTSP|||||||FEW:02|02-Two-okt|4|FM15-METAR|223|ICAO-KTSP|||||||FEW:02|02-Two-okt|4|FM15-METAR|223|ICAO-KTSP|||||||||||||||||||MET070METAR KTSP 220335Z AUTO 29008KT 8SM FEW048 FEW110 06/00 A2996 RMK AO2;||F||223|ICAO-KTSP
USW00000479|TEHACHAPI MUNI AP|2009|12|22|04|00|35.1350|-118.4392|1219.5|6.0||1|FM15-METAR|223|ICAO-KTSP|1.0||1|FM15-METAR|223|ICAO-KTSP|||||||||||||300|N-Normal|1|FM15-METAR|223|ICAO-KTSP|4.1|N-Normal|1|FM15-METAR|223|ICAO-KTSP|||||||||||||71|Derived||FM15-METAR|223|ICAO-KTSP|||||||||||||||||||||||||||||||||||||||||||||||||||||||||||||||||||||||||1014.2||1|FM15-METAR|223|ICAO-KTSP|||||||BKN:07|07-Seven-o|4|FM15-METAR|223|ICAO-KTSP|||||||||||||||||||||||||||||||MET063METAR KTSP 220355Z AUTO 30008KT 8SM BKN050 06/01 A2995 RMK AO2;||F||223|ICAO-KTSP
USW00000479|TEHACHAPI MUNI AP|2009|12|22|04|15|35.1350|-118.4392|1219.5|6.0||1|FM15-METAR|223|ICAO-KTSP|2.0||1|FM15-METAR|223|ICAO-KTSP|||||||||||||300|N-Normal|1|FM15-METAR|223|ICAO-KTSP|4.6|N-Normal|1|FM15-METAR|223|ICAO-KTSP|||||||||||||76|Derived||FM15-METAR|223|ICAO-KTSP|||||||||||||||||||||||||||||||||||||||||||||||||||||||||||||||||||||||||1014.2||1|FM15-METAR|223|ICAO-KTSP|||||||OVC:08|08-Eight-o|4|FM15-METAR|223|ICAO-KTSP|||||||||||||||||||||||||||||||MET063METAR KTSP 220415Z AUTO 30009KT 8SM OVC048 06/02 A2995 RMK AO2;||F||223|ICAO-KTSP
USW00000479|TEHACHAPI MUNI AP|2009|12|22|04|35|35.1350|-118.4392|1219.5|6.0||1|FM15-METAR|223|ICAO-KTSP|2.0||1|FM15-METAR|223|ICAO-KTSP|||||||||||||300|N-Normal|1|FM15-METAR|223|ICAO-KTSP|5.1|N-Normal|1|FM15-METAR|223|ICAO-KTSP|||||||||||||76|Derived||FM15-METAR|223|ICAO-KTSP|||||||||||||||||||||||||||||||||||||||||||||||||||||||||||||||||||||||||1013.9||1|FM15-METAR|223|ICAO-KTSP|||||||BKN:07|07-Seven-o|4|FM15-METAR|223|ICAO-KTSP|||||||OVC:08|08-Eight-o|4|FM15-METAR|223|ICAO-KTSP|||||||||||||||||||MET070METAR KTSP 220435Z AUTO 30010KT 8SM BKN046 OVC055 06/02 A2994 RMK AO2;||F||223|ICAO-KTSP
USW00000479|TEHACHAPI MUNI AP|2009|12|22|05|00|35.1350|-118.4392|1219.5|6.0||1|FM15-METAR|223|ICAO-KTSP|2.0||1|FM15-METAR|223|ICAO-KTSP|||||||||||||300|N-Normal|1|FM15-METAR|223|ICAO-KTSP|5.7|N-Normal|1|FM15-METAR|223|ICAO-KTSP|||||||||||||76|Derived||FM15-METAR|223|ICAO-KTSP|||||||||||||||||||||||||||||||||||||||||||||||||||||||||||||||||||||||||1013.9||1|FM15-METAR|223|ICAO-KTSP|||||||FEW:02|02-Two-okt|4|FM15-METAR|223|ICAO-KTSP|||||||SCT:04|04-Four-ok|4|FM15-METAR|223|ICAO-KTSP|||||||||||||||||||MET070METAR KTSP 220455Z AUTO 30011KT 8SM FEW044 SCT050 06/02 A2994 RMK AO2;||F||223|ICAO-KTSP
USW00000479|TEHACHAPI MUNI AP|2009|12|22|05|15|35.1350|-118.4392|1219.5|5.0||1|FM15-METAR|223|ICAO-KTSP|2.0||1|FM15-METAR|223|ICAO-KTSP|||||||||||||290|N-Normal|1|FM15-METAR|223|ICAO-KTSP|3.6|N-Normal|1|FM15-METAR|223|ICAO-KTSP|||||||||||||81|Derived||FM15-METAR|223|ICAO-KTSP|||||||||||||||||||||||||||||||||||||||||||||||||||||||||||||||||||||||||1013.5||1|FM15-METAR|223|ICAO-KTSP|||||||SCT:04|04-Four-ok|4|FM15-METAR|223|ICAO-KTSP|||||||BKN:07|07-Seven-o|4|FM15-METAR|223|ICAO-KTSP|||||||||||||||||||MET070METAR KTSP 220515Z AUTO 29007KT 8SM SCT046 BKN050 05/02 A2993 RMK AO2;||F||223|ICAO-KTSP
USW00000479|TEHACHAPI MUNI AP|2009|12|22|05|35|35.1350|-118.4392|1219.5|5.0||1|FM15-METAR|223|ICAO-KTSP|2.0||1|FM15-METAR|223|ICAO-KTSP|||||||||||||999|C-Calm|9|FM15-METAR|223|ICAO-KTSP|0.0|C-Calm|1|FM15-METAR|223|ICAO-KTSP|||||||||||||81|Derived||FM15-METAR|223|ICAO-KTSP|||||||||||||||||||||||||||||||||||||||||||||||||||||||||||||||||||||||||1012.9||1|FM15-METAR|223|ICAO-KTSP|||||||SCT:04|04-Four-ok|4|FM15-METAR|223|ICAO-KTSP|||||||BKN:07|07-Seven-o|4|FM15-METAR|223|ICAO-KTSP|||||||||||||||||||MET077METAR KTSP 220535Z AUTO 00000KT 7SM SCT040 BKN047 BKN050 05/02 A2991 RMK AO2;||F||223|ICAO-KTSP
USW00000479|TEHACHAPI MUNI AP|2009|12|22|06|00|35.1350|-118.4392|1219.5|4.0||1|FM15-METAR|223|ICAO-KTSP|0.0||1|FM15-METAR|223|ICAO-KTSP|||||||||||||999|C-Calm|9|FM15-METAR|223|ICAO-KTSP|0.0|C-Calm|1|FM15-METAR|223|ICAO-KTSP|||||||||||||75|Derived||FM15-METAR|223|ICAO-KTSP|||||||||||||||||||||||||||||||||||||||||||||||||||||||||||||||||||||||||1012.5||1|FM15-METAR|223|ICAO-KTSP|||||||FEW:02|02-Two-okt|4|FM15-METAR|223|ICAO-KTSP|||||||||||||||||||||||||||||||MET063METAR KTSP 220555Z AUTO 00000KT 8SM FEW050 04/00 A2990 RMK AO2;||F||223|ICAO-KTSP
USW00000479|TEHACHAPI MUNI AP|2009|12|22|06|15|35.1350|-118.4392|1219.5|4.0||1|FM15-METAR|223|ICAO-KTSP|0.0||1|FM15-METAR|223|ICAO-KTSP|||||||||||||280|N-Normal|1|FM15-METAR|223|ICAO-KTSP|3.6|N-Normal|1|FM15-METAR|223|ICAO-KTSP|||||||||||||75|Derived||FM15-METAR|223|ICAO-KTSP|||||||||||||||||||||||||||||||||||||||||||||||||||||||||||||||||||||||||1012.9||1|FM15-METAR|223|ICAO-KTSP|||||||||||||||||||||||||||||||||||||||||||MET060METAR KTSP 220615Z AUTO 28007KT 7SM CLR 04/00 A2991 RMK AO2;||F||223|ICAO-KTSP
USW00000479|TEHACHAPI MUNI AP|2009|12|22|06|35|35.1350|-118.4392|1219.5|5.0||1|FM15-METAR|223|ICAO-KTSP|2.0||1|FM15-METAR|223|ICAO-KTSP|||||||||||||290|N-Normal|1|FM15-METAR|223|ICAO-KTSP|5.7|N-Normal|1|FM15-METAR|223|ICAO-KTSP|||||||||||||81|Derived||FM15-METAR|223|ICAO-KTSP|||||||||||||||||||||||||||||||||||||||||||||||||||||||||||||||||||||||||1012.5||1|FM15-METAR|223|ICAO-KTSP|||||||BKN:07|07-Seven-o|4|FM15-METAR|223|ICAO-KTSP|||||||||||||||||||||||||||||||MET063METAR KTSP 220635Z AUTO 29011KT 7SM BKN037 05/02 A2990 RMK AO2;||F||223|ICAO-KTSP
USW00000479|TEHACHAPI MUNI AP|2009|12|22|07|00|35.1350|-118.4392|1219.5|5.0||1|FM15-METAR|223|ICAO-KTSP|3.0||1|FM15-METAR|223|ICAO-KTSP|||||||||||||300|N-Normal|1|FM15-METAR|223|ICAO-KTSP|5.7|N-Normal|1|FM15-METAR|223|ICAO-KTSP|||||||||||||87|Derived||FM15-METAR|223|ICAO-KTSP|||||||||||||||||||||||||||||||||||||||||||BR:10|BR:10-Mist|1|FM15-METAR|223|ICAO-KTSP|||||||||||||||||||||||||1012.9||1|FM15-METAR|223|ICAO-KTSP|||||||BKN:07|07-Seven-o|4|FM15-METAR|223|ICAO-KTSP|||||||BKN:07|07-Seven-o|4|FM15-METAR|223|ICAO-KTSP|||||||||||||||||||MET073METAR KTSP 220655Z AUTO 30011KT 6SM BR BKN037 BKN044 05/03 A2991 RMK AO2;||F||223|ICAO-KTSP
USW00000479|TEHACHAPI MUNI AP|2009|12|22|07|15|35.1350|-118.4392|1219.5|5.0||1|FM15-METAR|223|ICAO-KTSP|2.0||1|FM15-METAR|223|ICAO-KTSP|||||||||||||290|N-Normal|1|FM15-METAR|223|ICAO-KTSP|5.1|N-Normal|1|FM15-METAR|223|ICAO-KTSP|||||||||||||81|Derived||FM15-METAR|223|ICAO-KTSP|||||||||||||||||||||||||||||||||||||||||||HZ:04|HZ:04-Haze|1|FM15-METAR|223|ICAO-KTSP|||||||||||||||||||||||||1012.5||1|FM15-METAR|223|ICAO-KTSP|||||||SCT:04|04-Four-ok|4|FM15-METAR|223|ICAO-KTSP|||||||SCT:04|04-Four-ok|4|FM15-METAR|223|ICAO-KTSP|||||||||||||||||||MET073METAR KTSP 220715Z AUTO 29010KT 6SM HZ SCT037 SCT045 05/02 A2990 RMK AO2;||F||223|ICAO-KTSP
USW00000479|TEHACHAPI MUNI AP|2009|12|22|07|35|35.1350|-118.4392|1219.5|5.0||1|FM15-METAR|223|ICAO-KTSP|3.0||1|FM15-METAR|223|ICAO-KTSP|||||||||||||290|N-Normal|1|FM15-METAR|223|ICAO-KTSP|4.1|N-Normal|1|FM15-METAR|223|ICAO-KTSP|||||||||||||87|Derived||FM15-METAR|223|ICAO-KTSP|||||||||||||||||||||||||||||||||||||||||||BR:10|BR:10-Mist|1|FM15-METAR|223|ICAO-KTSP|||||||||||||||||||||||||1012.2||1|FM15-METAR|223|ICAO-KTSP|||||||BKN:07|07-Seven-o|4|FM15-METAR|223|ICAO-KTSP|||||||BKN:07|07-Seven-o|4|FM15-METAR|223|ICAO-KTSP|||||||||||||||||||MET073METAR KTSP 220735Z AUTO 29008KT 5SM BR BKN012 BKN022 05/03 A2989 RMK AO2;||F||223|ICAO-KTSP
USW00000479|TEHACHAPI MUNI AP|2009|12|22|08|00|35.1350|-118.4392|1219.5|5.0||1|FM15-METAR|223|ICAO-KTSP|3.0||1|FM15-METAR|223|ICAO-KTSP|||||||||||||270|N-Normal|1|FM15-METAR|223|ICAO-KTSP|4.6|N-Normal|1|FM15-METAR|223|ICAO-KTSP|||||||||||||87|Derived||FM15-METAR|223|ICAO-KTSP|||||||||||||||||||||||||||||||||||||||||||HZ:04|HZ:04-Haze|1|FM15-METAR|223|ICAO-KTSP|||||||||||||||||||||||||1012.2||1|FM15-METAR|223|ICAO-KTSP|||||||OVC:08|08-Eight-o|4|FM15-METAR|223|ICAO-KTSP|||||||||||||||||||||||||||||||MET066METAR KTSP 220755Z AUTO 27009KT 5SM HZ OVC010 05/03 A2989 RMK AO2;||F||223|ICAO-KTSP
USW00000479|TEHACHAPI MUNI AP|2009|12|22|08|15|35.1350|-118.4392|1219.5|5.0||1|FM15-METAR|223|ICAO-KTSP|3.0||1|FM15-METAR|223|ICAO-KTSP|||||||||||||290|N-Normal|1|FM15-METAR|223|ICAO-KTSP|4.1|N-Normal|1|FM15-METAR|223|ICAO-KTSP|||||||||||||87|Derived||FM15-METAR|223|ICAO-KTSP|||||||||||||||||||||||||||||||||||||||||||HZ:04|HZ:04-Haze|1|FM15-METAR|223|ICAO-KTSP|||||||||||||||||||||||||1011.9||1|FM15-METAR|223|ICAO-KTSP|||||||OVC:08|08-Eight-o|4|FM15-METAR|223|ICAO-KTSP|||||||||||||||||||||||||||||||MET066METAR KTSP 220815Z AUTO 29008KT 5SM HZ OVC012 05/03 A2988 RMK AO2;||F||223|ICAO-KTSP
USW00000479|TEHACHAPI MUNI AP|2009|12|22|08|35|35.1350|-118.4392|1219.5|5.0||1|FM15-METAR|223|ICAO-KTSP|3.0||1|FM15-METAR|223|ICAO-KTSP|||||||||||||280|N-Normal|1|FM15-METAR|223|ICAO-KTSP|4.6|N-Normal|1|FM15-METAR|223|ICAO-KTSP|||||||||||||87|Derived||FM15-METAR|223|ICAO-KTSP|||||||||||||||||||||||||||||||||||||||||||RA:61|RA:61-Rain|1|FM15-METAR|223|ICAO-KTSP|||||||||||||||||||||||||1011.2||1|FM15-METAR|223|ICAO-KTSP|||||||SCT:04|04-Four-ok|4|FM15-METAR|223|ICAO-KTSP|||||||BKN:07|07-Seven-o|4|FM15-METAR|223|ICAO-KTSP|||||||||||||||||||MET081METAR KTSP 220835Z AUTO 28009KT 3SM -RA SCT014 BKN025 OVC031 05/03 A2986 RMK AO2;||F||223|ICAO-KTSP
USW00000479|TEHACHAPI MUNI AP|2009|12|22|09|00|35.1350|-118.4392|1219.5|4.0||1|FM15-METAR|223|ICAO-KTSP|3.0||1|FM15-METAR|223|ICAO-KTSP|||||||||||||280|N-Normal|1|FM15-METAR|223|ICAO-KTSP|4.6|N-Normal|1|FM15-METAR|223|ICAO-KTSP|||||||||||||93|Derived||FM15-METAR|223|ICAO-KTSP|||||||||||||||||||||||||||||||||||||||||||RA:61|RA:61-Rain|1|FM15-METAR|223|ICAO-KTSP|||||||||||||||||||||||||1010.8||1|FM15-METAR|223|ICAO-KTSP|||||||FEW:02|02-Two-okt|4|FM15-METAR|223|ICAO-KTSP|||||||SCT:04|04-Four-ok|4|FM15-METAR|223|ICAO-KTSP|||||||||||||||||||MET081METAR KTSP 220855Z AUTO 28009KT 3SM -RA FEW003 SCT024 BKN030 04/03 A2985 RMK AO2;||F||223|ICAO-KTSP
USW00000479|TEHACHAPI MUNI AP|2009|12|22|09|15|35.1350|-118.4392|1219.5|5.0||1|FM15-METAR|223|ICAO-KTSP|3.0||1|FM15-METAR|223|ICAO-KTSP|||||||||||||270|N-Normal|1|FM15-METAR|223|ICAO-KTSP|6.7|N-Normal|1|FM15-METAR|223|ICAO-KTSP|||||||0.5|9-Missing|9|FM15-METAR|223|ICAO-KTSP|87|Derived||FM15-METAR|223|ICAO-KTSP|||||||||||||||||||||||||||||||||||||||||||RA:61|RA:61-Rain|1|FM15-METAR|223|ICAO-KTSP|||||||||||||||||||||||||1010.8||1|FM15-METAR|223|ICAO-KTSP|||||||FEW:02|02-Two-okt|4|FM15-METAR|223|ICAO-KTSP|||||||BKN:07|07-Seven-o|4|FM15-METAR|223|ICAO-KTSP|||||||||||||||||||MET091METAR KTSP 220915Z AUTO 27013KT 2 1/2SM -RA FEW008 BKN016 BKN021 05/03 A2985 RMK AO2 P0002;||F||223|ICAO-KTSP
USW00000479|TEHACHAPI MUNI AP|2009|12|22|09|35|35.1350|-118.4392|1219.5|4.0||1|FM15-METAR|223|ICAO-KTSP|3.0||1|FM15-METAR|223|ICAO-KTSP|||||||||||||260|N-Normal|1|FM15-METAR|223|ICAO-KTSP|8.7|N-Normal|1|FM15-METAR|223|ICAO-KTSP|11.3||1|FM15-METAR|223|ICAO-KTSP|2.0|9-Missing|9|FM15-METAR|223|ICAO-KTSP|93|Derived||FM15-METAR|223|ICAO-KTSP|||||||||||||||||||||||||||||||||||||||||||RA:62|RA:62-Rain|1|FM15-METAR|223|ICAO-KTSP|||||||||||||||||||||||||1010.8||1|FM15-METAR|223|ICAO-KTSP|||||||BKN:07|07-Seven-o|4|FM15-METAR|223|ICAO-KTSP|||||||OVC:08|08-Eight-o|4|FM15-METAR|223|ICAO-KTSP|||||||||||||||||||MET086METAR KTSP 220935Z AUTO 26017G22KT 1 3/4SM RA BKN013 OVC020 04/03 A2985 RMK AO2 P0008;||F||223|ICAO-KTSP
USW00000479|TEHACHAPI MUNI AP|2009|12|22|10|00|35.1350|-118.4392|1219.5|4.0||1|FM15-METAR|223|ICAO-KTSP|3.0||1|FM15-METAR|223|ICAO-KTSP|||||||||||||260|N-Normal|1|FM15-METAR|223|ICAO-KTSP|7.7|N-Normal|1|FM15-METAR|223|ICAO-KTSP|11.3||1|FM15-METAR|223|ICAO-KTSP|5.3|9-Missing|9|FM15-METAR|223|ICAO-KTSP|93|Derived||FM15-METAR|223|ICAO-KTSP|||||||||||||||||||||||||||||||||||||||||||RA:62|RA:62-Rain|1|FM15-METAR|223|ICAO-KTSP|||||||||||||||||||||||||1010.5||1|FM15-METAR|223|ICAO-KTSP|||||||BKN:07|07-Seven-o|4|FM15-METAR|223|ICAO-KTSP|||||||OVC:08|08-Eight-o|4|FM15-METAR|223|ICAO-KTSP|||||||||||||||||||MET082METAR KTSP 220955Z AUTO 26015G22KT 2SM RA BKN011 OVC017 04/03 A2984 RMK AO2 P0021;||F||223|ICAO-KTSP
USW00000479|TEHACHAPI MUNI AP|2009|12|22|10|15|35.1350|-118.4392|1219.5|4.0||1|FM15-METAR|223|ICAO-KTSP|3.0||1|FM15-METAR|223|ICAO-KTSP|||||||||||||310|N-Normal|1|FM15-METAR|223|ICAO-KTSP|9.8|N-Normal|1|FM15-METAR|223|ICAO-KTSP|12.3||1|FM15-METAR|223|ICAO-KTSP|0.3|9-Missing|9|FM15-METAR|223|ICAO-KTSP|93|Derived||FM15-METAR|223|ICAO-KTSP|||||||||||||||||||||||||||||||||||||||||||RA:61|RA:61-Rain|1|FM15-METAR|223|ICAO-KTSP|||||||||||||||||||||||||1009.8||1|FM15-METAR|223|ICAO-KTSP|||||||SCT:04|04-Four-ok|4|FM15-METAR|223|ICAO-KTSP|||||||BKN:07|07-Seven-o|4|FM15-METAR|223|ICAO-KTSP|||||||||||||||||||MET094METAR KTSP 221015Z AUTO 31019G24KT 2 1/2SM -RA SCT006 BKN015 OVC022 04/03 A2982 RMK AO2 P0001;||F||223|ICAO-KTSP
USW00000479|TEHACHAPI MUNI AP|2009|12|22|10|35|35.1350|-118.4392|1219.5|4.0||1|FM15-METAR|223|ICAO-KTSP|3.0||1|FM15-METAR|223|ICAO-KTSP|||||||||||||300|N-Normal|1|FM15-METAR|223|ICAO-KTSP|10.3|N-Normal|1|FM15-METAR|223|ICAO-KTSP|13.9||1|FM15-METAR|223|ICAO-KTSP|2.3|9-Missing|9|FM15-METAR|223|ICAO-KTSP|93|Derived||FM15-METAR|223|ICAO-KTSP|||||||||||||||||||||||||||||||||||||||||||RA:63|RA:63-Rain|1|FM15-METAR|223|ICAO-KTSP|||||||||||||||||||||||||1009.5||1|FM15-METAR|223|ICAO-KTSP|||||||BKN:07|07-Seven-o|4|FM15-METAR|223|ICAO-KTSP|||||||BKN:07|07-Seven-o|4|FM15-METAR|223|ICAO-KTSP|||||||||||||||||||MET103METAR KTSP 221035Z AUTO 30020G27KT 2SM +RA BKN004 BKN008 OVC012 04/03 A2981 RMK AO2 VSBY 1 1/4V4 P0009;||F||223|ICAO-KTSP
USW00000479|TEHACHAPI MUNI AP|2009|12|22|11|00|35.1350|-118.4392|1219.5|3.0||1|FM15-METAR|223|ICAO-KTSP|3.0||1|FM15-METAR|223|ICAO-KTSP|||||||||||||300|N-Normal|1|FM15-METAR|223|ICAO-KTSP|9.3|N-Normal|1|FM15-METAR|223|ICAO-KTSP|11.8||1|FM15-METAR|223|ICAO-KTSP|4.6|9-Missing|9|FM15-METAR|223|ICAO-KTSP|100|Derived||FM15-METAR|223|ICAO-KTSP|||||||||||||||||||||||||||||||||||||||||||RA:61|RA:61-Rain|1|FM15-METAR|223|ICAO-KTSP|||||||||||||||||||||||||1009.1||1|FM15-METAR|223|ICAO-KTSP|||||||SCT:04|04-Four-ok|4|FM15-METAR|223|ICAO-KTSP|||||||BKN:07|07-Seven-o|4|FM15-METAR|223|ICAO-KTSP|||||||||||||||||||MET090METAR KTSP 221055Z AUTO 30018G23KT 3SM -RA SCT004 BKN012 OVC018 03/03 A2980 RMK AO2 P0018;||F||223|ICAO-KTSP
USW00000479|TEHACHAPI MUNI AP|2009|12|22|11|15|35.1350|-118.4392|1219.5|3.0||1|FM15-METAR|223|ICAO-KTSP|2.0||1|FM15-METAR|223|ICAO-KTSP|||||||||||||280|N-Normal|1|FM15-METAR|223|ICAO-KTSP|9.8|N-Normal|1|FM15-METAR|223|ICAO-KTSP|||||||1.3|9-Missing|9|FM15-METAR|223|ICAO-KTSP|93|Derived||FM15-METAR|223|ICAO-KTSP|||||||||||||||||||||||||||||||||||||||||||RA:61|RA:61-Rain|1|FM15-METAR|223|ICAO-KTSP|||||||||||||||||||||||||1009.1||1|FM15-METAR|223|ICAO-KTSP|||||||FEW:02|02-Two-okt|4|FM15-METAR|223|ICAO-KTSP|||||||BKN:07|07-Seven-o|4|FM15-METAR|223|ICAO-KTSP|||||||||||||||||||MET091METAR KTSP 221115Z AUTO 28019KT 2 1/2SM -RA FEW003 BKN013 OVC018 03/02 A2980 RMK AO2 P0005;||F||223|ICAO-KTSP
USW00000479|TEHACHAPI MUNI AP|2009|12|22|11|35|35.1350|-118.4392|1219.5|3.0||1|FM15-METAR|223|ICAO-KTSP|1.0||1|FM15-METAR|223|ICAO-KTSP|||||||||||||290|N-Normal|1|FM15-METAR|223|ICAO-KTSP|8.7|N-Normal|1|FM15-METAR|223|ICAO-KTSP|14.4||1|FM15-METAR|223|ICAO-KTSP|2.5|9-Missing|9|FM15-METAR|223|ICAO-KTSP|87|Derived||FM15-METAR|223|ICAO-KTSP|||||||||||||||||||||||||||||||||||||||||||RA:61|RA:61-Rain|1|FM15-METAR|223|ICAO-KTSP|||||||||||||||||||||||||1008.8||1|FM15-METAR|223|ICAO-KTSP|||||||SCT:04|04-Four-ok|4|FM15-METAR|223|ICAO-KTSP|||||||BKN:07|07-Seven-o|4|FM15-METAR|223|ICAO-KTSP|||||||||||||||||||MET090METAR KTSP 221135Z AUTO 29017G28KT 3SM -RA SCT013 BKN019 OVC027 03/01 A2979 RMK AO2 P0010;||F||223|ICAO-KTSP
USW00000479|TEHACHAPI MUNI AP|2009|12|22|12|00|35.1350|-118.4392|1219.5|2.0||1|FM15-METAR|223|ICAO-KTSP|0.0||1|FM15-METAR|223|ICAO-KTSP|||||||||||||280|N-Normal|1|FM15-METAR|223|ICAO-KTSP|7.7|N-Normal|1|FM15-METAR|223|ICAO-KTSP|9.8||1|FM15-METAR|223|ICAO-KTSP|5.6|9-Missing|9|FM15-METAR|223|ICAO-KTSP|87|Derived||FM15-METAR|223|ICAO-KTSP|||||||||||||||||||||||||||||||||||||||||||RA:63|RA:63-Rain|1|FM15-METAR|223|ICAO-KTSP|||||||||||||||||||||||||1008.5||1|FM15-METAR|223|ICAO-KTSP|||||||BKN:07|07-Seven-o|4|FM15-METAR|223|ICAO-KTSP|||||||OVC:08|08-Eight-o|4|FM15-METAR|223|ICAO-KTSP|||||||||||||||||||MET083METAR KTSP 221155Z AUTO 28015G19KT 2SM +RA BKN006 OVC016 02/00 A2978 RMK AO2 P0022;||F||223|ICAO-KTSP
USW00000479|TEHACHAPI MUNI AP|2009|12|22|12|15|35.1350|-118.4392|1219.5|1.0||1|FM15-METAR|223|ICAO-KTSP|0.0||1|FM15-METAR|223|ICAO-KTSP|||||||||||||290|N-Normal|1|FM15-METAR|223|ICAO-KTSP|9.8|N-Normal|1|FM15-METAR|223|ICAO-KTSP|11.8||1|FM15-METAR|223|ICAO-KTSP|6.4|9-Missing|9|FM15-METAR|223|ICAO-KTSP|93|Derived||FM15-METAR|223|ICAO-KTSP|||||||||||||||||||||||||||||||||||||||||||RA:62|RA:62-Rain|1|FM15-METAR|223|ICAO-KTSP|||||||||||||||||||||||||1008.5||1|FM15-METAR|223|ICAO-KTSP|||||||SCT:04|04-Four-ok|4|FM15-METAR|223|ICAO-KTSP|||||||OVC:08|08-Eight-o|4|FM15-METAR|223|ICAO-KTSP|||||||||||||||||||MET082METAR KTSP 221215Z AUTO 29019G23KT 2SM RA SCT006 OVC010 01/00 A2978 RMK AO2 P0025;||F||223|ICAO-KTSP
USW00000479|TEHACHAPI MUNI AP|2009|12|22|12|35|35.1350|-118.4392|1219.5|0.0||1|FM15-METAR|223|ICAO-KTSP|0.0||1|FM15-METAR|223|ICAO-KTSP|||||||||||||310|N-Normal|1|FM15-METAR|223|ICAO-KTSP|12.9|N-Normal|1|FM15-METAR|223|ICAO-KTSP|16.5||1|FM15-METAR|223|ICAO-KTSP|29.5|9-Missing|9|FM15-METAR|223|ICAO-KTSP|100|Derived||FM15-METAR|223|ICAO-KTSP|||||||||||||||||||||||||||||||||||||||||||FZRA:64|FZRA:64-Ra|1|FM15-METAR|223|ICAO-KTSP|||||||||||||||||||||||||1008.5||1|FM15-METAR|223|ICAO-KTSP|||||||OVC:08|08-Eight-o|4|FM15-METAR|223|ICAO-KTSP|||||||||||||||||||||||||||||||MET081METAR KTSP 221235Z AUTO 31025G32KT M1/4SM -FZRA OVC001 00/00 A2978 RMK AO2 P0116;||F||223|ICAO-KTSP
USW00000479|TEHACHAPI MUNI AP|2009|12|22|13|00|35.1350|-118.4392|1219.5|0.0||1|FM15-METAR|223|ICAO-KTSP|0.0||1|FM15-METAR|223|ICAO-KTSP|||||||||||||310|N-Normal|1|FM15-METAR|223|ICAO-KTSP|10.3|N-Normal|1|FM15-METAR|223|ICAO-KTSP|17.0||1|FM15-METAR|223|ICAO-KTSP|||||||100|Derived||FM15-METAR|223|ICAO-KTSP|||||||||||||||||||||||||||||||||||||||||||40|40-Precipi|1|FM15-METAR|223|ICAO-KTSP|||||||||||||||||||||||||1008.5||1|FM15-METAR|223|ICAO-KTSP|||||||OVC:08|08-Eight-o|4|FM15-METAR|223|ICAO-KTSP|||||||||||||||||||||||||||||||MET078METAR KTSP 221255Z AUTO 31020G33KT M1/4SM UP OVC001 00/00 A2978 RMK AO2 P0450;||F||223|ICAO-KTSP
USW00000479|TEHACHAPI MUNI AP|2009|12|22|13|15|35.1350|-118.4392|1219.5|0.0||1|FM15-METAR|223|ICAO-KTSP|0.0||1|FM15-METAR|223|ICAO-KTSP|||||||||||||300|N-Normal|1|FM15-METAR|223|ICAO-KTSP|13.4|N-Normal|1|FM15-METAR|223|ICAO-KTSP|17.5||1|FM15-METAR|223|ICAO-KTSP|13.5|9-Missing|9|FM15-METAR|223|ICAO-KTSP|100|Derived||FM15-METAR|223|ICAO-KTSP|||||||||||||||||||||||||||||||||||||||||||RA:63|RA:63-Rain|1|FM15-METAR|223|ICAO-KTSP|||||||||||||||||||||||||1008.5||1|FM15-METAR|223|ICAO-KTSP|||||||OVC:08|08-Eight-o|4|FM15-METAR|223|ICAO-KTSP|||||||||||||||||||||||||||||||MET078METAR KTSP 221315Z AUTO 30026G34KT 1/2SM +RA OVC001 00/00 A2978 RMK AO2 P0053;||F||223|ICAO-KTSP
USW00000479|TEHACHAPI MUNI AP|2009|12|22|13|35|35.1350|-118.4392|1219.5|0.0||1|FM15-METAR|223|ICAO-KTSP|-1.0||1|FM15-METAR|223|ICAO-KTSP|||||||||||||300|N-Normal|1|FM15-METAR|223|ICAO-KTSP|12.9|N-Normal|1|FM15-METAR|223|ICAO-KTSP|18.5||1|FM15-METAR|223|ICAO-KTSP|17.0|9-Missing|9|FM15-METAR|223|ICAO-KTSP|93|Derived||FM15-METAR|223|ICAO-KTSP|||||||||||||||||||||||||||||||||||||||||||FZRA:65|FZRA:65-Ra|1|FM15-METAR|223|ICAO-KTSP|||||||||||||||||||||||||1008.5||1|FM15-METAR|223|ICAO-KTSP|||||||SCT:04|04-Four-ok|4|FM15-METAR|223|ICAO-KTSP|||||||BKN:07|07-Seven-o|4|FM15-METAR|223|ICAO-KTSP|||||||||||||||||||MET096METAR KTSP 221335Z AUTO 30025G36KT 1 3/4SM FZRA SCT002 BKN006 OVC010 00/M01 A2978 RMK AO2 P0067;||F||223|ICAO-KTSP
USW00000479|TEHACHAPI MUNI AP|2009|12|22|14|15|35.1350|-118.4392|1219.5|-1.0||1|FM15-METAR|223|ICAO-KTSP|-2.0||1|FM15-METAR|223|ICAO-KTSP|||||||||||||300|N-Normal|1|FM15-METAR|223|ICAO-KTSP|11.3|N-Normal|1|FM15-METAR|223|ICAO-KTSP|14.9||1|FM15-METAR|223|ICAO-KTSP|||||||93|Derived||FM15-METAR|223|ICAO-KTSP|||||||||||||||||||||||||||||||||||||||||||RA:61|RA:61-Rain|1|FM15-METAR|223|ICAO-KTSP|||||||||||||||||||||||||1009.5||1|FM15-METAR|223|ICAO-KTSP|||||||SCT:04|04-Four-ok|4|FM15-METAR|223|ICAO-KTSP|||||||OVC:08|08-Eight-o|4|FM15-METAR|223|ICAO-KTSP|||||||||||||||||||MET080METAR KTSP 221415Z AUTO 30022G29KT 10SM -RA SCT008 OVC017 M01/M02 A2981 RMK AO2;||F||223|ICAO-KTSP
USW00000479|TEHACHAPI MUNI AP|2009|12|22|14|35|35.1350|-118.4392|1219.5|-1.0||1|FM15-METAR|223|ICAO-KTSP|-2.0||1|FM15-METAR|223|ICAO-KTSP|||||||||||||310|N-Normal|1|FM15-METAR|223|ICAO-KTSP|9.3|N-Normal|1|FM15-METAR|223|ICAO-KTSP|14.9||1|FM15-METAR|223|ICAO-KTSP|||||||93|Derived||FM15-METAR|223|ICAO-KTSP|||||||||||||||||||||||||||||||||||||||||||RA:61|RA:61-Rain|1|FM15-METAR|223|ICAO-KTSP|||||||||||||||||||||||||1009.5||1|FM15-METAR|223|ICAO-KTSP|||||||BKN:07|07-Seven-o|4|FM15-METAR|223|ICAO-KTSP|||||||OVC:08|08-Eight-o|4|FM15-METAR|223|ICAO-KTSP|||||||||||||||||||MET079METAR KTSP 221435Z AUTO 31018G29KT 7SM -RA BKN006 OVC017 M01/M02 A2981 RMK AO2;||F||223|ICAO-KTSP
USW00000479|TEHACHAPI MUNI AP|2009|12|22|15|00|35.1350|-118.4392|1219.5|-1.0||1|FM15-METAR|223|ICAO-KTSP|-2.0||1|FM15-METAR|223|ICAO-KTSP|||||||||||||300|N-Normal|1|FM15-METAR|223|ICAO-KTSP|9.8|N-Normal|1|FM15-METAR|223|ICAO-KTSP|12.9||1|FM15-METAR|223|ICAO-KTSP|0.3|9-Missing|9|FM15-METAR|223|ICAO-KTSP|93|Derived||FM15-METAR|223|ICAO-KTSP|||||||||||||||||||||||||||||||||||||||||||RA:61|RA:61-Rain|1|FM15-METAR|223|ICAO-KTSP|||||||||||||||||||||||||1009.8||1|FM15-METAR|223|ICAO-KTSP|||||||OVC:08|08-Eight-o|4|FM15-METAR|223|ICAO-KTSP|||||||||||||||||||||||||||||||MET078METAR KTSP 221455Z AUTO 30019G25KT 3SM -RA OVC005 M01/M02 A2982 RMK AO2 P0001;||F||223|ICAO-KTSP
USW00000479|TEHACHAPI MUNI AP|2009|12|22|15|35|35.1350|-118.4392|1219.5|-1.0||1|FM15-METAR|223|ICAO-KTSP|-2.0||1|FM15-METAR|223|ICAO-KTSP|||||||||||||300|N-Normal|1|FM15-METAR|223|ICAO-KTSP|11.8|N-Normal|1|FM15-METAR|223|ICAO-KTSP|14.4||1|FM15-METAR|223|ICAO-KTSP|0.8|9-Missing|9|FM15-METAR|223|ICAO-KTSP|93|Derived||FM15-METAR|223|ICAO-KTSP|||||||||||||||||||||||||||||||||||||||||||BR:10|BR:10-Mist|1|FM15-METAR|223|ICAO-KTSP|||||||||||||||||||||||||1009.8||1|FM15-METAR|223|ICAO-KTSP|||||||OVC:08|08-Eight-o|4|FM15-METAR|223|ICAO-KTSP|||||||||||||||||||||||||||||||MET077METAR KTSP 221535Z AUTO 30023G28KT 5SM BR OVC004 M01/M02 A2982 RMK AO2 P0003;||F||223|ICAO-KTSP
USW00000479|TEHACHAPI MUNI AP|2009|12|22|16|00|35.1350|-118.4392|1219.5|-1.0||1|FM15-METAR|223|ICAO-KTSP|-2.0||1|FM15-METAR|223|ICAO-KTSP|||||||||||||300|N-Normal|1|FM15-METAR|223|ICAO-KTSP|13.4|N-Normal|1|FM15-METAR|223|ICAO-KTSP|15.9||1|FM15-METAR|223|ICAO-KTSP|1.0|9-Missing|9|FM15-METAR|223|ICAO-KTSP|93|Derived||FM15-METAR|223|ICAO-KTSP|||||||||||||||||||||||||||||||||||||||||||RA:61|RA:61-Rain|1|FM15-METAR|223|ICAO-KTSP|||||||||||||||||||||||||1010.5||1|FM15-METAR|223|ICAO-KTSP|||||||OVC:08|08-Eight-o|4|FM15-METAR|223|ICAO-KTSP|||||||||||||||||||||||||||||||MET078METAR KTSP 221555Z AUTO 30026G31KT 1SM -RA OVC003 M01/M02 A2984 RMK AO2 P0004;||F||223|ICAO-KTSP
USW00000479|TEHACHAPI MUNI AP|2009|12|22|16|15|35.1350|-118.4392|1219.5|-1.0||1|FM15-METAR|223|ICAO-KTSP|-2.0||1|FM15-METAR|223|ICAO-KTSP|||||||||||||310|N-Normal|1|FM15-METAR|223|ICAO-KTSP|12.3|N-Normal|1|FM15-METAR|223|ICAO-KTSP|14.9||1|FM15-METAR|223|ICAO-KTSP|||||||93|Derived||FM15-METAR|223|ICAO-KTSP|||||||||||||||||||||||||||||||||||||||||||BR:10|BR:10-Mist|1|FM15-METAR|223|ICAO-KTSP|||||||||||||||||||||||||1010.8||1|FM15-METAR|223|ICAO-KTSP|||||||OVC:08|08-Eight-o|4|FM15-METAR|223|ICAO-KTSP|||||||||||||||||||||||||||||||MET071METAR KTSP 221615Z AUTO 31024G29KT 5SM BR OVC004 M01/M02 A2985 RMK AO2;||F||223|ICAO-KTSP
USW00000479|TEHACHAPI MUNI AP|2009|12|22|16|35|35.1350|-118.4392|1219.5|-2.0||1|FM15-METAR|223|ICAO-KTSP|-2.0||1|FM15-METAR|223|ICAO-KTSP|||||||||||||290|N-Normal|1|FM15-METAR|223|ICAO-KTSP|9.3|N-Normal|1|FM15-METAR|223|ICAO-KTSP|12.9||1|FM15-METAR|223|ICAO-KTSP|||||||100|Derived||FM15-METAR|223|ICAO-KTSP|||||||||||||||||||||||||||||||||||||||||||||||||||||||||||||||||||||||||1010.8||1|FM15-METAR|223|ICAO-KTSP|||||||BKN:07|07-Seven-o|4|FM15-METAR|223|ICAO-KTSP|||||||BKN:07|07-Seven-o|4|FM15-METAR|223|ICAO-KTSP|||||||||||||||||||MET082METAR KTSP 221635Z AUTO 29018G25KT 8SM BKN004 BKN008 OVC023 M02/M02 A2985 RMK AO2;||F||223|ICAO-KTSP
USW00000479|TEHACHAPI MUNI AP|2009|12|22|17|00|35.1350|-118.4392|1219.5|-1.0||1|FM15-METAR|223|ICAO-KTSP|-3.0||1|FM15-METAR|223|ICAO-KTSP|||||||||||||290|N-Normal|1|FM15-METAR|223|ICAO-KTSP|9.8|N-Normal|1|FM15-METAR|223|ICAO-KTSP|13.9||1|FM15-METAR|223|ICAO-KTSP|||||||86|Derived||FM15-METAR|223|ICAO-KTSP|||||||||||||||||||||||||||||||||||||||||||||||||||||||||||||||||||||||||1010.8||1|FM15-METAR|223|ICAO-KTSP|||||||FEW:02|02-Two-okt|4|FM15-METAR|223|ICAO-KTSP|||||||SCT:04|04-Four-ok|4|FM15-METAR|223|ICAO-KTSP|||||||||||||||||||MET082METAR KTSP 221655Z AUTO 29019G27KT 9SM FEW006 SCT010 BKN022 M01/M03 A2985 RMK AO2;||F||223|ICAO-KTSP
USW00000479|TEHACHAPI MUNI AP|2009|12|22|17|15|35.1350|-118.4392|1219.5|-1.0||1|FM15-METAR|223|ICAO-KTSP|-2.0||1|FM15-METAR|223|ICAO-KTSP|||||||||||||290|N-Normal|1|FM15-METAR|223|ICAO-KTSP|11.3|N-Normal|1|FM15-METAR|223|ICAO-KTSP|14.4||1|FM15-METAR|223|ICAO-KTSP|||||||93|Derived||FM15-METAR|223|ICAO-KTSP|||||||||||||||||||||||||||||||||||||||||||RA:61|RA:61-Rain|1|FM15-METAR|223|ICAO-KTSP|||||||||||||||||||||||||1010.8||1|FM15-METAR|223|ICAO-KTSP|||||||BKN:07|07-Seven-o|4|FM15-METAR|223|ICAO-KTSP|||||||BKN:07|07-Seven-o|4|FM15-METAR|223|ICAO-KTSP|||||||||||||||||||MET086METAR KTSP 221715Z AUTO 29022G28KT 5SM -RA BKN006 BKN010 OVC022 M01/M02 A2985 RMK AO2;||F||223|ICAO-KTSP
USW00000479|TEHACHAPI MUNI AP|2009|12|22|17|35|35.1350|-118.4392|1219.5|-1.0||1|FM15-METAR|223|ICAO-KTSP|-2.0||1|FM15-METAR|223|ICAO-KTSP|||||||||||||300|N-Normal|1|FM15-METAR|223|ICAO-KTSP|11.3|N-Normal|1|FM15-METAR|223|ICAO-KTSP|14.9||1|FM15-METAR|223|ICAO-KTSP|||||||93|Derived||FM15-METAR|223|ICAO-KTSP|||||||||||||||||||||||||||||||||||||||||||RA:61|RA:61-Rain|1|FM15-METAR|223|ICAO-KTSP|||||||||||||||||||||||||1010.5||1|FM15-METAR|223|ICAO-KTSP|||||||BKN:07|07-Seven-o|4|FM15-METAR|223|ICAO-KTSP|||||||OVC:08|08-Eight-o|4|FM15-METAR|223|ICAO-KTSP|||||||||||||||||||MET079METAR KTSP 221735Z AUTO 30022G29KT 4SM -RA BKN005 OVC010 M01/M02 A2984 RMK AO2;||F||223|ICAO-KTSP
USW00000479|TEHACHAPI MUNI AP|2009|12|22|18|00|35.1350|-118.4392|1219.5|0.0||1|FM15-METAR|223|ICAO-KTSP|-2.0||1|FM15-METAR|223|ICAO-KTSP|||||||||||||290|N-Normal|1|FM15-METAR|223|ICAO-KTSP|11.3|N-Normal|1|FM15-METAR|223|ICAO-KTSP|14.9||1|FM15-METAR|223|ICAO-KTSP|0.5|9-Missing|9|FM15-METAR|223|ICAO-KTSP|87|Derived||FM15-METAR|223|ICAO-KTSP|||||||||||||||||||||||||||||||||||||||||||FZRA:65|FZRA:65-Ra|1|FM15-METAR|223|ICAO-KTSP|||||||||||||||||||||||||1010.5||1|FM15-METAR|223|ICAO-KTSP|||||||OVC:08|08-Eight-o|4|FM15-METAR|223|ICAO-KTSP|||||||||||||||||||||||||||||||MET082METAR KTSP 221755Z AUTO 29022G29KT 1 1/4SM FZRA OVC003 00/M02 A2984 RMK AO2 P0002;||F||223|ICAO-KTSP
USW00000479|TEHACHAPI MUNI AP|2009|12|22|18|15|35.1350|-118.4392|1219.5|0.0||1|FM15-METAR|223|ICAO-KTSP|-2.0||1|FM15-METAR|223|ICAO-KTSP|||||||||||||300|N-Normal|1|FM15-METAR|223|ICAO-KTSP|12.9|N-Normal|1|FM15-METAR|223|ICAO-KTSP|15.9||1|FM15-METAR|223|ICAO-KTSP|2.0|9-Missing|9|FM15-METAR|223|ICAO-KTSP|87|Derived||FM15-METAR|223|ICAO-KTSP|||||||||||||||||||||||||||||||||||||||||||FZRA:65|FZRA:65-Ra|1|FM15-METAR|223|ICAO-KTSP|||||||||||||||||||||||||1010.5||1|FM15-METAR|223|ICAO-KTSP|||||||OVC:08|08-Eight-o|4|FM15-METAR|223|ICAO-KTSP|||||||||||||||||||||||||||||||MET080METAR KTSP 221815Z AUTO 30025G31KT 1/4SM FZRA OVC003 00/M02 A2984 RMK AO2 P0008;||F||223|ICAO-KTSP
USW00000479|TEHACHAPI MUNI AP|2009|12|22|18|35|35.1350|-118.4392|1219.5|-1.0||1|FM15-METAR|223|ICAO-KTSP|-2.0||1|FM15-METAR|223|ICAO-KTSP|||||||||||||300|N-Normal|1|FM15-METAR|223|ICAO-KTSP|12.9|N-Normal|1|FM15-METAR|223|ICAO-KTSP|18.0||1|FM15-METAR|223|ICAO-KTSP|14.0|9-Missing|9|FM15-METAR|223|ICAO-KTSP|93|Derived||FM15-METAR|223|ICAO-KTSP|||||||||||||||||||||||||||||||||||||||||||RA:63|RA:63-Rain|1|FM15-METAR|223|ICAO-KTSP|||||||||||||||||||||||||1010.5||1|FM15-METAR|223|ICAO-KTSP|||||||OVC:08|08-Eight-o|4|FM15-METAR|223|ICAO-KTSP|||||||||||||||||||||||||||||||MET081METAR KTSP 221835Z AUTO 30025G35KT M1/4SM +RA OVC001 M01/M02 A2984 RMK AO2 P0055;||F||223|ICAO-KTSP
USW00000479|TEHACHAPI MUNI AP|2009|12|22|19|00|35.1350|-118.4392|1219.5|-2.0||1|FM15-METAR|223|ICAO-KTSP|-2.0||1|FM15-METAR|223|ICAO-KTSP|||||||||||||300|N-Normal|1|FM15-METAR|223|ICAO-KTSP|13.9|N-Normal|1|FM15-METAR|223|ICAO-KTSP|18.0||1|FM15-METAR|223|ICAO-KTSP|20.3|9-Missing|9|FM15-METAR|223|ICAO-KTSP|100|Derived||FM15-METAR|223|ICAO-KTSP|||||||||||||||||||||||||||||||||||||||||||FZRA:65|FZRA:65-Ra|1|FM15-METAR|223|ICAO-KTSP|||||||||||||||||||||||||1010.5||1|FM15-METAR|223|ICAO-KTSP|||||||OVC:08|08-Eight-o|4|FM15-METAR|223|ICAO-KTSP|||||||||||||||||||||||||||||||MET081METAR KTSP 221855Z AUTO 30027G35KT 1/2SM FZRA OVC002 M02/M02 A2984 RMK AO2 P0080;||F||223|ICAO-KTSP
USW00000479|TEHACHAPI MUNI AP|2009|12|22|19|15|35.1350|-118.4392|1219.5|-2.0||1|FM15-METAR|223|ICAO-KTSP|-2.0||1|FM15-METAR|223|ICAO-KTSP|||||||||||||290|N-Normal|1|FM15-METAR|223|ICAO-KTSP|12.3|N-Normal|1|FM15-METAR|223|ICAO-KTSP|16.5||1|FM15-METAR|223|ICAO-KTSP|1.3|9-Missing|9|FM15-METAR|223|ICAO-KTSP|100|Derived||FM15-METAR|223|ICAO-KTSP|||||||||||||||||||||||||||||||||||||||||||FZRA:64|FZRA:64-Ra|1|FM15-METAR|223|ICAO-KTSP|||||||||||||||||||||||||1010.5||1|FM15-METAR|223|ICAO-KTSP|||||||OVC:08|08-Eight-o|4|FM15-METAR|223|ICAO-KTSP|||||||||||||||||||||||||||||||MET082METAR KTSP 221915Z AUTO 29024G32KT 3/4SM -FZRA OVC003 M02/M02 A2984 RMK AO2 P0005;||F||223|ICAO-KTSP
USW00000479|TEHACHAPI MUNI AP|2009|12|22|19|35|35.1350|-118.4392|1219.5|-1.0||1|FM15-METAR|223|ICAO-KTSP|-2.0||1|FM15-METAR|223|ICAO-KTSP|||||||||||||290|N-Normal|1|FM15-METAR|223|ICAO-KTSP|12.3|N-Normal|1|FM15-METAR|223|ICAO-KTSP|16.5||1|FM15-METAR|223|ICAO-KTSP|1.3|9-Missing|9|FM15-METAR|223|ICAO-KTSP|93|Derived||FM15-METAR|223|ICAO-KTSP|||||||||||||||||||||||||||||||||||||||||||||||||||||||||||||||||||||||||1010.2||1|FM15-METAR|223|ICAO-KTSP|||||||FEW:02|02-Two-okt|4|FM15-METAR|223|ICAO-KTSP|||||||SCT:04|04-Four-ok|4|FM15-METAR|223|ICAO-KTSP|||||||||||||||||||MET088METAR KTSP 221935Z AUTO 29024G32KT 7SM FEW003 SCT007 BKN011 M01/M02 A2983 RMK AO2 P0005;||F||223|ICAO-KTSP
USW00000479|TEHACHAPI MUNI AP|2009|12|22|20|00|35.1350|-118.4392|1219.5|-1.0||1|FM15-METAR|223|ICAO-KTSP|-3.0||1|FM15-METAR|223|ICAO-KTSP|||||||||||||290|N-Normal|1|FM15-METAR|223|ICAO-KTSP|14.4|N-Normal|1|FM15-METAR|223|ICAO-KTSP|18.0||1|FM15-METAR|223|ICAO-KTSP|1.3|9-Missing|9|FM15-METAR|223|ICAO-KTSP|86|Derived||FM15-METAR|223|ICAO-KTSP|||||||||||||||||||||||||||||||||||||||||||||||||||||||||||||||||||||||||1009.5||1|FM15-METAR|223|ICAO-KTSP|||||||SCT:04|04-Four-ok|4|FM15-METAR|223|ICAO-KTSP|||||||BKN:07|07-Seven-o|4|FM15-METAR|223|ICAO-KTSP|||||||||||||||||||MET088METAR KTSP 221955Z AUTO 29028G35KT 9SM SCT011 BKN018 OVC025 M01/M03 A2981 RMK AO2 P0005;||F||223|ICAO-KTSP
USW00000479|TEHACHAPI MUNI AP|2009|12|22|20|15|35.1350|-118.4392|1219.5|-1.0||1|FM15-METAR|223|ICAO-KTSP|-4.0||1|FM15-METAR|223|ICAO-KTSP|||||||||||||290|N-Normal|1|FM15-METAR|223|ICAO-KTSP|13.4|N-Normal|1|FM15-METAR|223|ICAO-KTSP|18.0||1|FM15-METAR|223|ICAO-KTSP|||||||80|Derived||FM15-METAR|223|ICAO-KTSP|||||||||||||||||||||||||||||||||||||||||||HZ:04|HZ:04-Haze|1|FM15-METAR|223|ICAO-KTSP|||||||||||||||||||||||||1009.1||1|FM15-METAR|223|ICAO-KTSP|||||||FEW:02|02-Two-okt|4|FM15-METAR|223|ICAO-KTSP|||||||FEW:02|02-Two-okt|4|FM15-METAR|223|ICAO-KTSP|||||||||||||||||||MET085METAR KTSP 222015Z AUTO 29026G35KT 5SM HZ FEW012 FEW016 BKN024 M01/M04 A2980 RMK AO2;||F||223|ICAO-KTSP
USW00000479|TEHACHAPI MUNI AP|2009|12|22|20|35|35.1350|-118.4392|1219.5|-1.0||1|FM15-METAR|223|ICAO-KTSP|-3.0||1|FM15-METAR|223|ICAO-KTSP|||||||||||||300|N-Normal|1|FM15-METAR|223|ICAO-KTSP|11.8|N-Normal|1|FM15-METAR|223|ICAO-KTSP|18.0||1|FM15-METAR|223|ICAO-KTSP|||||||86|Derived||FM15-METAR|223|ICAO-KTSP|||||||||||||||||||||||||||||||||||||||||||||||||||||||||||||||||||||||||1008.8||1|FM15-METAR|223|ICAO-KTSP|||||||FEW:02|02-Two-okt|4|FM15-METAR|223|ICAO-KTSP|||||||BKN:07|07-Seven-o|4|FM15-METAR|223|ICAO-KTSP|||||||||||||||||||MET082METAR KTSP 222035Z AUTO 30023G35KT 9SM FEW008 BKN018 BKN027 M01/M03 A2979 RMK AO2;||F||223|ICAO-KTSP
USW00000479|TEHACHAPI MUNI AP|2009|12|22|21|00|35.1350|-118.4392|1219.5|0.0||1|FM15-METAR|223|ICAO-KTSP|-3.0||1|FM15-METAR|223|ICAO-KTSP|||||||||||||290|N-Normal|1|FM15-METAR|223|ICAO-KTSP|10.8|N-Normal|1|FM15-METAR|223|ICAO-KTSP|15.9||1|FM15-METAR|223|ICAO-KTSP|||||||80|Derived||FM15-METAR|223|ICAO-KTSP|||||||||||||||||||||||||||||||||||||||||||||||||||||||||||||||||||||||||1008.5||1|FM15-METAR|223|ICAO-KTSP|||||||FEW:02|02-Two-okt|4|FM15-METAR|223|ICAO-KTSP|||||||BKN:07|07-Seven-o|4|FM15-METAR|223|ICAO-KTSP|||||||||||||||||||MET081METAR KTSP 222055Z AUTO 29021G31KT 9SM FEW008 BKN016 OVC027 00/M03 A2978 RMK AO2;||F||223|ICAO-KTSP
USW00000479|TEHACHAPI MUNI AP|2009|12|22|21|15|35.1350|-118.4392|1219.5|0.0||1|FM15-METAR|223|ICAO-KTSP|-4.0||1|FM15-METAR|223|ICAO-KTSP|||||||||||||290|N-Normal|1|FM15-METAR|223|ICAO-KTSP|13.4|N-Normal|1|FM15-METAR|223|ICAO-KTSP|17.0||1|FM15-METAR|223|ICAO-KTSP|||||||75|Derived||FM15-METAR|223|ICAO-KTSP|||||||||||||||||||||||||||||||||||||||||||||||||||||||||||||||||||||||||1008.1||1|FM15-METAR|223|ICAO-KTSP|||||||FEW:02|02-Two-okt|4|FM15-METAR|223|ICAO-KTSP|||||||BKN:07|07-Seven-o|4|FM15-METAR|223|ICAO-KTSP|||||||||||||||||||MET082METAR KTSP 222115Z AUTO 29026G33KT 10SM FEW016 BKN022 BKN029 00/M04 A2977 RMK AO2;||F||223|ICAO-KTSP
USW00000479|TEHACHAPI MUNI AP|2009|12|22|21|35|35.1350|-118.4392|1219.5|0.0||1|FM15-METAR|223|ICAO-KTSP|-5.0||1|FM15-METAR|223|ICAO-KTSP|||||||||||||290|N-Normal|1|FM15-METAR|223|ICAO-KTSP|15.4|N-Normal|1|FM15-METAR|223|ICAO-KTSP|22.1||1|FM15-METAR|223|ICAO-KTSP|||||||69|Derived||FM15-METAR|223|ICAO-KTSP|||||||||||||||||||||||||||||||||||||||||||HZ:04|HZ:04-Haze|1|FM15-METAR|223|ICAO-KTSP|||||||||||||||||||||||||1008.1||1|FM15-METAR|223|ICAO-KTSP|||||||BKN:07|07-Seven-o|4|FM15-METAR|223|ICAO-KTSP|||||||OVC:08|08-Eight-o|4|FM15-METAR|223|ICAO-KTSP|||||||||||||||||||MET077METAR KTSP 222135Z AUTO 29030G43KT 5SM HZ BKN026 OVC030 00/M05 A2977 RMK AO2;||F||223|ICAO-KTSP
USW00000479|TEHACHAPI MUNI AP|2009|12|22|22|00|35.1350|-118.4392|1219.5|0.0||1|FM15-METAR|223|ICAO-KTSP|-4.0||1|FM15-METAR|223|ICAO-KTSP|||||||||||||290|N-Normal|1|FM15-METAR|223|ICAO-KTSP|15.4|N-Normal|1|FM15-METAR|223|ICAO-KTSP|20.1||1|FM15-METAR|223|ICAO-KTSP|||||||75|Derived||FM15-METAR|223|ICAO-KTSP|||||||||||||||||||||||||||||||||||||||||||||||||||||||||||||||||||||||||1008.5||1|FM15-METAR|223|ICAO-KTSP|||||||SCT:04|04-Four-ok|4|FM15-METAR|223|ICAO-KTSP|||||||BKN:07|07-Seven-o|4|FM15-METAR|223|ICAO-KTSP|||||||||||||||||||MET074METAR KTSP 222155Z AUTO 29030G39KT 9SM SCT024 BKN030 00/M04 A2978 RMK AO2;||F||223|ICAO-KTSP
USW00000479|TEHACHAPI MUNI AP|2009|12|22|22|15|35.1350|-118.4392|1219.5|0.0||1|FM15-METAR|223|ICAO-KTSP|-4.0||1|FM15-METAR|223|ICAO-KTSP|||||||||||||290|N-Normal|1|FM15-METAR|223|ICAO-KTSP|15.4|N-Normal|1|FM15-METAR|223|ICAO-KTSP|20.6||1|FM15-METAR|223|ICAO-KTSP|||||||75|Derived||FM15-METAR|223|ICAO-KTSP|||||||||||||||||||||||||||||||||||||||||||||||||||||||||||||||||||||||||1008.5||1|FM15-METAR|223|ICAO-KTSP|||||||BKN:07|07-Seven-o|4|FM15-METAR|223|ICAO-KTSP|||||||OVC:08|08-Eight-o|4|FM15-METAR|223|ICAO-KTSP|||||||||||||||||||MET075METAR KTSP 222215Z AUTO 29030G40KT 10SM BKN028 OVC036 00/M04 A2978 RMK AO2;||F||223|ICAO-KTSP
USW00000479|TEHACHAPI MUNI AP|2009|12|22|22|35|35.1350|-118.4392|1219.5|0.0||1|FM15-METAR|223|ICAO-KTSP|-5.0||1|FM15-METAR|223|ICAO-KTSP|||||||||||||280|N-Normal|1|FM15-METAR|223|ICAO-KTSP|14.9|N-Normal|1|FM15-METAR|223|ICAO-KTSP|19.0||1|FM15-METAR|223|ICAO-KTSP|||||||69|Derived||FM15-METAR|223|ICAO-KTSP|||||||||||||||||||||||||||||||||||||||||||||||||||||||||||||||||||||||||1008.5||1|FM15-METAR|223|ICAO-KTSP|||||||FEW:02|02-Two-okt|4|FM15-METAR|223|ICAO-KTSP|||||||BKN:07|07-Seven-o|4|FM15-METAR|223|ICAO-KTSP|||||||||||||||||||MET081METAR KTSP 222235Z AUTO 28029G37KT 9SM FEW025 BKN031 BKN039 00/M05 A2978 RMK AO2;||F||223|ICAO-KTSP
USW00000479|TEHACHAPI MUNI AP|2009|12|22|23|00|35.1350|-118.4392|1219.5|0.0||1|FM15-METAR|223|ICAO-KTSP|-5.0||1|FM15-METAR|223|ICAO-KTSP|||||||||||||290|N-Normal|1|FM15-METAR|223|ICAO-KTSP|15.9|N-Normal|1|FM15-METAR|223|ICAO-KTSP|19.0||1|FM15-METAR|223|ICAO-KTSP|||||||69|Derived||FM15-METAR|223|ICAO-KTSP|||||||||||||||||||||||||||||||||||||||||||||||||||||||||||||||||||||||||1008.1||1|FM15-METAR|223|ICAO-KTSP|||||||FEW:02|02-Two-okt|4|FM15-METAR|223|ICAO-KTSP|||||||BKN:07|07-Seven-o|4|FM15-METAR|223|ICAO-KTSP|||||||||||||||||||MET082METAR KTSP 222255Z AUTO 29031G37KT 10SM FEW029 BKN038 BKN045 00/M05 A2977 RMK AO2;||F||223|ICAO-KTSP
USW00000479|TEHACHAPI MUNI AP|2009|12|22|23|15|35.1350|-118.4392|1219.5|0.0||1|FM15-METAR|223|ICAO-KTSP|-5.0||1|FM15-METAR|223|ICAO-KTSP|||||||||||||300|N-Normal|1|FM15-METAR|223|ICAO-KTSP|15.9|N-Normal|1|FM15-METAR|223|ICAO-KTSP|22.1||1|FM15-METAR|223|ICAO-KTSP|||||||69|Derived||FM15-METAR|223|ICAO-KTSP|||||||||||||||||||||||||||||||||||||||||||||||||||||||||||||||||||||||||1008.1||1|FM15-METAR|223|ICAO-KTSP|||||||SCT:04|04-Four-ok|4|FM15-METAR|223|ICAO-KTSP|||||||BKN:07|07-Seven-o|4|FM15-METAR|223|ICAO-KTSP|||||||||||||||||||MET075METAR KTSP 222315Z AUTO 30031G43KT 10SM SCT030 BKN038 00/M05 A2977 RMK AO2;||F||223|ICAO-KTSP
USW00000479|TEHACHAPI MUNI AP|2009|12|22|23|35|35.1350|-118.4392|1219.5|0.0||1|FM15-METAR|223|ICAO-KTSP|-5.0||1|FM15-METAR|223|ICAO-KTSP|||||||||||||290|N-Normal|1|FM15-METAR|223|ICAO-KTSP|16.5|N-Normal|1|FM15-METAR|223|ICAO-KTSP|21.6||1|FM15-METAR|223|ICAO-KTSP|||||||69|Derived||FM15-METAR|223|ICAO-KTSP|||||||||||||||||||||||||||||||||||||||||||||||||||||||||||||||||||||||||1008.5||1|FM15-METAR|223|ICAO-KTSP|||||||FEW:02|02-Two-okt|4|FM15-METAR|223|ICAO-KTSP|||||||BKN:07|07-Seven-o|4|FM15-METAR|223|ICAO-KTSP|||||||||||||||||||MET082METAR KTSP 222335Z AUTO 29032G42KT 10SM FEW022 BKN033 BKN041 00/M05 A2978 RMK AO2;||F||223|ICAO-KTSP
USW00000479|TEHACHAPI MUNI AP|2009|12|23|00|00|35.1350|-118.4392|1219.5|0.0||1|FM15-METAR|223|ICAO-KTSP|-5.0||1|FM15-METAR|223|ICAO-KTSP|||||||||||||290|N-Normal|1|FM15-METAR|223|ICAO-KTSP|14.9|N-Normal|1|FM15-METAR|223|ICAO-KTSP|21.6||1|FM15-METAR|223|ICAO-KTSP|||||||69|Derived||FM15-METAR|223|ICAO-KTSP|||||||||||||||||||||||||||||||||||||||||||||||||||||||||||||||||||||||||1008.8||1|FM15-METAR|223|ICAO-KTSP|||||||SCT:04|04-Four-ok|4|FM15-METAR|223|ICAO-KTSP|||||||OVC:08|08-Eight-o|4|FM15-METAR|223|ICAO-KTSP|||||||||||||||||||MET075METAR KTSP 222355Z AUTO 29029G42KT 10SM SCT022 OVC031 00/M05 A2979 RMK AO2;||F||223|ICAO-KTSP
USW00000479|TEHACHAPI MUNI AP|2009|12|23|00|15|35.1350|-118.4392|1219.5|0.0||1|FM15-METAR|223|ICAO-KTSP|-4.0||1|FM15-METAR|223|ICAO-KTSP|||||||||||||300|N-Normal|1|FM15-METAR|223|ICAO-KTSP|12.3|N-Normal|1|FM15-METAR|223|ICAO-KTSP|17.5||1|FM15-METAR|223|ICAO-KTSP|||||||75|Derived||FM15-METAR|223|ICAO-KTSP|||||||||||||||||||||||||||||||||||||||||||||||||||||||||||||||||||||||||1008.8||1|FM15-METAR|223|ICAO-KTSP|||||||SCT:04|04-Four-ok|4|FM15-METAR|223|ICAO-KTSP|||||||OVC:08|08-Eight-o|4|FM15-METAR|223|ICAO-KTSP|||||||||||||||||||MET075METAR KTSP 230015Z AUTO 30024G34KT 10SM SCT023 OVC029 00/M04 A2979 RMK AO2;||F||223|ICAO-KTSP
USW00000479|TEHACHAPI MUNI AP|2009|12|23|00|35|35.1350|-118.4392|1219.5|-1.0||1|FM15-METAR|223|ICAO-KTSP|-4.0||1|FM15-METAR|223|ICAO-KTSP|||||||||||||290|N-Normal|1|FM15-METAR|223|ICAO-KTSP|14.9|N-Normal|1|FM15-METAR|223|ICAO-KTSP|18.0||1|FM15-METAR|223|ICAO-KTSP|||||||80|Derived||FM15-METAR|223|ICAO-KTSP|||||||||||||||||||||||||||||||||||||||||||||||||||||||||||||||||||||||||1008.8||1|FM15-METAR|223|ICAO-KTSP|||||||SCT:04|04-Four-ok|4|FM15-METAR|223|ICAO-KTSP|||||||BKN:07|07-Seven-o|4|FM15-METAR|223|ICAO-KTSP|||||||||||||||||||MET083METAR KTSP 230035Z AUTO 29029G35KT 10SM SCT021 BKN029 OVC036 M01/M04 A2979 RMK AO2;||F||223|ICAO-KTSP
USW00000479|TEHACHAPI MUNI AP|2009|12|23|01|00|35.1350|-118.4392|1219.5|-1.0||1|FM15-METAR|223|ICAO-KTSP|-4.0||1|FM15-METAR|223|ICAO-KTSP|||||||||||||300|N-Normal|1|FM15-METAR|223|ICAO-KTSP|13.9|N-Normal|1|FM15-METAR|223|ICAO-KTSP|18.5||1|FM15-METAR|223|ICAO-KTSP|||||||80|Derived||FM15-METAR|223|ICAO-KTSP|||||||||||||||||||||||||||||||||||||||||||||||||||||||||||||||||||||||||1009.1||1|FM15-METAR|223|ICAO-KTSP|||||||SCT:04|04-Four-ok|4|FM15-METAR|223|ICAO-KTSP|||||||SCT:04|04-Four-ok|4|FM15-METAR|223|ICAO-KTSP|||||||||||||||||||MET083METAR KTSP 230055Z AUTO 30027G36KT 10SM SCT019 SCT025 BKN034 M01/M04 A2980 RMK AO2;||F||223|ICAO-KTSP
USW00000479|TEHACHAPI MUNI AP|2009|12|23|01|15|35.1350|-118.4392|1219.5|-1.0||1|FM15-METAR|223|ICAO-KTSP|-4.0||1|FM15-METAR|223|ICAO-KTSP|||||||||||||300|N-Normal|1|FM15-METAR|223|ICAO-KTSP|10.8|N-Normal|1|FM15-METAR|223|ICAO-KTSP|14.4||1|FM15-METAR|223|ICAO-KTSP|||||||80|Derived||FM15-METAR|223|ICAO-KTSP|||||||||||||||||||||||||||||||||||||||||||||||||||||||||||||||||||||||||1009.5||1|FM15-METAR|223|ICAO-KTSP|||||||SCT:04|04-Four-ok|4|FM15-METAR|223|ICAO-KTSP|||||||SCT:04|04-Four-ok|4|FM15-METAR|223|ICAO-KTSP|||||||||||||||||||MET076METAR KTSP 230115Z AUTO 30021G28KT 10SM SCT019 SCT025 M01/M04 A2981 RMK AO2;||F||223|ICAO-KTSP
USW00000479|TEHACHAPI MUNI AP|2009|12|23|01|35|35.1350|-118.4392|1219.5|-1.0||1|FM15-METAR|223|ICAO-KTSP|-4.0||1|FM15-METAR|223|ICAO-KTSP|||||||||||||300|N-Normal|1|FM15-METAR|223|ICAO-KTSP|10.3|N-Normal|1|FM15-METAR|223|ICAO-KTSP|14.4||1|FM15-METAR|223|ICAO-KTSP|||||||80|Derived||FM15-METAR|223|ICAO-KTSP|||||||||||||||||||||||||||||||||||||||||||||||||||||||||||||||||||||||||1010.2||1|FM15-METAR|223|ICAO-KTSP|||||||SCT:04|04-Four-ok|4|FM15-METAR|223|ICAO-KTSP|||||||SCT:04|04-Four-ok|4|FM15-METAR|223|ICAO-KTSP|||||||||||||||||||MET083METAR KTSP 230135Z AUTO 30020G28KT 10SM SCT019 SCT027 BKN032 M01/M04 A2983 RMK AO2;||F||223|ICAO-KTSP
USW00000479|TEHACHAPI MUNI AP|2009|12|23|02|00|35.1350|-118.4392|1219.5|-1.0||1|FM15-METAR|223|ICAO-KTSP|-4.0||1|FM15-METAR|223|ICAO-KTSP|||||||||||||300|N-Normal|1|FM15-METAR|223|ICAO-KTSP|8.7|N-Normal|1|FM15-METAR|223|ICAO-KTSP|10.8||1|FM15-METAR|223|ICAO-KTSP|||||||80|Derived||FM15-METAR|223|ICAO-KTSP|||||||||||||||||||||||||||||||||||||||||||||||||||||||||||||||||||||||||1010.2||1|FM15-METAR|223|ICAO-KTSP|||||||FEW:02|02-Two-okt|4|FM15-METAR|223|ICAO-KTSP|||||||SCT:04|04-Four-ok|4|FM15-METAR|223|ICAO-KTSP|||||||||||||||||||MET083METAR KTSP 230155Z AUTO 30017G21KT 10SM FEW025 SCT033 BKN038 M01/M04 A2983 RMK AO2;||F||223|ICAO-KTSP
USW00000479|TEHACHAPI MUNI AP|2009|12|23|02|15|35.1350|-118.4392|1219.5|-1.0||1|FM15-METAR|223|ICAO-KTSP|-4.0||1|FM15-METAR|223|ICAO-KTSP|||||||||||||300|N-Normal|1|FM15-METAR|223|ICAO-KTSP|9.8|N-Normal|1|FM15-METAR|223|ICAO-KTSP|12.3||1|FM15-METAR|223|ICAO-KTSP|||||||80|Derived||FM15-METAR|223|ICAO-KTSP|||||||||||||||||||||||||||||||||||||||||||||||||||||||||||||||||||||||||1010.5||1|FM15-METAR|223|ICAO-KTSP|||||||BKN:07|07-Seven-o|4|FM15-METAR|223|ICAO-KTSP|||||||BKN:07|07-Seven-o|4|FM15-METAR|223|ICAO-KTSP|||||||||||||||||||MET083METAR KTSP 230215Z AUTO 30019G24KT 10SM BKN024 BKN032 OVC038 M01/M04 A2984 RMK AO2;||F||223|ICAO-KTSP
USW00000479|TEHACHAPI MUNI AP|2009|12|23|02|35|35.1350|-118.4392|1219.5|-1.0||1|FM15-METAR|223|ICAO-KTSP|-4.0||1|FM15-METAR|223|ICAO-KTSP|||||||||||||300|N-Normal|1|FM15-METAR|223|ICAO-KTSP|7.7|N-Normal|1|FM15-METAR|223|ICAO-KTSP|10.8||1|FM15-METAR|223|ICAO-KTSP|||||||80|Derived||FM15-METAR|223|ICAO-KTSP|||||||||||||||||||||||||||||||||||||||||||RA:61|RA:61-Rain|1|FM15-METAR|223|ICAO-KTSP|||||||||||||||||||||||||1010.5||1|FM15-METAR|223|ICAO-KTSP|||||||BKN:07|07-Seven-o|4|FM15-METAR|223|ICAO-KTSP|||||||OVC:08|08-Eight-o|4|FM15-METAR|223|ICAO-KTSP|||||||||||||||||||MET080METAR KTSP 230235Z AUTO 30015G21KT 10SM -RA BKN024 OVC033 M01/M04 A2984 RMK AO2;||F||223|ICAO-KTSP
USW00000479|TEHACHAPI MUNI AP|2009|12|23|03|00|35.1350|-118.4392|1219.5|-1.0||1|FM15-METAR|223|ICAO-KTSP|-4.0||1|FM15-METAR|223|ICAO-KTSP|||||||||||||310|N-Normal|1|FM15-METAR|223|ICAO-KTSP|7.2|N-Normal|1|FM15-METAR|223|ICAO-KTSP|9.8||1|FM15-METAR|223|ICAO-KTSP|||||||80|Derived||FM15-METAR|223|ICAO-KTSP|||||||||||||||||||||||||||||||||||||||||||||||||||||||||||||||||||||||||1010.5||1|FM15-METAR|223|ICAO-KTSP|||||||SCT:04|04-Four-ok|4|FM15-METAR|223|ICAO-KTSP|||||||BKN:07|07-Seven-o|4|FM15-METAR|223|ICAO-KTSP|||||||||||||||||||MET083METAR KTSP 230255Z AUTO 31014G19KT 10SM SCT020 BKN029 OVC050 M01/M04 A2984 RMK AO2;||F||223|ICAO-KTSP
USW00000479|TEHACHAPI MUNI AP|2009|12|23|03|15|35.1350|-118.4392|1219.5|-1.0||1|FM15-METAR|223|ICAO-KTSP|-4.0||1|FM15-METAR|223|ICAO-KTSP|||||||||||||310|N-Normal|1|FM15-METAR|223|ICAO-KTSP|6.7|N-Normal|1|FM15-METAR|223|ICAO-KTSP|||||||||||||80|Derived||FM15-METAR|223|ICAO-KTSP|||||||||||||||||||||||||||||||||||||||||||||||||||||||||||||||||||||||||1010.8||1|FM15-METAR|223|ICAO-KTSP|||||||BKN:07|07-Seven-o|4|FM15-METAR|223|ICAO-KTSP|||||||BKN:07|07-Seven-o|4|FM15-METAR|223|ICAO-KTSP|||||||||||||||||||MET080METAR KTSP 230315Z AUTO 31013KT 10SM BKN020 BKN028 OVC042 M01/M04 A2985 RMK AO2;||F||223|ICAO-KTSP
USW00000479|TEHACHAPI MUNI AP|2009|12|23|03|35|35.1350|-118.4392|1219.5|-1.0||1|FM15-METAR|223|ICAO-KTSP|-4.0||1|FM15-METAR|223|ICAO-KTSP|||||||||||||310|N-Normal|1|FM15-METAR|223|ICAO-KTSP|5.7|N-Normal|1|FM15-METAR|223|ICAO-KTSP|||||||||||||80|Derived||FM15-METAR|223|ICAO-KTSP|||||||||||||||||||||||||||||||||||||||||||RA:61|RA:61-Rain|1|FM15-METAR|223|ICAO-KTSP|||||||||||||||||||||||||1010.8||1|FM15-METAR|223|ICAO-KTSP|||||||OVC:08|08-Eight-o|4|FM15-METAR|223|ICAO-KTSP|||||||||||||||||||||||||||||||MET070METAR KTSP 230335Z AUTO 31011KT 10SM -RA OVC018 M01/M04 A2985 RMK AO2;||F||223|ICAO-KTSP
USW00000479|TEHACHAPI MUNI AP|2009|12|23|04|00|35.1350|-118.4392|1219.5|-1.0||1|FM15-METAR|223|ICAO-KTSP|-4.0||1|FM15-METAR|223|ICAO-KTSP|||||||||||||310|N-Normal|1|FM15-METAR|223|ICAO-KTSP|5.7|N-Normal|1|FM15-METAR|223|ICAO-KTSP|||||||||||||80|Derived||FM15-METAR|223|ICAO-KTSP|||||||||||||||||||||||||||||||||||||||||||RA:61|RA:61-Rain|1|FM15-METAR|223|ICAO-KTSP|||||||||||||||||||||||||1011.5||1|FM15-METAR|223|ICAO-KTSP|||||||OVC:08|08-Eight-o|4|FM15-METAR|223|ICAO-KTSP|||||||||||||||||||||||||||||||MET069METAR KTSP 230355Z AUTO 31011KT 6SM -RA OVC018 M01/M04 A2987 RMK AO2;||F||223|ICAO-KTSP
USW00000479|TEHACHAPI MUNI AP|2009|12|23|04|15|35.1350|-118.4392|1219.5|-1.0||1|FM15-METAR|223|ICAO-KTSP|-3.0||1|FM15-METAR|223|ICAO-KTSP|||||||||||||320|N-Normal|1|FM15-METAR|223|ICAO-KTSP|5.1|N-Normal|1|FM15-METAR|223|ICAO-KTSP|||||||0.3|9-Missing|9|FM15-METAR|223|ICAO-KTSP|86|Derived||FM15-METAR|223|ICAO-KTSP|||||||||||||||||||||||||||||||||||||||||||40|40-Precipi|1|FM15-METAR|223|ICAO-KTSP|||||||||||||||||||||||||1011.5||1|FM15-METAR|223|ICAO-KTSP|||||||OVC:08|08-Eight-o|4|FM15-METAR|223|ICAO-KTSP|||||||||||||||||||||||||||||||MET074METAR KTSP 230415Z AUTO 32010KT 4SM UP OVC018 M01/M03 A2987 RMK AO2 P0001;||F||223|ICAO-KTSP
USW00000479|TEHACHAPI MUNI AP|2009|12|23|04|35|35.1350|-118.4392|1219.5|-1.0||1|FM15-METAR|223|ICAO-KTSP|-3.0||1|FM15-METAR|223|ICAO-KTSP|||||||||||||310|N-Normal|1|FM15-METAR|223|ICAO-KTSP|5.1|N-Normal|1|FM15-METAR|223|ICAO-KTSP|||||||0.8|9-Missing|9|FM15-METAR|223|ICAO-KTSP|86|Derived||FM15-METAR|223|ICAO-KTSP|||||||||||||||||||||||||||||||||||||||||||40|40-Precipi|1|FM15-METAR|223|ICAO-KTSP|||||||||||||||||||||||||1011.9||1|FM15-METAR|223|ICAO-KTSP|||||||FEW:02|02-Two-okt|4|FM15-METAR|223|ICAO-KTSP|||||||OVC:08|08-Eight-o|4|FM15-METAR|223|ICAO-KTSP|||||||||||||||||||MET081METAR KTSP 230435Z AUTO 31010KT 3SM UP FEW001 OVC016 M01/M03 A2988 RMK AO2 P0003;||F||223|ICAO-KTSP
USW00000479|TEHACHAPI MUNI AP|2009|12|23|05|00|35.1350|-118.4392|1219.5|-1.0||1|FM15-METAR|223|ICAO-KTSP|-3.0||1|FM15-METAR|223|ICAO-KTSP|||||||||||||320|N-Normal|1|FM15-METAR|223|ICAO-KTSP|5.7|N-Normal|1|FM15-METAR|223|ICAO-KTSP|||||||1.3|9-Missing|9|FM15-METAR|223|ICAO-KTSP|86|Derived||FM15-METAR|223|ICAO-KTSP|||||||||||||||||||||||||||||||||||||||||||SN:71|SN:71-Snow|1|FM15-METAR|223|ICAO-KTSP|||||||||||||||||||||||||1012.2||1|FM15-METAR|223|ICAO-KTSP|||||||FEW:02|02-Two-okt|4|FM15-METAR|223|ICAO-KTSP|||||||OVC:08|08-Eight-o|4|FM15-METAR|223|ICAO-KTSP|||||||||||||||||||MET082METAR KTSP 230455Z AUTO 32011KT 8SM -SN FEW001 OVC018 M01/M03 A2989 RMK AO2 P0005;||F||223|ICAO-KTSP
USW00000479|TEHACHAPI MUNI AP|2009|12|23|05|15|35.1350|-118.4392|1219.5|-1.0||1|FM15-METAR|223|ICAO-KTSP|-4.0||1|FM15-METAR|223|ICAO-KTSP|||||||||||||320|N-Normal|1|FM15-METAR|223|ICAO-KTSP|3.6|N-Normal|1|FM15-METAR|223|ICAO-KTSP|||||||||||||80|Derived||FM15-METAR|223|ICAO-KTSP|||||||||||||||||||||||||||||||||||||||||||||||||||||||||||||||||||||||||1012.5||1|FM15-METAR|223|ICAO-KTSP|||||||SCT:04|04-Four-ok|4|FM15-METAR|223|ICAO-KTSP|||||||BKN:07|07-Seven-o|4|FM15-METAR|223|ICAO-KTSP|||||||||||||||||||MET080METAR KTSP 230515Z AUTO 32007KT 10SM SCT018 BKN036 BKN042 M01/M04 A2990 RMK AO2;||F||223|ICAO-KTSP
USW00000479|TEHACHAPI MUNI AP|2009|12|23|05|35|35.1350|-118.4392|1219.5|-2.0||1|FM15-METAR|223|ICAO-KTSP|-4.0||1|FM15-METAR|223|ICAO-KTSP|||||||||||||290|N-Normal|1|FM15-METAR|223|ICAO-KTSP|4.1|N-Normal|1|FM15-METAR|223|ICAO-KTSP|||||||||||||86|Derived||FM15-METAR|223|ICAO-KTSP|||||||||||||||||||||||||||||||||||||||||||||||||||||||||||||||||||||||||1012.9||1|FM15-METAR|223|ICAO-KTSP|||||||FEW:02|02-Two-okt|4|FM15-METAR|223|ICAO-KTSP|||||||FEW:02|02-Two-okt|4|FM15-METAR|223|ICAO-KTSP|||||||||||||||||||MET073METAR KTSP 230535Z AUTO 29008KT 10SM FEW028 FEW035 M02/M04 A2991 RMK AO2;||F||223|ICAO-KTSP
USW00000479|TEHACHAPI MUNI AP|2009|12|23|06|00|35.1350|-118.4392|1219.5|-2.0||1|FM15-METAR|223|ICAO-KTSP|-4.0||1|FM15-METAR|223|ICAO-KTSP|||||||||||||280|N-Normal|1|FM15-METAR|223|ICAO-KTSP|5.1|N-Normal|1|FM15-METAR|223|ICAO-KTSP|||||||||||||86|Derived||FM15-METAR|223|ICAO-KTSP|||||||||||||||||||||||||||||||||||||||||||||||||||||||||||||||||||||||||1013.2||1|FM15-METAR|223|ICAO-KTSP|||||||||||||||||||||||||||||||||||||||||||MET063METAR KTSP 230555Z AUTO 28010KT 10SM CLR M02/M04 A2992 RMK AO2;||F||223|ICAO-KTSP
USW00000479|TEHACHAPI MUNI AP|2009|12|23|06|15|35.1350|-118.4392|1219.5|-2.0||1|FM15-METAR|223|ICAO-KTSP|-4.0||1|FM15-METAR|223|ICAO-KTSP|||||||||||||280|N-Normal|1|FM15-METAR|223|ICAO-KTSP|2.6|N-Normal|1|FM15-METAR|223|ICAO-KTSP|||||||||||||86|Derived||FM15-METAR|223|ICAO-KTSP|||||||||||||||||||||||||||||||||||||||||||||||||||||||||||||||||||||||||1013.5||1|FM15-METAR|223|ICAO-KTSP|||||||||||||||||||||||||||||||||||||||||||MET063METAR KTSP 230615Z AUTO 28005KT 10SM CLR M02/M04 A2993 RMK AO2;||F||223|ICAO-KTSP
USW00000479|TEHACHAPI MUNI AP|2009|12|23|06|35|35.1350|-118.4392|1219.5|-3.0||1|FM15-METAR|223|ICAO-KTSP|-4.0||1|FM15-METAR|223|ICAO-KTSP|||||||||||||999|C-Calm|9|FM15-METAR|223|ICAO-KTSP|0.0|C-Calm|1|FM15-METAR|223|ICAO-KTSP|||||||||||||93|Derived||FM15-METAR|223|ICAO-KTSP|||||||||||||||||||||||||||||||||||||||||||||||||||||||||||||||||||||||||1013.9||1|FM15-METAR|223|ICAO-KTSP|||||||SCT:04|04-Four-ok|4|FM15-METAR|223|ICAO-KTSP|||||||||||||||||||||||||||||||MET066METAR KTSP 230635Z AUTO 00000KT 10SM SCT018 M03/M04 A2994 RMK AO2;||F||223|ICAO-KTSP
USW00000479|TEHACHAPI MUNI AP|2009|12|23|07|00|35.1350|-118.4392|1219.5|-2.0||1|FM15-METAR|223|ICAO-KTSP|-4.0||1|FM15-METAR|223|ICAO-KTSP|||||||||||||290|N-Normal|1|FM15-METAR|223|ICAO-KTSP|2.6|N-Normal|1|FM15-METAR|223|ICAO-KTSP|||||||||||||86|Derived||FM15-METAR|223|ICAO-KTSP|||||||||||||||||||||||||||||||||||||||||||||||||||||||||||||||||||||||||1014.2||1|FM15-METAR|223|ICAO-KTSP|||||||OVC:08|08-Eight-o|4|FM15-METAR|223|ICAO-KTSP|||||||||||||||||||||||||||||||MET066METAR KTSP 230655Z AUTO 29005KT 10SM OVC018 M02/M04 A2995 RMK AO2;||F||223|ICAO-KTSP
USW00000479|TEHACHAPI MUNI AP|2009|12|23|07|15|35.1350|-118.4392|1219.5|-2.0||1|FM15-METAR|223|ICAO-KTSP|-4.0||1|FM15-METAR|223|ICAO-KTSP|||||||||||||280|N-Normal|1|FM15-METAR|223|ICAO-KTSP|4.1|N-Normal|1|FM15-METAR|223|ICAO-KTSP|||||||||||||86|Derived||FM15-METAR|223|ICAO-KTSP|||||||||||||||||||||||||||||||||||||||||||||||||||||||||||||||||||||||||1013.9||1|FM15-METAR|223|ICAO-KTSP|||||||SCT:04|04-Four-ok|4|FM15-METAR|223|ICAO-KTSP|||||||||||||||||||||||||||||||MET066METAR KTSP 230715Z AUTO 28008KT 10SM SCT018 M02/M04 A2994 RMK AO2;||F||223|ICAO-KTSP
USW00000479|TEHACHAPI MUNI AP|2009|12|23|07|35|35.1350|-118.4392|1219.5|-3.0||1|FM15-METAR|223|ICAO-KTSP|-4.0||1|FM15-METAR|223|ICAO-KTSP|||||||||||||270|N-Normal|1|FM15-METAR|223|ICAO-KTSP|4.6|N-Normal|1|FM15-METAR|223|ICAO-KTSP|||||||||||||93|Derived||FM15-METAR|223|ICAO-KTSP|||||||||||||||||||||||||||||||||||||||||||||||||||||||||||||||||||||||||1014.2||1|FM15-METAR|223|ICAO-KTSP|||||||||||||||||||||||||||||||||||||||||||MET063METAR KTSP 230735Z AUTO 27009KT 10SM CLR M03/M04 A2995 RMK AO2;||F||223|ICAO-KTSP
USW00000479|TEHACHAPI MUNI AP|2009|12|23|08|00|35.1350|-118.4392|1219.5|-3.0||1|FM15-METAR|223|ICAO-KTSP|-4.0||1|FM15-METAR|223|ICAO-KTSP|||||||||||||260|N-Normal|1|FM15-METAR|223|ICAO-KTSP|3.1|N-Normal|1|FM15-METAR|223|ICAO-KTSP|||||||||||||93|Derived||FM15-METAR|223|ICAO-KTSP|||||||||||||||||||||||||||||||||||||||||||||||||||||||||||||||||||||||||1013.9||1|FM15-METAR|223|ICAO-KTSP|||||||||||||||||||||||||||||||||||||||||||MET063METAR KTSP 230755Z AUTO 26006KT 10SM CLR M03/M04 A2994 RMK AO2;||F||223|ICAO-KTSP
USW00000479|TEHACHAPI MUNI AP|2009|12|23|08|15|35.1350|-118.4392|1219.5|-3.0||1|FM15-METAR|223|ICAO-KTSP|-4.0||1|FM15-METAR|223|ICAO-KTSP|||||||||||||280|N-Normal|1|FM15-METAR|223|ICAO-KTSP|5.1|N-Normal|1|FM15-METAR|223|ICAO-KTSP|||||||||||||93|Derived||FM15-METAR|223|ICAO-KTSP|||||||||||||||||||||||||||||||||||||||||||||||||||||||||||||||||||||||||1013.9||1|FM15-METAR|223|ICAO-KTSP|||||||||||||||||||||||||||||||||||||||||||MET063METAR KTSP 230815Z AUTO 28010KT 10SM CLR M03/M04 A2994 RMK AO2;||F||223|ICAO-KTSP
USW00000479|TEHACHAPI MUNI AP|2009|12|23|08|35|35.1350|-118.4392|1219.5|-3.0||1|FM15-METAR|223|ICAO-KTSP|-4.0||1|FM15-METAR|223|ICAO-KTSP|||||||||||||260|N-Normal|1|FM15-METAR|223|ICAO-KTSP|5.7|N-Normal|1|FM15-METAR|223|ICAO-KTSP|||||||||||||93|Derived||FM15-METAR|223|ICAO-KTSP|||||||||||||||||||||||||||||||||||||||||||||||||||||||||||||||||||||||||1014.2||1|FM15-METAR|223|ICAO-KTSP|||||||||||||||||||||||||||||||||||||||||||MET063METAR KTSP 230835Z AUTO 26011KT 10SM CLR M03/M04 A2995 RMK AO2;||F||223|ICAO-KTSP
USW00000479|TEHACHAPI MUNI AP|2009|12|23|09|00|35.1350|-118.4392|1219.5|-3.0||1|FM15-METAR|223|ICAO-KTSP|-4.0||1|FM15-METAR|223|ICAO-KTSP|||||||||||||280|N-Normal|1|FM15-METAR|223|ICAO-KTSP|4.1|N-Normal|1|FM15-METAR|223|ICAO-KTSP|||||||||||||93|Derived||FM15-METAR|223|ICAO-KTSP|||||||||||||||||||||||||||||||||||||||||||||||||||||||||||||||||||||||||1014.2||1|FM15-METAR|223|ICAO-KTSP|||||||||||||||||||||||||||||||||||||||||||MET063METAR KTSP 230855Z AUTO 28008KT 10SM CLR M03/M04 A2995 RMK AO2;||F||223|ICAO-KTSP
USW00000479|TEHACHAPI MUNI AP|2009|12|23|09|15|35.1350|-118.4392|1219.5|-3.0||1|FM15-METAR|223|ICAO-KTSP|-4.0||1|FM15-METAR|223|ICAO-KTSP|||||||||||||290|N-Normal|1|FM15-METAR|223|ICAO-KTSP|5.7|N-Normal|1|FM15-METAR|223|ICAO-KTSP|||||||||||||93|Derived||FM15-METAR|223|ICAO-KTSP|||||||||||||||||||||||||||||||||||||||||||||||||||||||||||||||||||||||||1014.9||1|FM15-METAR|223|ICAO-KTSP|||||||||||||||||||||||||||||||||||||||||||MET063METAR KTSP 230915Z AUTO 29011KT 10SM CLR M03/M04 A2997 RMK AO2;||F||223|ICAO-KTSP
USW00000479|TEHACHAPI MUNI AP|2009|12|23|09|35|35.1350|-118.4392|1219.5|-3.0||1|FM15-METAR|223|ICAO-KTSP|-4.0||1|FM15-METAR|223|ICAO-KTSP|||||||||||||300|N-Normal|1|FM15-METAR|223|ICAO-KTSP|5.1|N-Normal|1|FM15-METAR|223|ICAO-KTSP|||||||||||||93|Derived||FM15-METAR|223|ICAO-KTSP|||||||||||||||||||||||||||||||||||||||||||||||||||||||||||||||||||||||||1015.2||1|FM15-METAR|223|ICAO-KTSP|||||||SCT:04|04-Four-ok|4|FM15-METAR|223|ICAO-KTSP|||||||||||||||||||||||||||||||MET066METAR KTSP 230935Z AUTO 30010KT 10SM SCT013 M03/M04 A2998 RMK AO2;||F||223|ICAO-KTSP
USW00000479|TEHACHAPI MUNI AP|2009|12|23|10|00|35.1350|-118.4392|1219.5|-3.0||1|FM15-METAR|223|ICAO-KTSP|-4.0||1|FM15-METAR|223|ICAO-KTSP|||||||||||||310|N-Normal|1|FM15-METAR|223|ICAO-KTSP|4.6|N-Normal|1|FM15-METAR|223|ICAO-KTSP|||||||||||||93|Derived||FM15-METAR|223|ICAO-KTSP|||||||||||||||||||||||||||||||||||||||||||||||||||||||||||||||||||||||||1015.6||1|FM15-METAR|223|ICAO-KTSP|||||||FEW:02|02-Two-okt|4|FM15-METAR|223|ICAO-KTSP|||||||BKN:07|07-Seven-o|4|FM15-METAR|223|ICAO-KTSP|||||||||||||||||||MET072METAR KTSP 230955Z AUTO 31009KT 9SM FEW008 BKN013 M03/M04 A2999 RMK AO2;||F||223|ICAO-KTSP
USW00000479|TEHACHAPI MUNI AP|2009|12|23|10|15|35.1350|-118.4392|1219.5|-3.0||1|FM15-METAR|223|ICAO-KTSP|-4.0||1|FM15-METAR|223|ICAO-KTSP|||||||||||||320|N-Normal|1|FM15-METAR|223|ICAO-KTSP|4.1|N-Normal|1|FM15-METAR|223|ICAO-KTSP|||||||||||||93|Derived||FM15-METAR|223|ICAO-KTSP|||||||||||||||||||||||||||||||||||||||||||||||||||||||||||||||||||||||||1015.9||1|FM15-METAR|223|ICAO-KTSP|||||||FEW:02|02-Two-okt|4|FM15-METAR|223|ICAO-KTSP|||||||BKN:07|07-Seven-o|4|FM15-METAR|223|ICAO-KTSP|||||||||||||||||||MET072METAR KTSP 231015Z AUTO 32008KT 9SM FEW007 BKN011 M03/M04 A3000 RMK AO2;||F||223|ICAO-KTSP
USW00000479|TEHACHAPI MUNI AP|2009|12|23|10|35|35.1350|-118.4392|1219.5|-3.0||1|FM15-METAR|223|ICAO-KTSP|-4.0||1|FM15-METAR|223|ICAO-KTSP|||||||||||||320|N-Normal|1|FM15-METAR|223|ICAO-KTSP|3.6|N-Normal|1|FM15-METAR|223|ICAO-KTSP|||||||||||||93|Derived||FM15-METAR|223|ICAO-KTSP|||||||||||||||||||||||||||||||||||||||||||||||||||||||||||||||||||||||||1016.6||1|FM15-METAR|223|ICAO-KTSP|||||||FEW:02|02-Two-okt|4|FM15-METAR|223|ICAO-KTSP|||||||OVC:08|08-Eight-o|4|FM15-METAR|223|ICAO-KTSP|||||||||||||||||||MET072METAR KTSP 231035Z AUTO 32007KT 8SM FEW006 OVC011 M03/M04 A3002 RMK AO2;||F||223|ICAO-KTSP
USW00000479|TEHACHAPI MUNI AP|2009|12|23|11|00|35.1350|-118.4392|1219.5|-3.0||1|FM15-METAR|223|ICAO-KTSP|-4.0||1|FM15-METAR|223|ICAO-KTSP|||||||||||||310|N-Normal|1|FM15-METAR|223|ICAO-KTSP|3.1|N-Normal|1|FM15-METAR|223|ICAO-KTSP|||||||||||||93|Derived||FM15-METAR|223|ICAO-KTSP|||||||||||||||||||||||||||||||||||||||||||||||||||||||||||||||||||||||||1016.6||1|FM15-METAR|223|ICAO-KTSP|||||||FEW:02|02-Two-okt|4|FM15-METAR|223|ICAO-KTSP|||||||BKN:07|07-Seven-o|4|FM15-METAR|223|ICAO-KTSP|||||||||||||||||||MET072METAR KTSP 231055Z AUTO 31006KT 9SM FEW006 BKN011 M03/M04 A3002 RMK AO2;||F||223|ICAO-KTSP
USW00000479|TEHACHAPI MUNI AP|2009|12|23|11|15|35.1350|-118.4392|1219.5|-4.0||1|FM15-METAR|223|ICAO-KTSP|-4.0||1|FM15-METAR|223|ICAO-KTSP|||||||||||||300|N-Normal|1|FM15-METAR|223|ICAO-KTSP|3.1|N-Normal|1|FM15-METAR|223|ICAO-KTSP|||||||||||||100|Derived||FM15-METAR|223|ICAO-KTSP|||||||||||||||||||||||||||||||||||||||||||||||||||||||||||||||||||||||||1016.6||1|FM15-METAR|223|ICAO-KTSP|||||||BKN:07|07-Seven-o|4|FM15-METAR|223|ICAO-KTSP|||||||||||||||||||||||||||||||MET066METAR KTSP 231115Z AUTO 30006KT 10SM BKN011 M04/M04 A3002 RMK AO2;||F||223|ICAO-KTSP
USW00000479|TEHACHAPI MUNI AP|2009|12|23|11|35|35.1350|-118.4392|1219.5|-4.0||1|FM15-METAR|223|ICAO-KTSP|-4.0||1|FM15-METAR|223|ICAO-KTSP|||||||||||||300|N-Normal|1|FM15-METAR|223|ICAO-KTSP|3.6|N-Normal|1|FM15-METAR|223|ICAO-KTSP|||||||||||||100|Derived||FM15-METAR|223|ICAO-KTSP|||||||||||||||||||||||||||||||||||||||||||||||||||||||||||||||||||||||||1016.6||1|FM15-METAR|223|ICAO-KTSP|||||||SCT:04|04-Four-ok|4|FM15-METAR|223|ICAO-KTSP|||||||||||||||||||||||||||||||MET066METAR KTSP 231135Z AUTO 30007KT 10SM SCT011 M04/M04 A3002 RMK AO2;||F||223|ICAO-KTSP
USW00000479|TEHACHAPI MUNI AP|2009|12|23|12|00|35.1350|-118.4392|1219.5|-3.0||1|FM15-METAR|223|ICAO-KTSP|-4.0||1|FM15-METAR|223|ICAO-KTSP|||||||||||||280|N-Normal|1|FM15-METAR|223|ICAO-KTSP|4.1|N-Normal|1|FM15-METAR|223|ICAO-KTSP|7.7||1|FM15-METAR|223|ICAO-KTSP|||||||93|Derived||FM15-METAR|223|ICAO-KTSP|||||||||||||||||||||||||||||||||||||||||||||||||||||||||||||||||||||||||1016.6||1|FM15-METAR|223|ICAO-KTSP|||||||||||||||||||||||||||||||||||||||||||MET066METAR KTSP 231155Z AUTO 28008G15KT 10SM CLR M03/M04 A3002 RMK AO2;||F||223|ICAO-KTSP
USW00000479|TEHACHAPI MUNI AP|2009|12|23|12|15|35.1350|-118.4392|1219.5|-3.0||1|FM15-METAR|223|ICAO-KTSP|-5.0||1|FM15-METAR|223|ICAO-KTSP|||||||||||||310|N-Normal|1|FM15-METAR|223|ICAO-KTSP|2.6|N-Normal|1|FM15-METAR|223|ICAO-KTSP|||||||||||||86|Derived||FM15-METAR|223|ICAO-KTSP|||||||||||||||||||||||||||||||||||||||||||||||||||||||||||||||||||||||||1016.6||1|FM15-METAR|223|ICAO-KTSP|||||||||||||||||||||||||||||||||||||||||||MET063METAR KTSP 231215Z AUTO 31005KT 10SM CLR M03/M05 A3002 RMK AO2;||F||223|ICAO-KTSP
USW00000479|TEHACHAPI MUNI AP|2009|12|23|12|35|35.1350|-118.4392|1219.5|-4.0||1|FM15-METAR|223|ICAO-KTSP|-6.0||1|FM15-METAR|223|ICAO-KTSP|||||||||||||030|N-Normal|1|FM15-METAR|223|ICAO-KTSP|2.6|N-Normal|1|FM15-METAR|223|ICAO-KTSP|||||||||||||86|Derived||FM15-METAR|223|ICAO-KTSP|||||||||||||||||||||||||||||||||||||||||||||||||||||||||||||||||||||||||1016.6||1|FM15-METAR|223|ICAO-KTSP|||||||||||||||||||||||||||||||||||||||||||MET063METAR KTSP 231235Z AUTO 03005KT 10SM CLR M04/M06 A3002 RMK AO2;||F||223|ICAO-KTSP
USW00000479|TEHACHAPI MUNI AP|2009|12|23|13|00|35.1350|-118.4392|1219.5|-4.0||1|FM15-METAR|223|ICAO-KTSP|-7.0||1|FM15-METAR|223|ICAO-KTSP|||||||||||||040|N-Normal|1|FM15-METAR|223|ICAO-KTSP|1.5|N-Normal|1|FM15-METAR|223|ICAO-KTSP|||||||||||||80|Derived||FM15-METAR|223|ICAO-KTSP|||||||||||||||||||||||||||||||||||||||||||||||||||||||||||||||||||||||||1016.6||1|FM15-METAR|223|ICAO-KTSP|||||||||||||||||||||||||||||||||||||||||||MET063METAR KTSP 231255Z AUTO 04003KT 10SM CLR M04/M07 A3002 RMK AO2;||F||223|ICAO-KTSP
USW00000479|TEHACHAPI MUNI AP|2009|12|23|13|15|35.1350|-118.4392|1219.5|-4.0||1|FM15-METAR|223|ICAO-KTSP|-7.0||1|FM15-METAR|223|ICAO-KTSP|||||||||||||270|N-Normal|1|FM15-METAR|223|ICAO-KTSP|2.6|N-Normal|1|FM15-METAR|223|ICAO-KTSP|||||||||||||80|Derived||FM15-METAR|223|ICAO-KTSP|||||||||||||||||||||||||||||||||||||||||||||||||||||||||||||||||||||||||1016.9||1|FM15-METAR|223|ICAO-KTSP|||||||||||||||||||||||||||||||||||||||||||MET063METAR KTSP 231315Z AUTO 27005KT 10SM CLR M04/M07 A3003 RMK AO2;||F||223|ICAO-KTSP
USW00000479|TEHACHAPI MUNI AP|2009|12|23|13|35|35.1350|-118.4392|1219.5|-5.0||1|FM15-METAR|223|ICAO-KTSP|-7.0||1|FM15-METAR|223|ICAO-KTSP|||||||||||||290|N-Normal|1|FM15-METAR|223|ICAO-KTSP|2.1|N-Normal|1|FM15-METAR|223|ICAO-KTSP|||||||||||||86|Derived||FM15-METAR|223|ICAO-KTSP|||||||||||||||||||||||||||||||||||||||||||||||||||||||||||||||||||||||||1017.3||1|FM15-METAR|223|ICAO-KTSP|||||||||||||||||||||||||||||||||||||||||||MET063METAR KTSP 231335Z AUTO 29004KT 10SM CLR M05/M07 A3004 RMK AO2;||F||223|ICAO-KTSP
USW00000479|TEHACHAPI MUNI AP|2009|12|23|14|00|35.1350|-118.4392|1219.5|-5.0||1|FM15-METAR|223|ICAO-KTSP|-7.0||1|FM15-METAR|223|ICAO-KTSP|||||||||||||290|N-Normal|1|FM15-METAR|223|ICAO-KTSP|2.6|N-Normal|1|FM15-METAR|223|ICAO-KTSP|||||||||||||86|Derived||FM15-METAR|223|ICAO-KTSP|||||||||||||||||||||||||||||||||||||||||||||||||||||||||||||||||||||||||1016.9||1|FM15-METAR|223|ICAO-KTSP|||||||||||||||||||||||||||||||||||||||||||MET063METAR KTSP 231355Z AUTO 29005KT 10SM CLR M05/M07 A3003 RMK AO2;||F||223|ICAO-KTSP
USW00000479|TEHACHAPI MUNI AP|2009|12|23|14|15|35.1350|-118.4392|1219.5|-5.0||1|FM15-METAR|223|ICAO-KTSP|-7.0||1|FM15-METAR|223|ICAO-KTSP|||||||||||||270|N-Normal|1|FM15-METAR|223|ICAO-KTSP|3.1|N-Normal|1|FM15-METAR|223|ICAO-KTSP|||||||||||||86|Derived||FM15-METAR|223|ICAO-KTSP|||||||||||||||||||||||||||||||||||||||||||||||||||||||||||||||||||||||||1017.6||1|FM15-METAR|223|ICAO-KTSP|||||||||||||||||||||||||||||||||||||||||||MET063METAR KTSP 231415Z AUTO 27006KT 10SM CLR M05/M07 A3005 RMK AO2;||F||223|ICAO-KTSP
USW00000479|TEHACHAPI MUNI AP|2009|12|23|14|35|35.1350|-118.4392|1219.5|-4.0||1|FM15-METAR|223|ICAO-KTSP|-7.0||1|FM15-METAR|223|ICAO-KTSP|||||||||||||260|N-Normal|1|FM15-METAR|223|ICAO-KTSP|2.1|N-Normal|1|FM15-METAR|223|ICAO-KTSP|||||||||||||80|Derived||FM15-METAR|223|ICAO-KTSP|||||||||||||||||||||||||||||||||||||||||||||||||||||||||||||||||||||||||1017.3||1|FM15-METAR|223|ICAO-KTSP|||||||||||||||||||||||||||||||||||||||||||MET063METAR KTSP 231435Z AUTO 26004KT 10SM CLR M04/M07 A3004 RMK AO2;||F||223|ICAO-KTSP
USW00000479|TEHACHAPI MUNI AP|2009|12|23|15|00|35.1350|-118.4392|1219.5|-6.0||1|FM15-METAR|223|ICAO-KTSP|-8.0||1|FM15-METAR|223|ICAO-KTSP|||||||||||||290|N-Normal|1|FM15-METAR|223|ICAO-KTSP|2.1|N-Normal|1|FM15-METAR|223|ICAO-KTSP|||||||||||||86|Derived||FM15-METAR|223|ICAO-KTSP|||||||||||||||||||||||||||||||||||||||||||||||||||||||||||||||||||||||||1018.0||1|FM15-METAR|223|ICAO-KTSP|||||||||||||||||||||||||||||||||||||||||||MET063METAR KTSP 231455Z AUTO 29004KT 10SM CLR M06/M08 A3006 RMK AO2;||F||223|ICAO-KTSP
USW00000479|TEHACHAPI MUNI AP|2009|12|23|15|15|35.1350|-118.4392|1219.5|||||||||||||||||||||||||||||||||||||||||||||||||||||||||||||||||||||||||||||||||||||||||||||||||||||||||||||||||||||||||||||||||||||||||||||||||||||||||||||||||||||||||||||||MET049METAR KTSP 231515Z AUTO RMK AO2 PWINO PNO FZRANO;||F||223|ICAO-KTSP
USW00000479|TEHACHAPI MUNI AP|2009|12|23|15|35|35.1350|-118.4392|1219.5|-4.0||1|FM15-METAR|223|ICAO-KTSP|-7.0||1|FM15-METAR|223|ICAO-KTSP|||||||||||||999|C-Calm|9|FM15-METAR|223|ICAO-KTSP|0.0|C-Calm|1|FM15-METAR|223|ICAO-KTSP|||||||||||||80|Derived||FM15-METAR|223|ICAO-KTSP|||||||||||||||||||||||||||||||||||||||||||||||||||||||||||||||||||||||||1019.0||1|FM15-METAR|223|ICAO-KTSP|||||||||||||||||||||||||||||||||||||||||||MET059METAR KTSP 231535Z AUTO 00000KT 10SM M04/M07 A3009 RMK AO2;||F||223|ICAO-KTSP
USW00000479|TEHACHAPI MUNI AP|2009|12|23|16|00|35.1350|-118.4392|1219.5|-3.0||1|FM15-METAR|223|ICAO-KTSP|-6.0||1|FM15-METAR|223|ICAO-KTSP|||||||||||||310|N-Normal|1|FM15-METAR|223|ICAO-KTSP|2.6|N-Normal|1|FM15-METAR|223|ICAO-KTSP|||||||||||||80|Derived||FM15-METAR|223|ICAO-KTSP|||||||||||||||||||||||||||||||||||||||||||||||||||||||||||||||||||||||||1019.0||1|FM15-METAR|223|ICAO-KTSP|||||||||||||||||||||||||||||||||||||||||||MET062METAR KTSP 231555Z AUTO 31005KT 9SM CLR M03/M06 A3009 RMK AO2;||F||223|ICAO-KTSP
USW00000479|TEHACHAPI MUNI AP|2009|12|23|16|15|35.1350|-118.4392|1219.5|-3.0||1|FM15-METAR|223|ICAO-KTSP|-5.0||1|FM15-METAR|223|ICAO-KTSP|||||||||||||310|N-Normal|1|FM15-METAR|223|ICAO-KTSP|4.1|N-Normal|1|FM15-METAR|223|ICAO-KTSP|||||||||||||86|Derived||FM15-METAR|223|ICAO-KTSP|||||||||||||||||||||||||||||||||||||||||||||||||||||||||||||||||||||||||1019.6||1|FM15-METAR|223|ICAO-KTSP|||||||||||||||||||||||||||||||||||||||||||MET063METAR KTSP 231615Z AUTO 31008KT 10SM CLR M03/M05 A3011 RMK AO2;||F||223|ICAO-KTSP
USW00000479|TEHACHAPI MUNI AP|2009|12|23|16|35|35.1350|-118.4392|1219.5|-3.0||1|FM15-METAR|223|ICAO-KTSP|-4.0||1|FM15-METAR|223|ICAO-KTSP|||||||||||||310|N-Normal|1|FM15-METAR|223|ICAO-KTSP|3.6|N-Normal|1|FM15-METAR|223|ICAO-KTSP|||||||||||||93|Derived||FM15-METAR|223|ICAO-KTSP|||||||||||||||||||||||||||||||||||||||||||||||||||||||||||||||||||||||||1020.0||1|FM15-METAR|223|ICAO-KTSP|||||||||||||||||||||||||||||||||||||||||||MET062METAR KTSP 231635Z AUTO 31007KT 8SM CLR M03/M04 A3012 RMK AO2;||F||223|ICAO-KTSP
USW00000479|TEHACHAPI MUNI AP|2009|12|23|17|00|35.1350|-118.4392|1219.5|-2.0||1|FM15-METAR|223|ICAO-KTSP|-4.0||1|FM15-METAR|223|ICAO-KTSP|||||||||||||340|N-Normal|1|FM15-METAR|223|ICAO-KTSP|2.6|N-Normal|1|FM15-METAR|223|ICAO-KTSP|||||||||||||86|Derived||FM15-METAR|223|ICAO-KTSP|||||||||||||||||||||||||||||||||||||||||||||||||||||||||||||||||||||||||1020.3||1|FM15-METAR|223|ICAO-KTSP|||||||||||||||||||||||||||||||||||||||||||MET062METAR KTSP 231655Z AUTO 34005KT 8SM CLR M02/M04 A3013 RMK AO2;||F||223|ICAO-KTSP
USW00000479|TEHACHAPI MUNI AP|2009|12|23|17|15|35.1350|-118.4392|1219.5|-2.0||1|FM15-METAR|223|ICAO-KTSP|-4.0||1|FM15-METAR|223|ICAO-KTSP|||||||||||||999|C-Calm|9|FM15-METAR|223|ICAO-KTSP|0.0|C-Calm|1|FM15-METAR|223|ICAO-KTSP|||||||||||||86|Derived||FM15-METAR|223|ICAO-KTSP|||||||||||||||||||||||||||||||||||||||||||RA:61|RA:61-Rain|1|FM15-METAR|223|ICAO-KTSP|||||||||||||||||||||||||1020.7||1|FM15-METAR|223|ICAO-KTSP|||||||||||||||||||||||||||||||||||||||||||MET067METAR KTSP 231715Z AUTO 00000KT 10SM -RA CLR M02/M04 A3014 RMK AO2;||F||223|ICAO-KTSP
USW00000479|TEHACHAPI MUNI AP|2009|12|23|17|35|35.1350|-118.4392|1219.5|-1.0||1|FM15-METAR|223|ICAO-KTSP|-4.0||1|FM15-METAR|223|ICAO-KTSP|||||||||||||330|N-Normal|1|FM15-METAR|223|ICAO-KTSP|2.6|N-Normal|1|FM15-METAR|223|ICAO-KTSP|||||||||||||80|Derived||FM15-METAR|223|ICAO-KTSP|||||||||||||||||||||||||||||||||||||||||||||||||||||||||||||||||||||||||1020.7||1|FM15-METAR|223|ICAO-KTSP|||||||||||||||||||||||||||||||||||||||||||MET063METAR KTSP 231735Z AUTO 33005KT 10SM CLR M01/M04 A3014 RMK AO2;||F||223|ICAO-KTSP
USW00000479|TEHACHAPI MUNI AP|2009|12|23|18|00|35.1350|-118.4392|1219.5|0.0||1|FM15-METAR|223|ICAO-KTSP|-4.0||1|FM15-METAR|223|ICAO-KTSP|||||||||||||290|N-Normal|1|FM15-METAR|223|ICAO-KTSP|3.1|N-Normal|1|FM15-METAR|223|ICAO-KTSP|||||||||||||75|Derived||FM15-METAR|223|ICAO-KTSP|||||||||||||||||||||||||||||||||||||||||||||||||||||||||||||||||||||||||1021.0||1|FM15-METAR|223|ICAO-KTSP|||||||||||||||||||||||||||||||||||||||||||MET061METAR KTSP 231755Z AUTO 29006KT 8SM CLR 00/M04 A3015 RMK AO2;||F||223|ICAO-KTSP
USW00000479|TEHACHAPI MUNI AP|2009|12|23|18|15|35.1350|-118.4392|1219.5|0.0||1|FM15-METAR|223|ICAO-KTSP|-4.0||1|FM15-METAR|223|ICAO-KTSP|||||||||||||270|N-Normal|1|FM15-METAR|223|ICAO-KTSP|4.6|N-Normal|1|FM15-METAR|223|ICAO-KTSP|||||||||||||75|Derived||FM15-METAR|223|ICAO-KTSP|||||||||||||||||||||||||||||||||||||||||||||||||||||||||||||||||||||||||1021.3||1|FM15-METAR|223|ICAO-KTSP|||||||||||||||||||||||||||||||||||||||||||MET061METAR KTSP 231815Z AUTO 27009KT 9SM CLR 00/M04 A3016 RMK AO2;||F||223|ICAO-KTSP
USW00000479|TEHACHAPI MUNI AP|2009|12|23|18|35|35.1350|-118.4392|1219.5|0.0||1|FM15-METAR|223|ICAO-KTSP|-4.0||1|FM15-METAR|223|ICAO-KTSP|||||||||||||290|N-Normal|1|FM15-METAR|223|ICAO-KTSP|4.1|N-Normal|1|FM15-METAR|223|ICAO-KTSP|||||||||||||75|Derived||FM15-METAR|223|ICAO-KTSP|||||||||||||||||||||||||||||||||||||||||||||||||||||||||||||||||||||||||1021.3||1|FM15-METAR|223|ICAO-KTSP|||||||||||||||||||||||||||||||||||||||||||MET061METAR KTSP 231835Z AUTO 29008KT 8SM CLR 00/M04 A3016 RMK AO2;||F||223|ICAO-KTSP
USW00000479|TEHACHAPI MUNI AP|2009|12|23|19|00|35.1350|-118.4392|1219.5|0.0||1|FM15-METAR|223|ICAO-KTSP|-3.0||1|FM15-METAR|223|ICAO-KTSP|||||||||||||330|N-Normal|1|FM15-METAR|223|ICAO-KTSP|3.1|N-Normal|1|FM15-METAR|223|ICAO-KTSP|||||||||||||80|Derived||FM15-METAR|223|ICAO-KTSP|||||||||||||||||||||||||||||||||||||||||||||||||||||||||||||||||||||||||1021.0||1|FM15-METAR|223|ICAO-KTSP|||||||||||||||||||||||||||||||||||||||||||MET061METAR KTSP 231855Z AUTO 33006KT 8SM CLR 00/M03 A3015 RMK AO2;||F||223|ICAO-KTSP
USW00000479|TEHACHAPI MUNI AP|2009|12|23|19|15|35.1350|-118.4392|1219.5|0.0||1|FM15-METAR|223|ICAO-KTSP|-4.0||1|FM15-METAR|223|ICAO-KTSP|||||||||||||320|N-Normal|1|FM15-METAR|223|ICAO-KTSP|2.6|N-Normal|1|FM15-METAR|223|ICAO-KTSP|||||||||||||75|Derived||FM15-METAR|223|ICAO-KTSP|||||||||||||||||||||||||||||||||||||||||||||||||||||||||||||||||||||||||1021.0||1|FM15-METAR|223|ICAO-KTSP|||||||||||||||||||||||||||||||||||||||||||MET061METAR KTSP 231915Z AUTO 32005KT 8SM CLR 00/M04 A3015 RMK AO2;||F||223|ICAO-KTSP
USW00000479|TEHACHAPI MUNI AP|2009|12|23|19|35|35.1350|-118.4392|1219.5|2.0||1|FM15-METAR|223|ICAO-KTSP|-5.0||1|FM15-METAR|223|ICAO-KTSP|||||||||||||270|N-Normal|1|FM15-METAR|223|ICAO-KTSP|2.1|N-Normal|1|FM15-METAR|223|ICAO-KTSP|||||||||||||60|Derived||FM15-METAR|223|ICAO-KTSP|||||||||||||||||||||||||||||||||||||||||||||||||||||||||||||||||||||||||1020.7||1|FM15-METAR|223|ICAO-KTSP|||||||||||||||||||||||||||||||||||||||||||MET061METAR KTSP 231935Z AUTO 27004KT 7SM CLR 02/M05 A3014 RMK AO2;||F||223|ICAO-KTSP
USW00000479|TEHACHAPI MUNI AP|2009|12|23|20|00|35.1350|-118.4392|1219.5|2.0||1|FM15-METAR|223|ICAO-KTSP|-6.0||1|FM15-METAR|223|ICAO-KTSP|||||||||||||250|N-Normal|1|FM15-METAR|223|ICAO-KTSP|2.1|N-Normal|1|FM15-METAR|223|ICAO-KTSP|||||||||||||56|Derived||FM15-METAR|223|ICAO-KTSP|||||||||||||||||||||||||||||||||||||||||||||||||||||||||||||||||||||||||1020.3||1|FM15-METAR|223|ICAO-KTSP|||||||||||||||||||||||||||||||||||||||||||MET061METAR KTSP 231955Z AUTO 25004KT 8SM CLR 02/M06 A3013 RMK AO2;||F||223|ICAO-KTSP
USW00000479|TEHACHAPI MUNI AP|2009|12|23|20|15|35.1350|-118.4392|1219.5|3.0||1|FM15-METAR|223|ICAO-KTSP|-5.0||1|FM15-METAR|223|ICAO-KTSP|||||||||||||999|C-Calm|9|FM15-METAR|223|ICAO-KTSP|0.0|C-Calm|1|FM15-METAR|223|ICAO-KTSP|||||||||||||56|Derived||FM15-METAR|223|ICAO-KTSP|||||||||||||||||||||||||||||||||||||||||||||||||||||||||||||||||||||||||1020.3||1|FM15-METAR|223|ICAO-KTSP|||||||||||||||||||||||||||||||||||||||||||MET061METAR KTSP 232015Z AUTO 00000KT 8SM CLR 03/M05 A3013 RMK AO2;||F||223|ICAO-KTSP
USW00000479|TEHACHAPI MUNI AP|2009|12|23|20|35|35.1350|-118.4392|1219.5|4.0||1|FM15-METAR|223|ICAO-KTSP|-4.0||1|FM15-METAR|223|ICAO-KTSP|||||||||||||999|C-Calm|9|FM15-METAR|223|ICAO-KTSP|0.0|C-Calm|1|FM15-METAR|223|ICAO-KTSP|||||||||||||56|Derived||FM15-METAR|223|ICAO-KTSP|||||||||||||||||||||||||||||||||||||||||||||||||||||||||||||||||||||||||1019.6||1|FM15-METAR|223|ICAO-KTSP|||||||||||||||||||||||||||||||||||||||||||MET061METAR KTSP 232035Z AUTO 00000KT 9SM CLR 04/M04 A3011 RMK AO2;||F||223|ICAO-KTSP
USW00000479|TEHACHAPI MUNI AP|2009|12|23|21|00|35.1350|-118.4392|1219.5|3.0||1|FM15-METAR|223|ICAO-KTSP|-4.0||1|FM15-METAR|223|ICAO-KTSP|||||||||||||360|N-Normal|1|FM15-METAR|223|ICAO-KTSP|2.6|N-Normal|1|FM15-METAR|223|ICAO-KTSP|||||||||||||60|Derived||FM15-METAR|223|ICAO-KTSP|||||||||||||||||||||||||||||||||||||||||||||||||||||||||||||||||||||||||1020.0||1|FM15-METAR|223|ICAO-KTSP|||||||||||||||||||||||||||||||||||||||||||MET061METAR KTSP 232055Z AUTO 36005KT 8SM CLR 03/M04 A3012 RMK AO2;||F||223|ICAO-KTSP
USW00000479|TEHACHAPI MUNI AP|2009|12|23|21|15|35.1350|-118.4392|1219.5|4.0||1|FM15-METAR|223|ICAO-KTSP|-4.0||1|FM15-METAR|223|ICAO-KTSP|||||||||||||999|C-Calm|9|FM15-METAR|223|ICAO-KTSP|0.0|C-Calm|1|FM15-METAR|223|ICAO-KTSP|||||||||||||56|Derived||FM15-METAR|223|ICAO-KTSP|||||||||||||||||||||||||||||||||||||||||||||||||||||||||||||||||||||||||1019.6||1|FM15-METAR|223|ICAO-KTSP|||||||||||||||||||||||||||||||||||||||||||MET061METAR KTSP 232115Z AUTO 00000KT 9SM CLR 04/M04 A3011 RMK AO2;||F||223|ICAO-KTSP
USW00000479|TEHACHAPI MUNI AP|2009|12|23|21|35|35.1350|-118.4392|1219.5|5.0||1|FM15-METAR|223|ICAO-KTSP|-5.0||1|FM15-METAR|223|ICAO-KTSP|||||||||||||340|N-Normal|1|FM15-METAR|223|ICAO-KTSP|1.5|N-Normal|1|FM15-METAR|223|ICAO-KTSP|||||||||||||49|Derived||FM15-METAR|223|ICAO-KTSP|||||||||||||||||||||||||||||||||||||||||||||||||||||||||||||||||||||||||1019.3||1|FM15-METAR|223|ICAO-KTSP|||||||||||||||||||||||||||||||||||||||||||MET061METAR KTSP 232135Z AUTO 34003KT 7SM CLR 05/M05 A3010 RMK AO2;||F||223|ICAO-KTSP
USW00000479|TEHACHAPI MUNI AP|2009|12|23|22|00|35.1350|-118.4392|1219.5|7.0||1|FM15-METAR|223|ICAO-KTSP|-6.0||1|FM15-METAR|223|ICAO-KTSP|||||||||||||999|C-Calm|9|FM15-METAR|223|ICAO-KTSP|0.0|C-Calm|1|FM15-METAR|223|ICAO-KTSP|||||||||||||39|Derived||FM15-METAR|223|ICAO-KTSP|||||||||||||||||||||||||||||||||||||||||||||||||||||||||||||||||||||||||1019.3||1|FM15-METAR|223|ICAO-KTSP|||||||||||||||||||||||||||||||||||||||||||MET061METAR KTSP 232155Z AUTO 00000KT 9SM CLR 07/M06 A3010 RMK AO2;||F||223|ICAO-KTSP
USW00000479|TEHACHAPI MUNI AP|2009|12|23|22|15|35.1350|-118.4392|1219.5|7.0||1|FM15-METAR|223|ICAO-KTSP|-6.0||1|FM15-METAR|223|ICAO-KTSP|||||||||||||999|C-Calm|9|FM15-METAR|223|ICAO-KTSP|0.0|C-Calm|1|FM15-METAR|223|ICAO-KTSP|||||||||||||39|Derived||FM15-METAR|223|ICAO-KTSP|||||||||||||||||||||||||||||||||||||||||||||||||||||||||||||||||||||||||1019.6||1|FM15-METAR|223|ICAO-KTSP|||||||||||||||||||||||||||||||||||||||||||MET061METAR KTSP 232215Z AUTO 00000KT 8SM CLR 07/M06 A3011 RMK AO2;||F||223|ICAO-KTSP
USW00000479|TEHACHAPI MUNI AP|2009|12|23|22|35|35.1350|-118.4392|1219.5|7.0||1|FM15-METAR|223|ICAO-KTSP|-8.0||1|FM15-METAR|223|ICAO-KTSP|||||||||||||999|C-Calm|9|FM15-METAR|223|ICAO-KTSP|0.0|C-Calm|1|FM15-METAR|223|ICAO-KTSP|||||||||||||34|Derived||FM15-METAR|223|ICAO-KTSP|||||||||||||||||||||||||||||||||||||||||||||||||||||||||||||||||||||||||1020.0||1|FM15-METAR|223|ICAO-KTSP|||||||||||||||||||||||||||||||||||||||||||MET062METAR KTSP 232235Z AUTO 00000KT 10SM CLR 07/M08 A3012 RMK AO2;||F||223|ICAO-KTSP
USW00000479|TEHACHAPI MUNI AP|2009|12|23|23|00|35.1350|-118.4392|1219.5|8.0||1|FM15-METAR|223|ICAO-KTSP|-5.0||1|FM15-METAR|223|ICAO-KTSP|||||||||||||999|C-Calm|9|FM15-METAR|223|ICAO-KTSP|0.0|C-Calm|1|FM15-METAR|223|ICAO-KTSP|||||||||||||40|Derived||FM15-METAR|223|ICAO-KTSP|||||||||||||||||||||||||||||||||||||||||||||||||||||||||||||||||||||||||1019.6||1|FM15-METAR|223|ICAO-KTSP|||||||||||||||||||||||||||||||||||||||||||MET061METAR KTSP 232255Z AUTO 00000KT 9SM CLR 08/M05 A3011 RMK AO2;||F||223|ICAO-KTSP
USW00000479|TEHACHAPI MUNI AP|2009|12|23|23|15|35.1350|-118.4392|1219.5|8.0||1|FM15-METAR|223|ICAO-KTSP|-5.0||1|FM15-METAR|223|ICAO-KTSP|||||||||||||999|C-Calm|9|FM15-METAR|223|ICAO-KTSP|0.0|C-Calm|1|FM15-METAR|223|ICAO-KTSP|||||||||||||40|Derived||FM15-METAR|223|ICAO-KTSP|||||||||||||||||||||||||||||||||||||||||||||||||||||||||||||||||||||||||1019.6||1|FM15-METAR|223|ICAO-KTSP|||||||||||||||||||||||||||||||||||||||||||MET062METAR KTSP 232315Z AUTO 00000KT 10SM CLR 08/M05 A3011 RMK AO2;||F||223|ICAO-KTSP
USW00000479|TEHACHAPI MUNI AP|2009|12|23|23|35|35.1350|-118.4392|1219.5|8.0||1|FM15-METAR|223|ICAO-KTSP|-5.0||1|FM15-METAR|223|ICAO-KTSP|||||||||||||999|C-Calm|9|FM15-METAR|223|ICAO-KTSP|0.0|C-Calm|1|FM15-METAR|223|ICAO-KTSP|||||||||||||40|Derived||FM15-METAR|223|ICAO-KTSP|||||||||||||||||||||||||||||||||||||||||||||||||||||||||||||||||||||||||1019.6||1|FM15-METAR|223|ICAO-KTSP|||||||||||||||||||||||||||||||||||||||||||MET061METAR KTSP 232335Z AUTO 00000KT 9SM CLR 08/M05 A3011 RMK AO2;||F||223|ICAO-KTSP
USW00000479|TEHACHAPI MUNI AP|2009|12|24|00|00|35.1350|-118.4392|1219.5|8.0||1|FM15-METAR|223|ICAO-KTSP|-4.0||1|FM15-METAR|223|ICAO-KTSP|||||||||||||999|C-Calm|9|FM15-METAR|223|ICAO-KTSP|0.0|C-Calm|1|FM15-METAR|223|ICAO-KTSP|||||||||||||43|Derived||FM15-METAR|223|ICAO-KTSP|||||||||||||||||||||||||||||||||||||||||||||||||||||||||||||||||||||||||1019.6||1|FM15-METAR|223|ICAO-KTSP|||||||||||||||||||||||||||||||||||||||||||MET061METAR KTSP 232355Z AUTO 00000KT 9SM CLR 08/M04 A3011 RMK AO2;||F||223|ICAO-KTSP
USW00000479|TEHACHAPI MUNI AP|2009|12|24|00|15|35.1350|-118.4392|1219.5|8.0||1|FM15-METAR|223|ICAO-KTSP|-3.0||1|FM15-METAR|223|ICAO-KTSP|||||||||||||999|C-Calm|9|FM15-METAR|223|ICAO-KTSP|0.0|C-Calm|1|FM15-METAR|223|ICAO-KTSP|||||||||||||46|Derived||FM15-METAR|223|ICAO-KTSP|||||||||||||||||||||||||||||||||||||||||||||||||||||||||||||||||||||||||1019.6||1|FM15-METAR|223|ICAO-KTSP|||||||||||||||||||||||||||||||||||||||||||MET061METAR KTSP 240015Z AUTO 00000KT 9SM CLR 08/M03 A3011 RMK AO2;||F||223|ICAO-KTSP
USW00000479|TEHACHAPI MUNI AP|2009|12|24|00|35|35.1350|-118.4392|1219.5|5.0||1|FM15-METAR|223|ICAO-KTSP|-3.0||1|FM15-METAR|223|ICAO-KTSP|||||||||||||999|C-Calm|9|FM15-METAR|223|ICAO-KTSP|0.0|C-Calm|1|FM15-METAR|223|ICAO-KTSP|||||||||||||57|Derived||FM15-METAR|223|ICAO-KTSP|||||||||||||||||||||||||||||||||||||||||||||||||||||||||||||||||||||||||1019.3||1|FM15-METAR|223|ICAO-KTSP|||||||||||||||||||||||||||||||||||||||||||MET062METAR KTSP 240035Z AUTO 00000KT 10SM CLR 05/M03 A3010 RMK AO2;||F||223|ICAO-KTSP
USW00000479|TEHACHAPI MUNI AP|2009|12|24|01|00|35.1350|-118.4392|1219.5|2.0||1|FM15-METAR|223|ICAO-KTSP|-1.0||1|FM15-METAR|223|ICAO-KTSP|||||||||||||320|N-Normal|1|FM15-METAR|223|ICAO-KTSP|4.6|N-Normal|1|FM15-METAR|223|ICAO-KTSP|||||||||||||81|Derived||FM15-METAR|223|ICAO-KTSP|||||||||||||||||||||||||||||||||||||||||||||||||||||||||||||||||||||||||1020.0||1|FM15-METAR|223|ICAO-KTSP|||||||||||||||||||||||||||||||||||||||||||MET062METAR KTSP 240055Z AUTO 32009KT 10SM CLR 02/M01 A3012 RMK AO2;||F||223|ICAO-KTSP
USW00000479|TEHACHAPI MUNI AP|2009|12|24|01|15|35.1350|-118.4392|1219.5|1.0||1|FM15-METAR|223|ICAO-KTSP|-1.0||1|FM15-METAR|223|ICAO-KTSP|||||||||||||310|N-Normal|1|FM15-METAR|223|ICAO-KTSP|4.6|N-Normal|1|FM15-METAR|223|ICAO-KTSP|||||||||||||87|Derived||FM15-METAR|223|ICAO-KTSP|||||||||||||||||||||||||||||||||||||||||||||||||||||||||||||||||||||||||1020.3||1|FM15-METAR|223|ICAO-KTSP|||||||||||||||||||||||||||||||||||||||||||MET062METAR KTSP 240115Z AUTO 31009KT 10SM CLR 01/M01 A3013 RMK AO2;||F||223|ICAO-KTSP
USW00000479|TEHACHAPI MUNI AP|2009|12|24|01|35|35.1350|-118.4392|1219.5|1.0||1|FM15-METAR|223|ICAO-KTSP|-2.0||1|FM15-METAR|223|ICAO-KTSP|||||||||||||999|C-Calm|9|FM15-METAR|223|ICAO-KTSP|0.0|C-Calm|1|FM15-METAR|223|ICAO-KTSP|||||||||||||81|Derived||FM15-METAR|223|ICAO-KTSP|||||||||||||||||||||||||||||||||||||||||||||||||||||||||||||||||||||||||1020.3||1|FM15-METAR|223|ICAO-KTSP|||||||||||||||||||||||||||||||||||||||||||MET062METAR KTSP 240135Z AUTO 00000KT 10SM CLR 01/M02 A3013 RMK AO2;||F||223|ICAO-KTSP
USW00000479|TEHACHAPI MUNI AP|2009|12|24|02|00|35.1350|-118.4392|1219.5|0.0||1|FM15-METAR|223|ICAO-KTSP|-2.0||1|FM15-METAR|223|ICAO-KTSP|||||||||||||999|C-Calm|9|FM15-METAR|223|ICAO-KTSP|0.0|C-Calm|1|FM15-METAR|223|ICAO-KTSP|||||||||||||87|Derived||FM15-METAR|223|ICAO-KTSP|||||||||||||||||||||||||||||||||||||||||||||||||||||||||||||||||||||||||1020.3||1|FM15-METAR|223|ICAO-KTSP|||||||||||||||||||||||||||||||||||||||||||MET062METAR KTSP 240155Z AUTO 00000KT 10SM CLR 00/M02 A3013 RMK AO2;||F||223|ICAO-KTSP
USW00000479|TEHACHAPI MUNI AP|2009|12|24|02|15|35.1350|-118.4392|1219.5|0.0||1|FM15-METAR|223|ICAO-KTSP|-2.0||1|FM15-METAR|223|ICAO-KTSP|||||||||||||999|C-Calm|9|FM15-METAR|223|ICAO-KTSP|0.0|C-Calm|1|FM15-METAR|223|ICAO-KTSP|||||||||||||87|Derived||FM15-METAR|223|ICAO-KTSP|||||||||||||||||||||||||||||||||||||||||||||||||||||||||||||||||||||||||1020.7||1|FM15-METAR|223|ICAO-KTSP|||||||||||||||||||||||||||||||||||||||||||MET062METAR KTSP 240215Z AUTO 00000KT 10SM CLR 00/M02 A3014 RMK AO2;||F||223|ICAO-KTSP
USW00000479|TEHACHAPI MUNI AP|2009|12|24|02|35|35.1350|-118.4392|1219.5|0.0||1|FM15-METAR|223|ICAO-KTSP|-2.0||1|FM15-METAR|223|ICAO-KTSP|||||||||||||999|C-Calm|9|FM15-METAR|223|ICAO-KTSP|0.0|C-Calm|1|FM15-METAR|223|ICAO-KTSP|||||||||||||87|Derived||FM15-METAR|223|ICAO-KTSP|||||||||||||||||||||||||||||||||||||||||||||||||||||||||||||||||||||||||1021.0||1|FM15-METAR|223|ICAO-KTSP|||||||||||||||||||||||||||||||||||||||||||MET062METAR KTSP 240235Z AUTO 00000KT 10SM CLR 00/M02 A3015 RMK AO2;||F||223|ICAO-KTSP
USW00000479|TEHACHAPI MUNI AP|2009|12|24|03|00|35.1350|-118.4392|1219.5|0.0||1|FM15-METAR|223|ICAO-KTSP|-3.0||1|FM15-METAR|223|ICAO-KTSP|||||||||||||999|C-Calm|9|FM15-METAR|223|ICAO-KTSP|0.0|C-Calm|1|FM15-METAR|223|ICAO-KTSP|||||||||||||80|Derived||FM15-METAR|223|ICAO-KTSP|||||||||||||||||||||||||||||||||||||||||||||||||||||||||||||||||||||||||1021.3||1|FM15-METAR|223|ICAO-KTSP|||||||||||||||||||||||||||||||||||||||||||MET062METAR KTSP 240255Z AUTO 00000KT 10SM CLR 00/M03 A3016 RMK AO2;||F||223|ICAO-KTSP
USW00000479|TEHACHAPI MUNI AP|2009|12|24|03|15|35.1350|-118.4392|1219.5|-1.0||1|FM15-METAR|223|ICAO-KTSP|-3.0||1|FM15-METAR|223|ICAO-KTSP|||||||||||||999|C-Calm|9|FM15-METAR|223|ICAO-KTSP|0.0|C-Calm|1|FM15-METAR|223|ICAO-KTSP|||||||||||||86|Derived||FM15-METAR|223|ICAO-KTSP|||||||||||||||||||||||||||||||||||||||||||||||||||||||||||||||||||||||||1021.3||1|FM15-METAR|223|ICAO-KTSP|||||||||||||||||||||||||||||||||||||||||||MET062METAR KTSP 240315Z AUTO 00000KT 9SM CLR M01/M03 A3016 RMK AO2;||F||223|ICAO-KTSP
USW00000479|TEHACHAPI MUNI AP|2009|12|24|03|35|35.1350|-118.4392|1219.5|-2.0||1|FM15-METAR|223|ICAO-KTSP|-3.0||1|FM15-METAR|223|ICAO-KTSP|||||||||||||130|N-Normal|1|FM15-METAR|223|ICAO-KTSP|2.6|N-Normal|1|FM15-METAR|223|ICAO-KTSP|||||||||||||93|Derived||FM15-METAR|223|ICAO-KTSP|||||||||||||||||||||||||||||||||||||||||||||||||||||||||||||||||||||||||1021.0||1|FM15-METAR|223|ICAO-KTSP|||||||||||||||||||||||||||||||||||||||||||MET063METAR KTSP 240335Z AUTO 13005KT 10SM CLR M02/M03 A3015 RMK AO2;||F||223|ICAO-KTSP
USW00000479|TEHACHAPI MUNI AP|2009|12|24|04|00|35.1350|-118.4392|1219.5|-1.0||1|FM15-METAR|223|ICAO-KTSP|-3.0||1|FM15-METAR|223|ICAO-KTSP|||||||||||||140|N-Normal|1|FM15-METAR|223|ICAO-KTSP|1.5|N-Normal|1|FM15-METAR|223|ICAO-KTSP|||||||||||||86|Derived||FM15-METAR|223|ICAO-KTSP|||||||||||||||||||||||||||||||||||||||||||||||||||||||||||||||||||||||||1021.0||1|FM15-METAR|223|ICAO-KTSP|||||||||||||||||||||||||||||||||||||||||||MET062METAR KTSP 240355Z AUTO 14003KT 9SM CLR M01/M03 A3015 RMK AO2;||F||223|ICAO-KTSP
USW00000479|TEHACHAPI MUNI AP|2009|12|24|04|15|35.1350|-118.4392|1219.5|-2.0||1|FM15-METAR|223|ICAO-KTSP|-4.0||1|FM15-METAR|223|ICAO-KTSP|||||||||||||110|N-Normal|1|FM15-METAR|223|ICAO-KTSP|3.6|N-Normal|1|FM15-METAR|223|ICAO-KTSP|||||||||||||86|Derived||FM15-METAR|223|ICAO-KTSP|||||||||||||||||||||||||||||||||||||||||||||||||||||||||||||||||||||||||1020.7||1|FM15-METAR|223|ICAO-KTSP|||||||||||||||||||||||||||||||||||||||||||MET063METAR KTSP 240415Z AUTO 11007KT 10SM CLR M02/M04 A3014 RMK AO2;||F||223|ICAO-KTSP
USW00000479|TEHACHAPI MUNI AP|2009|12|24|04|35|35.1350|-118.4392|1219.5|-1.0||1|FM15-METAR|223|ICAO-KTSP|-3.0||1|FM15-METAR|223|ICAO-KTSP|||||||||||||999|C-Calm|9|FM15-METAR|223|ICAO-KTSP|0.0|C-Calm|1|FM15-METAR|223|ICAO-KTSP|||||||||||||86|Derived||FM15-METAR|223|ICAO-KTSP|||||||||||||||||||||||||||||||||||||||||||||||||||||||||||||||||||||||||1021.0||1|FM15-METAR|223|ICAO-KTSP|||||||||||||||||||||||||||||||||||||||||||MET063METAR KTSP 240435Z AUTO 00000KT 10SM CLR M01/M03 A3015 RMK AO2;||F||223|ICAO-KTSP
USW00000479|TEHACHAPI MUNI AP|2009|12|24|05|00|35.1350|-118.4392|1219.5|-2.0||1|FM15-METAR|223|ICAO-KTSP|-3.0||1|FM15-METAR|223|ICAO-KTSP|||||||||||||999|C-Calm|9|FM15-METAR|223|ICAO-KTSP|0.0|C-Calm|1|FM15-METAR|223|ICAO-KTSP|||||||||||||93|Derived||FM15-METAR|223|ICAO-KTSP|||||||||||||||||||||||||||||||||||||||||||||||||||||||||||||||||||||||||1021.7||1|FM15-METAR|223|ICAO-KTSP|||||||||||||||||||||||||||||||||||||||||||MET063METAR KTSP 240455Z AUTO 00000KT 10SM CLR M02/M03 A3017 RMK AO2;||F||223|ICAO-KTSP
USW00000479|TEHACHAPI MUNI AP|2009|12|24|05|15|35.1350|-118.4392|1219.5|0.0||1|FM15-METAR|223|ICAO-KTSP|-3.0||1|FM15-METAR|223|ICAO-KTSP|||||||||||||999|C-Calm|9|FM15-METAR|223|ICAO-KTSP|0.0|C-Calm|1|FM15-METAR|223|ICAO-KTSP|||||||||||||80|Derived||FM15-METAR|223|ICAO-KTSP|||||||||||||||||||||||||||||||||||||||||||||||||||||||||||||||||||||||||1021.7||1|FM15-METAR|223|ICAO-KTSP|||||||||||||||||||||||||||||||||||||||||||MET062METAR KTSP 240515Z AUTO 00000KT 10SM CLR 00/M03 A3017 RMK AO2;||F||223|ICAO-KTSP
USW00000479|TEHACHAPI MUNI AP|2009|12|24|05|35|35.1350|-118.4392|1219.5|-1.0||1|FM15-METAR|223|ICAO-KTSP|-4.0||1|FM15-METAR|223|ICAO-KTSP|||||||||||||999|C-Calm|9|FM15-METAR|223|ICAO-KTSP|0.0|C-Calm|1|FM15-METAR|223|ICAO-KTSP|||||||||||||80|Derived||FM15-METAR|223|ICAO-KTSP|||||||||||||||||||||||||||||||||||||||||||||||||||||||||||||||||||||||||1021.7||1|FM15-METAR|223|ICAO-KTSP|||||||||||||||||||||||||||||||||||||||||||MET063METAR KTSP 240535Z AUTO 00000KT 10SM CLR M01/M04 A3017 RMK AO2;||F||223|ICAO-KTSP
USW00000479|TEHACHAPI MUNI AP|2009|12|24|06|00|35.1350|-118.4392|1219.5|-2.0||1|FM15-METAR|223|ICAO-KTSP|-4.0||1|FM15-METAR|223|ICAO-KTSP|||||||||||||170|N-Normal|1|FM15-METAR|223|ICAO-KTSP|3.1|N-Normal|1|FM15-METAR|223|ICAO-KTSP|||||||||||||86|Derived||FM15-METAR|223|ICAO-KTSP|||||||||||||||||||||||||||||||||||||||||||||||||||||||||||||||||||||||||1022.0||1|FM15-METAR|223|ICAO-KTSP|||||||||||||||||||||||||||||||||||||||||||MET063METAR KTSP 240555Z AUTO 17006KT 10SM CLR M02/M04 A3018 RMK AO2;||F||223|ICAO-KTSP
USW00000479|TEHACHAPI MUNI AP|2009|12|24|06|15|35.1350|-118.4392|1219.5|-2.0||1|FM15-METAR|223|ICAO-KTSP|-4.0||1|FM15-METAR|223|ICAO-KTSP|||||||||||||999|C-Calm|9|FM15-METAR|223|ICAO-KTSP|0.0|C-Calm|1|FM15-METAR|223|ICAO-KTSP|||||||||||||86|Derived||FM15-METAR|223|ICAO-KTSP|||||||||||||||||||||||||||||||||||||||||||||||||||||||||||||||||||||||||1022.0||1|FM15-METAR|223|ICAO-KTSP|||||||||||||||||||||||||||||||||||||||||||MET062METAR KTSP 240615Z AUTO 00000KT 8SM CLR M02/M04 A3018 RMK AO2;||F||223|ICAO-KTSP
USW00000479|TEHACHAPI MUNI AP|2009|12|24|06|35|35.1350|-118.4392|1219.5|-2.0||1|FM15-METAR|223|ICAO-KTSP|-4.0||1|FM15-METAR|223|ICAO-KTSP|||||||||||||999|C-Calm|9|FM15-METAR|223|ICAO-KTSP|0.0|C-Calm|1|FM15-METAR|223|ICAO-KTSP|||||||||||||86|Derived||FM15-METAR|223|ICAO-KTSP|||||||||||||||||||||||||||||||||||||||||||||||||||||||||||||||||||||||||1022.4||1|FM15-METAR|223|ICAO-KTSP|||||||||||||||||||||||||||||||||||||||||||MET063METAR KTSP 240635Z AUTO 00000KT 10SM CLR M02/M04 A3019 RMK AO2;||F||223|ICAO-KTSP
USW00000479|TEHACHAPI MUNI AP|2009|12|24|07|00|35.1350|-118.4392|1219.5|-2.0||1|FM15-METAR|223|ICAO-KTSP|-4.0||1|FM15-METAR|223|ICAO-KTSP|||||||||||||999|C-Calm|9|FM15-METAR|223|ICAO-KTSP|0.0|C-Calm|1|FM15-METAR|223|ICAO-KTSP|||||||||||||86|Derived||FM15-METAR|223|ICAO-KTSP|||||||||||||||||||||||||||||||||||||||||||||||||||||||||||||||||||||||||1022.0||1|FM15-METAR|223|ICAO-KTSP|||||||||||||||||||||||||||||||||||||||||||MET063METAR KTSP 240655Z AUTO 00000KT 10SM CLR M02/M04 A3018 RMK AO2;||F||223|ICAO-KTSP
USW00000479|TEHACHAPI MUNI AP|2009|12|24|07|15|35.1350|-118.4392|1219.5|-2.0||1|FM15-METAR|223|ICAO-KTSP|-5.0||1|FM15-METAR|223|ICAO-KTSP|||||||||||||999|C-Calm|9|FM15-METAR|223|ICAO-KTSP|0.0|C-Calm|1|FM15-METAR|223|ICAO-KTSP|||||||||||||80|Derived||FM15-METAR|223|ICAO-KTSP|||||||||||||||||||||||||||||||||||||||||||||||||||||||||||||||||||||||||1022.0||1|FM15-METAR|223|ICAO-KTSP|||||||||||||||||||||||||||||||||||||||||||MET063METAR KTSP 240715Z AUTO 00000KT 10SM CLR M02/M05 A3018 RMK AO2;||F||223|ICAO-KTSP
USW00000479|TEHACHAPI MUNI AP|2009|12|24|07|35|35.1350|-118.4392|1219.5|-1.0||1|FM15-METAR|223|ICAO-KTSP|-4.0||1|FM15-METAR|223|ICAO-KTSP|||||||||||||100|N-Normal|1|FM15-METAR|223|ICAO-KTSP|2.6|N-Normal|1|FM15-METAR|223|ICAO-KTSP|||||||||||||80|Derived||FM15-METAR|223|ICAO-KTSP|||||||||||||||||||||||||||||||||||||||||||||||||||||||||||||||||||||||||1021.7||1|FM15-METAR|223|ICAO-KTSP|||||||||||||||||||||||||||||||||||||||||||MET063METAR KTSP 240735Z AUTO 10005KT 10SM CLR M01/M04 A3017 RMK AO2;||F||223|ICAO-KTSP
USW00000479|TEHACHAPI MUNI AP|2009|12|24|08|00|35.1350|-118.4392|1219.5|-1.0||1|FM15-METAR|223|ICAO-KTSP|-5.0||1|FM15-METAR|223|ICAO-KTSP|||||||||||||120|N-Normal|1|FM15-METAR|223|ICAO-KTSP|5.7|N-Normal|1|FM15-METAR|223|ICAO-KTSP|||||||||||||75|Derived||FM15-METAR|223|ICAO-KTSP|||||||||||||||||||||||||||||||||||||||||||||||||||||||||||||||||||||||||1021.7||1|FM15-METAR|223|ICAO-KTSP|||||||||||||||||||||||||||||||||||||||||||MET063METAR KTSP 240755Z AUTO 12011KT 10SM CLR M01/M05 A3017 RMK AO2;||F||223|ICAO-KTSP
USW00000479|TEHACHAPI MUNI AP|2009|12|24|08|15|35.1350|-118.4392|1219.5|-1.0||1|FM15-METAR|223|ICAO-KTSP|-5.0||1|FM15-METAR|223|ICAO-KTSP|||||||||||||120|N-Normal|1|FM15-METAR|223|ICAO-KTSP|5.1|N-Normal|1|FM15-METAR|223|ICAO-KTSP|||||||||||||75|Derived||FM15-METAR|223|ICAO-KTSP|||||||||||||||||||||||||||||||||||||||||||||||||||||||||||||||||||||||||1021.3||1|FM15-METAR|223|ICAO-KTSP|||||||||||||||||||||||||||||||||||||||||||MET063METAR KTSP 240815Z AUTO 12010KT 10SM CLR M01/M05 A3016 RMK AO2;||F||223|ICAO-KTSP
USW00000479|TEHACHAPI MUNI AP|2009|12|24|08|35|35.1350|-118.4392|1219.5|-1.0||1|FM15-METAR|223|ICAO-KTSP|-5.0||1|FM15-METAR|223|ICAO-KTSP|||||||||||||110|N-Normal|1|FM15-METAR|223|ICAO-KTSP|4.1|N-Normal|1|FM15-METAR|223|ICAO-KTSP|||||||||||||75|Derived||FM15-METAR|223|ICAO-KTSP|||||||||||||||||||||||||||||||||||||||||||||||||||||||||||||||||||||||||1021.3||1|FM15-METAR|223|ICAO-KTSP|||||||||||||||||||||||||||||||||||||||||||MET063METAR KTSP 240835Z AUTO 11008KT 10SM CLR M01/M05 A3016 RMK AO2;||F||223|ICAO-KTSP
USW00000479|TEHACHAPI MUNI AP|2009|12|24|09|00|35.1350|-118.4392|1219.5|0.0||1|FM15-METAR|223|ICAO-KTSP|-5.0||1|FM15-METAR|223|ICAO-KTSP|||||||||||||120|N-Normal|1|FM15-METAR|223|ICAO-KTSP|4.1|N-Normal|1|FM15-METAR|223|ICAO-KTSP|||||||||||||69|Derived||FM15-METAR|223|ICAO-KTSP|||||||||||||||||||||||||||||||||||||||||||||||||||||||||||||||||||||||||1021.7||1|FM15-METAR|223|ICAO-KTSP|||||||||||||||||||||||||||||||||||||||||||MET062METAR KTSP 240855Z AUTO 12008KT 10SM CLR 00/M05 A3017 RMK AO2;||F||223|ICAO-KTSP
USW00000479|TEHACHAPI MUNI AP|2009|12|24|09|15|35.1350|-118.4392|1219.5|0.0||1|FM15-METAR|223|ICAO-KTSP|-6.0||1|FM15-METAR|223|ICAO-KTSP|||||||||||||110|N-Normal|1|FM15-METAR|223|ICAO-KTSP|3.6|N-Normal|1|FM15-METAR|223|ICAO-KTSP|||||||||||||64|Derived||FM15-METAR|223|ICAO-KTSP|||||||||||||||||||||||||||||||||||||||||||||||||||||||||||||||||||||||||1021.7||1|FM15-METAR|223|ICAO-KTSP|||||||||||||||||||||||||||||||||||||||||||MET058METAR KTSP 240915Z AUTO 11007KT 10SM 00/M06 A3017 RMK AO2;||F||223|ICAO-KTSP
USW00000479|TEHACHAPI MUNI AP|2009|12|24|09|35|35.1350|-118.4392|1219.5|2.0||1|FM15-METAR|223|ICAO-KTSP|-7.0||1|FM15-METAR|223|ICAO-KTSP|||||||||||||100|N-Normal|1|FM15-METAR|223|ICAO-KTSP|5.1|N-Normal|1|FM15-METAR|223|ICAO-KTSP|||||||||||||52|Derived||FM15-METAR|223|ICAO-KTSP|||||||||||||||||||||||||||||||||||||||||||||||||||||||||||||||||||||||||1021.7||1|FM15-METAR|223|ICAO-KTSP|||||||||||||||||||||||||||||||||||||||||||MET062METAR KTSP 240935Z AUTO 10010KT 10SM CLR 02/M07 A3017 RMK AO2;||F||223|ICAO-KTSP
USW00000479|TEHACHAPI MUNI AP|2009|12|24|10|00|35.1350|-118.4392|1219.5|||||||||||||||||||||||||||||||||||||||||||||||||||||||||||||||||||||||||||||||||||||||||||||||||||||||||||||||||||||||||||||||||||||||||||||||||||||||||||||||||||||||||||||||MET054METAR KTSP 240955Z AUTO RMK AO2 PWINO PNO FZRANO TSNO;||F||223|ICAO-KTSP
USW00000479|TEHACHAPI MUNI AP|2009|12|24|10|15|35.1350|-118.4392|1219.5|||||||||||||||||||||||||||||||||||||||||||||||||||||||||||||||||||||||||||||||||||||||||||||||||||||||||||||||||||||||||||||||||||||||||||||||||||||||||||||||||||||||||||||||MET054METAR KTSP 241015Z AUTO RMK AO2 PWINO PNO FZRANO TSNO;||F||223|ICAO-KTSP
USW00000479|TEHACHAPI MUNI AP|2009|12|24|10|35|35.1350|-118.4392|1219.5|||||||||||||||||||||||||||||||||||||||||||||||||||||||||||||||||||||||||||||||||||||||||||||||||||||||||||||||||||||||||||||||||||||||||||||||||||||||||||||||||||||||||||||||MET054METAR KTSP 241035Z AUTO RMK AO2 PWINO PNO FZRANO TSNO;||F||223|ICAO-KTSP
USW00000479|TEHACHAPI MUNI AP|2009|12|24|11|00|35.1350|-118.4392|1219.5|||||||||||||||||||||||||||||||||||||||||||||||||||||||||||||||||||||||||||||||||||||||||||||||||||||||||||||||||||||||||||||||||||||||||||||||||||||||||||||||||||||||||||||||MET054METAR KTSP 241055Z AUTO RMK AO2 PWINO PNO FZRANO TSNO;||F||223|ICAO-KTSP
USW00000479|TEHACHAPI MUNI AP|2009|12|24|11|15|35.1350|-118.4392|1219.5|||||||||||||||||||||||||||||||||||||||||||||||||||||||||||||||||||||||||||||||||||||||||||||||||||||||||||||||||||||||||||||||||||||||||||||||||||||||||||||||||||||||||||||||MET054METAR KTSP 241115Z AUTO RMK AO2 PWINO PNO FZRANO TSNO;||F||223|ICAO-KTSP
USW00000479|TEHACHAPI MUNI AP|2009|12|24|11|35|35.1350|-118.4392|1219.5|||||||||||||||||||||||||||||||||||||||||||||||||||||||||||||||||||||||||||||||||||||||||||||||||||||||||||||||||||||||||||||||||||||||||||||||||||||||||||||||||||||||||||||||MET054METAR KTSP 241135Z AUTO RMK AO2 PWINO PNO FZRANO TSNO;||F||223|ICAO-KTSP
USW00000479|TEHACHAPI MUNI AP|2009|12|24|12|00|35.1350|-118.4392|1219.5|||||||||||||||||||||||||||||||||||||||||||||||||||||||||||||||||||||||||||||||||||||||||||||||||||||||||||||||||||||||||||||||||||||||||||||||||||||||||||||||||||||||||||||||MET054METAR KTSP 241155Z AUTO RMK AO2 PWINO PNO FZRANO TSNO;||F||223|ICAO-KTSP
USW00000479|TEHACHAPI MUNI AP|2009|12|24|12|15|35.1350|-118.4392|1219.5|||||||||||||||||||||||||||||||||||||||||||||||||||||||||||||||||||||||||||||||||||||||||||||||||||||||||||||||||||||||||||||||||||||||||||||||||||||||||||||||||||||||||||||||MET054METAR KTSP 241215Z AUTO RMK AO2 PWINO PNO FZRANO TSNO;||F||223|ICAO-KTSP
USW00000479|TEHACHAPI MUNI AP|2009|12|24|12|35|35.1350|-118.4392|1219.5|||||||||||||||||||||||||||||||||||||||||||||||||||||||||||||||||||||||||||||||||||||||||||||||||||||||||||||||||||||||||||||||||||||||||||||||||||||||||||||||||||||||||||||||MET054METAR KTSP 241235Z AUTO RMK AO2 PWINO PNO FZRANO TSNO;||F||223|ICAO-KTSP
USW00000479|TEHACHAPI MUNI AP|2009|12|24|13|00|35.1350|-118.4392|1219.5|||||||||||||||||||||||||||||||||||||||||||||||||||||||||||||||||||||||||||||||||||||||||||||||||||||||||||||||||||||||||||||||||||||||||||||||||||||||||||||||||||||||||||||||MET054METAR KTSP 241255Z AUTO RMK AO2 PWINO PNO FZRANO TSNO;||F||223|ICAO-KTSP
USW00000479|TEHACHAPI MUNI AP|2009|12|24|13|15|35.1350|-118.4392|1219.5|||||||||||||||||||||||||||||||||||||||||||||||||||||||||||||||||||||||||||||||||||||||||||||||||||||||||||||||||||||||||||||||||||||||||||||||||||||||||||||||||||||||||||||||MET054METAR KTSP 241315Z AUTO RMK AO2 PWINO PNO FZRANO TSNO;||F||223|ICAO-KTSP
USW00000479|TEHACHAPI MUNI AP|2009|12|24|13|35|35.1350|-118.4392|1219.5|||||||||||||||||||||||||||||||||||||||||||||||||||||||||||||||||||||||||||||||||||||||||||||||||||||||||||||||||||||||||||||||||||||||||||||||||||||||||||||||||||||||||||||||MET054METAR KTSP 241335Z AUTO RMK AO2 PWINO PNO FZRANO TSNO;||F||223|ICAO-KTSP
USW00000479|TEHACHAPI MUNI AP|2009|12|24|14|00|35.1350|-118.4392|1219.5|||||||||||||||||||||||||||||||||||||||||||||||||||||||||||||||||||||||||||||||||||||||||||||||||||||||||||||||||||||||||||||||||||||||||||||||||||||||||||||||||||||||||||||||MET054METAR KTSP 241355Z AUTO RMK AO2 PWINO PNO FZRANO TSNO;||F||223|ICAO-KTSP
USW00000479|TEHACHAPI MUNI AP|2009|12|24|14|15|35.1350|-118.4392|1219.5|||||||||||||||||||||||||||||||||||||||||||||||||||||||||||||||||||||||||||||||||||||||||||||||||||||||||||||||||||||||||||||||||||||||||||||||||||||||||||||||||||||||||||||||MET054METAR KTSP 241415Z AUTO RMK AO2 PWINO PNO FZRANO TSNO;||F||223|ICAO-KTSP
USW00000479|TEHACHAPI MUNI AP|2009|12|24|14|35|35.1350|-118.4392|1219.5|4.0||1|FM15-METAR|223|ICAO-KTSP|-9.0||1|FM15-METAR|223|ICAO-KTSP|||||||||||||110|N-Normal|1|FM15-METAR|223|ICAO-KTSP|5.1|N-Normal|1|FM15-METAR|223|ICAO-KTSP|||||||||||||39|Derived||FM15-METAR|223|ICAO-KTSP|||||||||||||||||||||||||||||||||||||||||||||||||||||||||||||||||||||||||1022.4||1|FM15-METAR|223|ICAO-KTSP|||||||||||||||||||||||||||||||||||||||||||MET058METAR KTSP 241435Z AUTO 11010KT 10SM 04/M09 A3019 RMK AO2;||F||223|ICAO-KTSP
USW00000479|TEHACHAPI MUNI AP|2009|12|24|15|00|35.1350|-118.4392|1219.5|4.0||1|FM15-METAR|223|ICAO-KTSP|-10.0||1|FM15-METAR|223|ICAO-KTSP|||||||||||||110|N-Normal|1|FM15-METAR|223|ICAO-KTSP|6.7|N-Normal|1|FM15-METAR|223|ICAO-KTSP|||||||||||||36|Derived||FM15-METAR|223|ICAO-KTSP|||||||||||||||||||||||||||||||||||||||||||||||||||||||||||||||||||||||||1022.7||1|FM15-METAR|223|ICAO-KTSP|||||||||||||||||||||||||||||||||||||||||||MET062METAR KTSP 241455Z AUTO 11013KT 10SM CLR 04/M10 A3020 RMK AO2;||F||223|ICAO-KTSP
USW00000479|TEHACHAPI MUNI AP|2009|12|24|15|15|35.1350|-118.4392|1219.5|4.0||1|FM15-METAR|223|ICAO-KTSP|-10.0||1|FM15-METAR|223|ICAO-KTSP|||||||||||||100|N-Normal|1|FM15-METAR|223|ICAO-KTSP|6.7|N-Normal|1|FM15-METAR|223|ICAO-KTSP|||||||||||||36|Derived||FM15-METAR|223|ICAO-KTSP|||||||||||||||||||||||||||||||||||||||||||||||||||||||||||||||||||||||||1022.7||1|FM15-METAR|223|ICAO-KTSP|||||||||||||||||||||||||||||||||||||||||||MET062METAR KTSP 241515Z AUTO 10013KT 10SM CLR 04/M10 A3020 RMK AO2;||F||223|ICAO-KTSP
USW00000479|TEHACHAPI MUNI AP|2009|12|24|15|35|35.1350|-118.4392|1219.5|4.0||1|FM15-METAR|223|ICAO-KTSP|-9.0||1|FM15-METAR|223|ICAO-KTSP|||||||||||||100|N-Normal|1|FM15-METAR|223|ICAO-KTSP|5.7|N-Normal|1|FM15-METAR|223|ICAO-KTSP|||||||||||||39|Derived||FM15-METAR|223|ICAO-KTSP|||||||||||||||||||||||||||||||||||||||||||||||||||||||||||||||||||||||||1022.7||1|FM15-METAR|223|ICAO-KTSP|||||||||||||||||||||||||||||||||||||||||||MET062METAR KTSP 241535Z AUTO 10011KT 10SM CLR 04/M09 A3020 RMK AO2;||F||223|ICAO-KTSP
USW00000479|TEHACHAPI MUNI AP|2009|12|24|16|00|35.1350|-118.4392|1219.5|4.0||1|FM15-METAR|223|ICAO-KTSP|-9.0||1|FM15-METAR|223|ICAO-KTSP|||||||||||||100|N-Normal|1|FM15-METAR|223|ICAO-KTSP|6.7|N-Normal|1|FM15-METAR|223|ICAO-KTSP|||||||||||||39|Derived||FM15-METAR|223|ICAO-KTSP|||||||||||||||||||||||||||||||||||||||||||||||||||||||||||||||||||||||||1023.0||1|FM15-METAR|223|ICAO-KTSP|||||||||||||||||||||||||||||||||||||||||||MET062METAR KTSP 241555Z AUTO 10013KT 10SM CLR 04/M09 A3021 RMK AO2;||F||223|ICAO-KTSP
USW00000479|TEHACHAPI MUNI AP|2009|12|24|16|15|35.1350|-118.4392|1219.5|4.0||1|FM15-METAR|223|ICAO-KTSP|-8.0||1|FM15-METAR|223|ICAO-KTSP|||||||||||||130|N-Normal|1|FM15-METAR|223|ICAO-KTSP|6.7|N-Normal|1|FM15-METAR|223|ICAO-KTSP|||||||||||||42|Derived||FM15-METAR|223|ICAO-KTSP|||||||||||||||||||||||||||||||||||||||||||||||||||||||||||||||||||||||||1023.0||1|FM15-METAR|223|ICAO-KTSP|||||||||||||||||||||||||||||||||||||||||||MET062METAR KTSP 241615Z AUTO 13013KT 10SM CLR 04/M08 A3021 RMK AO2;||F||223|ICAO-KTSP
USW00000479|TEHACHAPI MUNI AP|2009|12|24|16|35|35.1350|-118.4392|1219.5|5.0||1|FM15-METAR|223|ICAO-KTSP|-10.0||1|FM15-METAR|223|ICAO-KTSP|||||||||||||120|N-Normal|1|FM15-METAR|223|ICAO-KTSP|6.7|N-Normal|1|FM15-METAR|223|ICAO-KTSP|8.7||1|FM15-METAR|223|ICAO-KTSP|||||||33|Derived||FM15-METAR|223|ICAO-KTSP|||||||||||||||||||||||||||||||||||||||||||||||||||||||||||||||||||||||||1023.0||1|FM15-METAR|223|ICAO-KTSP|||||||||||||||||||||||||||||||||||||||||||MET065METAR KTSP 241635Z AUTO 12013G17KT 10SM CLR 05/M10 A3021 RMK AO2;||F||223|ICAO-KTSP
USW00000479|TEHACHAPI MUNI AP|2009|12|24|17|00|35.1350|-118.4392|1219.5|6.0||1|FM15-METAR|223|ICAO-KTSP|-9.0||1|FM15-METAR|223|ICAO-KTSP|||||||||||||110|N-Normal|1|FM15-METAR|223|ICAO-KTSP|7.7|N-Normal|1|FM15-METAR|223|ICAO-KTSP|||||||||||||34|Derived||FM15-METAR|223|ICAO-KTSP|||||||||||||||||||||||||||||||||||||||||||||||||||||||||||||||||||||||||1023.0||1|FM15-METAR|223|ICAO-KTSP|||||||||||||||||||||||||||||||||||||||||||MET062METAR KTSP 241655Z AUTO 11015KT 10SM CLR 06/M09 A3021 RMK AO2;||F||223|ICAO-KTSP
USW00000479|TEHACHAPI MUNI AP|2009|12|24|17|15|35.1350|-118.4392|1219.5|6.0||1|FM15-METAR|223|ICAO-KTSP|-8.0||1|FM15-METAR|223|ICAO-KTSP|||||||||||||100|N-Normal|1|FM15-METAR|223|ICAO-KTSP|6.2|N-Normal|1|FM15-METAR|223|ICAO-KTSP|||||||||||||36|Derived||FM15-METAR|223|ICAO-KTSP|||||||||||||||||||||||||||||||||||||||||||||||||||||||||||||||||||||||||1023.4||1|FM15-METAR|223|ICAO-KTSP|||||||||||||||||||||||||||||||||||||||||||MET062METAR KTSP 241715Z AUTO 10012KT 10SM CLR 06/M08 A3022 RMK AO2;||F||223|ICAO-KTSP
USW00000479|TEHACHAPI MUNI AP|2009|12|24|17|35|35.1350|-118.4392|1219.5|7.0||1|FM15-METAR|223|ICAO-KTSP|-8.0||1|FM15-METAR|223|ICAO-KTSP|||||||||||||090|N-Normal|1|FM15-METAR|223|ICAO-KTSP|5.1|N-Normal|1|FM15-METAR|223|ICAO-KTSP|||||||||||||34|Derived||FM15-METAR|223|ICAO-KTSP|||||||||||||||||||||||||||||||||||||||||||||||||||||||||||||||||||||||||1023.0||1|FM15-METAR|223|ICAO-KTSP|||||||||||||||||||||||||||||||||||||||||||MET062METAR KTSP 241735Z AUTO 09010KT 10SM CLR 07/M08 A3021 RMK AO2;||F||223|ICAO-KTSP
USW00000479|TEHACHAPI MUNI AP|2009|12|24|18|00|35.1350|-118.4392|1219.5|7.0||1|FM15-METAR|223|ICAO-KTSP|-8.0||1|FM15-METAR|223|ICAO-KTSP|||||||||||||110|N-Normal|1|FM15-METAR|223|ICAO-KTSP|5.7|N-Normal|1|FM15-METAR|223|ICAO-KTSP|8.7||1|FM15-METAR|223|ICAO-KTSP|||||||34|Derived||FM15-METAR|223|ICAO-KTSP|||||||||||||||||||||||||||||||||||||||||||||||||||||||||||||||||||||||||1023.0||1|FM15-METAR|223|ICAO-KTSP|||||||||||||||||||||||||||||||||||||||||||MET065METAR KTSP 241755Z AUTO 11011G17KT 10SM CLR 07/M08 A3021 RMK AO2;||F||223|ICAO-KTSP
USW00000479|TEHACHAPI MUNI AP|2009|12|24|18|15|35.1350|-118.4392|1219.5|8.0||1|FM15-METAR|223|ICAO-KTSP|-8.0||1|FM15-METAR|223|ICAO-KTSP|||||||||||||120|N-Normal|1|FM15-METAR|223|ICAO-KTSP|7.2|N-Normal|1|FM15-METAR|223|ICAO-KTSP|||||||||||||32|Derived||FM15-METAR|223|ICAO-KTSP|||||||||||||||||||||||||||||||||||||||||||||||||||||||||||||||||||||||||1023.0||1|FM15-METAR|223|ICAO-KTSP|||||||||||||||||||||||||||||||||||||||||||MET062METAR KTSP 241815Z AUTO 12014KT 10SM CLR 08/M08 A3021 RMK AO2;||F||223|ICAO-KTSP
USW00000479|TEHACHAPI MUNI AP|2009|12|24|18|35|35.1350|-118.4392|1219.5|8.0||1|FM15-METAR|223|ICAO-KTSP|-8.0||1|FM15-METAR|223|ICAO-KTSP|||||||||||||120|N-Normal|1|FM15-METAR|223|ICAO-KTSP|6.7|N-Normal|1|FM15-METAR|223|ICAO-KTSP|||||||||||||32|Derived||FM15-METAR|223|ICAO-KTSP|||||||||||||||||||||||||||||||||||||||||||||||||||||||||||||||||||||||||1023.0||1|FM15-METAR|223|ICAO-KTSP|||||||||||||||||||||||||||||||||||||||||||MET062METAR KTSP 241835Z AUTO 12013KT 10SM CLR 08/M08 A3021 RMK AO2;||F||223|ICAO-KTSP
USW00000479|TEHACHAPI MUNI AP|2009|12|24|19|00|35.1350|-118.4392|1219.5|8.0||1|FM15-METAR|223|ICAO-KTSP|-8.0||1|FM15-METAR|223|ICAO-KTSP|||||||||||||110|N-Normal|1|FM15-METAR|223|ICAO-KTSP|7.2|N-Normal|1|FM15-METAR|223|ICAO-KTSP|||||||||||||32|Derived||FM15-METAR|223|ICAO-KTSP|||||||||||||||||||||||||||||||||||||||||||||||||||||||||||||||||||||||||1022.7||1|FM15-METAR|223|ICAO-KTSP|||||||||||||||||||||||||||||||||||||||||||MET061METAR KTSP 241855Z AUTO 11014KT 8SM CLR 08/M08 A3020 RMK AO2;||F||223|ICAO-KTSP
USW00000479|TEHACHAPI MUNI AP|2009|12|24|19|15|35.1350|-118.4392|1219.5|8.0||1|FM15-METAR|223|ICAO-KTSP|-8.0||1|FM15-METAR|223|ICAO-KTSP|||||||||||||110|N-Normal|1|FM15-METAR|223|ICAO-KTSP|7.7|N-Normal|1|FM15-METAR|223|ICAO-KTSP|9.8||1|FM15-METAR|223|ICAO-KTSP|||||||32|Derived||FM15-METAR|223|ICAO-KTSP|||||||||||||||||||||||||||||||||||||||||||||||||||||||||||||||||||||||||1022.4||1|FM15-METAR|223|ICAO-KTSP|||||||||||||||||||||||||||||||||||||||||||MET064METAR KTSP 241915Z AUTO 11015G19KT 9SM CLR 08/M08 A3019 RMK AO2;||F||223|ICAO-KTSP
USW00000479|TEHACHAPI MUNI AP|2009|12|24|19|35|35.1350|-118.4392|1219.5|9.0||1|FM15-METAR|223|ICAO-KTSP|-7.0||1|FM15-METAR|223|ICAO-KTSP|||||||||||||110|N-Normal|1|FM15-METAR|223|ICAO-KTSP|5.7|N-Normal|1|FM15-METAR|223|ICAO-KTSP|||||||||||||32|Derived||FM15-METAR|223|ICAO-KTSP|||||||||||||||||||||||||||||||||||||||||||||||||||||||||||||||||||||||||1022.0||1|FM15-METAR|223|ICAO-KTSP|||||||||||||||||||||||||||||||||||||||||||MET061METAR KTSP 241935Z AUTO 11011KT 9SM CLR 09/M07 A3018 RMK AO2;||F||223|ICAO-KTSP
USW00000479|TEHACHAPI MUNI AP|2009|12|24|20|00|35.1350|-118.4392|1219.5|9.0||1|FM15-METAR|223|ICAO-KTSP|-7.0||1|FM15-METAR|223|ICAO-KTSP|||||||||||||120|N-Normal|1|FM15-METAR|223|ICAO-KTSP|6.7|N-Normal|1|FM15-METAR|223|ICAO-KTSP|||||||||||||32|Derived||FM15-METAR|223|ICAO-KTSP|||||||||||||||||||||||||||||||||||||||||||||||||||||||||||||||||||||||||1021.7||1|FM15-METAR|223|ICAO-KTSP|||||||||||||||||||||||||||||||||||||||||||MET062METAR KTSP 241955Z AUTO 12013KT 10SM CLR 09/M07 A3017 RMK AO2;||F||223|ICAO-KTSP
USW00000479|TEHACHAPI MUNI AP|2009|12|24|20|15|35.1350|-118.4392|1219.5|9.0||1|FM15-METAR|223|ICAO-KTSP|-7.0||1|FM15-METAR|223|ICAO-KTSP|||||||||||||110|N-Normal|1|FM15-METAR|223|ICAO-KTSP|7.2|N-Normal|1|FM15-METAR|223|ICAO-KTSP|||||||||||||32|Derived||FM15-METAR|223|ICAO-KTSP|||||||||||||||||||||||||||||||||||||||||||||||||||||||||||||||||||||||||1021.7||1|FM15-METAR|223|ICAO-KTSP|||||||||||||||||||||||||||||||||||||||||||MET061METAR KTSP 242015Z AUTO 11014KT 9SM CLR 09/M07 A3017 RMK AO2;||F||223|ICAO-KTSP
USW00000479|TEHACHAPI MUNI AP|2009|12|24|20|35|35.1350|-118.4392|1219.5|9.0||1|FM15-METAR|223|ICAO-KTSP|-7.0||1|FM15-METAR|223|ICAO-KTSP|||||||||||||120|N-Normal|1|FM15-METAR|223|ICAO-KTSP|7.2|N-Normal|1|FM15-METAR|223|ICAO-KTSP|10.3||1|FM15-METAR|223|ICAO-KTSP|||||||32|Derived||FM15-METAR|223|ICAO-KTSP|||||||||||||||||||||||||||||||||||||||||||||||||||||||||||||||||||||||||1021.3||1|FM15-METAR|223|ICAO-KTSP|||||||||||||||||||||||||||||||||||||||||||MET064METAR KTSP 242035Z AUTO 12014G20KT 9SM CLR 09/M07 A3016 RMK AO2;||F||223|ICAO-KTSP
USW00000479|TEHACHAPI MUNI AP|2009|12|24|21|00|35.1350|-118.4392|1219.5|10.0||1|FM15-METAR|223|ICAO-KTSP|-7.0||1|FM15-METAR|223|ICAO-KTSP|||||||||||||120|N-Normal|1|FM15-METAR|223|ICAO-KTSP|7.7|N-Normal|1|FM15-METAR|223|ICAO-KTSP|||||||||||||30|Derived||FM15-METAR|223|ICAO-KTSP|||||||||||||||||||||||||||||||||||||||||||||||||||||||||||||||||||||||||1021.0||1|FM15-METAR|223|ICAO-KTSP|||||||||||||||||||||||||||||||||||||||||||MET061METAR KTSP 242055Z AUTO 12015KT 9SM CLR 10/M07 A3015 RMK AO2;||F||223|ICAO-KTSP
USW00000479|TEHACHAPI MUNI AP|2009|12|24|21|15|35.1350|-118.4392|1219.5|10.0||1|FM15-METAR|223|ICAO-KTSP|-7.0||1|FM15-METAR|223|ICAO-KTSP|||||||||||||120|N-Normal|1|FM15-METAR|223|ICAO-KTSP|6.2|N-Normal|1|FM15-METAR|223|ICAO-KTSP|8.2||1|FM15-METAR|223|ICAO-KTSP|||||||30|Derived||FM15-METAR|223|ICAO-KTSP|||||||||||||||||||||||||||||||||||||||||||||||||||||||||||||||||||||||||1021.0||1|FM15-METAR|223|ICAO-KTSP|||||||||||||||||||||||||||||||||||||||||||MET064METAR KTSP 242115Z AUTO 12012G16KT 9SM CLR 10/M07 A3015 RMK AO2;||F||223|ICAO-KTSP
USW00000479|TEHACHAPI MUNI AP|2009|12|24|21|35|35.1350|-118.4392|1219.5|10.0||1|FM15-METAR|223|ICAO-KTSP|-7.0||1|FM15-METAR|223|ICAO-KTSP|||||||||||||130|N-Normal|1|FM15-METAR|223|ICAO-KTSP|6.2|N-Normal|1|FM15-METAR|223|ICAO-KTSP|||||||||||||30|Derived||FM15-METAR|223|ICAO-KTSP|||||||||||||||||||||||||||||||||||||||||||||||||||||||||||||||||||||||||1020.7||1|FM15-METAR|223|ICAO-KTSP|||||||||||||||||||||||||||||||||||||||||||MET061METAR KTSP 242135Z AUTO 13012KT 7SM CLR 10/M07 A3014 RMK AO2;||F||223|ICAO-KTSP
USW00000479|TEHACHAPI MUNI AP|2009|12|24|22|00|35.1350|-118.4392|1219.5|10.0||1|FM15-METAR|223|ICAO-KTSP|-7.0||1|FM15-METAR|223|ICAO-KTSP|||||||||||||120|N-Normal|1|FM15-METAR|223|ICAO-KTSP|5.7|N-Normal|1|FM15-METAR|223|ICAO-KTSP|7.7||1|FM15-METAR|223|ICAO-KTSP|||||||30|Derived||FM15-METAR|223|ICAO-KTSP|||||||||||||||||||||||||||||||||||||||||||||||||||||||||||||||||||||||||1020.7||1|FM15-METAR|223|ICAO-KTSP|||||||||||||||||||||||||||||||||||||||||||MET064METAR KTSP 242155Z AUTO 12011G15KT 9SM CLR 10/M07 A3014 RMK AO2;||F||223|ICAO-KTSP
USW00000479|TEHACHAPI MUNI AP|2009|12|24|22|15|35.1350|-118.4392|1219.5|10.0||1|FM15-METAR|223|ICAO-KTSP|-7.0||1|FM15-METAR|223|ICAO-KTSP|||||||||||||120|N-Normal|1|FM15-METAR|223|ICAO-KTSP|5.1|N-Normal|1|FM15-METAR|223|ICAO-KTSP|||||||||||||30|Derived||FM15-METAR|223|ICAO-KTSP|||||||||||||||||||||||||||||||||||||||||||||||||||||||||||||||||||||||||1020.7||1|FM15-METAR|223|ICAO-KTSP|||||||||||||||||||||||||||||||||||||||||||MET061METAR KTSP 242215Z AUTO 12010KT 9SM CLR 10/M07 A3014 RMK AO2;||F||223|ICAO-KTSP
USW00000479|TEHACHAPI MUNI AP|2009|12|24|22|35|35.1350|-118.4392|1219.5|10.0||1|FM15-METAR|223|ICAO-KTSP|-7.0||1|FM15-METAR|223|ICAO-KTSP|||||||||||||130|N-Normal|1|FM15-METAR|223|ICAO-KTSP|5.7|N-Normal|1|FM15-METAR|223|ICAO-KTSP|||||||||||||30|Derived||FM15-METAR|223|ICAO-KTSP|||||||||||||||||||||||||||||||||||||||||||||||||||||||||||||||||||||||||1020.7||1|FM15-METAR|223|ICAO-KTSP|||||||||||||||||||||||||||||||||||||||||||MET062METAR KTSP 242235Z AUTO 13011KT 10SM CLR 10/M07 A3014 RMK AO2;||F||223|ICAO-KTSP
USW00000479|TEHACHAPI MUNI AP|2009|12|24|23|00|35.1350|-118.4392|1219.5|9.0||1|FM15-METAR|223|ICAO-KTSP|-7.0||1|FM15-METAR|223|ICAO-KTSP|||||||||||||120|N-Normal|1|FM15-METAR|223|ICAO-KTSP|4.6|N-Normal|1|FM15-METAR|223|ICAO-KTSP|||||||||||||32|Derived||FM15-METAR|223|ICAO-KTSP|||||||||||||||||||||||||||||||||||||||||||||||||||||||||||||||||||||||||1020.7||1|FM15-METAR|223|ICAO-KTSP|||||||||||||||||||||||||||||||||||||||||||MET061METAR KTSP 242255Z AUTO 12009KT 9SM CLR 09/M07 A3014 RMK AO2;||F||223|ICAO-KTSP
USW00000479|TEHACHAPI MUNI AP|2009|12|24|23|15|35.1350|-118.4392|1219.5|9.0||1|FM15-METAR|223|ICAO-KTSP|-7.0||1|FM15-METAR|223|ICAO-KTSP|||||||||||||120|N-Normal|1|FM15-METAR|223|ICAO-KTSP|5.1|N-Normal|1|FM15-METAR|223|ICAO-KTSP|||||||||||||32|Derived||FM15-METAR|223|ICAO-KTSP|||||||||||||||||||||||||||||||||||||||||||||||||||||||||||||||||||||||||1020.7||1|FM15-METAR|223|ICAO-KTSP|||||||||||||||||||||||||||||||||||||||||||MET062METAR KTSP 242315Z AUTO 12010KT 10SM CLR 09/M07 A3014 RMK AO2;||F||223|ICAO-KTSP
USW00000479|TEHACHAPI MUNI AP|2009|12|24|23|35|35.1350|-118.4392|1219.5|9.0||1|FM15-METAR|223|ICAO-KTSP|-7.0||1|FM15-METAR|223|ICAO-KTSP|||||||||||||120|N-Normal|1|FM15-METAR|223|ICAO-KTSP|5.1|N-Normal|1|FM15-METAR|223|ICAO-KTSP|||||||||||||32|Derived||FM15-METAR|223|ICAO-KTSP|||||||||||||||||||||||||||||||||||||||||||||||||||||||||||||||||||||||||1020.7||1|FM15-METAR|223|ICAO-KTSP|||||||||||||||||||||||||||||||||||||||||||MET061METAR KTSP 242335Z AUTO 12010KT 9SM CLR 09/M07 A3014 RMK AO2;||F||223|ICAO-KTSP
USW00000479|TEHACHAPI MUNI AP|2009|12|25|00|00|35.1350|-118.4392|1219.5|8.0||1|FM15-METAR|223|ICAO-KTSP|-7.0||1|FM15-METAR|223|ICAO-KTSP|||||||||||||100|N-Normal|1|FM15-METAR|223|ICAO-KTSP|4.1|N-Normal|1|FM15-METAR|223|ICAO-KTSP|||||||||||||34|Derived||FM15-METAR|223|ICAO-KTSP|||||||||||||||||||||||||||||||||||||||||||||||||||||||||||||||||||||||||1021.0||1|FM15-METAR|223|ICAO-KTSP|||||||||||||||||||||||||||||||||||||||||||MET062METAR KTSP 242355Z AUTO 10008KT 10SM CLR 08/M07 A3015 RMK AO2;||F||223|ICAO-KTSP
USW00000479|TEHACHAPI MUNI AP|2009|12|25|00|15|35.1350|-118.4392|1219.5|8.0||1|FM15-METAR|223|ICAO-KTSP|-7.0||1|FM15-METAR|223|ICAO-KTSP|||||||||||||100|N-Normal|1|FM15-METAR|223|ICAO-KTSP|4.1|N-Normal|1|FM15-METAR|223|ICAO-KTSP|||||||||||||34|Derived||FM15-METAR|223|ICAO-KTSP|||||||||||||||||||||||||||||||||||||||||||||||||||||||||||||||||||||||||1021.0||1|FM15-METAR|223|ICAO-KTSP|||||||||||||||||||||||||||||||||||||||||||MET062METAR KTSP 250015Z AUTO 10008KT 10SM CLR 08/M07 A3015 RMK AO2;||F||223|ICAO-KTSP
USW00000479|TEHACHAPI MUNI AP|2009|12|25|00|35|35.1350|-118.4392|1219.5|7.0||1|FM15-METAR|223|ICAO-KTSP|-8.0||1|FM15-METAR|223|ICAO-KTSP|||||||||||||100|N-Normal|1|FM15-METAR|223|ICAO-KTSP|5.1|N-Normal|1|FM15-METAR|223|ICAO-KTSP|||||||||||||34|Derived||FM15-METAR|223|ICAO-KTSP|||||||||||||||||||||||||||||||||||||||||||||||||||||||||||||||||||||||||1021.0||1|FM15-METAR|223|ICAO-KTSP|||||||||||||||||||||||||||||||||||||||||||MET062METAR KTSP 250035Z AUTO 10010KT 10SM CLR 07/M08 A3015 RMK AO2;||F||223|ICAO-KTSP
USW00000479|TEHACHAPI MUNI AP|2009|12|25|01|00|35.1350|-118.4392|1219.5|6.0||1|FM15-METAR|223|ICAO-KTSP|-8.0||1|FM15-METAR|223|ICAO-KTSP|||||||||||||090|N-Normal|1|FM15-METAR|223|ICAO-KTSP|4.1|N-Normal|1|FM15-METAR|223|ICAO-KTSP|||||||||||||36|Derived||FM15-METAR|223|ICAO-KTSP|||||||||||||||||||||||||||||||||||||||||||||||||||||||||||||||||||||||||1021.0||1|FM15-METAR|223|ICAO-KTSP|||||||||||||||||||||||||||||||||||||||||||MET062METAR KTSP 250055Z AUTO 09008KT 10SM CLR 06/M08 A3015 RMK AO2;||F||223|ICAO-KTSP
USW00000479|TEHACHAPI MUNI AP|2009|12|25|01|15|35.1350|-118.4392|1219.5|5.0||1|FM15-METAR|223|ICAO-KTSP|-8.0||1|FM15-METAR|223|ICAO-KTSP|||||||||||||090|N-Normal|1|FM15-METAR|223|ICAO-KTSP|4.1|N-Normal|1|FM15-METAR|223|ICAO-KTSP|||||||||||||39|Derived||FM15-METAR|223|ICAO-KTSP|||||||||||||||||||||||||||||||||||||||||||||||||||||||||||||||||||||||||1021.0||1|FM15-METAR|223|ICAO-KTSP|||||||||||||||||||||||||||||||||||||||||||MET062METAR KTSP 250115Z AUTO 09008KT 10SM CLR 05/M08 A3015 RMK AO2;||F||223|ICAO-KTSP
USW00000479|TEHACHAPI MUNI AP|2009|12|25|01|35|35.1350|-118.4392|1219.5|5.0||1|FM15-METAR|223|ICAO-KTSP|-8.0||1|FM15-METAR|223|ICAO-KTSP|||||||||||||090|N-Normal|1|FM15-METAR|223|ICAO-KTSP|4.1|N-Normal|1|FM15-METAR|223|ICAO-KTSP|||||||||||||39|Derived||FM15-METAR|223|ICAO-KTSP|||||||||||||||||||||||||||||||||||||||||||||||||||||||||||||||||||||||||1021.0||1|FM15-METAR|223|ICAO-KTSP|||||||||||||||||||||||||||||||||||||||||||MET062METAR KTSP 250135Z AUTO 09008KT 10SM CLR 05/M08 A3015 RMK AO2;||F||223|ICAO-KTSP
USW00000479|TEHACHAPI MUNI AP|2009|12|25|02|00|35.1350|-118.4392|1219.5|5.0||1|FM15-METAR|223|ICAO-KTSP|-9.0||1|FM15-METAR|223|ICAO-KTSP|||||||||||||090|N-Normal|1|FM15-METAR|223|ICAO-KTSP|4.6|N-Normal|1|FM15-METAR|223|ICAO-KTSP|||||||||||||36|Derived||FM15-METAR|223|ICAO-KTSP|||||||||||||||||||||||||||||||||||||||||||||||||||||||||||||||||||||||||1021.3||1|FM15-METAR|223|ICAO-KTSP|||||||||||||||||||||||||||||||||||||||||||MET062METAR KTSP 250155Z AUTO 09009KT 10SM CLR 05/M09 A3016 RMK AO2;||F||223|ICAO-KTSP
USW00000479|TEHACHAPI MUNI AP|2009|12|25|02|15|35.1350|-118.4392|1219.5|5.0||1|FM15-METAR|223|ICAO-KTSP|-9.0||1|FM15-METAR|223|ICAO-KTSP|||||||||||||090|N-Normal|1|FM15-METAR|223|ICAO-KTSP|5.1|N-Normal|1|FM15-METAR|223|ICAO-KTSP|||||||||||||36|Derived||FM15-METAR|223|ICAO-KTSP|||||||||||||||||||||||||||||||||||||||||||||||||||||||||||||||||||||||||1021.3||1|FM15-METAR|223|ICAO-KTSP|||||||||||||||||||||||||||||||||||||||||||MET062METAR KTSP 250215Z AUTO 09010KT 10SM CLR 05/M09 A3016 RMK AO2;||F||223|ICAO-KTSP
USW00000479|TEHACHAPI MUNI AP|2009|12|25|02|35|35.1350|-118.4392|1219.5|5.0||1|FM15-METAR|223|ICAO-KTSP|-9.0||1|FM15-METAR|223|ICAO-KTSP|||||||||||||100|N-Normal|1|FM15-METAR|223|ICAO-KTSP|5.1|N-Normal|1|FM15-METAR|223|ICAO-KTSP|||||||||||||36|Derived||FM15-METAR|223|ICAO-KTSP|||||||||||||||||||||||||||||||||||||||||||||||||||||||||||||||||||||||||1021.7||1|FM15-METAR|223|ICAO-KTSP|||||||||||||||||||||||||||||||||||||||||||MET062METAR KTSP 250235Z AUTO 10010KT 10SM CLR 05/M09 A3017 RMK AO2;||F||223|ICAO-KTSP
USW00000479|TEHACHAPI MUNI AP|2009|12|25|03|00|35.1350|-118.4392|1219.5|5.0||1|FM15-METAR|223|ICAO-KTSP|-9.0||1|FM15-METAR|223|ICAO-KTSP|||||||||||||090|N-Normal|1|FM15-METAR|223|ICAO-KTSP|4.6|N-Normal|1|FM15-METAR|223|ICAO-KTSP|||||||||||||36|Derived||FM15-METAR|223|ICAO-KTSP|||||||||||||||||||||||||||||||||||||||||||||||||||||||||||||||||||||||||1021.7||1|FM15-METAR|223|ICAO-KTSP|||||||||||||||||||||||||||||||||||||||||||MET062METAR KTSP 250255Z AUTO 09009KT 10SM CLR 05/M09 A3017 RMK AO2;||F||223|ICAO-KTSP
USW00000479|TEHACHAPI MUNI AP|2009|12|25|03|15|35.1350|-118.4392|1219.5|5.0||1|FM15-METAR|223|ICAO-KTSP|-9.0||1|FM15-METAR|223|ICAO-KTSP|||||||||||||090|N-Normal|1|FM15-METAR|223|ICAO-KTSP|4.6|N-Normal|1|FM15-METAR|223|ICAO-KTSP|||||||||||||36|Derived||FM15-METAR|223|ICAO-KTSP|||||||||||||||||||||||||||||||||||||||||||||||||||||||||||||||||||||||||1021.7||1|FM15-METAR|223|ICAO-KTSP|||||||||||||||||||||||||||||||||||||||||||MET062METAR KTSP 250315Z AUTO 09009KT 10SM CLR 05/M09 A3017 RMK AO2;||F||223|ICAO-KTSP
USW00000479|TEHACHAPI MUNI AP|2009|12|25|03|35|35.1350|-118.4392|1219.5|5.0||1|FM15-METAR|223|ICAO-KTSP|-9.0||1|FM15-METAR|223|ICAO-KTSP|||||||||||||090|N-Normal|1|FM15-METAR|223|ICAO-KTSP|4.1|N-Normal|1|FM15-METAR|223|ICAO-KTSP|||||||||||||36|Derived||FM15-METAR|223|ICAO-KTSP|||||||||||||||||||||||||||||||||||||||||||||||||||||||||||||||||||||||||1022.0||1|FM15-METAR|223|ICAO-KTSP|||||||||||||||||||||||||||||||||||||||||||MET062METAR KTSP 250335Z AUTO 09008KT 10SM CLR 05/M09 A3018 RMK AO2;||F||223|ICAO-KTSP
USW00000479|TEHACHAPI MUNI AP|2009|12|25|04|00|35.1350|-118.4392|1219.5|5.0||1|FM15-METAR|223|ICAO-KTSP|-9.0||1|FM15-METAR|223|ICAO-KTSP|||||||||||||090|N-Normal|1|FM15-METAR|223|ICAO-KTSP|4.6|N-Normal|1|FM15-METAR|223|ICAO-KTSP|||||||||||||36|Derived||FM15-METAR|223|ICAO-KTSP|||||||||||||||||||||||||||||||||||||||||||||||||||||||||||||||||||||||||1022.0||1|FM15-METAR|223|ICAO-KTSP|||||||||||||||||||||||||||||||||||||||||||MET062METAR KTSP 250355Z AUTO 09009KT 10SM CLR 05/M09 A3018 RMK AO2;||F||223|ICAO-KTSP
USW00000479|TEHACHAPI MUNI AP|2009|12|25|04|15|35.1350|-118.4392|1219.5|5.0||1|FM15-METAR|223|ICAO-KTSP|-9.0||1|FM15-METAR|223|ICAO-KTSP|||||||||||||090|N-Normal|1|FM15-METAR|223|ICAO-KTSP|4.6|N-Normal|1|FM15-METAR|223|ICAO-KTSP|||||||||||||36|Derived||FM15-METAR|223|ICAO-KTSP|||||||||||||||||||||||||||||||||||||||||||||||||||||||||||||||||||||||||1022.0||1|FM15-METAR|223|ICAO-KTSP|||||||||||||||||||||||||||||||||||||||||||MET062METAR KTSP 250415Z AUTO 09009KT 10SM CLR 05/M09 A3018 RMK AO2;||F||223|ICAO-KTSP
USW00000479|TEHACHAPI MUNI AP|2009|12|25|04|35|35.1350|-118.4392|1219.5|4.0||1|FM15-METAR|223|ICAO-KTSP|-9.0||1|FM15-METAR|223|ICAO-KTSP|||||||||||||090|N-Normal|1|FM15-METAR|223|ICAO-KTSP|4.6|N-Normal|1|FM15-METAR|223|ICAO-KTSP|||||||||||||39|Derived||FM15-METAR|223|ICAO-KTSP|||||||||||||||||||||||||||||||||||||||||||||||||||||||||||||||||||||||||1021.7||1|FM15-METAR|223|ICAO-KTSP|||||||||||||||||||||||||||||||||||||||||||MET062METAR KTSP 250435Z AUTO 09009KT 10SM CLR 04/M09 A3017 RMK AO2;||F||223|ICAO-KTSP
USW00000479|TEHACHAPI MUNI AP|2009|12|25|05|00|35.1350|-118.4392|1219.5|4.0||1|FM15-METAR|223|ICAO-KTSP|-8.0||1|FM15-METAR|223|ICAO-KTSP|||||||||||||100|N-Normal|1|FM15-METAR|223|ICAO-KTSP|5.1|N-Normal|1|FM15-METAR|223|ICAO-KTSP|||||||||||||42|Derived||FM15-METAR|223|ICAO-KTSP|||||||||||||||||||||||||||||||||||||||||||||||||||||||||||||||||||||||||1021.7||1|FM15-METAR|223|ICAO-KTSP|||||||||||||||||||||||||||||||||||||||||||MET062METAR KTSP 250455Z AUTO 10010KT 10SM CLR 04/M08 A3017 RMK AO2;||F||223|ICAO-KTSP
USW00000479|TEHACHAPI MUNI AP|2009|12|25|05|15|35.1350|-118.4392|1219.5|4.0||1|FM15-METAR|223|ICAO-KTSP|-9.0||1|FM15-METAR|223|ICAO-KTSP|||||||||||||100|N-Normal|1|FM15-METAR|223|ICAO-KTSP|5.1|N-Normal|1|FM15-METAR|223|ICAO-KTSP|||||||||||||39|Derived||FM15-METAR|223|ICAO-KTSP|||||||||||||||||||||||||||||||||||||||||||||||||||||||||||||||||||||||||1021.7||1|FM15-METAR|223|ICAO-KTSP|||||||||||||||||||||||||||||||||||||||||||MET062METAR KTSP 250515Z AUTO 10010KT 10SM CLR 04/M09 A3017 RMK AO2;||F||223|ICAO-KTSP
USW00000479|TEHACHAPI MUNI AP|2009|12|25|05|35|35.1350|-118.4392|1219.5|4.0||1|FM15-METAR|223|ICAO-KTSP|-9.0||1|FM15-METAR|223|ICAO-KTSP|||||||||||||100|N-Normal|1|FM15-METAR|223|ICAO-KTSP|5.7|N-Normal|1|FM15-METAR|223|ICAO-KTSP|||||||||||||39|Derived||FM15-METAR|223|ICAO-KTSP|||||||||||||||||||||||||||||||||||||||||||||||||||||||||||||||||||||||||1021.7||1|FM15-METAR|223|ICAO-KTSP|||||||||||||||||||||||||||||||||||||||||||MET062METAR KTSP 250535Z AUTO 10011KT 10SM CLR 04/M09 A3017 RMK AO2;||F||223|ICAO-KTSP
USW00000479|TEHACHAPI MUNI AP|2009|12|25|06|00|35.1350|-118.4392|1219.5|4.0||1|FM15-METAR|223|ICAO-KTSP|-9.0||1|FM15-METAR|223|ICAO-KTSP|||||||||||||100|N-Normal|1|FM15-METAR|223|ICAO-KTSP|4.6|N-Normal|1|FM15-METAR|223|ICAO-KTSP|||||||||||||39|Derived||FM15-METAR|223|ICAO-KTSP|||||||||||||||||||||||||||||||||||||||||||||||||||||||||||||||||||||||||1021.7||1|FM15-METAR|223|ICAO-KTSP|||||||||||||||||||||||||||||||||||||||||||MET062METAR KTSP 250555Z AUTO 10009KT 10SM CLR 04/M09 A3017 RMK AO2;||F||223|ICAO-KTSP
USW00000479|TEHACHAPI MUNI AP|2009|12|25|06|15|35.1350|-118.4392|1219.5|4.0||1|FM15-METAR|223|ICAO-KTSP|-9.0||1|FM15-METAR|223|ICAO-KTSP|||||||||||||090|N-Normal|1|FM15-METAR|223|ICAO-KTSP|4.6|N-Normal|1|FM15-METAR|223|ICAO-KTSP|||||||||||||39|Derived||FM15-METAR|223|ICAO-KTSP|||||||||||||||||||||||||||||||||||||||||||||||||||||||||||||||||||||||||1021.7||1|FM15-METAR|223|ICAO-KTSP|||||||||||||||||||||||||||||||||||||||||||MET062METAR KTSP 250615Z AUTO 09009KT 10SM CLR 04/M09 A3017 RMK AO2;||F||223|ICAO-KTSP
USW00000479|TEHACHAPI MUNI AP|2009|12|25|06|35|35.1350|-118.4392|1219.5|4.0||1|FM15-METAR|223|ICAO-KTSP|-9.0||1|FM15-METAR|223|ICAO-KTSP|||||||||||||090|N-Normal|1|FM15-METAR|223|ICAO-KTSP|4.6|N-Normal|1|FM15-METAR|223|ICAO-KTSP|||||||||||||39|Derived||FM15-METAR|223|ICAO-KTSP|||||||||||||||||||||||||||||||||||||||||||||||||||||||||||||||||||||||||1021.7||1|FM15-METAR|223|ICAO-KTSP|||||||||||||||||||||||||||||||||||||||||||MET062METAR KTSP 250635Z AUTO 09009KT 10SM CLR 04/M09 A3017 RMK AO2;||F||223|ICAO-KTSP
USW00000479|TEHACHAPI MUNI AP|2009|12|25|07|00|35.1350|-118.4392|1219.5|4.0||1|FM15-METAR|223|ICAO-KTSP|-9.0||1|FM15-METAR|223|ICAO-KTSP|||||||||||||090|N-Normal|1|FM15-METAR|223|ICAO-KTSP|4.6|N-Normal|1|FM15-METAR|223|ICAO-KTSP|||||||||||||39|Derived||FM15-METAR|223|ICAO-KTSP|||||||||||||||||||||||||||||||||||||||||||||||||||||||||||||||||||||||||1021.7||1|FM15-METAR|223|ICAO-KTSP|||||||||||||||||||||||||||||||||||||||||||MET062METAR KTSP 250655Z AUTO 09009KT 10SM CLR 04/M09 A3017 RMK AO2;||F||223|ICAO-KTSP
USW00000479|TEHACHAPI MUNI AP|2009|12|25|07|15|35.1350|-118.4392|1219.5|4.0||1|FM15-METAR|223|ICAO-KTSP|-9.0||1|FM15-METAR|223|ICAO-KTSP|||||||||||||090|N-Normal|1|FM15-METAR|223|ICAO-KTSP|4.1|N-Normal|1|FM15-METAR|223|ICAO-KTSP|||||||||||||39|Derived||FM15-METAR|223|ICAO-KTSP|||||||||||||||||||||||||||||||||||||||||||||||||||||||||||||||||||||||||1021.7||1|FM15-METAR|223|ICAO-KTSP|||||||||||||||||||||||||||||||||||||||||||MET062METAR KTSP 250715Z AUTO 09008KT 10SM CLR 04/M09 A3017 RMK AO2;||F||223|ICAO-KTSP
USW00000479|TEHACHAPI MUNI AP|2009|12|25|07|35|35.1350|-118.4392|1219.5|4.0||1|FM15-METAR|223|ICAO-KTSP|-9.0||1|FM15-METAR|223|ICAO-KTSP|||||||||||||090|N-Normal|1|FM15-METAR|223|ICAO-KTSP|4.1|N-Normal|1|FM15-METAR|223|ICAO-KTSP|||||||||||||39|Derived||FM15-METAR|223|ICAO-KTSP|||||||||||||||||||||||||||||||||||||||||||||||||||||||||||||||||||||||||1021.3||1|FM15-METAR|223|ICAO-KTSP|||||||||||||||||||||||||||||||||||||||||||MET062METAR KTSP 250735Z AUTO 09008KT 10SM CLR 04/M09 A3016 RMK AO2;||F||223|ICAO-KTSP
USW00000479|TEHACHAPI MUNI AP|2009|12|25|08|00|35.1350|-118.4392|1219.5|4.0||1|FM15-METAR|223|ICAO-KTSP|-9.0||1|FM15-METAR|223|ICAO-KTSP|||||||||||||090|N-Normal|1|FM15-METAR|223|ICAO-KTSP|3.6|N-Normal|1|FM15-METAR|223|ICAO-KTSP|||||||||||||39|Derived||FM15-METAR|223|ICAO-KTSP|||||||||||||||||||||||||||||||||||||||||||||||||||||||||||||||||||||||||1021.3||1|FM15-METAR|223|ICAO-KTSP|||||||||||||||||||||||||||||||||||||||||||MET062METAR KTSP 250755Z AUTO 09007KT 10SM CLR 04/M09 A3016 RMK AO2;||F||223|ICAO-KTSP
USW00000479|TEHACHAPI MUNI AP|2009|12|25|08|15|35.1350|-118.4392|1219.5|4.0||1|FM15-METAR|223|ICAO-KTSP|-9.0||1|FM15-METAR|223|ICAO-KTSP|||||||||||||090|N-Normal|1|FM15-METAR|223|ICAO-KTSP|4.1|N-Normal|1|FM15-METAR|223|ICAO-KTSP|||||||||||||39|Derived||FM15-METAR|223|ICAO-KTSP|||||||||||||||||||||||||||||||||||||||||||||||||||||||||||||||||||||||||1021.0||1|FM15-METAR|223|ICAO-KTSP|||||||||||||||||||||||||||||||||||||||||||MET062METAR KTSP 250815Z AUTO 09008KT 10SM CLR 04/M09 A3015 RMK AO2;||F||223|ICAO-KTSP
USW00000479|TEHACHAPI MUNI AP|2009|12|25|09|00|35.1350|-118.4392|1219.5|||||||||||||||||||||||||||||||||||||||||||||||||||||||||||||||||||||||||||||||||||||||||||||||||||||||||||||||||||||||||||||||||||||||||||||||||||||||||||||||||||||||||||||||MET049METAR KTSP 250855Z AUTO RMK AO2 PWINO PNO FZRANO;||F||223|ICAO-KTSP
USW00000479|TEHACHAPI MUNI AP|2009|12|25|09|15|35.1350|-118.4392|1219.5|||||||||||||||||||||||||||||||||||||||||||||||||||||||||||||||||||||||||||||||||||||||||||||||||||||||||||||||||||||||||||||||||||||||||||||||||||||||||||||||||||||||||||||||MET054METAR KTSP 250915Z AUTO RMK AO2 PWINO PNO FZRANO TSNO;||F||223|ICAO-KTSP
USW00000479|TEHACHAPI MUNI AP|2009|12|25|09|35|35.1350|-118.4392|1219.5|||||||||||||||||||||||||||||||||||||||||||||||||||||||||||||||||||||||||||||||||||||||||||||||||||||||||||||||||||||||||||||||||||||||||||||||||||||||||||||||||||||||||||||||MET049METAR KTSP 250935Z AUTO RMK AO2 PWINO PNO FZRANO;||F||223|ICAO-KTSP
USW00000479|TEHACHAPI MUNI AP|2009|12|25|10|00|35.1350|-118.4392|1219.5|||||||||||||||||||||||||||||||||||||||||||||||||||||||||||||||||||||||||||||||||||||||||||||||||||||||||||||||||||||||||||||||||||||||||||||||||||||||||||||||||||||||||||||||MET054METAR KTSP 250955Z AUTO RMK AO2 PWINO PNO FZRANO TSNO;||F||223|ICAO-KTSP
USW00000479|TEHACHAPI MUNI AP|2009|12|25|10|15|35.1350|-118.4392|1219.5|||||||||||||||||||||||||||||||||||||||||||||||||||||||||||||||||||||||||||||||||||||||||||||||||||||||||||||||||||||||||||||||||||||||||||||||||||||||||||||||||||||||||||||||MET054METAR KTSP 251015Z AUTO RMK AO2 PWINO PNO FZRANO TSNO;||F||223|ICAO-KTSP
USW00000479|TEHACHAPI MUNI AP|2009|12|25|10|35|35.1350|-118.4392|1219.5|||||||||||||||||||||||||||||||||||||||||||||||||||||||||||||||||||||||||||||||||||||||||||||||||||||||||||||||||||||||||||||||||||||||||||||||||||||||||||||||||||||||||||||||MET054METAR KTSP 251035Z AUTO RMK AO2 PWINO PNO FZRANO TSNO;||F||223|ICAO-KTSP
USW00000479|TEHACHAPI MUNI AP|2009|12|25|11|00|35.1350|-118.4392|1219.5|||||||||||||||||||||||||||||||||||||||||||||||||||||||||||||||||||||||||||||||||||||||||||||||||||||||||||||||||||||||||||||||||||||||||||||||||||||||||||||||||||||||||||||||MET054METAR KTSP 251055Z AUTO RMK AO2 PWINO PNO FZRANO TSNO;||F||223|ICAO-KTSP
USW00000479|TEHACHAPI MUNI AP|2009|12|25|11|15|35.1350|-118.4392|1219.5|||||||||||||||||||||||||||||||||||||||||||||||||||||||||||||||||||||||||||||||||||||||||||||||||||||||||||||||||||||||||||||||||||||||||||||||||||||||||||||||||||||||||||||||MET054METAR KTSP 251115Z AUTO RMK AO2 PWINO PNO FZRANO TSNO;||F||223|ICAO-KTSP
USW00000479|TEHACHAPI MUNI AP|2009|12|25|11|35|35.1350|-118.4392|1219.5|||||||||||||||||||||||||||||||||||||||||||||||||||||||||||||||||||||||||||||||||||||||||||||||||||||||||||||||||||||||||||||||||||||||||||||||||||||||||||||||||||||||||||||||MET054METAR KTSP 251135Z AUTO RMK AO2 PWINO PNO FZRANO TSNO;||F||223|ICAO-KTSP
USW00000479|TEHACHAPI MUNI AP|2009|12|25|12|00|35.1350|-118.4392|1219.5|||||||||||||||||||||||||||||||||||||||||||||||||||||||||||||||||||||||||||||||||||||||||||||||||||||||||||||||||||||||||||||||||||||||||||||||||||||||||||||||||||||||||||||||MET054METAR KTSP 251155Z AUTO RMK AO2 PWINO PNO FZRANO TSNO;||F||223|ICAO-KTSP
USW00000479|TEHACHAPI MUNI AP|2009|12|25|12|15|35.1350|-118.4392|1219.5|||||||||||||||||||||||||||||||||||||||||||||||||||||||||||||||||||||||||||||||||||||||||||||||||||||||||||||||||||||||||||||||||||||||||||||||||||||||||||||||||||||||||||||||MET054METAR KTSP 251215Z AUTO RMK AO2 PWINO PNO FZRANO TSNO;||F||223|ICAO-KTSP
USW00000479|TEHACHAPI MUNI AP|2009|12|25|12|35|35.1350|-118.4392|1219.5|||||||||||||||||||||||||||||||||||||||||||||||||||||||||||||||||||||||||||||||||||||||||||||||||||||||||||||||||||||||||||||||||||||||||||||||||||||||||||||||||||||||||||||||MET054METAR KTSP 251235Z AUTO RMK AO2 PWINO PNO FZRANO TSNO;||F||223|ICAO-KTSP
USW00000479|TEHACHAPI MUNI AP|2009|12|25|13|00|35.1350|-118.4392|1219.5|||||||||||||||||||||||||||||||||||||||||||||||||||||||||||||||||||||||||||||||||||||||||||||||||||||||||||||||||||||||||||||||||||||||||||||||||||||||||||||||||||||||||||||||MET054METAR KTSP 251255Z AUTO RMK AO2 PWINO PNO FZRANO TSNO;||F||223|ICAO-KTSP
USW00000479|TEHACHAPI MUNI AP|2009|12|25|13|15|35.1350|-118.4392|1219.5|0.0||1|FM15-METAR|223|ICAO-KTSP|-9.0||1|FM15-METAR|223|ICAO-KTSP|||||||||||||100|N-Normal|1|FM15-METAR|223|ICAO-KTSP|4.6|N-Normal|1|FM15-METAR|223|ICAO-KTSP|||||||||||||51|Derived||FM15-METAR|223|ICAO-KTSP|||||||||||||||||||||||||||||||||||||||||||||||||||||||||||||||||||||||||1019.3||1|FM15-METAR|223|ICAO-KTSP|||||||||||||||||||||||||||||||||||||||||||MET058METAR KTSP 251315Z AUTO 10009KT 10SM 00/M09 A3010 RMK AO2;||F||223|ICAO-KTSP
USW00000479|TEHACHAPI MUNI AP|2009|12|25|13|35|35.1350|-118.4392|1219.5|1.0||1|FM15-METAR|223|ICAO-KTSP|-9.0||1|FM15-METAR|223|ICAO-KTSP|||||||||||||100|N-Normal|1|FM15-METAR|223|ICAO-KTSP|3.1|N-Normal|1|FM15-METAR|223|ICAO-KTSP|||||||||||||48|Derived||FM15-METAR|223|ICAO-KTSP|||||||||||||||||||||||||||||||||||||||||||||||||||||||||||||||||||||||||1019.6||1|FM15-METAR|223|ICAO-KTSP|||||||||||||||||||||||||||||||||||||||||||MET062METAR KTSP 251335Z AUTO 10006KT 10SM CLR 01/M09 A3011 RMK AO2;||F||223|ICAO-KTSP
USW00000479|TEHACHAPI MUNI AP|2009|12|25|14|00|35.1350|-118.4392|1219.5|||||||||||||||||||||||||||||||||||||||||||||||||||||||||||||||||||||||||||||||||||||||||||||||||||||||||||||||||||||||||||||||||||||||||||||||||||||||||||||||||||||||||||||||MET054METAR KTSP 251355Z AUTO RMK AO2 PWINO PNO FZRANO TSNO;||F||223|ICAO-KTSP
USW00000479|TEHACHAPI MUNI AP|2009|12|25|14|15|35.1350|-118.4392|1219.5|||||||||||||||||||||||||||||||||||||||||||||||||||||||||||||||||||||||||||||||||||||||||||||||||||||||||||||||||||||||||||||||||||||||||||||||||||||||||||||||||||||||||||||||MET049METAR KTSP 251415Z AUTO RMK AO2 PWINO PNO FZRANO;||F||223|ICAO-KTSP
USW00000479|TEHACHAPI MUNI AP|2009|12|25|14|35|35.1350|-118.4392|1219.5|2.0||1|FM15-METAR|223|ICAO-KTSP|-9.0||1|FM15-METAR|223|ICAO-KTSP|||||||||||||090|N-Normal|1|FM15-METAR|223|ICAO-KTSP|5.1|N-Normal|1|FM15-METAR|223|ICAO-KTSP|||||||||||||44|Derived||FM15-METAR|223|ICAO-KTSP|||||||||||||||||||||||||||||||||||||||||||||||||||||||||||||||||||||||||1020.0||1|FM15-METAR|223|ICAO-KTSP|||||||||||||||||||||||||||||||||||||||||||MET058METAR KTSP 251435Z AUTO 09010KT 10SM 02/M09 A3012 RMK AO2;||F||223|ICAO-KTSP
USW00000479|TEHACHAPI MUNI AP|2009|12|25|15|00|35.1350|-118.4392|1219.5|2.0||1|FM15-METAR|223|ICAO-KTSP|-9.0||1|FM15-METAR|223|ICAO-KTSP|||||||||||||090|N-Normal|1|FM15-METAR|223|ICAO-KTSP|3.6|N-Normal|1|FM15-METAR|223|ICAO-KTSP|||||||||||||44|Derived||FM15-METAR|223|ICAO-KTSP|||||||||||||||||||||||||||||||||||||||||||||||||||||||||||||||||||||||||1020.0||1|FM15-METAR|223|ICAO-KTSP|||||||||||||||||||||||||||||||||||||||||||MET062METAR KTSP 251455Z AUTO 09007KT 10SM CLR 02/M09 A3012 RMK AO2;||F||223|ICAO-KTSP
USW00000479|TEHACHAPI MUNI AP|2009|12|25|15|15|35.1350|-118.4392|1219.5|3.0||1|FM15-METAR|223|ICAO-KTSP|-10.0||1|FM15-METAR|223|ICAO-KTSP|||||||||||||090|N-Normal|1|FM15-METAR|223|ICAO-KTSP|4.6|N-Normal|1|FM15-METAR|223|ICAO-KTSP|||||||||||||38|Derived||FM15-METAR|223|ICAO-KTSP|||||||||||||||||||||||||||||||||||||||||||||||||||||||||||||||||||||||||1020.0||1|FM15-METAR|223|ICAO-KTSP|||||||||||||||||||||||||||||||||||||||||||MET062METAR KTSP 251515Z AUTO 09009KT 10SM CLR 03/M10 A3012 RMK AO2;||F||223|ICAO-KTSP
USW00000479|TEHACHAPI MUNI AP|2009|12|25|15|35|35.1350|-118.4392|1219.5|3.0||1|FM15-METAR|223|ICAO-KTSP|-9.0||1|FM15-METAR|223|ICAO-KTSP|||||||||||||090|N-Normal|1|FM15-METAR|223|ICAO-KTSP|4.1|N-Normal|1|FM15-METAR|223|ICAO-KTSP|||||||||||||41|Derived||FM15-METAR|223|ICAO-KTSP|||||||||||||||||||||||||||||||||||||||||||||||||||||||||||||||||||||||||1020.0||1|FM15-METAR|223|ICAO-KTSP|||||||||||||||||||||||||||||||||||||||||||MET062METAR KTSP 251535Z AUTO 09008KT 10SM CLR 03/M09 A3012 RMK AO2;||F||223|ICAO-KTSP
USW00000479|TEHACHAPI MUNI AP|2009|12|25|16|00|35.1350|-118.4392|1219.5|3.0||1|FM15-METAR|223|ICAO-KTSP|-8.0||1|FM15-METAR|223|ICAO-KTSP|||||||||||||100|N-Normal|1|FM15-METAR|223|ICAO-KTSP|3.6|N-Normal|1|FM15-METAR|223|ICAO-KTSP|||||||||||||45|Derived||FM15-METAR|223|ICAO-KTSP|||||||||||||||||||||||||||||||||||||||||||||||||||||||||||||||||||||||||1020.0||1|FM15-METAR|223|ICAO-KTSP|||||||||||||||||||||||||||||||||||||||||||MET062METAR KTSP 251555Z AUTO 10007KT 10SM CLR 03/M08 A3012 RMK AO2;||F||223|ICAO-KTSP
USW00000479|TEHACHAPI MUNI AP|2009|12|25|16|15|35.1350|-118.4392|1219.5|5.0||1|FM15-METAR|223|ICAO-KTSP|-9.0||1|FM15-METAR|223|ICAO-KTSP|||||||||||||090|N-Normal|1|FM15-METAR|223|ICAO-KTSP|4.1|N-Normal|1|FM15-METAR|223|ICAO-KTSP|||||||||||||36|Derived||FM15-METAR|223|ICAO-KTSP|||||||||||||||||||||||||||||||||||||||||||||||||||||||||||||||||||||||||1020.0||1|FM15-METAR|223|ICAO-KTSP|||||||||||||||||||||||||||||||||||||||||||MET062METAR KTSP 251615Z AUTO 09008KT 10SM CLR 05/M09 A3012 RMK AO2;||F||223|ICAO-KTSP
USW00000479|TEHACHAPI MUNI AP|2009|12|25|16|35|35.1350|-118.4392|1219.5|5.0||1|FM15-METAR|223|ICAO-KTSP|-9.0||1|FM15-METAR|223|ICAO-KTSP|||||||||||||100|N-Normal|1|FM15-METAR|223|ICAO-KTSP|4.6|N-Normal|1|FM15-METAR|223|ICAO-KTSP|||||||||||||36|Derived||FM15-METAR|223|ICAO-KTSP|||||||||||||||||||||||||||||||||||||||||||||||||||||||||||||||||||||||||1020.0||1|FM15-METAR|223|ICAO-KTSP|||||||||||||||||||||||||||||||||||||||||||MET062METAR KTSP 251635Z AUTO 10009KT 10SM CLR 05/M09 A3012 RMK AO2;||F||223|ICAO-KTSP
USW00000479|TEHACHAPI MUNI AP|2009|12|25|17|00|35.1350|-118.4392|1219.5|6.0||1|FM15-METAR|223|ICAO-KTSP|-9.0||1|FM15-METAR|223|ICAO-KTSP|||||||||||||100|N-Normal|1|FM15-METAR|223|ICAO-KTSP|5.1|N-Normal|1|FM15-METAR|223|ICAO-KTSP|||||||||||||34|Derived||FM15-METAR|223|ICAO-KTSP|||||||||||||||||||||||||||||||||||||||||||||||||||||||||||||||||||||||||1020.0||1|FM15-METAR|223|ICAO-KTSP|||||||||||||||||||||||||||||||||||||||||||MET062METAR KTSP 251655Z AUTO 10010KT 10SM CLR 06/M09 A3012 RMK AO2;||F||223|ICAO-KTSP
USW00000479|TEHACHAPI MUNI AP|2009|12|25|17|15|35.1350|-118.4392|1219.5|7.0||1|FM15-METAR|223|ICAO-KTSP|-9.0||1|FM15-METAR|223|ICAO-KTSP|||||||||||||100|N-Normal|1|FM15-METAR|223|ICAO-KTSP|5.1|N-Normal|1|FM15-METAR|223|ICAO-KTSP|||||||||||||31|Derived||FM15-METAR|223|ICAO-KTSP|||||||||||||||||||||||||||||||||||||||||||||||||||||||||||||||||||||||||1020.3||1|FM15-METAR|223|ICAO-KTSP|||||||||||||||||||||||||||||||||||||||||||MET062METAR KTSP 251715Z AUTO 10010KT 10SM CLR 07/M09 A3013 RMK AO2;||F||223|ICAO-KTSP
USW00000479|TEHACHAPI MUNI AP|2009|12|25|17|35|35.1350|-118.4392|1219.5|7.0||1|FM15-METAR|223|ICAO-KTSP|-8.0||1|FM15-METAR|223|ICAO-KTSP|||||||||||||100|N-Normal|1|FM15-METAR|223|ICAO-KTSP|5.7|N-Normal|1|FM15-METAR|223|ICAO-KTSP|||||||||||||34|Derived||FM15-METAR|223|ICAO-KTSP|||||||||||||||||||||||||||||||||||||||||||||||||||||||||||||||||||||||||1020.7||1|FM15-METAR|223|ICAO-KTSP|||||||||||||||||||||||||||||||||||||||||||MET062METAR KTSP 251735Z AUTO 10011KT 10SM CLR 07/M08 A3014 RMK AO2;||F||223|ICAO-KTSP
USW00000479|TEHACHAPI MUNI AP|2009|12|25|18|00|35.1350|-118.4392|1219.5|8.0||1|FM15-METAR|223|ICAO-KTSP|-7.0||1|FM15-METAR|223|ICAO-KTSP|||||||||||||110|N-Normal|1|FM15-METAR|223|ICAO-KTSP|6.2|N-Normal|1|FM15-METAR|223|ICAO-KTSP|||||||||||||34|Derived||FM15-METAR|223|ICAO-KTSP|||||||||||||||||||||||||||||||||||||||||||||||||||||||||||||||||||||||||1020.3||1|FM15-METAR|223|ICAO-KTSP|||||||||||||||||||||||||||||||||||||||||||MET062METAR KTSP 251755Z AUTO 11012KT 10SM CLR 08/M07 A3013 RMK AO2;||F||223|ICAO-KTSP
USW00000479|TEHACHAPI MUNI AP|2009|12|25|18|15|35.1350|-118.4392|1219.5|9.0||1|FM15-METAR|223|ICAO-KTSP|-8.0||1|FM15-METAR|223|ICAO-KTSP|||||||||||||100|N-Normal|1|FM15-METAR|223|ICAO-KTSP|5.1|N-Normal|1|FM15-METAR|223|ICAO-KTSP|||||||||||||29|Derived||FM15-METAR|223|ICAO-KTSP|||||||||||||||||||||||||||||||||||||||||||||||||||||||||||||||||||||||||1020.3||1|FM15-METAR|223|ICAO-KTSP|||||||||||||||||||||||||||||||||||||||||||MET062METAR KTSP 251815Z AUTO 10010KT 10SM CLR 09/M08 A3013 RMK AO2;||F||223|ICAO-KTSP
USW00000479|TEHACHAPI MUNI AP|2009|12|25|18|35|35.1350|-118.4392|1219.5|10.0||1|FM15-METAR|223|ICAO-KTSP|-8.0||1|FM15-METAR|223|ICAO-KTSP|||||||||||||110|N-Normal|1|FM15-METAR|223|ICAO-KTSP|4.1|N-Normal|1|FM15-METAR|223|ICAO-KTSP|||||||||||||28|Derived||FM15-METAR|223|ICAO-KTSP|||||||||||||||||||||||||||||||||||||||||||||||||||||||||||||||||||||||||1020.3||1|FM15-METAR|223|ICAO-KTSP|||||||||||||||||||||||||||||||||||||||||||MET062METAR KTSP 251835Z AUTO 11008KT 10SM CLR 10/M08 A3013 RMK AO2;||F||223|ICAO-KTSP
USW00000479|TEHACHAPI MUNI AP|2009|12|25|19|00|35.1350|-118.4392|1219.5|10.0||1|FM15-METAR|223|ICAO-KTSP|-8.0||1|FM15-METAR|223|ICAO-KTSP|||||||||||||120|N-Normal|1|FM15-METAR|223|ICAO-KTSP|6.2|N-Normal|1|FM15-METAR|223|ICAO-KTSP|||||||||||||28|Derived||FM15-METAR|223|ICAO-KTSP|||||||||||||||||||||||||||||||||||||||||||||||||||||||||||||||||||||||||1020.0||1|FM15-METAR|223|ICAO-KTSP|||||||||||||||||||||||||||||||||||||||||||MET062METAR KTSP 251855Z AUTO 12012KT 10SM CLR 10/M08 A3012 RMK AO2;||F||223|ICAO-KTSP
USW00000479|TEHACHAPI MUNI AP|2009|12|25|19|15|35.1350|-118.4392|1219.5|12.0||1|FM15-METAR|223|ICAO-KTSP|-8.0||1|FM15-METAR|223|ICAO-KTSP|||||||||||||140|N-Normal|1|FM15-METAR|223|ICAO-KTSP|5.7|N-Normal|1|FM15-METAR|223|ICAO-KTSP|||||||||||||24|Derived||FM15-METAR|223|ICAO-KTSP|||||||||||||||||||||||||||||||||||||||||||||||||||||||||||||||||||||||||1019.6||1|FM15-METAR|223|ICAO-KTSP|||||||||||||||||||||||||||||||||||||||||||MET061METAR KTSP 251915Z AUTO 14011KT 9SM CLR 12/M08 A3011 RMK AO2;||F||223|ICAO-KTSP
USW00000479|TEHACHAPI MUNI AP|2009|12|25|19|35|35.1350|-118.4392|1219.5|12.0||1|FM15-METAR|223|ICAO-KTSP|-8.0||1|FM15-METAR|223|ICAO-KTSP|||||||||||||140|N-Normal|1|FM15-METAR|223|ICAO-KTSP|4.1|N-Normal|1|FM15-METAR|223|ICAO-KTSP|||||||||||||24|Derived||FM15-METAR|223|ICAO-KTSP|||||||||||||||||||||||||||||||||||||||||||||||||||||||||||||||||||||||||1019.3||1|FM15-METAR|223|ICAO-KTSP|||||||||||||||||||||||||||||||||||||||||||MET062METAR KTSP 251935Z AUTO 14008KT 10SM CLR 12/M08 A3010 RMK AO2;||F||223|ICAO-KTSP
USW00000479|TEHACHAPI MUNI AP|2009|12|25|20|00|35.1350|-118.4392|1219.5|12.0||1|FM15-METAR|223|ICAO-KTSP|-9.0||1|FM15-METAR|223|ICAO-KTSP|||||||||||||110|N-Normal|1|FM15-METAR|223|ICAO-KTSP|3.6|N-Normal|1|FM15-METAR|223|ICAO-KTSP|||||||||||||22|Derived||FM15-METAR|223|ICAO-KTSP|||||||||||||||||||||||||||||||||||||||||||||||||||||||||||||||||||||||||1019.0||1|FM15-METAR|223|ICAO-KTSP|||||||||||||||||||||||||||||||||||||||||||MET061METAR KTSP 251955Z AUTO 11007KT 9SM CLR 12/M09 A3009 RMK AO2;||F||223|ICAO-KTSP
USW00000479|TEHACHAPI MUNI AP|2009|12|25|20|15|35.1350|-118.4392|1219.5|12.0||1|FM15-METAR|223|ICAO-KTSP|-8.0||1|FM15-METAR|223|ICAO-KTSP|||||||||||||140|N-Normal|1|FM15-METAR|223|ICAO-KTSP|4.6|N-Normal|1|FM15-METAR|223|ICAO-KTSP|||||||||||||24|Derived||FM15-METAR|223|ICAO-KTSP|||||||||||||||||||||||||||||||||||||||||||||||||||||||||||||||||||||||||1018.6||1|FM15-METAR|223|ICAO-KTSP|||||||||||||||||||||||||||||||||||||||||||MET061METAR KTSP 252015Z AUTO 14009KT 9SM CLR 12/M08 A3008 RMK AO2;||F||223|ICAO-KTSP
USW00000479|TEHACHAPI MUNI AP|2009|12|25|20|35|35.1350|-118.4392|1219.5|12.0||1|FM15-METAR|223|ICAO-KTSP|-8.0||1|FM15-METAR|223|ICAO-KTSP|||||||||||||140|N-Normal|1|FM15-METAR|223|ICAO-KTSP|5.7|N-Normal|1|FM15-METAR|223|ICAO-KTSP|||||||||||||24|Derived||FM15-METAR|223|ICAO-KTSP|||||||||||||||||||||||||||||||||||||||||||||||||||||||||||||||||||||||||1018.3||1|FM15-METAR|223|ICAO-KTSP|||||||||||||||||||||||||||||||||||||||||||MET061METAR KTSP 252035Z AUTO 14011KT 8SM CLR 12/M08 A3007 RMK AO2;||F||223|ICAO-KTSP
USW00000479|TEHACHAPI MUNI AP|2009|12|25|21|00|35.1350|-118.4392|1219.5|12.0||1|FM15-METAR|223|ICAO-KTSP|-8.0||1|FM15-METAR|223|ICAO-KTSP|||||||||||||140|N-Normal|1|FM15-METAR|223|ICAO-KTSP|4.1|N-Normal|1|FM15-METAR|223|ICAO-KTSP|||||||||||||24|Derived||FM15-METAR|223|ICAO-KTSP|||||||||||||||||||||||||||||||||||||||||||||||||||||||||||||||||||||||||1018.0||1|FM15-METAR|223|ICAO-KTSP|||||||||||||||||||||||||||||||||||||||||||MET062METAR KTSP 252055Z AUTO 14008KT 10SM CLR 12/M08 A3006 RMK AO2;||F||223|ICAO-KTSP
USW00000479|TEHACHAPI MUNI AP|2009|12|25|21|15|35.1350|-118.4392|1219.5|12.0||1|FM15-METAR|223|ICAO-KTSP|-8.0||1|FM15-METAR|223|ICAO-KTSP|||||||||||||150|N-Normal|1|FM15-METAR|223|ICAO-KTSP|3.6|N-Normal|1|FM15-METAR|223|ICAO-KTSP|||||||||||||24|Derived||FM15-METAR|223|ICAO-KTSP|||||||||||||||||||||||||||||||||||||||||||||||||||||||||||||||||||||||||1017.6||1|FM15-METAR|223|ICAO-KTSP|||||||||||||||||||||||||||||||||||||||||||MET062METAR KTSP 252115Z AUTO 15007KT 10SM CLR 12/M08 A3005 RMK AO2;||F||223|ICAO-KTSP
USW00000479|TEHACHAPI MUNI AP|2009|12|25|21|35|35.1350|-118.4392|1219.5|12.0||1|FM15-METAR|223|ICAO-KTSP|-8.0||1|FM15-METAR|223|ICAO-KTSP|||||||||||||130|N-Normal|1|FM15-METAR|223|ICAO-KTSP|4.1|N-Normal|1|FM15-METAR|223|ICAO-KTSP|||||||||||||24|Derived||FM15-METAR|223|ICAO-KTSP|||||||||||||||||||||||||||||||||||||||||||||||||||||||||||||||||||||||||1017.6||1|FM15-METAR|223|ICAO-KTSP|||||||||||||||||||||||||||||||||||||||||||MET061METAR KTSP 252135Z AUTO 13008KT 9SM CLR 12/M08 A3005 RMK AO2;||F||223|ICAO-KTSP
USW00000479|TEHACHAPI MUNI AP|2009|12|25|22|00|35.1350|-118.4392|1219.5|12.0||1|FM15-METAR|223|ICAO-KTSP|-8.0||1|FM15-METAR|223|ICAO-KTSP|||||||||||||130|N-Normal|1|FM15-METAR|223|ICAO-KTSP|3.6|N-Normal|1|FM15-METAR|223|ICAO-KTSP|||||||||||||24|Derived||FM15-METAR|223|ICAO-KTSP|||||||||||||||||||||||||||||||||||||||||||||||||||||||||||||||||||||||||1017.6||1|FM15-METAR|223|ICAO-KTSP|||||||||||||||||||||||||||||||||||||||||||MET061METAR KTSP 252155Z AUTO 13007KT 8SM CLR 12/M08 A3005 RMK AO2;||F||223|ICAO-KTSP
USW00000479|TEHACHAPI MUNI AP|2009|12|25|22|15|35.1350|-118.4392|1219.5|12.0||1|FM15-METAR|223|ICAO-KTSP|-8.0||1|FM15-METAR|223|ICAO-KTSP|||||||||||||130|N-Normal|1|FM15-METAR|223|ICAO-KTSP|4.1|N-Normal|1|FM15-METAR|223|ICAO-KTSP|||||||||||||24|Derived||FM15-METAR|223|ICAO-KTSP|||||||||||||||||||||||||||||||||||||||||||||||||||||||||||||||||||||||||1017.3||1|FM15-METAR|223|ICAO-KTSP|||||||||||||||||||||||||||||||||||||||||||MET061METAR KTSP 252215Z AUTO 13008KT 9SM CLR 12/M08 A3004 RMK AO2;||F||223|ICAO-KTSP
USW00000479|TEHACHAPI MUNI AP|2009|12|25|22|35|35.1350|-118.4392|1219.5|12.0||1|FM15-METAR|223|ICAO-KTSP|-8.0||1|FM15-METAR|223|ICAO-KTSP|||||||||||||110|N-Normal|1|FM15-METAR|223|ICAO-KTSP|5.1|N-Normal|1|FM15-METAR|223|ICAO-KTSP|||||||||||||24|Derived||FM15-METAR|223|ICAO-KTSP|||||||||||||||||||||||||||||||||||||||||||||||||||||||||||||||||||||||||1016.9||1|FM15-METAR|223|ICAO-KTSP|||||||||||||||||||||||||||||||||||||||||||MET061METAR KTSP 252235Z AUTO 11010KT 9SM CLR 12/M08 A3003 RMK AO2;||F||223|ICAO-KTSP
USW00000479|TEHACHAPI MUNI AP|2009|12|25|23|00|35.1350|-118.4392|1219.5|12.0||1|FM15-METAR|223|ICAO-KTSP|-8.0||1|FM15-METAR|223|ICAO-KTSP|||||||||||||120|N-Normal|1|FM15-METAR|223|ICAO-KTSP|4.6|N-Normal|1|FM15-METAR|223|ICAO-KTSP|||||||||||||24|Derived||FM15-METAR|223|ICAO-KTSP|||||||||||||||||||||||||||||||||||||||||||||||||||||||||||||||||||||||||1016.9||1|FM15-METAR|223|ICAO-KTSP|||||||||||||||||||||||||||||||||||||||||||MET061METAR KTSP 252255Z AUTO 12009KT 9SM CLR 12/M08 A3003 RMK AO2;||F||223|ICAO-KTSP
USW00000479|TEHACHAPI MUNI AP|2009|12|25|23|15|35.1350|-118.4392|1219.5|11.0||1|FM15-METAR|223|ICAO-KTSP|-8.0||1|FM15-METAR|223|ICAO-KTSP|||||||||||||100|N-Normal|1|FM15-METAR|223|ICAO-KTSP|5.1|N-Normal|1|FM15-METAR|223|ICAO-KTSP|||||||||||||26|Derived||FM15-METAR|223|ICAO-KTSP|||||||||||||||||||||||||||||||||||||||||||||||||||||||||||||||||||||||||1016.9||1|FM15-METAR|223|ICAO-KTSP|||||||||||||||||||||||||||||||||||||||||||MET062METAR KTSP 252315Z AUTO 10010KT 10SM CLR 11/M08 A3003 RMK AO2;||F||223|ICAO-KTSP
USW00000479|TEHACHAPI MUNI AP|2009|12|25|23|35|35.1350|-118.4392|1219.5|10.0||1|FM15-METAR|223|ICAO-KTSP|-8.0||1|FM15-METAR|223|ICAO-KTSP|||||||||||||120|N-Normal|1|FM15-METAR|223|ICAO-KTSP|4.1|N-Normal|1|FM15-METAR|223|ICAO-KTSP|||||||||||||28|Derived||FM15-METAR|223|ICAO-KTSP|||||||||||||||||||||||||||||||||||||||||||||||||||||||||||||||||||||||||1016.9||1|FM15-METAR|223|ICAO-KTSP|||||||||||||||||||||||||||||||||||||||||||MET062METAR KTSP 252335Z AUTO 12008KT 10SM CLR 10/M08 A3003 RMK AO2;||F||223|ICAO-KTSP
USW00000479|TEHACHAPI MUNI AP|2009|12|26|00|00|35.1350|-118.4392|1219.5|10.0||1|FM15-METAR|223|ICAO-KTSP|-7.0||1|FM15-METAR|223|ICAO-KTSP|||||||||||||110|N-Normal|1|FM15-METAR|223|ICAO-KTSP|3.6|N-Normal|1|FM15-METAR|223|ICAO-KTSP|||||||||||||30|Derived||FM15-METAR|223|ICAO-KTSP|||||||||||||||||||||||||||||||||||||||||||||||||||||||||||||||||||||||||1016.9||1|FM15-METAR|223|ICAO-KTSP|||||||||||||||||||||||||||||||||||||||||||MET062METAR KTSP 252355Z AUTO 11007KT 10SM CLR 10/M07 A3003 RMK AO2;||F||223|ICAO-KTSP
USW00000479|TEHACHAPI MUNI AP|2009|12|26|00|15|35.1350|-118.4392|1219.5|9.0||1|FM15-METAR|223|ICAO-KTSP|-8.0||1|FM15-METAR|223|ICAO-KTSP|||||||||||||100|N-Normal|1|FM15-METAR|223|ICAO-KTSP|3.6|N-Normal|1|FM15-METAR|223|ICAO-KTSP|||||||||||||29|Derived||FM15-METAR|223|ICAO-KTSP|||||||||||||||||||||||||||||||||||||||||||||||||||||||||||||||||||||||||1016.9||1|FM15-METAR|223|ICAO-KTSP|||||||||||||||||||||||||||||||||||||||||||MET062METAR KTSP 260015Z AUTO 10007KT 10SM CLR 09/M08 A3003 RMK AO2;||F||223|ICAO-KTSP
USW00000479|TEHACHAPI MUNI AP|2009|12|26|00|35|35.1350|-118.4392|1219.5|8.0||1|FM15-METAR|223|ICAO-KTSP|-8.0||1|FM15-METAR|223|ICAO-KTSP|||||||||||||110|N-Normal|1|FM15-METAR|223|ICAO-KTSP|4.1|N-Normal|1|FM15-METAR|223|ICAO-KTSP|||||||||||||32|Derived||FM15-METAR|223|ICAO-KTSP|||||||||||||||||||||||||||||||||||||||||||||||||||||||||||||||||||||||||1016.9||1|FM15-METAR|223|ICAO-KTSP|||||||||||||||||||||||||||||||||||||||||||MET062METAR KTSP 260035Z AUTO 11008KT 10SM CLR 08/M08 A3003 RMK AO2;||F||223|ICAO-KTSP
USW00000479|TEHACHAPI MUNI AP|2009|12|26|01|00|35.1350|-118.4392|1219.5|7.0||1|FM15-METAR|223|ICAO-KTSP|-8.0||1|FM15-METAR|223|ICAO-KTSP|||||||||||||090|N-Normal|1|FM15-METAR|223|ICAO-KTSP|3.6|N-Normal|1|FM15-METAR|223|ICAO-KTSP|||||||||||||34|Derived||FM15-METAR|223|ICAO-KTSP|||||||||||||||||||||||||||||||||||||||||||||||||||||||||||||||||||||||||1016.9||1|FM15-METAR|223|ICAO-KTSP|||||||||||||||||||||||||||||||||||||||||||MET062METAR KTSP 260055Z AUTO 09007KT 10SM CLR 07/M08 A3003 RMK AO2;||F||223|ICAO-KTSP
USW00000479|TEHACHAPI MUNI AP|2009|12|26|01|15|35.1350|-118.4392|1219.5|7.0||1|FM15-METAR|223|ICAO-KTSP|-8.0||1|FM15-METAR|223|ICAO-KTSP|||||||||||||110|N-Normal|1|FM15-METAR|223|ICAO-KTSP|3.1|N-Normal|1|FM15-METAR|223|ICAO-KTSP|||||||||||||34|Derived||FM15-METAR|223|ICAO-KTSP|||||||||||||||||||||||||||||||||||||||||||||||||||||||||||||||||||||||||1017.3||1|FM15-METAR|223|ICAO-KTSP|||||||||||||||||||||||||||||||||||||||||||MET062METAR KTSP 260115Z AUTO 11006KT 10SM CLR 07/M08 A3004 RMK AO2;||F||223|ICAO-KTSP
USW00000479|TEHACHAPI MUNI AP|2009|12|26|01|35|35.1350|-118.4392|1219.5|3.0||1|FM15-METAR|223|ICAO-KTSP|-7.0||1|FM15-METAR|223|ICAO-KTSP|||||||||||||120|N-Normal|1|FM15-METAR|223|ICAO-KTSP|3.6|N-Normal|1|FM15-METAR|223|ICAO-KTSP|||||||||||||48|Derived||FM15-METAR|223|ICAO-KTSP|||||||||||||||||||||||||||||||||||||||||||||||||||||||||||||||||||||||||1017.3||1|FM15-METAR|223|ICAO-KTSP|||||||||||||||||||||||||||||||||||||||||||MET062METAR KTSP 260135Z AUTO 12007KT 10SM CLR 03/M07 A3004 RMK AO2;||F||223|ICAO-KTSP
USW00000479|TEHACHAPI MUNI AP|2009|12|26|02|00|35.1350|-118.4392|1219.5|3.0||1|FM15-METAR|223|ICAO-KTSP|-7.0||1|FM15-METAR|223|ICAO-KTSP|||||||||||||110|N-Normal|1|FM15-METAR|223|ICAO-KTSP|3.6|N-Normal|1|FM15-METAR|223|ICAO-KTSP|||||||||||||48|Derived||FM15-METAR|223|ICAO-KTSP|||||||||||||||||||||||||||||||||||||||||||||||||||||||||||||||||||||||||1016.9||1|FM15-METAR|223|ICAO-KTSP|||||||||||||||||||||||||||||||||||||||||||MET062METAR KTSP 260155Z AUTO 11007KT 10SM CLR 03/M07 A3003 RMK AO2;||F||223|ICAO-KTSP
USW00000479|TEHACHAPI MUNI AP|2009|12|26|02|15|35.1350|-118.4392|1219.5|2.0||1|FM15-METAR|223|ICAO-KTSP|-7.0||1|FM15-METAR|223|ICAO-KTSP|||||||||||||120|N-Normal|1|FM15-METAR|223|ICAO-KTSP|3.6|N-Normal|1|FM15-METAR|223|ICAO-KTSP|||||||||||||52|Derived||FM15-METAR|223|ICAO-KTSP|||||||||||||||||||||||||||||||||||||||||||||||||||||||||||||||||||||||||1016.9||1|FM15-METAR|223|ICAO-KTSP|||||||||||||||||||||||||||||||||||||||||||MET062METAR KTSP 260215Z AUTO 12007KT 10SM CLR 02/M07 A3003 RMK AO2;||F||223|ICAO-KTSP
USW00000479|TEHACHAPI MUNI AP|2009|12|26|02|35|35.1350|-118.4392|1219.5|2.0||1|FM15-METAR|223|ICAO-KTSP|-6.0||1|FM15-METAR|223|ICAO-KTSP|||||||||||||100|N-Normal|1|FM15-METAR|223|ICAO-KTSP|4.6|N-Normal|1|FM15-METAR|223|ICAO-KTSP|||||||||||||56|Derived||FM15-METAR|223|ICAO-KTSP|||||||||||||||||||||||||||||||||||||||||||||||||||||||||||||||||||||||||1017.3||1|FM15-METAR|223|ICAO-KTSP|||||||||||||||||||||||||||||||||||||||||||MET062METAR KTSP 260235Z AUTO 10009KT 10SM CLR 02/M06 A3004 RMK AO2;||F||223|ICAO-KTSP
USW00000479|TEHACHAPI MUNI AP|2009|12|26|03|00|35.1350|-118.4392|1219.5|1.0||1|FM15-METAR|223|ICAO-KTSP|-6.0||1|FM15-METAR|223|ICAO-KTSP|||||||||||||110|N-Normal|1|FM15-METAR|223|ICAO-KTSP|4.1|N-Normal|1|FM15-METAR|223|ICAO-KTSP|||||||||||||60|Derived||FM15-METAR|223|ICAO-KTSP|||||||||||||||||||||||||||||||||||||||||||||||||||||||||||||||||||||||||1017.3||1|FM15-METAR|223|ICAO-KTSP|||||||||||||||||||||||||||||||||||||||||||MET062METAR KTSP 260255Z AUTO 11008KT 10SM CLR 01/M06 A3004 RMK AO2;||F||223|ICAO-KTSP
USW00000479|TEHACHAPI MUNI AP|2009|12|26|03|15|35.1350|-118.4392|1219.5|0.0||1|FM15-METAR|223|ICAO-KTSP|-7.0||1|FM15-METAR|223|ICAO-KTSP|||||||||||||100|N-Normal|1|FM15-METAR|223|ICAO-KTSP|4.1|N-Normal|1|FM15-METAR|223|ICAO-KTSP|||||||||||||60|Derived||FM15-METAR|223|ICAO-KTSP|||||||||||||||||||||||||||||||||||||||||||||||||||||||||||||||||||||||||1017.6||1|FM15-METAR|223|ICAO-KTSP|||||||||||||||||||||||||||||||||||||||||||MET062METAR KTSP 260315Z AUTO 10008KT 10SM CLR 00/M07 A3005 RMK AO2;||F||223|ICAO-KTSP
USW00000479|TEHACHAPI MUNI AP|2009|12|26|03|35|35.1350|-118.4392|1219.5|3.0||1|FM15-METAR|223|ICAO-KTSP|-8.0||1|FM15-METAR|223|ICAO-KTSP|||||||||||||090|N-Normal|1|FM15-METAR|223|ICAO-KTSP|4.1|N-Normal|1|FM15-METAR|223|ICAO-KTSP|||||||||||||45|Derived||FM15-METAR|223|ICAO-KTSP|||||||||||||||||||||||||||||||||||||||||||||||||||||||||||||||||||||||||1017.3||1|FM15-METAR|223|ICAO-KTSP|||||||||||||||||||||||||||||||||||||||||||MET062METAR KTSP 260335Z AUTO 09008KT 10SM CLR 03/M08 A3004 RMK AO2;||F||223|ICAO-KTSP
USW00000479|TEHACHAPI MUNI AP|2009|12|26|04|00|35.1350|-118.4392|1219.5|2.0||1|FM15-METAR|223|ICAO-KTSP|-7.0||1|FM15-METAR|223|ICAO-KTSP|||||||||||||090|N-Normal|1|FM15-METAR|223|ICAO-KTSP|4.1|N-Normal|1|FM15-METAR|223|ICAO-KTSP|||||||||||||52|Derived||FM15-METAR|223|ICAO-KTSP|||||||||||||||||||||||||||||||||||||||||||||||||||||||||||||||||||||||||1017.3||1|FM15-METAR|223|ICAO-KTSP|||||||||||||||||||||||||||||||||||||||||||MET062METAR KTSP 260355Z AUTO 09008KT 10SM CLR 02/M07 A3004 RMK AO2;||F||223|ICAO-KTSP
USW00000479|TEHACHAPI MUNI AP|2009|12|26|04|15|35.1350|-118.4392|1219.5|0.0||1|FM15-METAR|223|ICAO-KTSP|-6.0||1|FM15-METAR|223|ICAO-KTSP|||||||||||||120|N-Normal|1|FM15-METAR|223|ICAO-KTSP|3.6|N-Normal|1|FM15-METAR|223|ICAO-KTSP|||||||||||||64|Derived||FM15-METAR|223|ICAO-KTSP|||||||||||||||||||||||||||||||||||||||||||||||||||||||||||||||||||||||||1017.6||1|FM15-METAR|223|ICAO-KTSP|||||||||||||||||||||||||||||||||||||||||||MET062METAR KTSP 260415Z AUTO 12007KT 10SM CLR 00/M06 A3005 RMK AO2;||F||223|ICAO-KTSP
USW00000479|TEHACHAPI MUNI AP|2009|12|26|04|35|35.1350|-118.4392|1219.5|0.0||1|FM15-METAR|223|ICAO-KTSP|-6.0||1|FM15-METAR|223|ICAO-KTSP|||||||||||||999|C-Calm|9|FM15-METAR|223|ICAO-KTSP|0.0|C-Calm|1|FM15-METAR|223|ICAO-KTSP|||||||||||||64|Derived||FM15-METAR|223|ICAO-KTSP|||||||||||||||||||||||||||||||||||||||||||||||||||||||||||||||||||||||||1017.6||1|FM15-METAR|223|ICAO-KTSP|||||||||||||||||||||||||||||||||||||||||||MET062METAR KTSP 260435Z AUTO 00000KT 10SM CLR 00/M06 A3005 RMK AO2;||F||223|ICAO-KTSP
USW00000479|TEHACHAPI MUNI AP|2009|12|26|05|00|35.1350|-118.4392|1219.5|0.0||1|FM15-METAR|223|ICAO-KTSP|-7.0||1|FM15-METAR|223|ICAO-KTSP|||||||||||||080|N-Normal|1|FM15-METAR|223|ICAO-KTSP|1.5|N-Normal|1|FM15-METAR|223|ICAO-KTSP|||||||||||||60|Derived||FM15-METAR|223|ICAO-KTSP|||||||||||||||||||||||||||||||||||||||||||||||||||||||||||||||||||||||||1018.0||1|FM15-METAR|223|ICAO-KTSP|||||||||||||||||||||||||||||||||||||||||||MET062METAR KTSP 260455Z AUTO 08003KT 10SM CLR 00/M07 A3006 RMK AO2;||F||223|ICAO-KTSP
USW00000479|TEHACHAPI MUNI AP|2009|12|26|05|15|35.1350|-118.4392|1219.5|0.0||1|FM15-METAR|223|ICAO-KTSP|-6.0||1|FM15-METAR|223|ICAO-KTSP|||||||||||||999|C-Calm|9|FM15-METAR|223|ICAO-KTSP|0.0|C-Calm|1|FM15-METAR|223|ICAO-KTSP|||||||||||||64|Derived||FM15-METAR|223|ICAO-KTSP|||||||||||||||||||||||||||||||||||||||||||||||||||||||||||||||||||||||||1018.0||1|FM15-METAR|223|ICAO-KTSP|||||||||||||||||||||||||||||||||||||||||||MET062METAR KTSP 260515Z AUTO 00000KT 10SM CLR 00/M06 A3006 RMK AO2;||F||223|ICAO-KTSP
USW00000479|TEHACHAPI MUNI AP|2009|12|26|05|35|35.1350|-118.4392|1219.5|0.0||1|FM15-METAR|223|ICAO-KTSP|-7.0||1|FM15-METAR|223|ICAO-KTSP|||||||||||||999|C-Calm|9|FM15-METAR|223|ICAO-KTSP|0.0|C-Calm|1|FM15-METAR|223|ICAO-KTSP|||||||||||||60|Derived||FM15-METAR|223|ICAO-KTSP|||||||||||||||||||||||||||||||||||||||||||||||||||||||||||||||||||||||||1018.0||1|FM15-METAR|223|ICAO-KTSP|||||||||||||||||||||||||||||||||||||||||||MET062METAR KTSP 260535Z AUTO 00000KT 10SM CLR 00/M07 A3006 RMK AO2;||F||223|ICAO-KTSP
USW00000479|TEHACHAPI MUNI AP|2009|12|26|06|00|35.1350|-118.4392|1219.5|0.0||1|FM15-METAR|223|ICAO-KTSP|-7.0||1|FM15-METAR|223|ICAO-KTSP|||||||||||||999|C-Calm|9|FM15-METAR|223|ICAO-KTSP|0.0|C-Calm|1|FM15-METAR|223|ICAO-KTSP|||||||||||||60|Derived||FM15-METAR|223|ICAO-KTSP|||||||||||||||||||||||||||||||||||||||||||||||||||||||||||||||||||||||||1018.3||1|FM15-METAR|223|ICAO-KTSP|||||||||||||||||||||||||||||||||||||||||||MET062METAR KTSP 260555Z AUTO 00000KT 10SM CLR 00/M07 A3007 RMK AO2;||F||223|ICAO-KTSP
USW00000479|TEHACHAPI MUNI AP|2009|12|26|06|15|35.1350|-118.4392|1219.5|0.0||1|FM15-METAR|223|ICAO-KTSP|-7.0||1|FM15-METAR|223|ICAO-KTSP|||||||||||||120|N-Normal|1|FM15-METAR|223|ICAO-KTSP|2.6|N-Normal|1|FM15-METAR|223|ICAO-KTSP|||||||||||||60|Derived||FM15-METAR|223|ICAO-KTSP|||||||||||||||||||||||||||||||||||||||||||||||||||||||||||||||||||||||||1018.3||1|FM15-METAR|223|ICAO-KTSP|||||||||||||||||||||||||||||||||||||||||||MET062METAR KTSP 260615Z AUTO 12005KT 10SM CLR 00/M07 A3007 RMK AO2;||F||223|ICAO-KTSP
USW00000479|TEHACHAPI MUNI AP|2009|12|26|06|35|35.1350|-118.4392|1219.5|-1.0||1|FM15-METAR|223|ICAO-KTSP|-6.0||1|FM15-METAR|223|ICAO-KTSP|||||||||||||120|N-Normal|1|FM15-METAR|223|ICAO-KTSP|1.5|N-Normal|1|FM15-METAR|223|ICAO-KTSP|||||||||||||69|Derived||FM15-METAR|223|ICAO-KTSP|||||||||||||||||||||||||||||||||||||||||||||||||||||||||||||||||||||||||1018.3||1|FM15-METAR|223|ICAO-KTSP|||||||||||||||||||||||||||||||||||||||||||MET063METAR KTSP 260635Z AUTO 12003KT 10SM CLR M01/M06 A3007 RMK AO2;||F||223|ICAO-KTSP
USW00000479|TEHACHAPI MUNI AP|2009|12|26|07|00|35.1350|-118.4392|1219.5|0.0||1|FM15-METAR|223|ICAO-KTSP|-7.0||1|FM15-METAR|223|ICAO-KTSP|||||||||||||999|C-Calm|9|FM15-METAR|223|ICAO-KTSP|0.0|C-Calm|1|FM15-METAR|223|ICAO-KTSP|||||||||||||60|Derived||FM15-METAR|223|ICAO-KTSP|||||||||||||||||||||||||||||||||||||||||||||||||||||||||||||||||||||||||1018.3||1|FM15-METAR|223|ICAO-KTSP|||||||||||||||||||||||||||||||||||||||||||MET062METAR KTSP 260655Z AUTO 00000KT 10SM CLR 00/M07 A3007 RMK AO2;||F||223|ICAO-KTSP
USW00000479|TEHACHAPI MUNI AP|2009|12|26|07|15|35.1350|-118.4392|1219.5|-1.0||1|FM15-METAR|223|ICAO-KTSP|-7.0||1|FM15-METAR|223|ICAO-KTSP|||||||||||||130|N-Normal|1|FM15-METAR|223|ICAO-KTSP|5.1|N-Normal|1|FM15-METAR|223|ICAO-KTSP|||||||||||||64|Derived||FM15-METAR|223|ICAO-KTSP|||||||||||||||||||||||||||||||||||||||||||||||||||||||||||||||||||||||||1018.0||1|FM15-METAR|223|ICAO-KTSP|||||||||||||||||||||||||||||||||||||||||||MET063METAR KTSP 260715Z AUTO 13010KT 10SM CLR M01/M07 A3006 RMK AO2;||F||223|ICAO-KTSP
USW00000479|TEHACHAPI MUNI AP|2009|12|26|07|35|35.1350|-118.4392|1219.5|0.0||1|FM15-METAR|223|ICAO-KTSP|-7.0||1|FM15-METAR|223|ICAO-KTSP|||||||||||||120|N-Normal|1|FM15-METAR|223|ICAO-KTSP|4.6|N-Normal|1|FM15-METAR|223|ICAO-KTSP|||||||||||||60|Derived||FM15-METAR|223|ICAO-KTSP|||||||||||||||||||||||||||||||||||||||||||||||||||||||||||||||||||||||||1017.6||1|FM15-METAR|223|ICAO-KTSP|||||||||||||||||||||||||||||||||||||||||||MET062METAR KTSP 260735Z AUTO 12009KT 10SM CLR 00/M07 A3005 RMK AO2;||F||223|ICAO-KTSP
USW00000479|TEHACHAPI MUNI AP|2009|12|26|08|00|35.1350|-118.4392|1219.5|-1.0||1|FM15-METAR|223|ICAO-KTSP|-7.0||1|FM15-METAR|223|ICAO-KTSP|||||||||||||120|N-Normal|1|FM15-METAR|223|ICAO-KTSP|4.6|N-Normal|1|FM15-METAR|223|ICAO-KTSP|||||||||||||64|Derived||FM15-METAR|223|ICAO-KTSP|||||||||||||||||||||||||||||||||||||||||||||||||||||||||||||||||||||||||1017.3||1|FM15-METAR|223|ICAO-KTSP|||||||||||||||||||||||||||||||||||||||||||MET063METAR KTSP 260755Z AUTO 12009KT 10SM CLR M01/M07 A3004 RMK AO2;||F||223|ICAO-KTSP
USW00000479|TEHACHAPI MUNI AP|2009|12|26|08|15|35.1350|-118.4392|1219.5|-1.0||1|FM15-METAR|223|ICAO-KTSP|-7.0||1|FM15-METAR|223|ICAO-KTSP|||||||||||||090|N-Normal|1|FM15-METAR|223|ICAO-KTSP|2.1|N-Normal|1|FM15-METAR|223|ICAO-KTSP|||||||||||||64|Derived||FM15-METAR|223|ICAO-KTSP|||||||||||||||||||||||||||||||||||||||||||||||||||||||||||||||||||||||||1017.3||1|FM15-METAR|223|ICAO-KTSP|||||||||||||||||||||||||||||||||||||||||||MET063METAR KTSP 260815Z AUTO 09004KT 10SM CLR M01/M07 A3004 RMK AO2;||F||223|ICAO-KTSP
USW00000479|TEHACHAPI MUNI AP|2009|12|26|08|35|35.1350|-118.4392|1219.5|-1.0||1|FM15-METAR|223|ICAO-KTSP|-7.0||1|FM15-METAR|223|ICAO-KTSP|||||||||||||070|N-Normal|1|FM15-METAR|223|ICAO-KTSP|1.5|N-Normal|1|FM15-METAR|223|ICAO-KTSP|||||||||||||64|Derived||FM15-METAR|223|ICAO-KTSP|||||||||||||||||||||||||||||||||||||||||||||||||||||||||||||||||||||||||1017.3||1|FM15-METAR|223|ICAO-KTSP|||||||||||||||||||||||||||||||||||||||||||MET063METAR KTSP 260835Z AUTO 07003KT 10SM CLR M01/M07 A3004 RMK AO2;||F||223|ICAO-KTSP
USW00000479|TEHACHAPI MUNI AP|2009|12|26|09|00|35.1350|-118.4392|1219.5|||||||||||||||||||||||||||||||||||||||||||||||||||||||||||||||||||||||||||||||||||||||||||||||||||||||||||||||||||||||||||||||||||||||||||||||||||||||||||||||||||||||||||||||MET037METAR KTSP 260855Z AUTO 10SM RMK AO2;||F||223|ICAO-KTSP
USW00000479|TEHACHAPI MUNI AP|2009|12|26|09|15|35.1350|-118.4392|1219.5|0.0||1|FM15-METAR|223|ICAO-KTSP|-7.0||1|FM15-METAR|223|ICAO-KTSP|||||||||||||110|N-Normal|1|FM15-METAR|223|ICAO-KTSP|4.6|N-Normal|1|FM15-METAR|223|ICAO-KTSP|||||||||||||60|Derived||FM15-METAR|223|ICAO-KTSP|||||||||||||||||||||||||||||||||||||||||||||||||||||||||||||||||||||||||1017.3||1|FM15-METAR|223|ICAO-KTSP|||||||||||||||||||||||||||||||||||||||||||MET058METAR KTSP 260915Z AUTO 11009KT 10SM 00/M07 A3004 RMK AO2;||F||223|ICAO-KTSP
USW00000479|TEHACHAPI MUNI AP|2009|12|26|09|35|35.1350|-118.4392|1219.5|0.0||1|FM15-METAR|223|ICAO-KTSP|-7.0||1|FM15-METAR|223|ICAO-KTSP|||||||||||||090|N-Normal|1|FM15-METAR|223|ICAO-KTSP|4.1|N-Normal|1|FM15-METAR|223|ICAO-KTSP|||||||||||||60|Derived||FM15-METAR|223|ICAO-KTSP|||||||||||||||||||||||||||||||||||||||||||||||||||||||||||||||||||||||||1017.6||1|FM15-METAR|223|ICAO-KTSP|||||||||||||||||||||||||||||||||||||||||||MET062METAR KTSP 260935Z AUTO 09008KT 10SM CLR 00/M07 A3005 RMK AO2;||F||223|ICAO-KTSP
USW00000479|TEHACHAPI MUNI AP|2009|12|26|10|00|35.1350|-118.4392|1219.5|||||||||||||||||||||||||||||||||||||||||||||||||||||||||||||||||||||||||||||||||||||||||||||||||||||||||||||||||||||||||||||||||||||||||||||||||||||||||||||||||||||||||||||||MET049METAR KTSP 260955Z AUTO RMK AO2 PWINO PNO FZRANO;||F||223|ICAO-KTSP
USW00000479|TEHACHAPI MUNI AP|2009|12|26|10|15|35.1350|-118.4392|1219.5|||||||||||||||||||||||||||||||||||||||||||||||||||||||||||||||||||||||||||||||||||||||||||||||||||||||||||||||||||||||||||||||||||||||||||||||||||||||||||||||||||||||||||||||MET054METAR KTSP 261015Z AUTO RMK AO2 PWINO PNO FZRANO TSNO;||F||223|ICAO-KTSP
USW00000479|TEHACHAPI MUNI AP|2009|12|26|10|35|35.1350|-118.4392|1219.5|||||||||||||||||||||||||||||||||||||||||||||||||||||||||||||||||||||||||||||||||||||||||||||||||||||||||||||||||||||||||||||||||||||||||||||||||||||||||||||||||||||||||||||||MET054METAR KTSP 261035Z AUTO RMK AO2 PWINO PNO FZRANO TSNO;||F||223|ICAO-KTSP
USW00000479|TEHACHAPI MUNI AP|2009|12|26|11|00|35.1350|-118.4392|1219.5|||||||||||||||||||||||||||||||||||||||||||||||||||||||||||||||||||||||||||||||||||||||||||||||||||||||||||||||||||||||||||||||||||||||||||||||||||||||||||||||||||||||||||||||MET054METAR KTSP 261055Z AUTO RMK AO2 PWINO PNO FZRANO TSNO;||F||223|ICAO-KTSP
USW00000479|TEHACHAPI MUNI AP|2009|12|26|11|15|35.1350|-118.4392|1219.5|||||||||||||||||||||||||||||||||||||||||||||||||||||||||||||||||||||||||||||||||||||||||||||||||||||||||||||||||||||||||||||||||||||||||||||||||||||||||||||||||||||||||||||||MET054METAR KTSP 261115Z AUTO RMK AO2 PWINO PNO FZRANO TSNO;||F||223|ICAO-KTSP
USW00000479|TEHACHAPI MUNI AP|2009|12|26|11|35|35.1350|-118.4392|1219.5|||||||||||||||||||||||||||||||||||||||||||||||||||||||||||||||||||||||||||||||||||||||||||||||||||||||||||||||||||||||||||||||||||||||||||||||||||||||||||||||||||||||||||||||MET054METAR KTSP 261135Z AUTO RMK AO2 PWINO PNO FZRANO TSNO;||F||223|ICAO-KTSP
USW00000479|TEHACHAPI MUNI AP|2009|12|26|12|00|35.1350|-118.4392|1219.5|||||||||||||||||||||||||||||||||||||||||||||||||||||||||||||||||||||||||||||||||||||||||||||||||||||||||||||||||||||||||||||||||||||||||||||||||||||||||||||||||||||||||||||||MET054METAR KTSP 261155Z AUTO RMK AO2 PWINO PNO FZRANO TSNO;||F||223|ICAO-KTSP
USW00000479|TEHACHAPI MUNI AP|2009|12|26|12|15|35.1350|-118.4392|1219.5|||||||||||||||||||||||||||||||||||||||||||||||||||||||||||||||||||||||||||||||||||||||||||||||||||||||||||||||||||||||||||||||||||||||||||||||||||||||||||||||||||||||||||||||MET054METAR KTSP 261215Z AUTO RMK AO2 PWINO PNO FZRANO TSNO;||F||223|ICAO-KTSP
USW00000479|TEHACHAPI MUNI AP|2009|12|26|12|35|35.1350|-118.4392|1219.5|||||||||||||||||||||||||||||||||||||||||||||||||||||||||||||||||||||||||||||||||||||||||||||||||||||||||||||||||||||||||||||||||||||||||||||||||||||||||||||||||||||||||||||||MET054METAR KTSP 261235Z AUTO RMK AO2 PWINO PNO FZRANO TSNO;||F||223|ICAO-KTSP
USW00000479|TEHACHAPI MUNI AP|2009|12|26|13|00|35.1350|-118.4392|1219.5|||||||||||||||||||||||||||||||||||||||||||||||||||||||||||||||||||||||||||||||||||||||||||||||||||||||||||||||||||||||||||||||||||||||||||||||||||||||||||||||||||||||||||||||MET054METAR KTSP 261255Z AUTO RMK AO2 PWINO PNO FZRANO TSNO;||F||223|ICAO-KTSP
USW00000479|TEHACHAPI MUNI AP|2009|12|26|13|15|35.1350|-118.4392|1219.5|||||||||||||||||||||||||||||||||||||||||||||||||||||||||||||||||||||||||||||||||||||||||||||||||||||||||||||||||||||||||||||||||||||||||||||||||||||||||||||||||||||||||||||||MET054METAR KTSP 261315Z AUTO RMK AO2 PWINO PNO FZRANO TSNO;||F||223|ICAO-KTSP
USW00000479|TEHACHAPI MUNI AP|2009|12|26|13|35|35.1350|-118.4392|1219.5|||||||||||||||||||||||||||||||||||||||||||||||||||||||||||||||||||||||||||||||||||||||||||||||||||||||||||||||||||||||||||||||||||||||||||||||||||||||||||||||||||||||||||||||MET054METAR KTSP 261335Z AUTO RMK AO2 PWINO PNO FZRANO TSNO;||F||223|ICAO-KTSP
USW00000479|TEHACHAPI MUNI AP|2009|12|26|14|00|35.1350|-118.4392|1219.5|||||||||||||||||||||||||||||||||||||||||||||||||||||||||||||||||||||||||||||||||||||||||||||||||||||||||||||||||||||||||||||||||||||||||||||||||||||||||||||||||||||||||||||||MET054METAR KTSP 261355Z AUTO RMK AO2 PWINO PNO FZRANO TSNO;||F||223|ICAO-KTSP
USW00000479|TEHACHAPI MUNI AP|2009|12|26|14|15|35.1350|-118.4392|1219.5|4.0||1|FM15-METAR|223|ICAO-KTSP|-9.0||1|FM15-METAR|223|ICAO-KTSP|||||||||||||090|N-Normal|1|FM15-METAR|223|ICAO-KTSP|5.1|N-Normal|1|FM15-METAR|223|ICAO-KTSP|||||||||||||39|Derived||FM15-METAR|223|ICAO-KTSP|||||||||||||||||||||||||||||||||||||||||||||||||||||||||||||||||||||||||1017.3||1|FM15-METAR|223|ICAO-KTSP|||||||||||||||||||||||||||||||||||||||||||MET058METAR KTSP 261415Z AUTO 09010KT 10SM 04/M09 A3004 RMK AO2;||F||223|ICAO-KTSP
USW00000479|TEHACHAPI MUNI AP|2009|12|26|14|35|35.1350|-118.4392|1219.5|4.0||1|FM15-METAR|223|ICAO-KTSP|-9.0||1|FM15-METAR|223|ICAO-KTSP|||||||||||||100|N-Normal|1|FM15-METAR|223|ICAO-KTSP|6.2|N-Normal|1|FM15-METAR|223|ICAO-KTSP|||||||||||||39|Derived||FM15-METAR|223|ICAO-KTSP|||||||||||||||||||||||||||||||||||||||||||||||||||||||||||||||||||||||||1018.0||1|FM15-METAR|223|ICAO-KTSP|||||||||||||||||||||||||||||||||||||||||||MET062METAR KTSP 261435Z AUTO 10012KT 10SM CLR 04/M09 A3006 RMK AO2;||F||223|ICAO-KTSP
USW00000479|TEHACHAPI MUNI AP|2009|12|26|15|00|35.1350|-118.4392|1219.5|3.0||1|FM15-METAR|223|ICAO-KTSP|-8.0||1|FM15-METAR|223|ICAO-KTSP|||||||||||||100|N-Normal|1|FM15-METAR|223|ICAO-KTSP|5.7|N-Normal|1|FM15-METAR|223|ICAO-KTSP|||||||||||||45|Derived||FM15-METAR|223|ICAO-KTSP|||||||||||||||||||||||||||||||||||||||||||||||||||||||||||||||||||||||||1018.0||1|FM15-METAR|223|ICAO-KTSP|||||||||||||||||||||||||||||||||||||||||||MET062METAR KTSP 261455Z AUTO 10011KT 10SM CLR 03/M08 A3006 RMK AO2;||F||223|ICAO-KTSP
USW00000479|TEHACHAPI MUNI AP|2009|12|26|15|15|35.1350|-118.4392|1219.5|3.0||1|FM15-METAR|223|ICAO-KTSP|-8.0||1|FM15-METAR|223|ICAO-KTSP|||||||||||||100|N-Normal|1|FM15-METAR|223|ICAO-KTSP|5.1|N-Normal|1|FM15-METAR|223|ICAO-KTSP|||||||||||||45|Derived||FM15-METAR|223|ICAO-KTSP|||||||||||||||||||||||||||||||||||||||||||||||||||||||||||||||||||||||||1018.3||1|FM15-METAR|223|ICAO-KTSP|||||||||||||||||||||||||||||||||||||||||||MET062METAR KTSP 261515Z AUTO 10010KT 10SM CLR 03/M08 A3007 RMK AO2;||F||223|ICAO-KTSP
USW00000479|TEHACHAPI MUNI AP|2009|12|26|15|35|35.1350|-118.4392|1219.5|3.0||1|FM15-METAR|223|ICAO-KTSP|-8.0||1|FM15-METAR|223|ICAO-KTSP|||||||||||||100|N-Normal|1|FM15-METAR|223|ICAO-KTSP|5.1|N-Normal|1|FM15-METAR|223|ICAO-KTSP|||||||||||||45|Derived||FM15-METAR|223|ICAO-KTSP|||||||||||||||||||||||||||||||||||||||||||||||||||||||||||||||||||||||||1018.3||1|FM15-METAR|223|ICAO-KTSP|||||||||||||||||||||||||||||||||||||||||||MET062METAR KTSP 261535Z AUTO 10010KT 10SM CLR 03/M08 A3007 RMK AO2;||F||223|ICAO-KTSP
USW00000479|TEHACHAPI MUNI AP|2009|12|26|16|00|35.1350|-118.4392|1219.5|3.0||1|FM15-METAR|223|ICAO-KTSP|-8.0||1|FM15-METAR|223|ICAO-KTSP|||||||||||||110|N-Normal|1|FM15-METAR|223|ICAO-KTSP|4.1|N-Normal|1|FM15-METAR|223|ICAO-KTSP|||||||||||||45|Derived||FM15-METAR|223|ICAO-KTSP|||||||||||||||||||||||||||||||||||||||||||||||||||||||||||||||||||||||||1018.3||1|FM15-METAR|223|ICAO-KTSP|||||||||||||||||||||||||||||||||||||||||||MET062METAR KTSP 261555Z AUTO 11008KT 10SM CLR 03/M08 A3007 RMK AO2;||F||223|ICAO-KTSP
USW00000479|TEHACHAPI MUNI AP|2009|12|26|16|15|35.1350|-118.4392|1219.5|4.0||1|FM15-METAR|223|ICAO-KTSP|-8.0||1|FM15-METAR|223|ICAO-KTSP|||||||||||||130|N-Normal|1|FM15-METAR|223|ICAO-KTSP|6.2|N-Normal|1|FM15-METAR|223|ICAO-KTSP|||||||||||||42|Derived||FM15-METAR|223|ICAO-KTSP|||||||||||||||||||||||||||||||||||||||||||||||||||||||||||||||||||||||||1018.3||1|FM15-METAR|223|ICAO-KTSP|||||||||||||||||||||||||||||||||||||||||||MET062METAR KTSP 261615Z AUTO 13012KT 10SM CLR 04/M08 A3007 RMK AO2;||F||223|ICAO-KTSP
USW00000479|TEHACHAPI MUNI AP|2009|12|26|16|35|35.1350|-118.4392|1219.5|4.0||1|FM15-METAR|223|ICAO-KTSP|-9.0||1|FM15-METAR|223|ICAO-KTSP|||||||||||||130|N-Normal|1|FM15-METAR|223|ICAO-KTSP|6.7|N-Normal|1|FM15-METAR|223|ICAO-KTSP|||||||||||||39|Derived||FM15-METAR|223|ICAO-KTSP|||||||||||||||||||||||||||||||||||||||||||||||||||||||||||||||||||||||||1018.6||1|FM15-METAR|223|ICAO-KTSP|||||||||||||||||||||||||||||||||||||||||||MET062METAR KTSP 261635Z AUTO 13013KT 10SM CLR 04/M09 A3008 RMK AO2;||F||223|ICAO-KTSP
USW00000479|TEHACHAPI MUNI AP|2009|12|26|17|00|35.1350|-118.4392|1219.5|4.0||1|FM15-METAR|223|ICAO-KTSP|-9.0||1|FM15-METAR|223|ICAO-KTSP|||||||||||||130|N-Normal|1|FM15-METAR|223|ICAO-KTSP|6.2|N-Normal|1|FM15-METAR|223|ICAO-KTSP|||||||||||||39|Derived||FM15-METAR|223|ICAO-KTSP|||||||||||||||||||||||||||||||||||||||||||||||||||||||||||||||||||||||||1019.0||1|FM15-METAR|223|ICAO-KTSP|||||||||||||||||||||||||||||||||||||||||||MET062METAR KTSP 261655Z AUTO 13012KT 10SM CLR 04/M09 A3009 RMK AO2;||F||223|ICAO-KTSP
USW00000479|TEHACHAPI MUNI AP|2009|12|26|17|15|35.1350|-118.4392|1219.5|4.0||1|FM15-METAR|223|ICAO-KTSP|-8.0||1|FM15-METAR|223|ICAO-KTSP|||||||||||||120|N-Normal|1|FM15-METAR|223|ICAO-KTSP|6.7|N-Normal|1|FM15-METAR|223|ICAO-KTSP|||||||||||||42|Derived||FM15-METAR|223|ICAO-KTSP|||||||||||||||||||||||||||||||||||||||||||||||||||||||||||||||||||||||||1019.3||1|FM15-METAR|223|ICAO-KTSP|||||||||||||||||||||||||||||||||||||||||||MET062METAR KTSP 261715Z AUTO 12013KT 10SM CLR 04/M08 A3010 RMK AO2;||F||223|ICAO-KTSP
USW00000479|TEHACHAPI MUNI AP|2009|12|26|17|35|35.1350|-118.4392|1219.5|4.0||1|FM15-METAR|223|ICAO-KTSP|-8.0||1|FM15-METAR|223|ICAO-KTSP|||||||||||||120|N-Normal|1|FM15-METAR|223|ICAO-KTSP|7.7|N-Normal|1|FM15-METAR|223|ICAO-KTSP|||||||||||||42|Derived||FM15-METAR|223|ICAO-KTSP|||||||||||||||||||||||||||||||||||||||||||||||||||||||||||||||||||||||||1019.3||1|FM15-METAR|223|ICAO-KTSP|||||||||||||||||||||||||||||||||||||||||||MET062METAR KTSP 261735Z AUTO 12015KT 10SM CLR 04/M08 A3010 RMK AO2;||F||223|ICAO-KTSP
USW00000479|TEHACHAPI MUNI AP|2009|12|26|18|00|35.1350|-118.4392|1219.5|5.0||1|FM15-METAR|223|ICAO-KTSP|-9.0||1|FM15-METAR|223|ICAO-KTSP|||||||||||||130|N-Normal|1|FM15-METAR|223|ICAO-KTSP|8.7|N-Normal|1|FM15-METAR|223|ICAO-KTSP|||||||||||||36|Derived||FM15-METAR|223|ICAO-KTSP|||||||||||||||||||||||||||||||||||||||||||||||||||||||||||||||||||||||||1019.3||1|FM15-METAR|223|ICAO-KTSP|||||||||||||||||||||||||||||||||||||||||||MET062METAR KTSP 261755Z AUTO 13017KT 10SM CLR 05/M09 A3010 RMK AO2;||F||223|ICAO-KTSP
USW00000479|TEHACHAPI MUNI AP|2009|12|26|18|15|35.1350|-118.4392|1219.5|7.0||1|FM15-METAR|223|ICAO-KTSP|-9.0||1|FM15-METAR|223|ICAO-KTSP|||||||||||||130|N-Normal|1|FM15-METAR|223|ICAO-KTSP|7.2|N-Normal|1|FM15-METAR|223|ICAO-KTSP|||||||||||||31|Derived||FM15-METAR|223|ICAO-KTSP|||||||||||||||||||||||||||||||||||||||||||||||||||||||||||||||||||||||||1019.6||1|FM15-METAR|223|ICAO-KTSP|||||||||||||||||||||||||||||||||||||||||||MET061METAR KTSP 261815Z AUTO 13014KT 9SM CLR 07/M09 A3011 RMK AO2;||F||223|ICAO-KTSP
USW00000479|TEHACHAPI MUNI AP|2009|12|26|18|35|35.1350|-118.4392|1219.5|7.0||1|FM15-METAR|223|ICAO-KTSP|-9.0||1|FM15-METAR|223|ICAO-KTSP|||||||||||||110|N-Normal|1|FM15-METAR|223|ICAO-KTSP|7.2|N-Normal|1|FM15-METAR|223|ICAO-KTSP|||||||||||||31|Derived||FM15-METAR|223|ICAO-KTSP|||||||||||||||||||||||||||||||||||||||||||||||||||||||||||||||||||||||||1019.6||1|FM15-METAR|223|ICAO-KTSP|||||||||||||||||||||||||||||||||||||||||||MET062METAR KTSP 261835Z AUTO 11014KT 10SM CLR 07/M09 A3011 RMK AO2;||F||223|ICAO-KTSP
USW00000479|TEHACHAPI MUNI AP|2009|12|26|19|00|35.1350|-118.4392|1219.5|7.0||1|FM15-METAR|223|ICAO-KTSP|-9.0||1|FM15-METAR|223|ICAO-KTSP|||||||||||||110|N-Normal|1|FM15-METAR|223|ICAO-KTSP|7.7|N-Normal|1|FM15-METAR|223|ICAO-KTSP|9.3||1|FM15-METAR|223|ICAO-KTSP|||||||31|Derived||FM15-METAR|223|ICAO-KTSP|||||||||||||||||||||||||||||||||||||||||||||||||||||||||||||||||||||||||1019.3||1|FM15-METAR|223|ICAO-KTSP|||||||||||||||||||||||||||||||||||||||||||MET065METAR KTSP 261855Z AUTO 11015G18KT 10SM CLR 07/M09 A3010 RMK AO2;||F||223|ICAO-KTSP
USW00000479|TEHACHAPI MUNI AP|2009|12|26|19|15|35.1350|-118.4392|1219.5|7.0||1|FM15-METAR|223|ICAO-KTSP|-9.0||1|FM15-METAR|223|ICAO-KTSP|||||||||||||110|N-Normal|1|FM15-METAR|223|ICAO-KTSP|7.2|N-Normal|1|FM15-METAR|223|ICAO-KTSP|||||||||||||31|Derived||FM15-METAR|223|ICAO-KTSP|||||||||||||||||||||||||||||||||||||||||||||||||||||||||||||||||||||||||1019.0||1|FM15-METAR|223|ICAO-KTSP|||||||||||||||||||||||||||||||||||||||||||MET062METAR KTSP 261915Z AUTO 11014KT 10SM CLR 07/M09 A3009 RMK AO2;||F||223|ICAO-KTSP
USW00000479|TEHACHAPI MUNI AP|2009|12|26|19|35|35.1350|-118.4392|1219.5|6.0||1|FM15-METAR|223|ICAO-KTSP|-9.0||1|FM15-METAR|223|ICAO-KTSP|||||||||||||110|N-Normal|1|FM15-METAR|223|ICAO-KTSP|7.7|N-Normal|1|FM15-METAR|223|ICAO-KTSP|||||||||||||34|Derived||FM15-METAR|223|ICAO-KTSP|||||||||||||||||||||||||||||||||||||||||||||||||||||||||||||||||||||||||1019.0||1|FM15-METAR|223|ICAO-KTSP|||||||||||||||||||||||||||||||||||||||||||MET062METAR KTSP 261935Z AUTO 11015KT 10SM CLR 06/M09 A3009 RMK AO2;||F||223|ICAO-KTSP
USW00000479|TEHACHAPI MUNI AP|2009|12|26|20|00|35.1350|-118.4392|1219.5|7.0||1|FM15-METAR|223|ICAO-KTSP|-9.0||1|FM15-METAR|223|ICAO-KTSP|||||||||||||110|N-Normal|1|FM15-METAR|223|ICAO-KTSP|8.2|N-Normal|1|FM15-METAR|223|ICAO-KTSP|10.3||1|FM15-METAR|223|ICAO-KTSP|||||||31|Derived||FM15-METAR|223|ICAO-KTSP|||||||||||||||||||||||||||||||||||||||||||||||||||||||||||||||||||||||||1018.6||1|FM15-METAR|223|ICAO-KTSP|||||||||||||||||||||||||||||||||||||||||||MET065METAR KTSP 261955Z AUTO 11016G20KT 10SM CLR 07/M09 A3008 RMK AO2;||F||223|ICAO-KTSP
USW00000479|TEHACHAPI MUNI AP|2009|12|26|20|15|35.1350|-118.4392|1219.5|6.0||1|FM15-METAR|223|ICAO-KTSP|-9.0||1|FM15-METAR|223|ICAO-KTSP|||||||||||||120|N-Normal|1|FM15-METAR|223|ICAO-KTSP|7.7|N-Normal|1|FM15-METAR|223|ICAO-KTSP|||||||||||||34|Derived||FM15-METAR|223|ICAO-KTSP|||||||||||||||||||||||||||||||||||||||||||||||||||||||||||||||||||||||||1018.3||1|FM15-METAR|223|ICAO-KTSP|||||||||||||||||||||||||||||||||||||||||||MET062METAR KTSP 262015Z AUTO 12015KT 10SM CLR 06/M09 A3007 RMK AO2;||F||223|ICAO-KTSP
USW00000479|TEHACHAPI MUNI AP|2009|12|26|20|35|35.1350|-118.4392|1219.5|5.0||1|FM15-METAR|223|ICAO-KTSP|-9.0||1|FM15-METAR|223|ICAO-KTSP|||||||||||||110|N-Normal|1|FM15-METAR|223|ICAO-KTSP|7.2|N-Normal|1|FM15-METAR|223|ICAO-KTSP|||||||||||||36|Derived||FM15-METAR|223|ICAO-KTSP|||||||||||||||||||||||||||||||||||||||||||||||||||||||||||||||||||||||||1018.6||1|FM15-METAR|223|ICAO-KTSP|||||||SCT:04|04-Four-ok|4|FM15-METAR|223|ICAO-KTSP|||||||||||||||||||||||||||||||MET065METAR KTSP 262035Z AUTO 11014KT 10SM SCT110 05/M09 A3008 RMK AO2;||F||223|ICAO-KTSP
USW00000479|TEHACHAPI MUNI AP|2009|12|26|21|00|35.1350|-118.4392|1219.5|6.0||1|FM15-METAR|223|ICAO-KTSP|-9.0||1|FM15-METAR|223|ICAO-KTSP|||||||||||||110|N-Normal|1|FM15-METAR|223|ICAO-KTSP|7.2|N-Normal|1|FM15-METAR|223|ICAO-KTSP|9.3||1|FM15-METAR|223|ICAO-KTSP|||||||34|Derived||FM15-METAR|223|ICAO-KTSP|||||||||||||||||||||||||||||||||||||||||||||||||||||||||||||||||||||||||1018.6||1|FM15-METAR|223|ICAO-KTSP|||||||BKN:07|07-Seven-o|4|FM15-METAR|223|ICAO-KTSP|||||||||||||||||||||||||||||||MET068METAR KTSP 262055Z AUTO 11014G18KT 10SM BKN110 06/M09 A3008 RMK AO2;||F||223|ICAO-KTSP
USW00000479|TEHACHAPI MUNI AP|2009|12|26|21|15|35.1350|-118.4392|1219.5|6.0||1|FM15-METAR|223|ICAO-KTSP|-9.0||1|FM15-METAR|223|ICAO-KTSP|||||||||||||120|N-Normal|1|FM15-METAR|223|ICAO-KTSP|7.2|N-Normal|1|FM15-METAR|223|ICAO-KTSP|||||||||||||34|Derived||FM15-METAR|223|ICAO-KTSP|||||||||||||||||||||||||||||||||||||||||||||||||||||||||||||||||||||||||1018.6||1|FM15-METAR|223|ICAO-KTSP|||||||SCT:04|04-Four-ok|4|FM15-METAR|223|ICAO-KTSP|||||||||||||||||||||||||||||||MET065METAR KTSP 262115Z AUTO 12014KT 10SM SCT110 06/M09 A3008 RMK AO2;||F||223|ICAO-KTSP
USW00000479|TEHACHAPI MUNI AP|2009|12|26|21|35|35.1350|-118.4392|1219.5|5.0||1|FM15-METAR|223|ICAO-KTSP|-9.0||1|FM15-METAR|223|ICAO-KTSP|||||||||||||100|N-Normal|1|FM15-METAR|223|ICAO-KTSP|6.7|N-Normal|1|FM15-METAR|223|ICAO-KTSP|||||||||||||36|Derived||FM15-METAR|223|ICAO-KTSP|||||||||||||||||||||||||||||||||||||||||||||||||||||||||||||||||||||||||1018.3||1|FM15-METAR|223|ICAO-KTSP|||||||||||||||||||||||||||||||||||||||||||MET062METAR KTSP 262135Z AUTO 10013KT 10SM CLR 05/M09 A3007 RMK AO2;||F||223|ICAO-KTSP
USW00000479|TEHACHAPI MUNI AP|2009|12|26|22|00|35.1350|-118.4392|1219.5|5.0||1|FM15-METAR|223|ICAO-KTSP|-9.0||1|FM15-METAR|223|ICAO-KTSP|||||||||||||110|N-Normal|1|FM15-METAR|223|ICAO-KTSP|6.7|N-Normal|1|FM15-METAR|223|ICAO-KTSP|9.3||1|FM15-METAR|223|ICAO-KTSP|||||||36|Derived||FM15-METAR|223|ICAO-KTSP|||||||||||||||||||||||||||||||||||||||||||||||||||||||||||||||||||||||||1018.0||1|FM15-METAR|223|ICAO-KTSP|||||||||||||||||||||||||||||||||||||||||||MET065METAR KTSP 262155Z AUTO 11013G18KT 10SM CLR 05/M09 A3006 RMK AO2;||F||223|ICAO-KTSP
USW00000479|TEHACHAPI MUNI AP|2009|12|26|22|15|35.1350|-118.4392|1219.5|5.0||1|FM15-METAR|223|ICAO-KTSP|-9.0||1|FM15-METAR|223|ICAO-KTSP|||||||||||||120|N-Normal|1|FM15-METAR|223|ICAO-KTSP|5.7|N-Normal|1|FM15-METAR|223|ICAO-KTSP|||||||||||||36|Derived||FM15-METAR|223|ICAO-KTSP|||||||||||||||||||||||||||||||||||||||||||||||||||||||||||||||||||||||||1018.3||1|FM15-METAR|223|ICAO-KTSP|||||||BKN:07|07-Seven-o|4|FM15-METAR|223|ICAO-KTSP|||||||||||||||||||||||||||||||MET065METAR KTSP 262215Z AUTO 12011KT 10SM BKN110 05/M09 A3007 RMK AO2;||F||223|ICAO-KTSP
USW00000479|TEHACHAPI MUNI AP|2009|12|26|22|35|35.1350|-118.4392|1219.5|5.0||1|FM15-METAR|223|ICAO-KTSP|-9.0||1|FM15-METAR|223|ICAO-KTSP|||||||||||||120|N-Normal|1|FM15-METAR|223|ICAO-KTSP|6.7|N-Normal|1|FM15-METAR|223|ICAO-KTSP|8.7||1|FM15-METAR|223|ICAO-KTSP|||||||36|Derived||FM15-METAR|223|ICAO-KTSP|||||||||||||||||||||||||||||||||||||||||||||||||||||||||||||||||||||||||1018.3||1|FM15-METAR|223|ICAO-KTSP|||||||BKN:07|07-Seven-o|4|FM15-METAR|223|ICAO-KTSP|||||||||||||||||||||||||||||||MET068METAR KTSP 262235Z AUTO 12013G17KT 10SM BKN110 05/M09 A3007 RMK AO2;||F||223|ICAO-KTSP
USW00000479|TEHACHAPI MUNI AP|2009|12|26|23|00|35.1350|-118.4392|1219.5|7.0||1|FM15-METAR|223|ICAO-KTSP|-9.0||1|FM15-METAR|223|ICAO-KTSP|||||||||||||110|N-Normal|1|FM15-METAR|223|ICAO-KTSP|6.2|N-Normal|1|FM15-METAR|223|ICAO-KTSP|||||||||||||31|Derived||FM15-METAR|223|ICAO-KTSP|||||||||||||||||||||||||||||||||||||||||||||||||||||||||||||||||||||||||1018.3||1|FM15-METAR|223|ICAO-KTSP|||||||BKN:07|07-Seven-o|4|FM15-METAR|223|ICAO-KTSP|||||||||||||||||||||||||||||||MET065METAR KTSP 262255Z AUTO 11012KT 10SM BKN110 07/M09 A3007 RMK AO2;||F||223|ICAO-KTSP
USW00000479|TEHACHAPI MUNI AP|2009|12|26|23|15|35.1350|-118.4392|1219.5|7.0||1|FM15-METAR|223|ICAO-KTSP|-9.0||1|FM15-METAR|223|ICAO-KTSP|||||||||||||110|N-Normal|1|FM15-METAR|223|ICAO-KTSP|6.2|N-Normal|1|FM15-METAR|223|ICAO-KTSP|8.2||1|FM15-METAR|223|ICAO-KTSP|||||||31|Derived||FM15-METAR|223|ICAO-KTSP|||||||||||||||||||||||||||||||||||||||||||||||||||||||||||||||||||||||||1018.3||1|FM15-METAR|223|ICAO-KTSP|||||||BKN:07|07-Seven-o|4|FM15-METAR|223|ICAO-KTSP|||||||||||||||||||||||||||||||MET068METAR KTSP 262315Z AUTO 11012G16KT 10SM BKN120 07/M09 A3007 RMK AO2;||F||223|ICAO-KTSP
USW00000479|TEHACHAPI MUNI AP|2009|12|26|23|35|35.1350|-118.4392|1219.5|5.0||1|FM15-METAR|223|ICAO-KTSP|-9.0||1|FM15-METAR|223|ICAO-KTSP|||||||||||||110|N-Normal|1|FM15-METAR|223|ICAO-KTSP|5.7|N-Normal|1|FM15-METAR|223|ICAO-KTSP|||||||||||||36|Derived||FM15-METAR|223|ICAO-KTSP|||||||||||||||||||||||||||||||||||||||||||||||||||||||||||||||||||||||||1018.6||1|FM15-METAR|223|ICAO-KTSP|||||||FEW:02|02-Two-okt|4|FM15-METAR|223|ICAO-KTSP|||||||||||||||||||||||||||||||MET065METAR KTSP 262335Z AUTO 11011KT 10SM FEW120 05/M09 A3008 RMK AO2;||F||223|ICAO-KTSP
USW00000479|TEHACHAPI MUNI AP|2009|12|27|00|00|35.1350|-118.4392|1219.5|5.0||1|FM15-METAR|223|ICAO-KTSP|-9.0||1|FM15-METAR|223|ICAO-KTSP|||||||||||||110|N-Normal|1|FM15-METAR|223|ICAO-KTSP|4.6|N-Normal|1|FM15-METAR|223|ICAO-KTSP|||||||||||||36|Derived||FM15-METAR|223|ICAO-KTSP|||||||||||||||||||||||||||||||||||||||||||||||||||||||||||||||||||||||||1018.6||1|FM15-METAR|223|ICAO-KTSP|||||||SCT:04|04-Four-ok|4|FM15-METAR|223|ICAO-KTSP|||||||||||||||||||||||||||||||MET065METAR KTSP 262355Z AUTO 11009KT 10SM SCT110 05/M09 A3008 RMK AO2;||F||223|ICAO-KTSP
USW00000479|TEHACHAPI MUNI AP|2009|12|27|00|15|35.1350|-118.4392|1219.5|5.0||1|FM15-METAR|223|ICAO-KTSP|-9.0||1|FM15-METAR|223|ICAO-KTSP|||||||||||||110|N-Normal|1|FM15-METAR|223|ICAO-KTSP|6.2|N-Normal|1|FM15-METAR|223|ICAO-KTSP|||||||||||||36|Derived||FM15-METAR|223|ICAO-KTSP|||||||||||||||||||||||||||||||||||||||||||||||||||||||||||||||||||||||||1018.6||1|FM15-METAR|223|ICAO-KTSP|||||||SCT:04|04-Four-ok|4|FM15-METAR|223|ICAO-KTSP|||||||||||||||||||||||||||||||MET065METAR KTSP 270015Z AUTO 11012KT 10SM SCT090 05/M09 A3008 RMK AO2;||F||223|ICAO-KTSP
USW00000479|TEHACHAPI MUNI AP|2009|12|27|00|35|35.1350|-118.4392|1219.5|4.0||1|FM15-METAR|223|ICAO-KTSP|-9.0||1|FM15-METAR|223|ICAO-KTSP|||||||||||||100|N-Normal|1|FM15-METAR|223|ICAO-KTSP|4.1|N-Normal|1|FM15-METAR|223|ICAO-KTSP|||||||||||||39|Derived||FM15-METAR|223|ICAO-KTSP|||||||||||||||||||||||||||||||||||||||||||||||||||||||||||||||||||||||||1018.6||1|FM15-METAR|223|ICAO-KTSP|||||||SCT:04|04-Four-ok|4|FM15-METAR|223|ICAO-KTSP|||||||||||||||||||||||||||||||MET065METAR KTSP 270035Z AUTO 10008KT 10SM SCT090 04/M09 A3008 RMK AO2;||F||223|ICAO-KTSP
USW00000479|TEHACHAPI MUNI AP|2009|12|27|01|00|35.1350|-118.4392|1219.5|4.0||1|FM15-METAR|223|ICAO-KTSP|-9.0||1|FM15-METAR|223|ICAO-KTSP|||||||||||||080|N-Normal|1|FM15-METAR|223|ICAO-KTSP|4.1|N-Normal|1|FM15-METAR|223|ICAO-KTSP|||||||||||||39|Derived||FM15-METAR|223|ICAO-KTSP|||||||||||||||||||||||||||||||||||||||||||||||||||||||||||||||||||||||||1018.6||1|FM15-METAR|223|ICAO-KTSP|||||||FEW:02|02-Two-okt|4|FM15-METAR|223|ICAO-KTSP|||||||||||||||||||||||||||||||MET065METAR KTSP 270055Z AUTO 08008KT 10SM FEW090 04/M09 A3008 RMK AO2;||F||223|ICAO-KTSP
USW00000479|TEHACHAPI MUNI AP|2009|12|27|01|15|35.1350|-118.4392|1219.5|3.0||1|FM15-METAR|223|ICAO-KTSP|-9.0||1|FM15-METAR|223|ICAO-KTSP|||||||||||||090|N-Normal|1|FM15-METAR|223|ICAO-KTSP|4.1|N-Normal|1|FM15-METAR|223|ICAO-KTSP|||||||||||||41|Derived||FM15-METAR|223|ICAO-KTSP|||||||||||||||||||||||||||||||||||||||||||||||||||||||||||||||||||||||||1018.6||1|FM15-METAR|223|ICAO-KTSP|||||||||||||||||||||||||||||||||||||||||||MET062METAR KTSP 270115Z AUTO 09008KT 10SM CLR 03/M09 A3008 RMK AO2;||F||223|ICAO-KTSP
USW00000479|TEHACHAPI MUNI AP|2009|12|27|01|35|35.1350|-118.4392|1219.5|3.0||1|FM15-METAR|223|ICAO-KTSP|-9.0||1|FM15-METAR|223|ICAO-KTSP|||||||||||||100|N-Normal|1|FM15-METAR|223|ICAO-KTSP|3.6|N-Normal|1|FM15-METAR|223|ICAO-KTSP|||||||||||||41|Derived||FM15-METAR|223|ICAO-KTSP|||||||||||||||||||||||||||||||||||||||||||||||||||||||||||||||||||||||||1018.6||1|FM15-METAR|223|ICAO-KTSP|||||||||||||||||||||||||||||||||||||||||||MET062METAR KTSP 270135Z AUTO 10007KT 10SM CLR 03/M09 A3008 RMK AO2;||F||223|ICAO-KTSP
USW00000479|TEHACHAPI MUNI AP|2009|12|27|02|00|35.1350|-118.4392|1219.5|3.0||1|FM15-METAR|223|ICAO-KTSP|-9.0||1|FM15-METAR|223|ICAO-KTSP|||||||||||||090|N-Normal|1|FM15-METAR|223|ICAO-KTSP|4.6|N-Normal|1|FM15-METAR|223|ICAO-KTSP|||||||||||||41|Derived||FM15-METAR|223|ICAO-KTSP|||||||||||||||||||||||||||||||||||||||||||||||||||||||||||||||||||||||||1019.0||1|FM15-METAR|223|ICAO-KTSP|||||||||||||||||||||||||||||||||||||||||||MET062METAR KTSP 270155Z AUTO 09009KT 10SM CLR 03/M09 A3009 RMK AO2;||F||223|ICAO-KTSP
USW00000479|TEHACHAPI MUNI AP|2009|12|27|02|15|35.1350|-118.4392|1219.5|3.0||1|FM15-METAR|223|ICAO-KTSP|-9.0||1|FM15-METAR|223|ICAO-KTSP|||||||||||||090|N-Normal|1|FM15-METAR|223|ICAO-KTSP|3.6|N-Normal|1|FM15-METAR|223|ICAO-KTSP|||||||||||||41|Derived||FM15-METAR|223|ICAO-KTSP|||||||||||||||||||||||||||||||||||||||||||||||||||||||||||||||||||||||||1019.0||1|FM15-METAR|223|ICAO-KTSP|||||||||||||||||||||||||||||||||||||||||||MET062METAR KTSP 270215Z AUTO 09007KT 10SM CLR 03/M09 A3009 RMK AO2;||F||223|ICAO-KTSP
USW00000479|TEHACHAPI MUNI AP|2009|12|27|02|35|35.1350|-118.4392|1219.5|2.0||1|FM15-METAR|223|ICAO-KTSP|-9.0||1|FM15-METAR|223|ICAO-KTSP|||||||||||||150|N-Normal|1|FM15-METAR|223|ICAO-KTSP|2.6|N-Normal|1|FM15-METAR|223|ICAO-KTSP|||||||||||||44|Derived||FM15-METAR|223|ICAO-KTSP|||||||||||||||||||||||||||||||||||||||||||||||||||||||||||||||||||||||||1019.3||1|FM15-METAR|223|ICAO-KTSP|||||||||||||||||||||||||||||||||||||||||||MET062METAR KTSP 270235Z AUTO 15005KT 10SM CLR 02/M09 A3010 RMK AO2;||F||223|ICAO-KTSP
USW00000479|TEHACHAPI MUNI AP|2009|12|27|03|00|35.1350|-118.4392|1219.5|0.0||1|FM15-METAR|223|ICAO-KTSP|-8.0||1|FM15-METAR|223|ICAO-KTSP|||||||||||||170|N-Normal|1|FM15-METAR|223|ICAO-KTSP|1.5|N-Normal|1|FM15-METAR|223|ICAO-KTSP|||||||||||||55|Derived||FM15-METAR|223|ICAO-KTSP|||||||||||||||||||||||||||||||||||||||||||||||||||||||||||||||||||||||||1019.6||1|FM15-METAR|223|ICAO-KTSP|||||||||||||||||||||||||||||||||||||||||||MET062METAR KTSP 270255Z AUTO 17003KT 10SM CLR 00/M08 A3011 RMK AO2;||F||223|ICAO-KTSP
USW00000479|TEHACHAPI MUNI AP|2009|12|27|03|15|35.1350|-118.4392|1219.5|0.0||1|FM15-METAR|223|ICAO-KTSP|-8.0||1|FM15-METAR|223|ICAO-KTSP|||||||||||||050|N-Normal|1|FM15-METAR|223|ICAO-KTSP|1.5|N-Normal|1|FM15-METAR|223|ICAO-KTSP|||||||||||||55|Derived||FM15-METAR|223|ICAO-KTSP|||||||||||||||||||||||||||||||||||||||||||||||||||||||||||||||||||||||||1020.0||1|FM15-METAR|223|ICAO-KTSP|||||||FEW:02|02-Two-okt|4|FM15-METAR|223|ICAO-KTSP|||||||||||||||||||||||||||||||MET065METAR KTSP 270315Z AUTO 05003KT 10SM FEW090 00/M08 A3012 RMK AO2;||F||223|ICAO-KTSP
USW00000479|TEHACHAPI MUNI AP|2009|12|27|03|35|35.1350|-118.4392|1219.5|-1.0||1|FM15-METAR|223|ICAO-KTSP|-7.0||1|FM15-METAR|223|ICAO-KTSP|||||||||||||090|N-Normal|1|FM15-METAR|223|ICAO-KTSP|2.6|N-Normal|1|FM15-METAR|223|ICAO-KTSP|||||||||||||64|Derived||FM15-METAR|223|ICAO-KTSP|||||||||||||||||||||||||||||||||||||||||||||||||||||||||||||||||||||||||1019.6||1|FM15-METAR|223|ICAO-KTSP|||||||SCT:04|04-Four-ok|4|FM15-METAR|223|ICAO-KTSP|||||||BKN:07|07-Seven-o|4|FM15-METAR|223|ICAO-KTSP|||||||||||||||||||MET073METAR KTSP 270335Z AUTO 09005KT 10SM SCT080 BKN085 M01/M07 A3011 RMK AO2;||F||223|ICAO-KTSP
USW00000479|TEHACHAPI MUNI AP|2009|12|27|04|00|35.1350|-118.4392|1219.5|-1.0||1|FM15-METAR|223|ICAO-KTSP|-6.0||1|FM15-METAR|223|ICAO-KTSP|||||||||||||140|N-Normal|1|FM15-METAR|223|ICAO-KTSP|2.6|N-Normal|1|FM15-METAR|223|ICAO-KTSP|||||||||||||69|Derived||FM15-METAR|223|ICAO-KTSP|||||||||||||||||||||||||||||||||||||||||||||||||||||||||||||||||||||||||1020.0||1|FM15-METAR|223|ICAO-KTSP|||||||OVC:08|08-Eight-o|4|FM15-METAR|223|ICAO-KTSP|||||||||||||||||||||||||||||||MET066METAR KTSP 270355Z AUTO 14005KT 10SM OVC080 M01/M06 A3012 RMK AO2;||F||223|ICAO-KTSP
USW00000479|TEHACHAPI MUNI AP|2009|12|27|04|15|35.1350|-118.4392|1219.5|0.0||1|FM15-METAR|223|ICAO-KTSP|-6.0||1|FM15-METAR|223|ICAO-KTSP|||||||||||||110|N-Normal|1|FM15-METAR|223|ICAO-KTSP|2.1|N-Normal|1|FM15-METAR|223|ICAO-KTSP|||||||||||||64|Derived||FM15-METAR|223|ICAO-KTSP|||||||||||||||||||||||||||||||||||||||||||||||||||||||||||||||||||||||||1020.0||1|FM15-METAR|223|ICAO-KTSP|||||||OVC:08|08-Eight-o|4|FM15-METAR|223|ICAO-KTSP|||||||||||||||||||||||||||||||MET065METAR KTSP 270415Z AUTO 11004KT 10SM OVC070 00/M06 A3012 RMK AO2;||F||223|ICAO-KTSP
USW00000479|TEHACHAPI MUNI AP|2009|12|27|04|35|35.1350|-118.4392|1219.5|0.0||1|FM15-METAR|223|ICAO-KTSP|-7.0||1|FM15-METAR|223|ICAO-KTSP|||||||||||||130|N-Normal|1|FM15-METAR|223|ICAO-KTSP|3.6|N-Normal|1|FM15-METAR|223|ICAO-KTSP|||||||||||||60|Derived||FM15-METAR|223|ICAO-KTSP|||||||||||||||||||||||||||||||||||||||||||||||||||||||||||||||||||||||||1020.0||1|FM15-METAR|223|ICAO-KTSP|||||||OVC:08|08-Eight-o|4|FM15-METAR|223|ICAO-KTSP|||||||||||||||||||||||||||||||MET065METAR KTSP 270435Z AUTO 13007KT 10SM OVC070 00/M07 A3012 RMK AO2;||F||223|ICAO-KTSP
USW00000479|TEHACHAPI MUNI AP|2009|12|27|05|00|35.1350|-118.4392|1219.5|0.0||1|FM15-METAR|223|ICAO-KTSP|-7.0||1|FM15-METAR|223|ICAO-KTSP|||||||||||||110|N-Normal|1|FM15-METAR|223|ICAO-KTSP|2.1|N-Normal|1|FM15-METAR|223|ICAO-KTSP|||||||||||||60|Derived||FM15-METAR|223|ICAO-KTSP|||||||||||||||||||||||||||||||||||||||||||||||||||||||||||||||||||||||||1020.3||1|FM15-METAR|223|ICAO-KTSP|||||||FEW:02|02-Two-okt|4|FM15-METAR|223|ICAO-KTSP|||||||||||||||||||||||||||||||MET065METAR KTSP 270455Z AUTO 11004KT 10SM FEW070 00/M07 A3013 RMK AO2;||F||223|ICAO-KTSP
USW00000479|TEHACHAPI MUNI AP|2009|12|27|05|15|35.1350|-118.4392|1219.5|0.0||1|FM15-METAR|223|ICAO-KTSP|-7.0||1|FM15-METAR|223|ICAO-KTSP|||||||||||||060|N-Normal|1|FM15-METAR|223|ICAO-KTSP|1.5|N-Normal|1|FM15-METAR|223|ICAO-KTSP|||||||||||||60|Derived||FM15-METAR|223|ICAO-KTSP|||||||||||||||||||||||||||||||||||||||||||||||||||||||||||||||||||||||||1020.7||1|FM15-METAR|223|ICAO-KTSP|||||||||||||||||||||||||||||||||||||||||||MET062METAR KTSP 270515Z AUTO 06003KT 10SM CLR 00/M07 A3014 RMK AO2;||F||223|ICAO-KTSP
USW00000479|TEHACHAPI MUNI AP|2009|12|27|05|35|35.1350|-118.4392|1219.5|-1.0||1|FM15-METAR|223|ICAO-KTSP|-7.0||1|FM15-METAR|223|ICAO-KTSP|||||||||||||140|N-Normal|1|FM15-METAR|223|ICAO-KTSP|2.1|N-Normal|1|FM15-METAR|223|ICAO-KTSP|||||||||||||64|Derived||FM15-METAR|223|ICAO-KTSP|||||||||||||||||||||||||||||||||||||||||||||||||||||||||||||||||||||||||1020.7||1|FM15-METAR|223|ICAO-KTSP|||||||SCT:04|04-Four-ok|4|FM15-METAR|223|ICAO-KTSP|||||||||||||||||||||||||||||||MET066METAR KTSP 270535Z AUTO 14004KT 10SM SCT060 M01/M07 A3014 RMK AO2;||F||223|ICAO-KTSP
USW00000479|TEHACHAPI MUNI AP|2009|12|27|06|00|35.1350|-118.4392|1219.5|0.0||1|FM15-METAR|223|ICAO-KTSP|-7.0||1|FM15-METAR|223|ICAO-KTSP|||||||||||||120|N-Normal|1|FM15-METAR|223|ICAO-KTSP|3.1|N-Normal|1|FM15-METAR|223|ICAO-KTSP|||||||||||||60|Derived||FM15-METAR|223|ICAO-KTSP|||||||||||||||||||||||||||||||||||||||||||||||||||||||||||||||||||||||||1020.7||1|FM15-METAR|223|ICAO-KTSP|||||||BKN:07|07-Seven-o|4|FM15-METAR|223|ICAO-KTSP|||||||||||||||||||||||||||||||MET065METAR KTSP 270555Z AUTO 12006KT 10SM BKN060 00/M07 A3014 RMK AO2;||F||223|ICAO-KTSP
USW00000479|TEHACHAPI MUNI AP|2009|12|27|06|15|35.1350|-118.4392|1219.5|-1.0||1|FM15-METAR|223|ICAO-KTSP|-7.0||1|FM15-METAR|223|ICAO-KTSP|||||||||||||110|N-Normal|1|FM15-METAR|223|ICAO-KTSP|3.1|N-Normal|1|FM15-METAR|223|ICAO-KTSP|||||||||||||64|Derived||FM15-METAR|223|ICAO-KTSP|||||||||||||||||||||||||||||||||||||||||||||||||||||||||||||||||||||||||1020.3||1|FM15-METAR|223|ICAO-KTSP|||||||BKN:07|07-Seven-o|4|FM15-METAR|223|ICAO-KTSP|||||||||||||||||||||||||||||||MET066METAR KTSP 270615Z AUTO 11006KT 10SM BKN060 M01/M07 A3013 RMK AO2;||F||223|ICAO-KTSP
USW00000479|TEHACHAPI MUNI AP|2009|12|27|06|35|35.1350|-118.4392|1219.5|-1.0||1|FM15-METAR|223|ICAO-KTSP|-7.0||1|FM15-METAR|223|ICAO-KTSP|||||||||||||130|N-Normal|1|FM15-METAR|223|ICAO-KTSP|3.6|N-Normal|1|FM15-METAR|223|ICAO-KTSP|||||||||||||64|Derived||FM15-METAR|223|ICAO-KTSP|||||||||||||||||||||||||||||||||||||||||||||||||||||||||||||||||||||||||1020.7||1|FM15-METAR|223|ICAO-KTSP|||||||OVC:08|08-Eight-o|4|FM15-METAR|223|ICAO-KTSP|||||||||||||||||||||||||||||||MET066METAR KTSP 270635Z AUTO 13007KT 10SM OVC060 M01/M07 A3014 RMK AO2;||F||223|ICAO-KTSP
USW00000479|TEHACHAPI MUNI AP|2009|12|27|07|00|35.1350|-118.4392|1219.5|0.0||1|FM15-METAR|223|ICAO-KTSP|-7.0||1|FM15-METAR|223|ICAO-KTSP|||||||||||||100|N-Normal|1|FM15-METAR|223|ICAO-KTSP|1.5|N-Normal|1|FM15-METAR|223|ICAO-KTSP|||||||||||||60|Derived||FM15-METAR|223|ICAO-KTSP|||||||||||||||||||||||||||||||||||||||||||||||||||||||||||||||||||||||||1020.7||1|FM15-METAR|223|ICAO-KTSP|||||||OVC:08|08-Eight-o|4|FM15-METAR|223|ICAO-KTSP|||||||||||||||||||||||||||||||MET065METAR KTSP 270655Z AUTO 10003KT 10SM OVC060 00/M07 A3014 RMK AO2;||F||223|ICAO-KTSP
USW00000479|TEHACHAPI MUNI AP|2009|12|27|07|15|35.1350|-118.4392|1219.5|||||||||||||||||||||||||||||||||||||||||||||||||||||||||||||||||||||||||||||||||||||||||||||||||||||||||||||||||||||||||||||||||||||||||||||||||||||||||||||||||||||||||||||||MET049METAR KTSP 270715Z AUTO RMK AO2 PWINO PNO FZRANO;||F||223|ICAO-KTSP
USW00000479|TEHACHAPI MUNI AP|2009|12|27|07|35|35.1350|-118.4392|1219.5|||||||||||||||||||||||||||||||||||||||||||||||||||||||||||||||||||||||||||||||||||||||||||||||||||||||||||||||||||||||||||||||||||||||||||||||||||||||||||||||||||||||||||||||MET054METAR KTSP 270735Z AUTO RMK AO2 PWINO PNO FZRANO TSNO;||F||223|ICAO-KTSP
USW00000479|TEHACHAPI MUNI AP|2009|12|27|08|00|35.1350|-118.4392|1219.5|||||||||||||||||||||||||||||||||||||||||||||||||||||||||||||||||||||||||||||||||||||||||||||||||||||||||||||||||||||||||||||||||||||||||||||||||||||||||||||||||||||||||||||||MET054METAR KTSP 270755Z AUTO RMK AO2 PWINO PNO FZRANO TSNO;||F||223|ICAO-KTSP
USW00000479|TEHACHAPI MUNI AP|2009|12|27|08|15|35.1350|-118.4392|1219.5|||||||||||||||||||||||||||||||||||||||||||||||||||||||||||||||||||||||||||||||||||||||||||||||||||||||||||||||||||||||||||||||||||||||||||||||||||||||||||||||||||||||||||||||MET054METAR KTSP 270815Z AUTO RMK AO2 PWINO PNO FZRANO TSNO;||F||223|ICAO-KTSP
USW00000479|TEHACHAPI MUNI AP|2009|12|27|08|35|35.1350|-118.4392|1219.5|||||||||||||||||||||||||||||||||||||||||||||||||||||||||||||||||||||||||||||||||||||||||||||||||||||||||||||||||||||||||||||||||||||||||||||||||||||||||||||||||||||||||||||||MET054METAR KTSP 270835Z AUTO RMK AO2 PWINO PNO FZRANO TSNO;||F||223|ICAO-KTSP
USW00000479|TEHACHAPI MUNI AP|2009|12|27|09|00|35.1350|-118.4392|1219.5|||||||||||||||||||||||||||||||||||||||||||||||||||||||||||||||||||||||||||||||||||||||||||||||||||||||||||||||||||||||||||||||||||||||||||||||||||||||||||||||||||||||||||||||MET054METAR KTSP 270855Z AUTO RMK AO2 PWINO PNO FZRANO TSNO;||F||223|ICAO-KTSP
USW00000479|TEHACHAPI MUNI AP|2009|12|27|09|15|35.1350|-118.4392|1219.5|||||||||||||||||||||||||||||||||||||||||||||||||||||||||||||||||||||||||||||||||||||||||||||||||||||||||||||||||||||||||||||||||||||||||||||||||||||||||||||||||||||||||||||||MET054METAR KTSP 270915Z AUTO RMK AO2 PWINO PNO FZRANO TSNO;||F||223|ICAO-KTSP
USW00000479|TEHACHAPI MUNI AP|2009|12|27|09|35|35.1350|-118.4392|1219.5|||||||||||||||||||||||||||||||||||||||||||||||||||||||||||||||||||||||||||||||||||||||||||||||||||||||||||||||||||||||||||||||||||||||||||||||||||||||||||||||||||||||||||||||MET054METAR KTSP 270935Z AUTO RMK AO2 PWINO PNO FZRANO TSNO;||F||223|ICAO-KTSP
USW00000479|TEHACHAPI MUNI AP|2009|12|27|10|00|35.1350|-118.4392|1219.5|-2.0||1|FM15-METAR|223|ICAO-KTSP|-5.0||1|FM15-METAR|223|ICAO-KTSP|||||||||||||999|C-Calm|9|FM15-METAR|223|ICAO-KTSP|0.0|C-Calm|1|FM15-METAR|223|ICAO-KTSP|||||||||||||80|Derived||FM15-METAR|223|ICAO-KTSP|||||||||||||||||||||||||||||||||||||||||||||||||||||||||||||||||||||||||1020.3||1|FM15-METAR|223|ICAO-KTSP|||||||||||||||||||||||||||||||||||||||||||MET059METAR KTSP 270955Z AUTO 00000KT 10SM M02/M05 A3013 RMK AO2;||F||223|ICAO-KTSP
USW00000479|TEHACHAPI MUNI AP|2009|12|27|10|15|35.1350|-118.4392|1219.5|||||||||||||||||||||||||||||||||||||||||||||||||||||||||||||||||||||||||||||||||||||||||||||||||||||||||||||||||||||||||||||||||||||||||||||||||||||||||||||||||||||||||||||||MET049METAR KTSP 271015Z AUTO RMK AO2 PWINO PNO FZRANO;||F||223|ICAO-KTSP
USW00000479|TEHACHAPI MUNI AP|2009|12|27|10|35|35.1350|-118.4392|1219.5|||||||||||||||||||||||||||||||||||||||||||||||||||||||||||||||||||||||||||||||||||||||||||||||||||||||||||||||||||||||||||||||||||||||||||||||||||||||||||||||||||||||||||||||MET054METAR KTSP 271035Z AUTO RMK AO2 PWINO PNO FZRANO TSNO;||F||223|ICAO-KTSP
USW00000479|TEHACHAPI MUNI AP|2009|12|27|11|00|35.1350|-118.4392|1219.5|||||||||||||||||||||||||||||||||||||||||||||||||||||||||||||||||||||||||||||||||||||||||||||||||||||||||||||||||||||||||||||||1020.3||1|FM15-METAR|223|ICAO-KTSP|||||||||||||||||||||||||||||||||||||||||||MET038METAR KTSP 271055Z AUTO A3013 RMK AO2;||F||223|ICAO-KTSP
USW00000479|TEHACHAPI MUNI AP|2009|12|27|11|15|35.1350|-118.4392|1219.5|-3.0||1|FM15-METAR|223|ICAO-KTSP|-6.0||1|FM15-METAR|223|ICAO-KTSP|||||||||||||100|N-Normal|1|FM15-METAR|223|ICAO-KTSP|1.5|N-Normal|1|FM15-METAR|223|ICAO-KTSP|||||||||||||80|Derived||FM15-METAR|223|ICAO-KTSP|||||||||||||||||||||||||||||||||||||||||||||||||||||||||||||||||||||||||1020.3||1|FM15-METAR|223|ICAO-KTSP|||||||||||||||||||||||||||||||||||||||||||MET059METAR KTSP 271115Z AUTO 10003KT 10SM M03/M06 A3013 RMK AO2;||F||223|ICAO-KTSP
USW00000479|TEHACHAPI MUNI AP|2009|12|27|11|35|35.1350|-118.4392|1219.5|||||||||||||||||||||||||||||||||||||||||||||||||||||||||||||||||||||||||||||||||||||||||||||||||||||||||||||||||||||||||||||||||||||||||||||||||||||||||||||||||||||||||||||||MET054METAR KTSP 271135Z AUTO RMK AO2 PWINO PNO FZRANO TSNO;||F||223|ICAO-KTSP
USW00000479|TEHACHAPI MUNI AP|2009|12|27|12|00|35.1350|-118.4392|1219.5|-4.0||1|FM15-METAR|223|ICAO-KTSP|-7.0||1|FM15-METAR|223|ICAO-KTSP|||||||||||||999|C-Calm|9|FM15-METAR|223|ICAO-KTSP|0.0|C-Calm|1|FM15-METAR|223|ICAO-KTSP|||||||||||||80|Derived||FM15-METAR|223|ICAO-KTSP|||||||||||||||||||||||||||||||||||||||||||||||||||||||||||||||||||||||||1020.3||1|FM15-METAR|223|ICAO-KTSP|||||||||||||||||||||||||||||||||||||||||||MET059METAR KTSP 271155Z AUTO 00000KT 10SM M04/M07 A3013 RMK AO2;||F||223|ICAO-KTSP
USW00000479|TEHACHAPI MUNI AP|2009|12|27|12|15|35.1350|-118.4392|1219.5|-4.0||1|FM15-METAR|223|ICAO-KTSP|-6.0||1|FM15-METAR|223|ICAO-KTSP|||||||||||||999|C-Calm|9|FM15-METAR|223|ICAO-KTSP|0.0|C-Calm|1|FM15-METAR|223|ICAO-KTSP|||||||||||||86|Derived||FM15-METAR|223|ICAO-KTSP|||||||||||||||||||||||||||||||||||||||||||||||||||||||||||||||||||||||||1020.0||1|FM15-METAR|223|ICAO-KTSP|||||||||||||||||||||||||||||||||||||||||||MET063METAR KTSP 271215Z AUTO 00000KT 10SM CLR M04/M06 A3012 RMK AO2;||F||223|ICAO-KTSP
USW00000479|TEHACHAPI MUNI AP|2009|12|27|12|35|35.1350|-118.4392|1219.5|-4.0||1|FM15-METAR|223|ICAO-KTSP|-7.0||1|FM15-METAR|223|ICAO-KTSP|||||||||||||160|N-Normal|1|FM15-METAR|223|ICAO-KTSP|1.5|N-Normal|1|FM15-METAR|223|ICAO-KTSP|||||||||||||80|Derived||FM15-METAR|223|ICAO-KTSP|||||||||||||||||||||||||||||||||||||||||||||||||||||||||||||||||||||||||1020.0||1|FM15-METAR|223|ICAO-KTSP|||||||||||||||||||||||||||||||||||||||||||MET063METAR KTSP 271235Z AUTO 16003KT 10SM CLR M04/M07 A3012 RMK AO2;||F||223|ICAO-KTSP
USW00000479|TEHACHAPI MUNI AP|2009|12|27|13|00|35.1350|-118.4392|1219.5|-3.0||1|FM15-METAR|223|ICAO-KTSP|-7.0||1|FM15-METAR|223|ICAO-KTSP|||||||||||||999|C-Calm|9|FM15-METAR|223|ICAO-KTSP|0.0|C-Calm|1|FM15-METAR|223|ICAO-KTSP|||||||||||||74|Derived||FM15-METAR|223|ICAO-KTSP|||||||||||||||||||||||||||||||||||||||||||||||||||||||||||||||||||||||||1020.3||1|FM15-METAR|223|ICAO-KTSP|||||||||||||||||||||||||||||||||||||||||||MET063METAR KTSP 271255Z AUTO 00000KT 10SM CLR M03/M07 A3013 RMK AO2;||F||223|ICAO-KTSP
USW00000479|TEHACHAPI MUNI AP|2009|12|27|13|15|35.1350|-118.4392|1219.5|-4.0||1|FM15-METAR|223|ICAO-KTSP|-6.0||1|FM15-METAR|223|ICAO-KTSP|||||||||||||999|C-Calm|9|FM15-METAR|223|ICAO-KTSP|0.0|C-Calm|1|FM15-METAR|223|ICAO-KTSP|||||||||||||86|Derived||FM15-METAR|223|ICAO-KTSP|||||||||||||||||||||||||||||||||||||||||||||||||||||||||||||||||||||||||1020.7||1|FM15-METAR|223|ICAO-KTSP|||||||BKN:07|07-Seven-o|4|FM15-METAR|223|ICAO-KTSP|||||||||||||||||||||||||||||||MET066METAR KTSP 271315Z AUTO 00000KT 10SM BKN030 M04/M06 A3014 RMK AO2;||F||223|ICAO-KTSP
USW00000479|TEHACHAPI MUNI AP|2009|12|27|13|35|35.1350|-118.4392|1219.5|-3.0||1|FM15-METAR|223|ICAO-KTSP|-5.0||1|FM15-METAR|223|ICAO-KTSP|||||||||||||999|C-Calm|9|FM15-METAR|223|ICAO-KTSP|0.0|C-Calm|1|FM15-METAR|223|ICAO-KTSP|||||||||||||86|Derived||FM15-METAR|223|ICAO-KTSP|||||||||||||||||||||||||||||||||||||||||||||||||||||||||||||||||||||||||1020.7||1|FM15-METAR|223|ICAO-KTSP|||||||OVC:08|08-Eight-o|4|FM15-METAR|223|ICAO-KTSP|||||||||||||||||||||||||||||||MET066METAR KTSP 271335Z AUTO 00000KT 10SM OVC032 M03/M05 A3014 RMK AO2;||F||223|ICAO-KTSP
USW00000479|TEHACHAPI MUNI AP|2009|12|27|14|15|35.1350|-118.4392|1219.5|||||||||||||||||||||||||||||||||||||||||||||||||||||||||||||||||||||||||||||||||||||||||||||||||||||||||||||||||||||||||||||||||||||||||||||||||||||||||||||||||||||||||||||||MET054METAR KTSP 271415Z AUTO RMK AO2 PWINO PNO FZRANO TSNO;||F||223|ICAO-KTSP
USW00000479|TEHACHAPI MUNI AP|2009|12|27|14|35|35.1350|-118.4392|1219.5|-2.0||1|FM15-METAR|223|ICAO-KTSP|-5.0||1|FM15-METAR|223|ICAO-KTSP|||||||||||||090|N-Normal|1|FM15-METAR|223|ICAO-KTSP|2.1|N-Normal|1|FM15-METAR|223|ICAO-KTSP|||||||||||||80|Derived||FM15-METAR|223|ICAO-KTSP|||||||||||||||||||||||||||||||||||||||||||||||||||||||||||||||||||||||||1021.0||1|FM15-METAR|223|ICAO-KTSP|||||||||||||||||||||||||||||||||||||||||||MET059METAR KTSP 271435Z AUTO 09004KT 10SM M02/M05 A3015 RMK AO2;||F||223|ICAO-KTSP
USW00000479|TEHACHAPI MUNI AP|2009|12|27|15|00|35.1350|-118.4392|1219.5|-3.0||1|FM15-METAR|223|ICAO-KTSP|-6.0||1|FM15-METAR|223|ICAO-KTSP|||||||||||||999|C-Calm|9|FM15-METAR|223|ICAO-KTSP|0.0|C-Calm|1|FM15-METAR|223|ICAO-KTSP|||||||||||||80|Derived||FM15-METAR|223|ICAO-KTSP|||||||||||||||||||||||||||||||||||||||||||||||||||||||||||||||||||||||||1020.7||1|FM15-METAR|223|ICAO-KTSP|||||||||||||||||||||||||||||||||||||||||||MET063METAR KTSP 271455Z AUTO 00000KT 10SM CLR M03/M06 A3014 RMK AO2;||F||223|ICAO-KTSP
USW00000479|TEHACHAPI MUNI AP|2009|12|27|15|15|35.1350|-118.4392|1219.5|-3.0||1|FM15-METAR|223|ICAO-KTSP|-6.0||1|FM15-METAR|223|ICAO-KTSP|||||||||||||999|C-Calm|9|FM15-METAR|223|ICAO-KTSP|0.0|C-Calm|1|FM15-METAR|223|ICAO-KTSP|||||||||||||80|Derived||FM15-METAR|223|ICAO-KTSP|||||||||||||||||||||||||||||||||||||||||||||||||||||||||||||||||||||||||1021.3||1|FM15-METAR|223|ICAO-KTSP|||||||||||||||||||||||||||||||||||||||||||MET063METAR KTSP 271515Z AUTO 00000KT 10SM CLR M03/M06 A3016 RMK AO2;||F||223|ICAO-KTSP
USW00000479|TEHACHAPI MUNI AP|2009|12|27|15|35|35.1350|-118.4392|1219.5|-2.0||1|FM15-METAR|223|ICAO-KTSP|-5.0||1|FM15-METAR|223|ICAO-KTSP|||||||||||||040|N-Normal|1|FM15-METAR|223|ICAO-KTSP|1.5|N-Normal|1|FM15-METAR|223|ICAO-KTSP|||||||||||||80|Derived||FM15-METAR|223|ICAO-KTSP|||||||||||||||||||||||||||||||||||||||||||||||||||||||||||||||||||||||||1021.3||1|FM15-METAR|223|ICAO-KTSP|||||||BKN:07|07-Seven-o|4|FM15-METAR|223|ICAO-KTSP|||||||||||||||||||||||||||||||MET065METAR KTSP 271535Z AUTO 04003KT 9SM BKN030 M02/M05 A3016 RMK AO2;||F||223|ICAO-KTSP
USW00000479|TEHACHAPI MUNI AP|2009|12|27|16|00|35.1350|-118.4392|1219.5|0.0||1|FM15-METAR|223|ICAO-KTSP|-4.0||1|FM15-METAR|223|ICAO-KTSP|||||||||||||999|C-Calm|9|FM15-METAR|223|ICAO-KTSP|0.0|C-Calm|1|FM15-METAR|223|ICAO-KTSP|||||||||||||75|Derived||FM15-METAR|223|ICAO-KTSP|||||||||||||||||||||||||||||||||||||||||||||||||||||||||||||||||||||||||1021.7||1|FM15-METAR|223|ICAO-KTSP|||||||OVC:08|08-Eight-o|4|FM15-METAR|223|ICAO-KTSP|||||||||||||||||||||||||||||||MET065METAR KTSP 271555Z AUTO 00000KT 10SM OVC032 00/M04 A3017 RMK AO2;||F||223|ICAO-KTSP
USW00000479|TEHACHAPI MUNI AP|2009|12|27|16|15|35.1350|-118.4392|1219.5|0.0||1|FM15-METAR|223|ICAO-KTSP|-4.0||1|FM15-METAR|223|ICAO-KTSP|||||||||||||999|C-Calm|9|FM15-METAR|223|ICAO-KTSP|0.0|C-Calm|1|FM15-METAR|223|ICAO-KTSP|||||||||||||75|Derived||FM15-METAR|223|ICAO-KTSP|||||||||||||||||||||||||||||||||||||||||||||||||||||||||||||||||||||||||1021.7||1|FM15-METAR|223|ICAO-KTSP|||||||OVC:08|08-Eight-o|4|FM15-METAR|223|ICAO-KTSP|||||||||||||||||||||||||||||||MET065METAR KTSP 271615Z AUTO 00000KT 10SM OVC038 00/M04 A3017 RMK AO2;||F||223|ICAO-KTSP
USW00000479|TEHACHAPI MUNI AP|2009|12|27|16|35|35.1350|-118.4392|1219.5|2.0||1|FM15-METAR|223|ICAO-KTSP|-4.0||1|FM15-METAR|223|ICAO-KTSP|||||||||||||999|C-Calm|9|FM15-METAR|223|ICAO-KTSP|0.0|C-Calm|1|FM15-METAR|223|ICAO-KTSP|||||||||||||65|Derived||FM15-METAR|223|ICAO-KTSP|||||||||||||||||||||||||||||||||||||||||||||||||||||||||||||||||||||||||1022.0||1|FM15-METAR|223|ICAO-KTSP|||||||BKN:07|07-Seven-o|4|FM15-METAR|223|ICAO-KTSP|||||||||||||||||||||||||||||||MET065METAR KTSP 271635Z AUTO 00000KT 10SM BKN038 02/M04 A3018 RMK AO2;||F||223|ICAO-KTSP
USW00000479|TEHACHAPI MUNI AP|2009|12|27|17|00|35.1350|-118.4392|1219.5|3.0||1|FM15-METAR|223|ICAO-KTSP|-4.0||1|FM15-METAR|223|ICAO-KTSP|||||||||||||999|C-Calm|9|FM15-METAR|223|ICAO-KTSP|0.0|C-Calm|1|FM15-METAR|223|ICAO-KTSP|||||||||||||60|Derived||FM15-METAR|223|ICAO-KTSP|||||||||||||||||||||||||||||||||||||||||||||||||||||||||||||||||||||||||1022.4||1|FM15-METAR|223|ICAO-KTSP|||||||SCT:04|04-Four-ok|4|FM15-METAR|223|ICAO-KTSP|||||||||||||||||||||||||||||||MET065METAR KTSP 271655Z AUTO 00000KT 10SM SCT040 03/M04 A3019 RMK AO2;||F||223|ICAO-KTSP
USW00000479|TEHACHAPI MUNI AP|2009|12|27|17|15|35.1350|-118.4392|1219.5|3.0||1|FM15-METAR|223|ICAO-KTSP|-4.0||1|FM15-METAR|223|ICAO-KTSP|||||||||||||999|C-Calm|9|FM15-METAR|223|ICAO-KTSP|0.0|C-Calm|1|FM15-METAR|223|ICAO-KTSP|||||||||||||60|Derived||FM15-METAR|223|ICAO-KTSP|||||||||||||||||||||||||||||||||||||||||||||||||||||||||||||||||||||||||1022.4||1|FM15-METAR|223|ICAO-KTSP|||||||BKN:07|07-Seven-o|4|FM15-METAR|223|ICAO-KTSP|||||||||||||||||||||||||||||||MET065METAR KTSP 271715Z AUTO 00000KT 10SM BKN043 03/M04 A3019 RMK AO2;||F||223|ICAO-KTSP
USW00000479|TEHACHAPI MUNI AP|2009|12|27|17|35|35.1350|-118.4392|1219.5|5.0||1|FM15-METAR|223|ICAO-KTSP|-4.0||1|FM15-METAR|223|ICAO-KTSP|||||||||||||999|C-Calm|9|FM15-METAR|223|ICAO-KTSP|0.0|C-Calm|1|FM15-METAR|223|ICAO-KTSP|||||||||||||53|Derived||FM15-METAR|223|ICAO-KTSP|||||||||||||||||||||||||||||||||||||||||||||||||||||||||||||||||||||||||1022.7||1|FM15-METAR|223|ICAO-KTSP|||||||BKN:07|07-Seven-o|4|FM15-METAR|223|ICAO-KTSP|||||||BKN:07|07-Seven-o|4|FM15-METAR|223|ICAO-KTSP|||||||||||||||||||MET079METAR KTSP 271735Z AUTO 00000KT 10SM BKN030 BKN039 OVC045 05/M04 A3020 RMK AO2;||F||223|ICAO-KTSP
USW00000479|TEHACHAPI MUNI AP|2009|12|27|18|00|35.1350|-118.4392|1219.5|7.0||1|FM15-METAR|223|ICAO-KTSP|-4.0||1|FM15-METAR|223|ICAO-KTSP|||||||||||||300|N-Normal|1|FM15-METAR|223|ICAO-KTSP|4.1|N-Normal|1|FM15-METAR|223|ICAO-KTSP|||||||||||||46|Derived||FM15-METAR|223|ICAO-KTSP|||||||||||||||||||||||||||||||||||||||||||||||||||||||||||||||||||||||||1022.7||1|FM15-METAR|223|ICAO-KTSP|||||||BKN:07|07-Seven-o|4|FM15-METAR|223|ICAO-KTSP|||||||OVC:08|08-Eight-o|4|FM15-METAR|223|ICAO-KTSP|||||||||||||||||||MET072METAR KTSP 271755Z AUTO 30008KT 10SM BKN031 OVC037 07/M04 A3020 RMK AO2;||F||223|ICAO-KTSP
USW00000479|TEHACHAPI MUNI AP|2009|12|27|18|15|35.1350|-118.4392|1219.5|7.0||1|FM15-METAR|223|ICAO-KTSP|-3.0||1|FM15-METAR|223|ICAO-KTSP|||||||||||||320|N-Normal|1|FM15-METAR|223|ICAO-KTSP|3.6|N-Normal|1|FM15-METAR|223|ICAO-KTSP|||||||||||||49|Derived||FM15-METAR|223|ICAO-KTSP|||||||||||||||||||||||||||||||||||||||||||||||||||||||||||||||||||||||||1022.7||1|FM15-METAR|223|ICAO-KTSP|||||||BKN:07|07-Seven-o|4|FM15-METAR|223|ICAO-KTSP|||||||OVC:08|08-Eight-o|4|FM15-METAR|223|ICAO-KTSP|||||||||||||||||||MET072METAR KTSP 271815Z AUTO 32007KT 10SM BKN031 OVC038 07/M03 A3020 RMK AO2;||F||223|ICAO-KTSP
USW00000479|TEHACHAPI MUNI AP|2009|12|27|18|35|35.1350|-118.4392|1219.5|7.0||1|FM15-METAR|223|ICAO-KTSP|-2.0||1|FM15-METAR|223|ICAO-KTSP|||||||||||||290|N-Normal|1|FM15-METAR|223|ICAO-KTSP|4.1|N-Normal|1|FM15-METAR|223|ICAO-KTSP|||||||||||||53|Derived||FM15-METAR|223|ICAO-KTSP|||||||||||||||||||||||||||||||||||||||||||||||||||||||||||||||||||||||||1022.7||1|FM15-METAR|223|ICAO-KTSP|||||||OVC:08|08-Eight-o|4|FM15-METAR|223|ICAO-KTSP|||||||||||||||||||||||||||||||MET065METAR KTSP 271835Z AUTO 29008KT 10SM OVC033 07/M02 A3020 RMK AO2;||F||223|ICAO-KTSP
USW00000479|TEHACHAPI MUNI AP|2009|12|27|19|00|35.1350|-118.4392|1219.5|8.0||1|FM15-METAR|223|ICAO-KTSP|-2.0||1|FM15-METAR|223|ICAO-KTSP|||||||||||||320|N-Normal|1|FM15-METAR|223|ICAO-KTSP|3.6|N-Normal|1|FM15-METAR|223|ICAO-KTSP|||||||||||||50|Derived||FM15-METAR|223|ICAO-KTSP|||||||||||||||||||||||||||||||||||||||||||||||||||||||||||||||||||||||||1022.4||1|FM15-METAR|223|ICAO-KTSP|||||||OVC:08|08-Eight-o|4|FM15-METAR|223|ICAO-KTSP|||||||||||||||||||||||||||||||MET065METAR KTSP 271855Z AUTO 32007KT 10SM OVC035 08/M02 A3019 RMK AO2;||F||223|ICAO-KTSP
USW00000479|TEHACHAPI MUNI AP|2009|12|27|19|15|35.1350|-118.4392|1219.5|7.0||1|FM15-METAR|223|ICAO-KTSP|-2.0||1|FM15-METAR|223|ICAO-KTSP|||||||||||||300|N-Normal|1|FM15-METAR|223|ICAO-KTSP|4.1|N-Normal|1|FM15-METAR|223|ICAO-KTSP|||||||||||||53|Derived||FM15-METAR|223|ICAO-KTSP|||||||||||||||||||||||||||||||||||||||||||||||||||||||||||||||||||||||||1022.0||1|FM15-METAR|223|ICAO-KTSP|||||||OVC:08|08-Eight-o|4|FM15-METAR|223|ICAO-KTSP|||||||||||||||||||||||||||||||MET065METAR KTSP 271915Z AUTO 30008KT 10SM OVC033 07/M02 A3018 RMK AO2;||F||223|ICAO-KTSP
USW00000479|TEHACHAPI MUNI AP|2009|12|27|19|35|35.1350|-118.4392|1219.5|7.0||1|FM15-METAR|223|ICAO-KTSP|0.0||1|FM15-METAR|223|ICAO-KTSP|||||||||||||310|N-Normal|1|FM15-METAR|223|ICAO-KTSP|5.1|N-Normal|1|FM15-METAR|223|ICAO-KTSP|||||||||||||61|Derived||FM15-METAR|223|ICAO-KTSP|||||||||||||||||||||||||||||||||||||||||||||||||||||||||||||||||||||||||1022.0||1|FM15-METAR|223|ICAO-KTSP|||||||OVC:08|08-Eight-o|4|FM15-METAR|223|ICAO-KTSP|||||||||||||||||||||||||||||||MET064METAR KTSP 271935Z AUTO 31010KT 10SM OVC031 07/00 A3018 RMK AO2;||F||223|ICAO-KTSP
USW00000479|TEHACHAPI MUNI AP|2009|12|27|20|00|35.1350|-118.4392|1219.5|7.0||1|FM15-METAR|223|ICAO-KTSP|0.0||1|FM15-METAR|223|ICAO-KTSP|||||||||||||310|N-Normal|1|FM15-METAR|223|ICAO-KTSP|4.6|N-Normal|1|FM15-METAR|223|ICAO-KTSP|||||||||||||61|Derived||FM15-METAR|223|ICAO-KTSP|||||||||||||||||||||||||||||||||||||||||||||||||||||||||||||||||||||||||1021.7||1|FM15-METAR|223|ICAO-KTSP|||||||OVC:08|08-Eight-o|4|FM15-METAR|223|ICAO-KTSP|||||||||||||||||||||||||||||||MET064METAR KTSP 271955Z AUTO 31009KT 10SM OVC031 07/00 A3017 RMK AO2;||F||223|ICAO-KTSP
USW00000479|TEHACHAPI MUNI AP|2009|12|27|20|15|35.1350|-118.4392|1219.5|7.0||1|FM15-METAR|223|ICAO-KTSP|0.0||1|FM15-METAR|223|ICAO-KTSP|||||||||||||320|N-Normal|1|FM15-METAR|223|ICAO-KTSP|3.6|N-Normal|1|FM15-METAR|223|ICAO-KTSP|||||||||||||61|Derived||FM15-METAR|223|ICAO-KTSP|||||||||||||||||||||||||||||||||||||||||||||||||||||||||||||||||||||||||1021.3||1|FM15-METAR|223|ICAO-KTSP|||||||BKN:07|07-Seven-o|4|FM15-METAR|223|ICAO-KTSP|||||||OVC:08|08-Eight-o|4|FM15-METAR|223|ICAO-KTSP|||||||||||||||||||MET071METAR KTSP 272015Z AUTO 32007KT 10SM BKN029 OVC035 07/00 A3016 RMK AO2;||F||223|ICAO-KTSP
USW00000479|TEHACHAPI MUNI AP|2009|12|27|20|35|35.1350|-118.4392|1219.5|8.0||1|FM15-METAR|223|ICAO-KTSP|0.0||1|FM15-METAR|223|ICAO-KTSP|||||||||||||320|N-Normal|1|FM15-METAR|223|ICAO-KTSP|4.6|N-Normal|1|FM15-METAR|223|ICAO-KTSP|||||||||||||57|Derived||FM15-METAR|223|ICAO-KTSP|||||||||||||||||||||||||||||||||||||||||||||||||||||||||||||||||||||||||1021.3||1|FM15-METAR|223|ICAO-KTSP|||||||OVC:08|08-Eight-o|4|FM15-METAR|223|ICAO-KTSP|||||||||||||||||||||||||||||||MET064METAR KTSP 272035Z AUTO 32009KT 10SM OVC031 08/00 A3016 RMK AO2;||F||223|ICAO-KTSP
USW00000479|TEHACHAPI MUNI AP|2009|12|27|21|00|35.1350|-118.4392|1219.5|8.0||1|FM15-METAR|223|ICAO-KTSP|0.0||1|FM15-METAR|223|ICAO-KTSP|||||||||||||310|N-Normal|1|FM15-METAR|223|ICAO-KTSP|4.1|N-Normal|1|FM15-METAR|223|ICAO-KTSP|||||||||||||57|Derived||FM15-METAR|223|ICAO-KTSP|||||||||||||||||||||||||||||||||||||||||||||||||||||||||||||||||||||||||1021.0||1|FM15-METAR|223|ICAO-KTSP|||||||BKN:07|07-Seven-o|4|FM15-METAR|223|ICAO-KTSP|||||||||||||||||||||||||||||||MET064METAR KTSP 272055Z AUTO 31008KT 10SM BKN031 08/00 A3015 RMK AO2;||F||223|ICAO-KTSP
USW00000479|TEHACHAPI MUNI AP|2009|12|27|21|15|35.1350|-118.4392|1219.5|8.0||1|FM15-METAR|223|ICAO-KTSP|0.0||1|FM15-METAR|223|ICAO-KTSP|||||||||||||310|N-Normal|1|FM15-METAR|223|ICAO-KTSP|3.1|N-Normal|1|FM15-METAR|223|ICAO-KTSP|||||||||||||57|Derived||FM15-METAR|223|ICAO-KTSP|||||||||||||||||||||||||||||||||||||||||||||||||||||||||||||||||||||||||1020.7||1|FM15-METAR|223|ICAO-KTSP|||||||BKN:07|07-Seven-o|4|FM15-METAR|223|ICAO-KTSP|||||||||||||||||||||||||||||||MET064METAR KTSP 272115Z AUTO 31006KT 10SM BKN029 08/00 A3014 RMK AO2;||F||223|ICAO-KTSP
USW00000479|TEHACHAPI MUNI AP|2009|12|27|21|35|35.1350|-118.4392|1219.5|8.0||1|FM15-METAR|223|ICAO-KTSP|0.0||1|FM15-METAR|223|ICAO-KTSP|||||||||||||320|N-Normal|1|FM15-METAR|223|ICAO-KTSP|2.1|N-Normal|1|FM15-METAR|223|ICAO-KTSP|||||||||||||57|Derived||FM15-METAR|223|ICAO-KTSP|||||||||||||||||||||||||||||||||||||||||||||||||||||||||||||||||||||||||1020.3||1|FM15-METAR|223|ICAO-KTSP|||||||FEW:02|02-Two-okt|4|FM15-METAR|223|ICAO-KTSP|||||||||||||||||||||||||||||||MET064METAR KTSP 272135Z AUTO 32004KT 10SM FEW029 08/00 A3013 RMK AO2;||F||223|ICAO-KTSP
USW00000479|TEHACHAPI MUNI AP|2009|12|27|22|00|35.1350|-118.4392|1219.5|8.0||1|FM15-METAR|223|ICAO-KTSP|1.0||1|FM15-METAR|223|ICAO-KTSP|||||||||||||320|N-Normal|1|FM15-METAR|223|ICAO-KTSP|1.5|N-Normal|1|FM15-METAR|223|ICAO-KTSP|||||||||||||62|Derived||FM15-METAR|223|ICAO-KTSP|||||||||||||||||||||||||||||||||||||||||||||||||||||||||||||||||||||||||1020.3||1|FM15-METAR|223|ICAO-KTSP|||||||||||||||||||||||||||||||||||||||||||MET061METAR KTSP 272155Z AUTO 32003KT 10SM CLR 08/01 A3013 RMK AO2;||F||223|ICAO-KTSP
USW00000479|TEHACHAPI MUNI AP|2009|12|27|22|15|35.1350|-118.4392|1219.5|8.0||1|FM15-METAR|223|ICAO-KTSP|1.0||1|FM15-METAR|223|ICAO-KTSP|||||||||||||290|N-Normal|1|FM15-METAR|223|ICAO-KTSP|2.1|N-Normal|1|FM15-METAR|223|ICAO-KTSP|||||||||||||62|Derived||FM15-METAR|223|ICAO-KTSP|||||||||||||||||||||||||||||||||||||||||||||||||||||||||||||||||||||||||1020.3||1|FM15-METAR|223|ICAO-KTSP|||||||||||||||||||||||||||||||||||||||||||MET061METAR KTSP 272215Z AUTO 29004KT 10SM CLR 08/01 A3013 RMK AO2;||F||223|ICAO-KTSP
USW00000479|TEHACHAPI MUNI AP|2009|12|27|22|35|35.1350|-118.4392|1219.5|8.0||1|FM15-METAR|223|ICAO-KTSP|1.0||1|FM15-METAR|223|ICAO-KTSP|||||||||||||999|C-Calm|9|FM15-METAR|223|ICAO-KTSP|0.0|C-Calm|1|FM15-METAR|223|ICAO-KTSP|||||||||||||62|Derived||FM15-METAR|223|ICAO-KTSP|||||||||||||||||||||||||||||||||||||||||||||||||||||||||||||||||||||||||1020.3||1|FM15-METAR|223|ICAO-KTSP|||||||SCT:04|04-Four-ok|4|FM15-METAR|223|ICAO-KTSP|||||||||||||||||||||||||||||||MET064METAR KTSP 272235Z AUTO 00000KT 10SM SCT031 08/01 A3013 RMK AO2;||F||223|ICAO-KTSP
USW00000479|TEHACHAPI MUNI AP|2009|12|27|23|00|35.1350|-118.4392|1219.5|8.0||1|FM15-METAR|223|ICAO-KTSP|1.0||1|FM15-METAR|223|ICAO-KTSP|||||||||||||999|C-Calm|9|FM15-METAR|223|ICAO-KTSP|0.0|C-Calm|1|FM15-METAR|223|ICAO-KTSP|||||||||||||62|Derived||FM15-METAR|223|ICAO-KTSP|||||||||||||||||||||||||||||||||||||||||||||||||||||||||||||||||||||||||1020.3||1|FM15-METAR|223|ICAO-KTSP|||||||SCT:04|04-Four-ok|4|FM15-METAR|223|ICAO-KTSP|||||||||||||||||||||||||||||||MET064METAR KTSP 272255Z AUTO 00000KT 10SM SCT031 08/01 A3013 RMK AO2;||F||223|ICAO-KTSP
USW00000479|TEHACHAPI MUNI AP|2009|12|27|23|15|35.1350|-118.4392|1219.5|8.0||1|FM15-METAR|223|ICAO-KTSP|1.0||1|FM15-METAR|223|ICAO-KTSP|||||||||||||030|N-Normal|1|FM15-METAR|223|ICAO-KTSP|1.5|N-Normal|1|FM15-METAR|223|ICAO-KTSP|||||||||||||62|Derived||FM15-METAR|223|ICAO-KTSP|||||||||||||||||||||||||||||||||||||||||||||||||||||||||||||||||||||||||1020.3||1|FM15-METAR|223|ICAO-KTSP|||||||||||||||||||||||||||||||||||||||||||MET061METAR KTSP 272315Z AUTO 03003KT 10SM CLR 08/01 A3013 RMK AO2;||F||223|ICAO-KTSP
USW00000479|TEHACHAPI MUNI AP|2009|12|27|23|35|35.1350|-118.4392|1219.5|8.0||1|FM15-METAR|223|ICAO-KTSP|1.0||1|FM15-METAR|223|ICAO-KTSP|||||||||||||100|N-Normal|1|FM15-METAR|223|ICAO-KTSP|3.6|N-Normal|1|FM15-METAR|223|ICAO-KTSP|||||||||||||62|Derived||FM15-METAR|223|ICAO-KTSP|||||||||||||||||||||||||||||||||||||||||||||||||||||||||||||||||||||||||1020.3||1|FM15-METAR|223|ICAO-KTSP|||||||||||||||||||||||||||||||||||||||||||MET061METAR KTSP 272335Z AUTO 10007KT 10SM CLR 08/01 A3013 RMK AO2;||F||223|ICAO-KTSP
USW00000479|TEHACHAPI MUNI AP|2009|12|28|00|00|35.1350|-118.4392|1219.5|7.0||1|FM15-METAR|223|ICAO-KTSP|-3.0||1|FM15-METAR|223|ICAO-KTSP|||||||||||||130|N-Normal|1|FM15-METAR|223|ICAO-KTSP|2.6|N-Normal|1|FM15-METAR|223|ICAO-KTSP|||||||||||||49|Derived||FM15-METAR|223|ICAO-KTSP|||||||||||||||||||||||||||||||||||||||||||||||||||||||||||||||||||||||||1020.3||1|FM15-METAR|223|ICAO-KTSP|||||||||||||||||||||||||||||||||||||||||||MET062METAR KTSP 272355Z AUTO 13005KT 10SM CLR 07/M03 A3013 RMK AO2;||F||223|ICAO-KTSP
USW00000479|TEHACHAPI MUNI AP|2009|12|28|00|15|35.1350|-118.4392|1219.5|6.0||1|FM15-METAR|223|ICAO-KTSP|-5.0||1|FM15-METAR|223|ICAO-KTSP|||||||||||||100|N-Normal|1|FM15-METAR|223|ICAO-KTSP|3.1|N-Normal|1|FM15-METAR|223|ICAO-KTSP|||||||||||||46|Derived||FM15-METAR|223|ICAO-KTSP|||||||||||||||||||||||||||||||||||||||||||||||||||||||||||||||||||||||||1020.7||1|FM15-METAR|223|ICAO-KTSP|||||||||||||||||||||||||||||||||||||||||||MET062METAR KTSP 280015Z AUTO 10006KT 10SM CLR 06/M05 A3014 RMK AO2;||F||223|ICAO-KTSP
USW00000479|TEHACHAPI MUNI AP|2009|12|28|00|35|35.1350|-118.4392|1219.5|5.0||1|FM15-METAR|223|ICAO-KTSP|-5.0||1|FM15-METAR|223|ICAO-KTSP|||||||||||||100|N-Normal|1|FM15-METAR|223|ICAO-KTSP|4.1|N-Normal|1|FM15-METAR|223|ICAO-KTSP|||||||||||||49|Derived||FM15-METAR|223|ICAO-KTSP|||||||||||||||||||||||||||||||||||||||||||||||||||||||||||||||||||||||||1020.7||1|FM15-METAR|223|ICAO-KTSP|||||||||||||||||||||||||||||||||||||||||||MET062METAR KTSP 280035Z AUTO 10008KT 10SM CLR 05/M05 A3014 RMK AO2;||F||223|ICAO-KTSP
USW00000479|TEHACHAPI MUNI AP|2009|12|28|01|00|35.1350|-118.4392|1219.5|4.0||1|FM15-METAR|223|ICAO-KTSP|-6.0||1|FM15-METAR|223|ICAO-KTSP|||||||||||||100|N-Normal|1|FM15-METAR|223|ICAO-KTSP|3.6|N-Normal|1|FM15-METAR|223|ICAO-KTSP|||||||||||||48|Derived||FM15-METAR|223|ICAO-KTSP|||||||||||||||||||||||||||||||||||||||||||||||||||||||||||||||||||||||||1021.0||1|FM15-METAR|223|ICAO-KTSP|||||||||||||||||||||||||||||||||||||||||||MET062METAR KTSP 280055Z AUTO 10007KT 10SM CLR 04/M06 A3015 RMK AO2;||F||223|ICAO-KTSP
USW00000479|TEHACHAPI MUNI AP|2009|12|28|01|15|35.1350|-118.4392|1219.5|4.0||1|FM15-METAR|223|ICAO-KTSP|-6.0||1|FM15-METAR|223|ICAO-KTSP|||||||||||||100|N-Normal|1|FM15-METAR|223|ICAO-KTSP|3.1|N-Normal|1|FM15-METAR|223|ICAO-KTSP|||||||||||||48|Derived||FM15-METAR|223|ICAO-KTSP|||||||||||||||||||||||||||||||||||||||||||||||||||||||||||||||||||||||||1021.0||1|FM15-METAR|223|ICAO-KTSP|||||||||||||||||||||||||||||||||||||||||||MET062METAR KTSP 280115Z AUTO 10006KT 10SM CLR 04/M06 A3015 RMK AO2;||F||223|ICAO-KTSP
USW00000479|TEHACHAPI MUNI AP|2009|12|28|01|35|35.1350|-118.4392|1219.5|4.0||1|FM15-METAR|223|ICAO-KTSP|-7.0||1|FM15-METAR|223|ICAO-KTSP|||||||||||||100|N-Normal|1|FM15-METAR|223|ICAO-KTSP|3.6|N-Normal|1|FM15-METAR|223|ICAO-KTSP|||||||||||||45|Derived||FM15-METAR|223|ICAO-KTSP|||||||||||||||||||||||||||||||||||||||||||||||||||||||||||||||||||||||||1021.0||1|FM15-METAR|223|ICAO-KTSP|||||||||||||||||||||||||||||||||||||||||||MET062METAR KTSP 280135Z AUTO 10007KT 10SM CLR 04/M07 A3015 RMK AO2;||F||223|ICAO-KTSP
USW00000479|TEHACHAPI MUNI AP|2009|12|28|02|00|35.1350|-118.4392|1219.5|4.0||1|FM15-METAR|223|ICAO-KTSP|-7.0||1|FM15-METAR|223|ICAO-KTSP|||||||||||||110|N-Normal|1|FM15-METAR|223|ICAO-KTSP|4.1|N-Normal|1|FM15-METAR|223|ICAO-KTSP|||||||||||||45|Derived||FM15-METAR|223|ICAO-KTSP|||||||||||||||||||||||||||||||||||||||||||||||||||||||||||||||||||||||||1021.3||1|FM15-METAR|223|ICAO-KTSP|||||||||||||||||||||||||||||||||||||||||||MET062METAR KTSP 280155Z AUTO 11008KT 10SM CLR 04/M07 A3016 RMK AO2;||F||223|ICAO-KTSP
USW00000479|TEHACHAPI MUNI AP|2009|12|28|02|15|35.1350|-118.4392|1219.5|4.0||1|FM15-METAR|223|ICAO-KTSP|-7.0||1|FM15-METAR|223|ICAO-KTSP|||||||||||||100|N-Normal|1|FM15-METAR|223|ICAO-KTSP|4.1|N-Normal|1|FM15-METAR|223|ICAO-KTSP|||||||||||||45|Derived||FM15-METAR|223|ICAO-KTSP|||||||||||||||||||||||||||||||||||||||||||||||||||||||||||||||||||||||||1021.3||1|FM15-METAR|223|ICAO-KTSP|||||||||||||||||||||||||||||||||||||||||||MET062METAR KTSP 280215Z AUTO 10008KT 10SM CLR 04/M07 A3016 RMK AO2;||F||223|ICAO-KTSP
USW00000479|TEHACHAPI MUNI AP|2009|12|28|02|35|35.1350|-118.4392|1219.5|3.0||1|FM15-METAR|223|ICAO-KTSP|-7.0||1|FM15-METAR|223|ICAO-KTSP|||||||||||||110|N-Normal|1|FM15-METAR|223|ICAO-KTSP|4.1|N-Normal|1|FM15-METAR|223|ICAO-KTSP|||||||||||||48|Derived||FM15-METAR|223|ICAO-KTSP|||||||||||||||||||||||||||||||||||||||||||||||||||||||||||||||||||||||||1021.3||1|FM15-METAR|223|ICAO-KTSP|||||||||||||||||||||||||||||||||||||||||||MET062METAR KTSP 280235Z AUTO 11008KT 10SM CLR 03/M07 A3016 RMK AO2;||F||223|ICAO-KTSP
USW00000479|TEHACHAPI MUNI AP|2009|12|28|03|00|35.1350|-118.4392|1219.5|3.0||1|FM15-METAR|223|ICAO-KTSP|-5.0||1|FM15-METAR|223|ICAO-KTSP|||||||||||||100|N-Normal|1|FM15-METAR|223|ICAO-KTSP|4.6|N-Normal|1|FM15-METAR|223|ICAO-KTSP|||||||||||||56|Derived||FM15-METAR|223|ICAO-KTSP|||||||||||||||||||||||||||||||||||||||||||||||||||||||||||||||||||||||||1021.3||1|FM15-METAR|223|ICAO-KTSP|||||||||||||||||||||||||||||||||||||||||||MET062METAR KTSP 280255Z AUTO 10009KT 10SM CLR 03/M05 A3016 RMK AO2;||F||223|ICAO-KTSP
USW00000479|TEHACHAPI MUNI AP|2009|12|28|03|15|35.1350|-118.4392|1219.5|3.0||1|FM15-METAR|223|ICAO-KTSP|-5.0||1|FM15-METAR|223|ICAO-KTSP|||||||||||||100|N-Normal|1|FM15-METAR|223|ICAO-KTSP|4.1|N-Normal|1|FM15-METAR|223|ICAO-KTSP|||||||||||||56|Derived||FM15-METAR|223|ICAO-KTSP|||||||||||||||||||||||||||||||||||||||||||||||||||||||||||||||||||||||||1021.7||1|FM15-METAR|223|ICAO-KTSP|||||||||||||||||||||||||||||||||||||||||||MET062METAR KTSP 280315Z AUTO 10008KT 10SM CLR 03/M05 A3017 RMK AO2;||F||223|ICAO-KTSP
USW00000479|TEHACHAPI MUNI AP|2009|12|28|03|35|35.1350|-118.4392|1219.5|3.0||1|FM15-METAR|223|ICAO-KTSP|-5.0||1|FM15-METAR|223|ICAO-KTSP|||||||||||||100|N-Normal|1|FM15-METAR|223|ICAO-KTSP|4.1|N-Normal|1|FM15-METAR|223|ICAO-KTSP|||||||||||||56|Derived||FM15-METAR|223|ICAO-KTSP|||||||||||||||||||||||||||||||||||||||||||||||||||||||||||||||||||||||||1021.7||1|FM15-METAR|223|ICAO-KTSP|||||||||||||||||||||||||||||||||||||||||||MET062METAR KTSP 280335Z AUTO 10008KT 10SM CLR 03/M05 A3017 RMK AO2;||F||223|ICAO-KTSP
USW00000479|TEHACHAPI MUNI AP|2009|12|28|04|15|35.1350|-118.4392|1219.5|3.0||1|FM15-METAR|223|ICAO-KTSP|-7.0||1|FM15-METAR|223|ICAO-KTSP|||||||||||||110|N-Normal|1|FM15-METAR|223|ICAO-KTSP|3.6|N-Normal|1|FM15-METAR|223|ICAO-KTSP|||||||||||||48|Derived||FM15-METAR|223|ICAO-KTSP|||||||||||||||||||||||||||||||||||||||||||||||||||||||||||||||||||||||||1021.7||1|FM15-METAR|223|ICAO-KTSP|||||||FEW:02|02-Two-okt|4|FM15-METAR|223|ICAO-KTSP|||||||||||||||||||||||||||||||MET065METAR KTSP 280415Z AUTO 11007KT 10SM FEW110 03/M07 A3017 RMK AO2;||F||223|ICAO-KTSP
USW00000479|TEHACHAPI MUNI AP|2009|12|28|04|35|35.1350|-118.4392|1219.5|3.0||1|FM15-METAR|223|ICAO-KTSP|-7.0||1|FM15-METAR|223|ICAO-KTSP|||||||||||||100|N-Normal|1|FM15-METAR|223|ICAO-KTSP|4.1|N-Normal|1|FM15-METAR|223|ICAO-KTSP|||||||||||||48|Derived||FM15-METAR|223|ICAO-KTSP|||||||||||||||||||||||||||||||||||||||||||||||||||||||||||||||||||||||||1021.7||1|FM15-METAR|223|ICAO-KTSP|||||||||||||||||||||||||||||||||||||||||||MET062METAR KTSP 280435Z AUTO 10008KT 10SM CLR 03/M07 A3017 RMK AO2;||F||223|ICAO-KTSP
USW00000479|TEHACHAPI MUNI AP|2009|12|28|05|00|35.1350|-118.4392|1219.5|3.0||1|FM15-METAR|223|ICAO-KTSP|-7.0||1|FM15-METAR|223|ICAO-KTSP|||||||||||||120|N-Normal|1|FM15-METAR|223|ICAO-KTSP|4.1|N-Normal|1|FM15-METAR|223|ICAO-KTSP|||||||||||||48|Derived||FM15-METAR|223|ICAO-KTSP|||||||||||||||||||||||||||||||||||||||||||||||||||||||||||||||||||||||||1022.0||1|FM15-METAR|223|ICAO-KTSP|||||||||||||||||||||||||||||||||||||||||||MET062METAR KTSP 280455Z AUTO 12008KT 10SM CLR 03/M07 A3018 RMK AO2;||F||223|ICAO-KTSP
USW00000479|TEHACHAPI MUNI AP|2009|12|28|05|15|35.1350|-118.4392|1219.5|3.0||1|FM15-METAR|223|ICAO-KTSP|-7.0||1|FM15-METAR|223|ICAO-KTSP|||||||||||||100|N-Normal|1|FM15-METAR|223|ICAO-KTSP|5.1|N-Normal|1|FM15-METAR|223|ICAO-KTSP|||||||||||||48|Derived||FM15-METAR|223|ICAO-KTSP|||||||||||||||||||||||||||||||||||||||||||||||||||||||||||||||||||||||||1022.0||1|FM15-METAR|223|ICAO-KTSP|||||||||||||||||||||||||||||||||||||||||||MET062METAR KTSP 280515Z AUTO 10010KT 10SM CLR 03/M07 A3018 RMK AO2;||F||223|ICAO-KTSP
USW00000479|TEHACHAPI MUNI AP|2009|12|28|05|35|35.1350|-118.4392|1219.5|3.0||1|FM15-METAR|223|ICAO-KTSP|-7.0||1|FM15-METAR|223|ICAO-KTSP|||||||||||||100|N-Normal|1|FM15-METAR|223|ICAO-KTSP|4.1|N-Normal|1|FM15-METAR|223|ICAO-KTSP|||||||||||||48|Derived||FM15-METAR|223|ICAO-KTSP|||||||||||||||||||||||||||||||||||||||||||||||||||||||||||||||||||||||||1022.0||1|FM15-METAR|223|ICAO-KTSP|||||||||||||||||||||||||||||||||||||||||||MET062METAR KTSP 280535Z AUTO 10008KT 10SM CLR 03/M07 A3018 RMK AO2;||F||223|ICAO-KTSP
USW00000479|TEHACHAPI MUNI AP|2009|12|28|06|00|35.1350|-118.4392|1219.5|2.0||1|FM15-METAR|223|ICAO-KTSP|-6.0||1|FM15-METAR|223|ICAO-KTSP|||||||||||||110|N-Normal|1|FM15-METAR|223|ICAO-KTSP|5.1|N-Normal|1|FM15-METAR|223|ICAO-KTSP|||||||||||||56|Derived||FM15-METAR|223|ICAO-KTSP|||||||||||||||||||||||||||||||||||||||||||||||||||||||||||||||||||||||||1022.0||1|FM15-METAR|223|ICAO-KTSP|||||||||||||||||||||||||||||||||||||||||||MET062METAR KTSP 280555Z AUTO 11010KT 10SM CLR 02/M06 A3018 RMK AO2;||F||223|ICAO-KTSP
USW00000479|TEHACHAPI MUNI AP|2009|12|28|06|15|35.1350|-118.4392|1219.5|2.0||1|FM15-METAR|223|ICAO-KTSP|-7.0||1|FM15-METAR|223|ICAO-KTSP|||||||||||||100|N-Normal|1|FM15-METAR|223|ICAO-KTSP|4.6|N-Normal|1|FM15-METAR|223|ICAO-KTSP|||||||||||||52|Derived||FM15-METAR|223|ICAO-KTSP|||||||||||||||||||||||||||||||||||||||||||||||||||||||||||||||||||||||||1022.4||1|FM15-METAR|223|ICAO-KTSP|||||||||||||||||||||||||||||||||||||||||||MET062METAR KTSP 280615Z AUTO 10009KT 10SM CLR 02/M07 A3019 RMK AO2;||F||223|ICAO-KTSP
USW00000479|TEHACHAPI MUNI AP|2009|12|28|06|35|35.1350|-118.4392|1219.5|1.0||1|FM15-METAR|223|ICAO-KTSP|-7.0||1|FM15-METAR|223|ICAO-KTSP|||||||||||||120|N-Normal|1|FM15-METAR|223|ICAO-KTSP|4.6|N-Normal|1|FM15-METAR|223|ICAO-KTSP|||||||||||||56|Derived||FM15-METAR|223|ICAO-KTSP|||||||||||||||||||||||||||||||||||||||||||||||||||||||||||||||||||||||||1022.4||1|FM15-METAR|223|ICAO-KTSP|||||||||||||||||||||||||||||||||||||||||||MET062METAR KTSP 280635Z AUTO 12009KT 10SM CLR 01/M07 A3019 RMK AO2;||F||223|ICAO-KTSP
USW00000479|TEHACHAPI MUNI AP|2009|12|28|07|00|35.1350|-118.4392|1219.5|2.0||1|FM15-METAR|223|ICAO-KTSP|-7.0||1|FM15-METAR|223|ICAO-KTSP|||||||||||||100|N-Normal|1|FM15-METAR|223|ICAO-KTSP|4.6|N-Normal|1|FM15-METAR|223|ICAO-KTSP|||||||||||||52|Derived||FM15-METAR|223|ICAO-KTSP|||||||||||||||||||||||||||||||||||||||||||||||||||||||||||||||||||||||||1022.4||1|FM15-METAR|223|ICAO-KTSP|||||||||||||||||||||||||||||||||||||||||||MET062METAR KTSP 280655Z AUTO 10009KT 10SM CLR 02/M07 A3019 RMK AO2;||F||223|ICAO-KTSP
USW00000479|TEHACHAPI MUNI AP|2009|12|28|07|15|35.1350|-118.4392|1219.5|2.0||1|FM15-METAR|223|ICAO-KTSP|-8.0||1|FM15-METAR|223|ICAO-KTSP|||||||||||||100|N-Normal|1|FM15-METAR|223|ICAO-KTSP|4.1|N-Normal|1|FM15-METAR|223|ICAO-KTSP|||||||||||||48|Derived||FM15-METAR|223|ICAO-KTSP|||||||||||||||||||||||||||||||||||||||||||||||||||||||||||||||||||||||||1022.0||1|FM15-METAR|223|ICAO-KTSP|||||||SCT:04|04-Four-ok|4|FM15-METAR|223|ICAO-KTSP|||||||||||||||||||||||||||||||MET065METAR KTSP 280715Z AUTO 10008KT 10SM SCT100 02/M08 A3018 RMK AO2;||F||223|ICAO-KTSP
USW00000479|TEHACHAPI MUNI AP|2009|12|28|07|35|35.1350|-118.4392|1219.5|2.0||1|FM15-METAR|223|ICAO-KTSP|-8.0||1|FM15-METAR|223|ICAO-KTSP|||||||||||||090|N-Normal|1|FM15-METAR|223|ICAO-KTSP|3.1|N-Normal|1|FM15-METAR|223|ICAO-KTSP|||||||||||||48|Derived||FM15-METAR|223|ICAO-KTSP|||||||||||||||||||||||||||||||||||||||||||||||||||||||||||||||||||||||||1022.0||1|FM15-METAR|223|ICAO-KTSP|||||||BKN:07|07-Seven-o|4|FM15-METAR|223|ICAO-KTSP|||||||||||||||||||||||||||||||MET065METAR KTSP 280735Z AUTO 09006KT 10SM BKN100 02/M08 A3018 RMK AO2;||F||223|ICAO-KTSP
USW00000479|TEHACHAPI MUNI AP|2009|12|28|08|00|35.1350|-118.4392|1219.5|1.0||1|FM15-METAR|223|ICAO-KTSP|-8.0||1|FM15-METAR|223|ICAO-KTSP|||||||||||||110|N-Normal|1|FM15-METAR|223|ICAO-KTSP|3.1|N-Normal|1|FM15-METAR|223|ICAO-KTSP|||||||||||||51|Derived||FM15-METAR|223|ICAO-KTSP|||||||||||||||||||||||||||||||||||||||||||||||||||||||||||||||||||||||||1022.0||1|FM15-METAR|223|ICAO-KTSP|||||||SCT:04|04-Four-ok|4|FM15-METAR|223|ICAO-KTSP|||||||||||||||||||||||||||||||MET065METAR KTSP 280755Z AUTO 11006KT 10SM SCT100 01/M08 A3018 RMK AO2;||F||223|ICAO-KTSP
USW00000479|TEHACHAPI MUNI AP|2009|12|28|08|15|35.1350|-118.4392|1219.5|||||||||||||||||||||||||||||||||||||||||||||||||||||||||||||||||||||||||||||||||||||||||||||||||||||||||||||||||||||||||||||||||||||||||||||||||||||||||||||||||||||||||||||||MET058METAR KTSP 280815Z AUTO 10SM CLR RMK AO2 PWINO PNO FZRANO;||F||223|ICAO-KTSP
USW00000479|TEHACHAPI MUNI AP|2009|12|28|08|35|35.1350|-118.4392|1219.5|||||||||||||||||||||||||||||||||||||||||||||||||||||||||||||||||||||||||||||||||||||||||||||||||||||||||||||||||||||||||||||||||||||||||||||||||||||||||||||||||||||||||||||||MET054METAR KTSP 280835Z AUTO RMK AO2 PWINO PNO FZRANO TSNO;||F||223|ICAO-KTSP
USW00000479|TEHACHAPI MUNI AP|2009|12|28|09|00|35.1350|-118.4392|1219.5|||||||||||||||||||||||||||||||||||||||||||||||||||||||||||||||||||||||||||||||||||||||||||||||||||||||||||||||||||||||||||||||||||||||||||||||||||||||||||||||||||||||||||||||MET049METAR KTSP 280855Z AUTO RMK AO2 PWINO PNO FZRANO;||F||223|ICAO-KTSP
USW00000479|TEHACHAPI MUNI AP|2009|12|28|09|15|35.1350|-118.4392|1219.5|||||||||||||||||||||||||||||||||||||||||||||||||||||||||||||||||||||||||||||||||||||||||||||||||||||||||||||||||||||||||||||||||||||||||||||||||||||||||||||||||||||||||||||||MET049METAR KTSP 280915Z AUTO RMK AO2 PWINO PNO FZRANO;||F||223|ICAO-KTSP
USW00000479|TEHACHAPI MUNI AP|2009|12|28|09|35|35.1350|-118.4392|1219.5|||||||||||||||||||||||||||||||||||||||||||||||||||||||||||||||||||||||||||||||||||||||||||||||||||||||||||||||||||||||||||||||||||||||||||||||||||||||||||||||||||||||||||||||MET054METAR KTSP 280935Z AUTO RMK AO2 PWINO PNO FZRANO TSNO;||F||223|ICAO-KTSP
USW00000479|TEHACHAPI MUNI AP|2009|12|28|10|00|35.1350|-118.4392|1219.5|||||||||||||||||||||||||||||||||||||||||||||||||||||||||||||||||||||||||||||||||||||||||||||||||||||||||||||||||||||||||||||||||||||||||||||||||||||||||||||||||||||||||||||||MET054METAR KTSP 280955Z AUTO RMK AO2 PWINO PNO FZRANO TSNO;||F||223|ICAO-KTSP
USW00000479|TEHACHAPI MUNI AP|2009|12|28|10|15|35.1350|-118.4392|1219.5|||||||||||||||||||||||||||||||||||||||||||||||||||||||||||||||||||||||||||||||||||||||||||||||||||||||||||||||||||||||||||||||||||||||||||||||||||||||||||||||||||||||||||||||MET054METAR KTSP 281015Z AUTO RMK AO2 PWINO PNO FZRANO TSNO;||F||223|ICAO-KTSP
USW00000479|TEHACHAPI MUNI AP|2009|12|28|10|35|35.1350|-118.4392|1219.5|||||||||||||||||||||||||||||||||||||||||||||||||||||||||||||||||||||||||||||||||||||||||||||||||||||||||||||||||||||||||||||||||||||||||||||||||||||||||||||||||||||||||||||||MET054METAR KTSP 281035Z AUTO RMK AO2 PWINO PNO FZRANO TSNO;||F||223|ICAO-KTSP
USW00000479|TEHACHAPI MUNI AP|2009|12|28|11|00|35.1350|-118.4392|1219.5|||||||||||||||||||||||||||||||||||||||||||||||||||||||||||||||||||||||||||||||||||||||||||||||||||||||||||||||||||||||||||||||||||||||||||||||||||||||||||||||||||||||||||||||MET054METAR KTSP 281055Z AUTO RMK AO2 PWINO PNO FZRANO TSNO;||F||223|ICAO-KTSP
USW00000479|TEHACHAPI MUNI AP|2009|12|28|11|15|35.1350|-118.4392|1219.5|||||||||||||||||||||||||||||||||||||||||||||||||||||||||||||||||||||||||||||||||||||||||||||||||||||||||||||||||||||||||||||||||||||||||||||||||||||||||||||||||||||||||||||||MET054METAR KTSP 281115Z AUTO RMK AO2 PWINO PNO FZRANO TSNO;||F||223|ICAO-KTSP
USW00000479|TEHACHAPI MUNI AP|2009|12|28|11|35|35.1350|-118.4392|1219.5|||||||||||||||||||||||||||||||||||||||||||||||||||||||||||||||||||||||||||||||||||||||||||||||||||||||||||||||||||||||||||||||||||||||||||||||||||||||||||||||||||||||||||||||MET054METAR KTSP 281135Z AUTO RMK AO2 PWINO PNO FZRANO TSNO;||F||223|ICAO-KTSP
USW00000479|TEHACHAPI MUNI AP|2009|12|28|12|00|35.1350|-118.4392|1219.5|||||||||||||||||||||||||||||||||||||||||||||||||||||||||||||||||||||||||||||||||||||||||||||||||||||||||||||||||||||||||||||||||||||||||||||||||||||||||||||||||||||||||||||||MET054METAR KTSP 281155Z AUTO RMK AO2 PWINO PNO FZRANO TSNO;||F||223|ICAO-KTSP
USW00000479|TEHACHAPI MUNI AP|2009|12|28|12|15|35.1350|-118.4392|1219.5|||||||||||||||||||||||||||||||||||||||||||||||||||||||||||||||||||||||||||||||||||||||||||||||||||||||||||||||||||||||||||||||||||||||||||||||||||||||||||||||||||||||||||||||MET054METAR KTSP 281215Z AUTO RMK AO2 PWINO PNO FZRANO TSNO;||F||223|ICAO-KTSP
USW00000479|TEHACHAPI MUNI AP|2009|12|28|12|35|35.1350|-118.4392|1219.5|||||||||||||||||||||||||||||||||||||||||||||||||||||||||||||||||||||||||||||||||||||||||||||||||||||||||||||||||||||||||||||||||||||||||||||||||||||||||||||||||||||||||||||||MET054METAR KTSP 281235Z AUTO RMK AO2 PWINO PNO FZRANO TSNO;||F||223|ICAO-KTSP
USW00000479|TEHACHAPI MUNI AP|2009|12|28|13|00|35.1350|-118.4392|1219.5|||||||||||||||||||||||||||||||||||||||||||||||||||||||||||||||||||||||||||||||||||||||||||||||||||||||||||||||||||||||||||||||||||||||||||||||||||||||||||||||||||||||||||||||MET054METAR KTSP 281255Z AUTO RMK AO2 PWINO PNO FZRANO TSNO;||F||223|ICAO-KTSP
USW00000479|TEHACHAPI MUNI AP|2009|12|28|13|15|35.1350|-118.4392|1219.5|||||||||||||||||||||||||||||||||||||||||||||||||||||||||||||||||||||||||||||||||||||||||||||||||||||||||||||||||||||||||||||||||||||||||||||||||||||||||||||||||||||||||||||||MET054METAR KTSP 281315Z AUTO RMK AO2 PWINO PNO FZRANO TSNO;||F||223|ICAO-KTSP
USW00000479|TEHACHAPI MUNI AP|2009|12|28|13|35|35.1350|-118.4392|1219.5|||||||||||||||||||||||||||||||||||||||||||||||||||||||||||||||||||||||||||||||||||||||||||||||||||||||||||||||||||||||||||||||||||||||||||||||||||||||||||||||||||||||||||||||MET054METAR KTSP 281335Z AUTO RMK AO2 PWINO PNO FZRANO TSNO;||F||223|ICAO-KTSP
USW00000479|TEHACHAPI MUNI AP|2009|12|28|14|00|35.1350|-118.4392|1219.5|||||||||||||||||||||||||||||||||||||||||||||||||||||||||||||||||||||||||||||||||||||||||||||||||||||||||||||||||||||||||||||||||||||||||||||||||||||||||||||||||||||||||||||||MET054METAR KTSP 281355Z AUTO RMK AO2 PWINO PNO FZRANO TSNO;||F||223|ICAO-KTSP
USW00000479|TEHACHAPI MUNI AP|2009|12|28|15|00|35.1350|-118.4392|1219.5|2.0||1|FM15-METAR|223|ICAO-KTSP|-9.0||1|FM15-METAR|223|ICAO-KTSP|||||||||||||130|N-Normal|1|FM15-METAR|223|ICAO-KTSP|6.2|N-Normal|1|FM15-METAR|223|ICAO-KTSP|||||||||||||44|Derived||FM15-METAR|223|ICAO-KTSP|||||||||||||||||||||||||||||||||||||||||||||||||||||||||||||||||||||||||1020.7||1|FM15-METAR|223|ICAO-KTSP|||||||||||||||||||||||||||||||||||||||||||MET062METAR KTSP 281455Z AUTO 13012KT 10SM CLR 02/M09 A3014 RMK AO2;||F||223|ICAO-KTSP
USW00000479|TEHACHAPI MUNI AP|2009|12|28|15|35|35.1350|-118.4392|1219.5|3.0||1|FM15-METAR|223|ICAO-KTSP|-9.0||1|FM15-METAR|223|ICAO-KTSP|||||||||||||120|N-Normal|1|FM15-METAR|223|ICAO-KTSP|5.1|N-Normal|1|FM15-METAR|223|ICAO-KTSP|||||||||||||41|Derived||FM15-METAR|223|ICAO-KTSP|||||||||||||||||||||||||||||||||||||||||||||||||||||||||||||||||||||||||1020.7||1|FM15-METAR|223|ICAO-KTSP|||||||FEW:02|02-Two-okt|4|FM15-METAR|223|ICAO-KTSP|||||||||||||||||||||||||||||||MET065METAR KTSP 281535Z AUTO 12010KT 10SM FEW110 03/M09 A3014 RMK AO2;||F||223|ICAO-KTSP
USW00000479|TEHACHAPI MUNI AP|2009|12|28|16|00|35.1350|-118.4392|1219.5|3.0||1|FM15-METAR|223|ICAO-KTSP|-8.0||1|FM15-METAR|223|ICAO-KTSP|||||||||||||110|N-Normal|1|FM15-METAR|223|ICAO-KTSP|4.6|N-Normal|1|FM15-METAR|223|ICAO-KTSP|||||||||||||45|Derived||FM15-METAR|223|ICAO-KTSP|||||||||||||||||||||||||||||||||||||||||||||||||||||||||||||||||||||||||1021.0||1|FM15-METAR|223|ICAO-KTSP|||||||FEW:02|02-Two-okt|4|FM15-METAR|223|ICAO-KTSP|||||||||||||||||||||||||||||||MET065METAR KTSP 281555Z AUTO 11009KT 10SM FEW110 03/M08 A3015 RMK AO2;||F||223|ICAO-KTSP
USW00000479|TEHACHAPI MUNI AP|2009|12|28|16|15|35.1350|-118.4392|1219.5|3.0||1|FM15-METAR|223|ICAO-KTSP|-8.0||1|FM15-METAR|223|ICAO-KTSP|||||||||||||120|N-Normal|1|FM15-METAR|223|ICAO-KTSP|4.6|N-Normal|1|FM15-METAR|223|ICAO-KTSP|||||||||||||45|Derived||FM15-METAR|223|ICAO-KTSP|||||||||||||||||||||||||||||||||||||||||||||||||||||||||||||||||||||||||1021.0||1|FM15-METAR|223|ICAO-KTSP|||||||FEW:02|02-Two-okt|4|FM15-METAR|223|ICAO-KTSP|||||||||||||||||||||||||||||||MET065METAR KTSP 281615Z AUTO 12009KT 10SM FEW120 03/M08 A3015 RMK AO2;||F||223|ICAO-KTSP
USW00000479|TEHACHAPI MUNI AP|2009|12|28|16|35|35.1350|-118.4392|1219.5|4.0||1|FM15-METAR|223|ICAO-KTSP|-8.0||1|FM15-METAR|223|ICAO-KTSP|||||||||||||130|N-Normal|1|FM15-METAR|223|ICAO-KTSP|6.7|N-Normal|1|FM15-METAR|223|ICAO-KTSP|||||||||||||42|Derived||FM15-METAR|223|ICAO-KTSP|||||||||||||||||||||||||||||||||||||||||||||||||||||||||||||||||||||||||1021.0||1|FM15-METAR|223|ICAO-KTSP|||||||BKN:07|07-Seven-o|4|FM15-METAR|223|ICAO-KTSP|||||||||||||||||||||||||||||||MET065METAR KTSP 281635Z AUTO 13013KT 10SM BKN110 04/M08 A3015 RMK AO2;||F||223|ICAO-KTSP
USW00000479|TEHACHAPI MUNI AP|2009|12|28|17|00|35.1350|-118.4392|1219.5|4.0||1|FM15-METAR|223|ICAO-KTSP|-9.0||1|FM15-METAR|223|ICAO-KTSP|||||||||||||140|N-Normal|1|FM15-METAR|223|ICAO-KTSP|7.7|N-Normal|1|FM15-METAR|223|ICAO-KTSP|||||||||||||39|Derived||FM15-METAR|223|ICAO-KTSP|||||||||||||||||||||||||||||||||||||||||||||||||||||||||||||||||||||||||1021.0||1|FM15-METAR|223|ICAO-KTSP|||||||BKN:07|07-Seven-o|4|FM15-METAR|223|ICAO-KTSP|||||||||||||||||||||||||||||||MET065METAR KTSP 281655Z AUTO 14015KT 10SM BKN100 04/M09 A3015 RMK AO2;||F||223|ICAO-KTSP
USW00000479|TEHACHAPI MUNI AP|2009|12|28|17|15|35.1350|-118.4392|1219.5|5.0||1|FM15-METAR|223|ICAO-KTSP|-8.0||1|FM15-METAR|223|ICAO-KTSP|||||||||||||120|N-Normal|1|FM15-METAR|223|ICAO-KTSP|5.1|N-Normal|1|FM15-METAR|223|ICAO-KTSP|9.3||1|FM15-METAR|223|ICAO-KTSP|||||||39|Derived||FM15-METAR|223|ICAO-KTSP|||||||||||||||||||||||||||||||||||||||||||||||||||||||||||||||||||||||||1021.0||1|FM15-METAR|223|ICAO-KTSP|||||||FEW:02|02-Two-okt|4|FM15-METAR|223|ICAO-KTSP|||||||||||||||||||||||||||||||MET068METAR KTSP 281715Z AUTO 12010G18KT 10SM FEW110 05/M08 A3015 RMK AO2;||F||223|ICAO-KTSP
USW00000479|TEHACHAPI MUNI AP|2009|12|28|17|35|35.1350|-118.4392|1219.5|6.0||1|FM15-METAR|223|ICAO-KTSP|-8.0||1|FM15-METAR|223|ICAO-KTSP|||||||||||||120|N-Normal|1|FM15-METAR|223|ICAO-KTSP|6.2|N-Normal|1|FM15-METAR|223|ICAO-KTSP|8.7||1|FM15-METAR|223|ICAO-KTSP|||||||36|Derived||FM15-METAR|223|ICAO-KTSP|||||||||||||||||||||||||||||||||||||||||||||||||||||||||||||||||||||||||1021.0||1|FM15-METAR|223|ICAO-KTSP|||||||||||||||||||||||||||||||||||||||||||MET065METAR KTSP 281735Z AUTO 12012G17KT 10SM CLR 06/M08 A3015 RMK AO2;||F||223|ICAO-KTSP
USW00000479|TEHACHAPI MUNI AP|2009|12|28|18|00|35.1350|-118.4392|1219.5|6.0||1|FM15-METAR|223|ICAO-KTSP|-9.0||1|FM15-METAR|223|ICAO-KTSP|||||||||||||110|N-Normal|1|FM15-METAR|223|ICAO-KTSP|6.7|N-Normal|1|FM15-METAR|223|ICAO-KTSP|9.3||1|FM15-METAR|223|ICAO-KTSP|||||||34|Derived||FM15-METAR|223|ICAO-KTSP|||||||||||||||||||||||||||||||||||||||||||||||||||||||||||||||||||||||||1021.0||1|FM15-METAR|223|ICAO-KTSP|||||||||||||||||||||||||||||||||||||||||||MET065METAR KTSP 281755Z AUTO 11013G18KT 10SM CLR 06/M09 A3015 RMK AO2;||F||223|ICAO-KTSP
USW00000479|TEHACHAPI MUNI AP|2009|12|28|18|15|35.1350|-118.4392|1219.5|7.0||1|FM15-METAR|223|ICAO-KTSP|-8.0||1|FM15-METAR|223|ICAO-KTSP|||||||||||||120|N-Normal|1|FM15-METAR|223|ICAO-KTSP|7.2|N-Normal|1|FM15-METAR|223|ICAO-KTSP|11.3||1|FM15-METAR|223|ICAO-KTSP|||||||34|Derived||FM15-METAR|223|ICAO-KTSP|||||||||||||||||||||||||||||||||||||||||||||||||||||||||||||||||||||||||1020.7||1|FM15-METAR|223|ICAO-KTSP|||||||||||||||||||||||||||||||||||||||||||MET065METAR KTSP 281815Z AUTO 12014G22KT 10SM CLR 07/M08 A3014 RMK AO2;||F||223|ICAO-KTSP
USW00000479|TEHACHAPI MUNI AP|2009|12|28|18|35|35.1350|-118.4392|1219.5|7.0||1|FM15-METAR|223|ICAO-KTSP|-8.0||1|FM15-METAR|223|ICAO-KTSP|||||||||||||120|N-Normal|1|FM15-METAR|223|ICAO-KTSP|9.3|N-Normal|1|FM15-METAR|223|ICAO-KTSP|11.3||1|FM15-METAR|223|ICAO-KTSP|||||||34|Derived||FM15-METAR|223|ICAO-KTSP|||||||||||||||||||||||||||||||||||||||||||||||||||||||||||||||||||||||||1020.7||1|FM15-METAR|223|ICAO-KTSP|||||||FEW:02|02-Two-okt|4|FM15-METAR|223|ICAO-KTSP|||||||||||||||||||||||||||||||MET068METAR KTSP 281835Z AUTO 12018G22KT 10SM FEW120 07/M08 A3014 RMK AO2;||F||223|ICAO-KTSP
USW00000479|TEHACHAPI MUNI AP|2009|12|28|19|00|35.1350|-118.4392|1219.5|7.0||1|FM15-METAR|223|ICAO-KTSP|-8.0||1|FM15-METAR|223|ICAO-KTSP|||||||||||||130|N-Normal|1|FM15-METAR|223|ICAO-KTSP|7.7|N-Normal|1|FM15-METAR|223|ICAO-KTSP|10.8||1|FM15-METAR|223|ICAO-KTSP|||||||34|Derived||FM15-METAR|223|ICAO-KTSP|||||||||||||||||||||||||||||||||||||||||||||||||||||||||||||||||||||||||1020.3||1|FM15-METAR|223|ICAO-KTSP|||||||FEW:02|02-Two-okt|4|FM15-METAR|223|ICAO-KTSP|||||||||||||||||||||||||||||||MET068METAR KTSP 281855Z AUTO 13015G21KT 10SM FEW120 07/M08 A3013 RMK AO2;||F||223|ICAO-KTSP
USW00000479|TEHACHAPI MUNI AP|2009|12|28|19|15|35.1350|-118.4392|1219.5|6.0||1|FM15-METAR|223|ICAO-KTSP|-8.0||1|FM15-METAR|223|ICAO-KTSP|||||||||||||130|N-Normal|1|FM15-METAR|223|ICAO-KTSP|8.2|N-Normal|1|FM15-METAR|223|ICAO-KTSP|10.3||1|FM15-METAR|223|ICAO-KTSP|||||||36|Derived||FM15-METAR|223|ICAO-KTSP|||||||||||||||||||||||||||||||||||||||||||||||||||||||||||||||||||||||||1020.0||1|FM15-METAR|223|ICAO-KTSP|||||||FEW:02|02-Two-okt|4|FM15-METAR|223|ICAO-KTSP|||||||||||||||||||||||||||||||MET068METAR KTSP 281915Z AUTO 13016G20KT 10SM FEW120 06/M08 A3012 RMK AO2;||F||223|ICAO-KTSP
USW00000479|TEHACHAPI MUNI AP|2009|12|28|19|35|35.1350|-118.4392|1219.5|7.0||1|FM15-METAR|223|ICAO-KTSP|-8.0||1|FM15-METAR|223|ICAO-KTSP|||||||||||||120|N-Normal|1|FM15-METAR|223|ICAO-KTSP|7.7|N-Normal|1|FM15-METAR|223|ICAO-KTSP|10.3||1|FM15-METAR|223|ICAO-KTSP|||||||34|Derived||FM15-METAR|223|ICAO-KTSP|||||||||||||||||||||||||||||||||||||||||||||||||||||||||||||||||||||||||1019.6||1|FM15-METAR|223|ICAO-KTSP|||||||FEW:02|02-Two-okt|4|FM15-METAR|223|ICAO-KTSP|||||||||||||||||||||||||||||||MET068METAR KTSP 281935Z AUTO 12015G20KT 10SM FEW110 07/M08 A3011 RMK AO2;||F||223|ICAO-KTSP
USW00000479|TEHACHAPI MUNI AP|2009|12|28|20|00|35.1350|-118.4392|1219.5|7.0||1|FM15-METAR|223|ICAO-KTSP|-8.0||1|FM15-METAR|223|ICAO-KTSP|||||||||||||120|N-Normal|1|FM15-METAR|223|ICAO-KTSP|9.3|N-Normal|1|FM15-METAR|223|ICAO-KTSP|11.8||1|FM15-METAR|223|ICAO-KTSP|||||||34|Derived||FM15-METAR|223|ICAO-KTSP|||||||||||||||||||||||||||||||||||||||||||||||||||||||||||||||||||||||||1019.3||1|FM15-METAR|223|ICAO-KTSP|||||||||||||||||||||||||||||||||||||||||||MET065METAR KTSP 281955Z AUTO 12018G23KT 10SM CLR 07/M08 A3010 RMK AO2;||F||223|ICAO-KTSP
USW00000479|TEHACHAPI MUNI AP|2009|12|28|20|15|35.1350|-118.4392|1219.5|7.0||1|FM15-METAR|223|ICAO-KTSP|-8.0||1|FM15-METAR|223|ICAO-KTSP|||||||||||||120|N-Normal|1|FM15-METAR|223|ICAO-KTSP|7.7|N-Normal|1|FM15-METAR|223|ICAO-KTSP|10.8||1|FM15-METAR|223|ICAO-KTSP|||||||34|Derived||FM15-METAR|223|ICAO-KTSP|||||||||||||||||||||||||||||||||||||||||||||||||||||||||||||||||||||||||1019.0||1|FM15-METAR|223|ICAO-KTSP|||||||FEW:02|02-Two-okt|4|FM15-METAR|223|ICAO-KTSP|||||||||||||||||||||||||||||||MET068METAR KTSP 282015Z AUTO 12015G21KT 10SM FEW110 07/M08 A3009 RMK AO2;||F||223|ICAO-KTSP
USW00000479|TEHACHAPI MUNI AP|2009|12|28|20|35|35.1350|-118.4392|1219.5|7.0||1|FM15-METAR|223|ICAO-KTSP|-8.0||1|FM15-METAR|223|ICAO-KTSP|||||||||||||120|N-Normal|1|FM15-METAR|223|ICAO-KTSP|8.2|N-Normal|1|FM15-METAR|223|ICAO-KTSP|||||||||||||34|Derived||FM15-METAR|223|ICAO-KTSP|||||||||||||||||||||||||||||||||||||||||||||||||||||||||||||||||||||||||1018.6||1|FM15-METAR|223|ICAO-KTSP|||||||||||||||||||||||||||||||||||||||||||MET062METAR KTSP 282035Z AUTO 12016KT 10SM CLR 07/M08 A3008 RMK AO2;||F||223|ICAO-KTSP
USW00000479|TEHACHAPI MUNI AP|2009|12|28|21|00|35.1350|-118.4392|1219.5|7.0||1|FM15-METAR|223|ICAO-KTSP|-8.0||1|FM15-METAR|223|ICAO-KTSP|||||||||||||120|N-Normal|1|FM15-METAR|223|ICAO-KTSP|8.2|N-Normal|1|FM15-METAR|223|ICAO-KTSP|10.8||1|FM15-METAR|223|ICAO-KTSP|||||||34|Derived||FM15-METAR|223|ICAO-KTSP|||||||||||||||||||||||||||||||||||||||||||||||||||||||||||||||||||||||||1018.3||1|FM15-METAR|223|ICAO-KTSP|||||||||||||||||||||||||||||||||||||||||||MET065METAR KTSP 282055Z AUTO 12016G21KT 10SM CLR 07/M08 A3007 RMK AO2;||F||223|ICAO-KTSP
USW00000479|TEHACHAPI MUNI AP|2009|12|28|21|15|35.1350|-118.4392|1219.5|8.0||1|FM15-METAR|223|ICAO-KTSP|-8.0||1|FM15-METAR|223|ICAO-KTSP|||||||||||||120|N-Normal|1|FM15-METAR|223|ICAO-KTSP|8.2|N-Normal|1|FM15-METAR|223|ICAO-KTSP|9.8||1|FM15-METAR|223|ICAO-KTSP|||||||32|Derived||FM15-METAR|223|ICAO-KTSP|||||||||||||||||||||||||||||||||||||||||||||||||||||||||||||||||||||||||1018.0||1|FM15-METAR|223|ICAO-KTSP|||||||||||||||||||||||||||||||||||||||||||MET064METAR KTSP 282115Z AUTO 12016G19KT 9SM CLR 08/M08 A3006 RMK AO2;||F||223|ICAO-KTSP
USW00000479|TEHACHAPI MUNI AP|2009|12|28|21|35|35.1350|-118.4392|1219.5|8.0||1|FM15-METAR|223|ICAO-KTSP|-8.0||1|FM15-METAR|223|ICAO-KTSP|||||||||||||120|N-Normal|1|FM15-METAR|223|ICAO-KTSP|7.2|N-Normal|1|FM15-METAR|223|ICAO-KTSP|||||||||||||32|Derived||FM15-METAR|223|ICAO-KTSP|||||||||||||||||||||||||||||||||||||||||||||||||||||||||||||||||||||||||1017.6||1|FM15-METAR|223|ICAO-KTSP|||||||||||||||||||||||||||||||||||||||||||MET062METAR KTSP 282135Z AUTO 12014KT 10SM CLR 08/M08 A3005 RMK AO2;||F||223|ICAO-KTSP
USW00000479|TEHACHAPI MUNI AP|2009|12|28|22|00|35.1350|-118.4392|1219.5|8.0||1|FM15-METAR|223|ICAO-KTSP|-8.0||1|FM15-METAR|223|ICAO-KTSP|||||||||||||120|N-Normal|1|FM15-METAR|223|ICAO-KTSP|7.2|N-Normal|1|FM15-METAR|223|ICAO-KTSP|9.8||1|FM15-METAR|223|ICAO-KTSP|||||||32|Derived||FM15-METAR|223|ICAO-KTSP|||||||||||||||||||||||||||||||||||||||||||||||||||||||||||||||||||||||||1017.6||1|FM15-METAR|223|ICAO-KTSP|||||||||||||||||||||||||||||||||||||||||||MET064METAR KTSP 282155Z AUTO 12014G19KT 7SM CLR 08/M08 A3005 RMK AO2;||F||223|ICAO-KTSP
USW00000479|TEHACHAPI MUNI AP|2009|12|28|22|15|35.1350|-118.4392|1219.5|8.0||1|FM15-METAR|223|ICAO-KTSP|-8.0||1|FM15-METAR|223|ICAO-KTSP|||||||||||||120|N-Normal|1|FM15-METAR|223|ICAO-KTSP|6.7|N-Normal|1|FM15-METAR|223|ICAO-KTSP|||||||||||||32|Derived||FM15-METAR|223|ICAO-KTSP|||||||||||||||||||||||||||||||||||||||||||||||||||||||||||||||||||||||||1017.3||1|FM15-METAR|223|ICAO-KTSP|||||||||||||||||||||||||||||||||||||||||||MET061METAR KTSP 282215Z AUTO 12013KT 7SM CLR 08/M08 A3004 RMK AO2;||F||223|ICAO-KTSP
USW00000479|TEHACHAPI MUNI AP|2009|12|28|22|35|35.1350|-118.4392|1219.5|8.0||1|FM15-METAR|223|ICAO-KTSP|-8.0||1|FM15-METAR|223|ICAO-KTSP|||||||||||||130|N-Normal|1|FM15-METAR|223|ICAO-KTSP|7.2|N-Normal|1|FM15-METAR|223|ICAO-KTSP|||||||||||||32|Derived||FM15-METAR|223|ICAO-KTSP|||||||||||||||||||||||||||||||||||||||||||||||||||||||||||||||||||||||||1017.3||1|FM15-METAR|223|ICAO-KTSP|||||||FEW:02|02-Two-okt|4|FM15-METAR|223|ICAO-KTSP|||||||||||||||||||||||||||||||MET065METAR KTSP 282235Z AUTO 13014KT 10SM FEW100 08/M08 A3004 RMK AO2;||F||223|ICAO-KTSP
USW00000479|TEHACHAPI MUNI AP|2009|12|28|23|00|35.1350|-118.4392|1219.5|8.0||1|FM15-METAR|223|ICAO-KTSP|-8.0||1|FM15-METAR|223|ICAO-KTSP|||||||||||||130|N-Normal|1|FM15-METAR|223|ICAO-KTSP|6.7|N-Normal|1|FM15-METAR|223|ICAO-KTSP|||||||||||||32|Derived||FM15-METAR|223|ICAO-KTSP|||||||||||||||||||||||||||||||||||||||||||||||||||||||||||||||||||||||||1017.6||1|FM15-METAR|223|ICAO-KTSP|||||||||||||||||||||||||||||||||||||||||||MET062METAR KTSP 282255Z AUTO 13013KT 10SM CLR 08/M08 A3005 RMK AO2;||F||223|ICAO-KTSP
USW00000479|TEHACHAPI MUNI AP|2009|12|28|23|15|35.1350|-118.4392|1219.5|7.0||1|FM15-METAR|223|ICAO-KTSP|-8.0||1|FM15-METAR|223|ICAO-KTSP|||||||||||||110|N-Normal|1|FM15-METAR|223|ICAO-KTSP|6.7|N-Normal|1|FM15-METAR|223|ICAO-KTSP|||||||||||||34|Derived||FM15-METAR|223|ICAO-KTSP|||||||||||||||||||||||||||||||||||||||||||||||||||||||||||||||||||||||||1017.6||1|FM15-METAR|223|ICAO-KTSP|||||||||||||||||||||||||||||||||||||||||||MET062METAR KTSP 282315Z AUTO 11013KT 10SM CLR 07/M08 A3005 RMK AO2;||F||223|ICAO-KTSP
USW00000479|TEHACHAPI MUNI AP|2009|12|28|23|35|35.1350|-118.4392|1219.5|7.0||1|FM15-METAR|223|ICAO-KTSP|-8.0||1|FM15-METAR|223|ICAO-KTSP|||||||||||||110|N-Normal|1|FM15-METAR|223|ICAO-KTSP|6.7|N-Normal|1|FM15-METAR|223|ICAO-KTSP|8.7||1|FM15-METAR|223|ICAO-KTSP|||||||34|Derived||FM15-METAR|223|ICAO-KTSP|||||||||||||||||||||||||||||||||||||||||||||||||||||||||||||||||||||||||1017.6||1|FM15-METAR|223|ICAO-KTSP|||||||||||||||||||||||||||||||||||||||||||MET064METAR KTSP 282335Z AUTO 11013G17KT 9SM CLR 07/M08 A3005 RMK AO2;||F||223|ICAO-KTSP
USW00000479|TEHACHAPI MUNI AP|2009|12|29|00|00|35.1350|-118.4392|1219.5|7.0||1|FM15-METAR|223|ICAO-KTSP|-8.0||1|FM15-METAR|223|ICAO-KTSP|||||||||||||110|N-Normal|1|FM15-METAR|223|ICAO-KTSP|6.2|N-Normal|1|FM15-METAR|223|ICAO-KTSP|||||||||||||34|Derived||FM15-METAR|223|ICAO-KTSP|||||||||||||||||||||||||||||||||||||||||||||||||||||||||||||||||||||||||1017.6||1|FM15-METAR|223|ICAO-KTSP|||||||||||||||||||||||||||||||||||||||||||MET062METAR KTSP 282355Z AUTO 11012KT 10SM CLR 07/M08 A3005 RMK AO2;||F||223|ICAO-KTSP
USW00000479|TEHACHAPI MUNI AP|2009|12|29|00|15|35.1350|-118.4392|1219.5|6.0||1|FM15-METAR|223|ICAO-KTSP|-8.0||1|FM15-METAR|223|ICAO-KTSP|||||||||||||120|N-Normal|1|FM15-METAR|223|ICAO-KTSP|5.1|N-Normal|1|FM15-METAR|223|ICAO-KTSP|||||||||||||36|Derived||FM15-METAR|223|ICAO-KTSP|||||||||||||||||||||||||||||||||||||||||||||||||||||||||||||||||||||||||1017.6||1|FM15-METAR|223|ICAO-KTSP|||||||||||||||||||||||||||||||||||||||||||MET062METAR KTSP 290015Z AUTO 12010KT 10SM CLR 06/M08 A3005 RMK AO2;||F||223|ICAO-KTSP
USW00000479|TEHACHAPI MUNI AP|2009|12|29|00|35|35.1350|-118.4392|1219.5|5.0||1|FM15-METAR|223|ICAO-KTSP|-8.0||1|FM15-METAR|223|ICAO-KTSP|||||||||||||120|N-Normal|1|FM15-METAR|223|ICAO-KTSP|5.1|N-Normal|1|FM15-METAR|223|ICAO-KTSP|||||||||||||39|Derived||FM15-METAR|223|ICAO-KTSP|||||||||||||||||||||||||||||||||||||||||||||||||||||||||||||||||||||||||1017.3||1|FM15-METAR|223|ICAO-KTSP|||||||||||||||||||||||||||||||||||||||||||MET062METAR KTSP 290035Z AUTO 12010KT 10SM CLR 05/M08 A3004 RMK AO2;||F||223|ICAO-KTSP
USW00000479|TEHACHAPI MUNI AP|2009|12|29|01|00|35.1350|-118.4392|1219.5|4.0||1|FM15-METAR|223|ICAO-KTSP|-8.0||1|FM15-METAR|223|ICAO-KTSP|||||||||||||130|N-Normal|1|FM15-METAR|223|ICAO-KTSP|4.1|N-Normal|1|FM15-METAR|223|ICAO-KTSP|||||||||||||42|Derived||FM15-METAR|223|ICAO-KTSP|||||||||||||||||||||||||||||||||||||||||||||||||||||||||||||||||||||||||1017.3||1|FM15-METAR|223|ICAO-KTSP|||||||FEW:02|02-Two-okt|4|FM15-METAR|223|ICAO-KTSP|||||||||||||||||||||||||||||||MET065METAR KTSP 290055Z AUTO 13008KT 10SM FEW110 04/M08 A3004 RMK AO2;||F||223|ICAO-KTSP
USW00000479|TEHACHAPI MUNI AP|2009|12|29|01|15|35.1350|-118.4392|1219.5|4.0||1|FM15-METAR|223|ICAO-KTSP|-8.0||1|FM15-METAR|223|ICAO-KTSP|||||||||||||130|N-Normal|1|FM15-METAR|223|ICAO-KTSP|4.1|N-Normal|1|FM15-METAR|223|ICAO-KTSP|||||||||||||42|Derived||FM15-METAR|223|ICAO-KTSP|||||||||||||||||||||||||||||||||||||||||||||||||||||||||||||||||||||||||1016.9||1|FM15-METAR|223|ICAO-KTSP|||||||||||||||||||||||||||||||||||||||||||MET062METAR KTSP 290115Z AUTO 13008KT 10SM CLR 04/M08 A3003 RMK AO2;||F||223|ICAO-KTSP
USW00000479|TEHACHAPI MUNI AP|2009|12|29|01|35|35.1350|-118.4392|1219.5|3.0||1|FM15-METAR|223|ICAO-KTSP|-8.0||1|FM15-METAR|223|ICAO-KTSP|||||||||||||090|N-Normal|1|FM15-METAR|223|ICAO-KTSP|4.1|N-Normal|1|FM15-METAR|223|ICAO-KTSP|||||||||||||45|Derived||FM15-METAR|223|ICAO-KTSP|||||||||||||||||||||||||||||||||||||||||||||||||||||||||||||||||||||||||1016.9||1|FM15-METAR|223|ICAO-KTSP|||||||||||||||||||||||||||||||||||||||||||MET062METAR KTSP 290135Z AUTO 09008KT 10SM CLR 03/M08 A3003 RMK AO2;||F||223|ICAO-KTSP
USW00000479|TEHACHAPI MUNI AP|2009|12|29|02|00|35.1350|-118.4392|1219.5|3.0||1|FM15-METAR|223|ICAO-KTSP|-8.0||1|FM15-METAR|223|ICAO-KTSP|||||||||||||080|N-Normal|1|FM15-METAR|223|ICAO-KTSP|4.6|N-Normal|1|FM15-METAR|223|ICAO-KTSP|||||||||||||45|Derived||FM15-METAR|223|ICAO-KTSP|||||||||||||||||||||||||||||||||||||||||||||||||||||||||||||||||||||||||1016.9||1|FM15-METAR|223|ICAO-KTSP|||||||||||||||||||||||||||||||||||||||||||MET062METAR KTSP 290155Z AUTO 08009KT 10SM CLR 03/M08 A3003 RMK AO2;||F||223|ICAO-KTSP
USW00000479|TEHACHAPI MUNI AP|2009|12|29|02|15|35.1350|-118.4392|1219.5|3.0||1|FM15-METAR|223|ICAO-KTSP|-8.0||1|FM15-METAR|223|ICAO-KTSP|||||||||||||110|N-Normal|1|FM15-METAR|223|ICAO-KTSP|2.6|N-Normal|1|FM15-METAR|223|ICAO-KTSP|||||||||||||45|Derived||FM15-METAR|223|ICAO-KTSP|||||||||||||||||||||||||||||||||||||||||||||||||||||||||||||||||||||||||1016.9||1|FM15-METAR|223|ICAO-KTSP|||||||||||||||||||||||||||||||||||||||||||MET062METAR KTSP 290215Z AUTO 11005KT 10SM CLR 03/M08 A3003 RMK AO2;||F||223|ICAO-KTSP
USW00000479|TEHACHAPI MUNI AP|2009|12|29|02|35|35.1350|-118.4392|1219.5|2.0||1|FM15-METAR|223|ICAO-KTSP|-8.0||1|FM15-METAR|223|ICAO-KTSP|||||||||||||090|N-Normal|1|FM15-METAR|223|ICAO-KTSP|3.6|N-Normal|1|FM15-METAR|223|ICAO-KTSP|||||||||||||48|Derived||FM15-METAR|223|ICAO-KTSP|||||||||||||||||||||||||||||||||||||||||||||||||||||||||||||||||||||||||1016.9||1|FM15-METAR|223|ICAO-KTSP|||||||||||||||||||||||||||||||||||||||||||MET062METAR KTSP 290235Z AUTO 09007KT 10SM CLR 02/M08 A3003 RMK AO2;||F||223|ICAO-KTSP
USW00000479|TEHACHAPI MUNI AP|2009|12|29|03|00|35.1350|-118.4392|1219.5|2.0||1|FM15-METAR|223|ICAO-KTSP|-8.0||1|FM15-METAR|223|ICAO-KTSP|||||||||||||100|N-Normal|1|FM15-METAR|223|ICAO-KTSP|4.1|N-Normal|1|FM15-METAR|223|ICAO-KTSP|||||||||||||48|Derived||FM15-METAR|223|ICAO-KTSP|||||||||||||||||||||||||||||||||||||||||||||||||||||||||||||||||||||||||1016.9||1|FM15-METAR|223|ICAO-KTSP|||||||||||||||||||||||||||||||||||||||||||MET062METAR KTSP 290255Z AUTO 10008KT 10SM CLR 02/M08 A3003 RMK AO2;||F||223|ICAO-KTSP
USW00000479|TEHACHAPI MUNI AP|2009|12|29|03|15|35.1350|-118.4392|1219.5|2.0||1|FM15-METAR|223|ICAO-KTSP|-8.0||1|FM15-METAR|223|ICAO-KTSP|||||||||||||100|N-Normal|1|FM15-METAR|223|ICAO-KTSP|4.6|N-Normal|1|FM15-METAR|223|ICAO-KTSP|||||||||||||48|Derived||FM15-METAR|223|ICAO-KTSP|||||||||||||||||||||||||||||||||||||||||||||||||||||||||||||||||||||||||1016.9||1|FM15-METAR|223|ICAO-KTSP|||||||||||||||||||||||||||||||||||||||||||MET062METAR KTSP 290315Z AUTO 10009KT 10SM CLR 02/M08 A3003 RMK AO2;||F||223|ICAO-KTSP
USW00000479|TEHACHAPI MUNI AP|2009|12|29|03|35|35.1350|-118.4392|1219.5|2.0||1|FM15-METAR|223|ICAO-KTSP|-8.0||1|FM15-METAR|223|ICAO-KTSP|||||||||||||100|N-Normal|1|FM15-METAR|223|ICAO-KTSP|4.6|N-Normal|1|FM15-METAR|223|ICAO-KTSP|||||||||||||48|Derived||FM15-METAR|223|ICAO-KTSP|||||||||||||||||||||||||||||||||||||||||||||||||||||||||||||||||||||||||1016.9||1|FM15-METAR|223|ICAO-KTSP|||||||||||||||||||||||||||||||||||||||||||MET062METAR KTSP 290335Z AUTO 10009KT 10SM CLR 02/M08 A3003 RMK AO2;||F||223|ICAO-KTSP
USW00000479|TEHACHAPI MUNI AP|2009|12|29|04|00|35.1350|-118.4392|1219.5|2.0||1|FM15-METAR|223|ICAO-KTSP|-8.0||1|FM15-METAR|223|ICAO-KTSP|||||||||||||100|N-Normal|1|FM15-METAR|223|ICAO-KTSP|4.6|N-Normal|1|FM15-METAR|223|ICAO-KTSP|||||||||||||48|Derived||FM15-METAR|223|ICAO-KTSP|||||||||||||||||||||||||||||||||||||||||||||||||||||||||||||||||||||||||1016.9||1|FM15-METAR|223|ICAO-KTSP|||||||||||||||||||||||||||||||||||||||||||MET062METAR KTSP 290355Z AUTO 10009KT 10SM CLR 02/M08 A3003 RMK AO2;||F||223|ICAO-KTSP
USW00000479|TEHACHAPI MUNI AP|2009|12|29|04|15|35.1350|-118.4392|1219.5|2.0||1|FM15-METAR|223|ICAO-KTSP|-8.0||1|FM15-METAR|223|ICAO-KTSP|||||||||||||090|N-Normal|1|FM15-METAR|223|ICAO-KTSP|4.1|N-Normal|1|FM15-METAR|223|ICAO-KTSP|||||||||||||48|Derived||FM15-METAR|223|ICAO-KTSP|||||||||||||||||||||||||||||||||||||||||||||||||||||||||||||||||||||||||1016.9||1|FM15-METAR|223|ICAO-KTSP|||||||||||||||||||||||||||||||||||||||||||MET062METAR KTSP 290415Z AUTO 09008KT 10SM CLR 02/M08 A3003 RMK AO2;||F||223|ICAO-KTSP
USW00000479|TEHACHAPI MUNI AP|2009|12|29|04|35|35.1350|-118.4392|1219.5|1.0||1|FM15-METAR|223|ICAO-KTSP|-8.0||1|FM15-METAR|223|ICAO-KTSP|||||||||||||090|N-Normal|1|FM15-METAR|223|ICAO-KTSP|4.1|N-Normal|1|FM15-METAR|223|ICAO-KTSP|||||||||||||51|Derived||FM15-METAR|223|ICAO-KTSP|||||||||||||||||||||||||||||||||||||||||||||||||||||||||||||||||||||||||1017.3||1|FM15-METAR|223|ICAO-KTSP|||||||||||||||||||||||||||||||||||||||||||MET062METAR KTSP 290435Z AUTO 09008KT 10SM CLR 01/M08 A3004 RMK AO2;||F||223|ICAO-KTSP
USW00000479|TEHACHAPI MUNI AP|2009|12|29|05|00|35.1350|-118.4392|1219.5|2.0||1|FM15-METAR|223|ICAO-KTSP|-8.0||1|FM15-METAR|223|ICAO-KTSP|||||||||||||100|N-Normal|1|FM15-METAR|223|ICAO-KTSP|4.1|N-Normal|1|FM15-METAR|223|ICAO-KTSP|||||||||||||48|Derived||FM15-METAR|223|ICAO-KTSP|||||||||||||||||||||||||||||||||||||||||||||||||||||||||||||||||||||||||1017.3||1|FM15-METAR|223|ICAO-KTSP|||||||||||||||||||||||||||||||||||||||||||MET062METAR KTSP 290455Z AUTO 10008KT 10SM CLR 02/M08 A3004 RMK AO2;||F||223|ICAO-KTSP
USW00000479|TEHACHAPI MUNI AP|2009|12|29|05|15|35.1350|-118.4392|1219.5|2.0||1|FM15-METAR|223|ICAO-KTSP|-8.0||1|FM15-METAR|223|ICAO-KTSP|||||||||||||090|N-Normal|1|FM15-METAR|223|ICAO-KTSP|4.6|N-Normal|1|FM15-METAR|223|ICAO-KTSP|||||||||||||48|Derived||FM15-METAR|223|ICAO-KTSP|||||||||||||||||||||||||||||||||||||||||||||||||||||||||||||||||||||||||1017.3||1|FM15-METAR|223|ICAO-KTSP|||||||SCT:04|04-Four-ok|4|FM15-METAR|223|ICAO-KTSP|||||||BKN:07|07-Seven-o|4|FM15-METAR|223|ICAO-KTSP|||||||||||||||||||MET072METAR KTSP 290515Z AUTO 09009KT 10SM SCT080 BKN120 02/M08 A3004 RMK AO2;||F||223|ICAO-KTSP
USW00000479|TEHACHAPI MUNI AP|2009|12|29|05|35|35.1350|-118.4392|1219.5|3.0||1|FM15-METAR|223|ICAO-KTSP|-8.0||1|FM15-METAR|223|ICAO-KTSP|||||||||||||090|N-Normal|1|FM15-METAR|223|ICAO-KTSP|4.1|N-Normal|1|FM15-METAR|223|ICAO-KTSP|||||||||||||45|Derived||FM15-METAR|223|ICAO-KTSP|||||||||||||||||||||||||||||||||||||||||||||||||||||||||||||||||||||||||1017.3||1|FM15-METAR|223|ICAO-KTSP|||||||BKN:07|07-Seven-o|4|FM15-METAR|223|ICAO-KTSP|||||||||||||||||||||||||||||||MET065METAR KTSP 290535Z AUTO 09008KT 10SM BKN090 03/M08 A3004 RMK AO2;||F||223|ICAO-KTSP
USW00000479|TEHACHAPI MUNI AP|2009|12|29|06|00|35.1350|-118.4392|1219.5|2.0||1|FM15-METAR|223|ICAO-KTSP|-8.0||1|FM15-METAR|223|ICAO-KTSP|||||||||||||080|N-Normal|1|FM15-METAR|223|ICAO-KTSP|3.1|N-Normal|1|FM15-METAR|223|ICAO-KTSP|||||||||||||48|Derived||FM15-METAR|223|ICAO-KTSP|||||||||||||||||||||||||||||||||||||||||||||||||||||||||||||||||||||||||1017.3||1|FM15-METAR|223|ICAO-KTSP|||||||BKN:07|07-Seven-o|4|FM15-METAR|223|ICAO-KTSP|||||||||||||||||||||||||||||||MET065METAR KTSP 290555Z AUTO 08006KT 10SM BKN090 02/M08 A3004 RMK AO2;||F||223|ICAO-KTSP
USW00000479|TEHACHAPI MUNI AP|2009|12|29|06|15|35.1350|-118.4392|1219.5|3.0||1|FM15-METAR|223|ICAO-KTSP|-8.0||1|FM15-METAR|223|ICAO-KTSP|||||||||||||100|N-Normal|1|FM15-METAR|223|ICAO-KTSP|4.1|N-Normal|1|FM15-METAR|223|ICAO-KTSP|||||||||||||45|Derived||FM15-METAR|223|ICAO-KTSP|||||||||||||||||||||||||||||||||||||||||||||||||||||||||||||||||||||||||1017.3||1|FM15-METAR|223|ICAO-KTSP|||||||OVC:08|08-Eight-o|4|FM15-METAR|223|ICAO-KTSP|||||||||||||||||||||||||||||||MET065METAR KTSP 290615Z AUTO 10008KT 10SM OVC090 03/M08 A3004 RMK AO2;||F||223|ICAO-KTSP
USW00000479|TEHACHAPI MUNI AP|2009|12|29|06|35|35.1350|-118.4392|1219.5|3.0||1|FM15-METAR|223|ICAO-KTSP|-8.0||1|FM15-METAR|223|ICAO-KTSP|||||||||||||090|N-Normal|1|FM15-METAR|223|ICAO-KTSP|3.6|N-Normal|1|FM15-METAR|223|ICAO-KTSP|||||||||||||45|Derived||FM15-METAR|223|ICAO-KTSP|||||||||||||||||||||||||||||||||||||||||||||||||||||||||||||||||||||||||1017.6||1|FM15-METAR|223|ICAO-KTSP|||||||OVC:08|08-Eight-o|4|FM15-METAR|223|ICAO-KTSP|||||||||||||||||||||||||||||||MET065METAR KTSP 290635Z AUTO 09007KT 10SM OVC090 03/M08 A3005 RMK AO2;||F||223|ICAO-KTSP
USW00000479|TEHACHAPI MUNI AP|2009|12|29|07|00|35.1350|-118.4392|1219.5|3.0||1|FM15-METAR|223|ICAO-KTSP|-8.0||1|FM15-METAR|223|ICAO-KTSP|||||||||||||100|N-Normal|1|FM15-METAR|223|ICAO-KTSP|2.6|N-Normal|1|FM15-METAR|223|ICAO-KTSP|||||||||||||45|Derived||FM15-METAR|223|ICAO-KTSP|||||||||||||||||||||||||||||||||||||||||||||||||||||||||||||||||||||||||1017.6||1|FM15-METAR|223|ICAO-KTSP|||||||OVC:08|08-Eight-o|4|FM15-METAR|223|ICAO-KTSP|||||||||||||||||||||||||||||||MET065METAR KTSP 290655Z AUTO 10005KT 10SM OVC090 03/M08 A3005 RMK AO2;||F||223|ICAO-KTSP
USW00000479|TEHACHAPI MUNI AP|2009|12|29|07|15|35.1350|-118.4392|1219.5|2.0||1|FM15-METAR|223|ICAO-KTSP|-7.0||1|FM15-METAR|223|ICAO-KTSP|||||||||||||120|N-Normal|1|FM15-METAR|223|ICAO-KTSP|2.1|N-Normal|1|FM15-METAR|223|ICAO-KTSP|||||||||||||52|Derived||FM15-METAR|223|ICAO-KTSP|||||||||||||||||||||||||||||||||||||||||||||||||||||||||||||||||||||||||1017.6||1|FM15-METAR|223|ICAO-KTSP|||||||OVC:08|08-Eight-o|4|FM15-METAR|223|ICAO-KTSP|||||||||||||||||||||||||||||||MET065METAR KTSP 290715Z AUTO 12004KT 10SM OVC090 02/M07 A3005 RMK AO2;||F||223|ICAO-KTSP
USW00000479|TEHACHAPI MUNI AP|2009|12|29|07|35|35.1350|-118.4392|1219.5|1.0||1|FM15-METAR|223|ICAO-KTSP|-6.0||1|FM15-METAR|223|ICAO-KTSP|||||||||||||150|N-Normal|1|FM15-METAR|223|ICAO-KTSP|2.1|N-Normal|1|FM15-METAR|223|ICAO-KTSP|||||||||||||60|Derived||FM15-METAR|223|ICAO-KTSP|||||||||||||||||||||||||||||||||||||||||||||||||||||||||||||||||||||||||1017.6||1|FM15-METAR|223|ICAO-KTSP|||||||BKN:07|07-Seven-o|4|FM15-METAR|223|ICAO-KTSP|||||||OVC:08|08-Eight-o|4|FM15-METAR|223|ICAO-KTSP|||||||||||||||||||MET072METAR KTSP 290735Z AUTO 15004KT 10SM BKN075 OVC090 01/M06 A3005 RMK AO2;||F||223|ICAO-KTSP
USW00000479|TEHACHAPI MUNI AP|2009|12|29|08|00|35.1350|-118.4392|1219.5|2.0||1|FM15-METAR|223|ICAO-KTSP|-7.0||1|FM15-METAR|223|ICAO-KTSP|||||||||||||999|C-Calm|9|FM15-METAR|223|ICAO-KTSP|0.0|C-Calm|1|FM15-METAR|223|ICAO-KTSP|||||||||||||52|Derived||FM15-METAR|223|ICAO-KTSP|||||||||||||||||||||||||||||||||||||||||||||||||||||||||||||||||||||||||1017.6||1|FM15-METAR|223|ICAO-KTSP|||||||BKN:07|07-Seven-o|4|FM15-METAR|223|ICAO-KTSP|||||||OVC:08|08-Eight-o|4|FM15-METAR|223|ICAO-KTSP|||||||||||||||||||MET072METAR KTSP 290755Z AUTO 00000KT 10SM BKN075 OVC080 02/M07 A3005 RMK AO2;||F||223|ICAO-KTSP
USW00000479|TEHACHAPI MUNI AP|2009|12|29|08|15|35.1350|-118.4392|1219.5|||||||||||||||||||||||||||||||||||||||||||||||||||||||||||||||||||||||||||||||||||||||||||||||||||||||||||||||||||||||||||||||||||||||||||SCT:04|04-Four-ok|4|FM16-SPECI|223|ICAO-KTSP|||||||OVC:08|08-Eight-o|4|FM16-SPECI|223|ICAO-KTSP|||||||||||||||||||MET068METAR KTSP 290815Z AUTO 10SM SCT075 OVC080 RMK AO2 PWINO PNO FZRANO;||F||223|ICAO-KTSP
USW00000479|TEHACHAPI MUNI AP|2009|12|29|08|35|35.1350|-118.4392|1219.5|||||||||||||||||||||||||||||||||||||||||||||||||||||||||||||||||||||||||||||||||||||||||||||||||||||||||||||||||||||||||||||||||||||||||||||||||||||||||||||||||||||||||||||||MET054METAR KTSP 290835Z AUTO RMK AO2 PWINO PNO FZRANO TSNO;||F||223|ICAO-KTSP
USW00000479|TEHACHAPI MUNI AP|2009|12|29|09|00|35.1350|-118.4392|1219.5|||||||||||||||||||||||||||||||||||||||||||||||||||||||||||||||||||||||||||||||||||||||||||||||||||||||||||||||||||||||||||||||||||||||||||||||||||||||||||||||||||||||||||||||MET054METAR KTSP 290855Z AUTO RMK AO2 PWINO PNO FZRANO TSNO;||F||223|ICAO-KTSP
USW00000479|TEHACHAPI MUNI AP|2009|12|29|09|15|35.1350|-118.4392|1219.5|||||||||||||||||||||||||||||||||||||||||||||||||||||||||||||||||||||||||||||||||||||||||||||||||||||||||||||||||||||||||||||||||||||||||||||||||||||||||||||||||||||||||||||||MET054METAR KTSP 290915Z AUTO RMK AO2 PWINO PNO FZRANO TSNO;||F||223|ICAO-KTSP
USW00000479|TEHACHAPI MUNI AP|2009|12|29|09|35|35.1350|-118.4392|1219.5|||||||||||||||||||||||||||||||||||||||||||||||||||||||||||||||||||||||||||||||||||||||||||||||||||||||||||||||||||||||||||||||||||||||||||||||||||||||||||||||||||||||||||||||MET054METAR KTSP 290935Z AUTO RMK AO2 PWINO PNO FZRANO TSNO;||F||223|ICAO-KTSP
USW00000479|TEHACHAPI MUNI AP|2009|12|29|10|00|35.1350|-118.4392|1219.5|||||||||||||||||||||||||||||||||||||||||||||||||||||||||||||||||||||||||||||||||||||||||||||||||||||||||||||||||||||||||||||||||||||||||||||||||||||||||||||||||||||||||||||||MET054METAR KTSP 290955Z AUTO RMK AO2 PWINO PNO FZRANO TSNO;||F||223|ICAO-KTSP
USW00000479|TEHACHAPI MUNI AP|2009|12|29|10|15|35.1350|-118.4392|1219.5|||||||||||||||||||||||||||||||||||||||||||||||||||||||||||||||||||||||||||||||||||||||||||||||||||||||||||||||||||||||||||||||||||||||||||||||||||||||||||||||||||||||||||||||MET054METAR KTSP 291015Z AUTO RMK AO2 PWINO PNO FZRANO TSNO;||F||223|ICAO-KTSP
USW00000479|TEHACHAPI MUNI AP|2009|12|29|10|35|35.1350|-118.4392|1219.5|||||||||||||||||||||||||||||||||||||||||||||||||||||||||||||||||||||||||||||||||||||||||||||||||||||||||||||||||||||||||||||||||||||||||||||||||||||||||||||||||||||||||||||||MET054METAR KTSP 291035Z AUTO RMK AO2 PWINO PNO FZRANO TSNO;||F||223|ICAO-KTSP
USW00000479|TEHACHAPI MUNI AP|2009|12|29|11|00|35.1350|-118.4392|1219.5|0.0||1|FM15-METAR|223|ICAO-KTSP|0.0||1|FM15-METAR|223|ICAO-KTSP|||||||||||||290|N-Normal|1|FM15-METAR|223|ICAO-KTSP|2.1|N-Normal|1|FM15-METAR|223|ICAO-KTSP|||||||||||||100|Derived||FM15-METAR|223|ICAO-KTSP|||||||||||||||||||||||||||||||||||||||||||BR:10|BR:10-Mist|1|FM15-METAR|223|ICAO-KTSP|||||||||||||||||||||||||1017.6||1|FM15-METAR|223|ICAO-KTSP|||||||||||||||||||||||||||||||||||||||||||MET059METAR KTSP 291055Z AUTO 29004KT 1SM BR 00/00 A3005 RMK AO2;||F||223|ICAO-KTSP
USW00000479|TEHACHAPI MUNI AP|2009|12|29|11|15|35.1350|-118.4392|1219.5|||||||||||||||||||||||||||||||||||||||||||||||||||||||||||||||||||||||||||||||||||||||||||||||||||||||||||||||||||||||||||||||||||||||||||||||||||||||||||||||||||||||||||||||MET049METAR KTSP 291115Z AUTO RMK AO2 PWINO PNO FZRANO;||F||223|ICAO-KTSP
USW00000479|TEHACHAPI MUNI AP|2009|12|29|11|35|35.1350|-118.4392|1219.5|||||||||||||||||||||||||||||||||||||||||||||||||||||||||||||||||||||||||||||||||||||||||||||||||||||||||||||||||||||||||||||||||||||||||||||||||||||||||||||||||||||||||||||||MET054METAR KTSP 291135Z AUTO RMK AO2 PWINO PNO FZRANO TSNO;||F||223|ICAO-KTSP
USW00000479|TEHACHAPI MUNI AP|2009|12|29|12|00|35.1350|-118.4392|1219.5|||||||||||||||||||||||||||||||||||||||||||||||||||||||||||||||||||||||||||||||||||||||||||||||||||||||||||||||||||||||||||||||||||||||||||||||||||||||||||||||||||||||||||||||MET054METAR KTSP 291155Z AUTO RMK AO2 PWINO PNO FZRANO TSNO;||F||223|ICAO-KTSP
USW00000479|TEHACHAPI MUNI AP|2009|12|29|12|15|35.1350|-118.4392|1219.5|0.0||1|FM15-METAR|223|ICAO-KTSP|0.0||1|FM15-METAR|223|ICAO-KTSP|||||||||||||300|N-Normal|1|FM15-METAR|223|ICAO-KTSP|1.5|N-Normal|1|FM15-METAR|223|ICAO-KTSP|||||||||||||100|Derived||FM15-METAR|223|ICAO-KTSP|||||||||||||||||||||||||||||||||||||||||||BR:10|BR:10-Mist|1|FM15-METAR|223|ICAO-KTSP|||||||||||||||||||||||||1016.9||1|FM15-METAR|223|ICAO-KTSP|||||||||||||||||||||||||||||||||||||||||||MET059METAR KTSP 291215Z AUTO 30003KT 1SM BR 00/00 A3003 RMK AO2;||F||223|ICAO-KTSP
USW00000479|TEHACHAPI MUNI AP|2009|12|29|12|35|35.1350|-118.4392|1219.5|0.0||1|FM15-METAR|223|ICAO-KTSP|0.0||1|FM15-METAR|223|ICAO-KTSP|||||||||||||270|N-Normal|1|FM15-METAR|223|ICAO-KTSP|1.5|N-Normal|1|FM15-METAR|223|ICAO-KTSP|||||||||||||100|Derived||FM15-METAR|223|ICAO-KTSP|||||||||||||||||||||||||||||||||||||||||||BR:10|BR:10-Mist|1|FM15-METAR|223|ICAO-KTSP|||||||||||||||||||||||||1017.3||1|FM15-METAR|223|ICAO-KTSP|||||||OVC:08|08-Eight-o|4|FM15-METAR|223|ICAO-KTSP|||||||||||||||||||||||||||||||MET066METAR KTSP 291235Z AUTO 27003KT 1SM BR OVC001 00/00 A3004 RMK AO2;||F||223|ICAO-KTSP
USW00000479|TEHACHAPI MUNI AP|2009|12|29|13|00|35.1350|-118.4392|1219.5|0.0||1|FM15-METAR|223|ICAO-KTSP|-1.0||1|FM15-METAR|223|ICAO-KTSP|||||||||||||270|N-Normal|1|FM15-METAR|223|ICAO-KTSP|1.5|N-Normal|1|FM15-METAR|223|ICAO-KTSP|||||||||||||93|Derived||FM15-METAR|223|ICAO-KTSP|||||||||||||||||||||||||||||||||||||||||||BR:10|BR:10-Mist|1|FM15-METAR|223|ICAO-KTSP|||||||||||||||||||||||||1017.6||1|FM15-METAR|223|ICAO-KTSP|||||||OVC:08|08-Eight-o|4|FM15-METAR|223|ICAO-KTSP|||||||||||||||||||||||||||||||MET067METAR KTSP 291255Z AUTO 27003KT 1SM BR OVC001 00/M01 A3005 RMK AO2;||F||223|ICAO-KTSP
USW00000479|TEHACHAPI MUNI AP|2009|12|29|13|15|35.1350|-118.4392|1219.5|0.0||1|FM15-METAR|223|ICAO-KTSP|0.0||1|FM15-METAR|223|ICAO-KTSP|||||||||||||230|N-Normal|1|FM15-METAR|223|ICAO-KTSP|1.5|N-Normal|1|FM15-METAR|223|ICAO-KTSP|||||||||||||100|Derived||FM15-METAR|223|ICAO-KTSP|||||||||||||||||||||||||||||||||||||||||||BR:10|BR:10-Mist|1|FM15-METAR|223|ICAO-KTSP|||||||||||||||||||||||||1017.6||1|FM15-METAR|223|ICAO-KTSP|||||||OVC:08|08-Eight-o|4|FM15-METAR|223|ICAO-KTSP|||||||||||||||||||||||||||||||MET066METAR KTSP 291315Z AUTO 23003KT 1SM BR OVC002 00/00 A3005 RMK AO2;||F||223|ICAO-KTSP
USW00000479|TEHACHAPI MUNI AP|2009|12|29|13|35|35.1350|-118.4392|1219.5|0.0||1|FM15-METAR|223|ICAO-KTSP|0.0||1|FM15-METAR|223|ICAO-KTSP|||||||||||||999|C-Calm|9|FM15-METAR|223|ICAO-KTSP|0.0|C-Calm|1|FM15-METAR|223|ICAO-KTSP|||||||||||||100|Derived||FM15-METAR|223|ICAO-KTSP|||||||||||||||||||||||||||||||||||||||||||RA:61|RA:61-Rain|1|FM15-METAR|223|ICAO-KTSP|||||||||||||||||||||||||1017.3||1|FM15-METAR|223|ICAO-KTSP|||||||OVC:08|08-Eight-o|4|FM15-METAR|223|ICAO-KTSP|||||||||||||||||||||||||||||||MET069METAR KTSP 291335Z AUTO 00000KT 1/4SM -RA OVC001 00/00 A3004 RMK AO2;||F||223|ICAO-KTSP
USW00000479|TEHACHAPI MUNI AP|2009|12|29|14|00|35.1350|-118.4392|1219.5|0.0||1|FM15-METAR|223|ICAO-KTSP|0.0||1|FM15-METAR|223|ICAO-KTSP|||||||||||||999|C-Calm|9|FM15-METAR|223|ICAO-KTSP|0.0|C-Calm|1|FM15-METAR|223|ICAO-KTSP|||||||||||||100|Derived||FM15-METAR|223|ICAO-KTSP|||||||||||||||||||||||||||||||||||||||||||BR:10|BR:10-Mist|1|FM15-METAR|223|ICAO-KTSP|||||||||||||||||||||||||1017.6||1|FM15-METAR|223|ICAO-KTSP|||||||OVC:08|08-Eight-o|4|FM15-METAR|223|ICAO-KTSP|||||||||||||||||||||||||||||||MET066METAR KTSP 291355Z AUTO 00000KT 1SM BR OVC001 00/00 A3005 RMK AO2;||F||223|ICAO-KTSP
USW00000479|TEHACHAPI MUNI AP|2009|12|29|14|15|35.1350|-118.4392|1219.5|||||||||||||||||||||||||||||||||||||||||||||||||||||||||||||||||||||||||||||||||||||||||||||||||||||||||||||||||||||||||||||||||||||||||||||||||||||||||||||||||||||||||||||||MET054METAR KTSP 291415Z AUTO RMK AO2 PWINO PNO FZRANO TSNO;||F||223|ICAO-KTSP
USW00000479|TEHACHAPI MUNI AP|2009|12|29|14|35|35.1350|-118.4392|1219.5|-2.0||1|FM15-METAR|223|ICAO-KTSP|-2.0||1|FM15-METAR|223|ICAO-KTSP|||||||||||||130|N-Normal|1|FM15-METAR|223|ICAO-KTSP|2.6|N-Normal|1|FM15-METAR|223|ICAO-KTSP|||||||||||||100|Derived||FM15-METAR|223|ICAO-KTSP|||||||||||||||||||||||||||||||||||||||||||BR:10|BR:10-Mist|1|FM15-METAR|223|ICAO-KTSP|||||||||||||||||||||||||1017.6||1|FM15-METAR|223|ICAO-KTSP|||||||||||||||||||||||||||||||||||||||||||MET065METAR KTSP 291435Z AUTO 13005KT 1 1/2SM BR M02/M02 A3005 RMK AO2;||F||223|ICAO-KTSP
USW00000479|TEHACHAPI MUNI AP|2009|12|29|15|00|35.1350|-118.4392|1219.5|-1.0||1|FM15-METAR|223|ICAO-KTSP|-1.0||1|FM15-METAR|223|ICAO-KTSP|||||||||||||999|C-Calm|9|FM15-METAR|223|ICAO-KTSP|0.0|C-Calm|1|FM15-METAR|223|ICAO-KTSP|||||||||||||100|Derived||FM15-METAR|223|ICAO-KTSP|||||||||||||||||||||||||||||||||||||||||||BR:10|BR:10-Mist|1|FM15-METAR|223|ICAO-KTSP|||||||||||||||||||||||||1017.6||1|FM15-METAR|223|ICAO-KTSP|||||||OVC:08|08-Eight-o|4|FM15-METAR|223|ICAO-KTSP|||||||||||||||||||||||||||||||MET070METAR KTSP 291455Z AUTO 00000KT 3/4SM BR OVC060 M01/M01 A3005 RMK AO2;||F||223|ICAO-KTSP
USW00000479|TEHACHAPI MUNI AP|2009|12|29|15|15|35.1350|-118.4392|1219.5|-1.0||1|FM15-METAR|223|ICAO-KTSP|-1.0||1|FM15-METAR|223|ICAO-KTSP|||||||||||||999|C-Calm|9|FM15-METAR|223|ICAO-KTSP|0.0|C-Calm|1|FM15-METAR|223|ICAO-KTSP|||||||||||||100|Derived||FM15-METAR|223|ICAO-KTSP|||||||||||||||||||||||||||||||||||||||||||BR:10|BR:10-Mist|1|FM15-METAR|223|ICAO-KTSP|||||||||||||||||||||||||1018.0||1|FM15-METAR|223|ICAO-KTSP|||||||OVC:08|08-Eight-o|4|FM15-METAR|223|ICAO-KTSP|||||||||||||||||||||||||||||||MET068METAR KTSP 291515Z AUTO 00000KT 1SM BR OVC060 M01/M01 A3006 RMK AO2;||F||223|ICAO-KTSP
USW00000479|TEHACHAPI MUNI AP|2009|12|29|15|35|35.1350|-118.4392|1219.5|0.0||1|FM15-METAR|223|ICAO-KTSP|0.0||1|FM15-METAR|223|ICAO-KTSP|||||||||||||999|C-Calm|9|FM15-METAR|223|ICAO-KTSP|0.0|C-Calm|1|FM15-METAR|223|ICAO-KTSP|||||||||||||100|Derived||FM15-METAR|223|ICAO-KTSP|||||||||||||||||||||||||||||||||||||||||||BR:10|BR:10-Mist|1|FM15-METAR|223|ICAO-KTSP|||||||||||||||||||||||||1018.3||1|FM15-METAR|223|ICAO-KTSP|||||||OVC:08|08-Eight-o|4|FM15-METAR|223|ICAO-KTSP|||||||||||||||||||||||||||||||MET066METAR KTSP 291535Z AUTO 00000KT 1SM BR OVC060 00/00 A3007 RMK AO2;||F||223|ICAO-KTSP
USW00000479|TEHACHAPI MUNI AP|2009|12|29|16|00|35.1350|-118.4392|1219.5|0.0||1|FM15-METAR|223|ICAO-KTSP|0.0||1|FM15-METAR|223|ICAO-KTSP|||||||||||||999|C-Calm|9|FM15-METAR|223|ICAO-KTSP|0.0|C-Calm|1|FM15-METAR|223|ICAO-KTSP|||||||||||||100|Derived||FM15-METAR|223|ICAO-KTSP|||||||||||||||||||||||||||||||||||||||||||BR:10|BR:10-Mist|1|FM15-METAR|223|ICAO-KTSP|||||||||||||||||||||||||1018.6||1|FM15-METAR|223|ICAO-KTSP|||||||OVC:08|08-Eight-o|4|FM15-METAR|223|ICAO-KTSP|||||||||||||||||||||||||||||||MET070METAR KTSP 291555Z AUTO 00000KT 1 1/2SM BR OVC060 00/00 A3008 RMK AO2;||F||223|ICAO-KTSP
USW00000479|TEHACHAPI MUNI AP|2009|12|29|16|15|35.1350|-118.4392|1219.5|0.0||1|FM15-METAR|223|ICAO-KTSP|0.0||1|FM15-METAR|223|ICAO-KTSP|||||||||||||310|N-Normal|1|FM15-METAR|223|ICAO-KTSP|2.1|N-Normal|1|FM15-METAR|223|ICAO-KTSP|||||||||||||100|Derived||FM15-METAR|223|ICAO-KTSP|||||||||||||||||||||||||||||||||||||||||||BR:10|BR:10-Mist|1|FM15-METAR|223|ICAO-KTSP|||||||||||||||||||||||||1018.6||1|FM15-METAR|223|ICAO-KTSP|||||||OVC:08|08-Eight-o|4|FM15-METAR|223|ICAO-KTSP|||||||||||||||||||||||||||||||MET066METAR KTSP 291615Z AUTO 31004KT 2SM BR OVC060 00/00 A3008 RMK AO2;||F||223|ICAO-KTSP
USW00000479|TEHACHAPI MUNI AP|2009|12|29|16|35|35.1350|-118.4392|1219.5|1.0||1|FM15-METAR|223|ICAO-KTSP|0.0||1|FM15-METAR|223|ICAO-KTSP|||||||||||||240|N-Normal|1|FM15-METAR|223|ICAO-KTSP|2.6|N-Normal|1|FM15-METAR|223|ICAO-KTSP|||||||||||||93|Derived||FM15-METAR|223|ICAO-KTSP|||||||||||||||||||||||||||||||||||||||||||BR:10|BR:10-Mist|1|FM15-METAR|223|ICAO-KTSP|||||||||||||||||||||||||1019.0||1|FM15-METAR|223|ICAO-KTSP|||||||SCT:04|04-Four-ok|4|FM15-METAR|223|ICAO-KTSP|||||||OVC:08|08-Eight-o|4|FM15-METAR|223|ICAO-KTSP|||||||||||||||||||MET073METAR KTSP 291635Z AUTO 24005KT 2SM BR SCT006 OVC050 01/00 A3009 RMK AO2;||F||223|ICAO-KTSP
USW00000479|TEHACHAPI MUNI AP|2009|12|29|17|00|35.1350|-118.4392|1219.5|2.0||1|FM15-METAR|223|ICAO-KTSP|0.0||1|FM15-METAR|223|ICAO-KTSP|||||||||||||270|N-Normal|1|FM15-METAR|223|ICAO-KTSP|2.6|N-Normal|1|FM15-METAR|223|ICAO-KTSP|||||||||||||87|Derived||FM15-METAR|223|ICAO-KTSP|||||||||||||||||||||||||||||||||||||||||||BR:10|BR:10-Mist|1|FM15-METAR|223|ICAO-KTSP|||||||||||||||||||||||||1019.3||1|FM15-METAR|223|ICAO-KTSP|||||||SCT:04|04-Four-ok|4|FM15-METAR|223|ICAO-KTSP|||||||OVC:08|08-Eight-o|4|FM15-METAR|223|ICAO-KTSP|||||||||||||||||||MET073METAR KTSP 291655Z AUTO 27005KT 2SM BR SCT006 OVC050 02/00 A3010 RMK AO2;||F||223|ICAO-KTSP
USW00000479|TEHACHAPI MUNI AP|2009|12|29|17|15|35.1350|-118.4392|1219.5|3.0||1|FM15-METAR|223|ICAO-KTSP|0.0||1|FM15-METAR|223|ICAO-KTSP|||||||||||||310|N-Normal|1|FM15-METAR|223|ICAO-KTSP|4.6|N-Normal|1|FM15-METAR|223|ICAO-KTSP|||||||||||||81|Derived||FM15-METAR|223|ICAO-KTSP|||||||||||||||||||||||||||||||||||||||||||HZ:04|HZ:04-Haze|1|FM15-METAR|223|ICAO-KTSP|||||||||||||||||||||||||1019.6||1|FM15-METAR|223|ICAO-KTSP|||||||OVC:08|08-Eight-o|4|FM15-METAR|223|ICAO-KTSP|||||||||||||||||||||||||||||||MET066METAR KTSP 291715Z AUTO 31009KT 4SM HZ OVC050 03/00 A3011 RMK AO2;||F||223|ICAO-KTSP
USW00000479|TEHACHAPI MUNI AP|2009|12|29|17|35|35.1350|-118.4392|1219.5|3.0||1|FM15-METAR|223|ICAO-KTSP|0.0||1|FM15-METAR|223|ICAO-KTSP|||||||||||||310|N-Normal|1|FM15-METAR|223|ICAO-KTSP|7.2|N-Normal|1|FM15-METAR|223|ICAO-KTSP|||||||||||||81|Derived||FM15-METAR|223|ICAO-KTSP|||||||||||||||||||||||||||||||||||||||||||BR:10|BR:10-Mist|1|FM15-METAR|223|ICAO-KTSP|||||||||||||||||||||||||1020.0||1|FM15-METAR|223|ICAO-KTSP|||||||FEW:02|02-Two-okt|4|FM15-METAR|223|ICAO-KTSP|||||||OVC:08|08-Eight-o|4|FM15-METAR|223|ICAO-KTSP|||||||||||||||||||MET077METAR KTSP 291735Z AUTO 31014KT 2 1/2SM BR FEW003 OVC050 03/00 A3012 RMK AO2;||F||223|ICAO-KTSP
USW00000479|TEHACHAPI MUNI AP|2009|12|29|18|00|35.1350|-118.4392|1219.5|3.0||1|FM15-METAR|223|ICAO-KTSP|0.0||1|FM15-METAR|223|ICAO-KTSP|||||||||||||310|N-Normal|1|FM15-METAR|223|ICAO-KTSP|6.2|N-Normal|1|FM15-METAR|223|ICAO-KTSP|||||||||||||81|Derived||FM15-METAR|223|ICAO-KTSP|||||||||||||||||||||||||||||||||||||||||||BR:10|BR:10-Mist|1|FM15-METAR|223|ICAO-KTSP|||||||||||||||||||||||||1020.3||1|FM15-METAR|223|ICAO-KTSP|||||||FEW:02|02-Two-okt|4|FM15-METAR|223|ICAO-KTSP|||||||OVC:08|08-Eight-o|4|FM15-METAR|223|ICAO-KTSP|||||||||||||||||||MET077METAR KTSP 291755Z AUTO 31012KT 2 1/2SM BR FEW003 OVC050 03/00 A3013 RMK AO2;||F||223|ICAO-KTSP
USW00000479|TEHACHAPI MUNI AP|2009|12|29|18|15|35.1350|-118.4392|1219.5|||||||||||||||||||||||||||||||||||||||||||||||||||||||||||||||||||||||||||||||||||||||||||||||||||||||||||||||||||||||||||||||||||||||||||||||||||||||||||||||||||||||||||||||MET049METAR KTSP 291815Z AUTO RMK AO2 PWINO PNO FZRANO;||F||223|ICAO-KTSP
USW00000479|TEHACHAPI MUNI AP|2009|12|29|18|35|35.1350|-118.4392|1219.5|||||||||||||||||||||||||||||||||||||||||||||||||||||||||||||||||||||||||||||||||||||||||||||||||||||||||||||||||||||||||||||||||||||||||||||||||||||||||||||||||||||||||||||||MET054METAR KTSP 291835Z AUTO RMK AO2 PWINO PNO FZRANO TSNO;||F||223|ICAO-KTSP
USW00000479|TEHACHAPI MUNI AP|2009|12|29|19|00|35.1350|-118.4392|1219.5|||||||||||||||||||||||||||||||||||||||||||||||||||||||||||||||||||||||||||||||||||||||||||||||||||||||||||||||||||||||||||||||||||||||||||||||||||||||||||||||||||||||||||||||MET054METAR KTSP 291855Z AUTO RMK AO2 PWINO PNO FZRANO TSNO;||F||223|ICAO-KTSP
USW00000479|TEHACHAPI MUNI AP|2009|12|29|19|15|35.1350|-118.4392|1219.5|3.0||1|FM15-METAR|223|ICAO-KTSP|1.0||1|FM15-METAR|223|ICAO-KTSP|||||||||||||300|N-Normal|1|FM15-METAR|223|ICAO-KTSP|3.6|N-Normal|1|FM15-METAR|223|ICAO-KTSP|||||||||||||87|Derived||FM15-METAR|223|ICAO-KTSP|||||||||||||||||||||||||||||||||||||||||||BR:10|BR:10-Mist|1|FM15-METAR|223|ICAO-KTSP|||||||||||||||||||||||||1020.0||1|FM15-METAR|223|ICAO-KTSP|||||||||||||||||||||||||||||||||||||||||||MET063METAR KTSP 291915Z AUTO 30007KT 2 1/2SM BR 03/01 A3012 RMK AO2;||F||223|ICAO-KTSP
USW00000479|TEHACHAPI MUNI AP|2009|12|29|19|35|35.1350|-118.4392|1219.5|4.0||1|FM15-METAR|223|ICAO-KTSP|1.0||1|FM15-METAR|223|ICAO-KTSP|||||||||||||300|N-Normal|1|FM15-METAR|223|ICAO-KTSP|4.1|N-Normal|1|FM15-METAR|223|ICAO-KTSP|||||||||||||81|Derived||FM15-METAR|223|ICAO-KTSP|||||||||||||||||||||||||||||||||||||||||||HZ:04|HZ:04-Haze|1|FM15-METAR|223|ICAO-KTSP|||||||||||||||||||||||||1020.0||1|FM15-METAR|223|ICAO-KTSP|||||||||||||||||||||||||||||||||||||||||||MET059METAR KTSP 291935Z AUTO 30008KT 3SM HZ 04/01 A3012 RMK AO2;||F||223|ICAO-KTSP
USW00000479|TEHACHAPI MUNI AP|2009|12|29|20|00|35.1350|-118.4392|1219.5|||||||||||||||||||||||||||||||||||||||||||||||||||||||||||||||||||||||||||||||||||||||||||||||||||||||||||||||||||||||||||||||||||||||||||||||||||||||||||||||||||||||||||||||MET049METAR KTSP 291955Z AUTO RMK AO2 PWINO PNO FZRANO;||F||223|ICAO-KTSP
USW00000479|TEHACHAPI MUNI AP|2009|12|29|20|15|35.1350|-118.4392|1219.5|||||||||||||||||||||||||||||||||||||||||||||||||||||||||||||||||||||||||||||||||||||||||||||||||||||||||||||||||||||||||||||||||||||||||||||||||||||||||||||||||||||||||||||||MET054METAR KTSP 292015Z AUTO RMK AO2 PWINO PNO FZRANO TSNO;||F||223|ICAO-KTSP
USW00000479|TEHACHAPI MUNI AP|2009|12|29|20|35|35.1350|-118.4392|1219.5|||||||||||||||||||||||||||||||||||||||||||||||||||||||||||||||||||||||||||||||||||||||||||||||||||||||||||||||||||||||||||||||||||||||||||||||||||||||||||||||||||||||||||||||MET054METAR KTSP 292035Z AUTO RMK AO2 PWINO PNO FZRANO TSNO;||F||223|ICAO-KTSP
USW00000479|TEHACHAPI MUNI AP|2009|12|29|21|15|35.1350|-118.4392|1219.5|||||||||||||||||||||||||||||||||||||||||||||||||||||||||||||||||||||||||||||||||||||||||||||||||||||||||||||||||||||||||||||||||||||||||||||||||||||||||||||||||||||||||||||||MET049METAR KTSP 292115Z AUTO RMK AO2 PWINO PNO FZRANO;||F||223|ICAO-KTSP
USW00000479|TEHACHAPI MUNI AP|2009|12|29|21|35|35.1350|-118.4392|1219.5|||||||||||||||||||||||||300|N-Normal|1|FM16-SPECI|223|ICAO-KTSP|5.7|N-Normal|1|FM16-SPECI|223|ICAO-KTSP|||||||||||||||||||||||||||||||||||||||||||||||||||||||||||||||||||||||||||||||||||||||||||1018.6||1|FM16-SPECI|223|ICAO-KTSP|||||||||||||||||||||||||||||||||||||||||||MET046METAR KTSP 292135Z AUTO 30011KT A3008 RMK AO2;||F||223|ICAO-KTSP
USW00000479|TEHACHAPI MUNI AP|2009|12|29|22|00|35.1350|-118.4392|1219.5|4.0||1|FM15-METAR|223|ICAO-KTSP|0.0||1|FM15-METAR|223|ICAO-KTSP|||||||||||||300|N-Normal|1|FM15-METAR|223|ICAO-KTSP|5.7|N-Normal|1|FM15-METAR|223|ICAO-KTSP|||||||||||||75|Derived||FM15-METAR|223|ICAO-KTSP|||||||||||||||||||||||||||||||||||||||||||HZ:04|HZ:04-Haze|1|FM15-METAR|223|ICAO-KTSP|||||||||||||||||||||||||1018.6||1|FM15-METAR|223|ICAO-KTSP|||||||||||||||||||||||||||||||||||||||||||MET063METAR KTSP 292155Z AUTO 30011KT 3SM HZ CLR 04/00 A3008 RMK AO2;||F||223|ICAO-KTSP
USW00000479|TEHACHAPI MUNI AP|2009|12|29|22|15|35.1350|-118.4392|1219.5|5.0||1|FM15-METAR|223|ICAO-KTSP|0.0||1|FM15-METAR|223|ICAO-KTSP|||||||||||||310|N-Normal|1|FM15-METAR|223|ICAO-KTSP|5.1|N-Normal|1|FM15-METAR|223|ICAO-KTSP|||||||||||||70|Derived||FM15-METAR|223|ICAO-KTSP|||||||||||||||||||||||||||||||||||||||||||HZ:04|HZ:04-Haze|1|FM15-METAR|223|ICAO-KTSP|||||||||||||||||||||||||1018.6||1|FM15-METAR|223|ICAO-KTSP|||||||||||||||||||||||||||||||||||||||||||MET063METAR KTSP 292215Z AUTO 31010KT 5SM HZ CLR 05/00 A3008 RMK AO2;||F||223|ICAO-KTSP
USW00000479|TEHACHAPI MUNI AP|2009|12|29|22|35|35.1350|-118.4392|1219.5|5.0||1|FM15-METAR|223|ICAO-KTSP|0.0||1|FM15-METAR|223|ICAO-KTSP|||||||||||||310|N-Normal|1|FM15-METAR|223|ICAO-KTSP|5.7|N-Normal|1|FM15-METAR|223|ICAO-KTSP|||||||||||||70|Derived||FM15-METAR|223|ICAO-KTSP|||||||||||||||||||||||||||||||||||||||||||HZ:04|HZ:04-Haze|1|FM15-METAR|223|ICAO-KTSP|||||||||||||||||||||||||1018.3||1|FM15-METAR|223|ICAO-KTSP|||||||||||||||||||||||||||||||||||||||||||MET063METAR KTSP 292235Z AUTO 31011KT 5SM HZ CLR 05/00 A3007 RMK AO2;||F||223|ICAO-KTSP
USW00000479|TEHACHAPI MUNI AP|2009|12|29|23|00|35.1350|-118.4392|1219.5|5.0||1|FM15-METAR|223|ICAO-KTSP|0.0||1|FM15-METAR|223|ICAO-KTSP|||||||||||||310|N-Normal|1|FM15-METAR|223|ICAO-KTSP|5.7|N-Normal|1|FM15-METAR|223|ICAO-KTSP|||||||||||||70|Derived||FM15-METAR|223|ICAO-KTSP|||||||||||||||||||||||||||||||||||||||||||HZ:04|HZ:04-Haze|1|FM15-METAR|223|ICAO-KTSP|||||||||||||||||||||||||1018.3||1|FM15-METAR|223|ICAO-KTSP|||||||||||||||||||||||||||||||||||||||||||MET063METAR KTSP 292255Z AUTO 31011KT 5SM HZ CLR 05/00 A3007 RMK AO2;||F||223|ICAO-KTSP
USW00000479|TEHACHAPI MUNI AP|2009|12|29|23|15|35.1350|-118.4392|1219.5|5.0||1|FM15-METAR|223|ICAO-KTSP|0.0||1|FM15-METAR|223|ICAO-KTSP|||||||||||||310|N-Normal|1|FM15-METAR|223|ICAO-KTSP|5.1|N-Normal|1|FM15-METAR|223|ICAO-KTSP|||||||||||||70|Derived||FM15-METAR|223|ICAO-KTSP|||||||||||||||||||||||||||||||||||||||||||HZ:04|HZ:04-Haze|1|FM15-METAR|223|ICAO-KTSP|||||||||||||||||||||||||1018.6||1|FM15-METAR|223|ICAO-KTSP|||||||||||||||||||||||||||||||||||||||||||MET063METAR KTSP 292315Z AUTO 31010KT 5SM HZ CLR 05/00 A3008 RMK AO2;||F||223|ICAO-KTSP
USW00000479|TEHACHAPI MUNI AP|2009|12|29|23|35|35.1350|-118.4392|1219.5|4.0||1|FM15-METAR|223|ICAO-KTSP|0.0||1|FM15-METAR|223|ICAO-KTSP|||||||||||||310|N-Normal|1|FM15-METAR|223|ICAO-KTSP|6.2|N-Normal|1|FM15-METAR|223|ICAO-KTSP|||||||||||||75|Derived||FM15-METAR|223|ICAO-KTSP|||||||||||||||||||||||||||||||||||||||||||HZ:04|HZ:04-Haze|1|FM15-METAR|223|ICAO-KTSP|||||||||||||||||||||||||1018.6||1|FM15-METAR|223|ICAO-KTSP|||||||||||||||||||||||||||||||||||||||||||MET063METAR KTSP 292335Z AUTO 31012KT 5SM HZ CLR 04/00 A3008 RMK AO2;||F||223|ICAO-KTSP
USW00000479|TEHACHAPI MUNI AP|2009|12|30|00|00|35.1350|-118.4392|1219.5|4.0||1|FM15-METAR|223|ICAO-KTSP|1.0||1|FM15-METAR|223|ICAO-KTSP|||||||||||||300|N-Normal|1|FM15-METAR|223|ICAO-KTSP|6.2|N-Normal|1|FM15-METAR|223|ICAO-KTSP|||||||||||||81|Derived||FM15-METAR|223|ICAO-KTSP|||||||||||||||||||||||||||||||||||||||||||HZ:04|HZ:04-Haze|1|FM15-METAR|223|ICAO-KTSP|||||||||||||||||||||||||1019.0||1|FM15-METAR|223|ICAO-KTSP|||||||||||||||||||||||||||||||||||||||||||MET063METAR KTSP 292355Z AUTO 30012KT 4SM HZ CLR 04/01 A3009 RMK AO2;||F||223|ICAO-KTSP
USW00000479|TEHACHAPI MUNI AP|2009|12|30|00|15|35.1350|-118.4392|1219.5|3.0||1|FM15-METAR|223|ICAO-KTSP|1.0||1|FM15-METAR|223|ICAO-KTSP|||||||||||||310|N-Normal|1|FM15-METAR|223|ICAO-KTSP|5.7|N-Normal|1|FM15-METAR|223|ICAO-KTSP|||||||||||||87|Derived||FM15-METAR|223|ICAO-KTSP|||||||||||||||||||||||||||||||||||||||||||BR:10|BR:10-Mist|1|FM15-METAR|223|ICAO-KTSP|||||||||||||||||||||||||1019.0||1|FM15-METAR|223|ICAO-KTSP|||||||||||||||||||||||||||||||||||||||||||MET063METAR KTSP 300015Z AUTO 31011KT 3SM BR CLR 03/01 A3009 RMK AO2;||F||223|ICAO-KTSP
USW00000479|TEHACHAPI MUNI AP|2009|12|30|00|35|35.1350|-118.4392|1219.5|3.0||1|FM15-METAR|223|ICAO-KTSP|0.0||1|FM15-METAR|223|ICAO-KTSP|||||||||||||310|N-Normal|1|FM15-METAR|223|ICAO-KTSP|4.6|N-Normal|1|FM15-METAR|223|ICAO-KTSP|||||||||||||81|Derived||FM15-METAR|223|ICAO-KTSP|||||||||||||||||||||||||||||||||||||||||||BR:10|BR:10-Mist|1|FM15-METAR|223|ICAO-KTSP|||||||||||||||||||||||||1019.0||1|FM15-METAR|223|ICAO-KTSP|||||||||||||||||||||||||||||||||||||||||||MET063METAR KTSP 300035Z AUTO 31009KT 3SM BR CLR 03/00 A3009 RMK AO2;||F||223|ICAO-KTSP
USW00000479|TEHACHAPI MUNI AP|2009|12|30|01|00|35.1350|-118.4392|1219.5|2.0||1|FM15-METAR|223|ICAO-KTSP|0.0||1|FM15-METAR|223|ICAO-KTSP|||||||||||||310|N-Normal|1|FM15-METAR|223|ICAO-KTSP|5.7|N-Normal|1|FM15-METAR|223|ICAO-KTSP|||||||||||||87|Derived||FM15-METAR|223|ICAO-KTSP|||||||||||||||||||||||||||||||||||||||||||BR:10|BR:10-Mist|1|FM15-METAR|223|ICAO-KTSP|||||||||||||||||||||||||1019.3||1|FM15-METAR|223|ICAO-KTSP|||||||||||||||||||||||||||||||||||||||||||MET067METAR KTSP 300055Z AUTO 31011KT 1 3/4SM BR CLR 02/00 A3010 RMK AO2;||F||223|ICAO-KTSP
USW00000479|TEHACHAPI MUNI AP|2009|12|30|01|15|35.1350|-118.4392|1219.5|2.0||1|FM15-METAR|223|ICAO-KTSP|0.0||1|FM15-METAR|223|ICAO-KTSP|||||||||||||300|N-Normal|1|FM15-METAR|223|ICAO-KTSP|4.6|N-Normal|1|FM15-METAR|223|ICAO-KTSP|||||||||||||87|Derived||FM15-METAR|223|ICAO-KTSP|||||||||||||||||||||||||||||||||||||||||||BR:10|BR:10-Mist|1|FM15-METAR|223|ICAO-KTSP|||||||||||||||||||||||||1019.6||1|FM15-METAR|223|ICAO-KTSP|||||||||||||||||||||||||||||||||||||||||||MET067METAR KTSP 300115Z AUTO 30009KT 1 1/2SM BR CLR 02/00 A3011 RMK AO2;||F||223|ICAO-KTSP
USW00000479|TEHACHAPI MUNI AP|2009|12|30|01|35|35.1350|-118.4392|1219.5|1.0||1|FM15-METAR|223|ICAO-KTSP|1.0||1|FM15-METAR|223|ICAO-KTSP|||||||||||||300|N-Normal|1|FM15-METAR|223|ICAO-KTSP|5.1|N-Normal|1|FM15-METAR|223|ICAO-KTSP|||||||||||||100|Derived||FM15-METAR|223|ICAO-KTSP|||||||||||||||||||||||||||||||||||||||||||BR:10|BR:10-Mist|1|FM15-METAR|223|ICAO-KTSP|||||||||||||||||||||||||1020.0||1|FM15-METAR|223|ICAO-KTSP|||||||||||||||||||||||||||||||||||||||||||MET067METAR KTSP 300135Z AUTO 30010KT 1 3/4SM BR CLR 01/01 A3012 RMK AO2;||F||223|ICAO-KTSP
USW00000479|TEHACHAPI MUNI AP|2009|12|30|02|00|35.1350|-118.4392|1219.5|1.0||1|FM15-METAR|223|ICAO-KTSP|0.0||1|FM15-METAR|223|ICAO-KTSP|||||||||||||300|N-Normal|1|FM15-METAR|223|ICAO-KTSP|4.1|N-Normal|1|FM15-METAR|223|ICAO-KTSP|||||||||||||93|Derived||FM15-METAR|223|ICAO-KTSP|||||||||||||||||||||||||||||||||||||||||||BR:10|BR:10-Mist|1|FM15-METAR|223|ICAO-KTSP|||||||||||||||||||||||||1020.3||1|FM15-METAR|223|ICAO-KTSP|||||||||||||||||||||||||||||||||||||||||||MET067METAR KTSP 300155Z AUTO 30008KT 2 1/2SM BR CLR 01/00 A3013 RMK AO2;||F||223|ICAO-KTSP
USW00000479|TEHACHAPI MUNI AP|2009|12|30|02|15|35.1350|-118.4392|1219.5|1.0||1|FM15-METAR|223|ICAO-KTSP|1.0||1|FM15-METAR|223|ICAO-KTSP|||||||||||||310|N-Normal|1|FM15-METAR|223|ICAO-KTSP|4.6|N-Normal|1|FM15-METAR|223|ICAO-KTSP|||||||||||||100|Derived||FM15-METAR|223|ICAO-KTSP|||||||||||||||||||||||||||||||||||||||||||FG:30|FG:30-Fog|1|FM15-METAR|223|ICAO-KTSP|||||||||||||||||||||||||1020.3||1|FM15-METAR|223|ICAO-KTSP|||||||OVC:08|08-Eight-o|4|FM15-METAR|223|ICAO-KTSP|||||||||||||||||||||||||||||||MET069METAR KTSP 300215Z AUTO 31009KT M1/4SM FG OVC001 01/01 A3013 RMK AO2;||F||223|ICAO-KTSP
USW00000479|TEHACHAPI MUNI AP|2009|12|30|02|35|35.1350|-118.4392|1219.5|1.0||1|FM15-METAR|223|ICAO-KTSP|1.0||1|FM15-METAR|223|ICAO-KTSP|||||||||||||300|N-Normal|1|FM15-METAR|223|ICAO-KTSP|3.6|N-Normal|1|FM15-METAR|223|ICAO-KTSP|||||||||||||100|Derived||FM15-METAR|223|ICAO-KTSP|||||||||||||||||||||||||||||||||||||||||||FG:30|FG:30-Fog|1|FM15-METAR|223|ICAO-KTSP|||||||||||||||||||||||||1020.7||1|FM15-METAR|223|ICAO-KTSP|||||||OVC:08|08-Eight-o|4|FM15-METAR|223|ICAO-KTSP|||||||||||||||||||||||||||||||MET069METAR KTSP 300235Z AUTO 30007KT M1/4SM FG OVC001 01/01 A3014 RMK AO2;||F||223|ICAO-KTSP
USW00000479|TEHACHAPI MUNI AP|2009|12|30|03|00|35.1350|-118.4392|1219.5|1.0||1|FM15-METAR|223|ICAO-KTSP|1.0||1|FM15-METAR|223|ICAO-KTSP|||||||||||||310|N-Normal|1|FM15-METAR|223|ICAO-KTSP|3.6|N-Normal|1|FM15-METAR|223|ICAO-KTSP|||||||||||||100|Derived||FM15-METAR|223|ICAO-KTSP|||||||||||||||||||||||||||||||||||||||||||FG:30|FG:30-Fog|1|FM15-METAR|223|ICAO-KTSP|||||||||||||||||||||||||1021.0||1|FM15-METAR|223|ICAO-KTSP|||||||OVC:08|08-Eight-o|4|FM15-METAR|223|ICAO-KTSP|||||||||||||||||||||||||||||||MET068METAR KTSP 300255Z AUTO 31007KT 1/4SM FG OVC001 01/01 A3015 RMK AO2;||F||223|ICAO-KTSP
USW00000479|TEHACHAPI MUNI AP|2009|12|30|03|15|35.1350|-118.4392|1219.5|0.0||1|FM15-METAR|223|ICAO-KTSP|0.0||1|FM15-METAR|223|ICAO-KTSP|||||||||||||290|N-Normal|1|FM15-METAR|223|ICAO-KTSP|2.6|N-Normal|1|FM15-METAR|223|ICAO-KTSP|||||||||||||100|Derived||FM15-METAR|223|ICAO-KTSP|||||||||||||||||||||||||||||||||||||||||||BR:10|BR:10-Mist|1|FM15-METAR|223|ICAO-KTSP|||||||||||||||||||||||||1021.3||1|FM15-METAR|223|ICAO-KTSP|||||||OVC:08|08-Eight-o|4|FM15-METAR|223|ICAO-KTSP|||||||||||||||||||||||||||||||MET070METAR KTSP 300315Z AUTO 29005KT 2 1/2SM BR OVC003 00/00 A3016 RMK AO2;||F||223|ICAO-KTSP
USW00000479|TEHACHAPI MUNI AP|2009|12|30|03|35|35.1350|-118.4392|1219.5|0.0||1|FM15-METAR|223|ICAO-KTSP|0.0||1|FM15-METAR|223|ICAO-KTSP|||||||||||||280|N-Normal|1|FM15-METAR|223|ICAO-KTSP|2.1|N-Normal|1|FM15-METAR|223|ICAO-KTSP|||||||||||||100|Derived||FM15-METAR|223|ICAO-KTSP|||||||||||||||||||||||||||||||||||||||||||BR:10|BR:10-Mist|1|FM15-METAR|223|ICAO-KTSP|||||||||||||||||||||||||1021.0||1|FM15-METAR|223|ICAO-KTSP|||||||BKN:07|07-Seven-o|4|FM15-METAR|223|ICAO-KTSP|||||||||||||||||||||||||||||||MET066METAR KTSP 300335Z AUTO 28004KT 3SM BR BKN005 00/00 A3015 RMK AO2;||F||223|ICAO-KTSP
USW00000479|TEHACHAPI MUNI AP|2009|12|30|04|00|35.1350|-118.4392|1219.5|0.0||1|FM15-METAR|223|ICAO-KTSP|0.0||1|FM15-METAR|223|ICAO-KTSP|||||||||||||300|N-Normal|1|FM15-METAR|223|ICAO-KTSP|2.6|N-Normal|1|FM15-METAR|223|ICAO-KTSP|||||||||||||100|Derived||FM15-METAR|223|ICAO-KTSP|||||||||||||||||||||||||||||||||||||||||||BR:10|BR:10-Mist|1|FM15-METAR|223|ICAO-KTSP|||||||||||||||||||||||||1021.7||1|FM15-METAR|223|ICAO-KTSP|||||||FEW:02|02-Two-okt|4|FM15-METAR|223|ICAO-KTSP|||||||||||||||||||||||||||||||MET066METAR KTSP 300355Z AUTO 30005KT 3SM BR FEW006 00/00 A3017 RMK AO2;||F||223|ICAO-KTSP
USW00000479|TEHACHAPI MUNI AP|2009|12|30|04|15|35.1350|-118.4392|1219.5|0.0||1|FM15-METAR|223|ICAO-KTSP|0.0||1|FM15-METAR|223|ICAO-KTSP|||||||||||||200|N-Normal|1|FM15-METAR|223|ICAO-KTSP|1.5|N-Normal|1|FM15-METAR|223|ICAO-KTSP|||||||||||||100|Derived||FM15-METAR|223|ICAO-KTSP|||||||||||||||||||||||||||||||||||||||||||BR:10|BR:10-Mist|1|FM15-METAR|223|ICAO-KTSP|||||||||||||||||||||||||1021.7||1|FM15-METAR|223|ICAO-KTSP|||||||||||||||||||||||||||||||||||||||||||MET063METAR KTSP 300415Z AUTO 20003KT 4SM BR CLR 00/00 A3017 RMK AO2;||F||223|ICAO-KTSP
USW00000479|TEHACHAPI MUNI AP|2009|12|30|04|35|35.1350|-118.4392|1219.5|0.0||1|FM15-METAR|223|ICAO-KTSP|0.0||1|FM15-METAR|223|ICAO-KTSP|||||||||||||310|N-Normal|1|FM15-METAR|223|ICAO-KTSP|1.5|N-Normal|1|FM15-METAR|223|ICAO-KTSP|||||||||||||100|Derived||FM15-METAR|223|ICAO-KTSP|||||||||||||||||||||||||||||||||||||||||||BR:10|BR:10-Mist|1|FM15-METAR|223|ICAO-KTSP|||||||||||||||||||||||||1022.0||1|FM15-METAR|223|ICAO-KTSP|||||||SCT:04|04-Four-ok|4|FM15-METAR|223|ICAO-KTSP|||||||||||||||||||||||||||||||MET066METAR KTSP 300435Z AUTO 31003KT 4SM BR SCT006 00/00 A3018 RMK AO2;||F||223|ICAO-KTSP
USW00000479|TEHACHAPI MUNI AP|2009|12|30|05|00|35.1350|-118.4392|1219.5|0.0||1|FM15-METAR|223|ICAO-KTSP|0.0||1|FM15-METAR|223|ICAO-KTSP|||||||||||||999|C-Calm|9|FM15-METAR|223|ICAO-KTSP|0.0|C-Calm|1|FM15-METAR|223|ICAO-KTSP|||||||||||||100|Derived||FM15-METAR|223|ICAO-KTSP|||||||||||||||||||||||||||||||||||||||||||BR:10|BR:10-Mist|1|FM15-METAR|223|ICAO-KTSP|||||||||||||||||||||||||1021.3||1|FM15-METAR|223|ICAO-KTSP|||||||BKN:07|07-Seven-o|4|FM15-METAR|223|ICAO-KTSP|||||||||||||||||||||||||||||||MET066METAR KTSP 300455Z AUTO 00000KT 3SM BR BKN005 00/00 A3016 RMK AO2;||F||223|ICAO-KTSP
USW00000479|TEHACHAPI MUNI AP|2009|12|30|05|15|35.1350|-118.4392|1219.5|0.0||1|FM15-METAR|223|ICAO-KTSP|0.0||1|FM15-METAR|223|ICAO-KTSP|||||||||||||999|C-Calm|9|FM15-METAR|223|ICAO-KTSP|0.0|C-Calm|1|FM15-METAR|223|ICAO-KTSP|||||||||||||100|Derived||FM15-METAR|223|ICAO-KTSP|||||||||||||||||||||||||||||||||||||||||||BR:10|BR:10-Mist|1|FM15-METAR|223|ICAO-KTSP|||||||||||||||||||||||||1021.3||1|FM15-METAR|223|ICAO-KTSP|||||||BKN:07|07-Seven-o|4|FM15-METAR|223|ICAO-KTSP|||||||||||||||||||||||||||||||MET066METAR KTSP 300515Z AUTO 00000KT 3SM BR BKN004 00/00 A3016 RMK AO2;||F||223|ICAO-KTSP
USW00000479|TEHACHAPI MUNI AP|2009|12|30|05|35|35.1350|-118.4392|1219.5|-2.0||1|FM15-METAR|223|ICAO-KTSP|-2.0||1|FM15-METAR|223|ICAO-KTSP|||||||||||||999|C-Calm|9|FM15-METAR|223|ICAO-KTSP|0.0|C-Calm|1|FM15-METAR|223|ICAO-KTSP|||||||||||||100|Derived||FM15-METAR|223|ICAO-KTSP|||||||||||||||||||||||||||||||||||||||||||BR:10|BR:10-Mist|1|FM15-METAR|223|ICAO-KTSP|||||||||||||||||||||||||1021.7||1|FM15-METAR|223|ICAO-KTSP|||||||FEW:02|02-Two-okt|4|FM15-METAR|223|ICAO-KTSP|||||||||||||||||||||||||||||||MET068METAR KTSP 300535Z AUTO 00000KT 3SM BR FEW004 M02/M02 A3017 RMK AO2;||F||223|ICAO-KTSP
USW00000479|TEHACHAPI MUNI AP|2009|12|30|06|00|35.1350|-118.4392|1219.5|-1.0||1|FM15-METAR|223|ICAO-KTSP|-2.0||1|FM15-METAR|223|ICAO-KTSP|||||||||||||999|C-Calm|9|FM15-METAR|223|ICAO-KTSP|0.0|C-Calm|1|FM15-METAR|223|ICAO-KTSP|||||||||||||93|Derived||FM15-METAR|223|ICAO-KTSP|||||||||||||||||||||||||||||||||||||||||||BR:10|BR:10-Mist|1|FM15-METAR|223|ICAO-KTSP|||||||||||||||||||||||||1021.7||1|FM15-METAR|223|ICAO-KTSP|||||||SCT:04|04-Four-ok|4|FM15-METAR|223|ICAO-KTSP|||||||||||||||||||||||||||||||MET072METAR KTSP 300555Z AUTO 00000KT 2 1/2SM BR SCT003 M01/M02 A3017 RMK AO2;||F||223|ICAO-KTSP
USW00000479|TEHACHAPI MUNI AP|2009|12|30|06|15|35.1350|-118.4392|1219.5|-2.0||1|FM15-METAR|223|ICAO-KTSP|-2.0||1|FM15-METAR|223|ICAO-KTSP|||||||||||||999|C-Calm|9|FM15-METAR|223|ICAO-KTSP|0.0|C-Calm|1|FM15-METAR|223|ICAO-KTSP|||||||||||||100|Derived||FM15-METAR|223|ICAO-KTSP|||||||||||||||||||||||||||||||||||||||||||FG:35|FG:35-Fog,|1|FM15-METAR|223|ICAO-KTSP|||||||||||||||||||||||||1021.7||1|FM15-METAR|223|ICAO-KTSP|||||||OVC:08|08-Eight-o|4|FM15-METAR|223|ICAO-KTSP|||||||||||||||||||||||||||||||MET073METAR KTSP 300615Z AUTO 00000KT M1/4SM FZFG OVC002 M02/M02 A3017 RMK AO2;||F||223|ICAO-KTSP
USW00000479|TEHACHAPI MUNI AP|2009|12|30|06|35|35.1350|-118.4392|1219.5|-2.0||1|FM15-METAR|223|ICAO-KTSP|-2.0||1|FM15-METAR|223|ICAO-KTSP|||||||||||||999|C-Calm|9|FM15-METAR|223|ICAO-KTSP|0.0|C-Calm|1|FM15-METAR|223|ICAO-KTSP|||||||||||||100|Derived||FM15-METAR|223|ICAO-KTSP|||||||||||||||||||||||||||||||||||||||||||FG:35|FG:35-Fog,|1|FM15-METAR|223|ICAO-KTSP|||||||||||||||||||||||||1021.7||1|FM15-METAR|223|ICAO-KTSP|||||||OVC:08|08-Eight-o|4|FM15-METAR|223|ICAO-KTSP|||||||||||||||||||||||||||||||MET073METAR KTSP 300635Z AUTO 00000KT M1/4SM FZFG OVC001 M02/M02 A3017 RMK AO2;||F||223|ICAO-KTSP
USW00000479|TEHACHAPI MUNI AP|2009|12|30|07|00|35.1350|-118.4392|1219.5|-2.0||1|FM15-METAR|223|ICAO-KTSP|-2.0||1|FM15-METAR|223|ICAO-KTSP|||||||||||||999|C-Calm|9|FM15-METAR|223|ICAO-KTSP|0.0|C-Calm|1|FM15-METAR|223|ICAO-KTSP|||||||||||||100|Derived||FM15-METAR|223|ICAO-KTSP|||||||||||||||||||||||||||||||||||||||||||FG:35|FG:35-Fog,|1|FM15-METAR|223|ICAO-KTSP|||||||||||||||||||||||||1021.3||1|FM15-METAR|223|ICAO-KTSP|||||||OVC:08|08-Eight-o|4|FM15-METAR|223|ICAO-KTSP|||||||||||||||||||||||||||||||MET073METAR KTSP 300655Z AUTO 00000KT M1/4SM FZFG OVC001 M02/M02 A3016 RMK AO2;||F||223|ICAO-KTSP
USW00000479|TEHACHAPI MUNI AP|2009|12|30|07|15|35.1350|-118.4392|1219.5|-2.0||1|FM15-METAR|223|ICAO-KTSP|-2.0||1|FM15-METAR|223|ICAO-KTSP|||||||||||||999|C-Calm|9|FM15-METAR|223|ICAO-KTSP|0.0|C-Calm|1|FM15-METAR|223|ICAO-KTSP|||||||||||||100|Derived||FM15-METAR|223|ICAO-KTSP|||||||||||||||||||||||||||||||||||||||||||BR:10|BR:10-Mist|1|FM15-METAR|223|ICAO-KTSP|||||||||||||||||||||||||1021.3||1|FM15-METAR|223|ICAO-KTSP|||||||||||||||||||||||||||||||||||||||||||MET065METAR KTSP 300715Z AUTO 00000KT 2SM BR CLR M02/M02 A3016 RMK AO2;||F||223|ICAO-KTSP
USW00000479|TEHACHAPI MUNI AP|2009|12|30|07|35|35.1350|-118.4392|1219.5|||||||||||||||||||||||||||||||||||||||||||||||||||||||||||||||||||||||||||||||||||||||||||||||||||||||||||||||||||||||||||||||||||||||||||||||||||||||||||||||||||||||||||||||MET054METAR KTSP 300735Z AUTO RMK AO2 PWINO PNO FZRANO TSNO;||F||223|ICAO-KTSP
USW00000479|TEHACHAPI MUNI AP|2009|12|30|08|00|35.1350|-118.4392|1219.5|||||||||||||||||||||||||||||||||||||||||||||||||||||||||||||||||||||||||||||||||||||||||||||||||||||||||||||||||||||||||||||||||||||||||||||||||||||||||||||||||||||||||||||||MET054METAR KTSP 300755Z AUTO RMK AO2 PWINO PNO FZRANO TSNO;||F||223|ICAO-KTSP
USW00000479|TEHACHAPI MUNI AP|2009|12|30|08|15|35.1350|-118.4392|1219.5|0.0||1|FM15-METAR|223|ICAO-KTSP|0.0||1|FM15-METAR|223|ICAO-KTSP|||||||||||||270|N-Normal|1|FM15-METAR|223|ICAO-KTSP|1.5|N-Normal|1|FM15-METAR|223|ICAO-KTSP|||||||||||||100|Derived||FM15-METAR|223|ICAO-KTSP|||||||||||||||||||||||||||||||||||||||||||||||||||||||||||||||||||||||||1021.0||1|FM15-METAR|223|ICAO-KTSP|||||||||||||||||||||||||||||||||||||||||||MET056METAR KTSP 300815Z AUTO 27003KT 9SM 00/00 A3015 RMK AO2;||F||223|ICAO-KTSP
USW00000479|TEHACHAPI MUNI AP|2009|12|30|08|35|35.1350|-118.4392|1219.5|1.0||1|FM15-METAR|223|ICAO-KTSP|-1.0||1|FM15-METAR|223|ICAO-KTSP|||||||||||||300|N-Normal|1|FM15-METAR|223|ICAO-KTSP|2.1|N-Normal|1|FM15-METAR|223|ICAO-KTSP|||||||||||||87|Derived||FM15-METAR|223|ICAO-KTSP|||||||||||||||||||||||||||||||||||||||||||||||||||||||||||||||||||||||||1021.0||1|FM15-METAR|223|ICAO-KTSP|||||||OVC:08|08-Eight-o|4|FM15-METAR|223|ICAO-KTSP|||||||||||||||||||||||||||||||MET065METAR KTSP 300835Z AUTO 30004KT 10SM OVC049 01/M01 A3015 RMK AO2;||F||223|ICAO-KTSP
USW00000479|TEHACHAPI MUNI AP|2009|12|30|09|00|35.1350|-118.4392|1219.5|2.0||1|FM15-METAR|223|ICAO-KTSP|0.0||1|FM15-METAR|223|ICAO-KTSP|||||||||||||290|N-Normal|1|FM15-METAR|223|ICAO-KTSP|4.1|N-Normal|1|FM15-METAR|223|ICAO-KTSP|||||||||||||87|Derived||FM15-METAR|223|ICAO-KTSP|||||||||||||||||||||||||||||||||||||||||||||||||||||||||||||||||||||||||1021.0||1|FM15-METAR|223|ICAO-KTSP|||||||OVC:08|08-Eight-o|4|FM15-METAR|223|ICAO-KTSP|||||||||||||||||||||||||||||||MET064METAR KTSP 300855Z AUTO 29008KT 10SM OVC045 02/00 A3015 RMK AO2;||F||223|ICAO-KTSP
USW00000479|TEHACHAPI MUNI AP|2009|12|30|09|15|35.1350|-118.4392|1219.5|3.0||1|FM15-METAR|223|ICAO-KTSP|-1.0||1|FM15-METAR|223|ICAO-KTSP|||||||||||||300|N-Normal|1|FM15-METAR|223|ICAO-KTSP|5.1|N-Normal|1|FM15-METAR|223|ICAO-KTSP|||||||||||||75|Derived||FM15-METAR|223|ICAO-KTSP|||||||||||||||||||||||||||||||||||||||||||||||||||||||||||||||||||||||||1020.7||1|FM15-METAR|223|ICAO-KTSP|||||||OVC:08|08-Eight-o|4|FM15-METAR|223|ICAO-KTSP|||||||||||||||||||||||||||||||MET065METAR KTSP 300915Z AUTO 30010KT 10SM OVC043 03/M01 A3014 RMK AO2;||F||223|ICAO-KTSP
USW00000479|TEHACHAPI MUNI AP|2009|12|30|09|35|35.1350|-118.4392|1219.5|3.0||1|FM15-METAR|223|ICAO-KTSP|-1.0||1|FM15-METAR|223|ICAO-KTSP|||||||||||||320|N-Normal|1|FM15-METAR|223|ICAO-KTSP|5.7|N-Normal|1|FM15-METAR|223|ICAO-KTSP|||||||||||||75|Derived||FM15-METAR|223|ICAO-KTSP|||||||||||||||||||||||||||||||||||||||||||||||||||||||||||||||||||||||||1020.3||1|FM15-METAR|223|ICAO-KTSP|||||||OVC:08|08-Eight-o|4|FM15-METAR|223|ICAO-KTSP|||||||||||||||||||||||||||||||MET065METAR KTSP 300935Z AUTO 32011KT 10SM OVC039 03/M01 A3013 RMK AO2;||F||223|ICAO-KTSP
USW00000479|TEHACHAPI MUNI AP|2009|12|30|10|00|35.1350|-118.4392|1219.5|4.0||1|FM15-METAR|223|ICAO-KTSP|-1.0||1|FM15-METAR|223|ICAO-KTSP|||||||||||||310|N-Normal|1|FM15-METAR|223|ICAO-KTSP|4.6|N-Normal|1|FM15-METAR|223|ICAO-KTSP|8.2||1|FM15-METAR|223|ICAO-KTSP|||||||70|Derived||FM15-METAR|223|ICAO-KTSP|||||||||||||||||||||||||||||||||||||||||||||||||||||||||||||||||||||||||1020.7||1|FM15-METAR|223|ICAO-KTSP|||||||OVC:08|08-Eight-o|4|FM15-METAR|223|ICAO-KTSP|||||||||||||||||||||||||||||||MET068METAR KTSP 300955Z AUTO 31009G16KT 10SM OVC037 04/M01 A3014 RMK AO2;||F||223|ICAO-KTSP
USW00000479|TEHACHAPI MUNI AP|2009|12|30|10|15|35.1350|-118.4392|1219.5|3.0||1|FM15-METAR|223|ICAO-KTSP|-1.0||1|FM15-METAR|223|ICAO-KTSP|||||||||||||300|N-Normal|1|FM15-METAR|223|ICAO-KTSP|3.6|N-Normal|1|FM15-METAR|223|ICAO-KTSP|||||||||||||75|Derived||FM15-METAR|223|ICAO-KTSP|||||||||||||||||||||||||||||||||||||||||||||||||||||||||||||||||||||||||1020.7||1|FM15-METAR|223|ICAO-KTSP|||||||OVC:08|08-Eight-o|4|FM15-METAR|223|ICAO-KTSP|||||||||||||||||||||||||||||||MET065METAR KTSP 301015Z AUTO 30007KT 10SM OVC037 03/M01 A3014 RMK AO2;||F||223|ICAO-KTSP
USW00000479|TEHACHAPI MUNI AP|2009|12|30|10|35|35.1350|-118.4392|1219.5|4.0||1|FM15-METAR|223|ICAO-KTSP|-1.0||1|FM15-METAR|223|ICAO-KTSP|||||||||||||300|N-Normal|1|FM15-METAR|223|ICAO-KTSP|5.1|N-Normal|1|FM15-METAR|223|ICAO-KTSP|||||||||||||70|Derived||FM15-METAR|223|ICAO-KTSP|||||||||||||||||||||||||||||||||||||||||||||||||||||||||||||||||||||||||1020.7||1|FM15-METAR|223|ICAO-KTSP|||||||OVC:08|08-Eight-o|4|FM15-METAR|223|ICAO-KTSP|||||||||||||||||||||||||||||||MET065METAR KTSP 301035Z AUTO 30010KT 10SM OVC037 04/M01 A3014 RMK AO2;||F||223|ICAO-KTSP
USW00000479|TEHACHAPI MUNI AP|2009|12|30|11|00|35.1350|-118.4392|1219.5|4.0||1|FM15-METAR|223|ICAO-KTSP|-1.0||1|FM15-METAR|223|ICAO-KTSP|||||||||||||310|N-Normal|1|FM15-METAR|223|ICAO-KTSP|6.7|N-Normal|1|FM15-METAR|223|ICAO-KTSP|||||||||||||70|Derived||FM15-METAR|223|ICAO-KTSP|||||||||||||||||||||||||||||||||||||||||||||||||||||||||||||||||||||||||1020.0||1|FM15-METAR|223|ICAO-KTSP|||||||OVC:08|08-Eight-o|4|FM15-METAR|223|ICAO-KTSP|||||||||||||||||||||||||||||||MET065METAR KTSP 301055Z AUTO 31013KT 10SM OVC037 04/M01 A3012 RMK AO2;||F||223|ICAO-KTSP
USW00000479|TEHACHAPI MUNI AP|2009|12|30|11|15|35.1350|-118.4392|1219.5|3.0||1|FM15-METAR|223|ICAO-KTSP|-1.0||1|FM15-METAR|223|ICAO-KTSP|||||||||||||310|N-Normal|1|FM15-METAR|223|ICAO-KTSP|5.7|N-Normal|1|FM15-METAR|223|ICAO-KTSP|||||||||||||75|Derived||FM15-METAR|223|ICAO-KTSP|||||||||||||||||||||||||||||||||||||||||||||||||||||||||||||||||||||||||1020.3||1|FM15-METAR|223|ICAO-KTSP|||||||OVC:08|08-Eight-o|4|FM15-METAR|223|ICAO-KTSP|||||||||||||||||||||||||||||||MET065METAR KTSP 301115Z AUTO 31011KT 10SM OVC037 03/M01 A3013 RMK AO2;||F||223|ICAO-KTSP
USW00000479|TEHACHAPI MUNI AP|2009|12|30|11|35|35.1350|-118.4392|1219.5|3.0||1|FM15-METAR|223|ICAO-KTSP|-1.0||1|FM15-METAR|223|ICAO-KTSP|||||||||||||300|N-Normal|1|FM15-METAR|223|ICAO-KTSP|5.7|N-Normal|1|FM15-METAR|223|ICAO-KTSP|8.2||1|FM15-METAR|223|ICAO-KTSP|||||||75|Derived||FM15-METAR|223|ICAO-KTSP|||||||||||||||||||||||||||||||||||||||||||RA:61|RA:61-Rain|1|FM15-METAR|223|ICAO-KTSP|||||||||||||||||||||||||1020.0||1|FM15-METAR|223|ICAO-KTSP|||||||OVC:08|08-Eight-o|4|FM15-METAR|223|ICAO-KTSP|||||||||||||||||||||||||||||||MET072METAR KTSP 301135Z AUTO 30011G16KT 10SM -RA OVC037 03/M01 A3012 RMK AO2;||F||223|ICAO-KTSP
USW00000479|TEHACHAPI MUNI AP|2009|12|30|12|00|35.1350|-118.4392|1219.5|3.0||1|FM15-METAR|223|ICAO-KTSP|-1.0||1|FM15-METAR|223|ICAO-KTSP|||||||||||||310|N-Normal|1|FM15-METAR|223|ICAO-KTSP|6.7|N-Normal|1|FM15-METAR|223|ICAO-KTSP|9.8||1|FM15-METAR|223|ICAO-KTSP|||||||75|Derived||FM15-METAR|223|ICAO-KTSP|||||||||||||||||||||||||||||||||||||||||||||||||||||||||||||||||||||||||1020.0||1|FM15-METAR|223|ICAO-KTSP|||||||OVC:08|08-Eight-o|4|FM15-METAR|223|ICAO-KTSP|||||||||||||||||||||||||||||||MET068METAR KTSP 301155Z AUTO 31013G19KT 10SM OVC037 03/M01 A3012 RMK AO2;||F||223|ICAO-KTSP
USW00000479|TEHACHAPI MUNI AP|2009|12|30|12|15|35.1350|-118.4392|1219.5|3.0||1|FM15-METAR|223|ICAO-KTSP|-1.0||1|FM15-METAR|223|ICAO-KTSP|||||||||||||310|N-Normal|1|FM15-METAR|223|ICAO-KTSP|6.7|N-Normal|1|FM15-METAR|223|ICAO-KTSP|||||||||||||75|Derived||FM15-METAR|223|ICAO-KTSP|||||||||||||||||||||||||||||||||||||||||||||||||||||||||||||||||||||||||1019.6||1|FM15-METAR|223|ICAO-KTSP|||||||BKN:07|07-Seven-o|4|FM15-METAR|223|ICAO-KTSP|||||||||||||||||||||||||||||||MET065METAR KTSP 301215Z AUTO 31013KT 10SM BKN035 03/M01 A3011 RMK AO2;||F||223|ICAO-KTSP
USW00000479|TEHACHAPI MUNI AP|2009|12|30|12|35|35.1350|-118.4392|1219.5|3.0||1|FM15-METAR|223|ICAO-KTSP|0.0||1|FM15-METAR|223|ICAO-KTSP|||||||||||||310|N-Normal|1|FM15-METAR|223|ICAO-KTSP|7.2|N-Normal|1|FM15-METAR|223|ICAO-KTSP|9.8||1|FM15-METAR|223|ICAO-KTSP|||||||81|Derived||FM15-METAR|223|ICAO-KTSP|||||||||||||||||||||||||||||||||||||||||||RA:61|RA:61-Rain|1|FM15-METAR|223|ICAO-KTSP|||||||||||||||||||||||||1019.6||1|FM15-METAR|223|ICAO-KTSP|||||||BKN:07|07-Seven-o|4|FM15-METAR|223|ICAO-KTSP|||||||||||||||||||||||||||||||MET070METAR KTSP 301235Z AUTO 31014G19KT 9SM -RA BKN033 03/00 A3011 RMK AO2;||F||223|ICAO-KTSP
USW00000479|TEHACHAPI MUNI AP|2009|12|30|13|00|35.1350|-118.4392|1219.5|3.0||1|FM15-METAR|223|ICAO-KTSP|-1.0||1|FM15-METAR|223|ICAO-KTSP|||||||||||||300|N-Normal|1|FM15-METAR|223|ICAO-KTSP|6.7|N-Normal|1|FM15-METAR|223|ICAO-KTSP|||||||||||||75|Derived||FM15-METAR|223|ICAO-KTSP|||||||||||||||||||||||||||||||||||||||||||||||||||||||||||||||||||||||||1019.6||1|FM15-METAR|223|ICAO-KTSP|||||||BKN:07|07-Seven-o|4|FM15-METAR|223|ICAO-KTSP|||||||OVC:08|08-Eight-o|4|FM15-METAR|223|ICAO-KTSP|||||||||||||||||||MET072METAR KTSP 301255Z AUTO 30013KT 10SM BKN027 OVC034 03/M01 A3011 RMK AO2;||F||223|ICAO-KTSP
USW00000479|TEHACHAPI MUNI AP|2009|12|30|13|15|35.1350|-118.4392|1219.5|3.0||1|FM15-METAR|223|ICAO-KTSP|0.0||1|FM15-METAR|223|ICAO-KTSP|||||||||||||280|N-Normal|1|FM15-METAR|223|ICAO-KTSP|7.7|N-Normal|1|FM15-METAR|223|ICAO-KTSP|9.8||1|FM15-METAR|223|ICAO-KTSP|||||||81|Derived||FM15-METAR|223|ICAO-KTSP|||||||||||||||||||||||||||||||||||||||||||||||||||||||||||||||||||||||||1019.6||1|FM15-METAR|223|ICAO-KTSP|||||||BKN:07|07-Seven-o|4|FM15-METAR|223|ICAO-KTSP|||||||OVC:08|08-Eight-o|4|FM15-METAR|223|ICAO-KTSP|||||||||||||||||||MET074METAR KTSP 301315Z AUTO 28015G19KT 10SM BKN022 OVC027 03/00 A3011 RMK AO2;||F||223|ICAO-KTSP
USW00000479|TEHACHAPI MUNI AP|2009|12|30|13|35|35.1350|-118.4392|1219.5|2.0||1|FM15-METAR|223|ICAO-KTSP|0.0||1|FM15-METAR|223|ICAO-KTSP|||||||||||||290|N-Normal|1|FM15-METAR|223|ICAO-KTSP|8.2|N-Normal|1|FM15-METAR|223|ICAO-KTSP|10.8||1|FM15-METAR|223|ICAO-KTSP|||||||87|Derived||FM15-METAR|223|ICAO-KTSP|||||||||||||||||||||||||||||||||||||||||||||||||||||||||||||||||||||||||1019.6||1|FM15-METAR|223|ICAO-KTSP|||||||OVC:08|08-Eight-o|4|FM15-METAR|223|ICAO-KTSP|||||||||||||||||||||||||||||||MET066METAR KTSP 301335Z AUTO 29016G21KT 8SM OVC018 02/00 A3011 RMK AO2;||F||223|ICAO-KTSP
USW00000479|TEHACHAPI MUNI AP|2009|12|30|14|00|35.1350|-118.4392|1219.5|||||||||||||||||||||||||||||||||||||||||||||||||||||||||||||||||||||||||||||||||||||||||||||||||||||||||||||||||||||||||||||||||||||||||||BKN:07|07-Seven-o|4|FM15-METAR|223|ICAO-KTSP|||||||OVC:08|08-Eight-o|4|FM15-METAR|223|ICAO-KTSP|||||||||||||||||||MET063METAR KTSP 301355Z AUTO BKN016 OVC023 RMK AO2 PWINO PNO FZRANO;||F||223|ICAO-KTSP
USW00000479|TEHACHAPI MUNI AP|2009|12|30|14|35|35.1350|-118.4392|1219.5|2.0||1|FM15-METAR|223|ICAO-KTSP|1.0||1|FM15-METAR|223|ICAO-KTSP|||||||||||||300|N-Normal|1|FM15-METAR|223|ICAO-KTSP|10.3|N-Normal|1|FM15-METAR|223|ICAO-KTSP|||||||0.8|9-Missing|9|FM15-METAR|223|ICAO-KTSP|93|Derived||FM15-METAR|223|ICAO-KTSP|||||||||||||||||||||||||||||||||||||||||||RA:62|RA:62-Rain|1|FM15-METAR|223|ICAO-KTSP|||||||||||||||||||||||||1020.0||1|FM15-METAR|223|ICAO-KTSP|||||||||||||||||||||||||||||||||||||||||||MET065METAR KTSP 301435Z AUTO 30020KT 2SM RA 02/01 A3012 RMK AO2 P0003;||F||223|ICAO-KTSP
USW00000479|TEHACHAPI MUNI AP|2009|12|30|15|00|35.1350|-118.4392|1219.5|2.0||1|FM15-METAR|223|ICAO-KTSP|2.0||1|FM15-METAR|223|ICAO-KTSP|||||||||||||300|N-Normal|1|FM15-METAR|223|ICAO-KTSP|8.2|N-Normal|1|FM15-METAR|223|ICAO-KTSP|12.3||1|FM15-METAR|223|ICAO-KTSP|3.6|9-Missing|9|FM15-METAR|223|ICAO-KTSP|100|Derived||FM15-METAR|223|ICAO-KTSP|||||||||||||||||||||||||||||||||||||||||||RA:62|RA:62-Rain|1|FM15-METAR|223|ICAO-KTSP|||||||||||||||||||||||||1020.0||1|FM15-METAR|223|ICAO-KTSP|||||||SCT:04|04-Four-ok|4|FM15-METAR|223|ICAO-KTSP|||||||BKN:07|07-Seven-o|4|FM15-METAR|223|ICAO-KTSP|||||||||||||||||||MET093METAR KTSP 301455Z AUTO 30016G24KT 2 1/2SM RA SCT004 BKN013 OVC019 02/02 A3012 RMK AO2 P0014;||F||223|ICAO-KTSP
USW00000479|TEHACHAPI MUNI AP|2009|12|30|15|15|35.1350|-118.4392|1219.5|2.0||1|FM15-METAR|223|ICAO-KTSP|2.0||1|FM15-METAR|223|ICAO-KTSP|||||||||||||300|N-Normal|1|FM15-METAR|223|ICAO-KTSP|8.7|N-Normal|1|FM15-METAR|223|ICAO-KTSP|||||||1.3|9-Missing|9|FM15-METAR|223|ICAO-KTSP|100|Derived||FM15-METAR|223|ICAO-KTSP|||||||||||||||||||||||||||||||||||||||||||RA:62|RA:62-Rain|1|FM15-METAR|223|ICAO-KTSP|||||||||||||||||||||||||1020.0||1|FM15-METAR|223|ICAO-KTSP|||||||OVC:08|08-Eight-o|4|FM15-METAR|223|ICAO-KTSP|||||||||||||||||||||||||||||||MET076METAR KTSP 301515Z AUTO 30017KT 1 1/2SM RA OVC002 02/02 A3012 RMK AO2 P0005;||F||223|ICAO-KTSP
USW00000479|TEHACHAPI MUNI AP|2009|12|30|15|35|35.1350|-118.4392|1219.5|2.0||1|FM15-METAR|223|ICAO-KTSP|2.0||1|FM15-METAR|223|ICAO-KTSP|||||||||||||310|N-Normal|1|FM15-METAR|223|ICAO-KTSP|9.8|N-Normal|1|FM15-METAR|223|ICAO-KTSP|12.3||1|FM15-METAR|223|ICAO-KTSP|3.6|9-Missing|9|FM15-METAR|223|ICAO-KTSP|100|Derived||FM15-METAR|223|ICAO-KTSP|||||||||||||||||||||||||||||||||||||||||||RA:62|RA:62-Rain|1|FM15-METAR|223|ICAO-KTSP|||||||||||||||||||||||||1020.3||1|FM15-METAR|223|ICAO-KTSP|||||||OVC:08|08-Eight-o|4|FM15-METAR|223|ICAO-KTSP|||||||||||||||||||||||||||||||MET078METAR KTSP 301535Z AUTO 31019G24KT M1/4SM RA OVC001 02/02 A3013 RMK AO2 P0014;||F||223|ICAO-KTSP
USW00000479|TEHACHAPI MUNI AP|2009|12|30|16|00|35.1350|-118.4392|1219.5|2.0||1|FM15-METAR|223|ICAO-KTSP|2.0||1|FM15-METAR|223|ICAO-KTSP|||||||||||||300|N-Normal|1|FM15-METAR|223|ICAO-KTSP|9.3|N-Normal|1|FM15-METAR|223|ICAO-KTSP|11.8||1|FM15-METAR|223|ICAO-KTSP|6.6|9-Missing|9|FM15-METAR|223|ICAO-KTSP|100|Derived||FM15-METAR|223|ICAO-KTSP|||||||||||||||||||||||||||||||||||||||||||RA:63|RA:63-Rain|1|FM15-METAR|223|ICAO-KTSP|||||||||||||||||||||||||1021.0||1|FM15-METAR|223|ICAO-KTSP|||||||OVC:08|08-Eight-o|4|FM15-METAR|223|ICAO-KTSP|||||||||||||||||||||||||||||||MET076METAR KTSP 301555Z AUTO 30018G23KT 1SM +RA OVC001 02/02 A3015 RMK AO2 P0026;||F||223|ICAO-KTSP
USW00000479|TEHACHAPI MUNI AP|2009|12|30|16|15|35.1350|-118.4392|1219.5|2.0||1|FM15-METAR|223|ICAO-KTSP|2.0||1|FM15-METAR|223|ICAO-KTSP|||||||||||||300|N-Normal|1|FM15-METAR|223|ICAO-KTSP|8.2|N-Normal|1|FM15-METAR|223|ICAO-KTSP|10.8||1|FM15-METAR|223|ICAO-KTSP|2.3|9-Missing|9|FM15-METAR|223|ICAO-KTSP|100|Derived||FM15-METAR|223|ICAO-KTSP|||||||||||||||||||||||||||||||||||||||||||RA:63|RA:63-Rain|1|FM15-METAR|223|ICAO-KTSP|||||||||||||||||||||||||1021.7||1|FM15-METAR|223|ICAO-KTSP|||||||OVC:08|08-Eight-o|4|FM15-METAR|223|ICAO-KTSP|||||||||||||||||||||||||||||||MET076METAR KTSP 301615Z AUTO 30016G21KT 1SM +RA OVC002 02/02 A3017 RMK AO2 P0009;||F||223|ICAO-KTSP
USW00000479|TEHACHAPI MUNI AP|2009|12|30|16|35|35.1350|-118.4392|1219.5|2.0||1|FM15-METAR|223|ICAO-KTSP|2.0||1|FM15-METAR|223|ICAO-KTSP|||||||||||||290|N-Normal|1|FM15-METAR|223|ICAO-KTSP|7.7|N-Normal|1|FM15-METAR|223|ICAO-KTSP|||||||5.3|9-Missing|9|FM15-METAR|223|ICAO-KTSP|100|Derived||FM15-METAR|223|ICAO-KTSP|||||||||||||||||||||||||||||||||||||||||||RA:62|RA:62-Rain|1|FM15-METAR|223|ICAO-KTSP|||||||||||||||||||||||||1022.4||1|FM15-METAR|223|ICAO-KTSP|||||||OVC:08|08-Eight-o|4|FM15-METAR|223|ICAO-KTSP|||||||||||||||||||||||||||||||MET072METAR KTSP 301635Z AUTO 29015KT 1SM RA OVC002 02/02 A3019 RMK AO2 P0021;||F||223|ICAO-KTSP
USW00000479|TEHACHAPI MUNI AP|2009|12|30|17|00|35.1350|-118.4392|1219.5|2.0||1|FM15-METAR|223|ICAO-KTSP|2.0||1|FM15-METAR|223|ICAO-KTSP|||||||||||||290|N-Normal|1|FM15-METAR|223|ICAO-KTSP|7.2|N-Normal|1|FM15-METAR|223|ICAO-KTSP|||||||7.6|9-Missing|9|FM15-METAR|223|ICAO-KTSP|100|Derived||FM15-METAR|223|ICAO-KTSP|||||||||||||||||||||||||||||||||||||||||||RA:61|RA:61-Rain|1|FM15-METAR|223|ICAO-KTSP|||||||||||||||||||||||||1022.4||1|FM15-METAR|223|ICAO-KTSP|||||||OVC:08|08-Eight-o|4|FM15-METAR|223|ICAO-KTSP|||||||||||||||||||||||||||||||MET077METAR KTSP 301655Z AUTO 29014KT 1 3/4SM -RA OVC002 02/02 A3019 RMK AO2 P0030;||F||223|ICAO-KTSP
USW00000479|TEHACHAPI MUNI AP|2009|12|30|17|15|35.1350|-118.4392|1219.5|3.0||1|FM15-METAR|223|ICAO-KTSP|3.0||1|FM15-METAR|223|ICAO-KTSP|||||||||||||290|N-Normal|1|FM15-METAR|223|ICAO-KTSP|7.2|N-Normal|1|FM15-METAR|223|ICAO-KTSP|||||||0.8|9-Missing|9|FM15-METAR|223|ICAO-KTSP|100|Derived||FM15-METAR|223|ICAO-KTSP|||||||||||||||||||||||||||||||||||||||||||RA:61|RA:61-Rain|1|FM15-METAR|223|ICAO-KTSP|||||||||||||||||||||||||1022.4||1|FM15-METAR|223|ICAO-KTSP|||||||OVC:08|08-Eight-o|4|FM15-METAR|223|ICAO-KTSP|||||||||||||||||||||||||||||||MET077METAR KTSP 301715Z AUTO 29014KT 1 1/2SM -RA OVC002 03/03 A3019 RMK AO2 P0003;||F||223|ICAO-KTSP
USW00000479|TEHACHAPI MUNI AP|2009|12|30|17|35|35.1350|-118.4392|1219.5|3.0||1|FM15-METAR|223|ICAO-KTSP|3.0||1|FM15-METAR|223|ICAO-KTSP|||||||||||||280|N-Normal|1|FM15-METAR|223|ICAO-KTSP|7.2|N-Normal|1|FM15-METAR|223|ICAO-KTSP|||||||1.3|9-Missing|9|FM15-METAR|223|ICAO-KTSP|100|Derived||FM15-METAR|223|ICAO-KTSP|||||||||||||||||||||||||||||||||||||||||||RA:61|RA:61-Rain|1|FM15-METAR|223|ICAO-KTSP|||||||||||||||||||||||||1022.0||1|FM15-METAR|223|ICAO-KTSP|||||||OVC:08|08-Eight-o|4|FM15-METAR|223|ICAO-KTSP|||||||||||||||||||||||||||||||MET077METAR KTSP 301735Z AUTO 28014KT 2 1/2SM -RA OVC002 03/03 A3018 RMK AO2 P0005;||F||223|ICAO-KTSP
USW00000479|TEHACHAPI MUNI AP|2009|12|30|18|00|35.1350|-118.4392|1219.5|4.0||1|FM15-METAR|223|ICAO-KTSP|4.0||1|FM15-METAR|223|ICAO-KTSP|||||||||||||300|N-Normal|1|FM15-METAR|223|ICAO-KTSP|7.7|N-Normal|1|FM15-METAR|223|ICAO-KTSP|10.3||1|FM15-METAR|223|ICAO-KTSP|1.8|9-Missing|9|FM15-METAR|223|ICAO-KTSP|100|Derived||FM15-METAR|223|ICAO-KTSP|||||||||||||||||||||||||||||||||||||||||||RA:61|RA:61-Rain|1|FM15-METAR|223|ICAO-KTSP|||||||||||||||||||||||||1021.7||1|FM15-METAR|223|ICAO-KTSP|||||||BKN:07|07-Seven-o|4|FM15-METAR|223|ICAO-KTSP|||||||OVC:08|08-Eight-o|4|FM15-METAR|223|ICAO-KTSP|||||||||||||||||||MET083METAR KTSP 301755Z AUTO 30015G20KT 2SM -RA BKN003 OVC009 04/04 A3017 RMK AO2 P0007;||F||223|ICAO-KTSP
USW00000479|TEHACHAPI MUNI AP|2009|12|30|18|15|35.1350|-118.4392|1219.5|5.0||1|FM15-METAR|223|ICAO-KTSP|5.0||1|FM15-METAR|223|ICAO-KTSP|||||||||||||300|N-Normal|1|FM15-METAR|223|ICAO-KTSP|9.3|N-Normal|1|FM15-METAR|223|ICAO-KTSP|||||||||||||100|Derived||FM15-METAR|223|ICAO-KTSP|||||||||||||||||||||||||||||||||||||||||||RA:61|RA:61-Rain|1|FM15-METAR|223|ICAO-KTSP|||||||||||||||||||||||||1021.7||1|FM15-METAR|223|ICAO-KTSP|||||||FEW:02|02-Two-okt|4|FM15-METAR|223|ICAO-KTSP|||||||BKN:07|07-Seven-o|4|FM15-METAR|223|ICAO-KTSP|||||||||||||||||||MET081METAR KTSP 301815Z AUTO 30018KT 4SM -RA FEW004 BKN010 OVC026 05/05 A3017 RMK AO2;||F||223|ICAO-KTSP
USW00000479|TEHACHAPI MUNI AP|2009|12|30|18|35|35.1350|-118.4392|1219.5|4.0||1|FM15-METAR|223|ICAO-KTSP|4.0||1|FM15-METAR|223|ICAO-KTSP|||||||||||||300|N-Normal|1|FM15-METAR|223|ICAO-KTSP|9.3|N-Normal|1|FM15-METAR|223|ICAO-KTSP|12.3||1|FM15-METAR|223|ICAO-KTSP|0.3|9-Missing|9|FM15-METAR|223|ICAO-KTSP|100|Derived||FM15-METAR|223|ICAO-KTSP|||||||||||||||||||||||||||||||||||||||||||RA:61|RA:61-Rain|1|FM15-METAR|223|ICAO-KTSP|||||||||||||||||||||||||1021.3||1|FM15-METAR|223|ICAO-KTSP|||||||SCT:04|04-Four-ok|4|FM15-METAR|223|ICAO-KTSP|||||||BKN:07|07-Seven-o|4|FM15-METAR|223|ICAO-KTSP|||||||||||||||||||MET094METAR KTSP 301835Z AUTO 30018G24KT 2 1/2SM -RA SCT004 BKN009 OVC014 04/04 A3016 RMK AO2 P0001;||F||223|ICAO-KTSP
USW00000479|TEHACHAPI MUNI AP|2009|12|30|19|00|35.1350|-118.4392|1219.5|5.0||1|FM15-METAR|223|ICAO-KTSP|5.0||1|FM15-METAR|223|ICAO-KTSP|||||||||||||300|N-Normal|1|FM15-METAR|223|ICAO-KTSP|10.8|N-Normal|1|FM15-METAR|223|ICAO-KTSP|||||||0.3|9-Missing|9|FM15-METAR|223|ICAO-KTSP|100|Derived||FM15-METAR|223|ICAO-KTSP|||||||||||||||||||||||||||||||||||||||||||RA:61|RA:61-Rain|1|FM15-METAR|223|ICAO-KTSP|||||||||||||||||||||||||1021.0||1|FM15-METAR|223|ICAO-KTSP|||||||BKN:07|07-Seven-o|4|FM15-METAR|223|ICAO-KTSP|||||||OVC:08|08-Eight-o|4|FM15-METAR|223|ICAO-KTSP|||||||||||||||||||MET080METAR KTSP 301855Z AUTO 30021KT 3SM -RA BKN004 OVC024 05/05 A3015 RMK AO2 P0001;||F||223|ICAO-KTSP
USW00000479|TEHACHAPI MUNI AP|2009|12|30|19|15|35.1350|-118.4392|1219.5|5.0||1|FM15-METAR|223|ICAO-KTSP|5.0||1|FM15-METAR|223|ICAO-KTSP|||||||||||||300|N-Normal|1|FM15-METAR|223|ICAO-KTSP|10.8|N-Normal|1|FM15-METAR|223|ICAO-KTSP|13.9||1|FM15-METAR|223|ICAO-KTSP|||||||100|Derived||FM15-METAR|223|ICAO-KTSP|||||||||||||||||||||||||||||||||||||||||||BR:10|BR:10-Mist|1|FM15-METAR|223|ICAO-KTSP|||||||||||||||||||||||||1020.3||1|FM15-METAR|223|ICAO-KTSP|||||||BKN:07|07-Seven-o|4|FM15-METAR|223|ICAO-KTSP|||||||OVC:08|08-Eight-o|4|FM15-METAR|223|ICAO-KTSP|||||||||||||||||||MET076METAR KTSP 301915Z AUTO 30021G27KT 5SM BR BKN004 OVC022 05/05 A3013 RMK AO2;||F||223|ICAO-KTSP
USW00000479|TEHACHAPI MUNI AP|2009|12|30|19|35|35.1350|-118.4392|1219.5|5.0||1|FM15-METAR|223|ICAO-KTSP|5.0||1|FM15-METAR|223|ICAO-KTSP|||||||||||||300|N-Normal|1|FM15-METAR|223|ICAO-KTSP|10.8|N-Normal|1|FM15-METAR|223|ICAO-KTSP|14.4||1|FM15-METAR|223|ICAO-KTSP|||||||100|Derived||FM15-METAR|223|ICAO-KTSP|||||||||||||||||||||||||||||||||||||||||||BR:10|BR:10-Mist|1|FM15-METAR|223|ICAO-KTSP|||||||||||||||||||||||||1020.0||1|FM15-METAR|223|ICAO-KTSP|||||||BKN:07|07-Seven-o|4|FM15-METAR|223|ICAO-KTSP|||||||||||||||||||||||||||||||MET069METAR KTSP 301935Z AUTO 30021G28KT 5SM BR BKN005 05/05 A3012 RMK AO2;||F||223|ICAO-KTSP
USW00000479|TEHACHAPI MUNI AP|2009|12|30|20|00|35.1350|-118.4392|1219.5|5.0||1|FM15-METAR|223|ICAO-KTSP|5.0||1|FM15-METAR|223|ICAO-KTSP|||||||||||||300|N-Normal|1|FM15-METAR|223|ICAO-KTSP|12.3|N-Normal|1|FM15-METAR|223|ICAO-KTSP|15.9||1|FM15-METAR|223|ICAO-KTSP|||||||100|Derived||FM15-METAR|223|ICAO-KTSP|||||||||||||||||||||||||||||||||||||||||||RA:61|RA:61-Rain|1|FM15-METAR|223|ICAO-KTSP|||||||||||||||||||||||||1019.6||1|FM15-METAR|223|ICAO-KTSP|||||||OVC:08|08-Eight-o|4|FM15-METAR|223|ICAO-KTSP|||||||||||||||||||||||||||||||MET074METAR KTSP 301955Z AUTO 30024G31KT 1 3/4SM -RA OVC005 05/05 A3011 RMK AO2;||F||223|ICAO-KTSP
USW00000479|TEHACHAPI MUNI AP|2009|12|30|20|15|35.1350|-118.4392|1219.5|5.0||1|FM15-METAR|223|ICAO-KTSP|5.0||1|FM15-METAR|223|ICAO-KTSP|||||||||||||310|N-Normal|1|FM15-METAR|223|ICAO-KTSP|12.3|N-Normal|1|FM15-METAR|223|ICAO-KTSP|15.9||1|FM15-METAR|223|ICAO-KTSP|0.3|9-Missing|9|FM15-METAR|223|ICAO-KTSP|100|Derived||FM15-METAR|223|ICAO-KTSP|||||||||||||||||||||||||||||||||||||||||||40|40-Precipi|1|FM15-METAR|223|ICAO-KTSP|||||||||||||||||||||||||1019.6||1|FM15-METAR|223|ICAO-KTSP|||||||OVC:08|08-Eight-o|4|FM15-METAR|223|ICAO-KTSP|||||||||||||||||||||||||||||||MET075METAR KTSP 302015Z AUTO 31024G31KT 1SM UP OVC005 05/05 A3011 RMK AO2 P0001;||F||223|ICAO-KTSP
USW00000479|TEHACHAPI MUNI AP|2009|12|30|20|35|35.1350|-118.4392|1219.5|5.0||1|FM15-METAR|223|ICAO-KTSP|5.0||1|FM15-METAR|223|ICAO-KTSP|||||||||||||300|N-Normal|1|FM15-METAR|223|ICAO-KTSP|11.3|N-Normal|1|FM15-METAR|223|ICAO-KTSP|14.4||1|FM15-METAR|223|ICAO-KTSP|0.3|9-Missing|9|FM15-METAR|223|ICAO-KTSP|100|Derived||FM15-METAR|223|ICAO-KTSP|||||||||||||||||||||||||||||||||||||||||||RA:61|RA:61-Rain|1|FM15-METAR|223|ICAO-KTSP|||||||||||||||||||||||||1019.6||1|FM15-METAR|223|ICAO-KTSP|||||||BKN:07|07-Seven-o|4|FM15-METAR|223|ICAO-KTSP|||||||OVC:08|08-Eight-o|4|FM15-METAR|223|ICAO-KTSP|||||||||||||||||||MET083METAR KTSP 302035Z AUTO 30022G28KT 4SM -RA BKN005 OVC010 05/05 A3011 RMK AO2 P0001;||F||223|ICAO-KTSP
USW00000479|TEHACHAPI MUNI AP|2009|12|30|21|00|35.1350|-118.4392|1219.5|6.0||1|FM15-METAR|223|ICAO-KTSP|6.0||1|FM15-METAR|223|ICAO-KTSP|||||||||||||300|N-Normal|1|FM15-METAR|223|ICAO-KTSP|11.3|N-Normal|1|FM15-METAR|223|ICAO-KTSP|13.9||1|FM15-METAR|223|ICAO-KTSP|0.3|9-Missing|9|FM15-METAR|223|ICAO-KTSP|100|Derived||FM15-METAR|223|ICAO-KTSP|||||||||||||||||||||||||||||||||||||||||||||||||||||||||||||||||||||||||1019.3||1|FM15-METAR|223|ICAO-KTSP|||||||OVC:08|08-Eight-o|4|FM15-METAR|223|ICAO-KTSP|||||||||||||||||||||||||||||||MET072METAR KTSP 302055Z AUTO 30022G27KT 7SM OVC006 06/06 A3010 RMK AO2 P0001;||F||223|ICAO-KTSP
USW00000479|TEHACHAPI MUNI AP|2009|12|30|21|15|35.1350|-118.4392|1219.5|6.0||1|FM15-METAR|223|ICAO-KTSP|6.0||1|FM15-METAR|223|ICAO-KTSP|||||||||||||300|N-Normal|1|FM15-METAR|223|ICAO-KTSP|12.3|N-Normal|1|FM15-METAR|223|ICAO-KTSP|17.0||1|FM15-METAR|223|ICAO-KTSP|||||||100|Derived||FM15-METAR|223|ICAO-KTSP|||||||||||||||||||||||||||||||||||||||||||||||||||||||||||||||||||||||||1019.0||1|FM15-METAR|223|ICAO-KTSP|||||||BKN:07|07-Seven-o|4|FM15-METAR|223|ICAO-KTSP|||||||||||||||||||||||||||||||MET066METAR KTSP 302115Z AUTO 30024G33KT 9SM BKN006 06/06 A3009 RMK AO2;||F||223|ICAO-KTSP
USW00000479|TEHACHAPI MUNI AP|2009|12|30|21|35|35.1350|-118.4392|1219.5|7.0||1|FM15-METAR|223|ICAO-KTSP|5.0||1|FM15-METAR|223|ICAO-KTSP|||||||||||||300|N-Normal|1|FM15-METAR|223|ICAO-KTSP|12.9|N-Normal|1|FM15-METAR|223|ICAO-KTSP|15.4||1|FM15-METAR|223|ICAO-KTSP|||||||87|Derived||FM15-METAR|223|ICAO-KTSP|||||||||||||||||||||||||||||||||||||||||||||||||||||||||||||||||||||||||1019.0||1|FM15-METAR|223|ICAO-KTSP|||||||FEW:02|02-Two-okt|4|FM15-METAR|223|ICAO-KTSP|||||||||||||||||||||||||||||||MET066METAR KTSP 302135Z AUTO 30025G30KT 8SM FEW007 07/05 A3009 RMK AO2;||F||223|ICAO-KTSP
USW00000479|TEHACHAPI MUNI AP|2009|12|30|22|00|35.1350|-118.4392|1219.5|7.0||1|FM15-METAR|223|ICAO-KTSP|5.0||1|FM15-METAR|223|ICAO-KTSP|||||||||||||310|N-Normal|1|FM15-METAR|223|ICAO-KTSP|12.9|N-Normal|1|FM15-METAR|223|ICAO-KTSP|17.0||1|FM15-METAR|223|ICAO-KTSP|||||||87|Derived||FM15-METAR|223|ICAO-KTSP|||||||||||||||||||||||||||||||||||||||||||||||||||||||||||||||||||||||||1019.3||1|FM15-METAR|223|ICAO-KTSP|||||||FEW:02|02-Two-okt|4|FM15-METAR|223|ICAO-KTSP|||||||||||||||||||||||||||||||MET066METAR KTSP 302155Z AUTO 31025G33KT 9SM FEW007 07/05 A3010 RMK AO2;||F||223|ICAO-KTSP
USW00000479|TEHACHAPI MUNI AP|2009|12|30|22|15|35.1350|-118.4392|1219.5|5.0||1|FM15-METAR|223|ICAO-KTSP|4.0||1|FM15-METAR|223|ICAO-KTSP|||||||||||||310|N-Normal|1|FM15-METAR|223|ICAO-KTSP|14.4|N-Normal|1|FM15-METAR|223|ICAO-KTSP|17.5||1|FM15-METAR|223|ICAO-KTSP|||||||93|Derived||FM15-METAR|223|ICAO-KTSP|||||||||||||||||||||||||||||||||||||||||||||||||||||||||||||||||||||||||1019.3||1|FM15-METAR|223|ICAO-KTSP|||||||SCT:04|04-Four-ok|4|FM15-METAR|223|ICAO-KTSP|||||||||||||||||||||||||||||||MET067METAR KTSP 302215Z AUTO 31028G34KT 10SM SCT006 05/04 A3010 RMK AO2;||F||223|ICAO-KTSP
USW00000479|TEHACHAPI MUNI AP|2009|12|30|22|35|35.1350|-118.4392|1219.5|5.0||1|FM15-METAR|223|ICAO-KTSP|4.0||1|FM15-METAR|223|ICAO-KTSP|||||||||||||310|N-Normal|1|FM15-METAR|223|ICAO-KTSP|10.8|N-Normal|1|FM15-METAR|223|ICAO-KTSP|14.4||1|FM15-METAR|223|ICAO-KTSP|||||||93|Derived||FM15-METAR|223|ICAO-KTSP|||||||||||||||||||||||||||||||||||||||||||||||||||||||||||||||||||||||||1019.6||1|FM15-METAR|223|ICAO-KTSP|||||||BKN:07|07-Seven-o|4|FM15-METAR|223|ICAO-KTSP|||||||BKN:07|07-Seven-o|4|FM15-METAR|223|ICAO-KTSP|||||||||||||||||||MET074METAR KTSP 302235Z AUTO 31021G28KT 10SM BKN006 BKN012 05/04 A3011 RMK AO2;||F||223|ICAO-KTSP
USW00000479|TEHACHAPI MUNI AP|2009|12|30|23|00|35.1350|-118.4392|1219.5|5.0||1|FM15-METAR|223|ICAO-KTSP|4.0||1|FM15-METAR|223|ICAO-KTSP|||||||||||||300|N-Normal|1|FM15-METAR|223|ICAO-KTSP|10.8|N-Normal|1|FM15-METAR|223|ICAO-KTSP|13.4||1|FM15-METAR|223|ICAO-KTSP|||||||93|Derived||FM15-METAR|223|ICAO-KTSP|||||||||||||||||||||||||||||||||||||||||||BR:10|BR:10-Mist|1|FM15-METAR|223|ICAO-KTSP|||||||||||||||||||||||||1019.6||1|FM15-METAR|223|ICAO-KTSP|||||||BKN:07|07-Seven-o|4|FM15-METAR|223|ICAO-KTSP|||||||OVC:08|08-Eight-o|4|FM15-METAR|223|ICAO-KTSP|||||||||||||||||||MET076METAR KTSP 302255Z AUTO 30021G26KT 4SM BR BKN003 OVC007 05/04 A3011 RMK AO2;||F||223|ICAO-KTSP
USW00000479|TEHACHAPI MUNI AP|2009|12|30|23|15|35.1350|-118.4392|1219.5|4.0||1|FM15-METAR|223|ICAO-KTSP|4.0||1|FM15-METAR|223|ICAO-KTSP|||||||||||||310|N-Normal|1|FM15-METAR|223|ICAO-KTSP|11.8|N-Normal|1|FM15-METAR|223|ICAO-KTSP|13.9||1|FM15-METAR|223|ICAO-KTSP|||||||100|Derived||FM15-METAR|223|ICAO-KTSP|||||||||||||||||||||||||||||||||||||||||||RA:61|RA:61-Rain|1|FM15-METAR|223|ICAO-KTSP|||||||||||||||||||||||||1020.0||1|FM15-METAR|223|ICAO-KTSP|||||||OVC:08|08-Eight-o|4|FM15-METAR|223|ICAO-KTSP|||||||||||||||||||||||||||||||MET073METAR KTSP 302315Z AUTO 31023G27KT M1/4SM -RA OVC001 04/04 A3012 RMK AO2;||F||223|ICAO-KTSP
USW00000479|TEHACHAPI MUNI AP|2009|12|30|23|35|35.1350|-118.4392|1219.5|4.0||1|FM15-METAR|223|ICAO-KTSP|4.0||1|FM15-METAR|223|ICAO-KTSP|||||||||||||300|N-Normal|1|FM15-METAR|223|ICAO-KTSP|10.8|N-Normal|1|FM15-METAR|223|ICAO-KTSP|14.9||1|FM15-METAR|223|ICAO-KTSP|||||||100|Derived||FM15-METAR|223|ICAO-KTSP|||||||||||||||||||||||||||||||||||||||||||RA:61|RA:61-Rain|1|FM15-METAR|223|ICAO-KTSP|||||||||||||||||||||||||1020.0||1|FM15-METAR|223|ICAO-KTSP|||||||OVC:08|08-Eight-o|4|FM15-METAR|223|ICAO-KTSP|||||||||||||||||||||||||||||||MET073METAR KTSP 302335Z AUTO 30021G29KT M1/4SM -RA OVC001 04/04 A3012 RMK AO2;||F||223|ICAO-KTSP
USW00000479|TEHACHAPI MUNI AP|2009|12|31|00|00|35.1350|-118.4392|1219.5|4.0||1|FM15-METAR|223|ICAO-KTSP|4.0||1|FM15-METAR|223|ICAO-KTSP|||||||||||||310|N-Normal|1|FM15-METAR|223|ICAO-KTSP|12.3|N-Normal|1|FM15-METAR|223|ICAO-KTSP|13.9||1|FM15-METAR|223|ICAO-KTSP|||||||100|Derived||FM15-METAR|223|ICAO-KTSP|||||||||||||||||||||||||||||||||||||||||||FG:30|FG:30-Fog|1|FM15-METAR|223|ICAO-KTSP|||||||||||||||||||||||||1020.3||1|FM15-METAR|223|ICAO-KTSP|||||||OVC:08|08-Eight-o|4|FM15-METAR|223|ICAO-KTSP|||||||||||||||||||||||||||||||MET071METAR KTSP 302355Z AUTO 31024G27KT 1/2SM FG OVC001 04/04 A3013 RMK AO2;||F||223|ICAO-KTSP
USW00000479|TEHACHAPI MUNI AP|2009|12|31|00|15|35.1350|-118.4392|1219.5|4.0||1|FM15-METAR|223|ICAO-KTSP|4.0||1|FM15-METAR|223|ICAO-KTSP|||||||||||||300|N-Normal|1|FM15-METAR|223|ICAO-KTSP|11.8|N-Normal|1|FM15-METAR|223|ICAO-KTSP|13.9||1|FM15-METAR|223|ICAO-KTSP|||||||100|Derived||FM15-METAR|223|ICAO-KTSP|||||||||||||||||||||||||||||||||||||||||||FG:30|FG:30-Fog|1|FM15-METAR|223|ICAO-KTSP|||||||||||||||||||||||||1020.3||1|FM15-METAR|223|ICAO-KTSP|||||||OVC:08|08-Eight-o|4|FM15-METAR|223|ICAO-KTSP|||||||||||||||||||||||||||||||MET071METAR KTSP 310015Z AUTO 30023G27KT 1/2SM FG OVC001 04/04 A3013 RMK AO2;||F||223|ICAO-KTSP
USW00000479|TEHACHAPI MUNI AP|2009|12|31|00|35|35.1350|-118.4392|1219.5|4.0||1|FM15-METAR|223|ICAO-KTSP|4.0||1|FM15-METAR|223|ICAO-KTSP|||||||||||||300|N-Normal|1|FM15-METAR|223|ICAO-KTSP|7.7|N-Normal|1|FM15-METAR|223|ICAO-KTSP|12.9||1|FM15-METAR|223|ICAO-KTSP|||||||100|Derived||FM15-METAR|223|ICAO-KTSP|||||||||||||||||||||||||||||||||||||||||||FG:30|FG:30-Fog|1|FM15-METAR|223|ICAO-KTSP|||||||||||||||||||||||||1020.7||1|FM15-METAR|223|ICAO-KTSP|||||||OVC:08|08-Eight-o|4|FM15-METAR|223|ICAO-KTSP|||||||||||||||||||||||||||||||MET071METAR KTSP 310035Z AUTO 30015G25KT 1/4SM FG OVC001 04/04 A3014 RMK AO2;||F||223|ICAO-KTSP
USW00000479|TEHACHAPI MUNI AP|2009|12|31|01|00|35.1350|-118.4392|1219.5|4.0||1|FM15-METAR|223|ICAO-KTSP|4.0||1|FM15-METAR|223|ICAO-KTSP|||||||||||||300|N-Normal|1|FM15-METAR|223|ICAO-KTSP|9.3|N-Normal|1|FM15-METAR|223|ICAO-KTSP|||||||||||||100|Derived||FM15-METAR|223|ICAO-KTSP|||||||||||||||||||||||||||||||||||||||||||RA:61|RA:61-Rain|1|FM15-METAR|223|ICAO-KTSP|||||||||||||||||||||||||1020.7||1|FM15-METAR|223|ICAO-KTSP|||||||OVC:08|08-Eight-o|4|FM15-METAR|223|ICAO-KTSP|||||||||||||||||||||||||||||||MET070METAR KTSP 310055Z AUTO 30018KT M1/4SM -RA OVC001 04/04 A3014 RMK AO2;||F||223|ICAO-KTSP
USW00000479|TEHACHAPI MUNI AP|2009|12|31|01|15|35.1350|-118.4392|1219.5|4.0||1|FM15-METAR|223|ICAO-KTSP|4.0||1|FM15-METAR|223|ICAO-KTSP|||||||||||||310|N-Normal|1|FM15-METAR|223|ICAO-KTSP|11.3|N-Normal|1|FM15-METAR|223|ICAO-KTSP|13.4||1|FM15-METAR|223|ICAO-KTSP|||||||100|Derived||FM15-METAR|223|ICAO-KTSP|||||||||||||||||||||||||||||||||||||||||||RA:61|RA:61-Rain|1|FM15-METAR|223|ICAO-KTSP|||||||||||||||||||||||||1021.3||1|FM15-METAR|223|ICAO-KTSP|||||||OVC:08|08-Eight-o|4|FM15-METAR|223|ICAO-KTSP|||||||||||||||||||||||||||||||MET073METAR KTSP 310115Z AUTO 31022G26KT M1/4SM -RA OVC001 04/04 A3016 RMK AO2;||F||223|ICAO-KTSP
USW00000479|TEHACHAPI MUNI AP|2009|12|31|01|35|35.1350|-118.4392|1219.5|4.0||1|FM15-METAR|223|ICAO-KTSP|4.0||1|FM15-METAR|223|ICAO-KTSP|||||||||||||310|N-Normal|1|FM15-METAR|223|ICAO-KTSP|10.3|N-Normal|1|FM15-METAR|223|ICAO-KTSP|12.3||1|FM15-METAR|223|ICAO-KTSP|||||||100|Derived||FM15-METAR|223|ICAO-KTSP|||||||||||||||||||||||||||||||||||||||||||RA:61|RA:61-Rain|1|FM15-METAR|223|ICAO-KTSP|||||||||||||||||||||||||1021.3||1|FM15-METAR|223|ICAO-KTSP|||||||OVC:08|08-Eight-o|4|FM15-METAR|223|ICAO-KTSP|||||||||||||||||||||||||||||||MET073METAR KTSP 310135Z AUTO 31020G24KT M1/4SM -RA OVC001 04/04 A3016 RMK AO2;||F||223|ICAO-KTSP
USW00000479|TEHACHAPI MUNI AP|2009|12|31|02|00|35.1350|-118.4392|1219.5|3.0||1|FM15-METAR|223|ICAO-KTSP|3.0||1|FM15-METAR|223|ICAO-KTSP|||||||||||||300|N-Normal|1|FM15-METAR|223|ICAO-KTSP|10.8|N-Normal|1|FM15-METAR|223|ICAO-KTSP|13.9||1|FM15-METAR|223|ICAO-KTSP|||||||100|Derived||FM15-METAR|223|ICAO-KTSP|||||||||||||||||||||||||||||||||||||||||||RA:61|RA:61-Rain|1|FM15-METAR|223|ICAO-KTSP|||||||||||||||||||||||||1021.7||1|FM15-METAR|223|ICAO-KTSP|||||||OVC:08|08-Eight-o|4|FM15-METAR|223|ICAO-KTSP|||||||||||||||||||||||||||||||MET073METAR KTSP 310155Z AUTO 30021G27KT M1/4SM -RA OVC001 03/03 A3017 RMK AO2;||F||223|ICAO-KTSP
USW00000479|TEHACHAPI MUNI AP|2009|12|31|02|15|35.1350|-118.4392|1219.5|3.0||1|FM15-METAR|223|ICAO-KTSP|3.0||1|FM15-METAR|223|ICAO-KTSP|||||||||||||290|N-Normal|1|FM15-METAR|223|ICAO-KTSP|10.8|N-Normal|1|FM15-METAR|223|ICAO-KTSP|13.9||1|FM15-METAR|223|ICAO-KTSP|||||||100|Derived||FM15-METAR|223|ICAO-KTSP|||||||||||||||||||||||||||||||||||||||||||RA:61|RA:61-Rain|1|FM15-METAR|223|ICAO-KTSP|||||||||||||||||||||||||1022.0||1|FM15-METAR|223|ICAO-KTSP|||||||OVC:08|08-Eight-o|4|FM15-METAR|223|ICAO-KTSP|||||||||||||||||||||||||||||||MET070METAR KTSP 310215Z AUTO 29021G27KT 1SM -RA OVC001 03/03 A3018 RMK AO2;||F||223|ICAO-KTSP
USW00000479|TEHACHAPI MUNI AP|2009|12|31|02|35|35.1350|-118.4392|1219.5|3.0||1|FM15-METAR|223|ICAO-KTSP|3.0||1|FM15-METAR|223|ICAO-KTSP|||||||||||||290|N-Normal|1|FM15-METAR|223|ICAO-KTSP|9.3|N-Normal|1|FM15-METAR|223|ICAO-KTSP|12.9||1|FM15-METAR|223|ICAO-KTSP|||||||100|Derived||FM15-METAR|223|ICAO-KTSP|||||||||||||||||||||||||||||||||||||||||||RA:61|RA:61-Rain|1|FM15-METAR|223|ICAO-KTSP|||||||||||||||||||||||||1022.4||1|FM15-METAR|223|ICAO-KTSP|||||||OVC:08|08-Eight-o|4|FM15-METAR|223|ICAO-KTSP|||||||||||||||||||||||||||||||MET072METAR KTSP 310235Z AUTO 29018G25KT 3/4SM -RA OVC001 03/03 A3019 RMK AO2;||F||223|ICAO-KTSP
USW00000479|TEHACHAPI MUNI AP|2009|12|31|03|00|35.1350|-118.4392|1219.5|3.0||1|FM15-METAR|223|ICAO-KTSP|3.0||1|FM15-METAR|223|ICAO-KTSP|||||||||||||300|N-Normal|1|FM15-METAR|223|ICAO-KTSP|10.8|N-Normal|1|FM15-METAR|223|ICAO-KTSP|12.9||1|FM15-METAR|223|ICAO-KTSP|||||||100|Derived||FM15-METAR|223|ICAO-KTSP|||||||||||||||||||||||||||||||||||||||||||||||||||||||||||||||||||||||||1022.7||1|FM15-METAR|223|ICAO-KTSP|||||||BKN:07|07-Seven-o|4|FM15-METAR|223|ICAO-KTSP|||||||OVC:08|08-Eight-o|4|FM15-METAR|223|ICAO-KTSP|||||||||||||||||||MET074METAR KTSP 310255Z AUTO 30021G25KT 10SM BKN002 OVC007 03/03 A3020 RMK AO2;||F||223|ICAO-KTSP
USW00000479|TEHACHAPI MUNI AP|2009|12|31|03|15|35.1350|-118.4392|1219.5|3.0||1|FM15-METAR|223|ICAO-KTSP|3.0||1|FM15-METAR|223|ICAO-KTSP|||||||||||||290|N-Normal|1|FM15-METAR|223|ICAO-KTSP|9.3|N-Normal|1|FM15-METAR|223|ICAO-KTSP|12.3||1|FM15-METAR|223|ICAO-KTSP|||||||100|Derived||FM15-METAR|223|ICAO-KTSP|||||||||||||||||||||||||||||||||||||||||||||||||||||||||||||||||||||||||1022.7||1|FM15-METAR|223|ICAO-KTSP|||||||FEW:02|02-Two-okt|4|FM15-METAR|223|ICAO-KTSP|||||||OVC:08|08-Eight-o|4|FM15-METAR|223|ICAO-KTSP|||||||||||||||||||MET074METAR KTSP 310315Z AUTO 29018G24KT 10SM FEW003 OVC008 03/03 A3020 RMK AO2;||F||223|ICAO-KTSP
USW00000479|TEHACHAPI MUNI AP|2009|12|31|03|35|35.1350|-118.4392|1219.5|3.0||1|FM15-METAR|223|ICAO-KTSP|3.0||1|FM15-METAR|223|ICAO-KTSP|||||||||||||290|N-Normal|1|FM15-METAR|223|ICAO-KTSP|7.7|N-Normal|1|FM15-METAR|223|ICAO-KTSP|||||||||||||100|Derived||FM15-METAR|223|ICAO-KTSP|||||||||||||||||||||||||||||||||||||||||||||||||||||||||||||||||||||||||1023.0||1|FM15-METAR|223|ICAO-KTSP|||||||OVC:08|08-Eight-o|4|FM15-METAR|223|ICAO-KTSP|||||||||||||||||||||||||||||||MET064METAR KTSP 310335Z AUTO 29015KT 10SM OVC008 03/03 A3021 RMK AO2;||F||223|ICAO-KTSP
USW00000479|TEHACHAPI MUNI AP|2009|12|31|04|00|35.1350|-118.4392|1219.5|3.0||1|FM15-METAR|223|ICAO-KTSP|3.0||1|FM15-METAR|223|ICAO-KTSP|||||||||||||300|N-Normal|1|FM15-METAR|223|ICAO-KTSP|5.7|N-Normal|1|FM15-METAR|223|ICAO-KTSP|||||||||||||100|Derived||FM15-METAR|223|ICAO-KTSP|||||||||||||||||||||||||||||||||||||||||||||||||||||||||||||||||||||||||1023.4||1|FM15-METAR|223|ICAO-KTSP|||||||BKN:07|07-Seven-o|4|FM15-METAR|223|ICAO-KTSP|||||||OVC:08|08-Eight-o|4|FM15-METAR|223|ICAO-KTSP|||||||||||||||||||MET071METAR KTSP 310355Z AUTO 30011KT 10SM BKN008 OVC012 03/03 A3022 RMK AO2;||F||223|ICAO-KTSP
USW00000479|TEHACHAPI MUNI AP|2009|12|31|04|15|35.1350|-118.4392|1219.5|3.0||1|FM15-METAR|223|ICAO-KTSP|3.0||1|FM15-METAR|223|ICAO-KTSP|||||||||||||300|N-Normal|1|FM15-METAR|223|ICAO-KTSP|4.6|N-Normal|1|FM15-METAR|223|ICAO-KTSP|||||||||||||100|Derived||FM15-METAR|223|ICAO-KTSP|||||||||||||||||||||||||||||||||||||||||||||||||||||||||||||||||||||||||1023.7||1|FM15-METAR|223|ICAO-KTSP|||||||SCT:04|04-Four-ok|4|FM15-METAR|223|ICAO-KTSP|||||||OVC:08|08-Eight-o|4|FM15-METAR|223|ICAO-KTSP|||||||||||||||||||MET071METAR KTSP 310415Z AUTO 30009KT 10SM SCT006 OVC011 03/03 A3023 RMK AO2;||F||223|ICAO-KTSP
USW00000479|TEHACHAPI MUNI AP|2009|12|31|04|35|35.1350|-118.4392|1219.5|3.0||1|FM15-METAR|223|ICAO-KTSP|3.0||1|FM15-METAR|223|ICAO-KTSP|||||||||||||300|N-Normal|1|FM15-METAR|223|ICAO-KTSP|3.1|N-Normal|1|FM15-METAR|223|ICAO-KTSP|||||||||||||100|Derived||FM15-METAR|223|ICAO-KTSP|||||||||||||||||||||||||||||||||||||||||||||||||||||||||||||||||||||||||1024.0||1|FM15-METAR|223|ICAO-KTSP|||||||BKN:07|07-Seven-o|4|FM15-METAR|223|ICAO-KTSP|||||||OVC:08|08-Eight-o|4|FM15-METAR|223|ICAO-KTSP|||||||||||||||||||MET071METAR KTSP 310435Z AUTO 30006KT 10SM BKN008 OVC011 03/03 A3024 RMK AO2;||F||223|ICAO-KTSP
USW00000479|TEHACHAPI MUNI AP|2009|12|31|05|00|35.1350|-118.4392|1219.5|3.0||1|FM15-METAR|223|ICAO-KTSP|3.0||1|FM15-METAR|223|ICAO-KTSP|||||||||||||310|N-Normal|1|FM15-METAR|223|ICAO-KTSP|2.6|N-Normal|1|FM15-METAR|223|ICAO-KTSP|||||||||||||100|Derived||FM15-METAR|223|ICAO-KTSP|||||||||||||||||||||||||||||||||||||||||||||||||||||||||||||||||||||||||1024.4||1|FM15-METAR|223|ICAO-KTSP|||||||BKN:07|07-Seven-o|4|FM15-METAR|223|ICAO-KTSP|||||||OVC:08|08-Eight-o|4|FM15-METAR|223|ICAO-KTSP|||||||||||||||||||MET071METAR KTSP 310455Z AUTO 31005KT 10SM BKN008 OVC011 03/03 A3025 RMK AO2;||F||223|ICAO-KTSP
USW00000479|TEHACHAPI MUNI AP|2009|12|31|05|15|35.1350|-118.4392|1219.5|3.0||1|FM15-METAR|223|ICAO-KTSP|3.0||1|FM15-METAR|223|ICAO-KTSP|||||||||||||300|N-Normal|1|FM15-METAR|223|ICAO-KTSP|3.1|N-Normal|1|FM15-METAR|223|ICAO-KTSP|||||||||||||100|Derived||FM15-METAR|223|ICAO-KTSP|||||||||||||||||||||||||||||||||||||||||||||||||||||||||||||||||||||||||1025.1||1|FM15-METAR|223|ICAO-KTSP|||||||FEW:02|02-Two-okt|4|FM15-METAR|223|ICAO-KTSP|||||||OVC:08|08-Eight-o|4|FM15-METAR|223|ICAO-KTSP|||||||||||||||||||MET071METAR KTSP 310515Z AUTO 30006KT 10SM FEW005 OVC012 03/03 A3027 RMK AO2;||F||223|ICAO-KTSP
USW00000479|TEHACHAPI MUNI AP|2009|12|31|05|35|35.1350|-118.4392|1219.5|3.0||1|FM15-METAR|223|ICAO-KTSP|3.0||1|FM15-METAR|223|ICAO-KTSP|||||||||||||280|N-Normal|1|FM15-METAR|223|ICAO-KTSP|3.1|N-Normal|1|FM15-METAR|223|ICAO-KTSP|||||||||||||100|Derived||FM15-METAR|223|ICAO-KTSP|||||||||||||||||||||||||||||||||||||||||||||||||||||||||||||||||||||||||1025.7||1|FM15-METAR|223|ICAO-KTSP|||||||OVC:08|08-Eight-o|4|FM15-METAR|223|ICAO-KTSP|||||||||||||||||||||||||||||||MET064METAR KTSP 310535Z AUTO 28006KT 10SM OVC014 03/03 A3029 RMK AO2;||F||223|ICAO-KTSP
USW00000479|TEHACHAPI MUNI AP|2009|12|31|06|00|35.1350|-118.4392|1219.5|3.0||1|FM15-METAR|223|ICAO-KTSP|3.0||1|FM15-METAR|223|ICAO-KTSP|||||||||||||260|N-Normal|1|FM15-METAR|223|ICAO-KTSP|2.6|N-Normal|1|FM15-METAR|223|ICAO-KTSP|||||||||||||100|Derived||FM15-METAR|223|ICAO-KTSP|||||||||||||||||||||||||||||||||||||||||||||||||||||||||||||||||||||||||1025.7||1|FM15-METAR|223|ICAO-KTSP|||||||OVC:08|08-Eight-o|4|FM15-METAR|223|ICAO-KTSP|||||||||||||||||||||||||||||||MET064METAR KTSP 310555Z AUTO 26005KT 10SM OVC012 03/03 A3029 RMK AO2;||F||223|ICAO-KTSP
USW00000479|TEHACHAPI MUNI AP|2009|12|31|06|15|35.1350|-118.4392|1219.5|3.0||1|FM15-METAR|223|ICAO-KTSP|2.0||1|FM15-METAR|223|ICAO-KTSP|||||||||||||999|C-Calm|9|FM15-METAR|223|ICAO-KTSP|0.0|C-Calm|1|FM15-METAR|223|ICAO-KTSP|||||||||||||93|Derived||FM15-METAR|223|ICAO-KTSP|||||||||||||||||||||||||||||||||||||||||||||||||||||||||||||||||||||||||1026.1||1|FM15-METAR|223|ICAO-KTSP|||||||SCT:04|04-Four-ok|4|FM15-METAR|223|ICAO-KTSP|||||||BKN:07|07-Seven-o|4|FM15-METAR|223|ICAO-KTSP|||||||||||||||||||MET071METAR KTSP 310615Z AUTO 00000KT 10SM SCT012 BKN017 03/02 A3030 RMK AO2;||F||223|ICAO-KTSP
USW00000479|TEHACHAPI MUNI AP|2009|12|31|06|35|35.1350|-118.4392|1219.5|2.0||1|FM15-METAR|223|ICAO-KTSP|2.0||1|FM15-METAR|223|ICAO-KTSP|||||||||||||260|N-Normal|1|FM15-METAR|223|ICAO-KTSP|2.1|N-Normal|1|FM15-METAR|223|ICAO-KTSP|||||||||||||100|Derived||FM15-METAR|223|ICAO-KTSP|||||||||||||||||||||||||||||||||||||||||||||||||||||||||||||||||||||||||1026.1||1|FM15-METAR|223|ICAO-KTSP|||||||FEW:02|02-Two-okt|4|FM15-METAR|223|ICAO-KTSP|||||||||||||||||||||||||||||||MET064METAR KTSP 310635Z AUTO 26004KT 10SM FEW010 02/02 A3030 RMK AO2;||F||223|ICAO-KTSP
USW00000479|TEHACHAPI MUNI AP|2009|12|31|07|00|35.1350|-118.4392|1219.5|2.0||1|FM15-METAR|223|ICAO-KTSP|2.0||1|FM15-METAR|223|ICAO-KTSP|||||||||||||260|N-Normal|1|FM15-METAR|223|ICAO-KTSP|1.5|N-Normal|1|FM15-METAR|223|ICAO-KTSP|||||||||||||100|Derived||FM15-METAR|223|ICAO-KTSP|||||||||||||||||||||||||||||||||||||||||||||||||||||||||||||||||||||||||1026.1||1|FM15-METAR|223|ICAO-KTSP|||||||BKN:07|07-Seven-o|4|FM15-METAR|223|ICAO-KTSP|||||||||||||||||||||||||||||||MET064METAR KTSP 310655Z AUTO 26003KT 10SM BKN010 02/02 A3030 RMK AO2;||F||223|ICAO-KTSP
USW00000479|TEHACHAPI MUNI AP|2009|12|31|07|15|35.1350|-118.4392|1219.5|2.0||1|FM15-METAR|223|ICAO-KTSP|2.0||1|FM15-METAR|223|ICAO-KTSP|||||||||||||350|N-Normal|1|FM15-METAR|223|ICAO-KTSP|2.1|N-Normal|1|FM15-METAR|223|ICAO-KTSP|||||||||||||100|Derived||FM15-METAR|223|ICAO-KTSP|||||||||||||||||||||||||||||||||||||||||||||||||||||||||||||||||||||||||1026.4||1|FM15-METAR|223|ICAO-KTSP|||||||BKN:07|07-Seven-o|4|FM15-METAR|223|ICAO-KTSP|||||||||||||||||||||||||||||||MET064METAR KTSP 310715Z AUTO 35004KT 10SM BKN008 02/02 A3031 RMK AO2;||F||223|ICAO-KTSP
USW00000479|TEHACHAPI MUNI AP|2009|12|31|07|35|35.1350|-118.4392|1219.5|||||||||||||||||||||||||||||||||||||||||||||||||||||||||||||||||||||||||||||||||||||||||||||||||||||||||||||||||||||||||||||||||||||||||||||||||||||||||||||||||||||||||||||||MET049METAR KTSP 310735Z AUTO RMK AO2 PWINO PNO FZRANO;||F||223|ICAO-KTSP
USW00000479|TEHACHAPI MUNI AP|2009|12|31|08|00|35.1350|-118.4392|1219.5|||||||||||||||||||||||||||||||||||||||||||||||||||||||||||||||||||||||||||||||||||||||||||||||||||||||||||||||||||||||||||||||||||||||||||||||||||||||||||||||||||||||||||||||MET054METAR KTSP 310755Z AUTO RMK AO2 PWINO PNO FZRANO TSNO;||F||223|ICAO-KTSP
USW00000479|TEHACHAPI MUNI AP|2009|12|31|08|15|35.1350|-118.4392|1219.5|||||||||||||||||||||||||999|C-Calm|9|FM16-SPECI|223|ICAO-KTSP|0.0|C-Calm|1|FM16-SPECI|223|ICAO-KTSP|||||||||||||||||||||||||||||||||||||||||||||||||||||||||||||||||||||||||||||||||||||||||||1026.4||1|FM16-SPECI|223|ICAO-KTSP|||||||||||||||||||||||||||||||||||||||||||MET046METAR KTSP 310815Z AUTO 00000KT A3031 RMK AO2;||F||223|ICAO-KTSP
USW00000479|TEHACHAPI MUNI AP|2009|12|31|08|35|35.1350|-118.4392|1219.5|0.0||1|FM15-METAR|223|ICAO-KTSP|-1.0||1|FM15-METAR|223|ICAO-KTSP|||||||||||||999|C-Calm|9|FM15-METAR|223|ICAO-KTSP|0.0|C-Calm|1|FM15-METAR|223|ICAO-KTSP|||||||||||||93|Derived||FM15-METAR|223|ICAO-KTSP|||||||||||||||||||||||||||||||||||||||||||||||||||||||||||||||||||||||||1026.4||1|FM15-METAR|223|ICAO-KTSP|||||||||||||||||||||||||||||||||||||||||||MET057METAR KTSP 310835Z AUTO 00000KT 9SM 00/M01 A3031 RMK AO2;||F||223|ICAO-KTSP
USW00000479|TEHACHAPI MUNI AP|2009|12|31|09|00|35.1350|-118.4392|1219.5|0.0||1|FM15-METAR|223|ICAO-KTSP|0.0||1|FM15-METAR|223|ICAO-KTSP|||||||||||||999|C-Calm|9|FM15-METAR|223|ICAO-KTSP|0.0|C-Calm|1|FM15-METAR|223|ICAO-KTSP|||||||||||||100|Derived||FM15-METAR|223|ICAO-KTSP|||||||||||||||||||||||||||||||||||||||||||||||||||||||||||||||||||||||||1026.4||1|FM15-METAR|223|ICAO-KTSP|||||||||||||||||||||||||||||||||||||||||||MET061METAR KTSP 310855Z AUTO 00000KT 10SM CLR 00/00 A3031 RMK AO2;||F||223|ICAO-KTSP
USW00000479|TEHACHAPI MUNI AP|2009|12|31|09|15|35.1350|-118.4392|1219.5|-1.0||1|FM15-METAR|223|ICAO-KTSP|-1.0||1|FM15-METAR|223|ICAO-KTSP|||||||||||||140|N-Normal|1|FM15-METAR|223|ICAO-KTSP|2.1|N-Normal|1|FM15-METAR|223|ICAO-KTSP|||||||||||||100|Derived||FM15-METAR|223|ICAO-KTSP|||||||||||||||||||||||||||||||||||||||||||||||||||||||||||||||||||||||||1026.4||1|FM15-METAR|223|ICAO-KTSP|||||||||||||||||||||||||||||||||||||||||||MET063METAR KTSP 310915Z AUTO 14004KT 10SM CLR M01/M01 A3031 RMK AO2;||F||223|ICAO-KTSP
USW00000479|TEHACHAPI MUNI AP|2009|12|31|09|35|35.1350|-118.4392|1219.5|-1.0||1|FM15-METAR|223|ICAO-KTSP|-1.0||1|FM15-METAR|223|ICAO-KTSP|||||||||||||120|N-Normal|1|FM15-METAR|223|ICAO-KTSP|1.5|N-Normal|1|FM15-METAR|223|ICAO-KTSP|||||||||||||100|Derived||FM15-METAR|223|ICAO-KTSP|||||||||||||||||||||||||||||||||||||||||||||||||||||||||||||||||||||||||1026.8||1|FM15-METAR|223|ICAO-KTSP|||||||||||||||||||||||||||||||||||||||||||MET063METAR KTSP 310935Z AUTO 12003KT 10SM CLR M01/M01 A3032 RMK AO2;||F||223|ICAO-KTSP
USW00000479|TEHACHAPI MUNI AP|2009|12|31|10|00|35.1350|-118.4392|1219.5|-1.0||1|FM15-METAR|223|ICAO-KTSP|-1.0||1|FM15-METAR|223|ICAO-KTSP|||||||||||||999|C-Calm|9|FM15-METAR|223|ICAO-KTSP|0.0|C-Calm|1|FM15-METAR|223|ICAO-KTSP|||||||||||||100|Derived||FM15-METAR|223|ICAO-KTSP|||||||||||||||||||||||||||||||||||||||||||||||||||||||||||||||||||||||||1026.8||1|FM15-METAR|223|ICAO-KTSP|||||||||||||||||||||||||||||||||||||||||||MET063METAR KTSP 310955Z AUTO 00000KT 10SM CLR M01/M01 A3032 RMK AO2;||F||223|ICAO-KTSP
USW00000479|TEHACHAPI MUNI AP|2009|12|31|10|15|35.1350|-118.4392|1219.5|0.0||1|FM15-METAR|223|ICAO-KTSP|-1.0||1|FM15-METAR|223|ICAO-KTSP|||||||||||||130|N-Normal|1|FM15-METAR|223|ICAO-KTSP|3.1|N-Normal|1|FM15-METAR|223|ICAO-KTSP|||||||||||||93|Derived||FM15-METAR|223|ICAO-KTSP|||||||||||||||||||||||||||||||||||||||||||||||||||||||||||||||||||||||||1026.4||1|FM15-METAR|223|ICAO-KTSP|||||||||||||||||||||||||||||||||||||||||||MET062METAR KTSP 311015Z AUTO 13006KT 10SM CLR 00/M01 A3031 RMK AO2;||F||223|ICAO-KTSP
USW00000479|TEHACHAPI MUNI AP|2009|12|31|10|35|35.1350|-118.4392|1219.5|0.0||1|FM15-METAR|223|ICAO-KTSP|-1.0||1|FM15-METAR|223|ICAO-KTSP|||||||||||||120|N-Normal|1|FM15-METAR|223|ICAO-KTSP|2.6|N-Normal|1|FM15-METAR|223|ICAO-KTSP|||||||||||||93|Derived||FM15-METAR|223|ICAO-KTSP|||||||||||||||||||||||||||||||||||||||||||||||||||||||||||||||||||||||||1026.8||1|FM15-METAR|223|ICAO-KTSP|||||||||||||||||||||||||||||||||||||||||||MET062METAR KTSP 311035Z AUTO 12005KT 10SM CLR 00/M01 A3032 RMK AO2;||F||223|ICAO-KTSP
USW00000479|TEHACHAPI MUNI AP|2009|12|31|11|00|35.1350|-118.4392|1219.5|0.0||1|FM15-METAR|223|ICAO-KTSP|-1.0||1|FM15-METAR|223|ICAO-KTSP|||||||||||||999|C-Calm|9|FM15-METAR|223|ICAO-KTSP|0.0|C-Calm|1|FM15-METAR|223|ICAO-KTSP|||||||||||||93|Derived||FM15-METAR|223|ICAO-KTSP|||||||||||||||||||||||||||||||||||||||||||||||||||||||||||||||||||||||||1027.1||1|FM15-METAR|223|ICAO-KTSP|||||||||||||||||||||||||||||||||||||||||||MET062METAR KTSP 311055Z AUTO 00000KT 10SM CLR 00/M01 A3033 RMK AO2;||F||223|ICAO-KTSP
USW00000479|TEHACHAPI MUNI AP|2009|12|31|11|15|35.1350|-118.4392|1219.5|-1.0||1|FM15-METAR|223|ICAO-KTSP|-1.0||1|FM15-METAR|223|ICAO-KTSP|||||||||||||160|N-Normal|1|FM15-METAR|223|ICAO-KTSP|1.5|N-Normal|1|FM15-METAR|223|ICAO-KTSP|||||||||||||100|Derived||FM15-METAR|223|ICAO-KTSP|||||||||||||||||||||||||||||||||||||||||||||||||||||||||||||||||||||||||1026.8||1|FM15-METAR|223|ICAO-KTSP|||||||||||||||||||||||||||||||||||||||||||MET063METAR KTSP 311115Z AUTO 16003KT 10SM CLR M01/M01 A3032 RMK AO2;||F||223|ICAO-KTSP
USW00000479|TEHACHAPI MUNI AP|2009|12|31|11|35|35.1350|-118.4392|1219.5|-2.0||1|FM15-METAR|223|ICAO-KTSP|-2.0||1|FM15-METAR|223|ICAO-KTSP|||||||||||||120|N-Normal|1|FM15-METAR|223|ICAO-KTSP|2.1|N-Normal|1|FM15-METAR|223|ICAO-KTSP|||||||||||||100|Derived||FM15-METAR|223|ICAO-KTSP|||||||||||||||||||||||||||||||||||||||||||||||||||||||||||||||||||||||||1026.8||1|FM15-METAR|223|ICAO-KTSP|||||||||||||||||||||||||||||||||||||||||||MET063METAR KTSP 311135Z AUTO 12004KT 10SM CLR M02/M02 A3032 RMK AO2;||F||223|ICAO-KTSP
USW00000479|TEHACHAPI MUNI AP|2009|12|31|12|00|35.1350|-118.4392|1219.5|-1.0||1|FM15-METAR|223|ICAO-KTSP|-1.0||1|FM15-METAR|223|ICAO-KTSP|||||||||||||130|N-Normal|1|FM15-METAR|223|ICAO-KTSP|3.1|N-Normal|1|FM15-METAR|223|ICAO-KTSP|||||||||||||100|Derived||FM15-METAR|223|ICAO-KTSP|||||||||||||||||||||||||||||||||||||||||||||||||||||||||||||||||||||||||1026.4||1|FM15-METAR|223|ICAO-KTSP|||||||||||||||||||||||||||||||||||||||||||MET063METAR KTSP 311155Z AUTO 13006KT 10SM CLR M01/M01 A3031 RMK AO2;||F||223|ICAO-KTSP
USW00000479|TEHACHAPI MUNI AP|2009|12|31|12|15|35.1350|-118.4392|1219.5|-2.0||1|FM15-METAR|223|ICAO-KTSP|-2.0||1|FM15-METAR|223|ICAO-KTSP|||||||||||||090|N-Normal|1|FM15-METAR|223|ICAO-KTSP|2.1|N-Normal|1|FM15-METAR|223|ICAO-KTSP|||||||||||||100|Derived||FM15-METAR|223|ICAO-KTSP|||||||||||||||||||||||||||||||||||||||||||||||||||||||||||||||||||||||||1026.8||1|FM15-METAR|223|ICAO-KTSP|||||||||||||||||||||||||||||||||||||||||||MET063METAR KTSP 311215Z AUTO 09004KT 10SM CLR M02/M02 A3032 RMK AO2;||F||223|ICAO-KTSP
USW00000479|TEHACHAPI MUNI AP|2009|12|31|12|35|35.1350|-118.4392|1219.5|0.0||1|FM15-METAR|223|ICAO-KTSP|-1.0||1|FM15-METAR|223|ICAO-KTSP|||||||||||||090|N-Normal|1|FM15-METAR|223|ICAO-KTSP|1.5|N-Normal|1|FM15-METAR|223|ICAO-KTSP|||||||||||||93|Derived||FM15-METAR|223|ICAO-KTSP|||||||||||||||||||||||||||||||||||||||||||||||||||||||||||||||||||||||||1026.8||1|FM15-METAR|223|ICAO-KTSP|||||||||||||||||||||||||||||||||||||||||||MET062METAR KTSP 311235Z AUTO 09003KT 10SM CLR 00/M01 A3032 RMK AO2;||F||223|ICAO-KTSP
USW00000479|TEHACHAPI MUNI AP|2009|12|31|13|00|35.1350|-118.4392|1219.5|-1.0||1|FM15-METAR|223|ICAO-KTSP|-2.0||1|FM15-METAR|223|ICAO-KTSP|||||||||||||110|N-Normal|1|FM15-METAR|223|ICAO-KTSP|3.1|N-Normal|1|FM15-METAR|223|ICAO-KTSP|||||||||||||93|Derived||FM15-METAR|223|ICAO-KTSP|||||||||||||||||||||||||||||||||||||||||||||||||||||||||||||||||||||||||1026.8||1|FM15-METAR|223|ICAO-KTSP|||||||||||||||||||||||||||||||||||||||||||MET063METAR KTSP 311255Z AUTO 11006KT 10SM CLR M01/M02 A3032 RMK AO2;||F||223|ICAO-KTSP
USW00000479|TEHACHAPI MUNI AP|2009|12|31|13|15|35.1350|-118.4392|1219.5|0.0||1|FM15-METAR|223|ICAO-KTSP|-2.0||1|FM15-METAR|223|ICAO-KTSP|||||||||||||090|N-Normal|1|FM15-METAR|223|ICAO-KTSP|5.1|N-Normal|1|FM15-METAR|223|ICAO-KTSP|||||||||||||87|Derived||FM15-METAR|223|ICAO-KTSP|||||||||||||||||||||||||||||||||||||||||||||||||||||||||||||||||||||||||1026.8||1|FM15-METAR|223|ICAO-KTSP|||||||||||||||||||||||||||||||||||||||||||MET062METAR KTSP 311315Z AUTO 09010KT 10SM CLR 00/M02 A3032 RMK AO2;||F||223|ICAO-KTSP
USW00000479|TEHACHAPI MUNI AP|2009|12|31|13|35|35.1350|-118.4392|1219.5|0.0||1|FM15-METAR|223|ICAO-KTSP|-2.0||1|FM15-METAR|223|ICAO-KTSP|||||||||||||100|N-Normal|1|FM15-METAR|223|ICAO-KTSP|3.6|N-Normal|1|FM15-METAR|223|ICAO-KTSP|||||||||||||87|Derived||FM15-METAR|223|ICAO-KTSP|||||||||||||||||||||||||||||||||||||||||||||||||||||||||||||||||||||||||1027.1||1|FM15-METAR|223|ICAO-KTSP|||||||||||||||||||||||||||||||||||||||||||MET062METAR KTSP 311335Z AUTO 10007KT 10SM CLR 00/M02 A3033 RMK AO2;||F||223|ICAO-KTSP
USW00000479|TEHACHAPI MUNI AP|2009|12|31|14|00|35.1350|-118.4392|1219.5|1.0||1|FM15-METAR|223|ICAO-KTSP|-2.0||1|FM15-METAR|223|ICAO-KTSP|||||||||||||100|N-Normal|1|FM15-METAR|223|ICAO-KTSP|4.1|N-Normal|1|FM15-METAR|223|ICAO-KTSP|||||||||||||81|Derived||FM15-METAR|223|ICAO-KTSP|||||||||||||||||||||||||||||||||||||||||||||||||||||||||||||||||||||||||1027.1||1|FM15-METAR|223|ICAO-KTSP|||||||||||||||||||||||||||||||||||||||||||MET062METAR KTSP 311355Z AUTO 10008KT 10SM CLR 01/M02 A3033 RMK AO2;||F||223|ICAO-KTSP
USW00000479|TEHACHAPI MUNI AP|2009|12|31|14|15|35.1350|-118.4392|1219.5|||||||||||||||||||||||||||||||||||||||||||||||||||||||||||||||||||||||||||||||||||||||||||||||||||||||||||||||||||||||||||||||||||||||||||||||||||||||||||||||||||||||||||||||MET054METAR KTSP 311415Z AUTO RMK AO2 PWINO PNO FZRANO TSNO;||F||223|ICAO-KTSP
USW00000479|TEHACHAPI MUNI AP|2009|12|31|14|35|35.1350|-118.4392|1219.5|||||||||||||||||||||||||100|N-Normal|1|FM16-SPECI|223|ICAO-KTSP|3.6|N-Normal|1|FM16-SPECI|223|ICAO-KTSP|||||||||||||||||||||||||||||||||||||||||||||||||||||||||||||||||||||||||||||||||||||||||||1027.4||1|FM16-SPECI|223|ICAO-KTSP|||||||||||||||||||||||||||||||||||||||||||MET046METAR KTSP 311435Z AUTO 10007KT A3034 RMK AO2;||F||223|ICAO-KTSP
USW00000479|TEHACHAPI MUNI AP|2009|12|31|15|00|35.1350|-118.4392|1219.5|-2.0||1|FM15-METAR|223|ICAO-KTSP|-3.0||1|FM15-METAR|223|ICAO-KTSP|||||||||||||130|N-Normal|1|FM15-METAR|223|ICAO-KTSP|3.6|N-Normal|1|FM15-METAR|223|ICAO-KTSP|||||||||||||93|Derived||FM15-METAR|223|ICAO-KTSP|||||||||||||||||||||||||||||||||||||||||||||||||||||||||||||||||||||||||1027.8||1|FM15-METAR|223|ICAO-KTSP|||||||||||||||||||||||||||||||||||||||||||MET063METAR KTSP 311455Z AUTO 13007KT 10SM CLR M02/M03 A3035 RMK AO2;||F||223|ICAO-KTSP
USW00000479|TEHACHAPI MUNI AP|2009|12|31|15|15|35.1350|-118.4392|1219.5|-1.0||1|FM15-METAR|223|ICAO-KTSP|-2.0||1|FM15-METAR|223|ICAO-KTSP|||||||||||||110|N-Normal|1|FM15-METAR|223|ICAO-KTSP|4.1|N-Normal|1|FM15-METAR|223|ICAO-KTSP|||||||||||||93|Derived||FM15-METAR|223|ICAO-KTSP|||||||||||||||||||||||||||||||||||||||||||||||||||||||||||||||||||||||||1028.1||1|FM15-METAR|223|ICAO-KTSP|||||||||||||||||||||||||||||||||||||||||||MET063METAR KTSP 311515Z AUTO 11008KT 10SM CLR M01/M02 A3036 RMK AO2;||F||223|ICAO-KTSP
USW00000479|TEHACHAPI MUNI AP|2009|12|31|15|35|35.1350|-118.4392|1219.5|0.0||1|FM15-METAR|223|ICAO-KTSP|-2.0||1|FM15-METAR|223|ICAO-KTSP|||||||||||||120|N-Normal|1|FM15-METAR|223|ICAO-KTSP|4.1|N-Normal|1|FM15-METAR|223|ICAO-KTSP|||||||||||||87|Derived||FM15-METAR|223|ICAO-KTSP|||||||||||||||||||||||||||||||||||||||||||||||||||||||||||||||||||||||||1027.8||1|FM15-METAR|223|ICAO-KTSP|||||||||||||||||||||||||||||||||||||||||||MET062METAR KTSP 311535Z AUTO 12008KT 10SM CLR 00/M02 A3035 RMK AO2;||F||223|ICAO-KTSP
USW00000479|TEHACHAPI MUNI AP|2009|12|31|16|00|35.1350|-118.4392|1219.5|0.0||1|FM15-METAR|223|ICAO-KTSP|-2.0||1|FM15-METAR|223|ICAO-KTSP|||||||||||||120|N-Normal|1|FM15-METAR|223|ICAO-KTSP|4.6|N-Normal|1|FM15-METAR|223|ICAO-KTSP|||||||||||||87|Derived||FM15-METAR|223|ICAO-KTSP|||||||||||||||||||||||||||||||||||||||||||||||||||||||||||||||||||||||||1027.8||1|FM15-METAR|223|ICAO-KTSP|||||||||||||||||||||||||||||||||||||||||||MET062METAR KTSP 311555Z AUTO 12009KT 10SM CLR 00/M02 A3035 RMK AO2;||F||223|ICAO-KTSP
USW00000479|TEHACHAPI MUNI AP|2009|12|31|16|15|35.1350|-118.4392|1219.5|0.0||1|FM15-METAR|223|ICAO-KTSP|-1.0||1|FM15-METAR|223|ICAO-KTSP|||||||||||||120|N-Normal|1|FM15-METAR|223|ICAO-KTSP|4.6|N-Normal|1|FM15-METAR|223|ICAO-KTSP|||||||||||||93|Derived||FM15-METAR|223|ICAO-KTSP|||||||||||||||||||||||||||||||||||||||||||||||||||||||||||||||||||||||||1028.1||1|FM15-METAR|223|ICAO-KTSP|||||||||||||||||||||||||||||||||||||||||||MET062METAR KTSP 311615Z AUTO 12009KT 10SM CLR 00/M01 A3036 RMK AO2;||F||223|ICAO-KTSP
USW00000479|TEHACHAPI MUNI AP|2009|12|31|16|35|35.1350|-118.4392|1219.5|2.0||1|FM15-METAR|223|ICAO-KTSP|0.0||1|FM15-METAR|223|ICAO-KTSP|||||||||||||120|N-Normal|1|FM15-METAR|223|ICAO-KTSP|3.6|N-Normal|1|FM15-METAR|223|ICAO-KTSP|||||||||||||87|Derived||FM15-METAR|223|ICAO-KTSP|||||||||||||||||||||||||||||||||||||||||||||||||||||||||||||||||||||||||1028.4||1|FM15-METAR|223|ICAO-KTSP|||||||||||||||||||||||||||||||||||||||||||MET061METAR KTSP 311635Z AUTO 12007KT 10SM CLR 02/00 A3037 RMK AO2;||F||223|ICAO-KTSP
USW00000479|TEHACHAPI MUNI AP|2009|12|31|17|00|35.1350|-118.4392|1219.5|4.0||1|FM15-METAR|223|ICAO-KTSP|-1.0||1|FM15-METAR|223|ICAO-KTSP|||||||||||||100|N-Normal|1|FM15-METAR|223|ICAO-KTSP|3.6|N-Normal|1|FM15-METAR|223|ICAO-KTSP|||||||||||||70|Derived||FM15-METAR|223|ICAO-KTSP|||||||||||||||||||||||||||||||||||||||||||||||||||||||||||||||||||||||||1028.8||1|FM15-METAR|223|ICAO-KTSP|||||||||||||||||||||||||||||||||||||||||||MET062METAR KTSP 311655Z AUTO 10007KT 10SM CLR 04/M01 A3038 RMK AO2;||F||223|ICAO-KTSP
USW00000479|TEHACHAPI MUNI AP|2009|12|31|17|15|35.1350|-118.4392|1219.5|5.0||1|FM15-METAR|223|ICAO-KTSP|-2.0||1|FM15-METAR|223|ICAO-KTSP|||||||||||||100|N-Normal|1|FM15-METAR|223|ICAO-KTSP|4.1|N-Normal|1|FM15-METAR|223|ICAO-KTSP|||||||||||||61|Derived||FM15-METAR|223|ICAO-KTSP|||||||||||||||||||||||||||||||||||||||||||||||||||||||||||||||||||||||||1029.1||1|FM15-METAR|223|ICAO-KTSP|||||||||||||||||||||||||||||||||||||||||||MET061METAR KTSP 311715Z AUTO 10008KT 9SM CLR 05/M02 A3039 RMK AO2;||F||223|ICAO-KTSP
USW00000479|TEHACHAPI MUNI AP|2009|12|31|17|35|35.1350|-118.4392|1219.5|5.0||1|FM15-METAR|223|ICAO-KTSP|-1.0||1|FM15-METAR|223|ICAO-KTSP|||||||||||||100|N-Normal|1|FM15-METAR|223|ICAO-KTSP|4.1|N-Normal|1|FM15-METAR|223|ICAO-KTSP|||||||||||||66|Derived||FM15-METAR|223|ICAO-KTSP|||||||||||||||||||||||||||||||||||||||||||||||||||||||||||||||||||||||||1029.8||1|FM15-METAR|223|ICAO-KTSP|||||||||||||||||||||||||||||||||||||||||||MET062METAR KTSP 311735Z AUTO 10008KT 10SM CLR 05/M01 A3041 RMK AO2;||F||223|ICAO-KTSP
USW00000479|TEHACHAPI MUNI AP|2009|12|31|18|00|35.1350|-118.4392|1219.5|5.0||1|FM15-METAR|223|ICAO-KTSP|-1.0||1|FM15-METAR|223|ICAO-KTSP|||||||||||||110|N-Normal|1|FM15-METAR|223|ICAO-KTSP|5.7|N-Normal|1|FM15-METAR|223|ICAO-KTSP|||||||||||||66|Derived||FM15-METAR|223|ICAO-KTSP|||||||||||||||||||||||||||||||||||||||||||||||||||||||||||||||||||||||||1029.8||1|FM15-METAR|223|ICAO-KTSP|||||||||||||||||||||||||||||||||||||||||||MET062METAR KTSP 311755Z AUTO 11011KT 10SM CLR 05/M01 A3041 RMK AO2;||F||223|ICAO-KTSP
USW00000479|TEHACHAPI MUNI AP|2009|12|31|18|15|35.1350|-118.4392|1219.5|7.0||1|FM15-METAR|223|ICAO-KTSP|-1.0||1|FM15-METAR|223|ICAO-KTSP|||||||||||||120|N-Normal|1|FM15-METAR|223|ICAO-KTSP|5.7|N-Normal|1|FM15-METAR|223|ICAO-KTSP|||||||||||||57|Derived||FM15-METAR|223|ICAO-KTSP|||||||||||||||||||||||||||||||||||||||||||||||||||||||||||||||||||||||||1029.5||1|FM15-METAR|223|ICAO-KTSP|||||||||||||||||||||||||||||||||||||||||||MET061METAR KTSP 311815Z AUTO 12011KT 8SM CLR 07/M01 A3040 RMK AO2;||F||223|ICAO-KTSP
USW00000479|TEHACHAPI MUNI AP|2009|12|31|18|35|35.1350|-118.4392|1219.5|7.0||1|FM15-METAR|223|ICAO-KTSP|-2.0||1|FM15-METAR|223|ICAO-KTSP|||||||||||||110|N-Normal|1|FM15-METAR|223|ICAO-KTSP|6.2|N-Normal|1|FM15-METAR|223|ICAO-KTSP|||||||||||||53|Derived||FM15-METAR|223|ICAO-KTSP|||||||||||||||||||||||||||||||||||||||||||||||||||||||||||||||||||||||||1029.5||1|FM15-METAR|223|ICAO-KTSP|||||||||||||||||||||||||||||||||||||||||||MET062METAR KTSP 311835Z AUTO 11012KT 10SM CLR 07/M02 A3040 RMK AO2;||F||223|ICAO-KTSP
USW00000479|TEHACHAPI MUNI AP|2009|12|31|19|00|35.1350|-118.4392|1219.5|7.0||1|FM15-METAR|223|ICAO-KTSP|-1.0||1|FM15-METAR|223|ICAO-KTSP|||||||||||||120|N-Normal|1|FM15-METAR|223|ICAO-KTSP|4.6|N-Normal|1|FM15-METAR|223|ICAO-KTSP|8.2||1|FM15-METAR|223|ICAO-KTSP|||||||57|Derived||FM15-METAR|223|ICAO-KTSP|||||||||||||||||||||||||||||||||||||||||||||||||||||||||||||||||||||||||1029.8||1|FM15-METAR|223|ICAO-KTSP|||||||||||||||||||||||||||||||||||||||||||MET065METAR KTSP 311855Z AUTO 12009G16KT 10SM CLR 07/M01 A3041 RMK AO2;||F||223|ICAO-KTSP
USW00000479|TEHACHAPI MUNI AP|2009|12|31|19|15|35.1350|-118.4392|1219.5|8.0||1|FM15-METAR|223|ICAO-KTSP|-1.0||1|FM15-METAR|223|ICAO-KTSP|||||||||||||120|N-Normal|1|FM15-METAR|223|ICAO-KTSP|6.2|N-Normal|1|FM15-METAR|223|ICAO-KTSP|||||||||||||53|Derived||FM15-METAR|223|ICAO-KTSP|||||||||||||||||||||||||||||||||||||||||||||||||||||||||||||||||||||||||1029.5||1|FM15-METAR|223|ICAO-KTSP|||||||||||||||||||||||||||||||||||||||||||MET062METAR KTSP 311915Z AUTO 12012KT 10SM CLR 08/M01 A3040 RMK AO2;||F||223|ICAO-KTSP
USW00000479|TEHACHAPI MUNI AP|2009|12|31|19|35|35.1350|-118.4392|1219.5|8.0||1|FM15-METAR|223|ICAO-KTSP|-2.0||1|FM15-METAR|223|ICAO-KTSP|||||||||||||110|N-Normal|1|FM15-METAR|223|ICAO-KTSP|6.7|N-Normal|1|FM15-METAR|223|ICAO-KTSP|8.2||1|FM15-METAR|223|ICAO-KTSP|||||||50|Derived||FM15-METAR|223|ICAO-KTSP|||||||||||||||||||||||||||||||||||||||||||||||||||||||||||||||||||||||||1029.1||1|FM15-METAR|223|ICAO-KTSP|||||||||||||||||||||||||||||||||||||||||||MET064METAR KTSP 311935Z AUTO 11013G16KT 9SM CLR 08/M02 A3039 RMK AO2;||F||223|ICAO-KTSP
USW00000479|TEHACHAPI MUNI AP|2009|12|31|20|00|35.1350|-118.4392|1219.5|7.0||1|FM15-METAR|223|ICAO-KTSP|-2.0||1|FM15-METAR|223|ICAO-KTSP|||||||||||||110|N-Normal|1|FM15-METAR|223|ICAO-KTSP|6.7|N-Normal|1|FM15-METAR|223|ICAO-KTSP|||||||||||||53|Derived||FM15-METAR|223|ICAO-KTSP|||||||||||||||||||||||||||||||||||||||||||||||||||||||||||||||||||||||||1029.1||1|FM15-METAR|223|ICAO-KTSP|||||||||||||||||||||||||||||||||||||||||||MET062METAR KTSP 311955Z AUTO 11013KT 10SM CLR 07/M02 A3039 RMK AO2;||F||223|ICAO-KTSP
USW00000479|TEHACHAPI MUNI AP|2009|12|31|20|15|35.1350|-118.4392|1219.5|7.0||1|FM15-METAR|223|ICAO-KTSP|-2.0||1|FM15-METAR|223|ICAO-KTSP|||||||||||||100|N-Normal|1|FM15-METAR|223|ICAO-KTSP|5.7|N-Normal|1|FM15-METAR|223|ICAO-KTSP|||||||||||||53|Derived||FM15-METAR|223|ICAO-KTSP|||||||||||||||||||||||||||||||||||||||||||||||||||||||||||||||||||||||||1028.8||1|FM15-METAR|223|ICAO-KTSP|||||||||||||||||||||||||||||||||||||||||||MET062METAR KTSP 312015Z AUTO 10011KT 10SM CLR 07/M02 A3038 RMK AO2;||F||223|ICAO-KTSP
USW00000479|TEHACHAPI MUNI AP|2009|12|31|20|35|35.1350|-118.4392|1219.5|7.0||1|FM15-METAR|223|ICAO-KTSP|-3.0||1|FM15-METAR|223|ICAO-KTSP|||||||||||||090|N-Normal|1|FM15-METAR|223|ICAO-KTSP|5.1|N-Normal|1|FM15-METAR|223|ICAO-KTSP|||||||||||||49|Derived||FM15-METAR|223|ICAO-KTSP|||||||||||||||||||||||||||||||||||||||||||||||||||||||||||||||||||||||||1028.4||1|FM15-METAR|223|ICAO-KTSP|||||||||||||||||||||||||||||||||||||||||||MET062METAR KTSP 312035Z AUTO 09010KT 10SM CLR 07/M03 A3037 RMK AO2;||F||223|ICAO-KTSP
USW00000479|TEHACHAPI MUNI AP|2009|12|31|21|00|35.1350|-118.4392|1219.5|8.0||1|FM15-METAR|223|ICAO-KTSP|-3.0||1|FM15-METAR|223|ICAO-KTSP|||||||||||||100|N-Normal|1|FM15-METAR|223|ICAO-KTSP|5.1|N-Normal|1|FM15-METAR|223|ICAO-KTSP|||||||||||||46|Derived||FM15-METAR|223|ICAO-KTSP|||||||||||||||||||||||||||||||||||||||||||||||||||||||||||||||||||||||||1028.1||1|FM15-METAR|223|ICAO-KTSP|||||||||||||||||||||||||||||||||||||||||||MET062METAR KTSP 312055Z AUTO 10010KT 10SM CLR 08/M03 A3036 RMK AO2;||F||223|ICAO-KTSP
USW00000479|TEHACHAPI MUNI AP|2009|12|31|21|15|35.1350|-118.4392|1219.5|8.0||1|FM15-METAR|223|ICAO-KTSP|-3.0||1|FM15-METAR|223|ICAO-KTSP|||||||||||||110|N-Normal|1|FM15-METAR|223|ICAO-KTSP|4.6|N-Normal|1|FM15-METAR|223|ICAO-KTSP|||||||||||||46|Derived||FM15-METAR|223|ICAO-KTSP|||||||||||||||||||||||||||||||||||||||||||||||||||||||||||||||||||||||||1028.1||1|FM15-METAR|223|ICAO-KTSP|||||||||||||||||||||||||||||||||||||||||||MET062METAR KTSP 312115Z AUTO 11009KT 10SM CLR 08/M03 A3036 RMK AO2;||F||223|ICAO-KTSP
USW00000479|TEHACHAPI MUNI AP|2009|12|31|21|35|35.1350|-118.4392|1219.5|8.0||1|FM15-METAR|223|ICAO-KTSP|-3.0||1|FM15-METAR|223|ICAO-KTSP|||||||||||||100|N-Normal|1|FM15-METAR|223|ICAO-KTSP|3.6|N-Normal|1|FM15-METAR|223|ICAO-KTSP|||||||||||||46|Derived||FM15-METAR|223|ICAO-KTSP|||||||||||||||||||||||||||||||||||||||||||||||||||||||||||||||||||||||||1027.8||1|FM15-METAR|223|ICAO-KTSP|||||||||||||||||||||||||||||||||||||||||||MET062METAR KTSP 312135Z AUTO 10007KT 10SM CLR 08/M03 A3035 RMK AO2;||F||223|ICAO-KTSP
USW00000479|TEHACHAPI MUNI AP|2009|12|31|22|00|35.1350|-118.4392|1219.5|8.0||1|FM15-METAR|223|ICAO-KTSP|-3.0||1|FM15-METAR|223|ICAO-KTSP|||||||||||||110|N-Normal|1|FM15-METAR|223|ICAO-KTSP|4.1|N-Normal|1|FM15-METAR|223|ICAO-KTSP|||||||||||||46|Derived||FM15-METAR|223|ICAO-KTSP|||||||||||||||||||||||||||||||||||||||||||||||||||||||||||||||||||||||||1027.8||1|FM15-METAR|223|ICAO-KTSP|||||||||||||||||||||||||||||||||||||||||||MET062METAR KTSP 312155Z AUTO 11008KT 10SM CLR 08/M03 A3035 RMK AO2;||F||223|ICAO-KTSP
USW00000479|TEHACHAPI MUNI AP|2009|12|31|22|15|35.1350|-118.4392|1219.5|8.0||1|FM15-METAR|223|ICAO-KTSP|-3.0||1|FM15-METAR|223|ICAO-KTSP|||||||||||||090|N-Normal|1|FM15-METAR|223|ICAO-KTSP|3.1|N-Normal|1|FM15-METAR|223|ICAO-KTSP|||||||||||||46|Derived||FM15-METAR|223|ICAO-KTSP|||||||||||||||||||||||||||||||||||||||||||||||||||||||||||||||||||||||||1027.8||1|FM15-METAR|223|ICAO-KTSP|||||||||||||||||||||||||||||||||||||||||||MET062METAR KTSP 312215Z AUTO 09006KT 10SM CLR 08/M03 A3035 RMK AO2;||F||223|ICAO-KTSP
USW00000479|TEHACHAPI MUNI AP|2009|12|31|22|35|35.1350|-118.4392|1219.5|8.0||1|FM15-METAR|223|ICAO-KTSP|-4.0||1|FM15-METAR|223|ICAO-KTSP|||||||||||||110|N-Normal|1|FM15-METAR|223|ICAO-KTSP|3.6|N-Normal|1|FM15-METAR|223|ICAO-KTSP|||||||||||||43|Derived||FM15-METAR|223|ICAO-KTSP|||||||||||||||||||||||||||||||||||||||||||||||||||||||||||||||||||||||||1027.8||1|FM15-METAR|223|ICAO-KTSP|||||||||||||||||||||||||||||||||||||||||||MET062METAR KTSP 312235Z AUTO 11007KT 10SM CLR 08/M04 A3035 RMK AO2;||F||223|ICAO-KTSP
USW00000479|TEHACHAPI MUNI AP|2009|12|31|23|00|35.1350|-118.4392|1219.5|8.0||1|FM15-METAR|223|ICAO-KTSP|-4.0||1|FM15-METAR|223|ICAO-KTSP|||||||||||||100|N-Normal|1|FM15-METAR|223|ICAO-KTSP|2.6|N-Normal|1|FM15-METAR|223|ICAO-KTSP|||||||||||||43|Derived||FM15-METAR|223|ICAO-KTSP|||||||||||||||||||||||||||||||||||||||||||||||||||||||||||||||||||||||||1027.8||1|FM15-METAR|223|ICAO-KTSP|||||||||||||||||||||||||||||||||||||||||||MET062METAR KTSP 312255Z AUTO 10005KT 10SM CLR 08/M04 A3035 RMK AO2;||F||223|ICAO-KTSP
USW00000479|TEHACHAPI MUNI AP|2009|12|31|23|15|35.1350|-118.4392|1219.5|9.0||1|FM15-METAR|223|ICAO-KTSP|-4.0||1|FM15-METAR|223|ICAO-KTSP|||||||||||||090|N-Normal|1|FM15-METAR|223|ICAO-KTSP|3.1|N-Normal|1|FM15-METAR|223|ICAO-KTSP|||||||||||||40|Derived||FM15-METAR|223|ICAO-KTSP|||||||||||||||||||||||||||||||||||||||||||||||||||||||||||||||||||||||||1027.8||1|FM15-METAR|223|ICAO-KTSP|||||||||||||||||||||||||||||||||||||||||||MET062METAR KTSP 312315Z AUTO 09006KT 10SM CLR 09/M04 A3035 RMK AO2;||F||223|ICAO-KTSP
USW00000479|TEHACHAPI MUNI AP|2009|12|31|23|35|35.1350|-118.4392|1219.5|9.0||1|FM15-METAR|223|ICAO-KTSP|-4.0||1|FM15-METAR|223|ICAO-KTSP|||||||||||||090|N-Normal|1|FM15-METAR|223|ICAO-KTSP|4.1|N-Normal|1|FM15-METAR|223|ICAO-KTSP|||||||||||||40|Derived||FM15-METAR|223|ICAO-KTSP|||||||||||||||||||||||||||||||||||||||||||||||||||||||||||||||||||||||||1027.8||1|FM15-METAR|223|ICAO-KTSP|||||||||||||||||||||||||||||||||||||||||||MET062METAR KTSP 312335Z AUTO 09008KT 10SM CLR 09/M04 A3035 RMK AO2;||F||223|ICAO-KTSP
